{"type":"Feature","properties":{"GID_3":"BOL.4.2.1_2","GID_0":"BOL","country":"Bolivia","GID_1":"BOL.4_1","province":"LaPaz","NL_NAME_1":"NA","GID_2":"BOL.4.2_2","county":"AbelIturralde","NL_NAME_2":"NA","city":"Ixiamas","VARNAME_3":"NA","NL_NAME_3":"NA","TYPE_3":"District","ENGTYPE_3":"Distrito","CC_3":"NA","HASC_3":"NA","name":"Ixiamas.city"},
"geometry":{"type": "MultiPolygon","coordinates": [[[[-66.9673,-12.4903,141.0],[-67.9963,-11.8497,152.5],[-67.997,-11.8588,153.0],[-67.9881,-11.8728,153.5],[-67.9776,-11.8995,154.5],[-67.9746,-11.9193,155.0],[-67.9776,-11.9359,155.5],[-67.9871,-11.9483,156.0],[-68.0126,-11.9726,156.5],[-68.0178,-11.9767,156.5],[-68.0464,-11.9885,156.5],[-68.0614,-11.9982,156.5],[-68.0983,-12.0348,156.5],[-68.1036,-12.0373,156.5],[-68.1107,-12.0367,156.5],[-68.1171,-12.0343,156.5],[-68.1281,-12.0244,156.5],[-68.1333,-12.0219,156.5],[-68.1564,-12.0221,156.5],[-68.1842,-12.0111,156.5],[-68.2086,-12.0098,156.5],[-68.2334,-12.0108,156.5],[-68.2366,-12.0128,156.5],[-68.2386,-12.0211,156.5],[-68.2317,-12.041,156.5],[-68.2311,-12.0563,156.5],[-68.2272,-12.0751,157.0],[-68.2264,-12.0842,157.0],[-68.2306,-12.0983,157.0],[-68.2311,-12.1048,157.0],[-68.2253,-12.1271,157.0],[-68.2253,-12.1383,157.0],[-68.2342,-12.1693,157.0],[-68.2443,-12.1874,157.0],[-68.2498,-12.1923,157.0],[-68.2712,-12.2048,157.0],[-68.2829,-12.2172,157.0],[-68.2929,-12.2246,157.0],[-68.3015,-12.2281,157.0],[-68.3106,-12.2289,157.0],[-68.339,-12.22,157.0],[-68.3582,-12.2225,157.0],[-68.3782,-12.2312,157.0],[-68.4041,-12.2542,157.0],[-68.4117,-12.264099999999999,157.0],[-68.415,-12.2746,157.0],[-68.4144,-12.2812,157.0],[-68.4029,-12.3027,157.0],[-68.4002,-12.3323,157.5],[-68.4046,-12.3636,158.0],[-68.4193,-12.382,158.5],[-68.4385,-12.3975,159.0],[-68.4502,-12.4109,159.0],[-68.4609,-12.4203,159.5],[-68.472,-12.4232,159.5],[-68.4856,-12.4203,160.0],[-68.4922,-12.4168,160.0],[-68.5022,-12.4033,160.0],[-68.5082,-12.3993,160.0],[-68.5196,-12.3952,160.0],[-68.5562,-12.3902,160.0],[-68.5712,-12.3897,160.0],[-68.5837,-12.3936,160.0],[-68.5882,-12.3969,160.0],[-68.5905,-12.4006,160.0],[-68.5901,-12.4058,160.0],[-68.5815,-12.4197,160.0],[-68.5597,-12.4443,160.0],[-68.5581,-12.4478,160.0],[-68.5586,-12.4543,160.0],[-68.5626,-12.4591,160.0],[-68.6183,-12.4954,160.0],[-68.6375,-12.4984,160.0],[-68.6522,-12.4977,160.0],[-68.6534,-12.5098,173.5708],[-68.6588,-12.5143,165.9335],[-68.661,-12.5192,165.2671],[-68.6563,-12.5235,167.5924],[-68.6541,-12.5303,166.3131],[-68.6568,-12.5363,195.0852],[-68.6614,-12.5361,167.1507],[-68.6616,-12.5306,170.0315],[-68.6643,-12.5246,174.6512],[-68.6709,-12.5254,171.4498],[-68.6805,-12.5226,170.9216],[-68.683,-12.5234,166.7273],[-68.6819,-12.5279,176.0528],[-68.6748,-12.5302,171.3497],[-68.6727,-12.5424,169.7363],[-68.6742,-12.5523,169.1901],[-68.6765,-12.5549,175.1594],[-68.6917,-12.5574,170.7174],[-68.692,-12.5638,187.8145],[-68.6999,-12.5722,174.2922],[-68.6976,-12.5782,170.0856],[-68.6923,-12.5821,194.0226],[-68.6926,-12.5851,184.2796],[-68.6981,-12.5887,171.8187],[-68.6992,-12.5811,167.2777],[-68.701,-12.5795,172.8347],[-68.7026,-12.5851,193.849],[-68.7114,-12.5927,191.9573],[-68.7142,-12.6052,173.6787],[-68.7197,-12.6056,176.0845],[-68.7212,-12.603,187.4631],[-68.7233,-12.6029,175.0898],[-68.7255,-12.6071,191.1791],[-68.7326,-12.6106,172.6137],[-68.7346,-12.6255,177.1681],[-68.7417,-12.6341,176.3507],[-68.7342,-12.6435,175.5377],[-68.7315,-12.6518,179.0297],[-68.7322,-12.6542,175.8214],[-68.7378,-12.6573,188.1456],[-68.7345,-12.6681,178.3561],[-68.7327,-12.6693,168.7462],[-68.7299,-12.6675,170.5013],[-68.7291,-12.6724,194.0556],[-68.7267,-12.6747,193.7288],[-68.725,-12.6685,184.886],[-68.7209,-12.6674,191.1088],[-68.7178,-12.6777,173.9203],[-68.7124,-12.6806,173.0333],[-68.7204,-12.6877,172.9657],[-68.7287,-12.6889,177.6018],[-68.7352,-12.6923,182.7675],[-68.7358,-12.6955,194.444],[-68.7327,-12.6972,177.8346],[-68.729,-12.6911,174.4574],[-68.7263,-12.691,188.0132],[-68.7251,-12.6965,193.6791],[-68.7274,-12.6999,188.4004],[-68.7328,-12.7014,184.2332],[-68.7362,-12.705,187.1075],[-68.7433,-12.7087,183.1038],[-68.7403,-12.7139,181.2175],[-68.7353,-12.7096,184.9005],[-68.729,-12.7117,183.789],[-68.7286,-12.7135,187.817],[-68.7353,-12.7172,182.374],[-68.7414,-12.718,181.7769],[-68.7423,-12.7255,175.8894],[-68.747,-12.7306,179.3783],[-68.7531,-12.7314,185.1557],[-68.7555,-12.7347,199.4294],[-68.7673,-12.7429,182.4507],[-68.769,-12.7423,178.8291],[-68.7704,-12.7386,180.0661],[-68.7775,-12.7381,190.9831],[-68.7785,-12.7327,186.5022],[-68.7804,-12.7322,172.0],[-68.7813,-12.7366,181.0801],[-68.7844,-12.7403,172.5],[-68.7836,-12.7449,176.7259],[-68.787,-12.7481,192.4006],[-68.7877,-12.7547,183.3978],[-68.7916,-12.7604,181.513],[-68.8006,-12.7555,176.0058],[-68.8047,-12.7558,175.4705],[-68.8055,-12.7581,180.0992],[-68.8034,-12.7637,190.5574],[-68.8085,-12.7656,184.8258],[-68.8049,-12.7694,184.0581],[-68.8049,-12.7715,193.0788],[-68.8094,-12.7766,180.5091],[-68.8047,-12.7842,186.5722],[-68.8066,-12.7855,187.1839],[-68.8122,-12.7839,185.6875],[-68.818,-12.7884,185.1556],[-68.8189,-12.7919,184.0908],[-68.8165,-12.7981,192.4547],[-68.8129,-12.7982,187.6809],[-68.8108,-12.8001,186.4279],[-68.8077,-12.8087,203.5143],[-68.8101,-12.8103,193.6665],[-68.815,-12.8047,185.6505],[-68.8205,-12.806,179.2593],[-68.8241,-12.8043,187.7262],[-68.8254,-12.8133,197.4228],[-68.8277,-12.8134,187.8644],[-68.8313,-12.8096,186.1156],[-68.8341,-12.8102,193.9047],[-68.8349,-12.8185,184.3306],[-68.8398,-12.8231,189.1045],[-68.8393,-12.826,184.1708],[-68.8316,-12.8258,191.0392],[-68.8293,-12.8285,179.0],[-68.8297,-12.8307,181.6593],[-68.8321,-12.8317,195.2625],[-68.8363,-12.8285,182.9788],[-68.8396,-12.8291,179.5],[-68.8347,-12.8334,203.9467],[-68.8339,-12.838,184.3178],[-68.8313,-12.8412,190.6108],[-68.8318,-12.844,191.1561],[-68.8344,-12.8444,185.8082],[-68.839,-12.8415,191.1519],[-68.8423,-12.8434,192.3096],[-68.8343,-12.8554,196.4403],[-68.8344,-12.8582,197.5404],[-68.8371,-12.8595,190.3853],[-68.8437,-12.8567,186.0591],[-68.8477,-12.8653,186.7365],[-68.8514,-12.867,193.5689],[-68.8552,-12.8638,195.9214],[-68.8558,-12.8586,185.3404],[-68.8576,-12.858,184.3254],[-68.8593,-12.8649,195.4381],[-68.8646,-12.8674,185.039],[-68.8691,-12.8671,186.3405],[-68.8712,-12.8698,188.8259],[-68.8706,-12.8724,189.3454],[-68.8662,-12.8717,187.1917],[-68.8641,-12.8738,184.3962],[-68.8666,-12.8806,195.8147],[-68.8733,-12.8889,191.154],[-68.868,-12.8909,199.8363],[-68.8649,-12.8947,199.8633],[-68.8663,-12.8969,194.4901],[-68.8706,-12.8968,188.3661],[-68.8732,-12.8986,189.4209],[-68.8673,-12.9028,212.9239],[-68.8714,-12.908,201.0846],[-68.8757,-12.9183,207.0013],[-68.8725,-12.9215,202.1112],[-68.8652,-12.9221,193.0995],[-68.8601,-12.9258,191.7437],[-68.8607,-12.9275,206.943],[-68.8653,-12.9278,185.6969],[-68.8661,-12.9331,202.5535],[-68.8736,-12.935,199.3809],[-68.8751,-12.9382,189.8233],[-68.8743,-12.9398,195.8767],[-68.8608,-12.9443,203.7007],[-68.8591,-12.9477,209.9567],[-68.862,-12.9492,194.3982],[-68.8694,-12.9478,196.0531],[-68.8733,-12.9437,189.0276],[-68.8758,-12.949,192.8745],[-68.876,-12.9538,189.0076],[-68.8826,-12.9534,191.6761],[-68.8839,-12.956,190.1685],[-68.8782,-12.9563,200.1045],[-68.8743,-12.9647,190.203],[-68.8744,-12.9711,188.6659],[-68.8768,-12.9769,197.9649],[-68.8761,-12.9797,203.8608],[-68.87,-12.9803,190.0011],[-68.8729,-12.9745,197.525],[-68.8664,-12.9696,189.6406],[-68.8648,-12.9758,192.059],[-68.8614,-12.9804,210.1983],[-68.8624,-12.9839,189.4829],[-68.8658,-12.9859,192.5313],[-68.8752,-12.9846,198.4119],[-68.879,-12.9868,189.8643],[-68.8792,-12.9887,187.5],[-68.8772,-12.9904,201.4914],[-68.8704,-12.9872,190.1991],[-68.866,-12.9953,188.0],[-68.8672,-12.9988,206.7216],[-68.8733,-13.0019,197.4093],[-68.8729,-13.0039,194.3761],[-68.8673,-13.0079,214.8867],[-68.8677,-13.0109,188.5],[-68.8748,-13.0112,198.4158],[-68.8759,-13.0146,204.8116],[-68.8713,-13.0194,199.286],[-68.8585,-13.0129,203.3245],[-68.8535,-13.0155,204.8909],[-68.853,-13.0183,205.181],[-68.8588,-13.0213,206.2137],[-68.8595,-13.028,201.0159],[-68.866,-13.0284,197.026],[-68.8677,-13.0316,197.9932],[-68.8613,-13.0362,196.7485],[-68.856,-13.0316,199.7553],[-68.8521,-13.0326,194.2458],[-68.8501,-13.0373,203.505],[-68.8543,-13.0391,196.2244],[-68.8551,-13.0421,204.1187],[-68.8542,-13.0439,195.1335],[-68.849,-13.0452,194.3374],[-68.8486,-13.0472,213.233],[-68.8499,-13.0488,200.3572],[-68.8612,-13.0463,197.2727],[-68.8636,-13.0475,200.3958],[-68.8626,-13.0574,194.5159],[-68.86,-13.0588,204.349],[-68.8554,-13.0581,192.5],[-68.855,-13.0652,207.8131],[-68.8581,-13.0683,198.8403],[-68.8602,-13.0743,204.0759],[-68.8691,-13.0789,201.5653],[-68.8703,-13.0816,212.8008],[-68.8598,-13.0951,205.8368],[-68.8652,-13.1102,211.4759],[-68.8713,-13.1112,207.39],[-68.8753,-13.1144,198.2934],[-68.8749,-13.118,212.647],[-68.873,-13.1186,206.6095],[-68.8676,-13.1164,204.9727],[-68.8664,-13.1184,206.1296],[-68.8707,-13.1224,204.7093],[-68.8734,-13.1319,212.7698],[-68.8774,-13.1339,209.7226],[-68.8786,-13.137,215.8358],[-68.8748,-13.1415,206.4384],[-68.8735,-13.1407,202.9129],[-68.8727,-13.1346,205.8199],[-68.8678,-13.134,200.7298],[-68.8663,-13.1374,203.5583],[-68.8717,-13.1488,215.0461],[-68.8666,-13.1464,200.8008],[-68.8634,-13.1504,202.2829],[-68.8578,-13.15,197.9491],[-68.8669,-13.1572,205.8799],[-68.8655,-13.1649,201.4468],[-68.8665,-13.1668,217.6759],[-68.8717,-13.1672,219.2772],[-68.8657,-13.1724,200.903],[-68.8594,-13.17,210.4801],[-68.8563,-13.1706,199.0],[-68.8637,-13.1763,208.3547],[-68.8601,-13.1843,211.5912],[-68.8621,-13.1855,205.3207],[-68.8696,-13.1789,204.8341],[-68.8725,-13.1793,204.5856],[-68.8733,-13.1812,208.4331],[-68.8687,-13.1843,216.3289],[-68.8674,-13.1911,205.3233],[-68.8627,-13.1903,206.5237],[-68.8608,-13.1915,223.472],[-68.8608,-13.1979,221.3965],[-68.8562,-13.201599999999999,208.7106],[-68.8522,-13.2107,205.8714],[-68.8523,-13.215,209.362],[-68.8545,-13.2179,209.8904],[-68.8586,-13.2117,209.0979],[-68.8624,-13.2127,216.8557],[-68.8615,-13.2183,217.4804],[-68.8632,-13.2253,209.2736],[-68.8618,-13.2264,216.9117],[-68.8578,-13.2217,213.2377],[-68.8551,-13.2212,217.515],[-68.8545,-13.2284,209.8551],[-68.8585,-13.2321,213.6197],[-68.8589,-13.235,210.9636],[-68.85,-13.2361,212.2188],[-68.8493,-13.241,204.0],[-68.8449,-13.2469,213.302],[-68.8489,-13.2494,206.9403],[-68.8528,-13.2482,213.3719],[-68.8553,-13.2492,219.9878],[-68.8609,-13.2574,228.7789],[-68.8593,-13.26,218.5702],[-68.8547,-13.2589,210.4617],[-68.8526,-13.2612,208.2161],[-68.86,-13.2638,215.4314],[-68.8612,-13.2666,218.9368],[-68.8494,-13.2697,212.4117],[-68.8526,-13.2748,221.8188],[-68.8594,-13.2693,214.4052],[-68.8621,-13.2703,212.6753],[-68.8625,-13.2727,213.4465],[-68.8589,-13.2798,214.8945],[-68.8538,-13.2835,211.2699],[-68.8545,-13.2845,211.2699],[-68.8591,-13.2838,213.4703],[-68.8613,-13.2856,230.2029],[-68.8607,-13.2895,232.3604],[-68.8569,-13.2925,226.8455],[-68.858,-13.2966,225.1008],[-68.8617,-13.2978,213.238],[-68.8657,-13.295,217.6083],[-68.8695,-13.2986,236.6667],[-68.8687,-13.3022,213.9712],[-68.8615,-13.3019,226.455],[-68.8623,-13.3064,228.8997],[-68.8595,-13.3109,218.8115],[-68.8626,-13.3135,212.3876],[-68.8618,-13.3192,222.608],[-68.8639,-13.3208,214.8302],[-68.8684,-13.3179,229.2813],[-68.8703,-13.3184,215.2613],[-68.872,-13.3255,214.7398],[-68.8776,-13.3269,222.6813],[-68.8803,-13.331,225.1891],[-68.8781,-13.3331,223.3731],[-68.8738,-13.3301,217.2908],[-68.8679,-13.3325,214.1156],[-68.8681,-13.334,216.7612],[-68.8724,-13.3346,215.2838],[-68.8749,-13.3383,225.9926],[-68.881,-13.3425,212.9451],[-68.8761,-13.3449,213.694],[-68.8743,-13.349,216.0863],[-68.8676,-13.3495,221.199],[-68.8679,-13.3537,223.0449],[-68.8737,-13.3522,218.944],[-68.8767,-13.3552,216.2774],[-68.8699,-13.3558,224.4985],[-68.8677,-13.358,225.3519],[-68.8732,-13.3588,216.8608],[-68.8734,-13.3631,227.6689],[-68.8749,-13.3642,215.3587],[-68.8783,-13.3627,224.6832],[-68.8814,-13.3642,212.5],[-68.8781,-13.3691,226.8222],[-68.8781,-13.372,214.1498],[-68.8845,-13.3701,224.0727],[-68.8888,-13.3713,223.207],[-68.8824,-13.3806,220.8113],[-68.8836,-13.3822,222.1308],[-68.8893,-13.38,222.5766],[-68.8915,-13.382,224.9401],[-68.8907,-13.387,218.537],[-68.8881,-13.3829,234.7975],[-68.8862,-13.3836,213.5],[-68.8845,-13.3904,217.778],[-68.8852,-13.397,226.7772],[-68.8877,-13.3996,223.7736],[-68.8933,-13.398,232.6097],[-68.8952,-13.4004,226.5652],[-68.8928,-13.4049,236.8275],[-68.8858,-13.4016,240.2514],[-68.8864,-13.4074,216.2329],[-68.8878,-13.4083,243.3758],[-68.8907,-13.406,230.5487],[-68.8924,-13.4094,221.3575],[-68.8977,-13.4115,224.5772],[-68.8948,-13.4156,226.6774],[-68.8969,-13.4216,242.7807],[-68.8908,-13.4232,221.2271],[-68.8935,-13.4271,221.5665],[-68.8916,-13.4311,224.5848],[-68.901,-13.4352,221.5518],[-68.901,-13.4377,221.8814],[-68.8963,-13.4429,250.5337],[-68.8978,-13.4474,221.0564],[-68.8995,-13.4475,225.5918],[-68.9026,-13.4438,223.7777],[-68.9021,-13.4398,238.3231],[-68.9035,-13.4384,221.9514],[-68.9051,-13.4393,242.0594],[-68.9073,-13.4456,225.7152],[-68.9,-13.4515,218.5],[-68.8999,-13.4567,229.3422],[-68.8967,-13.4587,236.075],[-68.8958,-13.4636,233.1443],[-68.8976,-13.4649,234.8345],[-68.8994,-13.4604,223.145],[-68.9016,-13.4608,229.8641],[-68.9034,-13.464,228.881],[-68.9008,-13.4684,224.2693],[-68.9019,-13.4719,239.5152],[-68.9057,-13.4684,228.4419],[-68.9098,-13.4687,229.0825],[-68.9094,-13.4703,228.732],[-68.9052,-13.4718,233.4583],[-68.905,-13.4747,230.7732],[-68.9176,-13.4853,229.0736],[-68.9168,-13.4893,229.1374],[-68.9125,-13.4855,229.5004],[-68.9074,-13.486,228.7956],[-68.9065,-13.488,231.2265],[-68.9077,-13.4901,231.6347],[-68.9132,-13.4891,226.1981],[-68.9149,-13.4905,236.0586],[-68.915,-13.4922,237.12],[-68.9079,-13.4947,227.3702],[-68.9082,-13.497,235.3284],[-68.9137,-13.4965,236.5934],[-68.9161,-13.4979,227.0759],[-68.9159,-13.4996,241.8391],[-68.9116,-13.5005,226.8694],[-68.9109,-13.5031,232.3134],[-68.9222,-13.5081,236.6723],[-68.924,-13.5104,232.0003],[-68.9222,-13.5125,230.5222],[-68.918,-13.5099,240.2197],[-68.9159,-13.5102,229.5846],[-68.9151,-13.5136,228.23],[-68.9172,-13.5171,233.8063],[-68.9162,-13.5206,227.8522],[-68.918,-13.5206,230.8178],[-68.9217,-13.516,228.6134],[-68.932,-13.5203,234.6226],[-68.934,-13.5233,232.8618],[-68.9322,-13.5281,233.2628],[-68.9346,-13.5306,229.4633],[-68.9377,-13.5292,230.514],[-68.9381,-13.5268,232.7422],[-68.9355,-13.5225,235.2334],[-68.9381,-13.5197,239.3686],[-68.9427,-13.5278,233.3286],[-68.9459,-13.5286,233.2803],[-68.9452,-13.535,229.4312],[-68.9527,-13.5355,235.0836],[-68.9449,-13.5428,237.915],[-68.9483,-13.5447,246.2627],[-68.9533,-13.5512,241.8199],[-68.9514,-13.5533,247.2416],[-68.9468,-13.5538,233.4878],[-68.9454,-13.5563,256.8342],[-68.946,-13.563,240.3693],[-68.9486,-13.5664,256.6976],[-68.9474,-13.5712,258.2076],[-68.9542,-13.5738,241.1265],[-68.953,-13.5833,242.7826],[-68.9585,-13.5883,255.294],[-68.957,-13.594,254.4955],[-68.9522,-13.6018,249.7069],[-68.9531,-13.6049,280.7802],[-68.961,-13.6033,256.1108],[-68.9664,-13.6054,270.9563],[-68.9697,-13.6014,252.6931],[-68.9738,-13.6017,259.4693],[-68.9755,-13.6038,290.8086],[-68.9728,-13.609,253.6811],[-68.9736,-13.6117,272.2056],[-68.9775,-13.609,265.5145],[-68.9808,-13.6094,277.05],[-68.982,-13.6116,280.9665],[-68.9859,-13.6111,275.4582],[-68.992,-13.6185,288.4908],[-68.9998,-13.6189,280.387],[-68.9989,-13.6236,288.1321],[-69.0044,-13.6225,281.3159],[-69.0057,-13.6252,304.6479],[-69.0006,-13.6308,255.0],[-68.9974,-13.6333,290.026],[-68.994,-13.6322,281.8278],[-68.9903,-13.6356,288.1425],[-68.9972,-13.6402,290.8587],[-68.9949,-13.6465,279.0018],[-68.9928,-13.648,333.5682],[-68.9941,-13.6521,280.9948],[-69.0018,-13.6537,288.5507],[-69.0053,-13.6516,291.4985],[-69.0104,-13.6522,283.0865],[-69.0124,-13.6547,297.7903],[-69.0166,-13.6536,285.232],[-69.0198,-13.6579,291.356],[-69.0257,-13.6508,308.2214],[-69.0286,-13.653,300.9045],[-69.0288,-13.6551,304.4656],[-69.0308,-13.6554,301.5193],[-69.0342,-13.6531,310.093],[-69.0371,-13.6471,310.4558],[-69.0365,-13.6448,315.921],[-69.0329,-13.644,311.3148],[-69.0325,-13.6408,305.4447],[-69.0337,-13.6393,323.5904],[-69.0365,-13.6396,308.6369],[-69.0405,-13.6431,322.6545],[-69.0451,-13.6433,312.2111],[-69.0461,-13.6469,327.7861],[-69.051,-13.6502,322.4873],[-69.053,-13.6549,349.4854],[-69.0635,-13.6585,371.4666],[-69.0641,-13.6618,363.4726],[-69.0622,-13.6668,364.2552],[-69.0636,-13.6734,371.8872],[-69.0673,-13.6728,392.9904],[-69.0652,-13.6799,397.6554],[-69.0679,-13.6857,408.9804],[-69.067,-13.6879,414.7677],[-69.0592,-13.6912,417.3559],[-69.0585,-13.6936,422.4955],[-69.0557,-13.6929,422.3418],[-69.0537,-13.6987,469.894],[-69.0562,-13.7022,472.9866],[-69.0505,-13.7038,484.6458],[-69.0496,-13.7102,490.0445],[-69.0474,-13.7099,469.0541],[-69.047,-13.712,497.0477],[-69.0415,-13.7139,499.5949],[-69.0412,-13.7179,491.1234],[-69.0385,-13.7173,499.1656],[-69.038,-13.7143,539.6814],[-69.0357,-13.716,551.6757],[-69.0341,-13.7215,535.4053],[-69.0325,-13.7223,535.4053],[-69.0341,-13.7238,546.4774],[-69.032,-13.7266,603.8708],[-69.0346,-13.7285,587.7345],[-69.0312,-13.7302,597.7866],[-69.0267,-13.7385,616.4624],[-69.0211,-13.7373,655.3081],[-69.0189,-13.7393,661.9391],[-69.0153,-13.7368,705.6802],[-69.0158,-13.7393,692.043],[-69.0133,-13.7402,750.8033],[-69.0124,-13.7384,706.7891],[-69.0085,-13.7374,720.3351],[-69.0068,-13.7404,772.0625],[-68.9998,-13.7427,775.8488],[-68.998,-13.7458,844.7529],[-68.9936,-13.7465,905.2228],[-68.9898,-13.7508,929.0537],[-68.9907,-13.7533,961.834],[-68.9844,-13.7544,970.331],[-68.9774,-13.7583,1006.1208],[-68.9756,-13.7612,1023.7479],[-68.9766,-13.766,1142.198],[-68.974,-13.7788,1486.6797],[-68.9919,-13.8258,1270.7301],[-68.995,-13.8448,844.1184],[-68.9867,-13.86,774.9231],[-68.9789,-13.8804,648.4398],[-68.9785,-13.8892,645.0627],[-68.9834,-13.8951,689.061],[-68.9823,-13.9001,759.1876],[-68.9848,-13.9044,655.5452],[-68.9847,-13.9126,652.916],[-68.9806,-13.9198,702.8579],[-68.9837,-13.9285,684.9855],[-68.9828,-13.9315,710.9955],[-68.9785,-13.9339,661.2315],[-68.9758,-13.9423,677.926],[-68.9727,-13.9466,691.6887],[-68.9703,-13.9482,667.2239],[-68.9647,-13.9478,711.6498],[-68.9637,-13.9509,698.1948],[-68.8999,-13.9752,1608.1576],[-68.4205,-14.1837,689.7745],[-68.4145,-14.1805,674.1716],[-68.4148,-14.1773,610.1092],[-68.4075,-14.1692,603.2344],[-68.4072,-14.1636,577.5762],[-68.4022,-14.1622,696.7043],[-68.4033,-14.1555,573.9152],[-68.3966,-14.158,625.6643],[-68.3942,-14.1516,589.5234],[-68.3881,-14.1497,611.1342],[-68.3817,-14.1433,650.7025],[-68.3713,-14.1439,587.3617],[-68.3681,-14.1407,627.3643],[-68.3676,-14.1359,575.0715],[-68.3646,-14.1321,609.0409],[-68.3648,-14.1284,570.2764],[-68.3522,-14.1181,675.7217],[-68.3485,-14.1166,565.421],[-68.3446,-14.1178,564.8055],[-68.3397,-14.1155,612.579],[-68.3378,-14.1089,540.933],[-68.3303,-14.1134,547.459],[-68.3218,-14.1079,538.0505],[-68.3168,-14.1078,537.3077],[-68.3117,-14.0957,523.5327],[-68.3081,-14.0947,527.2722],[-68.3042,-14.0978,524.184],[-68.2999,-14.1042,514.224],[-68.2981,-14.1002,500.2766],[-68.2947,-14.0979,514.1813],[-68.2871,-14.0974,517.9161],[-68.2845,-14.1041,493.4847],[-68.2821,-14.1055,501.7633],[-68.279,-14.1036,519.8009],[-68.2787,-14.1001,514.6677],[-68.2739,-14.0992,494.344],[-68.2699,-14.1033,497.9191],[-68.2652,-14.1016,502.833],[-68.2563,-14.1068,506.9496],[-68.2497,-14.1031,482.0468],[-68.2497,-14.112,473.3502],[-68.2478,-14.1124,476.4212],[-68.2415,-14.1083,485.5047],[-68.2365,-14.1086,483.9436],[-68.2304,-14.1157,471.395],[-68.2146,-14.1241,488.6937],[-68.2059,-14.1365,479.3571],[-68.2003,-14.1357,491.1923],[-68.1922,-14.144,487.2509],[-68.1873,-14.1535,462.5967],[-68.1793,-14.1572,454.6525],[-68.1767,-14.164,453.8658],[-68.1583,-14.1759,452.541],[-68.1563,-14.1711,485.4554],[-68.1539,-14.1702,449.8011],[-68.1542,-14.1674,451.4206],[-68.1475,-14.1645,448.2828],[-68.142,-14.1555,438.0697],[-68.1391,-14.154,458.3995],[-68.1363,-14.1565,433.5],[-68.1344,-14.1626,432.0],[-68.1409,-14.1696,447.5434],[-68.1436,-14.1748,447.2573],[-68.1425,-14.177,436.7937],[-68.1372,-14.1775,431.2614],[-68.1332,-14.1752,430.8364],[-68.1302,-14.1776,459.9407],[-68.1278,-14.1834,430.4755],[-68.1251,-14.1839,427.5222],[-68.1182,-14.1791,424.6831],[-68.1099,-14.1795,417.9943],[-68.1019,-14.1724,423.0179],[-68.0991,-14.1726,426.4781],[-68.0939,-14.1777,424.3918],[-68.0936,-14.1816,493.3784],[-68.0981,-14.1861,425.5834],[-68.1059,-14.1853,411.1127],[-68.1062,-14.1903,412.386],[-68.1103,-14.1909,432.2406],[-68.1108,-14.1938,413.2464],[-68.1073,-14.198,419.2789],[-68.1024,-14.2005,409.2119],[-68.101,-14.1997,409.8867],[-68.1022,-14.1959,422.0367],[-68.0995,-14.1947,414.5108],[-68.0874,-14.1941,424.0724],[-68.0827,-14.1964,402.5257],[-68.0781,-14.2021,404.0053],[-68.0786,-14.2105,401.8277],[-68.0739,-14.2223,392.0],[-68.0737,-14.2174,396.8768],[-68.0704,-14.2104,413.2844],[-68.073,-14.2076,410.0818],[-68.0725,-14.2053,408.0289],[-68.0753,-14.2007,414.3655],[-68.069,-14.2006,434.6204],[-68.0674,-14.1963,412.4586],[-68.0756,-14.1962,413.7147],[-68.0751,-14.188,422.0521],[-68.0806,-14.186,419.201],[-68.0782,-14.1834,426.8866],[-68.0788,-14.1784,430.2164],[-68.0707,-14.1783,446.097],[-68.0717,-14.1752,422.8381],[-68.0704,-14.1731,429.0044],[-68.0642,-14.1718,445.3133],[-68.0687,-14.167,428.3597],[-68.068,-14.163,438.4078],[-68.062,-14.1663,443.5735],[-68.058,-14.1632,437.8081],[-68.0586,-14.1603,425.5141],[-68.0643,-14.1571,429.652],[-68.062,-14.1511,445.8167],[-68.0638,-14.1446,442.5376],[-68.063,-14.1413,449.6411],[-68.0566,-14.1378,449.8625],[-68.0569,-14.1362,447.0709],[-68.0614,-14.1338,446.0811],[-68.061,-14.1305,443.8474],[-68.0565,-14.1341,444.7329],[-68.0521,-14.1311,473.8591],[-68.0574,-14.1255,445.2233],[-68.0508,-14.1205,451.3858],[-68.0457,-14.1131,468.3653],[-68.046,-14.1111,464.6967],[-68.0506,-14.1127,457.1969],[-68.0509,-14.1105,454.5057],[-68.036,-14.107,473.398],[-68.033,-14.109,478.1416],[-68.0312,-14.1036,474.2408],[-68.0233,-14.1037,518.6295],[-68.0215,-14.1063,505.1769],[-68.0191,-14.1058,519.4622],[-68.0199,-14.1039,537.6566],[-68.0186,-14.1016,571.2168],[-68.0122,-14.1005,639.6074],[-68.0053,-14.0899,1034.3208],[-67.9929,-14.0864,734.3024],[-67.9879,-14.0875,688.2335],[-67.9814,-14.0845,625.8216],[-67.9747,-14.0863,489.8599],[-67.9724,-14.0796,423.5462],[-67.9653,-14.0748,387.7662],[-67.964,-14.0692,352.711],[-67.9583,-14.067,348.3012],[-67.955,-14.0625,328.5628],[-67.9505,-14.0603,318.3831],[-67.9486,-14.0609,318.1866],[-67.948,-14.0592,311.3749],[-67.9443,-14.0599,311.1803],[-67.9441,-14.0573,304.4013],[-67.9382,-14.0577,293.804],[-67.9379,-14.0555,294.7839],[-67.9341,-14.0527,294.3109],[-67.9316,-14.053,287.349],[-67.9233,-14.0473,283.9133],[-67.9196,-14.0463,277.3328],[-67.9139,-14.0486,272.0742],[-67.9068,-14.0471,265.3952],[-67.904,-14.0447,256.3939],[-67.904,-14.0418,259.7966],[-67.9018,-14.041,254.2862],[-67.9034,-14.0398,260.7014],[-67.9015,-14.0393,256.7785],[-67.9005,-14.0344,262.046],[-67.8961,-14.0327,256.0585],[-67.8931,-14.0262,250.2028],[-67.8866,-14.0231,248.3396],[-67.8825,-14.0183,250.1815],[-67.8776,-14.0033,252.1961],[-67.869,-13.999,248.6027],[-67.8699,-13.9976,247.8609],[-67.8663,-13.9958,242.2732],[-67.867,-13.994,241.3734],[-67.864,-13.9953,247.5939],[-67.8645,-13.993,240.5937],[-67.8626,-13.9936,240.5388],[-67.8622,-13.9956,244.8288],[-67.8603,-13.9953,245.0064],[-67.8584,-13.9901,237.3237],[-67.8593,-13.9887,239.034],[-67.8555,-13.9874,241.2946],[-67.8578,-13.987,236.358],[-67.8572,-13.9838,237.6887],[-67.8544,-13.9826,239.4763],[-67.8486,-13.9842,241.8742],[-67.8469,-13.9803,234.7651],[-67.8445,-13.9824,236.8821],[-67.8435,-13.9789,233.2583],[-67.8433,-13.9811,233.6271],[-67.8396,-13.9811,240.8141],[-67.8404,-13.9778,235.5465],[-67.8382,-13.9783,237.3214],[-67.8376,-13.9762,232.2546],[-67.8363,-13.9769,239.6962],[-67.8367,-13.9746,232.2546],[-67.835,-13.9761,228.7527],[-67.8349,-13.9742,233.822],[-67.8331,-13.974,236.5201],[-67.8338,-13.9718,235.7729],[-67.8325,-13.9704,234.5805],[-67.8329,-13.9662,230.5423],[-67.8309,-13.9656,233.3715],[-67.8321,-13.9647,233.3715],[-67.8314,-13.962,236.9828],[-67.8295,-13.9607,229.0689],[-67.8247,-13.9609,237.168],[-67.8239,-13.9579,231.4211],[-67.8172,-13.9583,237.1239],[-67.8139,-13.9519,227.7915],[-67.8116,-13.9531,231.3203],[-67.811,-13.9499,225.0731],[-67.81,-13.9511,225.0731],[-67.8074,-13.9493,234.9424],[-67.8052,-13.9509,227.0919],[-67.8049,-13.9542,231.972],[-67.8032,-13.9512,224.5805],[-67.801,-13.9527,224.4708],[-67.7978,-13.951599999999999,230.3056],[-67.7694,-13.9737,222.2698],[-67.738,-13.9838,219.2725],[-67.7212,-13.9926,207.0483],[-67.7086,-13.9947,205.7582],[-67.7087,-13.9971,208.2357],[-67.7021,-13.9936,209.1999],[-67.7001,-13.9951,210.7062],[-67.6988,-13.9996,205.1168],[-67.6958,-13.9999,208.5101],[-67.6964,-14.0019,206.7229],[-67.6932,-14.0015,199.8549],[-67.681,-14.0077,205.4289],[-67.6567,-14.0168,199.7818],[-67.6501,-14.0225,200.4426],[-67.6352,-14.0263,190.3798],[-67.6254,-14.0227,185.0808],[-67.6098,-14.0038,180.2239],[-67.5841,-13.9841,180.3111],[-67.5657,-13.9739,180.0383],[-67.5361,-13.9726,185.7318],[-67.5324,-13.9663,174.0],[-67.5326,-13.9599,184.4523],[-67.5274,-13.9533,174.0],[-67.501,-13.9339,174.0],[-67.4861,-13.9198,174.0],[-67.4847,-13.9151,174.0],[-67.4861,-13.9112,182.6797],[-67.4902,-13.9089,184.4296],[-67.4943,-13.9086,180.028],[-67.5112,-13.9141,174.0],[-67.513,-13.911,174.0],[-67.5118,-13.9062,174.0],[-67.5043,-13.8962,174.0],[-67.4977,-13.8917,174.0],[-67.4797,-13.884,175.9532],[-67.4779,-13.8725,174.0],[-67.4739,-13.8644,174.0],[-67.4605,-13.8496,178.6685],[-67.4595,-13.846,174.0],[-67.4614,-13.8415,182.5372],[-67.4646,-13.8395,181.2933],[-67.4671,-13.8401,183.5959],[-67.4815,-13.8528,172.5],[-67.4864,-13.8536,180.3938],[-67.4901,-13.8499,183.9655],[-67.4917,-13.8424,177.0628],[-67.4962,-13.8385,172.0],[-67.5015,-13.8354,181.4641],[-67.5159,-13.8327,177.3498],[-67.5128,-13.8234,175.9833],[-67.5069,-13.8163,173.5336],[-67.484,-13.8023,171.5545],[-67.4818,-13.7945,171.0],[-67.4846,-13.7905,171.0],[-67.4895,-13.7899,179.2992],[-67.5045,-13.794,172.6259],[-67.5212,-13.7931,170.5],[-67.5254,-13.7894,173.9024],[-67.5252,-13.7832,170.0],[-67.5221,-13.7793,170.0],[-67.509,-13.7722,172.282],[-67.4902,-13.769,170.0],[-67.4839,-13.7664,170.0],[-67.4782,-13.7613,170.0],[-67.4735,-13.7495,169.5],[-67.4565,-13.7439,180.2506],[-67.4504,-13.7384,173.9889],[-67.4512,-13.7347,173.1268],[-67.461,-13.7263,173.6974],[-67.4623,-13.7182,172.6468],[-67.4588,-13.7127,170.0],[-67.452,-13.715,170.7379],[-67.4487,-13.7293,179.714],[-67.4349,-13.7355,169.5],[-67.4307,-13.7363,171.3053],[-67.4266,-13.7345,169.5],[-67.4313,-13.7205,178.5031],[-67.4315,-13.7102,177.6766],[-67.4285,-13.7067,173.8804],[-67.4204,-13.7074,175.9553],[-67.4171,-13.7043,179.4459],[-67.419,-13.6995,169.0],[-67.4279,-13.6925,176.7945],[-67.4356,-13.6833,176.3813],[-67.4391,-13.6669,180.8321],[-67.4387,-13.6636,178.6909],[-67.4348,-13.6576,173.1417],[-67.4189,-13.6534,175.4237],[-67.4134,-13.6479,183.9368],[-67.3934,-13.6407,168.0],[-67.3843,-13.6397,177.9887],[-67.3677,-13.6414,168.0],[-67.3635,-13.6382,180.7691],[-67.3649,-13.6348,172.4377],[-67.3695,-13.6319,172.5627],[-67.3786,-13.6176,181.1566],[-67.3868,-13.6107,168.0],[-67.3882,-13.6035,173.1165],[-67.3847,-13.6013,172.7569],[-67.3811,-13.6017,180.515],[-67.3764,-13.6048,167.5],[-67.3741,-13.6093,167.5],[-67.3673,-13.6108,176.2197],[-67.3633,-13.609,177.6618],[-67.3615,-13.6002,176.8592],[-67.3646,-13.5876,172.6526],[-67.3622,-13.5834,177.5678],[-67.3539,-13.5762,172.0237],[-67.3534,-13.5696,166.5],[-67.3579,-13.5653,172.3075],[-67.3726,-13.5701,170.4921],[-67.3778,-13.5681,167.0],[-67.3798,-13.5661,175.6093],[-67.3781,-13.5491,176.3683],[-67.3819,-13.5386,178.561],[-67.386,-13.5345,174.052],[-67.4006,-13.535,166.25],[-67.4044,-13.5295,178.9079],[-67.3965,-13.5186,176.5078],[-67.39,-13.5168,165.725],[-67.3804,-13.5194,175.2847],[-67.3754,-13.5159,167.2756],[-67.3739,-13.5093,175.0907],[-67.3755,-13.4995,171.345],[-67.3692,-13.4935,174.3912],[-67.3588,-13.4906,163.2997],[-67.3514,-13.4822,163.0],[-67.3478,-13.4715,163.0],[-67.3512,-13.4674,176.1846],[-67.3601,-13.4692,174.8811],[-67.3669,-13.4765,163.0],[-67.3708,-13.4839,165.9984],[-67.3771,-13.486,170.8773],[-67.3825,-13.4843,165.0],[-67.3875,-13.4781,166.14],[-67.3915,-13.4662,164.8564],[-67.3915,-13.4607,164.0],[-67.3889,-13.4562,165.1681],[-67.3821,-13.4551,175.0374],[-67.3648,-13.4571,165.5371],[-67.3589,-13.4554,163.0],[-67.3567,-13.4528,163.0],[-67.3552,-13.4462,172.3369],[-67.3553,-13.4448,172.3369],[-67.3592,-13.443,174.8531],[-67.3762,-13.4435,163.0],[-67.3914,-13.4406,163.0],[-67.3959,-13.4377,163.0],[-67.3979,-13.4302,172.6572],[-67.3962,-13.4266,174.1868],[-67.3799,-13.4221,163.0],[-67.3772,-13.42,163.0],[-67.3771,-13.4167,163.0],[-67.3792,-13.4137,166.0747],[-67.3889,-13.4086,162.5],[-67.391,-13.4013,162.5],[-67.3902,-13.3967,165.6433],[-67.3863,-13.3914,162.5],[-67.3779,-13.3859,162.5],[-67.3338,-13.3699,173.2811],[-67.3287,-13.3658,163.4819],[-67.3266,-13.3628,169.6969],[-67.3269,-13.3585,174.4294],[-67.3303,-13.3557,167.1278],[-67.3414,-13.3538,160.5],[-67.3561,-13.3539,163.217],[-67.358,-13.3511,160.0],[-67.357,-13.3479,160.0],[-67.3485,-13.3405,160.0],[-67.3261,-13.3269,160.0],[-67.3161,-13.3139,160.0],[-67.3001,-13.3051,163.3755],[-67.2962,-13.2987,172.0347],[-67.2963,-13.2958,171.426],[-67.303,-13.2887,170.8803],[-67.303,-13.2849,172.959],[-67.3008,-13.2784,167.5054],[-67.2941,-13.2725,168.592],[-67.2881,-13.2729,168.4044],[-67.2877,-13.3013,165.2181],[-67.2861,-13.3041,166.7104],[-67.2829,-13.3053,160.0],[-67.2782,-13.3031,170.1267],[-67.2664,-13.2928,170.4933],[-67.2639,-13.2868,160.0],[-67.2628,-13.272,160.0],[-67.267,-13.2617,170.674],[-67.2867,-13.26,160.0],[-67.2933,-13.2557,160.0],[-67.2954,-13.2505,160.0],[-67.294,-13.2477,170.2231],[-67.2847,-13.242,160.0],[-67.2757,-13.2417,160.0],[-67.2721,-13.2453,162.9992],[-67.2689,-13.2536,172.0962],[-67.2654,-13.2572,159.5],[-67.258,-13.2596,170.4118],[-67.2512,-13.2583,160.5],[-67.2495,-13.2519,164.4366],[-67.2582,-13.2348,159.5],[-67.2647,-13.2288,159.0],[-67.2678,-13.2206,159.0],[-67.2685,-13.2162,163.2132],[-67.2667,-13.2096,168.7325],[-67.2539,-13.207,163.884],[-67.2458,-13.1973,168.5622],[-67.2379,-13.1938,158.5],[-67.2122,-13.1998,159.6778],[-67.204,-13.1985,158.7151],[-67.1979,-13.1953,157.8617],[-67.1984,-13.1888,164.6743],[-67.2015,-13.1863,164.6185],[-67.2173,-13.1824,158.5272],[-67.2256,-13.1783,157.5],[-67.2282,-13.1749,159.1161],[-67.2281,-13.1711,162.4781],[-67.2256,-13.1684,160.7755],[-67.2207,-13.1662,166.1808],[-67.1942,-13.1622,160.0349],[-67.1662,-13.1674,157.0],[-67.1603,-13.1664,157.0],[-67.1593,-13.163,160.0683],[-67.161,-13.1543,157.2197],[-67.1694,-13.1348,156.0],[-67.1844,-13.1294,163.4083],[-67.1871,-13.1278,162.9676],[-67.1874,-13.1258,156.0],[-67.1862,-13.1225,167.3476],[-67.1834,-13.1209,167.0486],[-67.1704,-13.1256,156.0],[-67.1659,-13.1238,156.8456],[-67.1631,-13.1115,156.0],[-67.1591,-13.1029,159.8615],[-67.1389,-13.0983,155.5],[-67.1344,-13.0922,166.2323],[-67.135,-13.0888,165.4967],[-67.1441,-13.082,161.9715],[-67.1465,-13.0748,158.9192],[-67.1481,-13.0529,155.0],[-67.1405,-13.0468,155.0],[-67.1148,-13.0479,161.9385],[-67.1114,-13.0509,154.5],[-67.117,-13.0608,161.6518],[-67.1167,-13.0657,156.3217],[-67.1064,-13.0685,158.225],[-67.1019,-13.0649,153.5],[-67.1009,-13.0531,165.3722],[-67.1109,-13.0404,153.0],[-67.1123,-13.0369,153.0],[-67.1113,-13.0312,158.9727],[-67.1045,-13.0269,162.7874],[-67.096,-13.0255,153.0],[-67.0923,-13.0269,153.0],[-67.092,-13.0309,165.1151],[-67.0978,-13.0375,153.0],[-67.098,-13.0416,153.0],[-67.0934,-13.0457,163.7585],[-67.0896,-13.0456,155.5242],[-67.0654,-13.0287,151.5],[-67.0611,-13.0298,151.0],[-67.0589,-13.0329,160.9052],[-67.0606,-13.0466,150.0],[-67.0576,-13.0511,150.0],[-67.0531,-13.0533,163.2548],[-67.0467,-13.0513,160.0993],[-67.0429,-13.0415,150.0],[-67.0434,-13.0131,159.5071],[-67.0653,-13.0038,150.0],[-67.0694,-12.9997,150.0],[-67.0702,-12.9944,151.4909],[-67.068,-12.9897,150.0],[-67.0599,-12.9828,150.0],[-67.0435,-12.9779,149.5],[-67.0384,-12.9741,153.7212],[-67.0394,-12.9669,158.8833],[-67.0444,-12.9627,149.5],[-67.0469,-12.9567,149.5],[-67.0424,-12.9422,150.0036],[-67.0366,-12.9319,149.0],[-67.0312,-12.929,155.3904],[-67.0206,-12.9308,156.614],[-67.0121,-12.9294,153.7768],[-67.0003,-12.9208,148.5],[-66.9981,-12.9166,148.5],[-67.0004,-12.9127,156.7471],[-67.0112,-12.9099,148.5],[-67.024,-12.9115,148.0],[-67.0336,-12.9089,149.7512],[-67.0363,-12.9009,147.75],[-67.0348,-12.8924,147.5],[-67.0275,-12.8865,152.1528],[-67.0189,-12.884,147.5],[-67.0119,-12.8852,149.1876],[-67.001,-12.8898,147.0],[-66.9951,-12.8885,148.7949],[-66.9932,-12.8808,155.0459],[-66.9941,-12.8629,147.0],[-66.9902,-12.8512,156.8752],[-66.9865,-12.8495,147.9506],[-66.9791,-12.8517,152.8969],[-66.9762,-12.8511,158.1949],[-66.9734,-12.8472,155.4781],[-66.9729,-12.84,148.7309],[-66.9694,-12.8368,152.163],[-66.9609,-12.8362,151.7905],[-66.9514,-12.8441,152.8747],[-66.9492,-12.8435,148.1888],[-66.9464,-12.8388,146.9794],[-66.9429,-12.826,155.7517],[-66.9439,-12.8234,145.0],[-66.9576,-12.8201,146.0498],[-66.9739,-12.8186,144.5],[-66.9831,-12.8097,152.3647],[-66.9869,-12.7918,151.8398],[-66.9856,-12.7846,144.0],[-66.9834,-12.7831,147.0954],[-66.954,-12.8022,143.5],[-66.95,-12.8004,143.5],[-66.9478,-12.7903,143.5],[-66.9524,-12.7816,155.8447],[-66.9682,-12.7716,143.0],[-66.9689,-12.769,144.735],[-66.967,-12.7606,145.4098],[-66.9687,-12.7538,147.9052],[-66.9806,-12.7406,142.5],[-66.9831,-12.7333,146.1657],[-66.9804,-12.7296,159.6016],[-66.9738,-12.7276,143.0066],[-66.9708,-12.7281,146.3264],[-66.9616,-12.7351,143.3477],[-66.9588,-12.7353,142.5],[-66.9533,-12.7281,142.5],[-66.9538,-12.7206,149.7551],[-66.9608,-12.7085,142.0],[-66.9707,-12.697,142.0],[-66.9713,-12.6903,142.0],[-66.9693,-12.6887,142.0],[-66.9582,-12.6874,142.0],[-66.9452,-12.6898,142.0],[-66.9397,-12.6875,145.3098],[-66.9394,-12.685,149.276],[-66.9471,-12.6709,143.8943],[-66.9515,-12.668,141.5],[-66.9688,-12.6652,143.2549],[-66.9732,-12.6632,141.5],[-66.9753,-12.6569,141.5],[-66.9708,-12.6518,141.5],[-66.9628,-12.6503,151.0883],[-66.9566,-12.6453,141.5],[-66.9546,-12.6298,141.0],[-66.9511,-12.6236,142.4909],[-66.9459,-12.6244,151.1228],[-66.9406,-12.6326,145.0273],[-66.9368,-12.6341,142.0312],[-66.93,-12.6323,145.6908],[-66.9273,-12.63,148.4656],[-66.9265,-12.6256,151.7395],[-66.929,-12.6193,141.0],[-66.9395,-12.6105,141.0],[-66.9468,-12.5994,146.654],[-66.9564,-12.5969,150.1266],[-66.9731,-12.5958,143.1892],[-66.9769,-12.5927,141.0],[-66.9746,-12.5765,142.2166],[-66.973,-12.5716,141.0],[-66.9695,-12.5678,141.0],[-66.9469,-12.5596,141.0],[-66.9437,-12.5573,141.0],[-66.9356,-12.5432,141.0],[-66.9279,-12.5394,141.0],[-66.919,-12.5385,147.1792],[-66.9174,-12.5338,141.0],[-66.9205,-12.5284,141.0],[-66.9555,-12.5085,141.0],[-66.9607,-12.5039,141.0],[-66.9673,-12.4903,141.0]]]]}}