{"type": "Feature","bbox": [-66.9963,-14.3662,-66.2615,-12.0],"geometry": {"type": "MultiPolygon","coordinates": [[[[-66.9862,-14.3662,177.3767],[-66.8209,-14.3596,169.7183],[-66.8228,-14.3203,168.4644],[-66.5211,-14.3107,168.74],[-66.5158,-13.5711,160.7471],[-66.5137,-12.7257,172.5451],[-66.5061,-12.725,171.5405],[-66.497,-12.7196,167.6286],[-66.4886,-12.7073,164.3637],[-66.4858,-12.6933,158.4607],[-66.4831,-12.6889,159.2661],[-66.4832,-12.6837,159.1382],[-66.4791,-12.6753,159.0103],[-66.4772,-12.6744,158.8615],[-66.4766,-12.6676,156.4064],[-66.4727,-12.6607,156.626],[-66.4736,-12.6585,154.8147],[-66.467,-12.6534,164.7159],[-66.4586,-12.6294,157.6374],[-66.453,-12.6242,163.3921],[-66.4539,-12.6207,149.9927],[-66.4467,-12.6075,148.8193],[-66.4434,-12.5936,163.141],[-66.4403,-12.5889,159.7677],[-66.4405,-12.577,158.7744],[-66.4422,-12.5719,149.8366],[-66.4399,-12.5653,152.3283],[-66.4367,-12.5633,156.9278],[-66.4371,-12.56,157.8221],[-66.4326,-12.5551,156.4473],[-66.4385,-12.5423,150.786],[-66.4359,-12.5408,157.0906],[-66.4315,-12.5286,154.5699],[-66.428,-12.5285,154.2403],[-66.4245,-12.5234,155.8108],[-66.4213,-12.5257,161.6885],[-66.4207,-12.5202,162.0768],[-66.4176,-12.5202,159.8936],[-66.4146,-12.5169,161.1887],[-66.4131,-12.5102,155.7133],[-66.4106,-12.5076,153.4438],[-66.4058,-12.5071,156.9235],[-66.4079,-12.5015,156.3245],[-66.402,-12.4955,152.0747],[-66.3978,-12.483,156.2262],[-66.3959,-12.4824,150.7411],[-66.3949,-12.478,151.1523],[-66.3923,-12.477,152.301],[-66.3933,-12.4745,152.8113],[-66.3923,-12.4718,154.7689],[-66.3911,-12.4726,151.4132],[-66.3914,-12.4698,151.5413],[-66.3868,-12.4679,151.8907],[-66.3911,-12.4582,155.5764],[-66.3834,-12.4569,153.0732],[-66.3659,-12.4458,149.7121],[-66.3629,-12.4385,149.1238],[-66.3577,-12.438,149.707],[-66.3577,-12.4355,148.1551],[-66.3537,-12.4291,148.0436],[-66.3537,-12.4256,138.9059],[-66.3495,-12.4247,147.5106],[-66.3461,-12.4204,148.9657],[-66.3466,-12.418,149.8046],[-66.3448,-12.4147,150.4146],[-66.3464,-12.4094,146.7105],[-66.342,-12.4076,151.344],[-66.3418,-12.4044,150.1168],[-66.3388,-12.4014,150.2568],[-66.3391,-12.3989,149.2709],[-66.3329,-12.4,149.6233],[-66.3338,-12.3952,147.4997],[-66.3308,-12.3947,149.3049],[-66.3297,-12.3922,149.6213],[-66.3272,-12.3925,147.9443],[-66.3268,-12.3911,148.6271],[-66.3235,-12.3928,147.4647],[-66.3168,-12.3857,146.0622],[-66.3143,-12.3865,141.7767],[-66.3131,-12.3787,145.5263],[-66.3114,-12.3809,144.2849],[-66.3082,-12.3801,145.1022],[-66.3079,-12.3765,146.5069],[-66.3066,-12.376,146.4698],[-66.3091,-12.3718,142.4697],[-66.3073,-12.3674,143.0066],[-66.3088,-12.3642,142.614],[-66.3073,-12.3602,144.4757],[-66.3042,-12.3601,144.0513],[-66.3058,-12.3548,148.6252],[-66.303,-12.3545,144.1672],[-66.3026,-12.3519,143.8795],[-66.2995,-12.3527,145.4881],[-66.3001,-12.351,145.1373],[-66.298,-12.3512,144.4138],[-66.2972,-12.3485,143.4845],[-66.2955,-12.3505,144.3475],[-66.2921,-12.3471,144.721],[-66.2899,-12.3485,141.8114],[-66.2892,-12.3456,143.9482],[-66.2851,-12.3456,143.3786],[-66.2854,-12.3415,142.3142],[-66.283,-12.3402,141.4997],[-66.2851,-12.3399,141.9818],[-66.2848,-12.3364,140.6478],[-66.2814,-12.3296,142.1705],[-66.2838,-12.3281,140.7551],[-66.2798,-12.3278,142.4161],[-66.2801,-12.3252,140.6307],[-66.2761,-12.3214,142.4972],[-66.2758,-12.3183,142.2466],[-66.2738,-12.3184,146.4437],[-66.2738,-12.3164,145.3245],[-66.2715,-12.3173,145.0177],[-66.2718,-12.3126,141.1307],[-66.2696,-12.3128,140.3245],[-66.2711,-12.3104,142.0952],[-66.269,-12.3099,143.805],[-66.268,-12.3073,144.8179],[-66.2703,-12.3062,143.9124],[-66.2682,-12.3025,142.5522],[-66.2716,-12.2975,142.6808],[-66.2707,-12.2961,142.8062],[-66.2727,-12.2957,142.8062],[-66.2696,-12.2924,142.8018],[-66.2712,-12.2902,144.6717],[-66.2691,-12.2884,144.7844],[-66.2702,-12.2826,144.5126],[-66.2683,-12.2808,142.2744],[-66.2689,-12.276,146.5295],[-66.265,-12.2729,145.4102],[-66.2663,-12.2716,145.4102],[-66.2644,-12.2693,143.8198],[-66.2671,-12.2697,145.6937],[-66.2674,-12.2672,145.8253],[-66.2648,-12.2677,145.6067],[-66.264,-12.2654,145.1335],[-66.2653,-12.2669,145.6067],[-66.2668,-12.2649,144.2618],[-66.2687,-12.2664,146.5951],[-66.2678,-12.2623,143.6729],[-66.2717,-12.2628,143.7505],[-66.2711,-12.2605,143.6448],[-66.2735,-12.2603,140.3754],[-66.2697,-12.2578,141.8818],[-66.271,-12.2565,144.4722],[-66.2699,-12.2538,139.8515],[-66.2719,-12.2537,143.0407],[-66.2717,-12.2502,143.8753],[-66.2741,-12.2527,145.7979],[-66.2746,-12.2494,146.9449],[-66.2784,-12.2511,143.8378],[-66.2794,-12.2483,144.7625],[-66.2852,-12.2503,144.8066],[-66.2852,-12.2477,144.4222],[-66.2872,-12.2485,146.5979],[-66.2878,-12.2457,143.6701],[-66.2899,-12.2461,144.1303],[-66.2896,-12.2443,146.2672],[-66.293,-12.2428,143.9277],[-66.2949,-12.2439,143.7348],[-66.294,-12.2415,143.1706],[-66.2988,-12.2409,144.0334],[-66.2978,-12.2309,144.0798],[-66.3002,-12.2287,142.2972],[-66.3018,-12.2299,145.06],[-66.3021,-12.2286,144.6712],[-66.3061,-12.2309,143.7303],[-66.3038,-12.2264,143.0739],[-66.3067,-12.2283,144.0434],[-66.3072,-12.2271,143.2648],[-66.3039,-12.2242,144.4089],[-66.3077,-12.2244,143.594],[-66.3086,-12.2228,144.5287],[-66.3065,-12.2225,143.1629],[-66.3058,-12.2202,142.0163],[-66.3092,-12.2203,141.1403],[-66.3051,-12.218,144.6859],[-66.3068,-12.2172,141.6518],[-66.3051,-12.2157,148.1166],[-66.3069,-12.2137,142.2861],[-66.3079,-12.2154,142.2523],[-66.3099,-12.214,142.4767],[-66.3052,-12.2103,146.8005],[-66.3074,-12.2095,139.703],[-66.3035,-12.206,141.8778],[-66.3053,-12.204,141.2181],[-66.2999,-12.2028,143.145],[-66.2999,-12.201599999999999,143.145],[-66.3022,-12.2014,143.4429],[-66.2995,-12.1997,141.4665],[-66.3011,-12.1969,141.3836],[-66.2983,-12.1955,143.0644],[-66.3019,-12.1939,142.2562],[-66.3002,-12.189,141.2888],[-66.3038,-12.1887,142.6991],[-66.2998,-12.1869,141.8165],[-66.3027,-12.1868,141.8562],[-66.3007,-12.1828,142.7032],[-66.302,-12.1788,143.4954],[-66.2976,-12.1787,142.3375],[-66.2982,-12.1752,142.219],[-66.2948,-12.1759,142.5936],[-66.292,-12.1718,140.9579],[-66.2956,-12.1715,141.8365],[-66.2964,-12.173,143.9706],[-66.2972,-12.1713,141.8365],[-66.2951,-12.1686,141.9809],[-66.2973,-12.1678,140.546],[-66.2957,-12.1662,142.2702],[-66.2985,-12.1661,141.9547],[-66.2965,-12.1637,141.2769],[-66.2995,-12.163,143.6911],[-66.2964,-12.1587,140.6434],[-66.3006,-12.1591,142.2738],[-66.3006,-12.1556,140.7657],[-66.3025,-12.1536,141.3825],[-66.2988,-12.1525,141.5077],[-66.2997,-12.1491,142.3763],[-66.2969,-12.1469,138.0728],[-66.3012,-12.1471,141.1018],[-66.3017,-12.1454,138.7874],[-66.3031,-12.1478,140.5386],[-66.3042,-12.1472,142.4786],[-66.3017,-12.1422,142.9503],[-66.2982,-12.1422,140.1178],[-66.2998,-12.1388,141.7914],[-66.3026,-12.14,141.2692],[-66.3008,-12.1348,141.77],[-66.2977,-12.1362,139.5807],[-66.2998,-12.133,143.4966],[-66.2979,-12.1295,140.5289],[-66.3021,-12.1284,142.8534],[-66.3012,-12.1248,139.6321],[-66.3041,-12.1245,142.2862],[-66.3023,-12.1218,139.3546],[-66.3044,-12.1204,141.9656],[-66.303,-12.1177,138.9565],[-66.3044,-12.1164,140.3022],[-66.3009,-12.1173,141.1854],[-66.2977,-12.1133,143.9547],[-66.302,-12.1107,140.3642],[-66.3045,-12.1123,142.1573],[-66.305,-12.1108,138.3799],[-66.3025,-12.1094,140.1585],[-66.3012,-12.1059,141.325],[-66.297,-12.1042,147.2588],[-66.299,-12.1023,144.2023],[-66.3028,-12.1032,143.7172],[-66.3032,-12.1018,139.467],[-66.3007,-12.1002,140.3226],[-66.2999,-12.0964,141.8521],[-66.2975,-12.0943,141.8726],[-66.3007,-12.0915,143.8034],[-66.2955,-12.0893,144.2939],[-66.2972,-12.0923,141.5929],[-66.2958,-12.0936,142.6839],[-66.2883,-12.091,140.9369],[-66.2895,-12.0878,139.3233],[-66.2861,-12.0886,140.9924],[-66.2869,-12.0867,139.9435],[-66.2923,-12.0861,146.8155],[-66.2865,-12.0807,143.3123],[-66.2891,-12.0783,140.3751],[-66.2915,-12.0805,143.0213],[-66.293,-12.0799,143.0213],[-66.2856,-12.076599999999999,139.6996],[-66.2859,-12.0685,142.9418],[-66.2821,-12.0677,140.9087],[-66.2857,-12.0646,144.8843],[-66.2831,-12.0617,141.0818],[-66.2827,-12.0566,144.3671],[-66.2847,-12.055,137.9794],[-66.288,-12.0586,134.4773],[-66.2887,-12.0568,137.6589],[-66.2867,-12.0501,136.938],[-66.2836,-12.0484,135.7596],[-66.2881,-12.0412,137.8695],[-66.2834,-12.0372,139.4653],[-66.2867,-12.0371,139.6478],[-66.2896,-12.0391,137.9522],[-66.2915,-12.0369,141.0938],[-66.288,-12.036,136.6694],[-66.2863,-12.032,138.1438],[-66.282,-12.0345,140.7192],[-66.2828,-12.0315,142.2889],[-66.2868,-12.0295,136.9718],[-66.286,-12.0277,143.4681],[-66.2784,-12.0256,137.6257],[-66.2802,-12.0233,137.8615],[-66.2832,-12.0252,141.22],[-66.2845,-12.0242,138.9973],[-66.2823,-12.0207,137.1801],[-66.2844,-12.0204,140.4691],[-66.2837,-12.017,140.0521],[-66.2794,-12.0146,139.4529],[-66.2772,-12.0111,137.5683],[-66.2798,-12.0093,135.7437],[-66.2736,-12.0077,141.8603],[-66.271,-12.0088,137.1205],[-66.2714,-12.0109,133.8922],[-66.2694,-12.007,139.0119],[-66.2649,-12.0059,143.6865],[-66.2631,-12.0066,141.6758],[-66.2631,-12.0086,139.184],[-66.2616,-12.0081,143.121],[-66.2615,-12.0047,141.9797],[-66.267,-12.0025,143.8965],[-66.2679,-12.0,139.8118],[-66.6226,-12.0035,144.2133],[-66.6219,-12.0127,141.9775],[-66.6175,-12.0155,140.9186],[-66.6179,-12.0217,143.6709],[-66.6219,-12.0228,142.6609],[-66.6216,-12.0259,142.6351],[-66.6251,-12.0261,137.3134],[-66.6237,-12.0243,140.6018],[-66.6276,-12.0231,143.1103],[-66.6299,-12.0272,144.3853],[-66.6365,-12.0318,141.8433],[-66.6397,-12.0388,140.5228],[-66.6392,-12.0418,141.2865],[-66.6358,-12.0455,144.1895],[-66.6341,-12.0442,137.4648],[-66.6299,-12.0447,140.9672],[-66.6278,-12.0469,144.0636],[-66.6272,-12.0446,139.1773],[-66.6245,-12.0454,148.8574],[-66.6218,-12.0473,142.7018],[-66.6218,-12.049,141.3393],[-66.6162,-12.0509,147.3145],[-66.6161,-12.0544,142.1792],[-66.6126,-12.0528,147.6663],[-66.602,-12.0589,146.0227],[-66.5998,-12.0611,154.0717],[-66.5979,-12.0674,143.1599],[-66.5991,-12.0725,139.8751],[-66.6013,-12.0712,147.6893],[-66.6043,-12.077,142.4303],[-66.6064,-12.0754,140.6179],[-66.6092,-12.0763,141.1284],[-66.6093,-12.0819,141.389],[-66.6111,-12.0815,142.0293],[-66.6122,-12.0848,147.6384],[-66.614,-12.0826,146.5876],[-66.617,-12.0843,140.8158],[-66.6205,-12.084,144.5923],[-66.6201,-12.0879,143.2432],[-66.6217,-12.0865,138.4749],[-66.6232,-12.0897,149.5023],[-66.6254,-12.0889,141.9739],[-66.6269,-12.0956,141.0785],[-66.6299,-12.0964,139.7708],[-66.6296,-12.1005,146.9546],[-66.6325,-12.1075,138.7459],[-66.627,-12.1084,146.1418],[-66.6252,-12.1051,141.6555],[-66.6234,-12.1067,142.6536],[-66.62,-12.1066,145.7153],[-66.6192,-12.1039,142.8362],[-66.6178,-12.105,142.2613],[-66.6155,-12.1022,142.4881],[-66.6111,-12.1005,144.826],[-66.6082,-12.1013,149.8648],[-66.6079,-12.0992,146.4023],[-66.6056,-12.0992,145.1722],[-66.604,-12.0971,142.4197],[-66.6025,-12.0984,143.8688],[-66.6022,-12.0971,137.2763],[-66.6002,-12.0977,142.4487],[-66.5998,-12.0994,142.0707],[-66.5957,-12.1015,150.0172],[-66.5948,-12.1069,140.4333],[-66.598,-12.1077,150.9869],[-66.5972,-12.1091,141.0654],[-66.5992,-12.1099,143.7747],[-66.602,-12.1066,142.1823],[-66.6012,-12.1086,139.434],[-66.6056,-12.1096,142.9799],[-66.6054,-12.1123,148.4288],[-66.6093,-12.1123,141.9796],[-66.6078,-12.1145,140.9317],[-66.6146,-12.1167,142.9689],[-66.6142,-12.118,145.4185],[-66.6127,-12.1166,140.0735],[-66.6116,-12.118,150.3445],[-66.6134,-12.1207,151.1676],[-66.6159,-12.1182,146.7861],[-66.6173,-12.1201,144.7733],[-66.6204,-12.1192,147.2621],[-66.624,-12.1207,143.5951],[-66.6247,-12.1229,145.8342],[-66.6294,-12.1232,143.2314],[-66.6299,-12.1263,155.7494],[-66.6343,-12.1237,141.843],[-66.6346,-12.1265,152.5782],[-66.6364,-12.1256,142.6761],[-66.6423,-12.1278,145.6243],[-66.6422,-12.134,146.2552],[-66.6405,-12.1359,145.7435],[-66.6364,-12.1346,140.4214],[-66.636,-12.138,148.4862],[-66.6336,-12.1378,143.0638],[-66.6339,-12.1397,141.695],[-66.6304,-12.1418,153.9695],[-66.6318,-12.1425,139.2275],[-66.6291,-12.144,141.6867],[-66.6304,-12.1459,146.7566],[-66.6264,-12.1481,149.772],[-66.6295,-12.1495,143.7973],[-66.6258,-12.1515,143.0437],[-66.6265,-12.1536,141.8983],[-66.6245,-12.1548,152.0893],[-66.6255,-12.1579,145.3385],[-66.6213,-12.1616,144.8782],[-66.6225,-12.1627,144.8782],[-66.6233,-12.161,144.2388],[-66.6258,-12.1608,142.7869],[-66.6267,-12.1632,143.635],[-66.6289,-12.1634,138.9698],[-66.6291,-12.1683,150.7471],[-66.6312,-12.1668,144.109],[-66.6338,-12.17,147.6311],[-66.6326,-12.1716,146.1303],[-66.6305,-12.1692,150.7471],[-66.6313,-12.1721,146.1303],[-66.6289,-12.1709,147.2371],[-66.6274,-12.1721,146.7642],[-66.6283,-12.1755,148.5801],[-66.6204,-12.1746,152.455],[-66.624,-12.1779,148.1506],[-66.6222,-12.1794,141.5079],[-66.62,-12.1784,144.5886],[-66.6193,-12.1845,145.4358],[-66.6215,-12.1842,147.0413],[-66.6227,-12.1867,148.6264],[-66.6249,-12.1861,148.5283],[-66.6276,-12.1923,149.7794],[-66.6234,-12.1906,151.4501],[-66.6243,-12.196,143.826],[-66.6218,-12.1943,154.801],[-66.6195,-12.198,155.1005],[-66.6156,-12.1972,148.4008],[-66.6114,-12.1992,143.7713],[-66.6125,-12.2008,144.4362],[-66.6105,-12.2015,143.8414],[-66.6132,-12.2051,144.2834],[-66.6165,-12.2032,150.8545],[-66.6177,-12.2069,147.2602],[-66.6214,-12.2059,149.731],[-66.6223,-12.2097,147.0915],[-66.6242,-12.2073,148.5838],[-66.626,-12.2101,148.3715],[-66.628,-12.208,146.1204],[-66.6307,-12.2107,155.0931],[-66.6311,-12.2081,143.0247],[-66.6339,-12.2088,144.1937],[-66.6347,-12.2106,146.2502],[-66.6423,-12.2077,152.8637],[-66.6426,-12.2097,146.2693],[-66.6395,-12.2117,147.2783],[-66.6434,-12.2122,147.8078],[-66.6426,-12.2149,153.6781],[-66.649,-12.2196,150.7879],[-66.6501,-12.2232,141.0259],[-66.6457,-12.225,145.296],[-66.646,-12.2278,147.9872],[-66.6443,-12.2302,147.6322],[-66.6504,-12.2317,141.4405],[-66.6522,-12.237,143.5578],[-66.6503,-12.2373,149.2284],[-66.6511,-12.2386,141.3882],[-66.6487,-12.2404,142.2121],[-66.6457,-12.2397,143.0773],[-66.6401,-12.2419,145.8397],[-66.6412,-12.2482,144.3233],[-66.6395,-12.2487,144.6093],[-66.6455,-12.2536,145.7112],[-66.6451,-12.257,150.6543],[-66.648,-12.2585,143.9581],[-66.6485,-12.2569,143.0555],[-66.6513,-12.2572,145.3348],[-66.6495,-12.2597,142.5492],[-66.6521,-12.2599,142.9888],[-66.6513,-12.2617,147.4922],[-66.6528,-12.2615,142.5797],[-66.6497,-12.2661,144.9286],[-66.6511,-12.2672,141.4899],[-66.6486,-12.2684,143.673],[-66.6468,-12.2671,142.6264],[-66.6458,-12.2697,143.6666],[-66.6478,-12.2701,142.6478],[-66.6464,-12.2724,147.0514],[-66.6486,-12.2714,142.9825],[-66.6486,-12.2752,140.7446],[-66.6524,-12.2749,144.7084],[-66.6533,-12.277,145.8513],[-66.6569,-12.2744,146.3728],[-66.6559,-12.2771,145.7993],[-66.6587,-12.2784,149.6754],[-66.6583,-12.2753,147.1721],[-66.6626,-12.2747,145.0298],[-66.6619,-12.2769,144.9804],[-66.6644,-12.2782,142.1761],[-66.666,-12.2816,141.4174],[-66.6647,-12.2827,148.2325],[-66.6652,-12.2855,145.4972],[-66.6634,-12.2856,147.2704],[-66.6652,-12.2874,145.108],[-66.6627,-12.2902,144.8891],[-66.6664,-12.2902,145.6966],[-66.667,-12.292,143.7915],[-66.6657,-12.2966,142.3833],[-66.6637,-12.295,144.1286],[-66.6621,-12.2961,148.8604],[-66.6661,-12.2998,144.7484],[-66.6656,-12.3014,146.0414],[-66.6637,-12.3004,145.5145],[-66.6636,-12.304,150.1258],[-66.6618,-12.3038,150.1258],[-66.6629,-12.3006,145.3878],[-66.6604,-12.2999,147.3721],[-66.6573,-12.3041,148.2857],[-66.651,-12.305,154.7167],[-66.65,-12.3079,150.1384],[-66.6526,-12.3075,147.5915],[-66.6522,-12.3094,141.1697],[-66.6545,-12.3099,141.8795],[-66.6547,-12.314,150.8983],[-66.6576,-12.3136,144.7058],[-66.6582,-12.316,150.0682],[-66.6614,-12.317,142.7115],[-66.6611,-12.3209,146.8368],[-66.6638,-12.3189,148.9165],[-66.6671,-12.3222,149.4525],[-66.6702,-12.3204,146.1431],[-66.6729,-12.3229,141.6635],[-66.6705,-12.3258,144.5738],[-66.6676,-12.3234,152.0881],[-66.669,-12.3263,144.2927],[-66.666,-12.326599999999999,143.5909],[-66.6636,-12.3348,149.9492],[-66.6619,-12.3324,144.4489],[-66.6615,-12.3344,141.0459],[-66.6588,-12.3353,153.8955],[-66.6582,-12.3404,144.623],[-66.6549,-12.3419,146.9384],[-66.6542,-12.3459,147.6858],[-66.6572,-12.3482,146.5897],[-66.6585,-12.343,146.9984],[-66.6595,-12.3447,148.0417],[-66.6611,-12.3434,143.7606],[-66.6633,-12.3448,147.4252],[-66.6655,-12.3428,151.4784],[-66.6699,-12.3446,154.9035],[-66.673,-12.3429,151.2841],[-66.6745,-12.3454,147.8293],[-66.684,-12.349,147.1028],[-66.6839,-12.3523,158.8782],[-66.6865,-12.3542,145.6469],[-66.6898,-12.3538,143.7918],[-66.6923,-12.3595,155.4354],[-66.6959,-12.3614,144.2241],[-66.6993,-12.366,149.7974],[-66.6983,-12.3718,142.6712],[-66.6956,-12.3746,141.6018],[-66.6956,-12.3826,141.276],[-66.6938,-12.3837,150.9526],[-66.6937,-12.3872,143.5315],[-66.6908,-12.3873,142.681],[-66.6893,-12.3923,147.177],[-66.6913,-12.3964,141.8547],[-66.6902,-12.3994,150.9509],[-66.6916,-12.4057,147.2265],[-66.6946,-12.4096,151.1671],[-66.6965,-12.4205,141.8286],[-66.691,-12.4213,141.665],[-66.6881,-12.4197,142.3791],[-66.6868,-12.4217,143.6604],[-66.6736,-12.4244,158.7121],[-66.6746,-12.4274,145.4215],[-66.6733,-12.4267,146.4647],[-66.6706,-12.4288,144.1579],[-66.6686,-12.4331,156.6202],[-66.6665,-12.4327,147.4915],[-66.6655,-12.4374,147.7653],[-66.6631,-12.4379,157.2791],[-66.664,-12.4399,152.2259],[-66.6608,-12.4418,143.2392],[-66.6626,-12.4424,148.3324],[-66.6618,-12.4445,152.8738],[-66.6547,-12.4498,147.3389],[-66.6593,-12.4498,144.332],[-66.6597,-12.448,144.6222],[-66.6617,-12.4501,147.4091],[-66.6672,-12.4512,147.3026],[-66.6673,-12.4535,151.0698],[-66.6693,-12.4544,148.3978],[-66.6688,-12.4568,147.5114],[-66.6707,-12.4582,147.2476],[-66.6678,-12.462,150.2386],[-66.6697,-12.4615,150.2386],[-66.671,-12.466,148.338],[-66.6719,-12.4647,148.338],[-66.6739,-12.4657,145.5255],[-66.6736,-12.4697,155.0931],[-66.6742,-12.4684,143.0365],[-66.6758,-12.4698,154.6658],[-66.6772,-12.4688,145.3851],[-66.6787,-12.47,147.3727],[-66.6778,-12.4713,156.2151],[-66.6799,-12.471,147.3727],[-66.6799,-12.4734,151.1866],[-66.6824,-12.4742,151.3113],[-66.6829,-12.4784,152.0942],[-66.6853,-12.4788,146.3354],[-66.6836,-12.4812,158.0861],[-66.685,-12.4828,142.9182],[-66.6829,-12.4841,152.9752],[-66.6854,-12.4855,143.6042],[-66.6816,-12.4895,156.2384],[-66.6827,-12.4921,147.5906],[-66.6787,-12.4934,154.5913],[-66.6689,-12.4863,149.1995],[-66.6701,-12.4841,159.6854],[-66.6679,-12.4847,146.2373],[-66.6675,-12.4816,147.1926],[-66.6627,-12.4822,149.1851],[-66.6625,-12.4794,149.898],[-66.6607,-12.4806,151.4441],[-66.6572,-12.4765,154.1599],[-66.6538,-12.477,152.2021],[-66.6548,-12.4743,152.2118],[-66.6521,-12.475,153.6743],[-66.6517,-12.4723,155.2047],[-66.65,-12.4743,145.3869],[-66.6475,-12.4718,145.6343],[-66.6361,-12.4711,151.26],[-66.6334,-12.4737,156.2352],[-66.6321,-12.4722,147.9454],[-66.6274,-12.4746,147.9585],[-66.6266,-12.4768,147.7815],[-66.6216,-12.4798,154.9112],[-66.6225,-12.4861,163.624],[-66.6258,-12.4919,149.5432],[-66.6266,-12.4911,143.7651],[-66.6282,-12.4925,144.584],[-66.63,-12.4911,144.0729],[-66.6319,-12.4927,145.0907],[-66.6332,-12.4907,144.4364],[-66.6353,-12.4917,159.5811],[-66.6356,-12.4901,145.8057],[-66.6388,-12.4903,151.4854],[-66.6398,-12.4881,145.0588],[-66.6413,-12.489,144.8364],[-66.6469,-12.4866,150.3233],[-66.6507,-12.4883,147.2546],[-66.65,-12.4894,147.2546],[-66.6522,-12.4909,153.9757],[-66.6506,-12.4925,159.9975],[-66.6537,-12.4929,150.5009],[-66.655,-12.4949,146.582],[-66.6536,-12.4957,146.582],[-66.6542,-12.4969,147.3023],[-66.6598,-12.497,151.0577],[-66.6592,-12.4982,147.3239],[-66.6616,-12.4985,144.2469],[-66.6591,-12.5004,148.5484],[-66.6617,-12.5032,151.0806],[-66.6598,-12.5032,148.6975],[-66.6601,-12.506,148.7875],[-66.6582,-12.5063,143.9498],[-66.656,-12.5111,146.565],[-66.6548,-12.5088,143.7442],[-66.6525,-12.5091,143.9755],[-66.6507,-12.504,156.3147],[-66.6492,-12.5062,144.014],[-66.6483,-12.5048,144.014],[-66.6435,-12.5047,141.9934],[-66.6423,-12.5077,143.6913],[-66.6376,-12.5087,146.0199],[-66.6384,-12.5112,145.616],[-66.6364,-12.5111,146.662],[-66.6372,-12.5144,147.73],[-66.6346,-12.5165,156.1535],[-66.6356,-12.5187,144.9444],[-66.6369,-12.518,144.9444],[-66.6376,-12.521,154.9652],[-66.6345,-12.5212,153.8602],[-66.6316,-12.5254,157.6155],[-66.633,-12.5248,143.9626],[-66.6348,-12.5266,144.5844],[-66.6401,-12.525,143.6209],[-66.6424,-12.5276,156.8736],[-66.646,-12.5219,145.6111],[-66.6491,-12.5209,146.8798],[-66.6552,-12.5222,144.651],[-66.65,-12.5275,144.1133],[-66.6466,-12.5276,157.5592],[-66.6475,-12.5296,144.1305],[-66.6453,-12.5307,145.7238],[-66.6471,-12.5311,145.7238],[-66.6459,-12.5349,150.307],[-66.6475,-12.5352,145.9455],[-66.6478,-12.5373,146.0515],[-66.6495,-12.5383,145.2801],[-66.6507,-12.5363,144.7787],[-66.6528,-12.5395,149.3561],[-66.6521,-12.5433,147.884],[-66.6553,-12.5435,144.1748],[-66.6568,-12.5462,143.9048],[-66.6569,-12.5557,142.2936],[-66.6532,-12.5607,146.1501],[-66.6537,-12.5628,151.854],[-66.6512,-12.5622,142.7224],[-66.6504,-12.5652,144.9577],[-66.6476,-12.5642,152.3859],[-66.6479,-12.5658,145.4278],[-66.6453,-12.5664,151.6419],[-66.6444,-12.569,146.2172],[-66.6476,-12.5704,151.5539],[-66.6464,-12.5717,145.6881],[-66.6469,-12.5775,148.3118],[-66.6438,-12.5785,146.43],[-66.6445,-12.5815,149.4896],[-66.6423,-12.5808,152.5768],[-66.6414,-12.5836,149.0741],[-66.639,-12.5836,145.5672],[-66.6384,-12.5862,145.9755],[-66.6325,-12.5859,155.8888],[-66.6333,-12.5898,154.0226],[-66.6315,-12.5884,147.2792],[-66.631,-12.591,146.881],[-66.6282,-12.5915,149.3114],[-66.628,-12.5953,147.6409],[-66.6257,-12.5958,148.0706],[-66.6277,-12.597,147.4981],[-66.6258,-12.5981,147.5775],[-66.6272,-12.6015,152.5004],[-66.6252,-12.6022,146.5076],[-66.6253,-12.6099,158.9829],[-66.6237,-12.6102,153.3041],[-66.6235,-12.6138,149.1906],[-66.6234,-12.6122,150.5498],[-66.6217,-12.6119,157.8102],[-66.6217,-12.6153,150.4505],[-66.619,-12.6161,151.871],[-66.6219,-12.6168,149.2424],[-66.6191,-12.6189,152.1379],[-66.6212,-12.6225,149.7108],[-66.6168,-12.6234,150.0605],[-66.6194,-12.6259,152.1615],[-66.6174,-12.6262,154.9295],[-66.6169,-12.6299,149.9687],[-66.6191,-12.6322,152.6752],[-66.6168,-12.6327,150.2253],[-66.6191,-12.6344,152.9206],[-66.6169,-12.6367,152.3658],[-66.621,-12.6366,153.1034],[-66.6192,-12.642,148.4344],[-66.6138,-12.643,143.6358],[-66.6111,-12.6382,145.4172],[-66.6077,-12.6377,148.2468],[-66.6,-12.6394,149.7719],[-66.5959,-12.6433,149.3294],[-66.5952,-12.6454,160.0508],[-66.5972,-12.6489,146.7823],[-66.5949,-12.6533,154.4239],[-66.5974,-12.6541,146.165],[-66.5961,-12.6554,151.5529],[-66.5966,-12.6582,146.2094],[-66.5985,-12.6574,145.7614],[-66.5986,-12.6588,149.1043],[-66.6011,-12.6591,145.9758],[-66.6016,-12.6645,157.1832],[-66.6043,-12.6658,146.2622],[-66.6026,-12.668,146.6709],[-66.6051,-12.6686,146.5518],[-66.603,-12.6712,146.7263],[-66.605,-12.6714,145.9442],[-66.6058,-12.6732,147.4933],[-66.6033,-12.6737,147.0815],[-66.6028,-12.6758,148.3851],[-66.5967,-12.6807,167.1291],[-66.5957,-12.6842,169.7111],[-66.5977,-12.6852,155.1465],[-66.5963,-12.6857,155.1465],[-66.5971,-12.6871,153.7049],[-66.5951,-12.691,152.3029],[-66.596,-12.6951,148.8207],[-66.5973,-12.6956,148.8207],[-66.5972,-12.6936,151.842],[-66.6,-12.695,150.204],[-66.6042,-12.6913,147.443],[-66.6041,-12.6887,150.6423],[-66.6062,-12.6904,148.081],[-66.6067,-12.6887,147.5566],[-66.6089,-12.6894,148.0149],[-66.6114,-12.687,148.5846],[-66.6235,-12.6985,147.5439],[-66.6234,-12.7013,147.4935],[-66.6189,-12.7045,153.2727],[-66.6173,-12.7101,147.1438],[-66.6197,-12.7183,147.3211],[-66.6204,-12.7288,151.4787],[-66.6182,-12.7371,156.7206],[-66.62,-12.7438,152.5865],[-66.6239,-12.7462,153.3413],[-66.6292,-12.7453,148.8691],[-66.6322,-12.7426,147.575],[-66.6327,-12.7378,157.7141],[-66.6297,-12.7325,155.5267],[-66.6389,-12.7236,156.1146],[-66.6436,-12.724,159.3383],[-66.6458,-12.7278,149.9147],[-66.6451,-12.7311,158.8028],[-66.6479,-12.7309,151.6054],[-66.646,-12.7344,149.4985],[-66.647,-12.7377,151.8643],[-66.6445,-12.7358,157.4332],[-66.6445,-12.7382,153.7745],[-66.6419,-12.7401,163.7573],[-66.6433,-12.7406,154.9636],[-66.6432,-12.7443,163.0975],[-66.6415,-12.7461,161.1872],[-66.6428,-12.7482,158.4162],[-66.6413,-12.7491,158.4162],[-66.6434,-12.7512,161.2465],[-66.6432,-12.756,159.0447],[-66.6446,-12.7579,155.021],[-66.6412,-12.7603,160.0044],[-66.6431,-12.7614,165.6788],[-66.6407,-12.7659,163.287],[-66.6415,-12.7677,148.4024],[-66.6389,-12.7685,162.733],[-66.6411,-12.7704,151.3197],[-66.6392,-12.7701,148.944],[-66.6389,-12.7775,156.1276],[-66.6367,-12.7792,158.9812],[-66.6393,-12.7816,150.5908],[-66.6358,-12.7834,155.5716],[-66.6384,-12.7856,150.8759],[-66.6358,-12.7863,153.4649],[-66.6361,-12.7889,151.333],[-66.6346,-12.7901,156.0661],[-66.6365,-12.7922,148.8647],[-66.6343,-12.7934,152.7394],[-66.6346,-12.7977,150.4944],[-66.6321,-12.8019,166.9483],[-66.6334,-12.806,150.1693],[-66.637,-12.8079,148.6084],[-66.6394,-12.805,152.4452],[-66.6427,-12.8062,148.8715],[-66.6449,-12.8036,148.7707],[-66.6467,-12.805,157.6176],[-66.6469,-12.8033,148.4195],[-66.6502,-12.801,162.6483],[-66.657,-12.8013,158.3724],[-66.6567,-12.798,159.0824],[-66.6587,-12.8009,149.0326],[-66.6602,-12.7991,160.1164],[-66.6624,-12.8009,151.5844],[-66.6671,-12.8008,155.8686],[-66.6827,-12.8109,160.5493],[-66.6851,-12.8163,164.653],[-66.6875,-12.8168,151.2348],[-66.6956,-12.8275,157.3439],[-66.696,-12.831,151.2205],[-66.6922,-12.8313,158.2602],[-66.6896,-12.8343,153.7469],[-66.6873,-12.8346,151.4155],[-66.6837,-12.8454,165.2677],[-66.6836,-12.8504,164.0391],[-66.6859,-12.8558,161.2087],[-66.6899,-12.8573,152.8732],[-66.6913,-12.8649,162.1839],[-66.6946,-12.8649,155.0406],[-66.695,-12.8666,148.0129],[-66.6965,-12.8655,155.0406],[-66.6977,-12.8682,148.4228],[-66.701,-12.8695,155.2538],[-66.7007,-12.8736,150.5834],[-66.7021,-12.8748,149.1541],[-66.7006,-12.8763,150.5948],[-66.7023,-12.8786,153.1403],[-66.6999,-12.8779,150.5948],[-66.6977,-12.8825,149.4658],[-66.6954,-12.8817,150.6728],[-66.6959,-12.8881,147.493],[-66.6939,-12.8907,151.1803],[-66.6979,-12.8953,150.6949],[-66.6986,-12.9028,157.5343],[-66.7046,-12.901,155.3177],[-66.7052,-12.9025,157.4973],[-66.7028,-12.9047,156.2767],[-66.703,-12.9111,166.0634],[-66.7002,-12.9127,162.0996],[-66.6998,-12.9169,154.2041],[-66.6949,-12.9199,154.3461],[-66.6962,-12.9242,153.9267],[-66.6951,-12.9278,161.0705],[-66.6932,-12.9272,150.2641],[-66.6928,-12.9247,151.6716],[-66.6902,-12.9246,153.5669],[-66.6878,-12.9208,157.5917],[-66.6851,-12.921,154.8979],[-66.6844,-12.9191,156.4306],[-66.6792,-12.9179,166.9623],[-66.6731,-12.919,153.0342],[-66.6709,-12.921,155.911],[-66.6727,-12.9265,152.2946],[-66.6699,-12.9301,155.1658],[-66.6751,-12.9303,155.5293],[-66.6753,-12.9285,152.9425],[-66.6773,-12.9294,152.6161],[-66.6774,-12.9265,153.5398],[-66.6793,-12.9289,152.4446],[-66.6824,-12.9278,160.733],[-66.6821,-12.9292,151.6612],[-66.6851,-12.931,151.0992],[-66.6839,-12.9366,168.7312],[-66.6861,-12.9412,163.3245],[-66.6909,-12.9424,150.9574],[-66.6921,-12.945,170.471],[-66.6977,-12.9449,152.9517],[-66.6971,-12.9468,159.3871],[-66.7025,-12.9478,152.8341],[-66.7056,-12.9466,151.1765],[-66.7051,-12.944,157.2376],[-66.7065,-12.9436,157.2376],[-66.706,-12.9452,153.3571],[-66.7084,-12.9449,153.9267],[-66.7079,-12.9469,151.784],[-66.7107,-12.9478,152.7277],[-66.71,-12.9499,151.428],[-66.7122,-12.9502,150.6923],[-66.7134,-12.9532,149.6555],[-66.7121,-12.9547,152.4106],[-66.7135,-12.9557,160.6426],[-66.7122,-12.9564,153.3918],[-66.7143,-12.9609,158.9827],[-66.713,-12.9627,159.2002],[-66.711,-12.9627,163.5806],[-66.7099,-12.9656,157.6436],[-66.707,-12.9658,154.924],[-66.7062,-12.964,162.925],[-66.697,-12.9665,153.4658],[-66.6954,-12.9696,159.57],[-66.7024,-12.9713,151.3841],[-66.7044,-12.9756,155.3004],[-66.7026,-12.9778,150.1656],[-66.7077,-12.9836,154.9727],[-66.707,-12.99,154.1931],[-66.7089,-12.9962,151.1555],[-66.7114,-12.9965,156.6449],[-66.7136,-12.9992,151.8077],[-66.715,-12.998,151.8077],[-66.7173,-12.9998,151.6871],[-66.7182,-12.999,151.9111],[-66.7221,-13.0066,152.0913],[-66.725,-13.0048,153.7791],[-66.726,-13.0059,154.2849],[-66.727,-13.004,152.569],[-66.7292,-13.0049,154.3332],[-66.7276,-13.0032,152.6205],[-66.7283,-13.0009,154.3005],[-66.7263,-12.9993,161.1163],[-66.7278,-12.9986,153.0981],[-66.7267,-12.9967,156.0405],[-66.7287,-12.9968,153.4104],[-66.728,-12.9951,151.4821],[-66.7308,-12.9944,152.509],[-66.7315,-12.9923,157.9819],[-66.7327,-12.9942,152.5473],[-66.735,-12.993,152.6566],[-66.7395,-12.9953,154.5931],[-66.74,-12.9985,152.8719],[-66.742,-12.9988,165.6906],[-66.7406,-13.0028,154.3017],[-66.7393,-13.0025,156.2184],[-66.7382,-13.0047,152.5966],[-66.7405,-13.01,154.4243],[-66.7427,-13.0093,155.9083],[-66.7431,-13.0113,170.218],[-66.7496,-13.0054,159.7766],[-66.7578,-13.0084,155.9065],[-66.7572,-13.0119,159.7727],[-66.7602,-13.0124,155.8362],[-66.7581,-13.0162,164.325],[-66.7594,-13.0169,158.2423],[-66.7603,-13.015,152.5678],[-66.7614,-13.0193,155.7886],[-66.7596,-13.0204,161.8072],[-66.7616,-13.0274,154.9315],[-66.7589,-13.0331,155.7517],[-66.7584,-13.0393,157.6604],[-66.7555,-13.0387,163.1581],[-66.7514,-13.0275,161.5089],[-66.7457,-13.0254,159.3465],[-66.7464,-13.0234,159.0713],[-66.7439,-13.0263,158.7668],[-66.7435,-13.0233,154.8284],[-66.736,-13.0237,158.0172],[-66.7327,-13.0308,158.3429],[-66.7344,-13.0302,155.9708],[-66.7328,-13.0329,159.7202],[-66.736,-13.0351,165.1443],[-66.7323,-13.0372,157.1201],[-66.7343,-13.0384,160.4431],[-66.7332,-13.0425,153.6794],[-66.7322,-13.0419,153.6794],[-66.7306,-13.0442,157.175],[-66.7318,-13.0468,167.2402],[-66.7295,-13.0477,168.6702],[-66.7296,-13.0522,166.8668],[-66.7265,-13.0527,167.3411],[-66.7282,-13.0545,154.2898],[-66.727,-13.0589,162.1979],[-66.7281,-13.0601,157.9574],[-66.7257,-13.0623,159.1731],[-66.7256,-13.0649,158.1414],[-66.729,-13.0761,157.3187],[-66.7272,-13.0791,170.9185],[-66.7304,-13.0803,163.463],[-66.7294,-13.0845,168.8951],[-66.7317,-13.0858,167.7082],[-66.7321,-13.0903,161.371],[-66.73,-13.0912,153.1746],[-66.7304,-13.0959,162.5078],[-66.7277,-13.0968,159.1873],[-66.7294,-13.0982,164.6896],[-66.7278,-13.1044,155.2509],[-66.73,-13.104,157.1916],[-66.7303,-13.1065,168.3035],[-66.733,-13.1042,158.1924],[-66.7353,-13.1057,162.8111],[-66.7371,-13.1027,163.7656],[-66.7401,-13.1022,156.8473],[-66.7401,-13.1003,154.1161],[-66.743,-13.1001,158.0755],[-66.744,-13.0972,156.8828],[-66.7463,-13.0972,158.5175],[-66.7476,-13.0929,162.2361],[-66.7549,-13.0902,159.03],[-66.762,-13.0937,155.8878],[-66.7669,-13.1053,168.2391],[-66.7592,-13.1089,166.2055],[-66.7524,-13.1037,163.3384],[-66.7451,-13.106,167.9128],[-66.7425,-13.1107,160.2323],[-66.7401,-13.1108,161.8874],[-66.7436,-13.1177,157.7989],[-66.7409,-13.1211,159.5352],[-66.7392,-13.1209,156.9897],[-66.7381,-13.123,172.0604],[-66.7359,-13.1223,159.6461],[-66.7357,-13.1246,170.7272],[-66.7342,-13.1229,162.5132],[-66.7329,-13.1239,161.6487],[-66.7277,-13.1214,160.6602],[-66.7275,-13.1234,160.5671],[-66.7253,-13.1245,171.1499],[-66.7265,-13.1287,161.7852],[-66.7313,-13.1321,158.9],[-66.7308,-13.1338,165.1788],[-66.732,-13.1348,166.5844],[-66.7332,-13.1332,160.4488],[-66.7328,-13.1354,166.5844],[-66.7415,-13.1388,161.8675],[-66.7423,-13.1362,165.1752],[-66.7453,-13.1351,162.0274],[-66.7475,-13.1362,158.347],[-66.7496,-13.141,160.8169],[-66.7459,-13.1415,167.6117],[-66.745,-13.1435,160.8163],[-66.747,-13.1439,157.5016],[-66.7438,-13.1463,159.8909],[-66.7423,-13.1454,160.1519],[-66.7425,-13.1474,159.8909],[-66.7399,-13.1475,162.4009],[-66.7396,-13.1507,163.1529],[-66.7377,-13.1499,157.5064],[-66.7329,-13.1538,161.7034],[-66.7326,-13.1579,166.368],[-66.735,-13.1575,164.5574],[-66.7334,-13.1596,165.1886],[-66.7362,-13.1624,161.2194],[-66.7346,-13.1641,164.4149],[-66.7378,-13.1644,171.2528],[-66.7364,-13.1645,160.7705],[-66.7365,-13.1678,160.7513],[-66.735,-13.1688,164.1242],[-66.7366,-13.1695,159.7419],[-66.7351,-13.1717,165.8547],[-66.7369,-13.173,160.9325],[-66.7344,-13.1725,165.8547],[-66.734,-13.1745,162.5009],[-66.7363,-13.1751,160.5173],[-66.7344,-13.1779,161.7411],[-66.7379,-13.1806,166.0036],[-66.7384,-13.1829,160.699],[-66.7439,-13.1841,164.5645],[-66.7452,-13.1826,162.9132],[-66.746,-13.1842,161.3456],[-66.7537,-13.184,160.7937],[-66.7566,-13.1802,162.3627],[-66.7587,-13.1824,158.0634],[-66.7612,-13.1802,161.9108],[-66.7641,-13.1864,172.1593],[-66.7651,-13.1849,156.7928],[-66.7687,-13.1874,162.2542],[-66.7702,-13.1837,159.706],[-66.7729,-13.184,171.6716],[-66.7719,-13.1789,167.7809],[-66.7746,-13.1739,163.6846],[-66.7791,-13.1756,158.9203],[-66.7797,-13.1835,155.0],[-66.7763,-13.1898,159.2258],[-66.7762,-13.1931,159.5556],[-66.7797,-13.1996,170.0853],[-66.7864,-13.2054,157.1821],[-66.7887,-13.2103,160.0841],[-66.787,-13.2214,162.3205],[-66.784,-13.2254,157.5159],[-66.7842,-13.2314,162.011],[-66.7825,-13.2364,165.6398],[-66.7852,-13.237,163.6234],[-66.7973,-13.2327,166.858],[-66.8145,-13.2386,158.7923],[-66.8139,-13.2414,170.3715],[-66.8059,-13.2431,157.8427],[-66.812,-13.2464,159.3338],[-66.8144,-13.251,164.6742],[-66.8163,-13.2503,161.2521],[-66.8163,-13.2518,159.037],[-66.8144,-13.252,169.1534],[-66.8187,-13.2565,164.3144],[-66.8208,-13.2625,160.504],[-66.8175,-13.2687,161.3191],[-66.8086,-13.271,171.457],[-66.8078,-13.2729,161.6292],[-66.8044,-13.2736,168.6333],[-66.8043,-13.2761,168.9213],[-66.8046,-13.2781,172.5488],[-66.8073,-13.2798,174.3445],[-66.8149,-13.2763,164.6742],[-66.8173,-13.2788,163.4354],[-66.8151,-13.2832,163.1465],[-66.8099,-13.2855,166.218],[-66.8083,-13.2849,163.5678],[-66.807,-13.2868,162.2759],[-66.8063,-13.2848,164.9137],[-66.8043,-13.2873,166.8654],[-66.8064,-13.2917,167.4952],[-66.8086,-13.2912,164.8236],[-66.8168,-13.2949,165.6522],[-66.8187,-13.2978,170.6755],[-66.8207,-13.3103,161.6809],[-66.8179,-13.3144,165.7843],[-66.812,-13.3155,161.7918],[-66.8114,-13.3184,164.8594],[-66.813,-13.3228,163.1888],[-66.8178,-13.325,166.321],[-66.8228,-13.3314,164.6687],[-66.8222,-13.3346,167.3781],[-66.8181,-13.3376,162.3138],[-66.8181,-13.3401,163.4106],[-66.8242,-13.343,170.4507],[-66.8291,-13.3391,166.106],[-66.8348,-13.3394,169.8292],[-66.8373,-13.3425,162.2427],[-66.8378,-13.3469,162.7232],[-66.8334,-13.3588,162.8883],[-66.8351,-13.3631,166.1034],[-66.8384,-13.3649,168.2225],[-66.8505,-13.3641,161.2003],[-66.8585,-13.3574,172.0118],[-66.8623,-13.3578,162.4076],[-66.8631,-13.3605,158.8423],[-66.8606,-13.3724,174.2564],[-66.8632,-13.3985,169.9848],[-66.8696,-13.4068,168.4927],[-66.8719,-13.4142,163.8531],[-66.8804,-13.4133,170.295],[-66.8857,-13.4108,168.6688],[-66.8829,-13.4011,166.1855],[-66.8839,-13.3964,165.2086],[-66.8865,-13.3928,162.8055],[-66.8895,-13.392,162.1205],[-66.8941,-13.3942,167.0281],[-66.8962,-13.4001,170.9913],[-66.893,-13.4132,167.2384],[-66.8946,-13.4269,167.5756],[-66.8902,-13.4339,171.4862],[-66.8862,-13.4362,171.0725],[-66.8791,-13.4372,170.2186],[-66.8735,-13.4356,173.9899],[-66.8695,-13.4462,173.135],[-66.8696,-13.4552,166.3585],[-66.874,-13.4569,169.9331],[-66.8842,-13.455,165.3555],[-66.8909,-13.4593,167.7116],[-66.8929,-13.4517,165.5929],[-66.898,-13.4514,166.0479],[-66.8993,-13.4538,166.8217],[-66.8979,-13.4628,165.3029],[-66.8928,-13.469,167.6562],[-66.896,-13.4709,167.5295],[-66.8995,-13.4706,165.9223],[-66.9085,-13.4659,166.0642],[-66.9073,-13.4627,166.9165],[-66.9019,-13.4576,169.962],[-66.8996,-13.4462,172.2858],[-66.901,-13.4444,167.6107],[-66.9074,-13.4458,170.5499],[-66.9132,-13.4599,174.6497],[-66.9181,-13.4637,166.354],[-66.9201,-13.4723,172.1802],[-66.9311,-13.4808,173.7145],[-66.9321,-13.4874,171.4537],[-66.9441,-13.4886,168.1683],[-66.9494,-13.4941,177.5833],[-66.9539,-13.5059,168.5677],[-66.9529,-13.5195,172.0906],[-66.9554,-13.5251,170.5502],[-66.9593,-13.5277,166.5053],[-66.9638,-13.5275,169.8033],[-66.9847,-13.5223,167.4968],[-66.9921,-13.5237,168.5114],[-66.9947,-13.5266,170.236],[-66.9923,-13.5306,168.6435],[-66.9836,-13.5328,173.675],[-66.9746,-13.5376,173.6656],[-66.9691,-13.5489,169.238],[-66.9709,-13.5571,166.2456],[-66.9724,-13.5592,169.7889],[-66.9764,-13.5595,174.7009],[-66.9797,-13.5573,165.6068],[-66.987,-13.5471,168.4661],[-66.9963,-13.5437,169.812],[-66.9902,-14.2296,172.845],[-66.9869,-14.2984,176.2318],[-66.9862,-14.3662,177.3767]]]]}
,"properties": {"GID_3": "BOL.3.2.4_2","GID_0": "BOL","country": "Bolivia","GID_1": "BOL.3_1","province": "Beni","NL_NAME_1": "NA","GID_2": "BOL.3.2_2","county": "GeneralJoséBallivián","NL_NAME_2": "NA","city": "SantaRosa","VARNAME_3": "NA","NL_NAME_3": "NA","TYPE_3": "District","ENGTYPE_3": "Distrito","CC_3": "NA","HASC_3": "NA","name": "Santa_Rosa.city","area_km2": 9533.162,"hist_schema_id": "Elevation0-9000","hist_area_km2": {"125": 2.674,"150": 3086.569,"175": 6443.568,"200": 0.351}}}