{"type":"Feature","properties":{"GID_3":"BOL.5.3.3_2","GID_0":"BOL","country":"Bolivia","GID_1":"BOL.5_1","province":"Oruro","NL_NAME_1":"NA","GID_2":"BOL.5.3_2","county":"Cercado","NL_NAME_2":"NA","city":"Oruro","VARNAME_3":"NA","NL_NAME_3":"NA","TYPE_3":"District","ENGTYPE_3":"Distrito","CC_3":"NA","HASC_3":"NA","name":"Oruro.city"},
"geometry":{"type": "MultiPolygon","coordinates": [[[[-67.1799,-17.9723,3697.2871],[-67.1498,-18.0326,3703.728],[-67.0972,-18.0141,3698.5371],[-67.0836,-18.0469,3697.0005],[-67.0822,-18.042,3696.9409],[-67.0759,-18.0393,3696.0],[-67.0736,-18.0399,3696.0],[-67.0696,-18.0454,3696.0],[-67.0306,-18.0529,3787.4421],[-67.0273,-18.0516,3739.0593],[-67.0252,-18.0203,3720.4526],[-67.0193,-18.0026,4037.4258],[-67.0153,-17.899,4081.0918],[-67.1181,-17.8713,3706.5576],[-67.1707,-17.9208,3714.4058],[-67.1799,-17.9723,3697.2871]]]]}}