{"type":"Feature","properties":{"GID_2":"BOL.3.4_2","GID_0":"BOL","country":"Bolivia","GID_1":"BOL.3_1","province":"Beni","NL_NAME_1":"NA","county":"Mamoré","VARNAME_2":"NA","NL_NAME_2":"NA","TYPE_2":"Provincia","ENGTYPE_2":"Province","CC_2":"NA","HASC_2":"NA","name":"Mamoré.county"},
"geometry":{"type": "MultiPolygon","coordinates": [[[[-65.082,-14.0167,147.9194],[-64.383,-14.1436,147.9179],[-64.3716,-13.4474,137.4723],[-64.3724,-13.3836,140.6021],[-64.3689,-13.3712,136.0835],[-64.3741,-13.3631,136.0438],[-64.3712,-13.3553,137.4964],[-64.3647,-13.3498,136.1216],[-64.3601,-13.3486,136.1941],[-64.3543,-13.3499,136.1349],[-64.3501,-13.348,136.1399],[-64.3491,-13.3362,136.1729],[-64.353,-13.327,136.0772],[-64.3438,-13.32,136.1499],[-64.3398,-13.32,136.1522],[-64.3384,-13.3105,136.1552],[-64.3297,-13.2995,136.9459],[-64.3282,-13.2943,138.3426],[-64.3316,-13.2816,136.9645],[-64.3262,-13.2702,136.471],[-64.3103,-13.2663,136.0861],[-64.2984,-13.256,136.5408],[-64.296,-13.2514,136.3919],[-64.2964,-13.2464,136.2863],[-64.3013,-13.2461,136.1287],[-64.3106,-13.2489,136.2646],[-64.314,-13.2488,136.9527],[-64.3146,-13.2474,136.1295],[-64.305,-13.2177,138.9265],[-64.3001,-13.2197,139.1653],[-64.3009,-13.2273,139.0324],[-64.2962,-13.236,136.2674],[-64.2942,-13.2358,135.9664],[-64.2915,-13.2288,137.6372],[-64.2929,-13.2222,138.0967],[-64.2968,-13.2157,135.8282],[-64.2985,-13.2145,135.8388],[-64.3087,-13.2155,136.7807],[-64.3105,-13.2132,135.8664],[-64.2969,-13.2087,136.0839],[-64.2956,-13.2069,135.5704],[-64.2974,-13.199,135.7539],[-64.2937,-13.2009,135.7778],[-64.2986,-13.1899,136.246],[-64.2996,-13.1774,135.6205],[-64.2972,-13.1776,136.1275],[-64.2878,-13.185,137.1236],[-64.2805,-13.1842,137.2911],[-64.2783,-13.1705,145.9362],[-64.2832,-13.166,135.786],[-64.283,-13.1616,134.8136],[-64.2724,-13.154,136.0947],[-64.2667,-13.1527,136.4601],[-64.2527,-13.1398,138.0868],[-64.2513,-13.1312,135.5464],[-64.2494,-13.129,137.088],[-64.2525,-13.1166,137.2085],[-64.2493,-13.1154,136.5162],[-64.2476,-13.1123,134.3541],[-64.2484,-13.1032,135.75],[-64.2464,-13.0998,135.6666],[-64.2483,-13.0888,136.1512],[-64.252,-13.0869,136.4919],[-64.2537,-13.0877,136.4919],[-64.2545,-13.0859,135.3084],[-64.2518,-13.0772,136.5275],[-64.2459,-13.0733,135.4758],[-64.2442,-13.0689,135.9435],[-64.2465,-13.0583,136.6315],[-64.2506,-13.0534,135.371],[-64.2528,-13.0461,135.3994],[-64.2488,-13.0404,135.6017],[-64.2492,-13.0342,136.5411],[-64.2525,-13.0289,135.3004],[-64.2639,-13.0186,134.2484],[-64.2702,-13.0,136.5721],[-64.2693,-12.9957,137.5013],[-64.2706,-12.9932,136.8646],[-64.2728,-12.9926,137.7146],[-64.2706,-12.9904,135.7312],[-64.2736,-12.9891,138.7357],[-64.2726,-12.9847,136.0775],[-64.2755,-12.9837,135.2566],[-64.2754,-12.9814,137.1482],[-64.2777,-12.9821,135.2913],[-64.2777,-12.9752,136.1642],[-64.2803,-12.9738,139.2986],[-64.2793,-12.9719,135.5697],[-64.2813,-12.9725,138.5152],[-64.2805,-12.9648,136.9615],[-64.2816,-12.9638,139.8509],[-64.2781,-12.9625,134.6958],[-64.2798,-12.9603,138.2889],[-64.278,-12.9594,137.3983],[-64.2792,-12.9571,138.0381],[-64.2781,-12.9559,135.7599],[-64.2799,-12.9544,136.2353],[-64.2785,-12.9538,136.9131],[-64.2782,-12.9499,135.4916],[-64.2765,-12.9494,137.1253],[-64.2783,-12.9483,135.1462],[-64.2771,-12.9464,135.9569],[-64.279,-12.9455,137.1839],[-64.2783,-12.9424,136.5263],[-64.2762,-12.943,139.6007],[-64.2767,-12.9345,137.0548],[-64.2846,-12.9315,135.43],[-64.2874,-12.9324,136.1623],[-64.2874,-12.9308,134.9522],[-64.2903,-12.9306,136.2071],[-64.2899,-12.9285,134.6715],[-64.298,-12.9263,135.1379],[-64.2947,-12.9212,134.4552],[-64.2966,-12.9187,133.5291],[-64.2948,-12.9167,133.9021],[-64.2927,-12.9178,133.8564],[-64.2905,-12.9164,135.4768],[-64.2919,-12.9137,133.9587],[-64.2886,-12.9099,135.1458],[-64.2905,-12.9087,134.2749],[-64.2884,-12.9078,134.333],[-64.2889,-12.9057,134.7284],[-64.2856,-12.9054,134.3445],[-64.2882,-12.9043,134.1237],[-64.2873,-12.9025,134.3101],[-64.2851,-12.9024,135.3311],[-64.2879,-12.9004,134.4446],[-64.2844,-12.9014,135.0826],[-64.2831,-12.8991,135.7414],[-64.2828,-12.896,136.109],[-64.2854,-12.8952,135.6034],[-64.2873,-12.8906,136.3152],[-64.2892,-12.892,134.6411],[-64.2899,-12.8905,136.0191],[-64.2877,-12.8886,136.7136],[-64.2879,-12.8866,136.6188],[-64.2856,-12.8883,136.5479],[-64.284,-12.8873,136.4699],[-64.2841,-12.8851,135.8559],[-64.2876,-12.8838,135.03],[-64.285,-12.8801,135.3415],[-64.2887,-12.8768,136.2118],[-64.2894,-12.8741,136.8501],[-64.2926,-12.8746,138.9197],[-64.2939,-12.8696,139.3067],[-64.3014,-12.8682,135.9982],[-64.305,-12.865,135.8877],[-64.3027,-12.8616,138.7827],[-64.2988,-12.8632,140.0828],[-64.295,-12.8625,136.1389],[-64.2944,-12.8645,135.5798],[-64.2892,-12.8634,138.3571],[-64.2889,-12.8607,138.9023],[-64.2917,-12.8559,134.3831],[-64.2892,-12.855,139.5176],[-64.2894,-12.8536,137.9969],[-64.2916,-12.8535,133.6279],[-64.2897,-12.851,135.4198],[-64.2841,-12.8513,134.6164],[-64.2847,-12.8548,137.5362],[-64.282,-12.855,133.5384],[-64.2809,-12.8522,133.7682],[-64.2793,-12.8529,133.3241],[-64.2755,-12.851,133.188],[-64.2763,-12.8474,133.9602],[-64.2734,-12.8481,134.3321],[-64.2723,-12.8455,133.9806],[-64.2697,-12.8469,133.8353],[-64.2647,-12.8443,133.3818],[-64.2599,-12.8444,135.0447],[-64.2605,-12.8421,132.9467],[-64.2589,-12.8401,135.2179],[-64.2557,-12.8386,134.1803],[-64.2523,-12.8396,135.6143],[-64.2523,-12.8348,135.3295],[-64.2455,-12.8349,144.0407],[-64.246,-12.8317,136.2476],[-64.2435,-12.8305,136.8679],[-64.2468,-12.8286,134.1124],[-64.2485,-12.825,136.0912],[-64.253,-12.828,138.7942],[-64.2532,-12.8245,139.5502],[-64.2547,-12.8234,134.152],[-64.2687,-12.8244,141.5802],[-64.2704,-12.8206,137.3416],[-64.2621,-12.8149,139.0105],[-64.2629,-12.8098,137.9822],[-64.2644,-12.8096,136.0505],[-64.2674,-12.8136,141.457],[-64.271,-12.8105,137.9731],[-64.2742,-12.8159,139.9473],[-64.2784,-12.8142,135.2711],[-64.2784,-12.8125,134.3209],[-64.2737,-12.8087,141.2443],[-64.276,-12.803,135.0809],[-64.2742,-12.7972,142.7698],[-64.2871,-12.7961,134.2557],[-64.2878,-12.7854,135.6312],[-64.2909,-12.7825,143.8002],[-64.2902,-12.7742,132.2472],[-64.2855,-12.7775,136.1351],[-64.2844,-12.7815,137.139],[-64.279,-12.7817,135.308],[-64.2782,-12.7803,139.713],[-64.2858,-12.7625,135.3095],[-64.2841,-12.7545,137.1604],[-64.2937,-12.754,136.3299],[-64.2955,-12.7517,139.1973],[-64.2994,-12.7516,134.6627],[-64.2992,-12.748,145.9878],[-64.3024,-12.7458,132.6195],[-64.2977,-12.7424,134.9355],[-64.2819,-12.741,138.2287],[-64.2758,-12.7366,133.1972],[-64.2706,-12.736,137.128],[-64.2696,-12.7327,135.9181],[-64.2745,-12.7298,136.2272],[-64.2825,-12.7363,145.3358],[-64.2873,-12.7358,139.2015],[-64.2884,-12.7329,136.26],[-64.2855,-12.7282,133.9208],[-64.2879,-12.7236,134.1651],[-64.2847,-12.7149,136.9644],[-64.2908,-12.7159,136.0978],[-64.2894,-12.7194,133.5569],[-64.2909,-12.7209,134.991],[-64.2994,-12.7213,139.6996],[-64.3009,-12.7159,142.048],[-64.3062,-12.7185,140.1259],[-64.3085,-12.7149,135.9462],[-64.3076,-12.7054,136.0229],[-64.3105,-12.7027,138.3796],[-64.3091,-12.6993,147.249],[-64.3123,-12.6972,137.4803],[-64.311,-12.6949,132.6024],[-64.3168,-12.6933,138.1466],[-64.3196,-12.6958,133.895],[-64.3208,-12.6953,137.9014],[-64.3177,-12.6889,146.8761],[-64.3182,-12.6859,143.5269],[-64.3158,-12.6845,134.9125],[-64.3181,-12.6802,144.9194],[-64.3125,-12.6781,142.4442],[-64.3116,-12.6745,135.269],[-64.3086,-12.6731,140.1815],[-64.3069,-12.6741,138.9603],[-64.3068,-12.6787,133.9995],[-64.3087,-12.6823,135.1692],[-64.3048,-12.6844,138.0656],[-64.3031,-12.6898,139.563],[-64.299,-12.6923,141.6136],[-64.3043,-12.6983,136.3661],[-64.3034,-12.7014,140.2819],[-64.2974,-12.7013,144.9826],[-64.2951,-12.6967,142.3634],[-64.2972,-12.6928,136.1244],[-64.2959,-12.6911,138.0055],[-64.2911,-12.6921,134.2233],[-64.2896,-12.6965,132.9683],[-64.2849,-12.6961,140.0141],[-64.2824,-12.6976,143.7315],[-64.2842,-12.6908,134.351],[-64.2889,-12.6908,135.0542],[-64.2898,-12.6859,135.1131],[-64.2941,-12.6854,141.7972],[-64.2974,-12.6799,142.4902],[-64.2952,-12.678,133.8787],[-64.2933,-12.682,141.9314],[-64.2908,-12.6822,141.2513],[-64.285,-12.676,138.0616],[-64.2847,-12.6738,132.5928],[-64.2897,-12.6668,133.4987],[-64.2989,-12.6652,133.1712],[-64.299,-12.6592,144.5865],[-64.3057,-12.6574,136.5602],[-64.3081,-12.6539,136.4177],[-64.3065,-12.6519,138.6897],[-64.301,-12.6531,146.0683],[-64.2971,-12.6505,137.2594],[-64.2973,-12.6466,136.8948],[-64.2998,-12.6446,139.0535],[-64.3054,-12.6471,135.8458],[-64.308,-12.6456,133.3992],[-64.3115,-12.6494,132.7023],[-64.3117,-12.6544,140.2359],[-64.3158,-12.6564,137.3223],[-64.3166,-12.661,134.3128],[-64.3196,-12.662,131.8703],[-64.3207,-12.6648,142.9787],[-64.3235,-12.6649,141.0297],[-64.3279,-12.6683,141.6016],[-64.3295,-12.6676,132.2604],[-64.3295,-12.665,133.004],[-64.3263,-12.6604,138.9405],[-64.33,-12.6573,133.5303],[-64.3297,-12.6549,134.9709],[-64.3265,-12.6528,136.012],[-64.3235,-12.6541,134.2053],[-64.3197,-12.6534,142.1653],[-64.3169,-12.6486,135.2053],[-64.3211,-12.6475,135.5992],[-64.325,-12.6433,135.6436],[-64.3318,-12.6457,134.3816],[-64.3345,-12.6483,136.053],[-64.3352,-12.6415,132.14],[-64.3265,-12.634,133.0815],[-64.324,-12.6269,139.8678],[-64.32,-12.6255,133.7407],[-64.322,-12.6243,135.3546],[-64.3271,-12.6251,141.7091],[-64.3296,-12.6217,136.5556],[-64.3292,-12.6191,133.5244],[-64.3245,-12.6146,140.3427],[-64.3213,-12.6191,134.6415],[-64.3192,-12.619,135.2198],[-64.3153,-12.6151,142.7095],[-64.3155,-12.6111,136.8955],[-64.3206,-12.6047,141.3326],[-64.3282,-12.5997,139.6433],[-64.3306,-12.596,139.6307],[-64.3304,-12.5922,140.7835],[-64.3325,-12.5878,136.8088],[-64.3346,-12.5878,137.429],[-64.3409,-12.5949,143.5778],[-64.3424,-12.5922,141.6314],[-64.3409,-12.5869,133.8915],[-64.3421,-12.584,137.7285],[-64.3461,-12.5835,133.0657],[-64.3451,-12.5896,133.426],[-64.3474,-12.5913,143.5247],[-64.3487,-12.5907,132.876],[-64.3499,-12.584,134.5724],[-64.3558,-12.5845,134.5892],[-64.3505,-12.573,138.273],[-64.3569,-12.5721,137.2754],[-64.3583,-12.5685,131.4148],[-64.3532,-12.5668,135.2158],[-64.3495,-12.5607,133.4866],[-64.3546,-12.5571,134.6303],[-64.3559,-12.5532,138.1879],[-64.3621,-12.5491,141.8365],[-64.3619,-12.5458,138.2081],[-64.364,-12.5434,135.9286],[-64.3794,-12.5319,135.4729],[-64.3791,-12.5294,131.3702],[-64.376,-12.5263,129.4764],[-64.373,-12.5109,125.0],[-64.3701,-12.5066,141.2296],[-64.3658,-12.5054,131.5239],[-64.3628,-12.5077,127.6412],[-64.3523,-12.5103,131.0934],[-64.347,-12.5094,131.5402],[-64.344,-12.5065,139.2191],[-64.3455,-12.5037,134.4438],[-64.356,-12.4966,136.5829],[-64.3601,-12.4876,128.6947],[-64.3604,-12.4822,132.7023],[-64.3624,-12.4806,130.3448],[-64.3697,-12.4812,132.0375],[-64.3757,-12.4782,128.0652],[-64.376,-12.4839,128.8533],[-64.3791,-12.4842,129.2567],[-64.3863,-12.4723,129.0553],[-64.3895,-12.4734,130.5295],[-64.3916,-12.4776,132.5422],[-64.3935,-12.4772,129.7812],[-64.3937,-12.474,134.1475],[-64.3872,-12.4663,135.5678],[-64.3801,-12.4645,141.6278],[-64.3773,-12.462,128.0612],[-64.3758,-12.458,129.7796],[-64.3778,-12.4529,125.0],[-64.3924,-12.4486,124.5],[-64.4058,-12.4465,124.0],[-64.4123,-12.443,123.5],[-64.4229,-12.4347,122.5],[-64.4347,-12.418,122.0],[-64.4485,-12.407,122.0],[-64.4541,-12.3959,122.0],[-64.4631,-12.3839,122.0],[-64.4764,-12.3802,122.0],[-64.4924,-12.3676,133.2326],[-64.5045,-12.3638,122.0],[-64.5087,-12.3608,122.0],[-64.5127,-12.3548,122.0],[-64.5152,-12.3494,122.0],[-64.5145,-12.343,122.0],[-64.5119,-12.3376,133.5461],[-64.5011,-12.3276,122.0],[-64.4992,-12.3236,122.0],[-64.4936,-12.2889,122.0],[-64.4955,-12.2678,122.0],[-64.5094,-12.2272,122.0],[-64.5135,-12.2234,122.0],[-64.5236,-12.2238,122.0],[-64.547,-12.2396,122.0],[-64.5517,-12.2394,132.741],[-64.5591,-12.2362,124.9864],[-64.5619,-12.2334,123.9322],[-64.5732,-12.2142,125.4704],[-64.5781,-12.2108,124.6724],[-64.5886,-12.2117,122.0],[-64.594,-12.2138,122.0],[-64.5946,-12.2157,122.0],[-64.6088,-12.2181,134.2258],[-64.6157,-12.2165,133.1235],[-64.6293,-12.2095,122.0],[-64.6716,-12.1927,122.0],[-64.6988,-12.1872,122.0],[-64.713,-12.1736,132.9694],[-64.716,-12.1621,122.0],[-64.7248,-12.1624,142.9676],[-64.7313,-12.1556,141.7755],[-64.7317,-12.1195,124.2882],[-64.7355,-12.1111,126.6278],[-64.7337,-12.1181,122.0],[-64.7366,-12.1385,128.3701],[-64.7429,-12.1529,122.0],[-64.7523,-12.1579,122.0],[-64.7642,-12.153,122.0],[-64.7686,-12.1477,122.0],[-64.7703,-12.1375,122.0],[-64.7598,-12.1136,122.0],[-64.7617,-12.1026,122.0],[-64.769,-12.0948,123.0391],[-64.7885,-12.0858,122.0],[-64.801,-12.0861,122.0],[-64.8095,-12.0939,134.4994],[-64.822,-12.1186,126.6508],[-64.8262,-12.122,122.0],[-64.8326,-12.1217,131.3721],[-64.8417,-12.1097,122.0],[-64.8448,-12.0969,131.3],[-64.8403,-12.0874,122.0],[-64.8343,-12.0801,122.0],[-64.828,-12.0761,122.0],[-64.8173,-12.0723,122.0],[-64.8124,-12.0651,122.0],[-64.8105,-12.0587,122.0],[-64.8144,-12.042,122.0],[-64.8252,-12.0257,122.0],[-64.8391,-12.0228,131.5536],[-64.89,-12.021,130.6057],[-64.8936,-12.018,130.8119],[-64.9144,-12.0279,122.0],[-64.9213,-12.028,127.6359],[-64.9304,-12.0231,124.9599],[-64.9382,-12.01,122.0],[-64.9525,-12.0125,125.3222],[-64.9684,-12.0096,122.0],[-64.971,-12.0166,122.0],[-64.9785,-12.0191,122.0],[-64.986,-12.015,125.8394],[-64.9928,-12.0071,130.8733],[-64.9966,-11.9991,122.0],[-65.0031,-11.9949,131.5412],[-65.0102,-11.9938,122.0],[-65.0226,-11.9991,122.0],[-65.0324,-11.9982,128.6225],[-65.0364,-11.9957,128.7989],[-65.0383,-11.9865,138.1868],[-65.0286,-11.9752,122.0],[-65.0282,-11.9693,132.7353],[-65.0327,-11.9666,123.6439],[-65.0399,-11.9703,122.0],[-65.0431,-11.9639,122.0],[-65.0413,-11.9593,122.0],[-65.0266,-11.9418,122.0],[-65.0228,-11.9286,122.0],[-65.0271,-11.9315,123.2523],[-65.0325,-11.9389,124.0092],[-65.0383,-11.9428,122.0],[-65.0642,-11.9302,129.1073],[-65.0696,-11.9305,129.8566],[-65.0729,-11.9327,126.3153],[-65.0743,-11.937,123.0],[-65.0733,-11.9434,123.0],[-65.0652,-11.9665,123.375],[-65.0655,-11.9801,123.5],[-65.0689,-11.9904,123.5],[-65.0776,-11.9972,128.9068],[-65.0831,-11.9994,126.3225],[-65.0887,-11.9974,124.0],[-65.0936,-11.9927,124.0],[-65.0984,-11.9804,124.5],[-65.0974,-11.9667,124.5],[-65.1011,-11.9603,126.7695],[-65.1048,-11.9601,126.4493],[-65.1094,-11.9628,125.0],[-65.1131,-11.9691,125.5],[-65.1282,-12.0259,126.0],[-65.1278,-12.0297,130.1453],[-65.1229,-12.0308,126.0],[-65.1055,-12.026,126.0],[-65.0907,-12.0292,126.0],[-65.0845,-12.0327,126.0],[-65.075,-12.0475,126.0],[-65.074,-12.0572,126.0],[-65.0767,-12.0626,128.9745],[-65.0921,-12.0717,126.0],[-65.0947,-12.0767,126.0],[-65.0957,-12.0873,126.0],[-65.0939,-12.0918,129.4527],[-65.0893,-12.092,129.0614],[-65.0831,-12.0875,129.5034],[-65.0783,-12.0866,133.2049],[-65.0726,-12.0887,126.0],[-65.0672,-12.102,126.0],[-65.0688,-12.1079,126.0],[-65.0727,-12.1118,127.4655],[-65.1011,-12.1063,130.0751],[-65.1079,-12.1069,128.1458],[-65.1129,-12.1093,126.0],[-65.1157,-12.1139,126.0],[-65.1211,-12.1289,126.0],[-65.1193,-12.1334,126.0],[-65.1054,-12.1397,126.0],[-65.1021,-12.1452,131.7009],[-65.1002,-12.1534,126.0],[-65.103,-12.1628,126.0],[-65.1083,-12.1728,129.388],[-65.1145,-12.1813,128.5031],[-65.1253,-12.1887,126.0],[-65.1333,-12.1896,126.0],[-65.1382,-12.187,126.0],[-65.1475,-12.1723,126.0],[-65.1523,-12.16,126.0],[-65.1561,-12.1412,126.0],[-65.1587,-12.1354,126.0],[-65.1621,-12.1322,126.0],[-65.1669,-12.1315,126.0],[-65.1743,-12.1345,126.0],[-65.1855,-12.1436,127.2338],[-65.1877,-12.1518,126.0],[-65.1823,-12.165,126.0],[-65.1687,-12.1787,126.0],[-65.1489,-12.1948,126.0],[-65.1404,-12.206,128.5592],[-65.1217,-12.2454,126.5],[-65.1169,-12.2589,126.5],[-65.1113,-12.2868,140.8171],[-65.113,-12.2956,127.5951],[-65.1192,-12.2997,126.5],[-65.1312,-12.2965,126.5],[-65.1437,-12.2905,126.5],[-65.1528,-12.2894,130.8566],[-65.1574,-12.2921,126.5],[-65.1623,-12.3055,126.5],[-65.1578,-12.3154,126.5],[-65.1513,-12.3179,126.5],[-65.1246,-12.3229,126.5],[-65.1163,-12.326599999999999,126.5],[-65.1091,-12.3454,126.5],[-65.1091,-12.3505,126.5],[-65.1111,-12.3544,126.5],[-65.1467,-12.3544,126.5],[-65.1579,-12.3557,126.5],[-65.1659,-12.3584,126.5],[-65.1725,-12.3651,126.5],[-65.1788,-12.3757,126.5],[-65.1775,-12.3855,130.4067],[-65.1594,-12.4002,133.8246],[-65.1591,-12.4069,135.9365],[-65.1635,-12.4161,126.5],[-65.1613,-12.4256,126.5],[-65.1327,-12.4522,131.9913],[-65.0981,-12.5026,127.0],[-65.089,-12.5207,127.0],[-65.0761,-12.5416,127.0],[-65.0642,-12.556,127.0],[-65.0272,-12.5838,127.0],[-65.0244,-12.5903,127.0],[-65.0249,-12.605,127.0],[-65.0282,-12.6196,127.0],[-65.0525,-12.6446,127.0],[-65.0535,-12.6504,127.0],[-65.0504,-12.6758,142.2885],[-65.0543,-12.6938,135.5069],[-65.0429,-12.7168,127.0],[-65.0269,-12.7234,130.614],[-65.0211,-12.7274,127.0],[-65.0219,-12.7345,141.8981],[-65.0248,-12.7367,127.0],[-65.0248,-12.7384,127.0],[-65.0241,-12.7424,127.0],[-65.0178,-12.7492,131.0502],[-65.0177,-12.7696,127.0],[-65.0233,-12.7828,127.0],[-65.0201,-12.7889,129.3713],[-65.0051,-12.8004,134.2582],[-65.0054,-12.8145,127.0],[-64.9971,-12.8321,127.0],[-64.9979,-12.8385,127.0],[-65.0107,-12.8391,127.0],[-65.0322,-12.8364,127.0],[-65.0567,-12.8466,127.0],[-65.0568,-12.857,127.0],[-65.0474,-12.8876,134.6114],[-65.0352,-12.8923,127.0],[-65.0337,-12.8952,127.0],[-65.0379,-12.9184,127.0],[-65.0243,-12.9347,135.1387],[-65.0192,-12.9474,133.1637],[-65.0195,-12.9564,133.1537],[-65.0237,-12.9757,133.8087],[-65.0347,-12.9962,134.3073],[-65.034,-13.003,129.905],[-65.026,-13.0124,134.5766],[-65.0233,-13.0184,136.4729],[-65.0246,-13.0258,129.6015],[-65.0283,-13.0308,127.0],[-65.0635,-13.0464,127.0],[-65.0762,-13.0624,127.0],[-65.1033,-13.1046,128.5645],[-65.1293,-13.129,127.0],[-65.1342,-13.1298,127.0],[-65.14,-13.1276,127.0],[-65.1495,-13.12,128.0],[-65.1669,-13.1102,128.0],[-65.1764,-13.1087,128.0],[-65.2009,-13.1096,128.0],[-65.2093,-13.1134,135.3703],[-65.2208,-13.1248,128.0],[-65.224,-13.1413,128.0],[-65.2199,-13.1452,128.0],[-65.2132,-13.1453,128.0],[-65.1879,-13.1363,135.4268],[-65.1821,-13.1366,140.2636],[-65.1788,-13.1397,128.0],[-65.1775,-13.1452,137.87],[-65.188,-13.1583,137.7393],[-65.1899,-13.1641,134.1783],[-65.1879,-13.1708,128.0],[-65.1775,-13.181,131.4816],[-65.1751,-13.1864,132.4231],[-65.1765,-13.1943,129.6762],[-65.1811,-13.2008,128.0],[-65.2078,-13.2238,129.0],[-65.2184,-13.2396,129.0],[-65.2364,-13.2758,129.0],[-65.2425,-13.3005,129.0],[-65.2408,-13.3026,129.0],[-65.2356,-13.3029,130.1919],[-65.1948,-13.2999,136.4096],[-65.1904,-13.3007,137.6547],[-65.1894,-13.3076,133.8318],[-65.191,-13.3137,130.0],[-65.2,-13.3238,130.0],[-65.2175,-13.3359,130.0],[-65.2292,-13.3405,130.0],[-65.2608,-13.3574,130.0],[-65.2693,-13.3677,131.3268],[-65.2707,-13.3781,130.0],[-65.2767,-13.3962,138.3721],[-65.2756,-13.3998,131.2879],[-65.2717,-13.4033,130.0],[-65.2655,-13.4036,133.7977],[-65.2549,-13.3953,131.4881],[-65.2472,-13.3926,130.0],[-65.2379,-13.3936,130.0],[-65.2295,-13.3976,137.2082],[-65.2204,-13.4045,132.6311],[-65.217,-13.4101,130.0],[-65.2181,-13.4177,130.0],[-65.2268,-13.4282,130.0],[-65.2767,-13.4717,130.0],[-65.3017,-13.4893,132.4247],[-65.3057,-13.4977,130.0],[-65.3061,-13.5158,130.0],[-65.3045,-13.52,130.0],[-65.2999,-13.5233,130.75],[-65.2966,-13.5229,133.7915],[-65.293,-13.5197,130.0],[-65.2947,-13.5049,139.3283],[-65.2941,-13.4987,140.4857],[-65.2912,-13.4951,138.3342],[-65.2859,-13.4937,131.1096],[-65.2804,-13.4967,130.0],[-65.2772,-13.5012,130.0],[-65.2664,-13.5201,130.0],[-65.2607,-13.5345,138.8042],[-65.259,-13.5415,133.7333],[-65.2601,-13.55,130.0],[-65.2636,-13.5573,130.0],[-65.271,-13.5658,132.8683],[-65.2824,-13.5736,130.0],[-65.3,-13.5791,130.0],[-65.3233,-13.5829,130.0],[-65.3328,-13.5886,130.0],[-65.3384,-13.594,130.0],[-65.3414,-13.6082,130.0],[-65.3408,-13.612,130.0],[-65.3381,-13.6146,132.75],[-65.3323,-13.615,137.4843],[-65.3222,-13.6087,138.2928],[-65.3126,-13.6055,130.0],[-65.2952,-13.607,130.0],[-65.2853,-13.6131,137.0774],[-65.2815,-13.6204,130.0],[-65.2906,-13.6278,138.3946],[-65.2991,-13.6305,130.0],[-65.3127,-13.6334,138.16309999999999],[-65.3255,-13.633,140.5294],[-65.3332,-13.6367,131.0],[-65.3394,-13.6433,131.0],[-65.3417,-13.6487,131.0],[-65.342,-13.6535,131.0],[-65.3387,-13.6574,131.0],[-65.3333,-13.6579,131.0],[-65.3101,-13.6514,131.0],[-65.2901,-13.6497,132.61],[-65.2779,-13.6504,132.9069],[-65.2743,-13.6545,131.0],[-65.274,-13.6599,131.0],[-65.2769,-13.6646,131.0],[-65.2921,-13.6737,132.5434],[-65.3238,-13.6841,133.6376],[-65.3298,-13.6872,132.9904],[-65.3327,-13.6906,132.0],[-65.3357,-13.7008,132.0],[-65.3347,-13.7107,132.0],[-65.3279,-13.7294,132.0],[-65.3255,-13.7331,132.0],[-65.3219,-13.7347,139.2121],[-65.319,-13.7322,140.0974],[-65.3128,-13.7203,141.1554],[-65.305,-13.7195,133.278],[-65.2998,-13.715,141.3762],[-65.296,-13.7097,136.1348],[-65.2914,-13.6847,134.0],[-65.2884,-13.6815,134.0],[-65.2847,-13.6814,135.9122],[-65.2812,-13.6849,134.0],[-65.2803,-13.6915,134.0],[-65.28,-13.7204,134.0],[-65.2842,-13.7235,134.0],[-65.2992,-13.722,134.0],[-65.3043,-13.7244,132.0],[-65.3052,-13.7306,132.0],[-65.2968,-13.7679,132.0],[-65.2905,-13.7744,132.0],[-65.2739,-13.783,132.0],[-65.2677,-13.7844,132.0],[-65.2433,-13.7827,139.0613],[-65.2216,-13.7781,141.9066],[-65.2142,-13.7821,142.8487],[-65.2128,-13.7857,132.0],[-65.2137,-13.7896,132.0],[-65.2172,-13.7928,141.4273],[-65.2295,-13.7961,132.0],[-65.2439,-13.7949,142.0818],[-65.2479,-13.7979,142.5908],[-65.2495,-13.8017,135.6643],[-65.2468,-13.8102,141.7124],[-65.2366,-13.8173,132.5],[-65.2292,-13.8313,136.2737],[-65.2223,-13.8313,132.5],[-65.2154,-13.828,132.75],[-65.1805,-13.8044,133.0],[-65.1765,-13.8023,133.5],[-65.173,-13.8029,133.5],[-65.1722,-13.8097,133.5],[-65.1791,-13.8222,133.5],[-65.1863,-13.8415,145.0195],[-65.1895,-13.8635,135.3441],[-65.1996,-13.8829,134.5],[-65.2002,-13.8873,134.5],[-65.1977,-13.8971,142.2431],[-65.1945,-13.9005,136.8061],[-65.1913,-13.9008,135.6465],[-65.1884,-13.8983,136.1223],[-65.1807,-13.8761,140.9666],[-65.178,-13.8721,144.2289],[-65.1743,-13.8702,140.649],[-65.171,-13.8709,134.5],[-65.1556,-13.9008,134.5],[-65.1384,-13.9265,134.5],[-65.1379,-13.9303,134.5],[-65.1428,-13.9423,134.5],[-65.143,-13.9491,140.5017],[-65.1419,-13.9564,141.6678],[-65.1374,-13.9683,140.4345],[-65.1328,-13.9728,141.1684],[-65.1138,-13.9788,141.9768],[-65.1126,-13.983,142.682],[-65.1142,-13.9911,140.1276],[-65.1133,-13.9997,140.1946],[-65.1076,-14.0086,135.1608],[-65.1054,-14.0167,134.5],[-65.082,-14.0167,147.9194]]]]}}