{"type": "Feature","bbox": [-69.037,-19.3521,-68.1682,-18.5254],"geometry": {"type": "MultiPolygon","coordinates": [[[[-68.4791,-18.6176,3760.3865],[-68.4817,-18.6189,3759.4946],[-68.5058,-18.6182,3762.5371],[-68.531,-18.6081,3768.2012],[-68.5357,-18.6117,3768.0125],[-68.5454,-18.6134,3769.4534],[-68.56,-18.6094,3772.2771],[-68.5658,-18.6103,3773.8301],[-68.5796,-18.6078,3777.1633],[-68.5847,-18.6057,3777.8135],[-68.5884,-18.5988,3782.3826],[-68.5901,-18.5982,3780.2585],[-68.6005,-18.6013,3782.5991],[-68.606,-18.5996,3783.1704],[-68.6077,-18.5971,3782.4229],[-68.6174,-18.597,3784.1833],[-68.635,-18.5924,3787.3274],[-68.6432,-18.5848,3789.2134],[-68.65,-18.5857,3790.3154],[-68.6607,-18.5818,3792.7832],[-68.6648,-18.5832,3794.1094],[-68.6665,-18.5782,3793.6421],[-68.6723,-18.5751,3796.9382],[-68.6728,-18.5719,3795.0762],[-68.6827,-18.5709,3798.645],[-68.6847,-18.5668,3798.2527],[-68.6906,-18.5641,3798.7888],[-68.6927,-18.5537,3800.7122],[-68.6979,-18.5484,3802.1155],[-68.7019,-18.5355,3804.98],[-68.7066,-18.5318,3806.3481],[-68.7312,-18.5254,3811.3752],[-68.7389,-18.5255,3813.3489],[-68.7617,-18.5359,3874.7739],[-68.7831,-18.5373,3828.9153],[-68.8715,-18.5632,3849.5493],[-68.9102,-18.5858,3858.3542],[-68.9368,-18.5937,3863.3701],[-68.9511,-18.5913,3867.9883],[-68.9734,-18.5949,3875.9014],[-68.9793,-18.5941,3876.8386],[-69.0047,-18.6015,3896.5073],[-69.0164,-18.5987,4115.1187],[-69.0254,-18.5994,4292.2808],[-69.0276,-18.6011,4365.9443],[-69.0314,-18.6117,4353.8174],[-69.037,-18.6136,4428.6499],[-69.0331,-18.6294,4402.0742],[-69.0142,-18.6334,4528.2964],[-69.0087,-18.6465,4457.1172],[-69.0026,-18.6502,4363.0464],[-68.9854,-18.6774,4485.3052],[-68.9835,-18.6981,4747.1797],[-68.987,-18.7008,4703.3428],[-68.9873,-18.7056,4861.2134],[-68.9842,-18.712,4878.6685],[-68.9778,-18.7179,5018.2979],[-68.9763,-18.7252,5216.2534],[-68.9715,-18.7324,5402.4653],[-68.9732,-18.739,5724.5054],[-68.9809,-18.7398,5631.5435],[-68.9826,-18.746,5481.4102],[-68.987,-18.7501,5508.2007],[-68.9505,-18.793,4380.0898],[-68.9262,-18.8431,5148.3564],[-68.9124,-18.8924,5513.3438],[-68.9502,-18.9368,4712.2759],[-68.92,-18.9767,4552.5371],[-68.8896,-19.0434,4232.2803],[-68.8709,-19.0604,4215.8281],[-68.8523,-19.0643,4224.877],[-68.806,-19.0836,4436.7891],[-68.8165,-19.0549,4169.1221],[-68.8246,-19.0542,4152.939],[-68.8262,-19.0524,4181.3169],[-68.8221,-19.0357,4532.3818],[-68.8271,-19.0191,4715.6538],[-68.8412,-18.9857,4981.9492],[-68.8396,-18.9603,4427.7285],[-68.816,-18.9633,4353.6729],[-68.8008,-18.9687,4281.1909],[-68.7999,-18.9721,4290.2129],[-68.8136,-19.0073,4791.5615],[-68.8068,-19.0102,4677.1787],[-68.8038,-19.0089,4638.5151],[-68.7992,-19.0116,4472.4863],[-68.7946,-19.008,4398.1484],[-68.7884,-18.981,4245.6865],[-68.7897,-18.9782,4244.4771],[-68.7955,-18.9753,4260.7441],[-68.7982,-18.9682,4280.6406],[-68.7871,-18.9637,4258.0205],[-68.79,-18.9585,4380.6191],[-68.7896,-18.9459,4643.6914],[-68.7801,-18.9426,4585.9746],[-68.7722,-18.9407,4572.6299],[-68.7651,-18.9439,4554.0464],[-68.7629,-18.9483,4470.0547],[-68.7529,-18.9508,4563.7212],[-68.7439,-18.9597,4269.3721],[-68.735,-18.9636,4163.8467],[-68.7164,-18.9587,4129.1777],[-68.7103,-18.9605,4035.02],[-68.7031,-18.9653,4092.3657],[-68.6996,-18.9655,4102.3564],[-68.6934,-18.9694,4190.7754],[-68.6905,-18.9732,4251.5132],[-68.687,-18.9742,4268.5454],[-68.6876,-18.9561,4525.5449],[-68.6995,-18.947,4340.4111],[-68.7024,-18.9394,4183.4321],[-68.7026,-18.9299,4161.7969],[-68.7047,-18.9256,4180.8745],[-68.7188,-18.9212,4263.1079],[-68.7302,-18.9083,4489.8657],[-68.7325,-18.9028,4587.2959],[-68.7595,-18.9002,4644.2769],[-68.7718,-18.8958,4686.9512],[-68.7766,-18.8959,4728.4648],[-68.788,-18.9004,4957.3389],[-68.8106,-18.889,5106.1797],[-68.8161,-18.8939,5109.6377],[-68.8198,-18.9003,5259.2754],[-68.8224,-18.8945,5011.9336],[-68.8333,-18.8824,5146.5381],[-68.8316,-18.8757,5247.6177],[-68.8265,-18.8737,5189.3633],[-68.8143,-18.8743,5112.4512],[-68.8125,-18.8721,5015.5347],[-68.8084,-18.874,4918.6543],[-68.805,-18.8719,4956.2251],[-68.797,-18.8743,4883.7334],[-68.7902,-18.8717,4974.2534],[-68.7819,-18.8735,4980.439],[-68.776,-18.8692,4800.7402],[-68.7744,-18.8692,4782.4238],[-68.7715,-18.873,4759.3555],[-68.7641,-18.8731,4667.8623],[-68.7617,-18.8746,4657.8618],[-68.7505,-18.8723,4451.7949],[-68.7425,-18.8656,4343.9199],[-68.7406,-18.8608,4424.0273],[-68.73,-18.8545,4348.8613],[-68.7172,-18.8439,4264.8745],[-68.684,-18.8292,4160.3657],[-68.6799,-18.8323,4228.6831],[-68.6611,-18.8326,4414.3228],[-68.658,-18.8356,4302.25],[-68.6556,-18.8406,4293.6812],[-68.6543,-18.8495,4308.5469],[-68.6558,-18.8583,4222.8501],[-68.6539,-18.8622,4211.8555],[-68.65,-18.8642,4135.6812],[-68.6399,-18.8611,3933.9194],[-68.6325,-18.8614,3896.865],[-68.6206,-18.8537,3987.8647],[-68.6078,-18.8628,3834.217],[-68.6052,-18.8552,3825.0352],[-68.5991,-18.8476,3815.1941],[-68.5932,-18.8487,3837.1328],[-68.5905,-18.8556,4055.5669],[-68.5799,-18.8661,4187.8213],[-68.5808,-18.8732,4230.4551],[-68.5773,-18.8872,4364.1553],[-68.5781,-18.8929,4412.4023],[-68.5829,-18.8965,4414.3882],[-68.5837,-18.9017,4325.6885],[-68.5757,-18.9112,4403.4365],[-68.568,-18.9165,4395.1572],[-68.5677,-18.9321,4352.3506],[-68.5769,-18.9421,4324.293],[-68.5697,-18.9504,4126.6997],[-68.5748,-18.962,4184.8125],[-68.5717,-18.9725,4224.2559],[-68.5735,-18.9748,4183.7852],[-68.5822,-18.9766,4139.5161],[-68.5867,-18.9806,4105.5542],[-68.5916,-18.9926,4166.209],[-68.5966,-18.9963,4286.2686],[-68.5975,-19.0039,4295.7822],[-68.5915,-19.0149,3894.3853],[-68.5973,-19.0298,3802.4409],[-68.5991,-19.0495,3831.8384],[-68.5957,-19.0553,3999.5234],[-68.6028,-19.0547,3939.6626],[-68.6197,-19.1216,5140.1709],[-68.6178,-19.1308,5457.0264],[-68.6269,-19.1316,5263.147],[-68.6348,-19.1374,5419.0605],[-68.6382,-19.1442,5429.7959],[-68.6506,-19.1439,5450.894],[-68.6689,-19.1404,5442.4629],[-68.6898,-19.1463,5550.3906],[-68.6981,-19.1461,5833.6802],[-68.7131,-19.1702,4755.8169],[-68.6283,-19.251,3772.4058],[-68.6197,-19.2765,3696.6499],[-68.5428,-19.2967,3668.5549],[-68.4719,-19.3521,3657.313],[-68.4733,-19.3482,3658.2639],[-68.4706,-19.3432,3658.3716],[-68.4711,-19.3331,3658.3306],[-68.474,-19.3328,3658.4412],[-68.4748,-19.3309,3658.4172],[-68.473,-19.3293,3658.3081],[-68.4727,-19.3251,3658.4941],[-68.4741,-19.3233,3658.323],[-68.4729,-19.3168,3658.3809],[-68.4712,-19.3145,3658.2722],[-68.4673,-19.3136,3658.3684],[-68.4569,-19.3152,3657.9873],[-68.4538,-19.3122,3656.5],[-68.454,-19.311,3658.1455],[-68.4646,-19.3082,3658.5278],[-68.4667,-19.2993,3658.1338],[-68.4705,-19.2981,3659.5969],[-68.4699,-19.2959,3659.5762],[-68.4668,-19.2951,3658.5847],[-68.4671,-19.2964,3656.8032],[-68.4647,-19.2963,3662.6768],[-68.4645,-19.2983,3656.8667],[-68.4614,-19.3006,3658.0259],[-68.4587,-19.2997,3657.6018],[-68.459,-19.2961,3658.481],[-68.4529,-19.292,3659.2864],[-68.4551,-19.2901,3658.8899],[-68.4532,-19.2893,3656.5],[-68.4522,-19.2809,3659.1565],[-68.4507,-19.2803,3658.25],[-68.4512,-19.2785,3659.1104],[-68.4524,-19.2799,3659.1565],[-68.4518,-19.2778,3658.3022],[-68.4487,-19.2766,3658.6316],[-68.4463,-19.2816,3656.5],[-68.4474,-19.2771,3656.5],[-68.4454,-19.2726,3658.3726],[-68.4436,-19.2719,3659.5029],[-68.4437,-19.277,3656.5],[-68.4406,-19.2749,3656.5],[-68.4417,-19.2699,3659.2705],[-68.4411,-19.2682,3658.4294],[-68.4383,-19.2682,3658.2651],[-68.4378,-19.2661,3658.5283],[-68.4357,-19.2678,3660.0933],[-68.437,-19.2713,3658.1389],[-68.4348,-19.2727,3657.9429],[-68.433,-19.2714,3656.5],[-68.431,-19.2721,3656.5],[-68.4351,-19.2698,3660.5376],[-68.434,-19.2669,3659.0686],[-68.4357,-19.2666,3660.0933],[-68.4313,-19.2609,3658.5815],[-68.4275,-19.2618,3658.1941],[-68.4246,-19.259,3659.4204],[-68.4259,-19.2613,3658.2554],[-68.4252,-19.2655,3657.9614],[-68.4221,-19.2672,3656.5],[-68.4206,-19.2645,3656.5],[-68.4223,-19.2659,3656.8384],[-68.4242,-19.2619,3659.1899],[-68.423,-19.2587,3658.4658],[-68.4206,-19.2608,3658.1106],[-68.4197,-19.2575,3658.3801],[-68.4162,-19.2561,3658.6055],[-68.4119,-19.2597,3656.5],[-68.4111,-19.2578,3658.363],[-68.4,-19.2505,3658.4033],[-68.3837,-19.2461,3657.7556],[-68.3779,-19.2412,3658.7148],[-68.374,-19.243,3658.3916],[-68.3741,-19.2401,3657.4661],[-68.368,-19.2328,3656.5],[-68.3702,-19.2283,3656.5],[-68.3747,-19.2261,3656.5],[-68.3773,-19.222,3656.5],[-68.3766,-19.2119,3658.364],[-68.3743,-19.2116,3657.5969],[-68.3551,-19.1977,3657.4714],[-68.3506,-19.1961,3658.7378],[-68.3461,-19.1987,3656.9197],[-68.3445,-19.1963,3658.3679],[-68.3156,-19.2022,3658.4563],[-68.2826,-19.196,3658.5493],[-68.2513,-19.196,3658.5825],[-68.2385,-19.1916,3658.5449],[-68.211,-19.1682,3658.3501],[-68.1952,-19.1582,3658.4761],[-68.1823,-19.145,3658.5417],[-68.1766,-19.1424,3658.5693],[-68.1747,-19.1353,3658.9951],[-68.1755,-19.1239,3659.8289],[-68.1719,-19.1213,3659.9636],[-68.1708,-19.1178,3660.198],[-68.1743,-19.1133,3660.5256],[-68.1741,-19.1114,3660.5818],[-68.1682,-19.0946,3661.875],[-68.1698,-19.0904,3662.0457],[-68.1783,-19.0904,3662.6829],[-68.1804,-19.0865,3662.7124],[-68.1812,-19.0805,3663.2632],[-68.1794,-19.0744,3663.9585],[-68.1856,-19.052,3666.7546],[-68.1813,-19.0433,3667.6636],[-68.1705,-19.0315,3668.802],[-68.1948,-19.0436,3669.1448],[-68.2113,-19.0482,3670.5737],[-68.2196,-19.0403,3672.1418],[-68.2452,-19.0052,3678.0557],[-68.2702,-18.9979,3682.4514],[-68.2774,-18.9918,3683.7312],[-68.2945,-18.9649,3687.8657],[-68.31,-18.9594,3690.9087],[-68.3207,-18.9505,3693.8774],[-68.3248,-18.9428,3697.1133],[-68.3505,-18.9139,3704.4937],[-68.3661,-18.9031,3708.1311],[-68.3891,-18.8995,3710.2097],[-68.4125,-18.8871,3719.0967],[-68.4297,-18.868,3717.8044],[-68.4469,-18.8569,3722.3633],[-68.4512,-18.84,3726.3486],[-68.4648,-18.81,3734.7866],[-68.4913,-18.7666,3746.9512],[-68.4859,-18.7448,3749.3193],[-68.4908,-18.7375,3753.6218],[-68.4931,-18.7245,3756.6492],[-68.4964,-18.717,3759.501],[-68.4924,-18.6737,3762.2537],[-68.4874,-18.6629,3760.2061],[-68.4846,-18.6433,3761.0059],[-68.4725,-18.6244,3757.4775],[-68.4773,-18.6237,3759.5244],[-68.4777,-18.6185,3760.3762],[-68.4791,-18.6176,3760.3865]]]]}
,"properties": {"GID_3": "BOL.5.10.3_2","GID_0": "BOL","country": "Bolivia","GID_1": "BOL.5_1","province": "Oruro","NL_NAME_1": "NA","GID_2": "BOL.5.10_2","county": "Sabaya","NL_NAME_2": "NA","city": "Sabaya","VARNAME_3": "NA","NL_NAME_3": "NA","TYPE_3": "District","ENGTYPE_3": "Distrito","CC_3": "NA","HASC_3": "NA","name": "Sabaya.city","area_km2": 3620.057,"hist_schema_id": "Elevation0-9000","hist_area_km2": {"3650": 145.068,"3675": 423.768,"3700": 167.241,"3725": 184.599,"3750": 178.698,"3775": 260.234,"3800": 148.175,"3825": 132.719,"3850": 223.014,"3875": 158.785,"3900": 109.785,"3925": 91.006,"3950": 69.818,"3975": 59.38,"4000": 52.667,"4025": 44.837,"4050": 40.68,"4075": 40.961,"4100": 45.697,"4125": 46.884,"4150": 43.432,"4175": 44.732,"4200": 44.289,"4225": 42.018,"4250": 44.961,"4275": 39.874,"4300": 38.43,"4325": 36.204,"4350": 38.934,"4375": 41.722,"4400": 40.116,"4425": 32.914,"4450": 30.306,"4475": 29.201,"4500": 26.975,"4525": 27.094,"4550": 26.573,"4575": 25.87,"4600": 24.145,"4625": 23.522,"4650": 23.103,"4675": 22.38,"4700": 21.559,"4725": 21.26,"4750": 19.876,"4775": 20.759,"4800": 18.814,"4825": 17.269,"4850": 15.986,"4875": 14.101,"4900": 13.74,"4925": 11.554,"4950": 10.229,"4975": 9.086,"5000": 8.223,"5025": 6.98,"5050": 6.158,"5075": 4.693,"5100": 3.991,"5125": 3.249,"5150": 2.928,"5175": 2.728,"5200": 2.085,"5225": 1.825,"5250": 1.544,"5275": 1.404,"5300": 1.383,"5325": 1.303,"5350": 0.943,"5375": 0.802,"5400": 0.782,"5425": 0.521,"5450": 0.702,"5475": 0.582,"5500": 0.541,"5525": 0.301,"5550": 0.341,"5575": 0.181,"5600": 0.16,"5625": 0.08,"5650": 0.14,"5675": 0.1,"5700": 0.1,"5725": 0.12,"5750": 0.04,"5800": 0.04}}}