{"type":"Feature","properties":{"GID_3":"BOL.4.5.1_2","GID_0":"BOL","country":"Bolivia","GID_1":"BOL.4_1","province":"LaPaz","NL_NAME_1":"NA","GID_2":"BOL.4.5_2","county":"Camacho","NL_NAME_2":"NA","city":"Escoma","VARNAME_3":"NA","NL_NAME_3":"NA","TYPE_3":"District","ENGTYPE_3":"Distrito","CC_3":"NA","HASC_3":"NA","name":"Escoma.city"},
"geometry":{"type": "MultiPolygon","coordinates": [[[[-69.1071,-15.6098,3909.4417],[-69.1151,-15.6125,3957.001],[-69.1178,-15.6117,3916.927],[-69.1252,-15.6054,3981.064],[-69.125,-15.599,4138.9824],[-69.1339,-15.5903,4238.9209],[-69.1516,-15.5802,4307.9507],[-69.1725,-15.5631,4128.5439],[-69.1851,-15.5576,4104.354],[-69.1948,-15.5553,4147.6621],[-69.1972,-15.553,4204.1084],[-69.2021,-15.5714,4247.7681],[-69.205,-15.573,4255.7236],[-69.2054,-15.5884,4063.1582],[-69.1971,-15.598,4027.2407],[-69.1979,-15.6,4045.2556],[-69.194,-15.6055,4032.5046],[-69.1873,-15.612,4081.9204],[-69.1791,-15.6279,4064.7234],[-69.1807,-15.6305,4151.4053],[-69.176,-15.6409,4143.3896],[-69.1831,-15.6453,4047.7695],[-69.1823,-15.6472,4046.1255],[-69.1838,-15.6515,3972.9292],[-69.1808,-15.6549,3921.3372],[-69.1841,-15.6597,3810.7383],[-69.1751,-15.6661,3811.7939],[-69.1749,-15.6681,3811.4519],[-69.1774,-15.6698,3810.1506],[-69.1739,-15.6695,3813.5073],[-69.1747,-15.6731,3810.4431],[-69.1708,-15.6745,3811.1208],[-69.1657,-15.6714,3810.6221],[-69.1631,-15.6723,3823.853],[-69.154,-15.6803,3810.6313],[-69.1572,-15.6843,3810.9155],[-69.1567,-15.6869,3810.6431],[-69.1523,-15.6877,3810.6848],[-69.1481,-15.6855,3813.5459],[-69.1461,-15.6888,3810.863],[-69.1477,-15.6909,3809.7112],[-69.1466,-15.6922,3810.7751],[-69.1494,-15.6926,3810.1426],[-69.1489,-15.6945,3810.887],[-69.1566,-15.6936,3809.4373],[-69.1569,-15.6963,3810.4709],[-69.1527,-15.6962,3810.6335],[-69.1535,-15.6976,3811.4307],[-69.1581,-15.698,3819.4148],[-69.1624,-15.6946,3814.4666],[-69.1668,-15.6973,3813.6868],[-69.1772,-15.6943,3809.4622],[-69.1858,-15.6984,3814.9004],[-69.1897,-15.6966,3808.5],[-69.1859,-15.7054,3810.7866],[-69.1815,-15.71,3810.427],[-69.1706,-15.7155,3809.8655],[-69.142,-15.7207,3809.9922],[-69.102,-15.6767,3924.364],[-69.0925,-15.6689,4052.3755],[-69.0942,-15.6675,4066.7927],[-69.099,-15.6509,4057.7651],[-69.1065,-15.6392,3819.8301],[-69.0985,-15.6377,3814.7168],[-69.0973,-15.6343,3814.9944],[-69.0936,-15.634,3814.5725],[-69.0931,-15.6261,4039.7415],[-69.0982,-15.6231,3840.3359],[-69.0974,-15.6218,3899.6553],[-69.1,-15.6179,3859.3608],[-69.1061,-15.6143,3857.2908],[-69.1071,-15.6098,3909.4417]]]]}}