{"type": "Feature","bbox": [-65.1066,-14.7441,-63.5622,-14.0167],"geometry": {"type": "MultiPolygon","coordinates": [[[[-63.5622,-14.2969,162.7013],[-63.5676,-14.2986,164.0959],[-63.5739,-14.2973,166.6545],[-63.5761,-14.303,162.1557],[-63.575,-14.3053,166.1986],[-63.5788,-14.3057,169.6024],[-63.5856,-14.302,161.8868],[-63.5834,-14.2984,164.1158],[-63.584,-14.2968,162.7585],[-63.5886,-14.2961,166.3455],[-63.5905,-14.2932,156.0997],[-63.593,-14.2949,164.312],[-63.5985,-14.2937,163.6077],[-63.6032,-14.298,169.2233],[-63.6062,-14.3032,160.2981],[-63.6063,-14.3076,160.6647],[-63.6085,-14.3084,164.0294],[-63.6138,-14.302,169.4945],[-63.6152,-14.2964,161.8795],[-63.6193,-14.2994,161.0677],[-63.6172,-14.3082,162.1297],[-63.6218,-14.3138,165.3162],[-63.6264,-14.3128,168.3482],[-63.6441,-14.314,158.332],[-63.6458,-14.3105,154.639],[-63.643,-14.3061,165.9861],[-63.6443,-14.3031,156.6591],[-63.6399,-14.3005,164.8976],[-63.6387,-14.2967,171.8927],[-63.6416,-14.2945,171.7498],[-63.6461,-14.2958,162.2073],[-63.648,-14.2918,160.9305],[-63.6428,-14.2891,169.0896],[-63.6503,-14.2841,168.6842],[-63.652,-14.2849,165.0897],[-63.651,-14.2932,163.0406],[-63.6558,-14.2914,162.5372],[-63.6596,-14.2933,158.4429],[-63.6658,-14.2887,157.2181],[-63.6664,-14.2826,163.4485],[-63.6695,-14.2809,168.5521],[-63.6817,-14.281,159.5175],[-63.6802,-14.2857,158.1277],[-63.6814,-14.2873,155.9556],[-63.6864,-14.2844,161.0352],[-63.6962,-14.2874,158.1138],[-63.701,-14.2832,160.9208],[-63.7105,-14.287,160.8043],[-63.7186,-14.282,162.1689],[-63.7224,-14.287,157.2593],[-63.7254,-14.2881,162.7078],[-63.7281,-14.2849,158.5659],[-63.7293,-14.2802,168.6953],[-63.7348,-14.2819,159.8484],[-63.7356,-14.2777,155.2586],[-63.7385,-14.2755,155.0767],[-63.7347,-14.269,158.7106],[-63.7423,-14.2661,159.4491],[-63.7417,-14.2622,158.63],[-63.7518,-14.2558,161.8736],[-64.383,-14.1436,147.9179],[-65.082,-14.0167,147.9194],[-65.1054,-14.0167,134.5],[-65.1066,-14.0322,143.6566],[-65.1033,-14.0407,144.9372],[-65.0936,-14.045,145.2923],[-65.0811,-14.0362,146.1368],[-65.0748,-14.0348,136.1909],[-65.071,-14.037,134.5],[-65.0689,-14.0411,134.5],[-65.0627,-14.064,134.5],[-65.0634,-14.076599999999999,137.446],[-65.0666,-14.0853,134.5],[-65.0852,-14.1086,140.9135],[-65.0863,-14.1109,142.492],[-65.0848,-14.1163,140.5502],[-65.0799,-14.1173,135.0],[-65.0722,-14.1089,141.7209],[-65.0633,-14.1068,140.3778],[-65.049,-14.1101,139.0131],[-65.0327,-14.1075,146.2371],[-65.0266,-14.1106,139.174],[-65.0247,-14.1143,135.4846],[-65.025,-14.1231,137.0919],[-65.0317,-14.132,135.9942],[-65.0415,-14.1395,138.4269],[-65.0575,-14.1474,143.485],[-65.0571,-14.1496,141.4276],[-65.0447,-14.1598,146.0327],[-65.0421,-14.1722,144.1208],[-65.0454,-14.18,144.0083],[-65.0449,-14.1859,136.718],[-65.0251,-14.2204,135.0],[-65.0242,-14.2244,137.2144],[-65.0261,-14.2373,136.4537],[-65.0386,-14.2582,135.5],[-65.0375,-14.2638,140.0984],[-65.0325,-14.2666,135.5],[-65.0262,-14.2656,136.984],[-65.0219,-14.2608,141.1986],[-65.0155,-14.2397,140.4358],[-65.0098,-14.2369,143.286],[-65.0031,-14.2365,148.0306],[-64.9984,-14.2403,136.0],[-64.9979,-14.2431,143.1193],[-65.0018,-14.2486,147.0773],[-65.0079,-14.2525,140.378],[-65.0127,-14.2611,136.5],[-65.0143,-14.2734,137.6896],[-65.0112,-14.2896,137.0],[-65.0094,-14.2921,137.0],[-65.0063,-14.2928,137.0949],[-64.996,-14.2914,137.0],[-64.9815,-14.2923,137.0],[-64.9717,-14.2959,137.0],[-64.9692,-14.2996,140.4961],[-64.971,-14.3042,139.5808],[-64.9825,-14.3125,147.3085],[-64.9864,-14.3185,148.1118],[-64.9867,-14.3217,139.8117],[-64.9796,-14.3359,137.3179],[-64.9674,-14.3509,137.0],[-64.9657,-14.3552,137.0],[-64.9673,-14.3621,138.7408],[-64.9766,-14.3605,137.4288],[-65.0083,-14.3457,137.0],[-65.0129,-14.3461,139.6032],[-65.0161,-14.3489,147.995],[-65.0169,-14.3567,143.1432],[-65.0142,-14.3604,147.6343],[-64.9969,-14.3643,137.5],[-64.9933,-14.3669,139.4131],[-64.9881,-14.3777,149.7596],[-64.9823,-14.3821,144.8326],[-64.9758,-14.3818,138.5],[-64.9624,-14.3755,150.0126],[-64.9568,-14.3763,143.8037],[-64.955,-14.3783,138.5],[-64.955,-14.3814,138.5],[-64.9637,-14.3979,144.5672],[-64.9636,-14.4053,139.6831],[-64.961,-14.4089,141.122],[-64.945,-14.4139,140.6318],[-64.9423,-14.416,141.0863],[-64.94,-14.4226,139.0],[-64.9415,-14.4267,144.8703],[-64.9489,-14.4346,140.0854],[-64.9651,-14.443,152.019],[-64.9777,-14.445,145.1539],[-64.9832,-14.444,143.7392],[-64.9955,-14.4323,149.5815],[-64.9997,-14.4315,142.5475],[-65.006,-14.4329,139.0],[-65.0093,-14.4353,139.0],[-65.0135,-14.4412,139.0],[-65.0132,-14.4441,141.3014],[-65.0098,-14.4475,139.0],[-64.9927,-14.4495,139.0],[-64.9747,-14.4575,145.2594],[-64.964,-14.4571,139.0],[-64.9482,-14.4524,144.7798],[-64.9416,-14.4529,139.0],[-64.9314,-14.4616,140.1038],[-64.9269,-14.4761,140.9372],[-64.928,-14.4859,139.0],[-64.931,-14.4905,149.1289],[-64.9497,-14.5098,149.5676],[-64.959,-14.5116,140.2056],[-64.9725,-14.5081,151.5443],[-64.9801,-14.5104,150.4016],[-64.9813,-14.5135,139.5],[-64.9803,-14.5168,140.0],[-64.9653,-14.5288,149.6259],[-64.9509,-14.5368,148.5073],[-64.9478,-14.5452,149.3537],[-64.9526,-14.5515,144.3902],[-64.9768,-14.5604,141.2041],[-64.9883,-14.5705,146.0813],[-64.9994,-14.5874,147.7674],[-65.0081,-14.5953,147.7068],[-65.0093,-14.5986,146.4132],[-65.0038,-14.6099,142.1393],[-65.0038,-14.6144,143.6752],[-65.0054,-14.622,150.627],[-65.0136,-14.6394,150.719],[-65.0215,-14.6496,141.0],[-65.0405,-14.6601,141.0],[-65.0405,-14.6631,142.3234],[-65.0235,-14.6798,144.1773],[-65.0188,-14.6917,142.7496],[-65.0226,-14.6997,141.0],[-65.0457,-14.7108,150.6212],[-65.0549,-14.7187,147.5],[-65.055,-14.7209,147.5],[-65.0519,-14.7225,147.5],[-65.0471,-14.7196,147.7973],[-65.0402,-14.7197,150.4209],[-65.0367,-14.7247,141.0],[-65.0432,-14.7441,141.0],[-63.975,-14.7284,163.1723],[-63.5622,-14.2969,162.7013]]]]}
,"properties": {"GID_3": "BOL.3.1.1_2","GID_0": "BOL","country": "Bolivia","GID_1": "BOL.3_1","province": "Beni","NL_NAME_1": "NA","GID_2": "BOL.3.1_2","county": "Cercado","NL_NAME_2": "NA","city": "SanJavier","VARNAME_3": "NA","NL_NAME_3": "NA","TYPE_3": "District","ENGTYPE_3": "Distrito","CC_3": "NA","HASC_3": "NA","name": "San_Javier.city","area_km2": 8820.984,"hist_schema_id": "Elevation0-9000","hist_area_km2": {"125": 16.61,"150": 6298.115,"175": 2506.238}}}