{"type": "Feature","bbox": [-65.54,-17.2292,-65.1716,-16.8506],"geometry": {"type": "MultiPolygon","coordinates": [[[[-65.1938,-16.853,217.1317],[-65.1991,-16.8506,216.2449],[-65.2025,-16.8526,220.4496],[-65.2004,-16.8573,209.4579],[-65.2053,-16.8648,211.0427],[-65.2018,-16.8729,209.204],[-65.2029,-16.8772,213.358],[-65.2072,-16.8787,210.2668],[-65.219,-16.8749,215.5337],[-65.2193,-16.8765,224.3464],[-65.2166,-16.8795,211.2959],[-65.2172,-16.882,209.8298],[-65.2279,-16.8869,216.4645],[-65.2263,-16.8917,215.6299],[-65.246,-16.9006,223.866],[-65.2553,-16.9105,222.5397],[-65.2694,-16.9193,229.1721],[-65.2718,-16.9203,228.0005],[-65.2743,-16.9184,227.6732],[-65.279,-16.9181,232.8275],[-65.2832,-16.9207,233.356],[-65.2932,-16.9223,236.337],[-65.2977,-16.928,234.8513],[-65.3473,-16.9554,259.6905],[-65.3797,-16.9605,266.6134],[-65.3916,-16.9662,271.9599],[-65.4019,-16.974,274.0],[-65.4191,-16.9779,280.6667],[-65.4269,-16.9946,295.8553],[-65.4292,-17.0195,309.8424],[-65.4315,-17.0267,315.4323],[-65.43,-17.0327,320.0881],[-65.4357,-17.0507,332.4601],[-65.442,-17.0546,425.2597],[-65.4458,-17.0529,335.4795],[-65.4475,-17.0482,341.9968],[-65.4497,-17.0475,354.2396],[-65.4594,-17.0542,369.4722],[-65.4691,-17.0542,392.4323],[-65.4801,-17.0581,432.6873],[-65.4807,-17.0603,432.9308],[-65.4764,-17.0618,433.4774],[-65.4738,-17.0673,439.4214],[-65.4685,-17.0675,445.8075],[-65.4679,-17.0727,462.232],[-65.4705,-17.0779,508.8025],[-65.4801,-17.0813,509.913],[-65.4849,-17.0854,529.6628],[-65.4877,-17.0926,528.008],[-65.4931,-17.0922,595.4656],[-65.4955,-17.0944,657.9139],[-65.4951,-17.0967,575.4097],[-65.4995,-17.0982,579.1241],[-65.5014,-17.1011,566.4526],[-65.519,-17.1051,643.2672],[-65.5233,-17.1035,666.3033],[-65.5268,-17.1,662.0254],[-65.5311,-17.1066,673.8308],[-65.5374,-17.1085,690.559],[-65.54,-17.1114,709.6854],[-65.5249,-17.1637,1339.2177],[-65.5128,-17.1629,2113.5796],[-65.4689,-17.1725,1531.0823],[-65.4562,-17.1145,818.4557],[-65.4436,-17.1135,1156.6858],[-65.4407,-17.1187,1252.2667],[-65.4216,-17.132,964.4961],[-65.4089,-17.1368,1041.8923],[-65.3978,-17.1446,1109.3375],[-65.3715,-17.1479,1272.6558],[-65.3513,-17.1462,1462.4495],[-65.3221,-17.1559,1304.1981],[-65.3045,-17.1588,1547.4128],[-65.2924,-17.1686,1198.9504],[-65.2874,-17.181,710.0435],[-65.2868,-17.1931,1264.4012],[-65.2635,-17.2044,1367.3289],[-65.2531,-17.2076,1303.1079],[-65.2455,-17.2146,1397.2189],[-65.2386,-17.2159,1477.0828],[-65.2349,-17.2191,1499.9965],[-65.2376,-17.2292,1193.2271],[-65.209,-17.2087,1172.194],[-65.1824,-17.1393,296.1016],[-65.1851,-17.1374,294.7048],[-65.1855,-17.1344,294.5823],[-65.1746,-17.1322,290.9592],[-65.1716,-17.1279,311.2634],[-65.1726,-17.1231,284.823],[-65.1772,-17.1174,288.7868],[-65.1838,-17.1041,291.4896],[-65.221,-17.1037,303.133],[-65.2204,-17.1006,328.6066],[-65.2296,-17.0956,345.653],[-65.2208,-17.0935,304.2912],[-65.2204,-17.0902,298.9354],[-65.2185,-17.0896,322.745],[-65.2141,-17.0827,289.882],[-65.217,-17.079,288.1591],[-65.221,-17.078,285.4664],[-65.2206,-17.0744,288.8563],[-65.2238,-17.0714,303.2033],[-65.2223,-17.0688,279.2554],[-65.2234,-17.0655,291.6522],[-65.2143,-17.0622,273.4536],[-65.2185,-17.0512,277.2528],[-65.2182,-17.0498,277.2528],[-65.2153,-17.049,272.8177],[-65.2158,-17.0386,270.4937],[-65.2117,-17.0331,271.721],[-65.2076,-17.0305,262.6831],[-65.2067,-17.0279,261.0283],[-65.2045,-17.0272,266.1789],[-65.2011,-17.0191,258.9733],[-65.1953,-17.0149,255.9693],[-65.1959,-17.0115,251.0284],[-65.1933,-17.01,251.1073],[-65.1959,-17.0076,248.9828],[-65.1964,-17.0042,242.767],[-65.2028,-16.9927,234.2546],[-65.2068,-16.9894,235.2017],[-65.2056,-16.988,235.4474],[-65.2002,-16.9888,238.6065],[-65.1993,-16.9846,234.9892],[-65.195,-16.979,233.0696],[-65.1981,-16.977,231.0098],[-65.1984,-16.9738,227.9396],[-65.2007,-16.9728,237.71],[-65.1999,-16.9715,236.2986],[-65.1967,-16.9718,230.072],[-65.1947,-16.9676,234.6869],[-65.1974,-16.9656,227.8517],[-65.202,-16.9541,224.4243],[-65.2013,-16.9525,224.5699],[-65.1984,-16.9521,225.8271],[-65.1972,-16.9484,225.6921],[-65.1923,-16.9519,233.8462],[-65.194,-16.9453,231.6307],[-65.1904,-16.9436,227.9603],[-65.1927,-16.9409,224.6199],[-65.1912,-16.9387,224.3327],[-65.1923,-16.9328,233.2076],[-65.1943,-16.9334,223.3553],[-65.1953,-16.9365,229.8128],[-65.1969,-16.9353,224.8],[-65.1935,-16.9277,226.4668],[-65.1973,-16.9271,221.5116],[-65.1991,-16.9242,219.8129],[-65.1946,-16.92,221.1133],[-65.1937,-16.917,229.4291],[-65.1952,-16.9158,223.616],[-65.1972,-16.9189,221.5079],[-65.1991,-16.9191,217.8895],[-65.1986,-16.9136,220.9235],[-65.1945,-16.9127,225.0299],[-65.1978,-16.9094,217.8675],[-65.1951,-16.9094,219.7781],[-65.1925,-16.9058,208.0],[-65.1879,-16.9068,219.208],[-65.1868,-16.9039,220.3591],[-65.1888,-16.9015,218.8488],[-65.194,-16.9015,208.6325],[-65.203,-16.8975,215.4564],[-65.2055,-16.895,216.2873],[-65.206,-16.8908,217.0244],[-65.2042,-16.8883,220.2815],[-65.2011,-16.8883,220.387],[-65.1966,-16.8908,218.9438],[-65.1945,-16.8959,227.0899],[-65.1865,-16.8972,216.0925],[-65.1828,-16.8934,215.069],[-65.1841,-16.8897,214.4146],[-65.1914,-16.8889,216.5962],[-65.1942,-16.8861,217.3014],[-65.199,-16.8846,208.3791],[-65.2014,-16.8793,217.0048],[-65.2003,-16.877,210.4806],[-65.1894,-16.8748,208.7142],[-65.1873,-16.8701,217.255],[-65.1878,-16.863,210.6202],[-65.1901,-16.8591,207.1125],[-65.1932,-16.8587,220.6592],[-65.1938,-16.853,217.1317]]]]}
,"properties": {"GID_3": "BOL.2.16.1_2","GID_0": "BOL","country": "Bolivia","GID_1": "BOL.2_1","province": "Cochabamba","NL_NAME_1": "NA","GID_2": "BOL.2.16_2","county": "Tiraque","NL_NAME_2": "NA","city": "Shinahota","VARNAME_3": "NA","NL_NAME_3": "NA","TYPE_3": "District","ENGTYPE_3": "Distrito","CC_3": "NA","HASC_3": "NA","name": "Shinahota.city","area_km2": 739.7285,"hist_schema_id": "Elevation0-9000","hist_area_km2": {"200": 2.9416,"225": 90.3792,"250": 71.9054,"275": 31.1411,"300": 36.1032,"325": 37.0563,"350": 44.4537,"375": 44.4926,"400": 40.1932,"425": 33.5028,"450": 28.6574,"475": 23.9953,"500": 17.4681,"525": 14.9546,"550": 14.1031,"575": 12.8667,"600": 11.1645,"625": 9.6041,"650": 9.6649,"675": 8.5098,"700": 7.6385,"725": 8.2059,"750": 6.9901,"775": 6.8077,"800": 7.2736,"825": 6.2201,"850": 6.3011,"875": 6.6253,"900": 7.2736,"925": 6.0579,"950": 6.1997,"975": 6.1997,"1000": 5.1259,"1025": 5.1663,"1050": 5.3487,"1075": 4.9028,"1100": 4.5179,"1125": 4.3964,"1150": 4.8825,"1175": 3.6873,"1200": 3.8088,"1225": 3.4846,"1250": 2.9376,"1275": 3.2212,"1300": 2.4716,"1325": 2.2893,"1350": 1.9449,"1375": 1.6613,"1400": 1.6613,"1425": 1.3371,"1450": 1.0535,"1475": 1.0939,"1500": 0.9927,"1525": 0.9521,"1550": 1.0332,"1575": 1.0332,"1600": 0.7496,"1625": 0.6685,"1650": 0.5267,"1675": 0.5672,"1700": 0.4254,"1725": 0.3039,"1750": 0.3849,"1775": 0.2634,"1800": 0.2228,"1825": 0.2026,"1850": 0.1823,"1875": 0.2026,"1900": 0.2431,"1925": 0.1418,"1950": 0.081,"1975": 0.1418,"2000": 0.2228,"2025": 0.0608,"2050": 0.1013,"2075": 0.0405,"2100": 0.0203,"2125": 0.0203}}}