{"type":"Feature","properties":{"GID_2":"BOL.4.3_2","GID_0":"BOL","country":"Bolivia","GID_1":"BOL.4_1","province":"LaPaz","NL_NAME_1":"NA","county":"Aroma","VARNAME_2":"NA","NL_NAME_2":"NA","TYPE_2":"Provincia","ENGTYPE_2":"Province","CC_2":"NA","HASC_2":"NA","name":"Aroma.county"},
"geometry":{"type": "MultiPolygon","coordinates": [[[[-67.7711,-17.5511,3733.8223],[-67.7649,-17.5532,3733.9431],[-67.7575,-17.5584,3732.9458],[-67.7482,-17.5576,3733.1494],[-67.7373,-17.56,3732.1707],[-67.7263,-17.5561,3732.1782],[-67.7182,-17.5565,3731.1978],[-67.7058,-17.5539,3730.7751],[-67.6878,-17.5435,3729.429],[-67.6832,-17.5437,3729.4644],[-67.6739,-17.549,3729.2903],[-67.6656,-17.5505,3728.4622],[-67.6422,-17.5451,3727.8435],[-67.6275,-17.5496,3727.0493],[-67.616,-17.5473,3725.7173],[-67.6107,-17.5506,3725.2705],[-67.6064,-17.5618,3725.5249],[-67.5924,-17.5795,3724.8374],[-67.5753,-17.5911,3723.6218],[-67.5632,-17.5916,3722.7544],[-67.5522,-17.5857,3723.0056],[-67.5489,-17.5864,3722.3015],[-67.5489,-17.5801,3723.2871],[-67.5463,-17.5754,3722.1912],[-67.5318,-17.5595,3726.4038],[-67.5218,-17.5543,3747.4851],[-67.5203,-17.5509,3758.3181],[-67.5228,-17.5465,3776.9666],[-67.5163,-17.5403,3829.3755],[-67.5054,-17.5182,4128.5186],[-67.5034,-17.5173,4137.0781],[-67.4953,-17.5211,4116.3711],[-67.4818,-17.5214,3960.5537],[-67.4754,-17.5169,3897.3259],[-67.4725,-17.5081,3868.3274],[-67.4686,-17.5058,3856.635],[-67.4644,-17.5119,3869.3691],[-67.4474,-17.5258,3942.2817],[-67.4464,-17.5294,3936.7993],[-67.4486,-17.5334,3970.0625],[-67.4479,-17.5375,4011.0464],[-67.4391,-17.5468,3974.762],[-67.4377,-17.5508,4010.1572],[-67.4304,-17.5576,4068.3403],[-67.4297,-17.5605,4097.2075],[-67.419,-17.5635,4185.8457],[-67.417,-17.5667,4161.3457],[-67.4143,-17.5677,4102.7354],[-67.4127,-17.5713,4071.8296],[-67.4032,-17.5744,4080.6157],[-67.3938,-17.5606,4067.8613],[-67.3908,-17.5488,3969.3267],[-67.3813,-17.5393,4030.2053],[-67.3797,-17.5393,4007.1162],[-67.3816,-17.5312,4185.5317],[-67.3797,-17.5284,4145.2734],[-67.3803,-17.5257,4196.2754],[-67.3866,-17.52,4170.3208],[-67.3876,-17.5166,4107.6348],[-67.3819,-17.5093,4011.7683],[-67.3821,-17.5009,4154.1963],[-67.3758,-17.4906,3988.4888],[-67.3771,-17.477,4075.6582],[-67.3726,-17.4473,4178.5815],[-67.3745,-17.44,4159.459],[-67.3732,-17.4367,4152.5454],[-67.3739,-17.4341,4121.3218],[-67.3778,-17.4317,4168.6821],[-67.3799,-17.4244,4124.3745],[-67.3831,-17.4215,4111.0029],[-67.3868,-17.408,4085.3076],[-67.3903,-17.4041,4068.1323],[-67.3906,-17.4009,4031.1184],[-67.3978,-17.3993,4170.2637],[-67.3996,-17.3912,4188.5137],[-67.4016,-17.3896,4200.1094],[-67.4061,-17.3778,4170.666],[-67.4229,-17.3604,4256.0654],[-67.4284,-17.3512,4280.4575],[-67.4339,-17.3461,4412.791],[-67.4446,-17.3237,4413.5684],[-67.4475,-17.3104,4262.7524],[-67.4526,-17.3097,4288.4419],[-67.4714,-17.2945,4482.6812],[-67.4824,-17.2806,4339.4297],[-67.4745,-17.2666,4204.7593],[-67.4611,-17.2514,4131.1133],[-67.457,-17.2492,4101.0068],[-67.4573,-17.2433,4079.1531],[-67.453,-17.2346,3953.3142],[-67.4574,-17.2268,3879.7554],[-67.4583,-17.222,3843.1333],[-67.4608,-17.218,3818.2656],[-67.4651,-17.2217,3954.2322],[-67.4683,-17.2216,4088.1584],[-67.4721,-17.2157,4102.0439],[-67.4746,-17.2149,4049.9927],[-67.485,-17.2181,3601.6094],[-67.4875,-17.2166,3585.8159],[-67.4884,-17.2107,3549.1426],[-67.4965,-17.1978,3358.9219],[-67.4954,-17.1901,3293.6123],[-67.4964,-17.1791,3186.2534],[-67.5054,-17.1775,3143.8684],[-67.5128,-17.1718,3112.8738],[-67.5146,-17.1713,3125.4006],[-67.5145,-17.177,3405.7734],[-67.5213,-17.182,3470.2063],[-67.526,-17.1806,3336.6558],[-67.5296,-17.1774,3229.0437],[-67.5321,-17.1791,3404.8945],[-67.5363,-17.1889,3465.0935],[-67.5541,-17.19,3445.0186],[-67.5715,-17.1842,3941.4175],[-67.5915,-17.1548,3121.2944],[-67.6011,-17.1489,3703.0449],[-67.6014,-17.14,3362.429],[-67.6117,-17.136,3050.8696],[-67.6159,-17.1268,3465.2637],[-67.6184,-17.1261,3704.0752],[-67.6258,-17.1173,3726.7568],[-67.6269,-17.1152,3743.7417],[-67.6244,-17.1026,3102.3916],[-67.6291,-17.0977,2752.9917],[-67.6353,-17.0989,2794.8931],[-67.6356,-17.1034,2813.5012],[-67.6498,-17.1097,2907.6104],[-67.6524,-17.1131,2925.5845],[-67.6457,-17.133,3148.5652],[-67.6488,-17.1489,3397.5737],[-67.6458,-17.1644,3412.0078],[-67.6541,-17.1713,3413.2756],[-67.6611,-17.1739,3503.6455],[-67.6622,-17.1817,3531.3076],[-67.6595,-17.1881,3596.3665],[-67.6696,-17.1885,3935.0933],[-67.6797,-17.1917,4277.2964],[-67.697,-17.1867,4452.2651],[-67.701,-17.1898,4516.3628],[-67.7008,-17.1932,4498.188],[-67.7031,-17.1974,4605.7158],[-67.7069,-17.1995,4608.0176],[-67.7147,-17.1946,4670.8164],[-67.7205,-17.194,4729.9336],[-67.7223,-17.1894,4776.8281],[-67.7301,-17.1866,4784.5176],[-67.765,-17.1854,4675.731],[-67.7722,-17.1837,4665.5371],[-67.7703,-17.1808,4698.7607],[-67.7722,-17.1771,4743.9692],[-67.7952,-17.1556,4543.9292],[-67.8086,-17.1406,4324.2144],[-67.8111,-17.1345,4178.002],[-67.8353,-17.1112,3615.853],[-67.8397,-17.123,3880.8926],[-67.8535,-17.1311,4464.9038],[-67.856,-17.1229,4409.5391],[-67.8621,-17.1186,4382.3828],[-67.8654,-17.1128,4401.3955],[-67.8727,-17.0754,4470.3926],[-67.8665,-17.0632,4362.3477],[-67.8629,-17.0485,3965.533],[-67.8465,-17.0512,3690.9148],[-67.8391,-17.054,3851.627],[-67.8368,-17.0347,3241.8752],[-67.8492,-17.0302,3393.3809],[-67.8541,-17.0223,3773.8574],[-67.8647,-17.0117,3054.9639],[-67.8701,-17.0137,3216.5503],[-67.8766,-17.0077,3316.4092],[-67.8897,-17.0115,3624.1089],[-67.8918,-17.0146,3843.5449],[-67.9016,-17.0178,4261.4204],[-67.9305,-17.0024,4206.9429],[-67.9333,-16.9972,4228.9238],[-67.9375,-16.9952,4311.875],[-67.9436,-16.9717,4386.1309],[-67.9494,-16.9694,4366.4707],[-67.9597,-16.9682,4445.4043],[-67.9707,-16.9699,4403.1323],[-67.9819,-16.9532,4424.5283],[-67.9977,-16.9431,4385.8247],[-68.0187,-16.9238,4340.0352],[-68.0245,-16.9202,4286.8916],[-68.0288,-16.9124,4269.8262],[-68.035,-16.906,4249.9941],[-68.0229,-16.8982,4110.729],[-68.0384,-16.8832,4146.2656],[-68.0371,-16.8756,4130.2246],[-68.0243,-16.8662,3857.5024],[-68.0057,-16.8601,3312.7935],[-68.0031,-16.8575,3307.6584],[-67.9971,-16.8442,4021.7886],[-68.0014,-16.8443,4013.3926],[-68.0042,-16.8429,4032.9629],[-68.0046,-16.8401,4087.7354],[-68.017,-16.835,3957.6726],[-68.025,-16.8213,3778.7],[-68.0241,-16.8177,3799.7175],[-68.0372,-16.7999,3865.8611],[-68.046,-16.7908,3941.834],[-68.0523,-16.7875,4057.7539],[-68.0587,-16.7795,4026.2832],[-68.0663,-16.7779,4107.9673],[-68.0686,-16.7753,4125.769],[-68.07,-16.7668,4135.7847],[-68.0669,-16.7616,4133.3516],[-68.0786,-16.7604,4135.8804],[-68.0865,-16.7546,4127.1089],[-68.0933,-16.7643,4228.4126],[-68.0963,-16.7641,4238.3135],[-68.0964,-16.7684,4253.9658],[-68.1101,-16.7689,4134.5635],[-68.1301,-16.7601,4062.9468],[-68.1381,-16.7581,4033.3103],[-68.1462,-16.7575,4030.7563],[-68.1526,-16.7589,4011.2183],[-68.1579,-16.7644,3959.4268],[-68.1757,-16.7771,3929.0981],[-68.1767,-16.786,3938.0513],[-68.1867,-16.7908,3923.7612],[-68.1975,-16.802,3908.957],[-68.2195,-16.8187,3875.6685],[-68.2268,-16.8209,3872.3533],[-68.2288,-16.8264,3874.0354],[-68.2444,-16.8305,4002.4604],[-68.2473,-16.8456,3877.9517],[-68.2673,-16.8625,3868.425],[-68.2885,-16.8744,3889.1875],[-68.2912,-16.8803,3903.9111],[-68.3098,-16.884,4144.7861],[-68.3147,-16.8864,4246.9736],[-68.3238,-16.8872,4298.9443],[-68.33,-16.8906,4149.291],[-68.3395,-16.8914,4356.7104],[-68.3502,-16.8969,4059.8533],[-68.3711,-16.9139,4148.1387],[-68.3759,-16.9225,4152.6738],[-68.3747,-16.9287,4066.8513],[-68.379,-16.9333,4036.4756],[-68.3758,-16.9368,4045.5178],[-68.376,-16.9408,4041.3232],[-68.3737,-16.9424,4046.3247],[-68.3741,-16.9455,4056.1296],[-68.372,-16.9503,4061.8657],[-68.3697,-16.9518,4066.9148],[-68.3714,-16.9645,4100.3633],[-68.3646,-16.9655,4124.811],[-68.3598,-16.9734,4246.0996],[-68.3581,-16.9842,4169.2236],[-68.3548,-16.9924,4149.3521],[-68.3479,-17.0312,4291.9702],[-68.3495,-17.0333,4258.3228],[-68.3466,-17.0404,4302.2339],[-68.3449,-17.0548,4378.4067],[-68.3394,-17.0655,4332.0557],[-68.323,-17.0748,4577.5713],[-68.3209,-17.0842,4464.8848],[-68.3139,-17.092,4336.5303],[-68.3118,-17.0921,4292.1406],[-68.3055,-17.1052,4291.0918],[-68.2986,-17.11,4344.6997],[-68.2528,-17.0889,4353.9072],[-68.2523,-17.0871,4328.6289],[-68.2317,-17.0725,4125.4141],[-68.2276,-17.0677,4082.3928],[-68.2262,-17.0632,4064.0662],[-68.2229,-17.0613,4055.9778],[-68.2131,-17.062,4038.563],[-68.1943,-17.0584,4004.6677],[-68.1848,-17.0592,3991.301],[-68.1604,-17.0863,3970.6416],[-68.1645,-17.1154,4094.7156],[-68.128,-17.1233,4098.0376],[-68.125,-17.1221,4095.1089],[-68.1229,-17.1231,4090.5178],[-68.1212,-17.1276,4092.7415],[-68.1186,-17.1288,4103.7241],[-68.1151,-17.1737,3973.6553],[-68.1156,-17.1873,3974.6523],[-68.1096,-17.211,3981.6162],[-68.106,-17.2217,3959.5496],[-68.0896,-17.2202,3909.6709],[-68.0895,-17.237,3938.6221],[-68.0989,-17.259,3997.5369],[-68.1016,-17.271,3988.5278],[-68.1064,-17.2744,4023.1946],[-68.1247,-17.2786,4128.4883],[-68.1347,-17.2755,4216.873],[-68.1587,-17.2744,4276.897],[-68.1668,-17.271,4309.0415],[-68.179,-17.2691,4350.3345],[-68.1948,-17.2614,4369.9937],[-68.2171,-17.2474,4414.0127],[-68.2184,-17.2508,4398.6377],[-68.2149,-17.2746,4381.1724],[-68.1959,-17.3019,4338.2319],[-68.2018,-17.3094,4284.2891],[-68.1936,-17.3284,4148.4858],[-68.1757,-17.3927,3921.1421],[-68.1619,-17.4206,3783.7644],[-68.1577,-17.4254,3776.3845],[-68.1521,-17.4271,3774.4839],[-68.1514,-17.4345,3771.2847],[-68.1434,-17.4438,3764.0823],[-68.1436,-17.4472,3762.7439],[-68.1469,-17.4511,3761.4536],[-68.1413,-17.4616,3757.0254],[-68.1331,-17.4591,3757.0664],[-68.1215,-17.4606,3756.2278],[-68.1104,-17.4694,3755.2117],[-68.0995,-17.485,3754.686],[-68.0886,-17.4877,3753.7249],[-68.074,-17.4889,3753.2183],[-68.0568,-17.4858,3751.9478],[-68.0463,-17.4825,3749.9883],[-68.0387,-17.4768,3750.0242],[-68.0267,-17.4718,3749.0425],[-68.0076,-17.4757,3749.2214],[-67.9913,-17.4751,3747.8628],[-67.986,-17.479,3747.5054],[-67.9852,-17.4853,3747.248],[-67.9783,-17.5055,3745.9766],[-67.962,-17.5193,3744.0515],[-67.9485,-17.5246,3743.873],[-67.945,-17.5294,3743.6191],[-67.9328,-17.5313,3742.896],[-67.9249,-17.5305,3742.49],[-67.8991,-17.5429,3741.2402],[-67.8933,-17.5493,3740.293],[-67.8757,-17.555,3739.3022],[-67.8574,-17.5551,3738.8618],[-67.8359,-17.5506,3737.2495],[-67.8306,-17.5531,3737.4297],[-67.8229,-17.5541,3736.7324],[-67.8112,-17.5471,3736.2568],[-67.8066,-17.5466,3735.7166],[-67.7932,-17.5517,3734.9731],[-67.7711,-17.5511,3733.8223]]]]}}