{"type": "Feature","bbox": [-65.8722,-17.5208,-65.2249,-17.1114],"geometry": {"type": "MultiPolygon","coordinates": [[[[-65.6964,-17.52,3641.1387],[-65.6849,-17.5113,3529.8779],[-65.6812,-17.5065,3582.6604],[-65.6745,-17.4909,3661.0391],[-65.6682,-17.4912,3660.5566],[-65.6618,-17.5002,3679.238],[-65.6493,-17.4969,3740.4871],[-65.6063,-17.5051,3763.5073],[-65.5995,-17.5085,3887.2083],[-65.5945,-17.5063,3958.5391],[-65.526,-17.5028,3913.7104],[-65.52,-17.495,3907.8865],[-65.4991,-17.501,3994.1641],[-65.4963,-17.4974,3899.7729],[-65.4769,-17.5013,3722.2395],[-65.472,-17.501,3501.7261],[-65.4694,-17.4992,3446.3235],[-65.4567,-17.5023,3475.7319],[-65.4505,-17.501,3399.3647],[-65.4457,-17.4963,3225.9548],[-65.4387,-17.4967,3150.114],[-65.436,-17.4923,3259.4878],[-65.4002,-17.4875,3932.9587],[-65.3912,-17.493,3949.5696],[-65.3812,-17.491,3966.001],[-65.3651,-17.499,3786.2432],[-65.3566,-17.5084,3515.2112],[-65.344,-17.5148,3559.1841],[-65.3382,-17.4921,2950.9744],[-65.3379,-17.4773,3332.239],[-65.3396,-17.4707,3186.6768],[-65.3287,-17.4612,2804.6484],[-65.3278,-17.4574,2721.4951],[-65.3235,-17.4544,2497.4517],[-65.3217,-17.4498,2446.2158],[-65.3142,-17.4455,2306.7314],[-65.3141,-17.4418,2267.4563],[-65.3117,-17.4388,2298.4761],[-65.3136,-17.4355,2260.5774],[-65.3128,-17.4316,2214.1206],[-65.3058,-17.4269,2069.7593],[-65.3098,-17.4218,1959.1223],[-65.312,-17.4139,1862.2731],[-65.3084,-17.4073,1480.0696],[-65.3047,-17.407,1410.8511],[-65.3037,-17.4027,1381.344],[-65.2943,-17.3964,1281.6587],[-65.2926,-17.3923,1260.2875],[-65.2883,-17.3886,1243.5779],[-65.2838,-17.3871,1246.0157],[-65.2741,-17.3942,1284.1843],[-65.2718,-17.3935,1420.4241],[-65.2704,-17.3891,1100.824],[-65.2665,-17.3873,1033.7163],[-65.2652,-17.3832,992.8196],[-65.2582,-17.383,990.6448],[-65.2571,-17.3771,977.202],[-65.2522,-17.3785,961.7711],[-65.245,-17.3718,947.2917],[-65.2356,-17.3692,940.8119],[-65.2252,-17.3583,923.1135],[-65.2268,-17.3557,914.2115],[-65.2249,-17.3525,915.4426],[-65.2282,-17.343,880.9706],[-65.2316,-17.3406,916.9969],[-65.2321,-17.3369,875.8271],[-65.2323,-17.333,871.14],[-65.2282,-17.3248,870.2894],[-65.2283,-17.3217,874.3857],[-65.2332,-17.3192,850.7239],[-65.2326,-17.317,843.4947],[-65.2283,-17.3156,840.5369],[-65.227,-17.3122,839.5431],[-65.2319,-17.3058,875.7157],[-65.2324,-17.3018,811.697],[-65.2355,-17.2988,802.8563],[-65.236,-17.2917,787.6914],[-65.2391,-17.2889,801.8922],[-65.237,-17.2759,775.7164],[-65.2383,-17.2697,763.9061],[-65.2432,-17.2656,745.121],[-65.24,-17.2599,754.0835],[-65.2432,-17.2533,764.2137],[-65.2423,-17.2512,750.7568],[-65.244,-17.247,768.4143],[-65.2428,-17.2442,757.5638],[-65.2452,-17.2383,724.2654],[-65.2384,-17.2322,1043.202],[-65.2349,-17.2191,1499.9965],[-65.2386,-17.2159,1477.0828],[-65.2455,-17.2146,1397.2189],[-65.2531,-17.2076,1303.1079],[-65.2635,-17.2044,1367.3289],[-65.2868,-17.1931,1264.4012],[-65.2874,-17.181,710.0435],[-65.2924,-17.1686,1198.9504],[-65.3045,-17.1588,1547.4128],[-65.3221,-17.1559,1304.1981],[-65.3513,-17.1462,1462.4495],[-65.3715,-17.1479,1272.6558],[-65.3978,-17.1446,1109.3375],[-65.4089,-17.1368,1041.8923],[-65.4216,-17.132,964.4961],[-65.4407,-17.1187,1252.2667],[-65.4436,-17.1135,1156.6858],[-65.4562,-17.1145,818.4557],[-65.4689,-17.1725,1531.0823],[-65.5128,-17.1629,2113.5796],[-65.5249,-17.1637,1339.2177],[-65.54,-17.1114,709.6854],[-65.5413,-17.1121,702.5762],[-65.5475,-17.1223,742.1171],[-65.5535,-17.1254,769.7716],[-65.5569,-17.1304,800.5327],[-65.5644,-17.1365,883.6154],[-65.5714,-17.1471,904.799],[-65.579,-17.1499,1028.1871],[-65.5792,-17.1539,1124.6754],[-65.576,-17.161,1181.3855],[-65.579,-17.1621,1160.7339],[-65.5838,-17.1691,1270.1437],[-65.6039,-17.1739,1488.8755],[-65.6124,-17.1808,1621.5919],[-65.6125,-17.1827,1534.0693],[-65.6194,-17.182,1673.0367],[-65.6234,-17.186,1692.6924],[-65.6307,-17.1866,1850.2186],[-65.6425,-17.1933,2019.4183],[-65.6468,-17.1932,2075.1345],[-65.6548,-17.1997,2089.9751],[-65.6599,-17.2074,2262.4719],[-65.6606,-17.212,2221.0095],[-65.6643,-17.2172,2250.0222],[-65.6662,-17.2174,2316.0076],[-65.6665,-17.2208,2348.6064],[-65.6692,-17.2223,2390.875],[-65.6722,-17.229,2444.0723],[-65.682,-17.2374,2581.926],[-65.6855,-17.2432,2675.5],[-65.6877,-17.2429,2697.4756],[-65.6891,-17.2488,2788.4207],[-65.6936,-17.2502,2851.3948],[-65.7015,-17.2661,3183.7095],[-65.7106,-17.2716,3407.1726],[-65.7137,-17.2769,3542.6724],[-65.7233,-17.2866,4208.4204],[-65.7464,-17.3032,3795.9612],[-65.7469,-17.3082,3859.5862],[-65.7549,-17.3137,3506.584],[-65.7618,-17.3326,4160.7646],[-65.7774,-17.3399,4032.1316],[-65.7867,-17.3464,3843.1216],[-65.7929,-17.3469,3750.6138],[-65.7965,-17.3521,3659.2175],[-65.8012,-17.3557,3599.1802],[-65.8047,-17.3615,3536.4053],[-65.8069,-17.3751,3442.8794],[-65.8097,-17.381,3569.7832],[-65.8197,-17.3868,3501.5889],[-65.8251,-17.3851,3437.7144],[-65.8302,-17.381,3461.3694],[-65.8374,-17.3848,3451.0708],[-65.8436,-17.3859,3633.0708],[-65.8546,-17.3849,3942.5254],[-65.8722,-17.3915,3926.0273],[-65.8657,-17.4046,3736.2983],[-65.8504,-17.4101,3846.5811],[-65.8455,-17.4318,3928.7947],[-65.8555,-17.4451,3894.0334],[-65.8547,-17.4484,3829.1846],[-65.851,-17.4497,3829.9971],[-65.8459,-17.4544,3782.0078],[-65.8395,-17.4537,3742.9512],[-65.8338,-17.4496,3706.3008],[-65.8293,-17.4509,3717.2317],[-65.823,-17.4493,3681.0745],[-65.8203,-17.4502,3580.7798],[-65.819,-17.4532,3494.0891],[-65.8197,-17.4572,3408.2021],[-65.8128,-17.4661,3171.98],[-65.816,-17.4712,3145.7397],[-65.8157,-17.4743,3118.1338],[-65.8128,-17.4758,3070.3977],[-65.808,-17.4744,3036.3032],[-65.8011,-17.4748,2986.9956],[-65.7966,-17.4731,2956.0862],[-65.7948,-17.475,2948.2317],[-65.7913,-17.4732,2947.7432],[-65.788,-17.477,2890.1846],[-65.7856,-17.4851,2871.3547],[-65.7863,-17.4882,2912.5635],[-65.784,-17.4915,2998.4424],[-65.7788,-17.4936,3043.9333],[-65.7777,-17.5009,3120.78],[-65.7706,-17.5075,3403.6648],[-65.763,-17.5179,3588.9072],[-65.7524,-17.5171,3655.2236],[-65.735,-17.5208,3368.3333],[-65.7154,-17.5134,3572.4395],[-65.7033,-17.5164,3584.2666],[-65.6964,-17.52,3641.1387]]]]}
,"properties": {"GID_3": "BOL.2.16.2_2","GID_0": "BOL","country": "Bolivia","GID_1": "BOL.2_1","province": "Cochabamba","NL_NAME_1": "NA","GID_2": "BOL.2.16_2","county": "Tiraque","NL_NAME_2": "NA","city": "Tiraque","VARNAME_3": "NA","NL_NAME_3": "NA","TYPE_3": "District","ENGTYPE_3": "Distrito","CC_3": "NA","HASC_3": "NA","name": "Tiraque.city","area_km2": 1994.935,"hist_schema_id": "Elevation0-9000","hist_area_km2": {"400": 0.79,"425": 1.195,"450": 1.682,"475": 2.147,"500": 2.33,"525": 3.363,"550": 4.112,"575": 5.408,"600": 7.454,"625": 7.514,"650": 7.838,"675": 9.925,"700": 10.451,"725": 12.679,"750": 12.01,"775": 12.841,"800": 13.408,"825": 12.982,"850": 13.792,"875": 13.407,"900": 13.366,"925": 13.508,"950": 13.021,"975": 13.061,"1000": 12.859,"1025": 12.353,"1050": 13.486,"1075": 12.514,"1100": 12.19,"1125": 12.251,"1150": 10.813,"1175": 11.258,"1200": 10.793,"1225": 10.165,"1250": 9.881,"1275": 10.954,"1300": 11.379,"1325": 11.723,"1350": 11.115,"1375": 12.471,"1400": 10.973,"1425": 10.993,"1450": 11.621,"1475": 10.831,"1500": 10.953,"1525": 10.082,"1550": 10.709,"1575": 10.527,"1600": 10.831,"1625": 9.596,"1650": 10.284,"1675": 9.798,"1700": 10.345,"1725": 10.223,"1750": 10.102,"1775": 9.555,"1800": 9.393,"1825": 9.859,"1850": 9.839,"1875": 10.021,"1900": 9.332,"1925": 9.656,"1950": 9.413,"1975": 10.486,"2000": 9.636,"2025": 10.202,"2050": 11.093,"2075": 9.98,"2100": 9.656,"2125": 10.364,"2150": 9.736,"2175": 9.736,"2200": 10.08,"2225": 9.615,"2250": 9.635,"2275": 9.109,"2300": 8.805,"2325": 8.178,"2350": 8.238,"2375": 8.097,"2400": 7.814,"2425": 7.591,"2450": 7.996,"2475": 7.51,"2500": 7.915,"2525": 8.563,"2550": 8.623,"2575": 9.028,"2600": 8.259,"2625": 7.246,"2650": 8.238,"2675": 8.096,"2700": 8.097,"2725": 7.51,"2750": 7.732,"2775": 7.611,"2800": 8.34,"2825": 8.258,"2850": 7.894,"2875": 8.278,"2900": 7.043,"2925": 8.42,"2950": 8.581,"2975": 9.43,"3000": 9.775,"3025": 9.896,"3050": 10.704,"3075": 11.898,"3100": 12.019,"3125": 12.444,"3150": 12.464,"3175": 15.701,"3200": 20.756,"3225": 24.277,"3250": 22.394,"3275": 20.675,"3300": 18.39,"3325": 17.945,"3350": 15.72,"3375": 17.52,"3400": 17.986,"3425": 18.998,"3450": 17.359,"3475": 19.058,"3500": 19.927,"3525": 20.574,"3550": 22.758,"3575": 22.516,"3600": 24.761,"3625": 24.883,"3650": 23.427,"3675": 21.991,"3700": 21.729,"3725": 20.677,"3750": 23.407,"3775": 23.873,"3800": 21.405,"3825": 20.029,"3850": 19.605,"3875": 19.948,"3900": 20.232,"3925": 22.68,"3950": 20.536,"3975": 21.709,"4000": 21.021,"4025": 20.111,"4050": 19.201,"4075": 19.039,"4100": 16.712,"4125": 16.51,"4150": 15.114,"4175": 15.033,"4200": 14.022,"4225": 11.655,"4250": 10.906,"4275": 10.421,"4300": 8.822,"4325": 8.114,"4350": 7.163,"4375": 6.557,"4400": 5.302,"4425": 5.97,"4450": 4.149,"4475": 3.198,"4500": 2.489,"4525": 1.801,"4550": 1.477,"4575": 0.688,"4600": 0.405,"4625": 0.263}}}