{"type":"Feature","properties":{"GID_3":"BOL.8.6.3_2","GID_0":"BOL","country":"Bolivia","GID_1":"BOL.8_1","province":"SantaCruz","NL_NAME_1":"NA","GID_2":"BOL.8.6_2","county":"GermánBusch","NL_NAME_2":"NA","city":"PuertoSuarez","VARNAME_3":"NA","NL_NAME_3":"NA","TYPE_3":"District","ENGTYPE_3":"Distrito","CC_3":"NA","HASC_3":"NA","name":"Puerto_Suarez.city"},
"geometry":{"type": "MultiPolygon","coordinates": [[[[-58.0338,-17.9968,203.0661],[-58.2296,-18.213,210.9468],[-57.9408,-18.8255,86.5071],[-58.4044,-18.8904,107.7224],[-58.4052,-18.9907,181.1963],[-58.9864,-18.9853,164.9357],[-59.0996,-19.3494,297.8896],[-58.9996,-19.4015,299.1052],[-58.8235,-19.4969,182.2565],[-58.7443,-19.5364,140.8018],[-58.6406,-19.5864,112.2516],[-58.5011,-19.6502,87.8746],[-58.2354,-19.7755,83.6828],[-58.1648,-19.8271,80.47],[-58.1678,-19.8313,80.3548],[-58.1743,-19.8349,80.1214],[-58.1781,-19.8446,80.3499],[-58.1921,-19.8533,79.9078],[-58.1975,-19.8623,80.314],[-58.2019,-19.8648,79.8166],[-58.2037,-19.8815,80.4483],[-58.2051,-19.8838,79.9645],[-58.2048,-19.8977,79.3184],[-58.2003,-19.9052,79.2902],[-58.1959,-19.9282,79.3547],[-58.202,-19.9381,79.3269],[-58.2131,-19.9514,79.2],[-58.2131,-19.9537,78.9637],[-58.2101,-19.9565,79.3056],[-58.2008,-19.9619,79.0369],[-58.192,-19.9615,79.0044],[-58.1855,-19.9712,79.1774],[-58.1765,-20.0048,79.5317],[-58.1774,-20.0136,79.4682],[-58.1737,-20.0216,78.9316],[-58.1751,-20.0284,79.9261],[-58.1679,-20.0359,78.3981],[-58.1568,-20.0439,82.3496],[-58.1617,-20.049,79.6203],[-58.1668,-20.0508,82.0891],[-58.1634,-20.0569,81.9309],[-58.1649,-20.0651,78.8696],[-58.1604,-20.073,83.6253],[-58.1621,-20.0767,79.1061],[-58.1597,-20.0771,79.9777],[-58.1581,-20.0751,79.0073],[-58.1528,-20.0754,80.5229],[-58.1545,-20.0853,79.7065],[-58.1446,-20.0978,81.0103],[-58.1369,-20.1187,77.801],[-58.1376,-20.124,77.9093],[-58.142,-20.1283,80.2172],[-58.1454,-20.1397,80.3184],[-58.1594,-20.1454,80.0533],[-58.1672,-20.1527,79.7824],[-58.1698,-20.1659,77.5],[-58.1627,-20.1606,77.7049],[-58.1561,-20.1508,80.6879],[-58.1371,-20.1483,79.4545],[-58.118,-20.1395,80.4251],[-58.1027,-20.1227,78.0],[-58.0937,-20.1087,78.0],[-58.0655,-20.1012,80.4306],[-58.0503,-20.1004,80.5591],[-58.041,-20.0905,78.0],[-58.039,-20.077,78.0],[-58.0332,-20.0648,80.1913],[-58.0252,-20.0586,78.0],[-58.0117,-20.0578,79.4042],[-57.9977,-20.0532,81.4097],[-57.978,-20.0535,78.0],[-57.9725,-20.0499,78.0],[-57.9669,-20.0331,78.7298],[-57.9569,-20.0226,78.0],[-57.9482,-20.0194,78.0],[-57.9377,-20.0192,78.0],[-57.9245,-20.025,78.0],[-57.9122,-20.034,81.3152],[-57.9093,-20.034,81.4306],[-57.9081,-20.0304,81.0798],[-57.909,-20.0194,80.9432],[-57.905,-20.0114,81.403],[-57.896,-20.002,81.485],[-57.8832,-19.9934,81.9883],[-57.8729,-19.9827,82.4747],[-57.8709,-19.9765,81.7151],[-57.8726,-19.971,81.5743],[-57.8767,-19.9659,81.4358],[-57.8953,-19.9506,81.6107],[-57.916,-19.9371,81.2836],[-57.9535,-19.9092,81.4792],[-57.9873,-19.888,81.3637],[-58.0209,-19.8598,81.0736],[-58.0487,-19.8333,81.1592],[-58.0735,-19.817,80.9571],[-58.1268,-19.7747,81.6313],[-58.1334,-19.7624,81.4704],[-58.1334,-19.7578,81.0973],[-58.122,-19.7318,81.5129],[-58.092,-19.6733,81.6829],[-57.8273,-19.1238,136.1993],[-57.8589,-19.1086,144.0792],[-57.8393,-19.0837,175.1066],[-57.8241,-19.0588,344.9109],[-57.82,-19.0475,227.8176],[-57.8174,-19.0331,236.23],[-57.8091,-19.0172,226.372],[-57.803,-19.0104,253.2165],[-57.7883,-19.0021,220.5821],[-57.7819,-18.9851,105.9868],[-57.7812,-18.9737,91.9414],[-57.783,-18.9621,83.5],[-57.7913,-18.9425,83.5],[-57.7973,-18.9356,83.5],[-57.7142,-17.9815,148.7085],[-58.0224,-17.9791,186.1496],[-58.0338,-17.9968,203.0661]]]]}}