{"type":"Feature","properties":{"GID_3":"BOL.6.4.3_2","GID_0":"BOL","country":"Bolivia","GID_1":"BOL.6_1","province":"Pando","NL_NAME_1":"NA","GID_2":"BOL.6.4_2","county":"Manuripi","NL_NAME_2":"NA","city":"SanPedro","VARNAME_3":"NA","NL_NAME_3":"NA","TYPE_3":"District","ENGTYPE_3":"Distrito","CC_3":"NA","HASC_3":"NA","name":"San_Pedro.city"},
"geometry":{"type": "MultiPolygon","coordinates": [[[[-66.0103,-10.8131,115.697],[-66.0161,-10.8127,109.5848],[-66.0268,-10.8166,113.4746],[-66.0287,-10.8162,110.6695],[-66.0337,-10.81,113.3508],[-66.0367,-10.8099,116.4343],[-66.038,-10.818,125.0222],[-66.0412,-10.8204,115.0114],[-66.0461,-10.8219,120.7048],[-66.0488,-10.8159,113.0633],[-66.0563,-10.815,116.7738],[-66.0599,-10.8211,113.7021],[-66.0649,-10.823,126.2248],[-66.0678,-10.8188,111.0],[-66.0654,-10.8133,119.3403],[-66.0658,-10.8101,117.6792],[-66.0685,-10.8087,113.746],[-66.0743,-10.8091,114.1196],[-66.0777,-10.8133,114.9978],[-66.0754,-10.8174,125.1547],[-66.071,-10.8203,128.5472],[-66.0705,-10.8251,127.7912],[-66.0751,-10.8265,126.2696],[-66.0823,-10.8238,116.0244],[-66.0868,-10.826,120.2833],[-66.0894,-10.8245,133.4699],[-66.09,-10.8191,135.3427],[-66.082,-10.8083,119.78],[-66.0833,-10.8024,117.2766],[-66.0864,-10.8036,117.4381],[-66.0858,-10.808,116.9626],[-66.088,-10.8138,116.1122],[-66.0917,-10.8152,125.1401],[-66.0944,-10.8108,115.0],[-66.0933,-10.8028,120.0719],[-66.0966,-10.8023,119.5635],[-66.0982,-10.8046,128.3653],[-66.0981,-10.8143,130.5721],[-66.1004,-10.8158,117.5534],[-66.1017,-10.8105,123.4323],[-66.1067,-10.8054,127.2617],[-66.1189,-10.8018,122.6969],[-66.1239,-10.8047,121.5821],[-66.1181,-10.8106,124.9895],[-66.1176,-10.8151,128.1013],[-66.1243,-10.8132,118.7705],[-66.1268,-10.8063,130.1313],[-66.1346,-10.811,119.3204],[-66.1406,-10.8087,122.6451],[-66.1473,-10.8147,124.7165],[-66.1493,-10.8141,120.6002],[-66.1505,-10.8108,126.9398],[-66.145,-10.8085,131.0961],[-66.1447,-10.8064,124.6824],[-66.154,-10.802,121.608],[-66.1586,-10.8048,126.9288],[-66.1567,-10.8108,122.8256],[-66.161,-10.817,119.7253],[-66.1632,-10.818,127.5257],[-66.1695,-10.8146,129.4849],[-66.174,-10.8203,120.8145],[-66.1809,-10.8242,123.381],[-66.1828,-10.824,119.2765],[-66.1907,-10.8163,127.2245],[-66.1936,-10.8161,118.0],[-66.1937,-10.8239,122.7681],[-66.1992,-10.8277,122.9409],[-66.2031,-10.826599999999999,137.0309],[-66.2064,-10.8211,121.7787],[-66.209,-10.8223,123.4883],[-66.2062,-10.8285,119.7983],[-66.208,-10.8305,121.8449],[-66.2133,-10.8305,126.3438],[-66.2212,-10.8265,128.4207],[-66.2227,-10.8282,120.8506],[-66.2223,-10.8305,122.0443],[-66.2182,-10.8322,120.6317],[-66.2174,-10.8345,121.3084],[-66.2235,-10.8382,125.9193],[-66.2275,-10.8356,119.281],[-66.2249,-10.8298,123.0794],[-66.2265,-10.827,120.1599],[-66.2306,-10.8284,121.0395],[-66.2381,-10.8367,126.2493],[-66.2426,-10.8329,125.0801],[-66.2488,-10.8333,118.0],[-66.2488,-10.8354,126.4583],[-66.2433,-10.837,119.31],[-66.2426,-10.8388,119.477],[-66.2472,-10.8426,120.1474],[-66.2562,-10.8395,132.2008],[-66.2579,-10.8373,123.2916],[-66.256,-10.8341,127.0276],[-66.2512,-10.8332,128.8709],[-66.2512,-10.8302,120.4366],[-66.2597,-10.8289,123.6437],[-66.2614,-10.8304,126.1022],[-66.2598,-10.8381,130.0214],[-66.2613,-10.8388,127.8698],[-66.2627,-10.8363,127.4354],[-66.2649,-10.8363,124.3871],[-66.2728,-10.851,120.2124],[-66.276,-10.851,120.5549],[-66.274,-10.8437,130.6008],[-66.2754,-10.8414,128.0692],[-66.2787,-10.8422,129.1011],[-66.2858,-10.8478,122.7388],[-66.2895,-10.8531,126.3876],[-66.294,-10.8532,125.2261],[-66.2936,-10.8495,130.2909],[-66.2869,-10.8443,127.4332],[-66.2899,-10.8379,127.6775],[-66.2926,-10.8372,125.3151],[-66.2941,-10.8386,124.7896],[-66.291,-10.8418,133.9953],[-66.2915,-10.8455,122.6016],[-66.2996,-10.8473,129.1127],[-66.3019,-10.84,123.6993],[-66.3067,-10.8436,125.9758],[-66.3067,-10.8462,124.2026],[-66.3038,-10.8494,122.9119],[-66.3124,-10.8555,129.643],[-66.3116,-10.85,120.0],[-66.3181,-10.8514,126.3969],[-66.3216,-10.8485,124.1665],[-66.3221,-10.8403,130.2979],[-66.3241,-10.8378,135.1893],[-66.3273,-10.8375,123.7037],[-66.3267,-10.8448,122.289],[-66.3313,-10.8462,127.1127],[-66.3327,-10.8446,127.2369],[-66.3305,-10.8388,124.9557],[-66.3427,-10.8427,123.966],[-66.3488,-10.8329,131.9084],[-66.3523,-10.8309,125.6125],[-66.3543,-10.8322,122.6914],[-66.3534,-10.8382,125.4749],[-66.3549,-10.8409,123.3869],[-66.3582,-10.8427,124.3092],[-66.3616,-10.8413,140.0484],[-66.3605,-10.835,130.5878],[-66.3547,-10.8289,124.2016],[-66.3559,-10.8267,122.9435],[-66.3586,-10.8307,121.7687],[-66.3619,-10.8278,124.6044],[-66.3636,-10.8281,132.1109],[-66.3637,-10.8337,125.5117],[-66.3743,-10.8453,129.6504],[-66.3759,-10.8448,127.7485],[-66.3789,-10.8388,125.9985],[-66.3906,-10.8401,128.9092],[-66.3926,-10.8368,122.5],[-66.3879,-10.8335,138.8751],[-66.3875,-10.8316,137.8271],[-66.3931,-10.8322,124.5946],[-66.3964,-10.8219,138.813],[-66.3984,-10.821,132.0087],[-66.405,-10.8233,132.8987],[-66.4101,-10.8158,130.5098],[-66.4159,-10.8163,138.4474],[-66.4221,-10.8227,125.5164],[-66.4278,-10.8226,126.0734],[-66.4285,-10.826599999999999,128.8745],[-66.424,-10.8312,128.722],[-66.43,-10.8351,131.1985],[-66.433,-10.8341,127.3347],[-66.4342,-10.8293,126.8241],[-66.4368,-10.8276,124.5],[-66.4396,-10.8344,126.1921],[-66.4418,-10.8351,132.7702],[-66.4447,-10.8271,126.2585],[-66.4471,-10.8246,129.0519],[-66.4529,-10.8254,130.3491],[-66.457,-10.8237,126.9851],[-66.459,-10.8261,130.1868],[-66.4533,-10.8306,134.3789],[-66.4573,-10.8322,140.4835],[-66.4588,-10.8366,129.7042],[-66.4615,-10.8382,135.6024],[-66.4637,-10.835,138.7212],[-66.4601,-10.8301,132.177],[-66.4605,-10.8281,138.4601],[-66.4691,-10.8308,133.8578],[-66.4697,-10.826,133.2122],[-66.4712,-10.8254,128.7676],[-66.4714,-10.8294,128.1351],[-66.478,-10.8306,129.1739],[-66.4841,-10.8398,139.4481],[-66.487,-10.8387,130.6215],[-66.4837,-10.8361,132.6371],[-66.4845,-10.8332,135.0254],[-66.4904,-10.8323,130.012],[-66.4973,-10.8358,130.3572],[-66.499,-10.8398,134.7747],[-66.4964,-10.8441,131.5495],[-66.4968,-10.8465,140.5273],[-66.5012,-10.8462,133.811],[-66.5049,-10.843,133.345],[-66.5072,-10.843,138.8717],[-66.5102,-10.8575,129.824],[-66.5144,-10.8566,132.417],[-66.5126,-10.8503,129.6747],[-66.5155,-10.847,131.4098],[-66.5206,-10.8482,133.0257],[-66.5211,-10.8526,129.6271],[-66.5266,-10.8505,132.7865],[-66.5261,-10.8561,128.0],[-66.5277,-10.8594,136.4999],[-66.5297,-10.8587,131.6895],[-66.5336,-10.8527,134.4298],[-66.536,-10.8525,131.4543],[-66.5335,-10.8626,134.9278],[-66.5381,-10.8605,129.6816],[-66.5412,-10.8611,130.928],[-66.544,-10.8712,141.627],[-66.5421,-10.8778,142.7303],[-66.5384,-10.8808,137.3507],[-66.5391,-10.8846,131.1258],[-66.5411,-10.8853,134.3061],[-66.5437,-10.8832,132.0522],[-66.5489,-10.8853,136.4883],[-66.5529,-10.875,131.9892],[-66.5548,-10.8735,129.642],[-66.5559,-10.88,134.1652],[-66.5631,-10.8839,135.2274],[-66.562,-10.8869,133.2117],[-66.5572,-10.8893,129.9166],[-66.556,-10.8972,129.4761],[-66.5603,-10.8926,132.3308],[-66.565,-10.8928,130.5617],[-66.5705,-10.896,130.4216],[-66.5727,-10.8926,131.8983],[-66.5828,-10.891,129.25],[-66.5848,-10.894,132.2888],[-66.5792,-10.8956,137.824],[-66.5778,-10.8975,130.5883],[-66.5785,-10.9,138.316],[-66.5812,-10.9001,136.7631],[-66.5861,-10.8965,132.9208],[-66.5901,-10.8956,139.958],[-66.5893,-10.892,141.4932],[-66.5929,-10.8881,130.0],[-66.5941,-10.8829,132.2203],[-66.598,-10.8838,134.5652],[-66.5996,-10.8868,136.0149],[-66.5949,-10.8961,136.678],[-66.5952,-10.8989,136.2365],[-66.5974,-10.9,136.4933],[-66.5982,-10.8968,140.5161],[-66.6008,-10.8962,133.3239],[-66.6096,-10.9007,132.8153],[-66.6101,-10.9032,132.6304],[-66.6062,-10.9077,144.4611],[-66.6093,-10.9128,134.0576],[-66.6128,-10.912,133.2599],[-66.6138,-10.9047,135.5436],[-66.6183,-10.9014,139.8108],[-66.6197,-10.9033,138.2207],[-66.6156,-10.9076,138.0611],[-66.6164,-10.9105,134.8266],[-66.6232,-10.9107,135.9181],[-66.6272,-10.9055,133.9344],[-66.6359,-10.9104,134.5131],[-66.6368,-10.9138,134.0403],[-66.6328,-10.9173,144.3164],[-66.6461,-10.9282,133.3695],[-66.6409,-10.934,143.2302],[-66.6477,-10.9372,133.6407],[-66.6456,-10.9419,132.5],[-66.6454,-10.9496,135.7941],[-66.6483,-10.9512,142.0802],[-66.6573,-10.9491,135.6524],[-66.6556,-10.955,138.1195],[-66.6633,-10.9544,134.4096],[-66.6637,-10.956,137.3512],[-66.659,-10.9614,144.4087],[-66.6611,-10.9654,140.2668],[-66.669,-10.965,137.5445],[-66.6719,-10.9615,136.7879],[-66.674,-10.9616,138.8922],[-66.6756,-10.9643,141.6733],[-66.6728,-10.9696,136.1452],[-66.6747,-10.9729,135.389],[-66.6817,-10.9764,151.1987],[-66.6866,-10.9755,140.8013],[-66.6903,-10.9807,144.2405],[-66.6923,-10.9792,148.067],[-66.6917,-10.9748,138.2132],[-66.6938,-10.9732,136.8378],[-66.6992,-10.9766,143.6706],[-66.7038,-10.9755,138.2924],[-66.7038,-10.9654,139.6616],[-66.7072,-10.9641,137.2953],[-66.7132,-10.9706,140.7208],[-66.7121,-10.977,142.1331],[-66.713,-10.9791,154.6299],[-66.7196,-10.9783,140.3341],[-66.7247,-10.9803,141.1648],[-66.7262,-10.9875,138.6233],[-66.7335,-10.9963,144.8909],[-66.7406,-10.9921,140.2806],[-66.7435,-10.9925,138.2163],[-66.7461,-11.0033,141.175],[-66.7538,-10.9986,140.93],[-66.7474,-10.9928,145.2085],[-66.7479,-10.987,148.8563],[-66.7498,-10.9876,138.2232],[-66.7503,-10.9935,138.3541],[-66.7578,-10.992,140.3461],[-66.759,-10.9884,136.75],[-66.7577,-10.9822,138.8242],[-66.7594,-10.981,138.3668],[-66.7623,-10.9843,148.7293],[-66.7606,-10.9902,138.7491],[-66.7636,-10.9932,142.71],[-66.765,-10.9915,149.7612],[-66.7649,-10.9856,149.7785],[-66.767,-10.9839,142.8634],[-66.7703,-10.9842,141.6048],[-66.772,-10.9869,145.2054],[-66.7718,-10.9922,147.8872],[-66.7748,-10.9949,143.9987],[-66.7769,-10.9935,143.0931],[-66.7797,-10.9832,140.1543],[-66.7821,-10.9815,143.299],[-66.786,-10.9815,148.7899],[-66.7877,-10.9838,138.8073],[-66.7847,-10.99,142.5777],[-66.7884,-10.991,145.851],[-66.7902,-10.9861,142.4746],[-66.7962,-10.986,139.4233],[-66.7938,-10.9806,145.4547],[-66.7947,-10.9785,141.5817],[-66.8008,-10.9817,137.5],[-66.8039,-10.9805,141.3001],[-66.8035,-10.9744,144.2731],[-66.8067,-10.9656,147.4178],[-66.8167,-10.9667,144.7411],[-66.8253,-10.9579,158.9885],[-66.8318,-10.9545,143.4916],[-66.8331,-10.9558,140.6423],[-66.8317,-10.9603,142.2957],[-66.8328,-10.9643,141.8995],[-66.8341,-10.9651,158.9582],[-66.8423,-10.9615,145.9406],[-66.8423,-10.9635,142.0417],[-66.839,-10.965,143.503],[-66.8383,-10.9673,143.2255],[-66.8428,-10.9698,140.0269],[-66.8491,-10.9676,142.3772],[-66.8512,-10.9638,139.9128],[-66.8535,-10.9629,145.6846],[-66.8602,-10.9639,142.3068],[-66.8626,-10.9679,141.3293],[-66.8653,-10.9692,139.8019],[-66.8712,-10.9668,144.2307],[-66.8711,-10.9653,139.0141],[-66.8641,-10.9641,140.8094],[-66.8645,-10.9553,141.8254],[-66.8756,-10.9691,144.0586],[-66.8816,-10.968,146.1768],[-66.8944,-10.9701,143.3667],[-66.896,-10.9684,152.1005],[-66.8949,-10.9665,150.3179],[-66.8881,-10.9619,147.5844],[-66.8893,-10.9582,147.1643],[-66.8922,-10.9583,140.9256],[-66.8944,-10.9612,141.4461],[-66.899,-10.9596,144.431],[-66.9019,-10.9638,150.4411],[-66.9089,-10.9659,140.6442],[-66.9124,-10.9619,159.4688],[-66.9124,-10.9543,150.3217],[-66.9213,-10.9493,146.7242],[-66.9248,-10.9505,144.3651],[-66.9258,-10.953,152.3979],[-66.9178,-10.9532,148.06],[-66.9163,-10.955,142.6129],[-66.9172,-10.9565,145.0172],[-66.924,-10.9577,146.3918],[-66.9288,-10.956,154.6387],[-66.9306,-10.952,155.0899],[-66.9307,-10.9451,140.0],[-66.9346,-10.9496,154.3928],[-66.939,-10.9491,143.3284],[-66.9372,-10.9582,154.7934],[-66.9387,-10.9614,155.4821],[-66.943,-10.9606,142.0754],[-66.9442,-10.9556,144.1134],[-66.9467,-10.9537,146.2289],[-66.9499,-10.9563,147.6536],[-66.9506,-10.9636,145.5532],[-66.9523,-10.9659,140.0],[-66.9539,-10.9646,146.3392],[-66.9544,-10.9574,141.6899],[-66.9581,-10.9574,148.2386],[-66.9623,-10.962,148.3914],[-66.9687,-10.9543,141.4322],[-66.9707,-10.9555,146.6857],[-66.9706,-10.9631,142.1327],[-66.972,-10.9645,142.1327],[-66.9739,-10.9636,145.3839],[-66.9774,-10.9573,142.9256],[-66.9802,-10.9596,152.1112],[-66.9822,-10.9655,150.1551],[-66.9843,-10.965,142.2528],[-66.9854,-10.9594,140.5],[-66.9937,-10.9596,150.5157],[-66.9931,-10.9612,150.5157],[-66.9894,-10.9617,145.4029],[-66.9884,-10.9647,153.3601],[-66.9967,-10.9725,146.437],[-66.9982,-10.9725,146.9101],[-66.9984,-10.9689,147.9421],[-67.0016,-10.9701,147.9699],[-67.0016,-11.3359,135.3129],[-66.9812,-11.3377,132.5],[-66.9592,-11.3192,132.0],[-66.9508,-11.308,132.0],[-66.9444,-11.2889,132.0],[-66.9439,-11.2798,132.0],[-66.951,-11.2583,132.0],[-66.9486,-11.2487,132.0],[-66.9438,-11.2436,131.5],[-66.9375,-11.2406,131.5],[-66.9224,-11.238,131.5],[-66.9152,-11.2393,131.5],[-66.9018,-11.2469,131.5],[-66.8932,-11.2566,131.5],[-66.8787,-11.2853,131.0],[-66.8724,-11.2946,131.0],[-66.8687,-11.2994,131.0],[-66.8632,-11.302,131.0],[-66.852,-11.3019,131.0],[-66.846,-11.2988,131.0],[-66.8339,-11.285,131.0],[-66.8128,-11.2732,131.772],[-66.8059,-11.267,130.5],[-66.7981,-11.253,130.5],[-66.795,-11.2438,130.5],[-66.7941,-11.2339,143.7188],[-66.7941,-11.2092,130.5],[-66.7994,-11.1972,130.5],[-66.808,-11.1891,130.0],[-66.8131,-11.1761,130.0],[-66.8118,-11.1702,130.0],[-66.8087,-11.1669,130.0],[-66.8039,-11.1653,130.0],[-66.7913,-11.1675,130.0],[-66.7712,-11.1806,130.0],[-66.751,-11.1911,129.5],[-66.7424,-11.1987,129.5],[-66.7369,-11.2063,129.5],[-66.7331,-11.2218,129.0],[-66.7294,-11.2258,129.0],[-66.7248,-11.2259,129.0],[-66.7211,-11.2238,133.1206],[-66.6978,-11.1951,131.923],[-66.6844,-11.186,130.4492],[-66.67,-11.1848,129.5707],[-66.6525,-11.1913,129.4699],[-66.6408,-11.1876,128.0],[-66.6373,-11.1834,128.0],[-66.6374,-11.1727,129.3046],[-66.6468,-11.162,128.0],[-66.6523,-11.1496,128.0],[-66.6527,-11.1429,136.5087],[-66.6509,-11.1341,134.6359],[-66.6447,-11.1291,141.0904],[-66.6366,-11.1275,140.2677],[-66.6207,-11.1335,126.5],[-66.6113,-11.1399,126.5],[-66.6054,-11.146,126.0],[-66.6009,-11.1536,126.0],[-66.5911,-11.1616,125.5],[-66.5799,-11.1636,125.5],[-66.549,-11.1442,124.5],[-66.5417,-11.1376,132.6953],[-66.5336,-11.1256,137.8213],[-66.5222,-11.114,123.0],[-66.5159,-11.1002,123.0],[-66.4994,-11.0858,122.5],[-66.4862,-11.0865,130.3136],[-66.4699,-11.0936,122.0],[-66.4608,-11.1061,147.3424],[-66.4574,-11.1193,125.9796],[-66.4548,-11.1227,123.2758],[-66.4444,-11.123,125.8949],[-66.4389,-11.12,125.6585],[-66.4342,-11.1133,121.0],[-66.4312,-11.1048,127.7034],[-66.4316,-11.0956,129.7834],[-66.4329,-11.0892,124.6956],[-66.4449,-11.0754,121.0],[-66.4492,-11.0627,121.0],[-66.4486,-11.0576,121.0],[-66.4458,-11.0533,122.1899],[-66.4335,-11.0477,124.1247],[-66.4276,-11.0482,129.0208],[-66.4221,-11.0517,121.0],[-66.4113,-11.0628,121.0],[-66.4093,-11.0705,126.4252],[-66.4104,-11.0858,132.1376],[-66.4202,-11.1016,125.3645],[-66.4216,-11.1071,126.7262],[-66.4201,-11.1124,121.0],[-66.415,-11.1112,121.0],[-66.3946,-11.0899,121.0],[-66.3768,-11.0807,120.5],[-66.3599,-11.076,120.5],[-66.3457,-11.0678,120.5],[-66.3419,-11.0591,140.4421],[-66.3442,-11.0438,132.5928],[-66.3431,-11.0285,120.5],[-66.3396,-11.0163,138.6209],[-66.3351,-11.0077,120.2855],[-66.3165,-10.9994,120.0],[-66.305,-10.9888,120.0],[-66.3021,-10.9817,125.1354],[-66.3022,-10.9734,131.1532],[-66.3048,-10.9662,120.0],[-66.3134,-10.9573,120.0],[-66.3332,-10.9521,122.5374],[-66.3355,-10.9485,122.5803],[-66.3346,-10.9433,120.0],[-66.3263,-10.941,119.5],[-66.3199,-10.9411,119.5],[-66.3047,-10.9499,119.0],[-66.2878,-10.9565,119.0],[-66.2824,-10.9618,118.6777],[-66.2783,-10.9677,118.5],[-66.2755,-10.9757,118.5],[-66.274,-10.9854,118.5],[-66.2772,-11.0195,117.5],[-66.276,-11.0248,117.0],[-66.2721,-11.0269,117.0],[-66.2663,-11.0272,117.0],[-66.253,-11.0237,117.0],[-66.2161,-11.0082,117.0],[-66.2098,-11.0028,117.0],[-66.1936,-10.9857,117.0],[-66.1831,-10.9703,117.0],[-66.1798,-10.9498,116.5],[-66.1678,-10.9273,116.5],[-66.1546,-10.9132,116.5],[-66.1483,-10.9118,145.0395],[-66.1324,-10.9105,131.9821],[-66.122,-10.9123,116.5],[-66.1078,-10.9206,116.5],[-66.1036,-10.9266,116.5],[-66.0968,-10.9507,116.0],[-66.0949,-10.9847,121.6457],[-66.0923,-10.9901,122.015],[-66.0814,-10.9925,117.5387],[-66.0609,-10.9898,113.5],[-66.0558,-10.982,112.5],[-66.047,-10.9418,108.5],[-66.0491,-10.914,108.0],[-66.0473,-10.903,108.0],[-66.0437,-10.8956,114.5262],[-66.0382,-10.889,137.0689],[-66.0207,-10.8791,113.4394],[-66.0154,-10.8719,108.0],[-66.0131,-10.8637,108.0],[-66.0154,-10.8582,108.0],[-66.0215,-10.8549,108.0],[-66.0285,-10.8545,108.0],[-66.0486,-10.8655,108.0],[-66.056,-10.8671,108.0],[-66.0629,-10.8661,108.0],[-66.071,-10.8631,108.0],[-66.0761,-10.8567,108.0],[-66.0763,-10.8517,108.0],[-66.0718,-10.8475,108.0],[-66.0442,-10.8314,108.0],[-66.0103,-10.8131,115.697]]]]}}