{"type":"Feature","properties":{"GID_3":"BOL.7.5.3_2","GID_0":"BOL","country":"Bolivia","GID_1":"BOL.7_1","province":"Potosí","NL_NAME_1":"NA","GID_2":"BOL.7.5_2","county":"CornelioSaavedra","NL_NAME_2":"NA","city":"Tacobamba","VARNAME_3":"NA","NL_NAME_3":"NA","TYPE_3":"District","ENGTYPE_3":"Distrito","CC_3":"NA","HASC_3":"NA","name":"Tacobamba.city"},
"geometry":{"type": "MultiPolygon","coordinates": [[[[-65.5873,-18.9978,3985.3894],[-65.5881,-18.9955,4028.3008],[-65.5915,-18.9938,4057.0615],[-65.6021,-18.995,3688.6877],[-65.603,-19.0041,3628.4778],[-65.605,-19.0061,3623.6938],[-65.6084,-19.0043,3663.2205],[-65.612799999999993,-19.0085,3670.4434],[-65.6138,-19.0117,3673.395],[-65.6197,-19.0145,3713.2051],[-65.6241,-19.014,3732.7061],[-65.6289,-19.0109,3862.7163],[-65.6499,-19.0133,4168.2334],[-65.6595,-19.0334,3516.02],[-65.656,-19.0401,3467.9795],[-65.6558,-19.0456,3346.2434],[-65.6519,-19.0507,3300.3438],[-65.6491,-19.063,3239.6602],[-65.6497,-19.0737,3169.3718],[-65.653,-19.0768,3108.8398],[-65.6512,-19.0833,3155.1462],[-65.6575,-19.0917,3035.9688],[-65.6579,-19.0962,2999.314],[-65.6502,-19.1085,2944.4346],[-65.6477,-19.1194,2919.4282],[-65.6495,-19.124,2928.0991],[-65.6519,-19.1242,2964.188],[-65.6546,-19.1276,2926.4756],[-65.6527,-19.1313,2931.2803],[-65.6561,-19.1341,2923.7988],[-65.6548,-19.1389,2937.5168],[-65.6562,-19.1459,2933.1023],[-65.6698,-19.1691,3005.7522],[-65.6707,-19.1758,2968.5344],[-65.6827,-19.1672,3437.7754],[-65.6921,-19.1631,3635.3735],[-65.6978,-19.1715,3439.5784],[-65.7063,-19.1772,3135.3037],[-65.7068,-19.179,3120.8887],[-65.6999,-19.1964,3027.95],[-65.7043,-19.2131,3242.6633],[-65.7033,-19.2203,3501.7805],[-65.7048,-19.2303,3548.3833],[-65.6969,-19.2371,3923.5903],[-65.6967,-19.24,3855.7542],[-65.6918,-19.2415,4029.5242],[-65.6882,-19.2446,4059.0076],[-65.6903,-19.2522,3789.658],[-65.693,-19.2558,3598.3889],[-65.698,-19.2793,3879.1548],[-65.6931,-19.2883,3862.1619],[-65.69,-19.3019,3928.2119],[-65.6907,-19.3108,3906.9106],[-65.6819,-19.327,4042.4824],[-65.6718,-19.3407,4097.8438],[-65.6727,-19.3511,4081.3535],[-65.6658,-19.3581,4162.5991],[-65.6621,-19.3581,4166.7603],[-65.6614,-19.3543,4200.751],[-65.6587,-19.352,4117.7568],[-65.6617,-19.3369,4130.4175],[-65.6584,-19.3217,4091.6987],[-65.6553,-19.3164,4068.533],[-65.6475,-19.3103,3850.4321],[-65.6393,-19.3144,3885.8069],[-65.6307,-19.3144,4098.3223],[-65.6262,-19.3176,4207.0327],[-65.623,-19.3172,4257.0884],[-65.6188,-19.3216,4295.4692],[-65.6061,-19.3259,4391.1084],[-65.606,-19.3217,4346.8271],[-65.5975,-19.3203,4150.2681],[-65.5878,-19.321,4365.3145],[-65.5792,-19.3316,4371.2461],[-65.5757,-19.3402,4490.5449],[-65.5675,-19.344,4433.1528],[-65.5676,-19.3465,4401.2915],[-65.5645,-19.3493,4422.752],[-65.563,-19.3544,4492.0186],[-65.557,-19.3569,4526.5781],[-65.5567,-19.3615,4468.1968],[-65.5542,-19.3638,4466.167],[-65.5541,-19.3672,4426.6606],[-65.5514,-19.369,4447.1118],[-65.5495,-19.3827,4546.7822],[-65.547,-19.3872,4571.7896],[-65.5517,-19.4159,4012.4236],[-65.5495,-19.4229,4032.8281],[-65.5375,-19.4212,3849.3096],[-65.533,-19.4235,3751.9045],[-65.529,-19.4219,3715.9951],[-65.519,-19.4249,3656.2122],[-65.5183,-19.423,3612.2715],[-65.5125,-19.4239,3586.7173],[-65.5075,-19.426,3587.6021],[-65.4991,-19.4203,3537.5098],[-65.4898,-19.4165,3490.6409],[-65.4712,-19.419,3632.0847],[-65.4696,-19.4154,3682.3882],[-65.4671,-19.4138,3663.0876],[-65.4701,-19.3965,3599.9221],[-65.4689,-19.3933,3548.5134],[-65.4701,-19.3857,3500.5718],[-65.4688,-19.3781,3377.6548],[-65.4696,-19.3685,3274.571],[-65.468,-19.3646,3300.0625],[-65.4693,-19.3595,3268.0156],[-65.4805,-19.3504,3672.5801],[-65.4829,-19.3424,3596.6226],[-65.4825,-19.3349,3626.2114],[-65.4769,-19.3327,3554.0762],[-65.474,-19.3337,3514.9302],[-65.4654,-19.3292,3256.4551],[-65.4624,-19.3293,3296.6558],[-65.4566,-19.3255,3553.4832],[-65.4497,-19.3236,3574.7083],[-65.4491,-19.3205,3525.8281],[-65.4457,-19.3199,3547.4351],[-65.4458,-19.3172,3491.989],[-65.4572,-19.3069,3517.2053],[-65.4572,-19.2985,3622.4746],[-65.4634,-19.292,3330.4316],[-65.4442,-19.2789,3053.7358],[-65.4407,-19.2794,2915.2603],[-65.4332,-19.2764,2734.3657],[-65.4297,-19.2728,2727.4302],[-65.4221,-19.2741,2612.9082],[-65.4146,-19.2704,2689.2498],[-65.4137,-19.2662,2599.3999],[-65.4096,-19.264,2590.7051],[-65.4118,-19.2625,2560.3003],[-65.4078,-19.2598,2551.8379],[-65.4115,-19.2492,2511.0884],[-65.406,-19.244,2537.6787],[-65.4036,-19.2343,2460.457],[-65.3987,-19.2313,2463.6724],[-65.3951,-19.2312,2537.0007],[-65.3798,-19.238,2467.5425],[-65.3753,-19.2362,2449.3108],[-65.3793,-19.2328,2461.229],[-65.3831,-19.2261,2438.6387],[-65.3848,-19.2174,2449.4465],[-65.3933,-19.2037,2580.145],[-65.3886,-19.1914,2561.3887],[-65.3898,-19.1759,2524.4988],[-65.4006,-19.1616,2537.4878],[-65.4032,-19.1504,2515.4866],[-65.406,-19.1468,2557.8923],[-65.4062,-19.1438,2592.9272],[-65.4097,-19.141,2549.0977],[-65.4183,-19.1418,2540.4023],[-65.4249,-19.1376,2573.5396],[-65.4298,-19.1389,2571.6387],[-65.4314,-19.1374,2608.6145],[-65.4385,-19.137,2575.0327],[-65.45,-19.1321,2589.77],[-65.4566,-19.1241,2578.4338],[-65.4699,-19.1226,2606.5259],[-65.4742,-19.1179,2650.8196],[-65.4783,-19.11,2610.3435],[-65.4845,-19.1042,2650.1956],[-65.487,-19.0964,2632.157],[-65.4967,-19.0892,2644.7886],[-65.5047,-19.0874,2675.29],[-65.5057,-19.0912,2834.657],[-65.5127,-19.0919,2722.7134],[-65.5177,-19.0964,2734.8066],[-65.522,-19.0939,3089.2],[-65.5219,-19.0919,3301.4326],[-65.528,-19.0862,3313.5127],[-65.5371,-19.087,3589.2112],[-65.546,-19.0818,3866.4858],[-65.5486,-19.0723,3915.3994],[-65.553,-19.0658,4014.5356],[-65.5574,-19.0646,4014.7822],[-65.5586,-19.0625,4101.5083],[-65.5572,-19.0608,4075.146],[-65.558,-19.0513,4024.5735],[-65.5609,-19.0427,3851.3345],[-65.567,-19.0324,3399.5759],[-65.5675,-19.0241,3799.3499],[-65.5836,-19.0056,3990.9253],[-65.5846,-19.0011,4034.5842],[-65.5873,-18.9978,3985.3894]]]]}}