{"type": "Feature","bbox": [-67.933,-19.1042,-67.5721,-18.677],"geometry": {"type": "MultiPolygon","coordinates": [[[[-67.9293,-18.8146,3693.3425],[-67.9329,-18.8268,3691.1694],[-67.933,-18.8358,3690.0952],[-67.9231,-18.8454,3703.1995],[-67.9156,-18.8425,3688.6523],[-67.911,-18.8665,3687.5312],[-67.9006,-18.887,3684.8687],[-67.9028,-18.9097,3680.0164],[-67.8882,-18.9526,3677.2522],[-67.8485,-18.9885,3674.9268],[-67.8481,-18.9944,3674.2927],[-67.8507,-18.999,3674.1877],[-67.8595,-19.0052,3673.4697],[-67.8641,-19.0039,3671.9719],[-67.8684,-19.0048,3671.6685],[-67.8748,-19.0106,3670.7358],[-67.8796,-19.0208,3670.1848],[-67.8901,-19.0235,3668.5271],[-67.895,-19.0285,3667.9792],[-67.8935,-19.0573,3664.8237],[-67.8801,-19.0501,3666.8037],[-67.875,-19.0501,3666.9287],[-67.8741,-19.0515,3666.4551],[-67.8764,-19.0547,3666.3828],[-67.8722,-19.0587,3665.9224],[-67.8697,-19.0583,3666.2417],[-67.8653,-19.0537,3666.5317],[-67.8556,-19.0549,3666.2966],[-67.8391,-19.0694,3665.1567],[-67.8256,-19.0716,3665.4658],[-67.8222,-19.0698,3665.1357],[-67.8179,-19.0712,3665.2019],[-67.813,-19.0679,3665.0779],[-67.8107,-19.0682,3665.314],[-67.8065,-19.0697,3667.2856],[-67.8013,-19.0751,3666.5259],[-67.7961,-19.0778,3666.9548],[-67.7863,-19.0778,3667.5347],[-67.7716,-19.0721,3668.5256],[-67.753,-19.0712,3671.6826],[-67.7454,-19.0878,3671.5796],[-67.7307,-19.0968,3674.2639],[-67.7052,-19.1042,3672.5898],[-67.6961,-19.1031,3672.2683],[-67.6838,-19.0931,3672.9636],[-67.6773,-19.0934,3671.8394],[-67.6748,-19.091,3671.989],[-67.6745,-19.085,3672.707],[-67.6713,-19.0832,3673.0574],[-67.666,-19.0842,3672.4778],[-67.6592,-19.0714,3673.8545],[-67.65,-19.0689,3672.9578],[-67.6457,-19.0713,3675.9263],[-67.6414,-19.0695,3673.4678],[-67.6389,-19.0703,3673.5498],[-67.6322,-19.0846,3674.187],[-67.6179,-19.0959,3674.5195],[-67.5978,-19.0933,3675.2561],[-67.589,-19.09,3674.6299],[-67.5804,-19.0759,3675.6743],[-67.5945,-19.0645,3678.2925],[-67.6071,-19.0627,3679.4653],[-67.6546,-19.0412,3692.887],[-67.6732,-19.0169,3702.0459],[-67.6854,-19.0102,3700.2214],[-67.6894,-19.0046,3696.7629],[-67.6873,-18.9996,3697.6621],[-67.6872,-18.994,3698.2839],[-67.6819,-18.9884,3701.9331],[-67.6801,-18.9826,3704.7881],[-67.6801,-18.9606,3714.5696],[-67.6813,-18.9537,3717.2183],[-67.6839,-18.95,3717.4971],[-67.6833,-18.9469,3719.5513],[-67.6782,-18.9433,3724.634],[-67.6752,-18.9388,3732.6562],[-67.6581,-18.9304,3750.7798],[-67.6503,-18.9228,3758.4595],[-67.6445,-18.9119,3763.7405],[-67.6423,-18.8887,3762.0981],[-67.633,-18.8847,3764.8352],[-67.614,-18.8835,3773.3923],[-67.599,-18.8724,3779.5701],[-67.5953,-18.8544,3787.6431],[-67.5985,-18.8483,3785.5],[-67.5968,-18.845,3788.9587],[-67.5898,-18.8403,3794.353],[-67.588,-18.8339,3795.262],[-67.5953,-18.8345,3792.1035],[-67.5973,-18.8274,3795.9297],[-67.6017,-18.8225,3797.2788],[-67.6013,-18.8201,3798.4004],[-67.5986,-18.8148,3801.8516],[-67.5866,-18.8057,3832.0518],[-67.583,-18.8011,3848.6353],[-67.5721,-18.7939,3893.6819],[-67.5731,-18.779,4021.8789],[-67.5797,-18.7715,3965.5],[-67.599,-18.7706,3807.3625],[-67.6022,-18.7686,3801.7888],[-67.6036,-18.7634,3795.2922],[-67.6171,-18.7632,3867.3813],[-67.6183,-18.7526,3852.0156],[-67.6248,-18.7465,3813.343],[-67.6476,-18.7052,3774.4287],[-67.6609,-18.6862,3771.2144],[-67.6649,-18.677,3759.3418],[-67.6843,-18.6822,3781.2163],[-67.6956,-18.6807,3790.9631],[-67.7173,-18.6817,3798.6499],[-67.7278,-18.6994,3740.1162],[-67.7425,-18.7161,3892.887],[-67.7554,-18.7247,3791.1047],[-67.7816,-18.7392,3737.959],[-67.8038,-18.7474,3715.115],[-67.8671,-18.7892,3703.1304],[-67.8786,-18.8004,3701.2136],[-67.9082,-18.8069,3710.5757],[-67.9293,-18.8146,3693.3425]]]]}
,"properties": {"GID_3": "BOL.5.15.2_2","GID_0": "BOL","country": "Bolivia","GID_1": "BOL.5_1","province": "Oruro","NL_NAME_1": "NA","GID_2": "BOL.5.15_2","county": "SurCarangas","NL_NAME_2": "NA","city": "BeléndeAndamarca","VARNAME_3": "NA","NL_NAME_3": "NA","TYPE_3": "District","ENGTYPE_3": "Distrito","CC_3": "NA","HASC_3": "NA","name": "Belénde_Andamarca.city","area_km2": 1072.0071,"hist_schema_id": "Elevation0-9000","hist_area_km2": {"3675": 322.9507,"3700": 366.0011,"3725": 72.399,"3750": 85.6279,"3775": 105.2327,"3800": 72.0613,"3825": 22.5421,"3850": 10.2376,"3875": 6.5039,"3900": 4.1152,"3925": 2.1277,"3950": 0.9233,"3975": 0.6423,"4000": 0.4416,"4025": 0.1405,"4050": 0.0602}}}