{"type":"Feature","properties":{"GID_2":"BOL.7.9_2","GID_0":"BOL","country":"Bolivia","GID_1":"BOL.7_1","province":"Potosí","NL_NAME_1":"NA","county":"JoséMaríaLinares","VARNAME_2":"Linares","NL_NAME_2":"NA","TYPE_2":"Provincia","ENGTYPE_2":"Province","CC_2":"NA","HASC_2":"NA","name":"José_María_Linares.county"},
"geometry":{"type": "MultiPolygon","coordinates": [[[[-65.8829,-19.9661,4416.5376],[-65.8763,-19.9816,4516.707],[-65.8574,-19.9906,4339.2734],[-65.8539,-19.9966,4360.2534],[-65.8384,-20.0049,4096.4839],[-65.8102,-20.0126,4475.9854],[-65.8034,-20.0328,4379.2964],[-65.7956,-20.0416,4313.9771],[-65.793,-20.0649,4345.2197],[-65.7853,-20.0905,4447.8823],[-65.7749,-20.0965,4272.3501],[-65.7708,-20.1031,3874.0293],[-65.7722,-20.1104,3779.8291],[-65.7706,-20.1264,3636.4385],[-65.7663,-20.1307,3543.6226],[-65.7616,-20.1326,3466.3333],[-65.76,-20.136,3452.2261],[-65.755,-20.1364,3374.6279],[-65.7511,-20.1447,3308.1379],[-65.7516,-20.1493,3307.7178],[-65.7501,-20.1526,3282.3027],[-65.715,-20.1947,3473.4333],[-65.6818,-20.216,2792.9419],[-65.6713,-20.22,3229.5242],[-65.6601,-20.2202,3338.2546],[-65.6484,-20.2231,3410.7036],[-65.6514,-20.2294,3418.1638],[-65.649,-20.2392,3432.6021],[-65.6503,-20.2482,3431.6614],[-65.6388,-20.247,3257.1287],[-65.6319,-20.2511,3121.3311],[-65.6277,-20.2502,3117.2666],[-65.6168,-20.2559,3152.8667],[-65.6078,-20.2587,3155.9468],[-65.5544,-20.292,3287.8728],[-65.5596,-20.2438,3556.7368],[-65.5563,-20.2399,3590.5034],[-65.5517,-20.1816,3625.2495],[-65.5526,-20.1686,3712.0361],[-65.556,-20.1631,3763.2109],[-65.553,-20.1396,3736.3008],[-65.5677,-20.1248,3936.3845],[-65.5498,-20.1215,3656.2017],[-65.5354,-20.1164,3413.2932],[-65.5158,-20.1159,3540.9192],[-65.5102,-20.111,3473.0654],[-65.5037,-20.1007,3279.2129],[-65.5,-20.0901,3099.998],[-65.5016,-20.0809,3165.3401],[-65.4928,-20.088,3119.2356],[-65.4767,-20.0894,3382.3882],[-65.4757,-20.079,3391.634],[-65.4747,-20.0753,3402.0928],[-65.473,-20.0746,3428.188],[-65.4733,-20.0688,3381.2405],[-65.4872,-20.0599,3183.2368],[-65.4881,-20.0556,3199.1108],[-65.4868,-20.0543,3172.2593],[-65.4657,-20.0455,3252.061],[-65.4552,-20.0465,3291.4282],[-65.4357,-20.0444,3450.0244],[-65.4354,-20.0352,3543.3931],[-65.4235,-20.0326,3643.1794],[-65.4185,-20.0508,3655.2888],[-65.4038,-20.0638,3514.446],[-65.3948,-20.0677,3450.4456],[-65.3855,-20.0788,3420.8167],[-65.3719,-20.0853,3361.9106],[-65.3689,-20.0917,3375.2629],[-65.3587,-20.0997,3343.5081],[-65.3532,-20.1202,3302.4338],[-65.3287,-20.1222,3257.7654],[-65.3299,-20.1315,3287.2251],[-65.3346,-20.1447,3262.8062],[-65.3365,-20.1455,3204.6675],[-65.3358,-20.1477,3266.8911],[-65.3391,-20.1566,3254.8079],[-65.346,-20.1648,3239.323],[-65.3567,-20.1821,3215.9084],[-65.3637,-20.1977,3179.3171],[-65.3711,-20.2059,3055.2397],[-65.3756,-20.2148,3028.6777],[-65.3656,-20.222,3157.5337],[-65.3637,-20.2272,3168.834],[-65.3667,-20.2334,3083.626],[-65.3584,-20.2461,3126.1836],[-65.3329,-20.2419,3179.2981],[-65.3137,-20.2305,3273.7397],[-65.3157,-20.2251,3241.5127],[-65.3152,-20.2153,3223.9778],[-65.3121,-20.207,3267.9299],[-65.3161,-20.1976,3150.1018],[-65.3158,-20.1945,3222.2458],[-65.3016,-20.1778,3303.4182],[-65.2882,-20.1695,3338.8574],[-65.2844,-20.1702,3350.8457],[-65.2713,-20.1514,3692.8625],[-65.2643,-20.1576,3794.02],[-65.2571,-20.1586,3839.8633],[-65.235,-20.1464,3912.6953],[-65.2353,-20.1438,3945.9805],[-65.2326,-20.1405,3847.687],[-65.2337,-20.1305,3845.9136],[-65.239,-20.1163,3755.9841],[-65.2432,-20.1131,3818.1328],[-65.2495,-20.1034,3874.1794],[-65.256,-20.1024,3869.3892],[-65.2685,-20.0924,3637.4834],[-65.2722,-20.0795,3544.3652],[-65.2793,-20.0691,3690.886],[-65.283,-20.0597,3741.3374],[-65.283,-20.0522,3651.1572],[-65.2893,-20.0532,3517.741],[-65.2932,-20.0488,3597.71],[-65.3051,-20.0261,3658.866],[-65.305,-20.0093,3960.9019],[-65.2942,-20.0081,4053.9436],[-65.2938,-20.0066,4046.9976],[-65.2869,-20.0033,4096.2549],[-65.2827,-20.004,4002.3916],[-65.2774,-20.009,4068.627],[-65.2751,-20.0052,4104.2036],[-65.2703,-20.0039,4065.0259],[-65.2721,-19.9933,3667.9304],[-65.2683,-19.9916,3810.0811],[-65.2662,-19.9878,3966.1113],[-65.2442,-19.9702,3541.1184],[-65.2381,-19.9589,3525.375],[-65.2329,-19.9556,3520.9819],[-65.2313,-19.95,3547.4097],[-65.2278,-19.9481,3558.5803],[-65.223,-19.9413,3527.2742],[-65.2223,-19.9359,3454.5525],[-65.214,-19.9393,3435.1748],[-65.2033,-19.938,3377.0811],[-65.1709,-19.9956,3117.5181],[-65.1607,-20.0044,3023.3799],[-65.1542,-20.0074,3010.532],[-65.1522,-20.0124,3068.7227],[-65.1445,-20.0112,3183.7703],[-65.1281,-20.0152,3194.6909],[-65.1046,-20.0165,3425.6099],[-65.0906,-20.0094,2981.6787],[-65.088,-19.9917,3439.5605],[-65.0865,-19.9953,3410.9692],[-65.0822,-19.995,3253.4968],[-65.0746,-19.9899,3319.5662],[-65.0775,-19.9838,3184.0547],[-65.0772,-19.9799,3171.5229],[-65.0752,-19.9782,3201.9419],[-65.075,-19.9745,3198.3455],[-65.0714,-19.9671,3082.6882],[-65.0657,-19.9635,2920.2776],[-65.0658,-19.9591,2832.0356],[-65.062,-19.957,2713.2002],[-65.0598,-19.9533,2656.8198],[-65.0597,-19.9501,2728.5066],[-65.0632,-19.9492,2781.1162],[-65.0661,-19.9439,2925.4783],[-65.0696,-19.9423,3039.5317],[-65.0717,-19.9388,3031.769],[-65.0768,-19.9354,3379.7007],[-65.0816,-19.9348,3527.8118],[-65.0831,-19.9319,3543.6533],[-65.0775,-19.9183,3581.377],[-65.077,-19.9086,3570.1775],[-65.0745,-19.9009,3600.1602],[-65.0759,-19.8991,3626.022],[-65.0689,-19.8806,3728.3979],[-65.0692,-19.8748,3734.854],[-65.0648,-19.8707,3729.4229],[-65.0618,-19.8628,3766.8027],[-65.061,-19.844,3806.9539],[-65.0583,-19.8424,3754.0366],[-65.0559,-19.8333,3780.6357],[-65.057,-19.8277,3787.0271],[-65.0527,-19.8204,3768.0461],[-65.054,-19.8185,3772.1396],[-65.0525,-19.8062,3856.8101],[-65.0567,-19.7937,4050.1604],[-65.0398,-19.7968,3470.1328],[-65.0359,-19.7945,3419.4009],[-65.0302,-19.7946,3349.885],[-65.0263,-19.8025,3301.7449],[-65.0207,-19.8035,3247.7747],[-65.0117,-19.814,3195.8003],[-65.0092,-19.8132,3158.7395],[-65.004,-19.8283,3045.4231],[-65.0025,-19.8292,2999.4854],[-64.9988,-19.8278,3041.9568],[-64.9972,-19.8306,2982.5232],[-64.9958,-19.8303,2939.2603],[-64.996,-19.8329,2930.4097],[-64.995,-19.8323,2930.4097],[-64.9931,-19.8388,2936.4199],[-64.9908,-19.8405,2827.6597],[-64.9916,-19.8435,2824.8076],[-64.9902,-19.8433,2792.1492],[-64.9892,-19.8457,2787.5386],[-64.991,-19.8478,2811.5513],[-64.9909,-19.8533,2680.1462],[-64.9849,-19.8546,2673.4412],[-64.9831,-19.8534,2579.9663],[-64.9827,-19.855,2615.6438],[-64.9783,-19.8531,2493.3],[-64.9785,-19.8549,2581.1548],[-64.9599,-19.869,3102.9531],[-64.9416,-19.8765,3313.9204],[-64.9391,-19.8659,3176.5154],[-64.93,-19.8595,3099.5222],[-64.9311,-19.8565,3069.5205],[-64.928,-19.8438,3095.8179],[-64.9143,-19.8422,2504.4062],[-64.9133,-19.8452,2496.249],[-64.9159,-19.85,2513.3489],[-64.9155,-19.8548,2536.269],[-64.919,-19.86,2564.895],[-64.9191,-19.8636,2571.9878],[-64.9159,-19.8742,2604.5103],[-64.9073,-19.8896,2679.8154],[-64.9053,-19.8982,2718.4436],[-64.8969,-19.9088,2784.6509],[-64.8948,-19.9142,2853.54],[-64.8966,-19.9203,2952.3306],[-64.895,-19.9205,2903.0647],[-64.8931,-19.9247,2871.8418],[-64.897,-19.9339,2927.8477],[-64.8958,-19.9379,3021.7473],[-64.8969,-19.9458,3045.8499],[-64.8946,-19.9464,2978.5347],[-64.8947,-19.9495,2973.6565],[-64.8925,-19.9527,2994.9006],[-64.8929,-19.9571,3003.6992],[-64.8887,-19.9604,3017.5464],[-64.8908,-19.9636,3163.0134],[-64.8885,-19.9638,3131.1934],[-64.8888,-19.9654,3206.9746],[-64.886,-19.9665,3147.9858],[-64.8864,-19.9678,3147.9858],[-64.8829,-19.9671,3193.2188],[-64.8836,-19.968,3194.6624],[-64.8813,-19.9686,3293.0286],[-64.8788,-19.9724,3567.2283],[-64.8762,-19.9732,3698.1006],[-64.8718,-19.981,3902.4229],[-64.8665,-19.9781,3915.6594],[-64.8613,-19.9784,3838.6665],[-64.8589,-19.9745,3900.5332],[-64.8508,-19.9811,3677.7888],[-64.8472,-19.979,3636.0933],[-64.8466,-19.9713,3591.9067],[-64.8383,-19.9556,3466.7051],[-64.8373,-19.9474,3337.5239],[-64.8292,-19.9331,3074.3853],[-64.8236,-19.9308,3016.427],[-64.8198,-19.9313,2925.4607],[-64.8107,-19.9252,2760.4497],[-64.8105,-19.9228,2738.9587],[-64.8067,-19.9196,2732.8809],[-64.8056,-19.9123,2678.4563],[-64.795,-19.9028,2567.4629],[-64.7932,-19.8988,2556.3047],[-64.7927,-19.8885,2494.3577],[-64.7876,-19.8766,2428.3508],[-64.7891,-19.8693,2407.5056],[-64.784,-19.8607,2346.4116],[-64.7842,-19.8542,2315.4973],[-64.78,-19.8492,2277.7021],[-64.7765,-19.841,2231.5994],[-64.7665,-19.8269,2147.6675],[-64.7617,-19.8247,2140.792],[-64.7607,-19.819,2077.8853],[-64.7484,-19.8042,2009.8481],[-64.7393,-19.7898,1878.7915],[-64.7349,-19.7878,1876.0679],[-64.7243,-19.7879,1795.9656],[-64.7189,-19.7816,1793.5061],[-64.7144,-19.7796,1765.1559],[-64.7173,-19.776,1755.4457],[-64.725,-19.7732,1740.0579],[-64.7253,-19.7667,1744.8162],[-64.73,-19.7562,1756.5254],[-64.7273,-19.7514,1807.2106],[-64.7268,-19.7466,1768.514],[-64.7349,-19.7373,1775.313],[-64.736,-19.7228,1791.6591],[-64.7424,-19.7147,1804.1682],[-64.7418,-19.707,1806.9166],[-64.7454,-19.7038,1807.259],[-64.7512,-19.7035,1810.3943],[-64.7616,-19.6862,1827.5031],[-64.7671,-19.6841,1832.9176],[-64.7683,-19.6793,1856.8915],[-64.7733,-19.6737,1840.0593],[-64.7785,-19.6631,1849.5814],[-64.7879,-19.653,1869.2622],[-64.7877,-19.6453,1870.5852],[-64.7895,-19.641,1876.2666],[-64.787,-19.6332,1880.3654],[-64.8106,-19.6255,1895.0851],[-64.814,-19.6218,1898.5757],[-64.8179,-19.6097,1928.639],[-64.8216,-19.6082,1912.4763],[-64.8289,-19.61,1918.2722],[-64.8301,-19.6091,1918.2358],[-64.8301,-19.6027,1924.8765],[-64.8378,-19.5925,1932.1956],[-64.8428,-19.5896,1936.0613],[-64.84,-19.5754,1939.0532],[-64.8328,-19.5616,1942.6307],[-64.8312,-19.5432,1951.9473],[-64.8234,-19.5167,1959.645],[-64.8225,-19.5053,1976.5154],[-64.8184,-19.5013,1968.1802],[-64.823,-19.4895,1973.0533],[-64.8231,-19.4835,1976.516],[-64.8271,-19.4776,1979.3042],[-64.8329,-19.4751,1981.4226],[-64.8369,-19.4695,1984.9146],[-64.8407,-19.4713,1992.538],[-64.8445,-19.4768,2005.1014],[-64.8482,-19.4773,2007.8442],[-64.8503,-19.4802,2017.3464],[-64.8552,-19.4809,2050.1877],[-64.8625,-19.4866,2046.8972],[-64.8759,-19.4811,2084.4468],[-64.8814,-19.4901,2109.4424],[-64.893,-19.4932,2178.7134],[-64.8938,-19.501,2225.9985],[-64.891,-19.5151,2306.4358],[-64.8922,-19.5197,2341.3296],[-64.8912,-19.5289,2391.957],[-64.8942,-19.5307,2482.5967],[-64.8985,-19.5302,2545.6069],[-64.9122,-19.5495,3251.8315],[-64.9173,-19.5513,3428.5664],[-64.9236,-19.5579,3610.3621],[-64.929,-19.5584,3677.4924],[-64.9368,-19.5558,3802.3892],[-64.9387,-19.5592,3723.4421],[-64.9513,-19.561,3647.8169],[-64.9559,-19.5599,3754.0229],[-64.9653,-19.569,3853.7935],[-64.9713,-19.5693,3855.0935],[-64.9701,-19.5823,3875.3892],[-64.9655,-19.5955,4021.1445],[-64.9665,-19.6001,4022.6116],[-64.9637,-19.6106,3960.4331],[-64.9671,-19.6193,3986.6992],[-64.9797,-19.6271,3522.647],[-64.9824,-19.6316,3500.3723],[-64.9861,-19.6277,3448.2253],[-64.9853,-19.6207,3362.4365],[-64.9865,-19.6158,3307.7148],[-64.9888,-19.6144,3308.9502],[-64.994,-19.6247,3558.1292],[-65.0027,-19.6184,3575.5388],[-65.0073,-19.6232,3307.2847],[-65.0117,-19.6171,3494.1223],[-65.0177,-19.615,3606.0845],[-65.023,-19.6164,3672.5659],[-65.0249,-19.6145,3814.3401],[-65.0279,-19.6146,3836.1418],[-65.03,-19.6178,3860.4805],[-65.0326,-19.6169,3879.8003],[-65.0435,-19.6199,4078.9502],[-65.0546,-19.625,4152.5967],[-65.0591,-19.624,4207.5791],[-65.0588,-19.6083,4059.6067],[-65.0716,-19.5619,4058.2617],[-65.0746,-19.5584,4037.0415],[-65.0737,-19.5446,4050.2764],[-65.0779,-19.5416,4075.8525],[-65.0771,-19.5285,4071.2849],[-65.0827,-19.5257,3969.9893],[-65.1003,-19.529,3386.5032],[-65.1022,-19.5274,3348.0959],[-65.1107,-19.5269,3045.6978],[-65.1101,-19.5283,3066.9712],[-65.1141,-19.5355,3164.9863],[-65.11,-19.5371,3146.6787],[-65.1227,-19.5542,3722.7898],[-65.1308,-19.5419,3635.4226],[-65.1292,-19.5398,3635.7085],[-65.133,-19.5357,3534.2278],[-65.1344,-19.5235,3477.3867],[-65.1372,-19.5176,3518.7261],[-65.1398,-19.515,3531.5405],[-65.1588,-19.5122,3338.0464],[-65.1784,-19.5169,3085.4685],[-65.181,-19.5206,2879.3762],[-65.1859,-19.523,2614.0386],[-65.1881,-19.5263,2441.3538],[-65.1873,-19.5283,2418.9849],[-65.1924,-19.5283,2386.0967],[-65.1915,-19.5361,2395.1504],[-65.1873,-19.5379,2428.2151],[-65.186,-19.5457,2497.0107],[-65.1833,-19.547,2437.5566],[-65.1798,-19.5437,2429.8535],[-65.177,-19.547,2512.0635],[-65.1794,-19.5534,2486.5234],[-65.184,-19.5542,2455.3799],[-65.1867,-19.5587,2444.7168],[-65.1835,-19.5626,2540.8965],[-65.184,-19.5652,2564.9624],[-65.1905,-19.5665,2464.9988],[-65.1961,-19.5612,2532.4678],[-65.206,-19.5569,2553.7739],[-65.2091,-19.5596,2617.5078],[-65.214,-19.5585,2594.594],[-65.2182,-19.5601,2603.6892],[-65.2229,-19.5576,2672.2251],[-65.242,-19.5749,2748.042],[-65.2426,-19.5783,2785.7031],[-65.2445,-19.5787,2774.0361],[-65.2444,-19.5833,2797.9441],[-65.2499,-19.5887,2824.7336],[-65.248,-19.5908,2856.8213],[-65.2533,-19.5977,3130.0251],[-65.254,-19.6054,3259.1729],[-65.2616,-19.6125,3332.9058],[-65.2761,-19.6172,3281.512],[-65.282,-19.6165,3351.2671],[-65.3185,-19.6213,3255.7009],[-65.3173,-19.625,3270.9595],[-65.3336,-19.6424,3263.043],[-65.3493,-19.6299,3272.2461],[-65.3598,-19.6247,3315.4792],[-65.3671,-19.6189,3318.1567],[-65.3727,-19.6172,3309.1904],[-65.3799,-19.6245,3266.9067],[-65.3896,-19.6061,3194.1501],[-65.3916,-19.6048,3178.1689],[-65.3938,-19.6064,3175.8088],[-65.4004,-19.602,3121.542],[-65.403,-19.603,3108.8252],[-65.4078,-19.6306,3067.3005],[-65.4056,-19.6307,3101.3843],[-65.4005,-19.6385,3118.5088],[-65.384,-19.6506,3367.948],[-65.3847,-19.6619,3483.5933],[-65.4054,-19.6636,3209.552],[-65.4185,-19.67,3011.3018],[-65.4149,-19.6848,2998.6907],[-65.4171,-19.7024,2996.1411],[-65.416,-19.708,2984.627],[-65.4184,-19.7149,2971.7859],[-65.415,-19.7208,2967.3848],[-65.4149,-19.7266,2959.915],[-65.417,-19.7303,2986.1968],[-65.4207,-19.7308,3021.1401],[-65.4254,-19.7352,3303.1348],[-65.4281,-19.7259,3300.8411],[-65.4275,-19.7193,3134.6648],[-65.4316,-19.713,3189.9094],[-65.431,-19.7004,3387.0144],[-65.4385,-19.6922,3617.2793],[-65.45,-19.6992,3367.3074],[-65.4594,-19.7113,3250.3242],[-65.4636,-19.708,3237.4377],[-65.4771,-19.7069,3174.1375],[-65.4794,-19.7005,3152.7107],[-65.4781,-19.6988,3153.7871],[-65.4751,-19.7003,3201.1289],[-65.4767,-19.6934,3146.3147],[-65.4823,-19.6925,3162.9866],[-65.4827,-19.6939,3171.583],[-65.4886,-19.6959,3170.1272],[-65.4911,-19.6993,3198.3149],[-65.4937,-19.6995,3206.6479],[-65.4973,-19.6951,3222.8071],[-65.5038,-19.6947,3228.4099],[-65.5173,-19.7029,3310.1897],[-65.5184,-19.7005,3351.5972],[-65.5208,-19.7008,3378.7869],[-65.5413,-19.7094,3570.0303],[-65.5506,-19.7097,3700.7964],[-65.5536,-19.7074,3722.8379],[-65.561,-19.7076,3917.1396],[-65.5849,-19.7126,4486.6963],[-65.5869,-19.7144,4457.1133],[-65.5944,-19.7146,4375.0317],[-65.606,-19.7219,4497.2881],[-65.6097,-19.7194,4519.7158],[-65.6379,-19.7142,4723.6104],[-65.64,-19.7237,4627.8267],[-65.6546,-19.7393,4542.7168],[-65.6625,-19.7451,4494.0439],[-65.6732,-19.7478,4420.9741],[-65.6657,-19.762,4838.1606],[-65.666,-19.7676,4955.3599],[-65.6611,-19.7719,4864.3984],[-65.6666,-19.7876,4978.521],[-65.6774,-19.8004,4872.0244],[-65.6799,-19.8159,4671.1816],[-65.6915,-19.8239,4752.2603],[-65.6964,-19.8203,4741.6582],[-65.7055,-19.8224,4483.1421],[-65.7226,-19.8213,4302.5859],[-65.7275,-19.8061,4497.293],[-65.7334,-19.7987,4349.1465],[-65.7483,-19.7942,4223.0659],[-65.7666,-19.783,4606.3789],[-65.7683,-19.7911,4541.8579],[-65.7632,-19.8217,4621.0205],[-65.759,-19.8246,4548.2529],[-65.7561,-19.83,4506.1885],[-65.7582,-19.8337,4564.834],[-65.7562,-19.8364,4534.3154],[-65.7557,-19.8436,4497.1465],[-65.7572,-19.8599,4397.4917],[-65.7548,-19.8653,4367.4541],[-65.7533,-19.8761,4335.0132],[-65.7602,-19.8751,4063.9438],[-65.7665,-19.8816,3801.3594],[-65.7708,-19.8832,3758.429],[-65.775,-19.8956,3661.7068],[-65.7828,-19.8976,3483.2869],[-65.783,-19.9011,3358.9536],[-65.787,-19.9021,3345.2278],[-65.7907,-19.9083,3479.563],[-65.7973,-19.9073,3412.856],[-65.804,-19.9209,3452.1816],[-65.8055,-19.9183,3470.845],[-65.8083,-19.9179,3478.9456],[-65.817,-19.9219,3486.4546],[-65.8221,-19.9165,3507.9556],[-65.8266,-19.9051,3538.5627],[-65.8301,-19.9037,3595.2695],[-65.8342,-19.9045,3599.5215],[-65.8407,-19.9004,3586.3289],[-65.8439,-19.9133,3642.7578],[-65.8469,-19.9149,3674.0659],[-65.8609,-19.9328,4315.4375],[-65.8645,-19.9341,4464.3066],[-65.8734,-19.9315,4387.8862],[-65.8762,-19.9325,4412.9092],[-65.8823,-19.9494,4378.0415],[-65.8829,-19.9661,4416.5376]]]]}}