{"type":"Feature","properties":{"GID_3":"BOL.1.3.1_2","GID_0":"BOL","country":"Bolivia","GID_1":"BOL.1_1","province":"Chuquisaca","NL_NAME_1":"NA","GID_2":"BOL.1.3_2","county":"HernandoSiles","NL_NAME_2":"NA","city":"Huacareta","VARNAME_3":"NA","NL_NAME_3":"NA","TYPE_3":"District","ENGTYPE_3":"Distrito","CC_3":"NA","HASC_3":"NA","name":"Huacareta.city"},
"geometry":{"type": "MultiPolygon","coordinates": [[[[-64.1604,-20.8874,640.581],[-64.1579,-20.8889,674.6843],[-64.1576,-20.8915,637.8691],[-64.1602,-20.9035,635.8893],[-64.1556,-20.9058,636.5482],[-64.1453,-20.9232,636.8494],[-64.1388,-20.9187,723.7107],[-64.132,-20.922,753.2988],[-64.1307,-20.9251,655.4518],[-64.1242,-20.926,637.4082],[-64.1193,-20.9148,622.7891],[-64.1141,-20.9117,651.5543],[-64.0997,-20.9192,616.8605],[-64.0904,-20.9174,616.8582],[-64.0852,-20.919,616.5264],[-64.0776,-20.9234,611.709],[-64.0742,-20.9278,608.3018],[-64.0735,-20.932,608.4424],[-64.0656,-20.9341,606.2032],[-64.0617,-20.9537,611.5298],[-64.0585,-20.9549,598.7015],[-64.0549,-20.9539,623.4736],[-64.0528,-20.9563,598.6517],[-64.0484,-20.954,692.6666],[-64.046,-20.9573,608.748],[-64.0256,-20.9625,619.0137],[-64.0226,-20.962,594.2587],[-64.0186,-20.9561,646.1705],[-64.0124,-20.9557,590.5789],[-64.0115,-20.9472,636.9886],[-64.0093,-20.9459,614.9864],[-64.0064,-20.9467,609.3967],[-64.0056,-20.9508,585.5965],[-64.0108,-20.9688,612.6147],[-64.0033,-20.9797,574.9711],[-64.0034,-20.9816,585.487],[-64.0101,-20.9953,576.6964],[-64.0016,-21.006,591.0271],[-63.9965,-21.0064,567.322],[-63.9874,-21.0037,564.7922],[-63.8677,-21.0037,678.1966],[-63.8768,-20.9692,816.1255],[-63.875,-20.9554,859.7122],[-63.8774,-20.9549,858.2631],[-63.8815,-20.9491,785.0382],[-63.8809,-20.8757,744.9407],[-63.8769,-20.8742,777.0387],[-63.8725,-20.8748,754.9423],[-63.8709,-20.8672,864.7805],[-63.8689,-20.8684,786.239],[-63.8661,-20.8667,804.5127],[-63.8622,-20.8695,857.9142],[-63.8568,-20.8681,815.8032],[-63.8563,-20.863,831.4064],[-63.8533,-20.8571,860.4792],[-63.854,-20.8551,863.5551],[-63.8493,-20.8519,887.6907],[-63.8487,-20.8468,887.3198],[-63.8456,-20.8452,909.3624],[-63.8465,-20.8437,936.9601],[-63.8447,-20.8367,935.8424],[-63.8386,-20.8297,995.5952],[-63.8391,-20.8271,1002.429],[-63.8314,-20.8064,1279.4404],[-63.8254,-20.7505,1344.6851],[-63.8268,-20.6809,1636.3807],[-63.8292,-20.6709,1710.4789],[-63.8276,-20.6497,1745.7147],[-63.8289,-20.6402,1605.0088],[-63.8225,-20.6151,1679.8125],[-63.8189,-20.5801,1691.0449],[-63.8076,-20.5413,1625.9135],[-63.8077,-20.5338,1664.6562],[-63.8144,-20.5264,1668.1171],[-63.8069,-20.4969,1677.328],[-63.8043,-20.4789,1706.6836],[-63.8032,-20.4509,1677.8556],[-63.8052,-20.4267,1595.2765],[-63.8052,-20.4013,1544.6754],[-63.8098,-20.3866,1338.9744],[-63.8214,-20.3841,1268.0601],[-63.8221,-20.385,1238.0787],[-63.826,-20.3821,1244.0903],[-63.8301,-20.3824,1210.1179],[-63.8319,-20.3781,1195.4564],[-63.8304,-20.3761,1183.1869],[-63.8337,-20.3748,1201.1877],[-63.835,-20.3766,1189.4266],[-63.839,-20.3748,1178.8379],[-63.8417,-20.3756,1173.4641],[-63.846,-20.3733,1181.1666],[-63.8501,-20.3746,1150.8738],[-63.8507,-20.3704,1182.0481],[-63.8553,-20.3693,1137.6421],[-63.8576,-20.3666,1134.1879],[-63.8596,-20.3582,1121.1211],[-63.8624,-20.3604,1135.9346],[-63.8642,-20.3648,1151.7756],[-63.8755,-20.3682,1209.176],[-63.8799,-20.372,1270.6814],[-63.8893,-20.3719,1324.6398],[-63.8926,-20.3735,1330.2822],[-63.8981,-20.3726,1382.3525],[-63.905,-20.3751,1627.4927],[-63.9087,-20.3731,1777.9414],[-63.9093,-20.3696,1743.5574],[-63.9052,-20.3578,1723.5428],[-63.9066,-20.3482,1677.5763],[-63.9035,-20.3177,1611.8777],[-63.9145,-20.2701,1396.0803],[-63.9201,-20.2573,1365.8938],[-63.9206,-20.2511,1220.9729],[-63.9233,-20.2447,1139.5687],[-63.9246,-20.2359,1298.3635],[-63.9206,-20.2325,1286.6257],[-63.9207,-20.2275,1248.3105],[-63.9233,-20.2239,1212.6216],[-63.9229,-20.2195,1121.4448],[-63.9262,-20.2045,1073.9449],[-63.9257,-20.2009,1078.9191],[-63.9226,-20.1978,1201.2119],[-63.9227,-20.1912,1327.6025],[-63.9204,-20.1899,1292.7355],[-63.9209,-20.1822,1328.1263],[-63.9184,-20.1784,1325.7161],[-63.9181,-20.1685,1347.7861],[-63.9289,-20.1512,1415.5276],[-63.9261,-20.1489,1371.9968],[-63.9275,-20.143,1339.7988],[-63.9341,-20.138,1294.0398],[-63.9333,-20.1322,1304.1421],[-63.9354,-20.1282,1345.71],[-63.94,-20.1083,1280.7451],[-63.9441,-20.1074,1306.5643],[-63.957,-20.0975,1280.9139],[-63.9596,-20.0903,1220.3604],[-63.9767,-20.0823,1229.0164],[-63.9905,-20.0795,1241.2208],[-64.0152,-20.0834,1401.4882],[-64.0264,-20.0807,1598.7599],[-64.0363,-20.0713,1730.1951],[-64.0425,-20.0688,1978.1494],[-64.0481,-20.0697,2261.509],[-64.0529,-20.0757,2140.5999],[-64.0537,-20.08,2151.8564],[-64.0521,-20.0925,2123.4341],[-64.053,-20.098,2078.2627],[-64.047,-20.1071,2175.2961],[-64.0517,-20.1263,1981.8596],[-64.0451,-20.1415,2107.5332],[-64.048,-20.1557,2082.8901],[-64.0392,-20.1832,2160.1538],[-64.0346,-20.2064,2153.5146],[-64.0384,-20.2094,2134.4741],[-64.0421,-20.2095,2129.3013],[-64.0445,-20.2121,2055.0684],[-64.0391,-20.2386,2092.446],[-64.0416,-20.2556,2108.0833],[-64.0446,-20.2581,2051.8562],[-64.0463,-20.2651,1959.4718],[-64.0494,-20.2695,1954.6877],[-64.0494,-20.276,1967.6005],[-64.0459,-20.2834,2057.0063],[-64.0524,-20.2942,1912.8312],[-64.0537,-20.3122,1937.3621],[-64.0499,-20.3132,1910.5581],[-64.0458,-20.3265,1870.4851],[-64.0514,-20.332,1854.088],[-64.054,-20.3371,1863.1801],[-64.0486,-20.3457,1802.0154],[-64.0509,-20.3519,1724.4773],[-64.0497,-20.3585,1788.9797],[-64.0472,-20.3608,1807.0183],[-64.0469,-20.3704,1706.5396],[-64.0439,-20.3765,1604.7883],[-64.0451,-20.3781,1479.5446],[-64.0443,-20.3812,1398.8831],[-64.0482,-20.3846,1271.2275],[-64.0478,-20.3986,1302.9435],[-64.0532,-20.4097,1575.2329],[-64.0528,-20.4126,1617.2902],[-64.0503,-20.4133,1784.2546],[-64.0498,-20.424,1831.2935],[-64.0538,-20.4234,1683.3087],[-64.0699,-20.4109,1249.1055],[-64.0782,-20.4088,1262.0178],[-64.0871,-20.3953,1304.4484],[-64.0909,-20.3922,1311.474],[-64.1027,-20.3901,1353.0636],[-64.1108,-20.3848,1333.0157],[-64.1197,-20.3845,1503.0713],[-64.1258,-20.3861,1465.2369],[-64.13,-20.3819,1326.0117],[-64.1338,-20.3808,1324.676],[-64.1515,-20.3834,1353.6334],[-64.1551,-20.3811,1373.8906],[-64.1655,-20.3797,1309.7976],[-64.1721,-20.3828,1261.1382],[-64.1745,-20.3859,1270.7869],[-64.1803,-20.3858,1335.6078],[-64.183,-20.3875,1301.1992],[-64.1849,-20.3834,1309.0295],[-64.1906,-20.3886,1333.5739],[-64.1951,-20.3875,1380.5249],[-64.2122,-20.3904,1390.0852],[-64.2175,-20.3963,1445.6376],[-64.2216,-20.3968,1547.9641],[-64.222,-20.4063,1495.7422],[-64.2247,-20.4097,1534.0956],[-64.2239,-20.4122,1550.8024],[-64.2251,-20.4147,1578.7867],[-64.2215,-20.4275,1412.2249],[-64.2226,-20.4337,1416.8745],[-64.2241,-20.4348,1421.3378],[-64.2229,-20.4567,1362.1957],[-64.2207,-20.4623,1474.3751],[-64.2222,-20.4704,1567.4585],[-64.2136,-20.4781,1484.9602],[-64.2129,-20.481,1519.084],[-64.2154,-20.4843,1431.0505],[-64.2141,-20.4946,1408.4004],[-64.2123,-20.4968,1439.391],[-64.2132,-20.5011,1344.5027],[-64.2189,-20.5048,1247.2817],[-64.2271,-20.5153,990.0473],[-64.2342,-20.5323,867.0532],[-64.2367,-20.5313,871.1163],[-64.2423,-20.5336,838.1928],[-64.2386,-20.5423,837.2949],[-64.2321,-20.5438,869.5583],[-64.2301,-20.546,885.7673],[-64.2312,-20.549,912.212],[-64.2346,-20.5502,832.2556],[-64.2356,-20.5524,866.8888],[-64.2353,-20.5558,827.2518],[-64.2321,-20.558,823.38],[-64.2316,-20.5602,819.9512],[-64.2385,-20.5713,815.1638],[-64.2367,-20.5771,825.7214],[-64.239,-20.5811,812.1032],[-64.2375,-20.5941,875.887],[-64.2412,-20.6023,798.5502],[-64.2419,-20.6136,792.7631],[-64.2396,-20.6186,847.5132],[-64.2442,-20.6259,789.6234],[-64.2392,-20.6276,900.5854],[-64.2383,-20.6296,836.5901],[-64.2433,-20.6325,799.516],[-64.2418,-20.6367,781.3194],[-64.2429,-20.6461,789.4602],[-64.2416,-20.6478,837.7188],[-64.2368,-20.6488,827.702],[-64.2384,-20.653,810.1711],[-64.2418,-20.6522,848.0638],[-64.2395,-20.6613,800.9874],[-64.2417,-20.6659,769.7529],[-64.2409,-20.6698,766.9536],[-64.2367,-20.6718,788.098],[-64.2322,-20.6827,755.4423],[-64.2332,-20.6906,747.2685],[-64.228,-20.6937,747.976],[-64.227,-20.6962,764.6486],[-64.2259,-20.6999,755.1414],[-64.2277,-20.7047,740.6716],[-64.2246,-20.7087,746.0314],[-64.2243,-20.7145,735.2656],[-64.2211,-20.7185,733.3579],[-64.2201,-20.7231,735.1569],[-64.2123,-20.729,731.3123],[-64.1953,-20.7263,719.3533],[-64.1893,-20.7273,718.5709],[-64.1869,-20.7307,715.8348],[-64.1844,-20.731,727.1288],[-64.184,-20.7373,714.2375],[-64.1792,-20.7404,710.5721],[-64.184,-20.7457,711.0157],[-64.1823,-20.7467,708.443],[-64.1778,-20.7451,845.3646],[-64.1782,-20.7471,708.4564],[-64.1879,-20.7565,703.2602],[-64.1885,-20.7624,698.494],[-64.1927,-20.7676,696.4402],[-64.1873,-20.7696,701.608],[-64.1828,-20.7639,776.5766],[-64.1807,-20.7676,704.9242],[-64.1831,-20.7817,686.2235],[-64.187,-20.7831,686.5836],[-64.1903,-20.7816,692.668],[-64.193,-20.7855,688.2009],[-64.1916,-20.7882,682.0762],[-64.1855,-20.7901,706.3905],[-64.1837,-20.7922,742.4984],[-64.1895,-20.8038,680.9028],[-64.1883,-20.8104,672.8642],[-64.1893,-20.8164,670.1772],[-64.1882,-20.8246,666.886],[-64.1824,-20.8287,666.0754],[-64.1833,-20.8346,666.9112],[-64.1792,-20.8405,688.2706],[-64.1815,-20.8459,664.6439],[-64.1872,-20.8489,689.3105],[-64.1874,-20.8508,662.585],[-64.1845,-20.8552,655.202],[-64.1747,-20.8619,701.2067],[-64.1713,-20.867,675.902],[-64.1701,-20.8783,645.5375],[-64.167,-20.8827,643.2469],[-64.1604,-20.8874,640.581]]]]}}