{"type": "Feature","bbox": [-64.2986,-19.1843,-63.5314,-18.2925],"geometry": {"type": "MultiPolygon","coordinates": [[[[-64.0225,-19.1567,672.3127],[-64.024,-19.1645,668.1456],[-64.0187,-19.1668,727.8454],[-64.0165,-19.174,661.2655],[-64.0099,-19.1798,676.0062],[-64.0079,-19.1761,750.8902],[-64.0043,-19.1796,711.965],[-64.0006,-19.1795,716.6661],[-63.9948,-19.1821,665.8263],[-63.9782,-19.1787,660.683],[-63.9719,-19.1808,661.1414],[-63.9677,-19.1795,654.9026],[-63.9605,-19.1734,642.1674],[-63.9554,-19.1768,656.7864],[-63.9531,-19.1751,639.7249],[-63.9498,-19.1756,643.0549],[-63.9454,-19.1829,634.9363],[-63.9421,-19.1785,654.3253],[-63.9343,-19.1775,672.2116],[-63.9311,-19.1783,634.6631],[-63.9303,-19.1819,627.6892],[-63.9248,-19.1843,633.8315],[-63.9195,-19.1833,650.9623],[-63.9196,-19.179,626.5415],[-63.9246,-19.1763,620.5632],[-63.9199,-19.1698,624.4836],[-63.9072,-19.1603,621.1082],[-63.908,-19.1557,623.4847],[-63.9132,-19.1528,625.3501],[-63.9087,-19.1332,610.751],[-63.9137,-19.1291,610.7716],[-63.9117,-19.1272,630.8104],[-63.9101,-19.1206,611.5806],[-63.9074,-19.1178,610.9138],[-63.9081,-19.1139,613.8773],[-63.9049,-19.1112,612.6107],[-63.9056,-19.1074,657.0887],[-63.9101,-19.102,610.0494],[-63.9092,-19.099,616.0853],[-63.9055,-19.0989,645.571],[-63.9043,-19.0956,600.4956],[-63.9107,-19.0882,622.331],[-63.9096,-19.0841,604.6224],[-63.9111,-19.0637,599.0171],[-63.9095,-19.0535,593.9122],[-63.9061,-19.0466,596.2531],[-63.8969,-19.0459,642.7301],[-63.898,-19.0422,640.7371],[-63.9043,-19.0366,604.7916],[-63.9027,-19.0325,588.4882],[-63.9007,-19.0319,584.0851],[-63.8952,-19.0355,588.295],[-63.8912,-19.0336,641.1425],[-63.8903,-19.0302,589.3519],[-63.888,-19.0296,605.9615],[-63.8828,-19.03,596.1379],[-63.8716,-19.0374,589.1334],[-63.8679,-19.038,612.3895],[-63.862,-19.0355,581.3471],[-63.8564,-19.037,572.9473],[-63.8477,-19.0366,571.7296],[-63.8452,-19.0399,580.0369],[-63.8419,-19.0411,625.7239],[-63.8389,-19.0496,622.9857],[-63.834,-19.0511,600.7838],[-63.8141,-19.046,628.9116],[-63.8095,-19.0551,621.6575],[-63.7948,-19.0435,566.7998],[-63.7786,-19.0491,557.9641],[-63.7776,-19.0469,548.5122],[-63.7814,-19.0391,541.6826],[-63.7805,-19.0367,546.6223],[-63.7699,-19.0319,531.9125],[-63.7647,-19.0329,549.0101],[-63.761,-19.0359,530.6423],[-63.7546,-19.0362,542.1573],[-63.7431,-19.0422,526.4753],[-63.7363,-19.0391,527.8803],[-63.7366,-19.032,519.1923],[-63.7306,-19.03,546.3398],[-63.7218,-19.0379,516.4158],[-63.7212,-19.0415,526.0491],[-63.7231,-19.0462,517.2997],[-63.7221,-19.0477,516.3727],[-63.7165,-19.0446,516.8679],[-63.7052,-19.0431,529.7347],[-63.7004,-19.0393,513.8832],[-63.6979,-19.0392,514.9084],[-63.694,-19.0435,543.0531],[-63.699,-19.0534,509.3024],[-63.6983,-19.0546,517.3453],[-63.6926,-19.0565,508.0265],[-63.6829,-19.0546,508.1959],[-63.6718,-19.0573,505.7395],[-63.6711,-19.0587,521.5106],[-63.674,-19.0618,504.275],[-63.6833,-19.0654,502.7256],[-63.6835,-19.0699,502.152],[-63.6818,-19.0745,500.8737],[-63.6781,-19.0779,499.5],[-63.6686,-19.0794,517.4504],[-63.6676,-19.082,504.0873],[-63.6691,-19.0855,498.2245],[-63.6669,-19.09,499.6608],[-63.6629,-19.0895,497.6927],[-63.651,-19.083,534.7476],[-63.6494,-19.0855,518.6746],[-63.6518,-19.0924,497.111],[-63.6475,-19.092,497.6753],[-63.6444,-19.0866,489.0],[-63.6306,-19.0921,493.4623],[-63.6288,-19.0946,514.1285],[-63.6278,-19.1026,526.3752],[-63.6262,-19.1022,535.0795],[-63.6252,-19.0978,483.1044],[-63.6212,-19.0929,520.4077],[-63.615,-19.0971,505.965],[-63.6083,-19.093,501.4557],[-63.5973,-19.0976,505.7333],[-63.5865,-19.0981,510.0489],[-63.5802,-19.0949,513.0191],[-63.5789,-19.0878,487.7174],[-63.5771,-19.0866,487.7174],[-63.5657,-19.0867,482.0286],[-63.5591,-19.0915,479.5887],[-63.5569,-19.0915,478.0],[-63.5558,-19.0824,476.75],[-63.5569,-19.0781,483.6288],[-63.5644,-19.0688,489.7241],[-63.5584,-19.0627,482.1793],[-63.5559,-19.0531,477.8635],[-63.5517,-19.048,476.2838],[-63.5467,-19.0457,482.8167],[-63.5452,-19.0395,495.9948],[-63.5472,-19.0323,469.625],[-63.5559,-19.0248,471.7935],[-63.5563,-19.0217,467.5851],[-63.5551,-19.0199,487.0312],[-63.551,-19.0188,475.6255],[-63.5427,-19.019,469.3461],[-63.5415,-19.0161,503.0094],[-63.5511,-19.0025,470.0109],[-63.5499,-19.001,474.2701],[-63.5452,-19.0015,484.2938],[-63.5449,-19.0003,488.8775],[-63.5465,-18.9922,467.5957],[-63.5513,-18.9819,461.9559],[-63.5602,-18.9801,460.5006],[-63.5618,-18.9752,464.5368],[-63.5559,-18.9681,458.644],[-63.552,-18.9717,458.7683],[-63.5484,-18.9728,468.743],[-63.5435,-18.9716,486.2784],[-63.542,-18.9679,466.7521],[-63.5423,-18.9607,456.8428],[-63.5457,-18.9503,465.7911],[-63.5435,-18.9446,466.7707],[-63.5364,-18.9373,462.9005],[-63.5394,-18.9251,450.6766],[-63.5382,-18.9221,466.4393],[-63.5364,-18.922,449.4311],[-63.538,-18.9159,460.8922],[-63.5314,-18.8806,465.6129],[-63.5353,-18.8769,472.2466],[-63.5364,-18.8698,477.4016],[-63.5399,-18.8717,479.4071],[-63.5448,-18.8711,485.2783],[-63.5518,-18.8674,508.3355],[-63.5537,-18.8715,499.6326],[-63.556399999999996,-18.8705,480.8922],[-63.556,-18.8576,482.4028],[-63.5623,-18.8545,487.5696],[-63.5628,-18.847,491.8981],[-63.5645,-18.8447,497.0043],[-63.5758,-18.8444,489.8807],[-63.5805,-18.8417,490.8363],[-63.5849,-18.8367,508.5779],[-63.587,-18.8387,504.1109],[-63.5881,-18.8346,515.2789],[-63.5911,-18.832,517.5528],[-63.5983,-18.8345,523.2266],[-63.6034,-18.833,524.4625],[-63.6065,-18.8344,533.8956],[-63.6107,-18.8322,540.0911],[-63.6108,-18.8302,539.464],[-63.6151,-18.8289,548.2349],[-63.6163,-18.8235,554.3855],[-63.618899999999996,-18.82,560.8445],[-63.618899999999996,-18.8156,564.3251],[-63.6226,-18.8099,574.6582],[-63.6274,-18.812,586.5915],[-63.6377,-18.8117,602.9577],[-63.6402,-18.8145,606.3144],[-63.6461,-18.8165,619.5377],[-63.6518,-18.8162,634.5384],[-63.6562,-18.814,643.6013],[-63.6618,-18.8056,667.6696],[-63.6716,-18.8043,692.0828],[-63.6752,-18.7978,760.0978],[-63.6822,-18.7912,808.465],[-63.7004,-18.7823,1106.4945],[-63.7153,-18.7827,1652.6692],[-63.7354,-18.7974,1307.8884],[-63.755,-18.8032,1304.759],[-63.7775,-18.7981,983.068],[-63.7889,-18.7919,1123.7427],[-63.7972,-18.7922,831.3633],[-63.7978,-18.7881,860.4643],[-63.8019,-18.7848,906.0637],[-63.8025,-18.782,913.0285],[-63.8091,-18.7805,946.6681],[-63.8173,-18.7753,999.1866],[-63.8244,-18.768,1046.209],[-63.8313,-18.7701,1024.2583],[-63.8325,-18.7676,1049.8879],[-63.8409,-18.7655,1062.693],[-63.842,-18.7609,1121.127],[-63.8479,-18.7614,1087.1835],[-63.852,-18.7585,1120.2454],[-63.8544,-18.7594,1125.3591],[-63.8606,-18.7509,1185.5364],[-63.8686,-18.7458,1213.0757],[-63.8733,-18.7416,1262.8076],[-63.8722,-18.7408,1254.4641],[-63.8736,-18.7389,1260.2778],[-63.8765,-18.7381,1272.0756],[-63.8793,-18.7347,1307.2327],[-63.8793,-18.7294,1354.1278],[-63.8731,-18.7245,1498.6959],[-63.8723,-18.7193,1577.1365],[-63.8756,-18.7155,1607.5283],[-63.8895,-18.7101,1702.819],[-63.8911,-18.7073,1741.8188],[-63.8987,-18.7052,1893.5853],[-63.9054,-18.6992,2089.4753],[-63.9102,-18.6917,2473.7065],[-63.9088,-18.6677,2658.541],[-63.9148,-18.6543,2439.2847],[-63.9052,-18.6398,2581.0425],[-63.9041,-18.6258,2530.3262],[-63.9061,-18.6095,2557.1567],[-63.9124,-18.607,2741.3257],[-63.9087,-18.5842,2714.8821],[-63.9113,-18.5746,2634.0095],[-63.9127,-18.5569,2644.1882],[-63.9239,-18.5363,2718.5854],[-63.9212,-18.5207,2672.8782],[-63.93,-18.5081,2577.553],[-63.9387,-18.5006,2622.3806],[-63.9415,-18.4903,2736.9844],[-63.9399,-18.4519,2704.9033],[-63.9423,-18.4425,2666.1038],[-63.9459,-18.4407,2636.1628],[-63.9568,-18.444,2419.7244],[-63.9638,-18.4418,2506.4448],[-63.969,-18.4371,2140.7776],[-63.9817,-18.4392,1981.4521],[-63.9909,-18.4379,1879.0818],[-63.9888,-18.4315,1841.6785],[-63.9914,-18.43,1828.7583],[-63.9932,-18.4244,1784.2722],[-63.9982,-18.4184,1763.6556],[-64.017,-18.414,1702.4207],[-64.0267,-18.4035,1665.8273],[-64.0297,-18.4021,1675.1425],[-64.0322,-18.3948,1664.9176],[-64.0312,-18.3913,1642.8306],[-64.0327,-18.3907,1637.0227],[-64.034,-18.3863,1647.3279],[-64.0332,-18.3827,1657.2509],[-64.036,-18.3817,1637.7067],[-64.0367,-18.379,1660.1805],[-64.0391,-18.3788,1645.3225],[-64.0387,-18.375,1614.4645],[-64.0427,-18.3723,1612.7898],[-64.0439,-18.3695,1676.8721],[-64.0439,-18.3719,1612.7898],[-64.0455,-18.3714,1612.0117],[-64.0452,-18.3754,1701.6082],[-64.0477,-18.3742,1656.2289],[-64.0508,-18.3755,1662.6802],[-64.0491,-18.3766,1614.8494],[-64.0499,-18.3783,1644.5826],[-64.0555,-18.382,1616.5956],[-64.0574,-18.3867,1634.3831],[-64.0618,-18.3911,1641.8857],[-64.0612,-18.3933,1697.8989],[-64.0651,-18.3958,1753.0332],[-64.0657,-18.3981,1739.8711],[-64.0644,-18.3989,1784.1165],[-64.0668,-18.4016,1664.906],[-64.0633,-18.4033,1676.6406],[-64.0652,-18.4064,1723.9198],[-64.0626,-18.407,1689.4802],[-64.062,-18.4114,1671.8145],[-64.0634,-18.415,1689.1603],[-64.0617,-18.4184,1693.2018],[-64.0658,-18.4291,1733.3916],[-64.0837,-18.4388,2062.9595],[-64.092,-18.4394,2040.5967],[-64.0958,-18.4337,1983.1642],[-64.104,-18.4261,1907.3821],[-64.1114,-18.4235,1866.052],[-64.1204,-18.4153,1832.5437],[-64.1244,-18.4011,1813.2042],[-64.1242,-18.3923,1820.2395],[-64.1288,-18.3876,1745.3011],[-64.1301,-18.3769,1722.7209],[-64.1314,-18.3768,1716.9302],[-64.1342,-18.3711,1720.8875],[-64.1374,-18.3711,1696.0256],[-64.1381,-18.3693,1714.3885],[-64.1396,-18.3708,1693.4225],[-64.1397,-18.3697,1693.4225],[-64.146,-18.3701,1685.6575],[-64.161,-18.3647,1649.1819],[-64.1649,-18.3684,1649.179],[-64.1627,-18.3725,1656.7471],[-64.1689,-18.38,1662.0149],[-64.1766,-18.3766,1681.5083],[-64.1779,-18.374,1700.0437],[-64.1835,-18.3711,1732.9358],[-64.1844,-18.3679,1741.6356],[-64.1888,-18.3675,1851.9948],[-64.1867,-18.362,1783.0004],[-64.181,-18.359,1694.577],[-64.173,-18.3574,1661.3942],[-64.1705,-18.3551,1654.049],[-64.1715,-18.3489,1657.1403],[-64.1651,-18.343,1629.3796],[-64.1664,-18.3419,1628.1475],[-64.1653,-18.3379,1630.209],[-64.1687,-18.3345,1634.9675],[-64.1664,-18.3266,1665.5369],[-64.1734,-18.3261,1700.033],[-64.1842,-18.3334,1743.0233],[-64.1928,-18.3363,1726.0215],[-64.1963,-18.335,1753.9351],[-64.1989,-18.3329,1737.9556],[-64.2181,-18.2988,2341.0325],[-64.2274,-18.2925,2539.7927],[-64.2237,-18.3109,2372.644],[-64.2242,-18.3177,2279.0168],[-64.2423,-18.3202,2047.2581],[-64.2449,-18.3221,2102.3982],[-64.2492,-18.3334,2310.8037],[-64.256,-18.3432,2628.1201],[-64.2528,-18.3506,2786.0762],[-64.2523,-18.3651,2822.3311],[-64.2623,-18.3867,2816.3208],[-64.2604,-18.3953,2774.342],[-64.2609,-18.401,2823.2209],[-64.268,-18.4099,2875.2358],[-64.2671,-18.4158,2745.1123],[-64.2714,-18.4283,2426.2297],[-64.2772,-18.4369,2193.2253],[-64.2797,-18.4523,2107.8325],[-64.2837,-18.4559,1976.6581],[-64.2865,-18.4671,1659.9402],[-64.2825,-18.498,1206.506],[-64.2746,-18.4998,1172.3851],[-64.274,-18.4988,1180.7675],[-64.2759,-18.4973,1223.948],[-64.2716,-18.4937,1144.4351],[-64.2671,-18.5051,1121.3275],[-64.2703,-18.5095,1108.3962],[-64.2707,-18.5129,1089.2408],[-64.2725,-18.5139,1090.3544],[-64.2697,-18.5273,1277.0046],[-64.2782,-18.5508,1110.7368],[-64.2868,-18.5559,1007.3083],[-64.2914,-18.5514,1035.577],[-64.2938,-18.5557,1004.2201],[-64.2986,-18.5578,1002.0903],[-64.2963,-18.5599,1008.4806],[-64.2929,-18.5596,1011.8854],[-64.2967,-18.5655,997.5604],[-64.2888,-18.5694,996.785],[-64.2872,-18.5742,988.2249],[-64.2876,-18.5806,986.4846],[-64.2922,-18.5839,1023.183],[-64.291,-18.5875,985.6127],[-64.2858,-18.5895,1016.7239],[-64.2844,-18.5946,992.4655],[-64.28,-18.5968,975.2011],[-64.2809,-18.5999,971.345],[-64.2877,-18.606,968.5108],[-64.2888,-18.6109,967.5984],[-64.2804,-18.6108,1003.525],[-64.2746,-18.6158,1042.9194],[-64.2603,-18.6122,1168.7024],[-64.2574,-18.6138,1215.4249],[-64.2533,-18.62,1283.7411],[-64.2493,-18.6187,1302.6963],[-64.2454,-18.6203,1317.7649],[-64.2339,-18.6176,1512.8661],[-64.2209,-18.6173,1656.1342],[-64.2113,-18.6148,2013.194],[-64.2018,-18.61,1704.2166],[-64.2004,-18.6187,1718.3843],[-64.198,-18.6195,1765.0269],[-64.1934,-18.6251,1755.0225],[-64.1937,-18.6274,1757.3014],[-64.189,-18.6315,1762.2712],[-64.1895,-18.6339,1773.4623],[-64.1759,-18.6312,1937.8254],[-64.1696,-18.6321,1952.4866],[-64.1659,-18.6303,1924.0171],[-64.161,-18.6336,1958.9911],[-64.149,-18.637,2118.8743],[-64.1491,-18.6395,2132.2371],[-64.1458,-18.644,2213.5869],[-64.1278,-18.6497,2834.2576],[-64.1166,-18.658,2688.762],[-64.094,-18.6547,1969.8062],[-64.0901,-18.6565,1924.2787],[-64.0785,-18.6567,1823.3955],[-64.0837,-18.6633,1771.0942],[-64.0836,-18.6652,1774.0822],[-64.0817,-18.6651,1756.9185],[-64.0809,-18.6668,1782.2661],[-64.0813,-18.6699,1777.0897],[-64.0782,-18.6712,1798.3052],[-64.0777,-18.6746,1731.2229],[-64.0759,-18.674,1725.1317],[-64.0708,-18.6777,1719.5238],[-64.0655,-18.6782,1675.8158],[-64.0668,-18.6845,1667.2245],[-64.0617,-18.6864,1698.3358],[-64.0625,-18.6902,1658.4606],[-64.0599,-18.6909,1690.8188],[-64.0594,-18.7013,1621.5157],[-64.0606,-18.7096,1707.3804],[-64.0646,-18.7128,1603.1959],[-64.0662,-18.7163,1589.5818],[-64.0653,-18.7181,1585.8164],[-64.0677,-18.7199,1582.4713],[-64.0659,-18.7215,1594.5499],[-64.0693,-18.7242,1592.1807],[-64.0662,-18.7303,1576.7664],[-64.0713,-18.7325,1548.7539],[-64.0648,-18.7386,1531.3492],[-64.0674,-18.7422,1538.3931],[-64.0634,-18.7467,1526.3899],[-64.062,-18.7512,1513.5908],[-64.062,-18.7613,1492.8558],[-64.0642,-18.764,1461.6952],[-64.0612,-18.768,1441.0723],[-64.0635,-18.7737,1418.425],[-64.0616,-18.7766,1415.2063],[-64.0639,-18.7779,1431.4489],[-64.0685,-18.7774,1497.8198],[-64.073,-18.7801,1619.0182],[-64.09,-18.7825,2051.0481],[-64.0986,-18.7862,2235.5955],[-64.1007,-18.7878,2251.115],[-64.1016,-18.7936,2156.3335],[-64.1041,-18.7971,2129.395],[-64.1098,-18.7959,2116.6855],[-64.114,-18.7969,2076.5762],[-64.1154,-18.7947,2012.2219],[-64.1184,-18.795,1963.8313],[-64.1164,-18.8056,1925.0707],[-64.1203,-18.8112,1884.3333],[-64.1209,-18.8188,1828.4324],[-64.1274,-18.8237,1761.9321],[-64.1298,-18.8282,1707.8031],[-64.1327,-18.83,1678.4479],[-64.1323,-18.8316,1689.5868],[-64.1357,-18.8359,1618.0299],[-64.1351,-18.8374,1601.0594],[-64.1373,-18.8379,1638.6812],[-64.1373,-18.8487,1568.2513],[-64.1357,-18.8546,1528.4343],[-64.1333,-18.8543,1545.7666],[-64.13,-18.8566,1501.3094],[-64.1261,-18.8622,1472.0831],[-64.1241,-18.8692,1578.2006],[-64.1259,-18.8709,1445.5488],[-64.1253,-18.8736,1417.9821],[-64.1223,-18.8747,1508.2682],[-64.1227,-18.8793,1398.1018],[-64.1194,-18.8801,1380.9956],[-64.1177,-18.8841,1360.0742],[-64.1204,-18.8872,1489.5345],[-64.1164,-18.8935,1372.8346],[-64.1172,-18.8953,1409.7444],[-64.1137,-18.8975,1305.7921],[-64.1143,-18.9013,1346.1736],[-64.1111,-18.9026,1304.0735],[-64.1129,-18.9051,1302.2173],[-64.1099,-18.9061,1305.5573],[-64.1081,-18.9089,1340.071],[-64.1074,-18.9117,1349.6497],[-64.1089,-18.9136,1353.1346],[-64.1046,-18.9155,1243.7625],[-64.1069,-18.9164,1245.7439],[-64.1074,-18.9218,1228.0293],[-64.103,-18.9244,1204.6787],[-64.1059,-18.9265,1183.5159],[-64.106,-18.9301,1194.4449],[-64.1083,-18.9322,1197.8157],[-64.1062,-18.9403,1214.4622],[-64.109,-18.9425,1189.9695],[-64.108,-18.9453,1149.8707],[-64.1055,-18.945,1223.9484],[-64.1043,-18.9506,1079.1357],[-64.1056,-18.9511,1079.1357],[-64.1059,-18.9572,896.7133],[-64.1094,-18.9574,911.1383],[-64.1119,-18.9621,830.272],[-64.108,-18.9644,842.0715],[-64.1099,-18.966,817.6282],[-64.1075,-18.9687,871.505],[-64.1101,-18.9711,789.3016],[-64.1063,-18.9735,786.6783],[-64.1033,-18.9734,818.3657],[-64.1012,-18.9764,798.1134],[-64.1002,-18.9862,800.5634],[-64.0972,-18.991,792.611],[-64.0895,-18.9921,779.9993],[-64.0915,-18.9952,842.0168],[-64.0897,-19.001,797.375],[-64.0812,-18.9962,829.7231],[-64.0785,-19.0014,789.6981],[-64.0693,-19.0045,792.9996],[-64.0654,-19.011,777.1772],[-64.0631,-19.0181,770.0532],[-64.0655,-19.0266,782.6465],[-64.0577,-19.0303,743.9939],[-64.053,-19.0378,767.7922],[-64.0535,-19.0399,787.8635],[-64.058,-19.0421,743.1849],[-64.0551,-19.0463,740.4531],[-64.058,-19.0492,743.9236],[-64.0523,-19.0519,795.2566],[-64.0461,-19.058,823.2126],[-64.0496,-19.0653,719.7874],[-64.0418,-19.0791,750.3517],[-64.0443,-19.0837,711.3187],[-64.0425,-19.0879,710.9125],[-64.0453,-19.0932,722.7323],[-64.0452,-19.0974,714.8392],[-64.0434,-19.0992,704.1506],[-64.0401,-19.0982,706.9529],[-64.0362,-19.0997,713.5275],[-64.0355,-19.1009,810.9178],[-64.0412,-19.1057,705.9675],[-64.0319,-19.1128,693.3182],[-64.0373,-19.1165,711.8898],[-64.0439,-19.1176,689.0538],[-64.0412,-19.1209,694.3044],[-64.0422,-19.1283,706.9236],[-64.0394,-19.1311,688.82],[-64.0323,-19.1321,685.3054],[-64.0298,-19.1487,689.9542],[-64.023,-19.1511,692.4086],[-64.0218,-19.1533,673.7473],[-64.0225,-19.1567,672.3127]]]]}
,"properties": {"GID_3": "BOL.8.13.5_2","GID_0": "BOL","country": "Bolivia","GID_1": "BOL.8_1","province": "SantaCruz","NL_NAME_1": "NA","GID_2": "BOL.8.13_2","county": "Vallegrande","NL_NAME_2": "NA","city": "Vallegrande","VARNAME_3": "NA","NL_NAME_3": "NA","TYPE_3": "District","ENGTYPE_3": "Distrito","CC_3": "NA","HASC_3": "NA","name": "Vallegrande.city","area_km2": 3227.534,"hist_schema_id": "Elevation0-9000","hist_area_km2": {"450": 1.644,"475": 7.399,"500": 13.293,"525": 23.196,"550": 36.011,"575": 48.646,"600": 65.27,"625": 69.821,"650": 64.025,"675": 58.832,"700": 53.88,"725": 48.505,"750": 46.24,"775": 43.773,"800": 40.926,"825": 37.798,"850": 35.231,"875": 33.226,"900": 32.083,"925": 32.504,"950": 31.382,"975": 34.895,"1000": 36.22,"1025": 34.516,"1050": 35.961,"1075": 34.294,"1100": 35.961,"1125": 34.256,"1150": 35.339,"1175": 32.693,"1200": 32.272,"1225": 33.255,"1250": 32.334,"1275": 31.893,"1300": 30.711,"1325": 31.254,"1350": 35.548,"1375": 32.442,"1400": 32.141,"1425": 33.205,"1450": 32.685,"1475": 34.692,"1500": 36.016,"1525": 36.138,"1550": 37.565,"1575": 37.766,"1600": 38.13,"1625": 40.702,"1650": 42.054,"1675": 48.371,"1700": 49.402,"1725": 54.934,"1750": 55.741,"1775": 56.748,"1800": 53.816,"1825": 52.712,"1850": 52.211,"1875": 53.74,"1900": 52.356,"1925": 54.268,"1950": 60.323,"1975": 67.483,"2000": 63.019,"2025": 61.512,"2050": 56.288,"2075": 51.325,"2100": 45.357,"2125": 41.799,"2150": 35.972,"2175": 33.884,"2200": 30.89,"2225": 29.382,"2250": 25.866,"2275": 23.354,"2300": 22.248,"2325": 20.822,"2350": 19.355,"2375": 18.47,"2400": 17.667,"2425": 14.552,"2450": 14.451,"2475": 12.503,"2500": 11.417,"2525": 9.648,"2550": 9.468,"2575": 8.382,"2600": 6.292,"2625": 6.011,"2650": 5.809,"2675": 4.985,"2700": 4.04,"2725": 3.176,"2750": 2.291,"2775": 2.11,"2800": 1.487,"2825": 1.165,"2850": 0.703,"2875": 0.663,"2900": 0.342,"2925": 0.1}}}