{"type": "Feature","bbox": [-66.5388,-17.7422,-66.0942,-17.045],"geometry": {"type": "MultiPolygon","coordinates": [[[[-66.3916,-17.6975,3026.5918],[-66.3896,-17.6996,3000.7341],[-66.3828,-17.7019,2893.4729],[-66.3809,-17.7071,2857.6782],[-66.3729,-17.7104,2756.9414],[-66.3724,-17.7139,2738.8325],[-66.3693,-17.7163,2737.2766],[-66.3657,-17.7239,2659.0842],[-66.3641,-17.7317,2623.3354],[-66.3563,-17.7414,2543.5669],[-66.3496,-17.7422,2516.5068],[-66.3336,-17.7343,2493.5869],[-66.3346,-17.7283,2607.0176],[-66.3336,-17.7234,2615.1016],[-66.337,-17.7181,2772.3076],[-66.3377,-17.71,3026.75],[-66.3335,-17.6982,2996.699],[-66.339,-17.6887,3316.4968],[-66.341,-17.6887,3316.2729],[-66.3464,-17.6838,3318.0376],[-66.3395,-17.6725,3344.1079],[-66.3482,-17.6582,3249.5681],[-66.3468,-17.6532,3081.2754],[-66.3337,-17.6485,2827.9143],[-66.3282,-17.6488,2849.6289],[-66.3226,-17.6421,2702.835],[-66.321,-17.6353,2674.6191],[-66.3223,-17.6325,2656.3154],[-66.3218,-17.6262,2580.9907],[-66.3145,-17.6198,2530.2732],[-66.3057,-17.6166,2480.6262],[-66.3017,-17.6134,2472.928],[-66.3008,-17.61,2472.1995],[-66.2925,-17.6053,2438.8208],[-66.2818,-17.5944,2585.8323],[-66.2817,-17.5915,2615.5386],[-66.2899,-17.5798,2725.0381],[-66.3086,-17.5596,2847.9893],[-66.3032,-17.5253,2670.0281],[-66.3066,-17.5228,2743.4766],[-66.3113,-17.5153,2773.5186],[-66.3111,-17.5096,2810.1526],[-66.3146,-17.5001,2830.5818],[-66.3255,-17.4839,2707.645],[-66.3214,-17.4791,2673.321],[-66.2983,-17.477,2730.6443],[-66.2906,-17.4745,2709.1377],[-66.2737,-17.4726,2958.4487],[-66.2784,-17.4634,2815.4114],[-66.2706,-17.4554,2704.6592],[-66.2525,-17.4431,2693.2715],[-66.2456,-17.4274,2639.1211],[-66.2402,-17.4236,2667.989],[-66.2376,-17.4235,2653.5225],[-66.2294,-17.4165,2557.9126],[-66.226,-17.4172,2544.5769],[-66.223,-17.4252,2541.4695],[-66.2179,-17.425,2539.292],[-66.2144,-17.3972,2540.6311],[-66.2082,-17.3959,2541.4185],[-66.207,-17.3704,2562.4504],[-66.1983,-17.3745,2554.6147],[-66.1871,-17.3432,2673.9775],[-66.187,-17.3293,2830.4419],[-66.1752,-17.3112,3283.0193],[-66.1735,-17.3007,3526.6987],[-66.1623,-17.2811,4306.0513],[-66.1596,-17.2786,4340.0312],[-66.1562,-17.2781,4489.2031],[-66.1416,-17.2568,4475.5708],[-66.1507,-17.2513,4425.6245],[-66.1698,-17.255,4415.1807],[-66.1847,-17.2466,4411.5625],[-66.1866,-17.239,4440.772],[-66.186,-17.2329,4414.749],[-66.1897,-17.2261,4485.1533],[-66.187,-17.2206,4485.9082],[-66.1865,-17.2051,4271.2158],[-66.1691,-17.1887,4313.2852],[-66.1565,-17.18,4125.5845],[-66.1566,-17.1758,4093.7136],[-66.1488,-17.1678,4081.6345],[-66.1413,-17.1711,4103.8647],[-66.1384,-17.17,4056.8328],[-66.1338,-17.1659,4016.9897],[-66.131,-17.1578,4054.1313],[-66.1195,-17.1556,4095.0522],[-66.1216,-17.1447,3827.8774],[-66.1273,-17.1315,3740.0073],[-66.128,-17.1207,3685.729],[-66.1257,-17.1145,3631.3154],[-66.1198,-17.1081,3621.7004],[-66.1168,-17.108,3608.1082],[-66.1145,-17.104,3581.7866],[-66.1063,-17.1,3584.4438],[-66.0998,-17.0876,3432.4646],[-66.0944,-17.0834,3317.5605],[-66.0942,-17.0808,3313.7573],[-66.1005,-17.0756,3319.3667],[-66.1015,-17.0712,3260.4292],[-66.1259,-17.0845,4204.8633],[-66.1381,-17.0841,4305.5889],[-66.1656,-17.0757,4290.2363],[-66.179,-17.0744,4174.8506],[-66.2011,-17.079,4404.9082],[-66.2131,-17.0792,4581.1035],[-66.2165,-17.0833,4580.208],[-66.2237,-17.0842,4510.3232],[-66.2388,-17.0747,4472.1602],[-66.2426,-17.0753,4584.7656],[-66.2558,-17.0861,4609.3975],[-66.268,-17.0734,4784.5283],[-66.2745,-17.0621,4642.9268],[-66.2819,-17.0595,4694.7769],[-66.29,-17.0531,4640.8218],[-66.3004,-17.0492,4693.9175],[-66.3036,-17.045,4734.4873],[-66.32,-17.0562,4463.5229],[-66.3252,-17.0721,4168.2539],[-66.3271,-17.0739,4144.0327],[-66.3417,-17.0766,3649.6333],[-66.3451,-17.0745,3614.1438],[-66.3468,-17.069,3603.9287],[-66.353,-17.0619,3680.2266],[-66.3524,-17.0586,3518.9238],[-66.3543,-17.0592,3612.8486],[-66.3596,-17.0509,3568.2305],[-66.3658,-17.0466,3572.4878],[-66.3799,-17.0462,3672.2],[-66.3826,-17.0539,3686.3201],[-66.3851,-17.0544,3687.9517],[-66.3876,-17.0579,3748.9365],[-66.3949,-17.0592,3714.3774],[-66.3967,-17.0632,3751.0947],[-66.4005,-17.0639,3755.3127],[-66.4043,-17.0685,3836.2083],[-66.4084,-17.0693,3775.3608],[-66.4152,-17.0763,3867.4209],[-66.4179,-17.0764,3815.2598],[-66.4246,-17.0818,3883.6724],[-66.4248,-17.084,3876.5918],[-66.4306,-17.0901,3889.1458],[-66.4332,-17.0976,3940.0488],[-66.4371,-17.1014,3984.718],[-66.4391,-17.1106,4023.4775],[-66.4378,-17.1171,4037.8064],[-66.4409,-17.1243,4055.8247],[-66.4395,-17.1268,4048.7881],[-66.4467,-17.1307,4215.7153],[-66.456,-17.1401,4279.042],[-66.4566,-17.142,4287.5742],[-66.4532,-17.1509,4353.04],[-66.4545,-17.1572,4383.4507],[-66.4603,-17.1637,4523.1592],[-66.4589,-17.1816,4712.5723],[-66.4475,-17.192,4921.8838],[-66.4379,-17.1962,4603.8047],[-66.4338,-17.2008,4616.2021],[-66.4265,-17.2142,4877.6079],[-66.4155,-17.2185,4822.9062],[-66.4,-17.2133,5027.4185],[-66.3979,-17.2225,4774.6162],[-66.3993,-17.2438,4451.5557],[-66.4175,-17.2633,4506.5649],[-66.4413,-17.2608,4581.4902],[-66.4538,-17.2654,4483.1826],[-66.453,-17.2808,4348.4556],[-66.4592,-17.2838,4136.8853],[-66.4656,-17.2909,4191.2754],[-66.4807,-17.2876,4170.3799],[-66.484,-17.2935,4248.9614],[-66.4844,-17.3041,4277.0464],[-66.4889,-17.3156,4249.2983],[-66.4893,-17.3321,4151.6851],[-66.4926,-17.343,4142.5835],[-66.5009,-17.3603,4174.79],[-66.522,-17.3649,4329.5078],[-66.5269,-17.3763,4351.4668],[-66.5351,-17.3872,4507.1494],[-66.5388,-17.3873,4458.4683],[-66.5343,-17.3922,4502.0063],[-66.5174,-17.4003,4510.7554],[-66.5113,-17.4098,4485.0269],[-66.5085,-17.4102,4453.4971],[-66.5004,-17.4042,4485.7798],[-66.4957,-17.4109,4503.2212],[-66.4903,-17.4119,4497.1646],[-66.4974,-17.4319,4159.3101],[-66.4953,-17.4544,3960.6626],[-66.4916,-17.4585,3929.6614],[-66.4877,-17.459,3909.812],[-66.4816,-17.457,3966.0994],[-66.4717,-17.4656,3862.8215],[-66.464,-17.4696,3745.9236],[-66.4611,-17.4688,3764.7317],[-66.4533,-17.4716,3700.2168],[-66.4377,-17.4824,3667.842],[-66.4334,-17.483,3668.7791],[-66.4296,-17.4866,3617.5325],[-66.428,-17.4861,3647.325],[-66.4234,-17.4893,3643.0752],[-66.4191,-17.4867,3626.9109],[-66.416,-17.4818,3614.5864],[-66.4119,-17.4813,3545.3499],[-66.4092,-17.4872,3440.5991],[-66.3965,-17.4876,3253.085],[-66.3945,-17.4899,3211.5825],[-66.394,-17.4954,3061.8831],[-66.3884,-17.5019,2910.2402],[-66.391,-17.5127,3014.6272],[-66.3877,-17.5265,2939.6438],[-66.3884,-17.5299,2950.584],[-66.3854,-17.5343,2866.1543],[-66.3803,-17.5543,2622.3315],[-66.3811,-17.5571,2513.6914],[-66.3849,-17.5583,2511.7212],[-66.3892,-17.5534,2515.8396],[-66.401,-17.5485,2530.2036],[-66.4127,-17.5479,2542.915],[-66.4215,-17.5442,2552.9766],[-66.4272,-17.5445,2559.0723],[-66.4387,-17.5495,2572.9104],[-66.4466,-17.5611,2593.812],[-66.452,-17.5609,2604.6836],[-66.4548,-17.5637,2620.5205],[-66.4624,-17.5574,2611.7383],[-66.4685,-17.5579,2615.8623],[-66.4715,-17.5546,2618.6877],[-66.4749,-17.5576,2629.1182],[-66.4392,-17.5845,3126.3147],[-66.4351,-17.5923,3150.457],[-66.429,-17.5928,3266.968],[-66.4277,-17.6068,3305.1697],[-66.4307,-17.6105,3321.0525],[-66.4278,-17.6159,3128.1902],[-66.4228,-17.6195,2919.394],[-66.4175,-17.6137,2862.2964],[-66.4139,-17.6124,2850.2158],[-66.4046,-17.6145,2804.3665],[-66.4015,-17.6197,2776.6733],[-66.4019,-17.6238,2798.1965],[-66.3968,-17.6334,2836.8003],[-66.3952,-17.6401,2928.4126],[-66.3873,-17.6483,2940.0933],[-66.3798,-17.6512,2955.3093],[-66.3808,-17.6577,3083.7959],[-66.3893,-17.6649,2981.4702],[-66.393,-17.6652,2986.0825],[-66.3938,-17.6708,3045.4082],[-66.3959,-17.672,3036.7173],[-66.3972,-17.6773,3056.6384],[-66.3998,-17.679,3078.6382],[-66.4,-17.6846,3136.0449],[-66.3916,-17.6975,3026.5918]]]]}
,"properties": {"GID_2": "BOL.2.14_2","GID_0": "BOL","country": "Bolivia","GID_1": "BOL.2_1","province": "Cochabamba","NL_NAME_1": "NA","county": "Quillacollo","VARNAME_2": "NA","NL_NAME_2": "NA","TYPE_2": "Provincia","ENGTYPE_2": "Province","CC_2": "NA","HASC_2": "NA","name": "Quillacollo.county","area_km2": 1638.775,"hist_schema_id": "Elevation0-9000","hist_area_km2": {"2425": 4.729,"2450": 8.388,"2475": 8.267,"2500": 16.236,"2525": 43.405,"2550": 70.073,"2575": 50.573,"2600": 43.552,"2625": 35.277,"2650": 27.327,"2675": 24.089,"2700": 21.358,"2725": 18.849,"2750": 16.665,"2775": 16.684,"2800": 14.419,"2825": 14.135,"2850": 13.043,"2875": 12.011,"2900": 13.224,"2925": 12.011,"2950": 11.424,"2975": 11.06,"3000": 10.596,"3025": 11.283,"3050": 10.677,"3075": 10.293,"3100": 9.788,"3125": 9.888,"3150": 10.051,"3175": 10.253,"3200": 10.394,"3225": 10.253,"3250": 10.334,"3275": 9.121,"3300": 8.596,"3325": 8.962,"3350": 7.385,"3375": 8.377,"3400": 7.345,"3425": 7.406,"3450": 7.002,"3475": 6.9,"3500": 7.751,"3525": 7.225,"3550": 6.84,"3575": 7.427,"3600": 8.257,"3625": 7.812,"3650": 8.157,"3675": 8.461,"3700": 10.123,"3725": 11.501,"3750": 11.764,"3775": 12.757,"3800": 13.182,"3825": 12.939,"3850": 13.608,"3875": 13.587,"3900": 15.876,"3925": 17.315,"3950": 19.564,"3975": 21.63,"4000": 21.307,"4025": 24.528,"4050": 27.383,"4075": 29.874,"4100": 29.51,"4125": 28.212,"4150": 29.064,"4175": 28.862,"4200": 30.077,"4225": 28.195,"4250": 29.43,"4275": 31.253,"4300": 30.706,"4325": 30.767,"4350": 31.699,"4375": 32.104,"4400": 29.978,"4425": 28.377,"4450": 26.676,"4475": 22.827,"4500": 22.058,"4525": 18.959,"4550": 17.623,"4575": 15.475,"4600": 13.307,"4625": 10.917,"4650": 9.803,"4675": 7.737,"4700": 7.069,"4725": 4.415,"4750": 3.565,"4775": 2.916,"4800": 1.884,"4825": 1.418,"4850": 1.235,"4875": 0.81,"4900": 0.486,"4925": 0.365,"4950": 0.243,"4975": 0.101,"5000": 0.061,"5050": 0.02}}}