{"type": "Feature","bbox": [-64.8684,-18.6763,-64.2804,-18.085],"geometry": {"type": "MultiPolygon","coordinates": [[[[-64.3292,-18.6655,922.016],[-64.3247,-18.6599,982.773],[-64.3247,-18.6573,943.3316],[-64.3191,-18.6543,927.929],[-64.3198,-18.6509,930.3167],[-64.3179,-18.6424,979.9668],[-64.3134,-18.6464,949.184],[-64.31,-18.6458,934.7657],[-64.3112,-18.6417,935.9734],[-64.3149,-18.6379,937.7981],[-64.3143,-18.6348,938.8729],[-64.3166,-18.6306,941.7061],[-64.3149,-18.6262,944.7059],[-64.3097,-18.6236,945.3784],[-64.3055,-18.6237,977.425],[-64.3052,-18.6182,951.7363],[-64.3036,-18.6158,993.1107],[-64.2982,-18.616,962.6479],[-64.2958,-18.6114,963.41],[-64.2936,-18.6125,957.8483],[-64.2932,-18.6155,1005.2656],[-64.2909,-18.6158,963.1179],[-64.289,-18.6132,966.2346],[-64.2877,-18.606,968.5108],[-64.2809,-18.5999,971.345],[-64.2804,-18.596,980.1498],[-64.2844,-18.5946,992.4655],[-64.2858,-18.5895,1016.7239],[-64.291,-18.5875,985.6127],[-64.2923,-18.5845,1023.183],[-64.2876,-18.5806,986.4846],[-64.2868,-18.5778,995.4863],[-64.2888,-18.5694,996.785],[-64.2967,-18.5655,997.5604],[-64.2929,-18.5596,1011.8854],[-64.2963,-18.5599,1008.4806],[-64.2986,-18.5585,998.9772],[-64.2981,-18.557,1002.0903],[-64.2938,-18.5557,1004.2201],[-64.2914,-18.5514,1035.577],[-64.2876,-18.5559,1007.0717],[-64.2848,-18.5546,1030.9359],[-64.2908,-18.544,1015.1746],[-64.2882,-18.5403,1029.8313],[-64.2884,-18.5378,1029.6433],[-64.2917,-18.5337,1018.6748],[-64.3005,-18.5332,1018.6011],[-64.2981,-18.52,1036.9336],[-64.3,-18.5181,1026.4668],[-64.3043,-18.5183,1039.9498],[-64.3042,-18.5099,1030.3865],[-64.306,-18.5046,1039.4834],[-64.3028,-18.5005,1047.9985],[-64.3056,-18.4957,1051.6565],[-64.3072,-18.4946,1051.6565],[-64.3102,-18.4972,1040.949],[-64.3177,-18.4948,1045.3109],[-64.3227,-18.4988,1050.0553],[-64.3251,-18.4974,1050.7209],[-64.3281,-18.489,1057.6975],[-64.3354,-18.4847,1069.8562],[-64.3338,-18.4783,1098.4479],[-64.3355,-18.476,1156.8921],[-64.344,-18.4741,1076.3394],[-64.3499,-18.4747,1092.1597],[-64.3577,-18.4681,1086.9718],[-64.3622,-18.4696,1127.6011],[-64.3642,-18.4641,1104.3434],[-64.3702,-18.4634,1098.5101],[-64.3731,-18.4602,1132.1189],[-64.3811,-18.4572,1117.0586],[-64.3821,-18.4533,1118.9918],[-64.392,-18.45,1126.6541],[-64.4026,-18.4507,1142.637],[-64.4054,-18.4484,1162.6985],[-64.4061,-18.4451,1248.3108],[-64.4105,-18.4427,1158.0715],[-64.4119,-18.4374,1191.9899],[-64.4174,-18.4332,1171.7024],[-64.4166,-18.4306,1232.5071],[-64.419,-18.4298,1174.3942],[-64.4214,-18.4233,1183.27],[-64.4276,-18.4181,1194.6235],[-64.4274,-18.4089,1176.2098],[-64.4296,-18.4053,1201.0516],[-64.4329,-18.4038,1180.1979],[-64.4343,-18.4003,1178.9114],[-64.4293,-18.3922,1203.0039],[-64.4311,-18.3852,1200.3911],[-64.4297,-18.3764,1207.9135],[-64.4317,-18.373,1214.0269],[-64.4362,-18.3722,1206.4441],[-64.4402,-18.3689,1257.2056],[-64.4461,-18.3747,1239.0725],[-64.4484,-18.3735,1213.3914],[-64.4453,-18.3663,1214.6783],[-64.44,-18.3647,1240.5913],[-64.44,-18.3589,1245.3773],[-64.4443,-18.3578,1224.0931],[-64.4454,-18.3559,1220.9817],[-64.4414,-18.3533,1225.8656],[-64.4337,-18.3363,1231.2366],[-64.4392,-18.3291,1250.5264],[-64.445,-18.3276,1229.8744],[-64.4459,-18.3251,1242.2466],[-64.4515,-18.3273,1233.2695],[-64.4526,-18.3231,1234.9769],[-64.459,-18.3245,1238.0674],[-64.461,-18.3195,1303.907],[-64.4626,-18.321,1256.8416],[-64.4615,-18.3233,1256.3552],[-64.4626,-18.3244,1238.8551],[-64.4712,-18.3123,1244.9346],[-64.4665,-18.3096,1272.0431],[-64.4637,-18.3061,1306.136],[-64.4641,-18.3047,1251.6622],[-64.4714,-18.3042,1246.9243],[-64.4732,-18.3008,1257.2538],[-64.4729,-18.2955,1290.125],[-64.4835,-18.2952,1263.7961],[-64.4854,-18.2936,1282.6104],[-64.4835,-18.2841,1261.7443],[-64.4805,-18.2792,1264.7783],[-64.4826,-18.272,1274.8521],[-64.4889,-18.273,1313.531],[-64.489,-18.27,1292.135],[-64.4862,-18.2695,1264.2035],[-64.4817,-18.2609,1299.1467],[-64.4848,-18.261,1282.4806],[-64.4888,-18.2555,1286.1594],[-64.4906,-18.2396,1317.6964],[-64.4943,-18.2371,1272.0184],[-64.4923,-18.2342,1289.2665],[-64.4972,-18.2355,1275.6548],[-64.4996,-18.2324,1278.0488],[-64.4974,-18.2266,1279.6787],[-64.5006,-18.225,1286.6007],[-64.5022,-18.2216,1309.8186],[-64.4991,-18.215699999999998,1304.3142],[-64.4966,-18.2146,1329.2716],[-64.4971,-18.2128,1295.2026],[-64.5036,-18.2053,1301.0562],[-64.5088,-18.2031,1291.5348],[-64.5096,-18.199,1331.1719],[-64.5141,-18.199,1296.4705],[-64.5142,-18.1975,1313.304],[-64.5084,-18.1918,1304.3208],[-64.5081,-18.1893,1337.1769],[-64.5117,-18.1855,1304.948],[-64.5137,-18.1861,1302.6985],[-64.5226,-18.1813,1312.7559],[-64.5221,-18.176,1304.7345],[-64.5196,-18.1723,1308.3245],[-64.5265,-18.1654,1309.2385],[-64.5224,-18.1623,1310.4944],[-64.5222,-18.1604,1320.8242],[-64.5294,-18.1595,1309.2908],[-64.5277,-18.1575,1354.5856],[-64.5297,-18.1552,1312.3788],[-64.5374,-18.153,1315.0527],[-64.5393,-18.1504,1311.1265],[-64.5379,-18.1468,1392.7659],[-64.5429,-18.1386,1314.6711],[-64.5456,-18.1356,1376.1925],[-64.5497,-18.1358,1317.5923],[-64.556,-18.132,1321.7655],[-64.5584,-18.13,1321.9399],[-64.5603,-18.1248,1324.3818],[-64.5732,-18.1209,1329.9564],[-64.5789,-18.1149,1332.3958],[-64.5826,-18.1149,1334.8416],[-64.5963,-18.1084,1341.6244],[-64.6041,-18.1093,1346.0641],[-64.6067,-18.1044,1348.625],[-64.6104,-18.1037,1360.6355],[-64.6112,-18.0962,1397.9231],[-64.6157,-18.0934,1365.1172],[-64.6206,-18.0964,1383.6233],[-64.6236,-18.0944,1385.4054],[-64.6264,-18.0966,1390.6887],[-64.635,-18.0959,1425.384],[-64.6389,-18.0991,1365.9646],[-64.6434,-18.1004,1371.5176],[-64.6447,-18.1029,1374.3129],[-64.6546,-18.1005,1384.3513],[-64.6606,-18.1039,1380.2646],[-64.6661,-18.1045,1384.1246],[-64.6698,-18.1004,1391.856],[-64.6793,-18.1014,1403.7051],[-64.6825,-18.0988,1407.3105],[-64.6919,-18.0988,1403.4817],[-64.6935,-18.094,1435.6743],[-64.6972,-18.093,1473.1079],[-64.6998,-18.0897,1403.0933],[-64.7057,-18.097,1449.4656],[-64.7194,-18.1031,1588.9591],[-64.7347,-18.0884,1475.345],[-64.7427,-18.085,1455.9514],[-64.7486,-18.09,1478.8291],[-64.7609,-18.0924,1477.36],[-64.7634,-18.0966,1459.7095],[-64.7637,-18.1017,1459.1973],[-64.7665,-18.1034,1456.0083],[-64.7838,-18.1033,1715.6511],[-64.7885,-18.1002,1798.97],[-64.801,-18.0993,1711.1626],[-64.8105,-18.1054,1677.2655],[-64.8163,-18.1165,1546.1364],[-64.8136,-18.1222,1530.6693],[-64.8142,-18.1282,1494.8916],[-64.817,-18.131,1505.4053],[-64.8149,-18.1342,1514.9189],[-64.8144,-18.1529,1538.9434],[-64.8117,-18.1574,1548.1371],[-64.8096,-18.1581,1571.7682],[-64.8088,-18.1615,1558.7927],[-64.8073,-18.1616,1570.3888],[-64.8056,-18.1692,1581.0933],[-64.8025,-18.1698,1584.1622],[-64.7988,-18.1742,1600.8529],[-64.8048,-18.1781,1635.9811],[-64.8055,-18.183,1716.843],[-64.8147,-18.1869,1845.5969],[-64.8137,-18.1928,1909.4844],[-64.8101,-18.1958,1952.2578],[-64.8073,-18.2088,2185.6304],[-64.8026,-18.2114,2217.0999],[-64.7928,-18.2316,2475.0835],[-64.8047,-18.2378,2082.8594],[-64.811,-18.2392,1929.3965],[-64.8134,-18.2412,1885.0491],[-64.8152,-18.246,1842.4692],[-64.8322,-18.2529,1745.5587],[-64.8383,-18.2485,1721.0918],[-64.8452,-18.2477,1693.4028],[-64.8472,-18.2461,1687.7261],[-64.8419,-18.2526,1727.2661],[-64.8454,-18.2561,1803.4861],[-64.8469,-18.266,1903.0286],[-64.8442,-18.2704,2021.1439],[-64.8462,-18.2733,2134.2134],[-64.8452,-18.2808,2281.3376],[-64.8409,-18.2899,2386.217],[-64.8442,-18.3068,2366.1655],[-64.8474,-18.3141,2429.0317],[-64.8574,-18.3184,2187.3765],[-64.8671,-18.3297,2090.0933],[-64.8645,-18.3387,2113.0542],[-64.8658,-18.3717,1806.9065],[-64.8684,-18.3747,1781.979],[-64.8681,-18.3798,1736.4116],[-64.8669,-18.385,1728.1072],[-64.8612,-18.3862,1737.9626],[-64.8524,-18.384,1905.9985],[-64.8482,-18.39,1803.072],[-64.8482,-18.3947,1756.2507],[-64.8398,-18.3984,1686.7493],[-64.8369,-18.4034,1694.3005],[-64.834,-18.4046,1642.0969],[-64.8293,-18.4152,1593.2802],[-64.8305,-18.4173,1582.8458],[-64.8285,-18.4213,1565.5142],[-64.8285,-18.4277,1549.2971],[-64.831,-18.4322,1522.9961],[-64.8193,-18.4498,1419.5975],[-64.8191,-18.4586,1388.6578],[-64.8134,-18.4623,1419.1252],[-64.8155,-18.4721,1343.1155],[-64.8159,-18.4893,1226.9518],[-64.806,-18.4887,1221.6709],[-64.7981,-18.4948,1221.5934],[-64.7972,-18.5024,1218.9231],[-64.7856,-18.5165,1208.2577],[-64.7876,-18.5212,1206.7335],[-64.7844,-18.526,1204.6957],[-64.7708,-18.5292,1221.5281],[-64.764,-18.5286,1241.9657],[-64.75,-18.5348,1193.5242],[-64.7427,-18.5342,1189.111],[-64.7352,-18.5378,1182.9258],[-64.7264,-18.534,1177.5607],[-64.7224,-18.537,1179.8799],[-64.712,-18.535,1186.1056],[-64.7054,-18.5397,1307.73],[-64.7027,-18.538,1189.4285],[-64.7008,-18.5305,1165.229],[-64.6967,-18.5296,1172.6594],[-64.6939,-18.5384,1160.7578],[-64.6864,-18.5385,1158.6182],[-64.6821,-18.5424,1156.2832],[-64.6747,-18.5611,1148.2859],[-64.6706,-18.5665,1145.4849],[-64.6631,-18.5705,1141.3208],[-64.6525,-18.5724,1137.4829],[-64.6431,-18.5886,1132.7777],[-64.6432,-18.5917,1127.448],[-64.6482,-18.5945,1125.1848],[-64.6468,-18.6032,1121.116],[-64.6433,-18.6047,1137.6995],[-64.6366,-18.604,1116.4281],[-64.6337,-18.6174,1111.927],[-64.6241,-18.6228,1116.5347],[-64.6216,-18.6328,1100.9235],[-64.6117,-18.6391,1109.2179],[-64.6078,-18.6435,1093.8213],[-64.6021,-18.6427,1092.7897],[-64.5949,-18.644,1089.1075],[-64.5845,-18.6533,1083.8997],[-64.5741,-18.6536,1079.4929],[-64.5636,-18.6623,1074.3137],[-64.5603,-18.6721,1070.6539],[-64.5579,-18.6745,1069.468],[-64.5446,-18.6738,1065.4315],[-64.5397,-18.6762,1065.8853],[-64.5332,-18.675,1059.95],[-64.52,-18.6763,1070.157],[-64.5114,-18.6674,1051.5774],[-64.5082,-18.6696,1050.2499],[-64.5002,-18.6713,1046.0912],[-64.4908,-18.6716,1043.8939],[-64.4795,-18.6683,1038.1616],[-64.4697,-18.6685,1035.1201],[-64.4641,-18.664,1032.5858],[-64.4567,-18.6542,1030.7905],[-64.453,-18.6526,1036.0249],[-64.446,-18.6532,1024.1305],[-64.4403,-18.6499,1018.5139],[-64.4383,-18.6413,1015.1931],[-64.4332,-18.6321,1162.2622],[-64.4296,-18.6296,1123.4692],[-64.4239,-18.6278,1081.8369],[-64.4161,-18.6287,1030.6603],[-64.3979,-18.6216,1000.459],[-64.3894,-18.6225,996.2842],[-64.3858,-18.6245,992.4709],[-64.3809,-18.6224,982.0799],[-64.3708,-18.6231,961.5617],[-64.366,-18.6208,954.3149],[-64.3642,-18.6165,952.9615],[-64.3613,-18.615,953.2],[-64.3609,-18.6269,961.9401],[-64.3583,-18.639,939.0392],[-64.3525,-18.6472,1024.8169],[-64.3456,-18.6628,928.8263],[-64.3407,-18.6676,926.9268],[-64.3292,-18.6655,922.016]]]]}
,"properties": {"GID_3": "BOL.2.5.3_2","GID_0": "BOL","country": "Bolivia","GID_1": "BOL.2_1","province": "Cochabamba","NL_NAME_1": "NA","GID_2": "BOL.2.5_2","county": "Campero","NL_NAME_2": "NA","city": "Pasorapa","VARNAME_3": "NA","NL_NAME_3": "NA","TYPE_3": "District","ENGTYPE_3": "Distrito","CC_3": "NA","HASC_3": "NA","name": "Pasorapa.city","area_km2": 2388.197,"hist_schema_id": "Elevation0-9000","hist_area_km2": {"925": 1.025,"950": 3.375,"975": 3.235,"1000": 4.421,"1025": 8.279,"1050": 11.475,"1075": 14.086,"1100": 14.408,"1125": 14.709,"1150": 13.946,"1175": 15.475,"1200": 15.777,"1225": 17.97,"1250": 18.032,"1275": 19.683,"1300": 22.823,"1325": 26.329,"1350": 26.469,"1375": 30.475,"1400": 32.384,"1425": 33.23,"1450": 32.99,"1475": 37.799,"1500": 37.037,"1525": 35.929,"1550": 36.895,"1575": 34.481,"1600": 35.246,"1625": 36.013,"1650": 37.2,"1675": 36.716,"1700": 35.53,"1725": 37.722,"1750": 37.201,"1775": 38.186,"1800": 37.926,"1825": 39.435,"1850": 40.101,"1875": 42.717,"1900": 42.799,"1925": 43.22,"1950": 46.24,"1975": 48.817,"2000": 54.531,"2025": 57.649,"2050": 59.281,"2075": 60.391,"2100": 61.138,"2125": 56.587,"2150": 55.299,"2175": 53.649,"2200": 53.389,"2225": 57.093,"2250": 52.947,"2275": 52.0,"2300": 50.31,"2325": 47.149,"2350": 45.197,"2375": 42.763,"2400": 41.192,"2425": 37.187,"2450": 34.269,"2475": 32.678,"2500": 28.815,"2525": 26.097,"2550": 22.919,"2575": 19.377,"2600": 14.89,"2625": 14.104,"2650": 11.509,"2675": 9.456,"2700": 7.847,"2725": 6.096,"2750": 5.231,"2775": 4.185,"2800": 3.661,"2825": 3.299,"2850": 2.535,"2875": 2.192,"2900": 1.348,"2925": 0.905,"2950": 0.603,"2975": 0.402,"3000": 0.141,"3025": 0.08}}}