{"type": "Feature","bbox": [-66.5335,-18.3813,-66.1819,-17.9495],"geometry": {"type": "MultiPolygon","coordinates": [[[[-66.4314,-17.9734,4062.2578],[-66.4449,-17.9786,4049.6353],[-66.4462,-17.9811,3924.8025],[-66.4613,-17.9934,4026.0481],[-66.4726,-18.0006,4154.4531],[-66.4718,-18.0037,4128.2617],[-66.4745,-18.0066,4086.5566],[-66.4853,-18.0138,3921.3123],[-66.4934,-18.022,3819.4907],[-66.5121,-18.0363,3703.749],[-66.5184,-18.0466,3738.3921],[-66.5335,-18.0584,3901.6362],[-66.5321,-18.0658,3902.8779],[-66.5243,-18.0821,3586.7],[-66.5232,-18.0892,3525.3035],[-66.5242,-18.0929,3484.6345],[-66.5127,-18.0988,3447.4136],[-66.5046,-18.1092,3445.4387],[-66.5025,-18.1161,3434.7161],[-66.504,-18.119,3419.7129],[-66.5014,-18.1206,3425.1655],[-66.5022,-18.1222,3446.0193],[-66.5007,-18.1276,3444.3584],[-66.4954,-18.1328,3412.9727],[-66.4918,-18.1396,3417.4275],[-66.4927,-18.1448,3419.6604],[-66.4893,-18.1524,3380.9934],[-66.4811,-18.1538,3452.4602],[-66.4759,-18.1521,3575.1064],[-66.4747,-18.1492,3588.6973],[-66.472,-18.1496,3627.8069],[-66.4714,-18.1458,3685.9097],[-66.4636,-18.1402,3980.4587],[-66.4535,-18.1544,3940.9788],[-66.4539,-18.1595,3970.3667],[-66.4494,-18.17,3945.9397],[-66.4414,-18.1741,3872.3826],[-66.4392,-18.1777,3908.1392],[-66.4387,-18.1826,3880.0012],[-66.4422,-18.1867,3682.0796],[-66.4454,-18.1879,3744.7957],[-66.4472,-18.1966,3637.0635],[-66.4456,-18.203,3642.8328],[-66.4401,-18.2111,3531.0002],[-66.4368,-18.2281,3622.8267],[-66.433,-18.2306,3707.4834],[-66.4164,-18.2264,3536.8337],[-66.4005,-18.235,3866.4143],[-66.3926,-18.2356,4054.0439],[-66.3798,-18.2182,3853.8445],[-66.3714,-18.2117,3545.6392],[-66.3659,-18.2104,3704.8242],[-66.3647,-18.2067,3793.26],[-66.3533,-18.2057,3925.6262],[-66.3518,-18.2074,3923.5657],[-66.3437,-18.2052,3916.2461],[-66.3323,-18.2063,4064.8169],[-66.3298,-18.2084,4053.5537],[-66.3209,-18.2095,3893.4565],[-66.3146,-18.2049,3894.5654],[-66.3038,-18.2051,3993.5059],[-66.2994,-18.2114,4087.1941],[-66.2999,-18.2155,3974.2317],[-66.2973,-18.2219,3865.1929],[-66.3009,-18.2261,3783.583],[-66.3049,-18.2257,3728.7449],[-66.3206,-18.2533,3800.8831],[-66.3331,-18.2613,3640.9128],[-66.3389,-18.2697,3875.625],[-66.3449,-18.28,3988.9514],[-66.3454,-18.2901,3717.2048],[-66.3431,-18.293,3640.8254],[-66.3433,-18.2952,3621.0835],[-66.3521,-18.3133,3334.8823],[-66.3558,-18.3166,3269.8137],[-66.3525,-18.3208,3298.8154],[-66.3519,-18.3252,3246.3142],[-66.3483,-18.3268,3247.3101],[-66.3471,-18.3301,3252.2554],[-66.3447,-18.3302,3277.9863],[-66.3323,-18.3408,3202.3113],[-66.3263,-18.3422,3212.7502],[-66.3233,-18.3479,3196.2744],[-66.316,-18.3505,3191.7996],[-66.314,-18.3553,3212.1287],[-66.3111,-18.3568,3197.4924],[-66.3108,-18.3646,3176.4536],[-66.3079,-18.3693,3191.3779],[-66.3001,-18.3746,3166.2373],[-66.2976,-18.3813,3163.1736],[-66.2787,-18.3653,3921.521],[-66.2588,-18.3584,4024.1343],[-66.2553,-18.3587,4168.3833],[-66.2466,-18.3538,4290.3105],[-66.2459,-18.347,4203.4209],[-66.2473,-18.3419,4117.6006],[-66.2444,-18.3345,4045.7178],[-66.2491,-18.3299,4012.1685],[-66.2519,-18.3203,4218.8037],[-66.2558,-18.3156,4211.4609],[-66.2642,-18.2977,4274.644],[-66.285,-18.2759,4152.5361],[-66.2885,-18.2698,4107.0889],[-66.2797,-18.253,4092.0364],[-66.2751,-18.2404,4252.771],[-66.2673,-18.2379,4053.3162],[-66.2568,-18.2257,3958.96],[-66.2322,-18.2134,3758.146],[-66.2318,-18.2103,3736.2744],[-66.2295,-18.2085,3718.2415],[-66.2291,-18.1992,3698.1797],[-66.2259,-18.201,3688.6772],[-66.2195,-18.1892,4127.0308],[-66.2024,-18.176,4131.9438],[-66.1997,-18.1709,4177.5562],[-66.1996,-18.1598,4146.3955],[-66.2083,-18.1494,4299.7891],[-66.2093,-18.1394,4399.8115],[-66.2139,-18.1342,4401.3574],[-66.213,-18.1228,3863.6597],[-66.2021,-18.1165,3659.8259],[-66.1914,-18.1145,3500.1882],[-66.1819,-18.1065,3330.7896],[-66.1884,-18.1021,3429.7507],[-66.1887,-18.0901,3737.9536],[-66.192,-18.0823,3788.2041],[-66.1853,-18.0805,3656.5251],[-66.187,-18.0791,3691.0381],[-66.1869,-18.075,3707.6001],[-66.2017,-18.0613,3629.7395],[-66.2024,-18.0504,3486.7654],[-66.2038,-18.0488,3523.1812],[-66.2021,-18.0445,3527.2246],[-66.2036,-18.0367,3463.7678],[-66.2082,-18.0309,3453.0735],[-66.2115,-18.0294,3427.8625],[-66.2099,-18.0246,3457.2524],[-66.2158,-18.0223,3409.3237],[-66.2185,-18.0235,3425.03],[-66.221,-18.0284,3511.1633],[-66.2261,-18.0273,3411.5789],[-66.2269,-18.0218,3455.9067],[-66.2345,-18.0122,3451.4536],[-66.24,-18.0096,3461.0632],[-66.2469,-18.0034,3457.4448],[-66.2486,-18.0,3475.45],[-66.2472,-17.995,3506.0945],[-66.2483,-17.9889,3511.4224],[-66.2615,-17.9741,3569.9775],[-66.2723,-17.9559,3680.9534],[-66.2809,-17.966,3744.6006],[-66.2873,-17.9626,3673.4485],[-66.3092,-17.9618,3306.9287],[-66.3202,-17.9495,3125.7373],[-66.3268,-17.9528,3039.4158],[-66.3376,-17.9536,3502.0171],[-66.3427,-17.9569,3413.2307],[-66.3435,-17.9597,3344.4834],[-66.3509,-17.96,3459.1865],[-66.3593,-17.9569,3654.3279],[-66.372,-17.9566,3501.8159],[-66.3721,-17.9581,3527.855],[-66.3811,-17.9599,3700.4771],[-66.3878,-17.9641,3811.821],[-66.3953,-17.9633,3692.0896],[-66.4129,-17.9707,4021.5596],[-66.4193,-17.9757,4063.4819],[-66.4314,-17.9734,4062.2578]]]]}
,"properties": {"GID_3": "BOL.7.1.2_2","GID_0": "BOL","country": "Bolivia","GID_1": "BOL.7_1","province": "Potosí","NL_NAME_1": "NA","GID_2": "BOL.7.1_2","county": "AlonsodeIbáñez","NL_NAME_2": "NA","city": "Sacaca","VARNAME_3": "NA","NL_NAME_3": "NA","TYPE_3": "District","ENGTYPE_3": "Distrito","CC_3": "NA","HASC_3": "NA","name": "Sacaca.city","area_km2": 918.945,"hist_schema_id": "Elevation0-9000","hist_area_km2": {"3025": 0.1614,"3050": 0.1614,"3075": 0.1815,"3100": 0.2017,"3125": 0.5446,"3150": 0.726,"3175": 1.008,"3200": 1.9141,"3225": 2.1161,"3250": 2.1162,"3275": 2.539,"3300": 4.2126,"3325": 4.8974,"3350": 6.61,"3375": 8.1616,"3400": 9.2299,"3425": 10.4991,"3450": 12.3341,"3475": 14.49,"3500": 15.4978,"3525": 19.6291,"3550": 21.866,"3575": 22.6122,"3600": 26.7636,"3625": 33.2736,"3650": 35.7317,"3675": 39.5209,"3700": 39.9834,"3725": 41.3928,"3750": 40.5256,"3775": 41.7949,"3800": 42.0163,"3825": 42.7221,"3850": 45.4624,"3875": 39.9804,"3900": 36.9762,"3925": 35.5646,"3950": 31.291,"3975": 27.6032,"4000": 23.9757,"4025": 21.3561,"4050": 19.6228,"4075": 17.8893,"4100": 16.5787,"4125": 15.7729,"4150": 11.3814,"4175": 8.5014,"4200": 7.6149,"4225": 5.983,"4250": 3.2032,"4275": 1.551,"4300": 1.2488,"4325": 0.8863,"4350": 0.3625,"4375": 0.3827,"4400": 0.2014,"4425": 0.1006,"4450": 0.0201}}}