{"type": "Feature","bbox": [-65.6964,-17.7084,-65.4418,-17.4909],"geometry": {"type": "MultiPolygon","coordinates": [[[[-65.6614,-17.6517,4142.208],[-65.6539,-17.6572,4146.3457],[-65.6382,-17.6624,4129.7832],[-65.6235,-17.6736,4178.6235],[-65.5863,-17.6871,4147.668],[-65.5777,-17.6953,4096.3696],[-65.5521,-17.7084,4079.0435],[-65.5216,-17.6974,3830.3843],[-65.5181,-17.6975,3868.1045],[-65.512,-17.6935,3801.4253],[-65.5084,-17.6827,3883.78],[-65.5075,-17.6663,3659.0596],[-65.5053,-17.6593,3581.9309],[-65.4999,-17.6525,3357.4314],[-65.4924,-17.6481,3375.9326],[-65.4901,-17.643,3584.1233],[-65.4995,-17.6371,3614.6289],[-65.5105,-17.6217,3614.0613],[-65.5197,-17.6148,3480.8516],[-65.5259,-17.613,3510.2659],[-65.5252,-17.6086,3599.0537],[-65.5269,-17.6033,3727.2375],[-65.5351,-17.5978,3714.4192],[-65.5359,-17.5813,3970.7297],[-65.5417,-17.5724,4015.4841],[-65.5423,-17.5652,4012.4189],[-65.5447,-17.5595,4176.1787],[-65.5417,-17.55,4293.667],[-65.5335,-17.5522,4283.874],[-65.5262,-17.5486,4315.4268],[-65.5182,-17.5518,4298.0503],[-65.499,-17.5376,3818.6401],[-65.4952,-17.5324,3878.5972],[-65.4845,-17.5387,3778.3887],[-65.4743,-17.5508,3848.2441],[-65.4569,-17.5608,3893.1504],[-65.4434,-17.5484,3236.2673],[-65.4418,-17.5427,3546.4397],[-65.4714,-17.524,3962.9346],[-65.475,-17.5189,3979.748],[-65.4803,-17.5166,3993.1001],[-65.483,-17.5136,3984.0747],[-65.4968,-17.5097,3951.3787],[-65.499,-17.501,3994.1641],[-65.52,-17.495,3907.8865],[-65.526,-17.5028,3913.7104],[-65.5945,-17.5063,3958.5391],[-65.5995,-17.5085,3887.2083],[-65.6063,-17.5051,3763.5073],[-65.6493,-17.4969,3740.4871],[-65.6618,-17.5002,3679.238],[-65.6682,-17.4912,3660.5566],[-65.6745,-17.4909,3661.0391],[-65.6812,-17.5065,3582.6604],[-65.6849,-17.5113,3529.8779],[-65.6964,-17.52,3641.1387],[-65.6944,-17.5251,3633.6375],[-65.6884,-17.5297,3605.3843],[-65.6822,-17.5316,3553.291],[-65.6807,-17.5341,3548.8511],[-65.6726,-17.5387,3446.6267],[-65.6689,-17.5438,3421.2908],[-65.6683,-17.5536,3416.0371],[-65.6655,-17.5647,3389.5139],[-65.6754,-17.5952,3438.6736],[-65.6711,-17.6011,3444.5649],[-65.6725,-17.6042,3463.7915],[-65.6712,-17.6087,3475.3987],[-65.6597,-17.6204,3544.3176],[-65.656,-17.6276,3620.8311],[-65.6533,-17.6293,3635.7266],[-65.6481,-17.6409,3682.3047],[-65.6506,-17.6454,3749.1401],[-65.6614,-17.6517,4142.208]]]]}
,"properties": {"GID_3": "BOL.2.1.2_2","GID_0": "BOL","country": "Bolivia","GID_1": "BOL.2_1","province": "Cochabamba","NL_NAME_1": "NA","GID_2": "BOL.2.1_2","county": "Arani","NL_NAME_2": "NA","city": "Vacas","VARNAME_3": "NA","NL_NAME_3": "NA","TYPE_3": "District","ENGTYPE_3": "Distrito","CC_3": "NA","HASC_3": "NA","name": "Vacas.city","area_km2": 350.3769,"hist_schema_id": "Elevation0-9000","hist_area_km2": {"3225": 0.0202,"3250": 0.1213,"3275": 0.3031,"3300": 0.9498,"3325": 1.4753,"3350": 1.3338,"3375": 1.6371,"3400": 33.2894,"3425": 25.1848,"3450": 18.11,"3475": 17.3822,"3500": 13.2591,"3525": 13.925,"3550": 14.8139,"3575": 15.6008,"3600": 16.1865,"3625": 15.4997,"3650": 15.1161,"3675": 14.2881,"3700": 12.2267,"3725": 11.7018,"3750": 10.4086,"3775": 10.3884,"3800": 10.2068,"3825": 8.8323,"3850": 7.7406,"3875": 6.3463,"3900": 5.8612,"3925": 4.5679,"3950": 3.8605,"3975": 4.4869,"4000": 3.2136,"4025": 3.4559,"4050": 3.5573,"4075": 3.3756,"4100": 3.6588,"4125": 3.9014,"4150": 4.1237,"4175": 4.0228,"4200": 2.7496,"4225": 1.577,"4250": 0.8289,"4275": 0.465,"4300": 0.2022,"4325": 0.1213}}}