{"type": "Feature","bbox": [-63.3427,-17.2917,-63.018,-16.991],"geometry": {"type": "MultiPolygon","coordinates": [[[[-63.0504,-16.991,241.815],[-63.0676,-16.9976,240.2944],[-63.0854,-17.0102,243.3031],[-63.0863,-17.0095,240.9383],[-63.1212,-17.0364,237.5874],[-63.1198,-17.0484,236.4673],[-63.1177,-17.0529,238.3801],[-63.1223,-17.0551,238.5728],[-63.135,-17.0563,236.6601],[-63.1724,-17.0568,239.169],[-63.1714,-17.0751,241.577],[-63.1805,-17.0757,241.1566],[-63.181,-17.0797,243.9613],[-63.177,-17.0894,242.3942],[-63.1787,-17.0983,244.0798],[-63.1757,-17.1027,244.5916],[-63.1756,-17.1139,245.1595],[-63.1789,-17.1232,248.1522],[-63.1869,-17.1258,247.7387],[-63.1889,-17.1226,246.978],[-63.2047,-17.1288,250.8546],[-63.2203,-17.131,251.3726],[-63.2197,-17.1399,251.9607],[-63.2271,-17.1411,253.5573],[-63.2275,-17.1393,253.6983],[-63.2383,-17.143,252.9875],[-63.239,-17.1382,250.7448],[-63.2466,-17.1401,253.5751],[-63.2483,-17.1367,250.0],[-63.2532,-17.1372,250.0],[-63.2576,-17.1354,253.5357],[-63.3427,-17.164,256.0146],[-63.3383,-17.1719,256.4762],[-63.3356,-17.1844,258.7224],[-63.3336,-17.1875,259.6988],[-63.3368,-17.1924,259.552],[-63.3362,-17.1959,272.6942],[-63.3284,-17.2008,264.5562],[-63.3253,-17.2085,267.6282],[-63.3373,-17.2206,267.7506],[-63.3398,-17.2381,269.0684],[-63.3371,-17.2461,270.9018],[-63.3342,-17.2485,271.1969],[-63.327,-17.2503,272.7428],[-63.3208,-17.2472,272.1677],[-63.3177,-17.2478,266.0865],[-63.3157,-17.2531,267.1622],[-63.3187,-17.2568,266.8487],[-63.29,-17.2546,271.007],[-63.2469,-17.2551,273.0774],[-63.2434,-17.263,276.3823],[-63.2412,-17.2739,280.921],[-63.2392,-17.2758,278.0537],[-63.2405,-17.2801,280.005],[-63.2363,-17.284,278.8529],[-63.2368,-17.2897,281.347],[-63.2206,-17.2836,281.0558],[-63.215,-17.2917,282.5653],[-63.2045,-17.2902,281.7774],[-63.2044,-17.2883,281.4607],[-63.1969,-17.2898,280.6511],[-63.1777,-17.2893,280.4487],[-63.1519,-17.2827,275.632],[-63.1307,-17.2802,275.079],[-63.1281,-17.2761,272.408],[-63.1294,-17.2746,273.5732],[-63.1276,-17.2667,275.9735],[-63.1207,-17.2595,270.9557],[-63.1198,-17.2522,268.8352],[-63.1068,-17.2479,266.6578],[-63.096,-17.2343,267.989],[-63.0858,-17.2327,262.6117],[-63.0837,-17.218,259.2008],[-63.0874,-17.2066,257.7463],[-63.0872,-17.202,257.1382],[-63.085,-17.1983,256.3135],[-63.0804,-17.1982,254.5816],[-63.0783,-17.1961,255.2876],[-63.079,-17.1938,254.6143],[-63.0762,-17.1938,254.5522],[-63.0736,-17.1911,254.2519],[-63.0756,-17.1818,252.1343],[-63.0732,-17.177,251.7682],[-63.0753,-17.1745,251.5217],[-63.0745,-17.1683,251.6686],[-63.0773,-17.1644,249.775],[-63.0721,-17.1593,249.2488],[-63.0711,-17.1562,250.6922],[-63.0721,-17.1522,248.7944],[-63.0704,-17.139,248.4601],[-63.0616,-17.1275,245.446],[-63.0582,-17.1253,244.2301],[-63.0566,-17.1166,243.3568],[-63.0621,-17.1109,242.2037],[-63.0626,-17.1032,241.6319],[-63.0727,-17.0969,241.1206],[-63.0734,-17.0863,240.4775],[-63.0753,-17.086,240.2052],[-63.0774,-17.0825,242.9465],[-63.0757,-17.0815,242.1636],[-63.0768,-17.0783,241.3316],[-63.055,-17.0502,242.485],[-63.0345,-17.0358,245.1335],[-63.0353,-17.0333,245.4168],[-63.026,-17.0318,243.4917],[-63.018,-17.0328,242.1499],[-63.0199,-17.0274,242.2279],[-63.0251,-17.0233,242.1455],[-63.0342,-17.0203,241.281],[-63.0414,-17.0208,241.7706],[-63.0451,-17.0187,240.946],[-63.0451,-17.0165,241.4563],[-63.0405,-17.0116,241.9652],[-63.0405,-16.9986,241.7698],[-63.0426,-16.9946,241.8799],[-63.0504,-16.991,241.815]]]]}
,"properties": {"GID_3": "BOL.8.11.2_2","GID_0": "BOL","country": "Bolivia","GID_1": "BOL.8_1","province": "SantaCruz","NL_NAME_1": "NA","GID_2": "BOL.8.11_2","county": "ObispoSantistéban","NL_NAME_2": "NA","city": "GeneralSaavedra","VARNAME_3": "NA","NL_NAME_3": "NA","TYPE_3": "District","ENGTYPE_3": "Distrito","CC_3": "NA","HASC_3": "NA","name": "General_Saavedra.city","area_km2": 536.6005,"hist_schema_id": "Elevation0-9000","hist_area_km2": {"225": 10.8653,"250": 358.1089,"275": 167.5048,"300": 0.1215}}}