{"type": "Feature","bbox": [-63.4565,-17.5019,-61.4794,-13.7624],"geometry": {"type": "MultiPolygon","coordinates": [[[[-62.7753,-16.504,224.1093],[-62.7763,-16.5027,231.4637],[-63.451,-16.5042,211.7925],[-63.4485,-16.5061,212.1569],[-63.4491,-16.5075,212.3304],[-63.452,-16.5073,212.6573],[-63.4565,-16.5099,211.911],[-63.4461,-16.5112,213.1025],[-63.4443,-16.5131,213.0855],[-63.4392,-16.5116,212.6859],[-63.4394,-16.5152,212.6162],[-63.4137,-16.5201,213.9494],[-63.4123,-16.5252,212.9918],[-63.4198,-16.5269,214.9599],[-63.4217,-16.5302,215.8814],[-63.4197,-16.5321,214.5902],[-63.416,-16.5314,214.2646],[-63.4098,-16.538,214.5651],[-63.4026,-16.5401,214.855],[-63.3952,-16.5399,214.1142],[-63.3985,-16.5499,214.2397],[-63.3906,-16.5509,214.7269],[-63.3886,-16.5533,214.871],[-63.3891,-16.5633,215.426],[-63.392,-16.5661,214.9874],[-63.388,-16.5666,215.2714],[-63.3858,-16.5693,216.3799],[-63.3845,-16.5724,215.285],[-63.3859,-16.5767,215.4585],[-63.385,-16.579,216.4618],[-63.377,-16.5815,216.2778],[-63.3773,-16.588,216.1266],[-63.3745,-16.5898,216.9178],[-63.3707,-16.5876,216.9828],[-63.3674,-16.5879,216.5323],[-63.3651,-16.59,216.8006],[-63.3675,-16.5935,217.0125],[-63.3658,-16.5959,216.9625],[-63.3627,-16.5972,217.7687],[-63.3577,-16.5956,217.0293],[-63.3498,-16.6021,218.2227],[-63.3474,-16.6022,217.7118],[-63.3438,-16.5996,217.2824],[-63.3297,-16.6183,218.2415],[-63.3255,-16.6179,218.2639],[-63.3253,-16.6248,218.6028],[-63.3304,-16.6284,218.4989],[-63.323,-16.6339,219.4437],[-63.3227,-16.636,219.8576],[-63.3285,-16.6369,220.0648],[-63.3306,-16.639,221.173],[-63.3383,-16.6413,218.2365],[-63.3386,-16.6429,218.9162],[-63.3308,-16.6441,219.1399],[-63.321,-16.6404,220.0226],[-63.3134,-16.6413,219.8661],[-63.3124,-16.6377,219.9578],[-63.3109,-16.6375,221.3631],[-63.3065,-16.643,220.0954],[-63.3011,-16.6379,219.9265],[-63.2982,-16.644,219.5369],[-63.2914,-16.6473,220.562],[-63.2941,-16.6493,220.9345],[-63.2997,-16.6492,220.1738],[-63.3001,-16.6504,220.608],[-63.2967,-16.6549,220.673],[-63.2916,-16.6518,221.3606],[-63.2906,-16.6564,220.6485],[-63.2887,-16.6578,220.6569],[-63.2871,-16.6572,220.6569],[-63.2832,-16.6505,220.638],[-63.2798,-16.6491,220.4571],[-63.2774,-16.6502,220.3683],[-63.2732,-16.647,220.9497],[-63.2701,-16.6543,221.5526],[-63.2622,-16.6558,220.8847],[-63.2494,-16.6733,222.2472],[-63.2477,-16.6737,221.7023],[-63.2462,-16.6715,222.4379],[-63.2494,-16.665,223.1876],[-63.2428,-16.6656,222.203],[-63.2397,-16.6681,222.0353],[-63.2369,-16.6761,222.1519],[-63.2325,-16.6805,223.1712],[-63.2283,-16.682,222.6996],[-63.2228,-16.6807,222.823],[-63.2261,-16.689,223.0026],[-63.2208,-16.6956,223.8647],[-63.2095,-16.6893,222.935],[-63.2071,-16.6914,224.7704],[-63.208,-16.6982,224.3813],[-63.206,-16.7004,224.3104],[-63.1968,-16.6973,223.9988],[-63.1925,-16.6982,224.4611],[-63.1881,-16.6948,223.8048],[-63.1804,-16.6963,224.129],[-63.1764,-16.7001,225.5284],[-63.1792,-16.7031,223.7973],[-63.1736,-16.7069,224.1638],[-63.1639,-16.7079,224.8574],[-63.1624,-16.713,225.3357],[-63.1576,-16.7153,225.8766],[-63.1617,-16.72,228.4801],[-63.1616,-16.7228,229.357],[-63.1549,-16.7258,227.0411],[-63.1479,-16.7325,226.5534],[-63.1482,-16.7352,226.8903],[-63.1579,-16.7372,226.9726],[-63.1588,-16.7398,228.3863],[-63.1495,-16.7436,226.2036],[-63.1426,-16.7429,226.3634],[-63.1407,-16.7441,226.3271],[-63.1453,-16.7496,229.0001],[-63.153,-16.7538,228.6065],[-63.1487,-16.7601,229.4883],[-63.1409,-16.7573,227.9553],[-63.1384,-16.7585,227.2459],[-63.1405,-16.7697,228.3339],[-63.1391,-16.7761,228.6486],[-63.1363,-16.7776,228.7787],[-63.1236,-16.7778,228.7168],[-63.1225,-16.7799,228.6674],[-63.1261,-16.7853,228.9053],[-63.1262,-16.788,229.0764],[-63.1211,-16.7935,230.422],[-63.1183,-16.7917,231.8277],[-63.1188,-16.7892,230.7795],[-63.1223,-16.7863,230.11],[-63.1198,-16.7835,231.4237],[-63.1172,-16.7836,231.3569],[-63.1132,-16.7901,231.2063],[-63.1088,-16.7892,230.2914],[-63.108,-16.7934,229.7864],[-63.1116,-16.7996,231.6202],[-63.1097,-16.8027,231.5255],[-63.1072,-16.8023,232.4737],[-63.1047,-16.7985,232.7372],[-63.0978,-16.8033,235.0317],[-63.0973,-16.8091,235.2463],[-63.0935,-16.8061,235.3358],[-63.082,-16.8073,235.4034],[-63.0795,-16.8094,235.4856],[-63.0723,-16.8263,234.4907],[-63.0781,-16.8343,233.5645],[-63.0843,-16.8353,232.3563],[-63.0861,-16.8375,232.499],[-63.0843,-16.845,232.3255],[-63.0869,-16.8506,232.6261],[-63.0872,-16.8553,233.7566],[-63.0848,-16.8612,238.2157],[-63.0885,-16.8653,233.3934],[-63.0877,-16.8791,234.9813],[-63.093,-16.8846,234.5561],[-63.0973,-16.8924,235.4395],[-63.0972,-16.8957,235.066],[-63.096,-16.8996,236.3253],[-63.0894,-16.9048,236.3143],[-63.0826,-16.8994,236.4758],[-63.0786,-16.8993,236.0388],[-63.076,-16.9079,236.1905],[-63.0776,-16.912,236.1531],[-63.0768,-16.9148,236.3174],[-63.0717,-16.9144,236.1334],[-63.0682,-16.9184,238.2794],[-63.0653,-16.9189,236.464],[-63.0643,-16.9175,237.8359],[-63.0624,-16.9191,237.1546],[-63.0618,-16.9216,237.6592],[-63.0642,-16.9269,238.0122],[-63.0699,-16.9296,237.1238],[-63.0792,-16.9239,236.9812],[-63.0869,-16.9219,237.0317],[-63.0836,-16.9325,237.2288],[-63.0747,-16.936,237.9441],[-63.0747,-16.9405,238.4177],[-63.0681,-16.9416,237.5286],[-63.0643,-16.9394,242.7511],[-63.0636,-16.9451,237.5297],[-63.0621,-16.9462,239.834],[-63.0668,-16.9485,238.1295],[-63.0632,-16.9532,238.5464],[-63.0744,-16.9562,238.9515],[-63.0788,-16.9605,238.5511],[-63.0725,-16.9602,239.4389],[-63.0675,-16.9566,239.1374],[-63.0586,-16.9559,239.0069],[-63.055,-16.9514,239.4815],[-63.0461,-16.9588,239.1103],[-63.0453,-16.9624,239.8505],[-63.0488,-16.9647,240.0191],[-63.0407,-16.9732,240.0575],[-63.0422,-16.9832,241.0319],[-63.0506,-16.9919,241.6739],[-63.0443,-16.9934,241.851],[-63.0405,-16.9986,241.7698],[-63.0405,-17.0116,241.9652],[-63.0451,-17.0165,241.4563],[-63.0451,-17.0187,240.946],[-63.0414,-17.0208,241.7706],[-63.0342,-17.0203,241.281],[-63.0251,-17.0233,242.1455],[-63.0199,-17.0274,242.2279],[-63.0178,-17.0319,242.1499],[-63.0353,-17.0333,245.4168],[-63.0338,-17.0398,243.8598],[-63.0317,-17.0425,243.8357],[-63.0295,-17.0421,244.3744],[-63.0291,-17.0461,244.0345],[-63.0237,-17.0433,243.7965],[-63.0217,-17.0393,245.1082],[-63.0188,-17.0396,244.4048],[-63.0174,-17.0405,244.4048],[-63.0166,-17.0477,244.1311],[-63.0081,-17.0547,245.4576],[-62.9996,-17.0524,247.553],[-62.9966,-17.0532,244.1327],[-62.9924,-17.0513,246.1028],[-62.9855,-17.0527,247.785],[-62.984,-17.0561,243.4277],[-62.9871,-17.0579,243.1968],[-62.9871,-17.0678,248.0999],[-62.993,-17.0774,248.9976],[-62.9914,-17.0808,248.808],[-62.9833,-17.0823,246.944],[-62.979,-17.0892,246.6093],[-62.9742,-17.0924,246.433],[-62.9666,-17.0933,245.4954],[-62.9353,-17.09,246.375],[-62.9323,-17.0914,250.0303],[-62.9244,-17.1018,249.0887],[-62.9217,-17.1091,247.0],[-62.9211,-17.1182,252.5722],[-62.9116,-17.1183,249.5269],[-62.9072,-17.1201,249.9768],[-62.8996,-17.1277,250.0772],[-62.8981,-17.1271,250.0772],[-62.8927,-17.1174,251.6602],[-62.8884,-17.116,253.0263],[-62.8833,-17.1189,247.0],[-62.8789,-17.1238,252.9865],[-62.8674,-17.1282,248.3103],[-62.8623,-17.1327,253.4171],[-62.8175,-17.1417,254.0648],[-62.8118,-17.1448,257.3932],[-62.8044,-17.1523,256.0505],[-62.7969,-17.1664,260.27],[-62.7856,-17.1682,258.5883],[-62.7849,-17.1715,260.1674],[-62.7744,-17.1776,256.9169],[-62.7698,-17.1823,259.6495],[-62.7628,-17.1944,256.2867],[-62.7517,-17.1965,258.7441],[-62.7345,-17.1959,259.2126],[-62.7326,-17.2011,259.1241],[-62.7335,-17.207,259.872],[-62.7426,-17.2134,261.8716],[-62.7432,-17.2173,261.9431],[-62.7363,-17.2321,259.5338],[-62.7267,-17.2402,262.0373],[-62.7263,-17.2453,261.2504],[-62.7414,-17.2711,264.1689],[-62.7427,-17.2801,262.7311],[-62.7401,-17.2897,260.8379],[-62.7406,-17.3057,261.0],[-62.7478,-17.3137,266.5244],[-62.7475,-17.3182,267.4193],[-62.7452,-17.3217,266.9875],[-62.738,-17.3277,266.0988],[-62.741,-17.3367,267.8461],[-62.7317,-17.3585,264.2086],[-62.7321,-17.3675,265.1828],[-62.735,-17.3754,265.2375],[-62.7371,-17.3766,265.6714],[-62.7468,-17.3764,265.5],[-62.7528,-17.3789,270.4724],[-62.7566,-17.3839,267.2274],[-62.7576,-17.3891,267.9893],[-62.7565,-17.4044,269.1877],[-62.7584,-17.409,268.0],[-62.7581,-17.4157,274.2172],[-62.7574,-17.4188,268.0],[-62.7518,-17.4234,268.0],[-62.7485,-17.432,268.0],[-62.7496,-17.4358,268.9258],[-62.7596,-17.4379,274.3977],[-62.7622,-17.4405,271.2051],[-62.7581,-17.4488,271.6221],[-62.7484,-17.4585,271.4008],[-62.749,-17.4644,273.455],[-62.7522,-17.4672,273.0145],[-62.7683,-17.469,272.7766],[-62.7817,-17.4678,274.9904],[-62.786,-17.4701,273.5256],[-62.7886,-17.478,274.2704],[-62.7842,-17.4914,275.2389],[-62.7862,-17.5019,275.8231],[-62.7152,-17.4903,278.6549],[-62.6207,-17.466,268.5196],[-62.5403,-17.4614,267.1406],[-62.0471,-17.3807,261.5604],[-61.7795,-17.3415,269.7838],[-61.5686,-17.2575,253.0439],[-61.5713,-17.2556,252.7435],[-61.5715,-17.253,252.8427],[-61.5802,-17.2513,251.3561],[-61.5786,-17.2471,252.5468],[-61.5796,-17.2455,252.1769],[-61.5841,-17.245,251.6245],[-61.584,-17.2373,252.729],[-61.5798,-17.2298,253.0862],[-61.5828,-17.2281,253.2559],[-61.5894,-17.2295,252.5934],[-61.5916,-17.2267,252.1135],[-61.5968,-17.2273,252.4338],[-61.6014,-17.2259,251.7753],[-61.6027,-17.2212,251.9409],[-61.6063,-17.2205,250.4189],[-61.6097,-17.223,250.0808],[-61.6108,-17.2134,248.2268],[-61.6097,-17.208,247.0618],[-61.6047,-17.2037,247.3489],[-61.6031,-17.1974,247.1105],[-61.6046,-17.1878,251.9402],[-61.5992,-17.1889,247.896],[-61.5982,-17.191,248.3622],[-61.5954,-17.1889,255.3163],[-61.5939,-17.1831,247.5215],[-61.589,-17.1808,247.2024],[-61.5899,-17.1751,250.1344],[-61.5924,-17.173,249.9175],[-61.5958,-17.1742,250.3261],[-61.5971,-17.1698,249.3712],[-61.6001,-17.1713,250.2136],[-61.601,-17.1741,250.398],[-61.6032,-17.1753,250.1322],[-61.6034,-17.179,248.9945],[-61.6078,-17.179,247.1951],[-61.6141,-17.1835,249.5913],[-61.6129,-17.1891,247.4512],[-61.6155,-17.1912,247.1936],[-61.6293,-17.1842,247.571],[-61.6303,-17.1768,246.4047],[-61.634,-17.1746,246.3113],[-61.6372,-17.1755,248.314],[-61.6406,-17.17,246.7437],[-61.6552,-17.1802,244.5],[-61.6619,-17.1809,246.3321],[-61.6657,-17.1771,246.4817],[-61.665,-17.1715,248.1992],[-61.6719,-17.1706,246.5353],[-61.6733,-17.1686,246.79],[-61.6763,-17.1701,246.5519],[-61.676,-17.1675,246.1859],[-61.6779,-17.1653,245.8695],[-61.6752,-17.1564,245.9586],[-61.6791,-17.1492,244.5],[-61.7054,-17.1368,245.9362],[-61.7065,-17.1296,246.354],[-61.7131,-17.1314,251.9622],[-61.7139,-17.1347,250.7641],[-61.7117,-17.1364,249.7862],[-61.7167,-17.1364,248.7338],[-61.7174,-17.1394,248.5009],[-61.7228,-17.1282,246.0745],[-61.7303,-17.1299,245.6358],[-61.7332,-17.1259,245.8467],[-61.7403,-17.1247,249.2536],[-61.7403,-17.1216,249.003],[-61.7438,-17.1196,249.102],[-61.7499,-17.1242,249.1844],[-61.7554,-17.1242,249.4904],[-61.757,-17.1179,253.3192],[-61.762,-17.1194,251.6307],[-61.7668,-17.1178,250.4899],[-61.7669,-17.116,251.017],[-61.7688,-17.1165,249.7513],[-61.7683,-17.1138,250.6027],[-61.7634,-17.1123,252.7865],[-61.7688,-17.1105,254.2979],[-61.7689,-17.1076,254.5486],[-61.7715,-17.1083,251.7154],[-61.7715,-17.1044,255.374],[-61.7737,-17.1042,251.062],[-61.7723,-17.102,257.2143],[-61.7776,-17.1023,251.1555],[-61.783,-17.0969,252.0257],[-61.7861,-17.0995,254.5893],[-61.7856,-17.0937,256.4885],[-61.7928,-17.0906,260.1245],[-61.7954,-17.0928,254.5943],[-61.7966,-17.0883,254.7037],[-61.8,-17.088,253.3534],[-61.8011,-17.0862,281.4082],[-61.8046,-17.0888,253.3818],[-61.8062,-17.0885,255.0585],[-61.8066,-17.0866,253.5736],[-61.8083,-17.0876,254.323],[-61.8072,-17.0915,253.7441],[-61.8046,-17.0922,254.0461],[-61.8067,-17.0932,255.948],[-61.8107,-17.0932,255.1174],[-61.8164,-17.0903,257.0934],[-61.8191,-17.0948,254.6159],[-61.824,-17.0895,254.0351],[-61.8276,-17.0966,255.7217],[-61.8301,-17.0956,257.1029],[-61.8317,-17.0988,254.7754],[-61.8338,-17.0972,255.3384],[-61.8355,-17.0998,255.448],[-61.8399,-17.102,255.0739],[-61.8454,-17.1029,252.7058],[-61.8459,-17.0992,254.1835],[-61.8377,-17.0976,251.3719],[-61.8403,-17.0944,253.2148],[-61.8374,-17.0912,253.9558],[-61.8347,-17.092,254.224],[-61.8349,-17.0863,253.0599],[-61.8275,-17.0875,256.1636],[-61.8289,-17.0847,255.224],[-61.8257,-17.0844,256.574],[-61.827,-17.0819,253.7897],[-61.8236,-17.0825,255.8753],[-61.8249,-17.0796,254.0998],[-61.8216,-17.0764,251.4051],[-61.8241,-17.074,252.9412],[-61.8209,-17.0726,251.4138],[-61.8249,-17.0702,250.9709],[-61.8284,-17.0717,254.6505],[-61.8308,-17.0706,253.0063],[-61.8304,-17.0778,254.6441],[-61.8358,-17.0807,254.1985],[-61.8397,-17.0755,252.797],[-61.8386,-17.069,252.7655],[-61.8419,-17.0671,252.8527],[-61.8448,-17.0709,258.1486],[-61.8443,-17.0656,252.5754],[-61.8497,-17.0628,253.4801],[-61.854,-17.0643,252.3548],[-61.8558,-17.0613,249.6297],[-61.8541,-17.0572,247.7577],[-61.8511,-17.0586,247.9055],[-61.8478,-17.0556,247.6062],[-61.8494,-17.0503,246.6911],[-61.8456,-17.0449,247.6847],[-61.8471,-17.0389,248.3939],[-61.8509,-17.0339,247.4514],[-61.8452,-17.0318,247.1283],[-61.8444,-17.029,247.8838],[-61.8431,-17.0302,252.8932],[-61.8409,-17.0288,246.8381],[-61.841,-17.0308,249.7277],[-61.836,-17.0302,248.6479],[-61.8362,-17.0266,247.2982],[-61.8321,-17.0273,247.1441],[-61.832,-17.0297,248.7823],[-61.8285,-17.0312,248.8385],[-61.8274,-17.0342,248.9014],[-61.8208,-17.0331,249.3663],[-61.8132,-17.0275,250.643],[-61.8117,-17.0329,251.2355],[-61.8084,-17.0315,250.8979],[-61.7982,-17.033,253.2904],[-61.7986,-17.0349,253.1173],[-61.7969,-17.0363,253.5788],[-61.7916,-17.0363,252.6864],[-61.7862,-17.039,252.3088],[-61.7829,-17.0387,254.9145],[-61.7781,-17.0349,258.2561],[-61.7692,-17.0342,260.9266],[-61.7684,-17.0363,260.6595],[-61.7715,-17.0406,260.0879],[-61.7708,-17.0435,262.8025],[-61.7634,-17.0414,260.001],[-61.7583,-17.043,262.9712],[-61.7511,-17.0419,259.3506],[-61.7482,-17.0452,258.8458],[-61.7462,-17.0454,263.1378],[-61.7422,-17.0448,261.8188],[-61.7311,-17.0375,265.166],[-61.7261,-17.0316,269.0142],[-61.7233,-17.0323,272.5331],[-61.7206,-17.0304,270.2183],[-61.719,-17.0314,272.5831],[-61.716,-17.0264,273.6637],[-61.7126,-17.0252,267.9418],[-61.704,-17.0264,279.8513],[-61.693,-17.0212,275.7752],[-61.6907,-17.0168,277.252],[-61.6868,-17.0148,283.0962],[-61.6841,-17.0157,285.4255],[-61.6744,-17.0281,285.0732],[-61.671,-17.0273,288.5865],[-61.6613,-17.0135,299.7344],[-61.6622,-17.0015,289.5332],[-61.6555,-16.9902,296.4543],[-61.6567,-16.9866,295.5367],[-61.661,-16.9827,321.3943],[-61.6404,-16.5362,432.7546],[-61.6393,-16.5023,375.6557],[-61.6407,-16.4976,378.1285],[-61.6389,-16.4895,382.4211],[-61.6408,-16.4804,381.9406],[-61.6435,-16.4787,380.9607],[-61.6457,-16.4744,380.8922],[-61.6496,-16.4734,381.5041],[-61.652,-16.4571,394.9952],[-61.6499,-16.4455,389.9685],[-61.6531,-16.4441,398.2661],[-61.6539,-16.4394,393.4303],[-61.6573,-16.4375,399.2596],[-61.6593,-16.4331,396.2834],[-61.658,-16.419,402.0007],[-61.6553,-16.4107,404.053],[-61.6523,-16.4088,407.2233],[-61.6513,-16.4045,404.9099],[-61.6576,-16.3996,408.4647],[-61.6567,-16.3918,406.9513],[-61.6592,-16.3853,414.1536],[-61.6575,-16.3802,414.5951],[-61.6653,-16.3723,416.4743],[-61.6659,-16.3625,416.4004],[-61.671,-16.3564,419.6838],[-61.6714,-16.3522,419.5762],[-61.6752,-16.3469,421.3078],[-61.6748,-16.3414,429.3049],[-61.6717,-16.335,438.9344],[-61.6695,-16.3192,467.1693],[-61.6712,-16.3152,454.2801],[-61.6709,-16.3025,467.6205],[-61.6735,-16.2984,456.0872],[-61.6791,-16.2969,463.9922],[-61.6837,-16.2933,457.8537],[-61.6867,-16.2885,450.3102],[-61.6884,-16.2739,422.3236],[-61.6974,-16.2653,401.1684],[-61.6928,-16.2555,395.4952],[-61.6929,-16.243,396.435],[-61.6835,-16.2313,393.086],[-61.6865,-16.2256,385.3756],[-61.6849,-16.2212,391.0471],[-61.6865,-16.2174,386.4911],[-61.6851,-16.2093,383.2551],[-61.6813,-16.2053,385.0271],[-61.6798,-16.2004,390.3682],[-61.6769,-16.1986,379.7845],[-61.6752,-16.1921,399.5662],[-61.6765,-16.1889,384.5458],[-61.6757,-16.1829,386.6548],[-61.677,-16.1814,377.7555],[-61.676,-16.1731,379.0983],[-61.6793,-16.1692,374.7896],[-61.6796,-16.1643,379.5078],[-61.6865,-16.156,374.9032],[-61.6839,-16.1549,387.465],[-61.6856,-16.1525,375.677],[-61.6836,-16.1484,378.9675],[-61.6876,-16.1437,372.7095],[-61.6856,-16.1405,367.7511],[-61.6819,-16.1391,369.5128],[-61.6833,-16.1361,367.1982],[-61.6803,-16.1331,368.863],[-61.6838,-16.1125,364.5767],[-61.6817,-16.1069,363.4161],[-61.6837,-16.1044,363.5898],[-61.681399999999996,-16.1031,362.1409],[-61.683,-16.0966,361.7831],[-61.6783,-16.0862,358.3436],[-61.68,-16.0844,354.9471],[-61.6796,-16.0595,370.8406],[-61.6751,-16.0203,400.8682],[-61.6633,-15.9994,425.1114],[-61.6563,-15.9763,416.2978],[-61.6496,-15.9632,423.9554],[-61.644,-15.944,396.9516],[-61.6355,-15.9332,399.425],[-61.6185,-15.9236,386.3817],[-61.6091,-15.9212,379.8089],[-61.5969,-15.9138,366.2548],[-61.5883,-15.9047,359.9587],[-61.5812,-15.8947,358.0792],[-61.5787,-15.8877,353.7369],[-61.5814,-15.8788,353.4798],[-61.5771,-15.8734,353.2132],[-61.5762,-15.8687,352.4363],[-61.5739,-15.8663,352.1304],[-61.574,-15.8608,364.4593],[-61.5722,-15.8585,351.4767],[-61.5751,-15.8475,350.3574],[-61.5791,-15.8424,351.3817],[-61.582,-15.835,350.409],[-61.5835,-15.8256,350.8848],[-61.5873,-15.8183,352.5158],[-61.5943,-15.8101,353.9799],[-61.5928,-15.8008,348.4156],[-61.5984,-15.784,349.0356],[-61.6033,-15.7797,347.4132],[-61.6074,-15.7789,347.2034],[-61.6126,-15.7736,345.4193],[-61.5996,-15.7659,369.3262],[-61.5831,-15.7645,350.1153],[-61.5737,-15.769,353.0321],[-61.5709,-15.7772,353.2281],[-61.5657,-15.7821,353.268],[-61.5515,-15.7787,357.0553],[-61.5437,-15.7724,346.6398],[-61.5432,-15.7702,350.3726],[-61.545,-15.7667,352.6931],[-61.5421,-15.7554,351.359],[-61.54,-15.7506,371.7071],[-61.5314,-15.7403,358.0247],[-61.5302,-15.7324,364.2589],[-61.5313,-15.7237,377.744],[-61.5386,-15.7132,366.4182],[-61.5298,-15.6901,415.8152],[-61.5303,-15.6821,412.446],[-61.527,-15.6794,426.244],[-61.526,-15.6763,429.336],[-61.5284,-15.6632,413.3664],[-61.5229,-15.6525,398.5645],[-61.5218,-15.6437,375.3633],[-61.5232,-15.6407,365.8266],[-61.5203,-15.6381,370.496],[-61.5197,-15.6269,352.0731],[-61.5213,-15.6205,377.6014],[-61.5195,-15.6195,366.8119],[-61.5107,-15.5424,295.9368],[-61.4877,-15.3187,245.2021],[-61.4974,-15.3023,239.453],[-61.496,-15.2941,233.3136],[-61.4989,-15.2732,278.1142],[-61.5021,-15.2685,273.9446],[-61.5081,-15.2656,260.003],[-61.5018,-15.2521,279.0975],[-61.5094,-15.2332,299.3751],[-61.5013,-15.2257,298.8786],[-61.4978,-15.2183,280.8049],[-61.4945,-15.2151,277.3154],[-61.4926,-15.1886,258.9426],[-61.494,-15.1832,254.6975],[-61.4904,-15.1696,283.1371],[-61.4891,-15.1532,300.5312],[-61.4821,-15.1416,260.8679],[-61.4813,-15.1313,255.2862],[-61.4834,-15.1227,247.6981],[-61.4794,-15.1132,242.4507],[-61.4876,-15.0932,258.2569],[-61.4934,-15.0852,274.5984],[-61.4923,-15.0299,307.0962],[-61.4948,-15.0156,306.2331],[-61.4927,-15.0052,295.2082],[-61.4916,-14.9772,343.1342],[-61.4966,-14.967,326.4579],[-61.4955,-14.9372,278.0668],[-61.5029,-14.9212,286.0931],[-61.5025,-14.9171,278.4794],[-61.5049,-14.9159,272.8249],[-61.5077,-14.9062,271.4279],[-61.508,-14.9009,277.0582],[-61.5031,-14.8912,268.7551],[-61.5099,-14.8918,270.3343],[-61.5152,-14.8947,281.4224],[-61.5191,-14.8876,291.4695],[-61.5194,-14.8853,293.0595],[-61.5151,-14.8842,291.2948],[-61.5171,-14.8817,303.1074],[-61.5183,-14.8619,261.3311],[-61.5323,-14.8327,247.3802],[-61.535,-14.8032,237.5263],[-61.5451,-14.8034,233.9044],[-61.5492,-14.7963,237.0301],[-61.5505,-14.7911,241.5677],[-61.5484,-14.7784,234.5828],[-61.5505,-14.7695,232.3293],[-61.5579,-14.7628,230.7926],[-61.5577,-14.7543,228.1531],[-61.5603,-14.7488,226.991],[-61.5602,-14.7429,238.7603],[-61.5644,-14.7365,229.0726],[-61.5648,-14.733,225.8496],[-61.5719,-14.7265,227.4491],[-61.575,-14.7273,222.5089],[-61.5744,-14.7249,223.8582],[-61.5792,-14.722,225.1078],[-61.5798,-14.718,221.2095],[-61.5841,-14.7167,218.4926],[-61.5849,-14.7056,219.5727],[-61.5914,-14.7003,221.3965],[-61.5918,-14.6926,214.5593],[-61.5953,-14.6958,219.6629],[-61.5948,-14.6974,217.2454],[-61.598,-14.7027,228.9319],[-61.6071,-14.7036,216.7578],[-61.6103,-14.701,222.3719],[-61.6154,-14.7019,211.3533],[-61.6202,-14.6999,217.5368],[-61.6274,-14.6929,218.7535],[-61.6321,-14.6909,223.042],[-61.6334,-14.6916,215.5604],[-61.6349,-14.689,215.8695],[-61.6386,-14.6882,213.4457],[-61.6442,-14.6841,209.826],[-61.6454,-14.6773,206.5333],[-61.6443,-14.6658,212.7514],[-61.6478,-14.6633,207.359],[-61.6483,-14.6594,211.3367],[-61.651,-14.657,210.3583],[-61.6499,-14.6556,210.6247],[-61.6513,-14.6518,210.2542],[-61.661,-14.644,206.3553],[-61.6604,-14.6419,211.9931],[-61.6621,-14.6412,208.3483],[-61.6628,-14.6374,210.3273],[-61.6752,-14.6304,203.0663],[-61.6748,-14.627,205.1931],[-61.6779,-14.623,205.6566],[-61.6785,-14.6143,204.7821],[-61.6823,-14.6124,204.0251],[-61.6818,-14.6098,202.4268],[-61.6866,-14.6084,203.1472],[-61.6889,-14.6059,201.9426],[-61.6891,-14.5986,203.7922],[-61.7032,-14.587,200.229],[-61.7049,-14.5871,199.3258],[-61.7309,-14.5263,221.0393],[-61.7442,-14.504,261.9415],[-61.7725,-14.4792,239.0959],[-61.8904,-14.395,201.6309],[-61.9342,-14.3739,218.0281],[-61.9635,-14.3524,202.8561],[-61.9814,-14.3423,194.8406],[-62.0373,-14.3035,212.6818],[-62.0665,-14.2863,235.386],[-62.0917,-14.2679,206.5982],[-62.1222,-14.2427,208.7452],[-62.1289,-14.2332,217.1106],[-62.1368,-14.2157,212.0164],[-62.1409,-14.1984,235.5845],[-62.1424,-14.1419,212.4702],[-62.1447,-14.007,188.1434],[-62.1392,-13.7624,234.4599],[-62.7049,-13.9758,162.6416],[-62.7054,-13.9771,167.2497],[-62.7037,-13.9769,161.8862],[-62.7016,-13.9821,161.0944],[-62.7025,-13.9842,160.4161],[-62.7003,-13.9897,161.0135],[-62.7013,-13.9914,164.7662],[-62.696,-13.9941,156.395],[-62.6952,-13.997,167.7819],[-62.6935,-13.9963,162.1483],[-62.6932,-14.0057,163.3277],[-62.6877,-14.0067,162.0672],[-62.6881,-14.0115,165.0297],[-62.6864,-14.0125,165.0297],[-62.6848,-14.0183,165.9367],[-62.6827,-14.0212,163.8454],[-62.6808,-14.0211,161.8139],[-62.6795,-14.024,161.733],[-62.6806,-14.0273,163.2842],[-62.6777,-14.0298,157.0872],[-62.6778,-14.0347,161.3995],[-62.675,-14.0429,159.3945],[-62.6782,-14.0586,158.563],[-62.6743,-14.0605,158.2979],[-62.6797,-14.0659,159.91],[-62.6833,-14.0651,159.9424],[-62.6894,-14.0687,159.6098],[-62.692,-14.0723,160.4682],[-62.691,-14.0797,160.3946],[-62.6926,-14.0889,160.7149],[-62.6902,-14.0915,161.1478],[-62.6946,-14.0949,161.5577],[-62.693,-14.0995,162.3506],[-62.6969,-14.0987,162.298],[-62.6996,-14.1013,162.3031],[-62.7043,-14.1144,163.2627],[-62.7094,-14.1167,166.6758],[-62.711,-14.1192,167.6718],[-62.7182,-14.1164,168.2743],[-62.7225,-14.1245,167.3551],[-62.7335,-14.1273,165.0918],[-62.7341,-14.1333,168.8358],[-62.7384,-14.1386,167.1718],[-62.7312,-14.1458,174.1708],[-62.7302,-14.1503,166.2283],[-62.7358,-14.1524,165.9723],[-62.7478,-14.1485,165.2782],[-62.7486,-14.1555,166.6696],[-62.7507,-14.1592,167.2743],[-62.7505,-14.164,166.141],[-62.754,-14.1656,166.448],[-62.7566,-14.1729,168.1531],[-62.7632,-14.1745,167.4501],[-62.7628,-14.1792,168.2217],[-62.757,-14.1814,167.0539],[-62.7551,-14.1967,167.0918],[-62.7567,-14.2029,166.1377],[-62.7629,-14.2038,165.8955],[-62.7659,-14.2081,166.5087],[-62.763,-14.2126,166.3959],[-62.7625,-14.2265,166.3483],[-62.7651,-14.2303,166.3637],[-62.7634,-14.235,165.7695],[-62.7661,-14.2388,165.8334],[-62.7619,-14.2466,166.6519],[-62.7657,-14.2496,165.8792],[-62.7678,-14.249,165.4532],[-62.7705,-14.2565,165.8038],[-62.7817,-14.2646,165.8171],[-62.7842,-14.2702,165.617],[-62.7894,-14.2743,165.6728],[-62.7901,-14.2754,165.9024],[-62.7874,-14.2789,166.5588],[-62.7947,-14.2797,166.2388],[-62.7973,-14.2815,166.106],[-62.7937,-14.2865,166.3631],[-62.7893,-14.2862,167.6311],[-62.788,-14.2875,167.9509],[-62.7923,-14.2921,167.9654],[-62.7978,-14.2944,168.9257],[-62.7959,-14.2986,167.4464],[-62.7962,-14.3046,170.7815],[-62.792,-14.3083,167.7406],[-62.7926,-14.3114,166.1923],[-62.7912,-14.3128,166.1923],[-62.7829,-14.3086,167.4308],[-62.7827,-14.3141,169.2298],[-62.7853,-14.3184,170.6436],[-62.7839,-14.3271,175.5546],[-62.7779,-14.3327,168.4231],[-62.7718,-14.3339,171.4715],[-62.7729,-14.3381,174.4758],[-62.7745,-14.3376,169.853],[-62.7774,-14.3423,168.5247],[-62.7774,-14.3497,169.5513],[-62.7739,-14.3495,172.7634],[-62.7689,-14.3558,171.4688],[-62.7674,-14.3553,172.4951],[-62.7652,-14.3579,171.2],[-62.7605,-14.359,168.1688],[-62.7581,-14.3669,168.9003],[-62.761,-14.369,168.4503],[-62.7556,-14.3718,175.617],[-62.7563,-14.3772,169.3885],[-62.7508,-14.3789,169.1522],[-62.7496,-14.3812,170.0695],[-62.7507,-14.3882,170.316],[-62.7468,-14.3931,173.9498],[-62.7508,-14.3945,172.2559],[-62.7447,-14.3979,177.4868],[-62.7496,-14.4018,171.1808],[-62.7478,-14.4066,172.2903],[-62.7508,-14.4119,175.9662],[-62.7484,-14.4139,174.114],[-62.7479,-14.4212,175.2165],[-62.7422,-14.4194,177.825],[-62.7404,-14.4222,172.9728],[-62.7417,-14.4237,172.384],[-62.7458,-14.4237,176.8174],[-62.7469,-14.428,175.2601],[-62.7427,-14.4357,171.7579],[-62.7411,-14.4319,173.4398],[-62.739,-14.4311,181.1948],[-62.7315,-14.4328,178.9877],[-62.7284,-14.4365,175.3856],[-62.7319,-14.4429,172.9331],[-62.7353,-14.4424,177.1148],[-62.7337,-14.4475,173.379],[-62.7376,-14.4503,173.0931],[-62.7383,-14.4527,173.1983],[-62.7404,-14.4525,178.9814],[-62.7411,-14.4548,175.8209],[-62.7364,-14.4628,172.6463],[-62.7355,-14.4589,176.8329],[-62.7316,-14.462,175.327],[-62.729,-14.4671,179.8433],[-62.7315,-14.4709,175.8695],[-62.7311,-14.4732,176.687],[-62.7266,-14.4739,175.9322],[-62.7321,-14.48,179.1064],[-62.7261,-14.4835,176.7116],[-62.7265,-14.4853,177.8161],[-62.7292,-14.4856,177.1516],[-62.7298,-14.4901,173.8571],[-62.7252,-14.4883,175.4451],[-62.7225,-14.4895,180.6628],[-62.7261,-14.4912,174.9307],[-62.7249,-14.4951,174.8816],[-62.7262,-14.4986,174.3559],[-62.7245,-14.5014,176.7114],[-62.7186,-14.4998,177.9895],[-62.7224,-14.5049,174.3563],[-62.7236,-14.5095,179.2907],[-62.7162,-14.5117,177.8664],[-62.7139,-14.5104,172.9749],[-62.7101,-14.5129,176.4224],[-62.7049,-14.5114,173.7958],[-62.7043,-14.5159,173.3433],[-62.7069,-14.5171,179.6641],[-62.7025,-14.5229,176.0618],[-62.7042,-14.5294,175.4145],[-62.7025,-14.5332,178.8624],[-62.7038,-14.534,174.8666],[-62.7018,-14.5352,179.3205],[-62.6976,-14.5448,176.462],[-62.6943,-14.5453,178.4848],[-62.688,-14.5412,180.5468],[-62.6852,-14.5433,179.9632],[-62.6876,-14.5466,180.1469],[-62.6867,-14.5475,180.1469],[-62.6821,-14.5487,176.4786],[-62.6812,-14.5467,179.4971],[-62.6835,-14.545,176.7004],[-62.6815,-14.5438,180.9448],[-62.6778,-14.5447,178.3204],[-62.6762,-14.5481,177.5829],[-62.6724,-14.5465,178.2065],[-62.6712,-14.5502,182.5726],[-62.6684,-14.5509,180.7945],[-62.6716,-14.5542,179.6557],[-62.6694,-14.5567,185.6663],[-62.6706,-14.5579,176.6249],[-62.6696,-14.5636,177.5806],[-62.6709,-14.5685,184.132],[-62.6735,-14.5689,184.3223],[-62.6703,-14.5713,181.1273],[-62.6715,-14.5733,184.0493],[-62.6706,-14.577,178.0022],[-62.6643,-14.5804,180.4484],[-62.6666,-14.5851,178.5043],[-62.6598,-14.585,180.0048],[-62.6591,-14.5888,181.581],[-62.6559,-14.5887,185.1818],[-62.6559,-14.5923,175.487],[-62.6577,-14.5922,180.0363],[-62.6602,-14.5957,182.389],[-62.6652,-14.5939,182.9587],[-62.6635,-14.5961,179.3703],[-62.6642,-14.5993,181.4324],[-62.6683,-14.5989,180.9893],[-62.6729,-14.6025,178.102],[-62.6759,-14.6013,181.8268],[-62.6735,-14.6049,184.8436],[-62.676,-14.6071,181.9551],[-62.6739,-14.6114,183.019],[-62.6715,-14.61,179.6521],[-62.6691,-14.6134,181.898],[-62.6708,-14.6179,181.276],[-62.666,-14.6179,179.6282],[-62.6672,-14.6156,178.5546],[-62.6662,-14.6146,178.5546],[-62.6592,-14.6147,178.8069],[-62.6615,-14.6215,181.3435],[-62.6578,-14.6225,180.9286],[-62.6557,-14.6202,182.0232],[-62.6564,-14.6252,179.8432],[-62.651,-14.6235,189.633],[-62.6475,-14.6289,185.7552],[-62.6495,-14.6332,183.995],[-62.6521,-14.6323,181.815],[-62.6553,-14.6334,180.1082],[-62.6561,-14.6355,181.5486],[-62.6587,-14.635,182.5423],[-62.6606,-14.639,178.1478],[-62.659,-14.6433,178.4519],[-62.6558,-14.6426,178.2116],[-62.6518,-14.6445,181.3525],[-62.649,-14.6425,181.5387],[-62.6487,-14.6398,179.9815],[-62.645,-14.6384,183.9998],[-62.6442,-14.6425,178.3979],[-62.6385,-14.6473,180.2606],[-62.6352,-14.647,178.8887],[-62.6344,-14.6441,182.138],[-62.6248,-14.6424,187.9897],[-62.6244,-14.6471,178.8762],[-62.621,-14.6501,179.9191],[-62.6219,-14.6583,193.3862],[-62.6245,-14.6561,183.61],[-62.6244,-14.6598,177.7786],[-62.6306,-14.6666,181.3882],[-62.6264,-14.6668,182.1487],[-62.626,-14.6703,195.2657],[-62.6236,-14.6718,191.6046],[-62.6226,-14.6754,181.6004],[-62.6243,-14.679,186.7204],[-62.6282,-14.6764,182.4218],[-62.6302,-14.679,181.9498],[-62.6269,-14.6837,181.496],[-62.6291,-14.6861,179.9478],[-62.627,-14.6886,178.6287],[-62.6279,-14.6942,178.6156],[-62.6236,-14.6945,183.2378],[-62.6208,-14.6967,178.4048],[-62.6218,-14.7008,179.883],[-62.6155,-14.7003,190.2131],[-62.6143,-14.703,180.8054],[-62.6166,-14.705,182.6637],[-62.6179,-14.7134,179.1935],[-62.6169,-14.7142,179.1935],[-62.6182,-14.7165,181.1119],[-62.616,-14.7192,181.596],[-62.6221,-14.7228,178.1808],[-62.6181,-14.728,181.2288],[-62.6216,-14.7288,178.2309],[-62.6238,-14.7317,180.7326],[-62.627,-14.7298,180.8267],[-62.6284,-14.7363,178.4125],[-62.6304,-14.7332,179.9602],[-62.6315,-14.7362,181.3784],[-62.6355,-14.7375,179.1132],[-62.6335,-14.7408,180.5516],[-62.6363,-14.7419,181.122],[-62.6359,-14.7474,181.6293],[-62.6392,-14.7504,179.2015],[-62.6403,-14.7541,179.929],[-62.6384,-14.7567,182.8385],[-62.6386,-14.7597,184.3439],[-62.6429,-14.7585,187.8292],[-62.6424,-14.7613,185.0697],[-62.6444,-14.7635,182.1133],[-62.6472,-14.7613,183.1506],[-62.6478,-14.7641,182.0519],[-62.6519,-14.7653,180.4504],[-62.6499,-14.7664,185.1636],[-62.6502,-14.7702,186.2663],[-62.6476,-14.7729,187.1792],[-62.6514,-14.779,207.2583],[-62.6504,-14.7836,182.991],[-62.6464,-14.7854,185.3038],[-62.6467,-14.7879,187.1257],[-62.6441,-14.7887,184.8478],[-62.6441,-14.7916,185.5595],[-62.6416,-14.7932,183.2101],[-62.6441,-14.7945,187.7596],[-62.644,-14.7969,182.6171],[-62.6477,-14.7962,186.1983],[-62.6476,-14.7995,184.1573],[-62.6387,-14.8016,188.5969],[-62.6356,-14.8073,181.1779],[-62.6363,-14.8137,183.728],[-62.6422,-14.815,182.7152],[-62.642,-14.8176,186.9066],[-62.6442,-14.8204,183.8229],[-62.6456,-14.8187,183.9074],[-62.6481,-14.8195,185.9804],[-62.6458,-14.8232,182.9419],[-62.6426,-14.8246,183.7762],[-62.6445,-14.8259,185.749],[-62.6445,-14.8308,181.6324],[-62.646,-14.8325,185.5254],[-62.644,-14.8344,186.1281],[-62.6477,-14.836,185.6547],[-62.6431,-14.8402,183.4795],[-62.6444,-14.8431,183.6025],[-62.643,-14.8446,189.4827],[-62.6397,-14.8448,183.3826],[-62.6342,-14.8482,185.7133],[-62.6311,-14.8522,187.3344],[-62.6332,-14.8539,183.0652],[-62.6327,-14.8575,183.5332],[-62.6347,-14.8568,190.9913],[-62.6367,-14.8585,193.5203],[-62.634,-14.8625,184.215],[-62.6381,-14.8625,189.2127],[-62.6383,-14.8666,184.5729],[-62.6366,-14.8658,188.7133],[-62.6359,-14.8694,185.314],[-62.6316,-14.8715,182.7695],[-62.63,-14.8701,185.795],[-62.6267,-14.8712,192.1147],[-62.6244,-14.8753,186.2197],[-62.6274,-14.8757,190.6448],[-62.6274,-14.8779,188.114],[-62.6245,-14.8805,189.8202],[-62.6275,-14.8872,188.5391],[-62.6296,-14.8847,185.0496],[-62.6318,-14.8889,187.7912],[-62.639,-14.8836,188.5856],[-62.6398,-14.8896,188.0075],[-62.6457,-14.8923,183.9195],[-62.643,-14.8975,185.1174],[-62.6457,-14.8979,185.2834],[-62.6462,-14.8961,186.8482],[-62.6483,-14.8975,186.1971],[-62.6462,-14.9006,190.7639],[-62.6472,-14.9034,187.7642],[-62.6451,-14.9031,186.9893],[-62.6455,-14.9049,188.605],[-62.6431,-14.9069,186.6268],[-62.644,-14.9087,186.0665],[-62.6462,-14.9085,189.7318],[-62.6448,-14.9109,192.0416],[-62.6476,-14.9115,187.5089],[-62.6497,-14.9153,187.7124],[-62.6493,-14.9166,190.5359],[-62.646,-14.9167,186.5297],[-62.6452,-14.9189,188.8757],[-62.646,-14.9203,188.031],[-62.6483,-14.9183,189.7567],[-62.6489,-14.9206,188.6717],[-62.6469,-14.9211,188.031],[-62.6467,-14.9241,194.6201],[-62.6445,-14.9252,189.2202],[-62.6447,-14.93,190.1418],[-62.6465,-14.9322,187.8005],[-62.6427,-14.9377,200.7815],[-62.6463,-14.9419,189.5317],[-62.6434,-14.9433,189.1418],[-62.643,-14.9477,191.303],[-62.6387,-14.9496,191.1679],[-62.6387,-14.9523,187.6762],[-62.6347,-14.958,189.7869],[-62.6355,-14.9596,187.8727],[-62.6334,-14.962,196.9988],[-62.6334,-14.9651,197.8297],[-62.6349,-14.9679,195.2484],[-62.6329,-14.9684,195.8916],[-62.6323,-14.9711,206.5118],[-62.6346,-14.9721,188.9665],[-62.6343,-14.975,197.0886],[-62.6387,-14.9744,194.6581],[-62.6381,-14.9767,190.6758],[-62.6434,-14.978,190.7505],[-62.6437,-14.9803,190.4135],[-62.6399,-14.988,193.3176],[-62.6442,-14.9908,196.6537],[-62.6432,-14.9925,195.7045],[-62.6408,-14.9912,193.9563],[-62.6371,-14.9921,192.1468],[-62.6378,-14.995,195.7574],[-62.6361,-14.9954,194.4334],[-62.6306,-14.9905,195.229],[-62.6267,-14.9923,194.0349],[-62.6262,-14.9907,194.9147],[-62.6194,-14.9906,194.6408],[-62.6143,-14.9938,191.8827],[-62.607,-14.9906,200.8044],[-62.6012,-14.9942,199.381],[-62.6011,-15.0012,194.1408],[-62.5949,-15.0034,195.0539],[-62.5901,-15.0023,189.7063],[-62.5878,-15.006,193.4103],[-62.5845,-15.0068,198.962],[-62.5821,-15.0118,195.719],[-62.5844,-15.014,191.8209],[-62.5844,-15.0172,194.7633],[-62.5818,-15.0213,195.8023],[-62.5827,-15.0233,191.7034],[-62.5808,-15.0246,197.8342],[-62.5817,-15.0257,195.3605],[-62.5804,-15.0281,195.0335],[-62.5826,-15.0296,196.9379],[-62.5844,-15.0283,193.2086],[-62.5849,-15.0301,195.3661],[-62.5758,-15.0403,195.2409],[-62.5606,-15.0462,204.4071],[-62.5606,-15.0479,194.9971],[-62.5589,-15.048,195.8072],[-62.557,-15.0509,195.8813],[-62.5531,-15.0511,213.244],[-62.5485,-15.0604,192.8051],[-62.5507,-15.0666,196.9971],[-62.5545,-15.0699,196.396],[-62.5524,-15.0734,193.7371],[-62.549,-15.0724,199.4002],[-62.548,-15.075,198.0775],[-62.5447,-15.0741,196.6176],[-62.5441,-15.0784,198.0321],[-62.5431,-15.0765,197.911],[-62.5417,-15.0773,199.6787],[-62.5399,-15.0852,196.1288],[-62.5363,-15.0894,203.1621],[-62.5393,-15.0911,201.5871],[-62.5391,-15.0949,199.4451],[-62.5338,-15.0943,196.0072],[-62.5308,-15.0915,197.2752],[-62.5281,-15.0919,200.7906],[-62.5269,-15.0975,201.7705],[-62.5254,-15.0973,200.4428],[-62.5193,-15.1051,202.2182],[-62.5079,-15.1094,200.561],[-62.4996,-15.1026,203.4339],[-62.4979,-15.0935,204.5336],[-62.4891,-15.092,209.2487],[-62.485,-15.0969,200.1231],[-62.4889,-15.0993,207.3187],[-62.4916,-15.1044,204.4277],[-62.4911,-15.1123,207.7899],[-62.4932,-15.1134,204.4305],[-62.4924,-15.1158,204.8474],[-62.4937,-15.1181,209.6418],[-62.4924,-15.1229,210.0791],[-62.4907,-15.1239,205.7313],[-62.4933,-15.1257,204.7912],[-62.4946,-15.1297,204.7685],[-62.4866,-15.1354,202.0265],[-62.4868,-15.1433,202.6461],[-62.493,-15.1517,217.2299],[-62.4942,-15.1648,227.2709],[-62.4982,-15.1711,216.8219],[-62.4987,-15.1769,235.0998],[-62.5145,-15.1822,224.8305],[-62.5213,-15.1913,226.2143],[-62.5249,-15.2025,232.9474],[-62.524,-15.2091,223.3521],[-62.5272,-15.2118,225.5789],[-62.5263,-15.216,236.9698],[-62.5235,-15.2194,231.6738],[-62.5244,-15.2251,229.5157],[-62.5232,-15.2295,232.1532],[-62.5307,-15.2335,232.4033],[-62.5312,-15.2356,232.3924],[-62.5279,-15.2386,232.7534],[-62.5271,-15.2457,235.8165],[-62.5284,-15.247,238.5033],[-62.5254,-15.2483,238.2392],[-62.5236,-15.2516,233.3377],[-62.5231,-15.2565,242.7181],[-62.5261,-15.261,237.2587],[-62.525,-15.2653,241.1201],[-62.5276,-15.2726,241.0464],[-62.525,-15.2807,253.1773],[-62.5262,-15.2929,245.886],[-62.5249,-15.2989,252.9173],[-62.5255,-15.3018,255.8483],[-62.5286,-15.3049,264.9954],[-62.5343,-15.3068,259.8971],[-62.5365,-15.3156,257.2904],[-62.5317,-15.3224,273.6472],[-62.5282,-15.3368,267.0262],[-62.523,-15.3411,273.761],[-62.5208,-15.3467,274.248],[-62.5171,-15.3484,274.8495],[-62.514,-15.3541,278.7396],[-62.5132,-15.3593,278.3233],[-62.5174,-15.3675,283.4861],[-62.5234,-15.374,287.092],[-62.5367,-15.3791,299.3915],[-62.535,-15.3867,305.3706],[-62.5403,-15.3903,319.4998],[-62.5427,-15.4011,323.5293],[-62.5509,-15.4072,331.0485],[-62.55,-15.4179,353.5794],[-62.5589,-15.4316,443.9112],[-62.5577,-15.434,411.7318],[-62.5508,-15.4373,393.907],[-62.5463,-15.4417,387.6335],[-62.5435,-15.4416,381.6301],[-62.5369,-15.4501,361.4019],[-62.5159,-15.4644,332.1081],[-62.5109,-15.4697,323.5999],[-62.5092,-15.4749,321.446],[-62.5093,-15.4877,317.8622],[-62.5115,-15.4928,324.5854],[-62.5147,-15.4958,318.0896],[-62.5153,-15.4998,311.1227],[-62.5096,-15.5174,304.0681],[-62.531,-15.5216,297.3568],[-62.5344,-15.5244,296.0806],[-62.532,-15.5318,295.7394],[-62.5342,-15.5345,298.826],[-62.5426,-15.5344,295.8092],[-62.5406,-15.5402,300.0608],[-62.5349,-15.5447,308.5229],[-62.5344,-15.5476,301.897],[-62.5374,-15.5555,307.8382],[-62.5369,-15.5603,312.6259],[-62.541,-15.577,321.1643],[-62.5447,-15.5868,336.0476],[-62.5871,-15.8477,315.6026],[-62.6714,-16.3964,333.9617],[-62.6733,-16.4012,337.5155],[-62.6761,-16.4009,348.0243],[-62.6764,-16.4039,336.9659],[-62.6797,-16.4069,333.4562],[-62.677,-16.4082,334.6509],[-62.6767,-16.4128,332.5656],[-62.673,-16.4115,323.8301],[-62.6716,-16.4149,320.7514],[-62.6666,-16.418,317.1734],[-62.6678,-16.4243,308.8337],[-62.6702,-16.4259,306.9794],[-62.673,-16.4244,310.4418],[-62.6741,-16.4256,300.7444],[-62.6718,-16.4309,293.0579],[-62.673,-16.4364,293.4774],[-62.669,-16.4405,294.0701],[-62.6695,-16.4436,284.8735],[-62.6673,-16.4491,275.7995],[-62.6697,-16.4513,263.2119],[-62.669,-16.4551,263.0982],[-62.6731,-16.4594,247.2389],[-62.6732,-16.4671,238.046],[-62.6751,-16.4709,239.413],[-62.6738,-16.4727,240.0912],[-62.6769,-16.4756,239.5775],[-62.6766,-16.478,239.8674],[-62.6821,-16.4855,240.3805],[-62.6852,-16.4871,240.3068],[-62.6892,-16.4868,238.3907],[-62.6959,-16.4928,226.5953],[-62.6966,-16.4976,235.7258],[-62.7017,-16.498,234.6981],[-62.7002,-16.5039,227.6616],[-62.702,-16.5092,231.9407],[-62.7043,-16.5065,237.7234],[-62.7088,-16.5071,228.461],[-62.7108,-16.5029,227.8231],[-62.714,-16.5049,224.6805],[-62.7111,-16.5067,229.1288],[-62.7123,-16.509,231.4303],[-62.7158,-16.5078,224.8582],[-62.7129,-16.5117,231.4851],[-62.7141,-16.513,227.8189],[-62.7168,-16.5107,231.4698],[-62.7193,-16.5021,228.7262],[-62.7235,-16.5009,229.5463],[-62.7245,-16.4982,226.0366],[-62.7268,-16.499,225.0528],[-62.7237,-16.5038,230.9484],[-62.7275,-16.5034,230.4571],[-62.7278,-16.5054,229.354],[-62.7288,-16.503,230.4571],[-62.7313,-16.5036,229.6592],[-62.7309,-16.5074,227.1196],[-62.7331,-16.5059,232.7073],[-62.7327,-16.5034,228.0847],[-62.7376,-16.5041,232.2001],[-62.7383,-16.5058,225.5963],[-62.7406,-16.5036,230.272],[-62.7415,-16.505,229.8159],[-62.7479,-16.5056,230.4721],[-62.7495,-16.504,228.8185],[-62.749,-16.5019,230.1546],[-62.753,-16.5012,228.4088],[-62.7586,-16.5041,224.6301],[-62.7595,-16.5061,223.4286],[-62.7695,-16.5066,226.2782],[-62.7753,-16.504,224.1093]]]]}
,"properties": {"GID_2": "BOL.8.10_2","GID_0": "BOL","country": "Bolivia","GID_1": "BOL.8_1","province": "SantaCruz","NL_NAME_1": "NA","county": "ÑufloDeChávez","VARNAME_2": "NA","NL_NAME_2": "NA","TYPE_2": "Provincia","ENGTYPE_2": "Province","CC_2": "NA","HASC_2": "NA","name": "Ñuflo_De_Chávez.county","area_km2": 43983.19,"hist_schema_id": "Elevation0-9000","hist_area_km2": {"150": 204.4,"175": 2511.28,"200": 3959.08,"225": 6194.54,"250": 9651.64,"275": 3749.01,"300": 1671.36,"325": 1315.27,"350": 1664.49,"375": 2255.24,"400": 2400.24,"425": 2010.91,"450": 1686.27,"475": 1372.74,"500": 1048.17,"525": 711.82,"550": 500.11,"575": 352.64,"600": 253.0,"625": 173.93,"650": 115.87,"675": 71.42,"700": 39.52,"725": 23.52,"750": 16.72,"775": 13.18,"800": 10.48,"825": 5.25,"850": 0.98}}}