{"type":"Feature","properties":{"GID_2":"BOL.5.10_2","GID_0":"BOL","country":"Bolivia","GID_1":"BOL.5_1","province":"Oruro","NL_NAME_1":"NA","county":"Sabaya","VARNAME_2":"NA","NL_NAME_2":"NA","TYPE_2":"Provincia","ENGTYPE_2":"Province","CC_2":"NA","HASC_2":"NA","name":"Sabaya.county"},
"geometry":{"type": "MultiPolygon","coordinates": [[[[-68.0241,-19.1223,3659.2903],[-68.0216,-19.1217,3659.45],[-68.0096,-19.1265,3659.7283],[-68.0,-19.1211,3660.0388],[-67.9934,-19.1226,3660.2676],[-67.9821,-19.119,3660.5352],[-67.97,-19.1106,3660.9871],[-67.9645,-19.1119,3661.082],[-67.9602,-19.1076,3661.3076],[-67.9539,-19.1076,3661.5356],[-67.9226,-19.0935,3662.7051],[-67.9139,-19.0716,3664.9558],[-67.8935,-19.0573,3664.8237],[-67.895,-19.0285,3667.9792],[-67.9149,-19.0254,3668.0481],[-67.9321,-19.0089,3666.4668],[-67.9362,-19.0087,3666.1152],[-67.9489,-19.0133,3665.4199],[-67.9595,-19.0063,3666.3518],[-67.9669,-19.0045,3666.9285],[-67.9705,-19.0017,3667.3452],[-67.9801,-19.0043,3668.6475],[-67.9846,-19.0076,3669.2336],[-67.9916,-19.0066,3669.4331],[-68.0009,-18.9948,3668.9683],[-68.0228,-18.9931,3673.1572],[-68.0342,-18.9896,3673.3633],[-68.0381,-18.9845,3674.0359],[-68.0483,-18.9977,3671.613],[-68.0673,-19.0004,3670.8843],[-68.0827,-18.9986,3671.5],[-68.1035,-18.9997,3671.624],[-68.1948,-19.0436,3669.1448],[-68.2113,-19.0482,3670.5737],[-68.2196,-19.0403,3672.1418],[-68.2452,-19.0052,3678.0557],[-68.2702,-18.9979,3682.4514],[-68.2774,-18.9918,3683.7312],[-68.2945,-18.9649,3687.8657],[-68.31,-18.9594,3690.9087],[-68.3207,-18.9505,3693.8774],[-68.3248,-18.9428,3697.1133],[-68.3505,-18.9139,3704.4937],[-68.3661,-18.9031,3708.1311],[-68.3891,-18.8995,3710.2097],[-68.4125,-18.8871,3719.0967],[-68.4297,-18.868,3717.8044],[-68.4469,-18.8569,3722.3633],[-68.4512,-18.84,3726.3486],[-68.4648,-18.81,3734.7866],[-68.4913,-18.7666,3746.9512],[-68.4859,-18.7448,3749.3193],[-68.4908,-18.7375,3753.6218],[-68.4931,-18.7245,3756.6492],[-68.4964,-18.717,3759.501],[-68.4924,-18.6737,3762.2537],[-68.4874,-18.6629,3760.2061],[-68.4846,-18.6433,3761.0059],[-68.4725,-18.6244,3757.4775],[-68.4773,-18.6237,3759.5244],[-68.4784,-18.6177,3761.7156],[-68.4817,-18.6189,3759.4946],[-68.5058,-18.6182,3762.5371],[-68.531,-18.6081,3768.2012],[-68.5357,-18.6117,3768.0125],[-68.5454,-18.6134,3769.4534],[-68.56,-18.6094,3772.2771],[-68.5658,-18.6103,3773.8301],[-68.5796,-18.6078,3777.1633],[-68.5847,-18.6057,3777.8135],[-68.5884,-18.5988,3782.3826],[-68.5901,-18.5982,3780.2585],[-68.6005,-18.6013,3782.5991],[-68.606,-18.5996,3783.1704],[-68.6077,-18.5971,3782.4229],[-68.6174,-18.597,3784.1833],[-68.635,-18.5924,3787.3274],[-68.6432,-18.5848,3789.2134],[-68.65,-18.5857,3790.3154],[-68.6607,-18.5818,3792.7832],[-68.6648,-18.5832,3794.1094],[-68.6665,-18.5782,3793.6421],[-68.6723,-18.5751,3796.9382],[-68.6728,-18.5719,3795.0762],[-68.6827,-18.5709,3798.645],[-68.6847,-18.5668,3798.2527],[-68.6906,-18.5641,3798.7888],[-68.6927,-18.5537,3800.7122],[-68.6979,-18.5484,3802.1155],[-68.7019,-18.5355,3804.98],[-68.7066,-18.5318,3806.3481],[-68.7312,-18.5254,3811.3752],[-68.7389,-18.5255,3813.3489],[-68.7617,-18.5359,3874.7739],[-68.7831,-18.5373,3828.9153],[-68.8715,-18.5632,3849.5493],[-68.9102,-18.5858,3858.3542],[-68.9368,-18.5937,3863.3701],[-68.9511,-18.5913,3867.9883],[-68.9734,-18.5949,3875.9014],[-68.9793,-18.5941,3876.8386],[-69.0047,-18.6015,3896.5073],[-69.0164,-18.5987,4115.1187],[-69.0254,-18.5994,4292.2808],[-69.0276,-18.6011,4365.9443],[-69.0314,-18.6117,4353.8174],[-69.037,-18.6136,4428.6499],[-69.0331,-18.6294,4402.0742],[-69.0142,-18.6334,4528.2964],[-69.0087,-18.6465,4457.1172],[-69.0026,-18.6502,4363.0464],[-68.9854,-18.6774,4485.3052],[-68.9835,-18.6981,4747.1797],[-68.987,-18.7008,4703.3428],[-68.9873,-18.7056,4861.2134],[-68.9842,-18.712,4878.6685],[-68.9778,-18.7179,5018.2979],[-68.9763,-18.7252,5216.2534],[-68.9715,-18.7324,5402.4653],[-68.9732,-18.739,5724.5054],[-68.9809,-18.7398,5631.5435],[-68.9826,-18.746,5481.4102],[-68.987,-18.7501,5508.2007],[-68.9505,-18.793,4380.0898],[-68.9262,-18.8431,5148.3564],[-68.9124,-18.8924,5513.3438],[-68.9502,-18.9368,4712.2759],[-68.92,-18.9767,4552.5371],[-68.8896,-19.0434,4232.2803],[-68.8709,-19.0604,4215.8281],[-68.8523,-19.0643,4224.877],[-68.806,-19.0836,4436.7891],[-68.8165,-19.0549,4169.1221],[-68.8246,-19.0542,4152.939],[-68.8262,-19.0524,4181.3169],[-68.8221,-19.0357,4532.3818],[-68.8271,-19.0191,4715.6538],[-68.8412,-18.9857,4981.9492],[-68.8396,-18.9603,4427.7285],[-68.816,-18.9633,4353.6729],[-68.8008,-18.9687,4281.1909],[-68.7999,-18.9721,4290.2129],[-68.8136,-19.0073,4791.5615],[-68.8068,-19.0102,4677.1787],[-68.8038,-19.0089,4638.5151],[-68.7992,-19.0116,4472.4863],[-68.7946,-19.008,4398.1484],[-68.7884,-18.981,4245.6865],[-68.7897,-18.9782,4244.4771],[-68.7955,-18.9753,4260.7441],[-68.7982,-18.9682,4280.6406],[-68.7871,-18.9637,4258.0205],[-68.79,-18.9585,4380.6191],[-68.7896,-18.9459,4643.6914],[-68.7801,-18.9426,4585.9746],[-68.7722,-18.9407,4572.6299],[-68.7651,-18.9439,4554.0464],[-68.7629,-18.9483,4470.0547],[-68.7529,-18.9508,4563.7212],[-68.7439,-18.9597,4269.3721],[-68.735,-18.9636,4163.8467],[-68.7164,-18.9587,4129.1777],[-68.7103,-18.9605,4035.02],[-68.7031,-18.9653,4092.3657],[-68.6996,-18.9655,4102.3564],[-68.6934,-18.9694,4190.7754],[-68.6905,-18.9732,4251.5132],[-68.687,-18.9742,4268.5454],[-68.6876,-18.9561,4525.5449],[-68.6995,-18.947,4340.4111],[-68.7024,-18.9394,4183.4321],[-68.7026,-18.9299,4161.7969],[-68.7047,-18.9256,4180.8745],[-68.7188,-18.9212,4263.1079],[-68.7302,-18.9083,4489.8657],[-68.7325,-18.9028,4587.2959],[-68.7595,-18.9002,4644.2769],[-68.7718,-18.8958,4686.9512],[-68.7766,-18.8959,4728.4648],[-68.788,-18.9004,4957.3389],[-68.8106,-18.889,5106.1797],[-68.8161,-18.8939,5109.6377],[-68.8198,-18.9003,5259.2754],[-68.8224,-18.8945,5011.9336],[-68.8333,-18.8824,5146.5381],[-68.8316,-18.8757,5247.6177],[-68.8265,-18.8737,5189.3633],[-68.8143,-18.8743,5112.4512],[-68.8125,-18.8721,5015.5347],[-68.8084,-18.874,4918.6543],[-68.805,-18.8719,4956.2251],[-68.797,-18.8743,4883.7334],[-68.7902,-18.8717,4974.2534],[-68.7819,-18.8735,4980.439],[-68.776,-18.8692,4800.7402],[-68.7744,-18.8692,4782.4238],[-68.7715,-18.873,4759.3555],[-68.7641,-18.8731,4667.8623],[-68.7617,-18.8746,4657.8618],[-68.7505,-18.8723,4451.7949],[-68.7425,-18.8656,4343.9199],[-68.7406,-18.8608,4424.0273],[-68.73,-18.8545,4348.8613],[-68.7172,-18.8439,4264.8745],[-68.684,-18.8292,4160.3657],[-68.6799,-18.8323,4228.6831],[-68.6611,-18.8326,4414.3228],[-68.658,-18.8356,4302.25],[-68.6556,-18.8406,4293.6812],[-68.6543,-18.8495,4308.5469],[-68.6558,-18.8583,4222.8501],[-68.6539,-18.8622,4211.8555],[-68.65,-18.8642,4135.6812],[-68.6399,-18.8611,3933.9194],[-68.6325,-18.8614,3896.865],[-68.6206,-18.8537,3987.8647],[-68.6078,-18.8628,3834.217],[-68.6052,-18.8552,3825.0352],[-68.5991,-18.8476,3815.1941],[-68.5932,-18.8487,3837.1328],[-68.5905,-18.8556,4055.5669],[-68.5799,-18.8661,4187.8213],[-68.5808,-18.8732,4230.4551],[-68.5773,-18.8872,4364.1553],[-68.5781,-18.8929,4412.4023],[-68.5829,-18.8965,4414.3882],[-68.5837,-18.9017,4325.6885],[-68.5757,-18.9112,4403.4365],[-68.568,-18.9165,4395.1572],[-68.5677,-18.9321,4352.3506],[-68.5769,-18.9421,4324.293],[-68.5697,-18.9504,4126.6997],[-68.5748,-18.962,4184.8125],[-68.5717,-18.9725,4224.2559],[-68.5735,-18.9748,4183.7852],[-68.5822,-18.9766,4139.5161],[-68.5867,-18.9806,4105.5542],[-68.5916,-18.9926,4166.209],[-68.5966,-18.9963,4286.2686],[-68.5975,-19.0039,4295.7822],[-68.5915,-19.0149,3894.3853],[-68.5973,-19.0298,3802.4409],[-68.5991,-19.0495,3831.8384],[-68.5957,-19.0553,3999.5234],[-68.6028,-19.0547,3939.6626],[-68.6197,-19.1216,5140.1709],[-68.6178,-19.1308,5457.0264],[-68.6269,-19.1316,5263.147],[-68.6348,-19.1374,5419.0605],[-68.6382,-19.1442,5429.7959],[-68.6506,-19.1439,5450.894],[-68.6689,-19.1404,5442.4629],[-68.6898,-19.1463,5550.3906],[-68.6981,-19.1461,5833.6802],[-68.7131,-19.1702,4755.8169],[-68.6283,-19.251,3772.4058],[-68.6197,-19.2765,3696.6499],[-68.5428,-19.2967,3668.5549],[-68.4495,-19.3701,3657.2554],[-68.4049,-19.4162,3656.5],[-68.4126,-19.4219,3743.9136],[-68.4124,-19.431,3743.0483],[-68.4258,-19.4355,3656.5],[-68.4115,-19.4399,3656.5],[-68.4128,-19.4507,3706.7434],[-68.4069,-19.4621,3662.4304],[-68.4046,-19.4639,3659.2417],[-68.4042,-19.471,3656.5],[-68.3975,-19.4743,3656.5],[-68.3972,-19.4786,3657.4614],[-68.3946,-19.4821,3656.5],[-68.3756,-19.501,3656.5],[-68.3686,-19.504,3656.5],[-68.351,-19.5204,3657.0454],[-68.3463,-19.5184,3656.5],[-68.3435,-19.5213,3656.5],[-68.339,-19.516,3656.5],[-68.3315,-19.5157,3656.5],[-68.3218,-19.5184,3656.5],[-68.3108,-19.5255,3656.5],[-68.2945,-19.5263,3656.5],[-68.2924,-19.5237,3656.5],[-68.2906,-19.5242,3656.5],[-68.2911,-19.5267,3656.5],[-68.2877,-19.5302,3656.5],[-68.2873,-19.5346,3656.5],[-68.2964,-19.5418,3656.5],[-68.294,-19.5463,3656.5],[-68.285,-19.5504,3656.5],[-68.274,-19.5518,3656.5],[-68.2621,-19.5564,3656.5],[-68.2609,-19.559,3656.5],[-68.256,-19.5615,3656.5],[-68.2451,-19.5628,3656.5],[-68.2371,-19.5665,3656.5],[-68.2344,-19.5713,3656.5],[-68.2308,-19.573,3656.5],[-68.2326,-19.5751,3656.5],[-68.2296,-19.5789,3656.5],[-68.2252,-19.5807,3656.5],[-68.2246,-19.5785,3656.5],[-68.2211,-19.5835,3656.5],[-68.218,-19.5821,3656.5],[-68.2161,-19.5835,3656.5],[-68.2122,-19.5827,3656.5],[-68.2116,-19.5847,3656.5],[-68.2072,-19.5826,3656.5],[-68.2069,-19.5875,3656.5],[-68.2022,-19.5899,3656.5],[-68.1985,-19.5964,3656.5],[-68.1777,-19.5986,3656.5],[-68.1757,-19.5999,3656.5],[-68.1658,-19.6117,3656.5],[-68.167,-19.6143,3656.5],[-68.1555,-19.6108,3656.5],[-68.1447,-19.604,3656.5],[-68.1299,-19.6021,3656.5],[-68.1255,-19.5995,3656.5],[-68.1253,-19.597,3656.5],[-68.1153,-19.5962,3656.5],[-68.1135,-19.594,3656.5],[-68.1153,-19.59,3657.9641],[-68.1101,-19.5903,3656.5],[-68.1093,-19.588,3656.8838],[-68.1073,-19.588,3658.0161],[-68.0992,-19.5918,3656.5],[-68.095,-19.5905,3656.5],[-68.089,-19.5775,3657.0059],[-68.0758,-19.5628,3656.5],[-68.0749,-19.5599,3656.5],[-68.0724,-19.5599,3656.5],[-68.0668,-19.5547,3656.5],[-68.0637,-19.5483,3656.5],[-68.0568,-19.5402,3656.5],[-68.046,-19.5368,3656.9185],[-68.0241,-19.5342,3656.5],[-68.0216,-19.5307,3656.5],[-68.0263,-19.5293,3656.9888],[-68.0258,-19.5279,3656.8037],[-68.0201,-19.5278,3656.5],[-68.0057,-19.5225,3656.5],[-68.0036,-19.5229,3656.5],[-68.0016,-19.3002,3656.5],[-68.008,-19.2955,3656.5],[-68.0031,-19.2904,3656.5],[-68.001,-19.2846,3656.5],[-68.002,-19.2709,3656.5],[-68.0009,-19.2653,3656.5],[-68.0025,-19.2567,3656.5],[-68.0008,-19.2503,3656.5],[-68.0037,-19.2471,3656.5],[-68.0068,-19.2396,3656.5],[-68.0054,-19.2267,3656.5],[-68.002,-19.2211,3656.5],[-68.0011,-19.2148,3656.5],[-67.993,-19.1957,3656.5],[-67.9977,-19.1971,3656.5],[-67.994,-19.19,3656.5],[-67.9994,-19.193,3656.5],[-68.0025,-19.19,3656.5],[-68.0042,-19.1847,3656.5],[-68.0156,-19.1775,3656.5],[-68.0204,-19.1704,3656.5],[-68.0214,-19.1629,3656.8782],[-68.0241,-19.1603,3656.5],[-68.0252,-19.1554,3659.1077],[-68.0347,-19.1538,3658.9387],[-68.0351,-19.1523,3658.9893],[-68.0317,-19.1496,3657.7959],[-68.0384,-19.1471,3658.854],[-68.0394,-19.1427,3658.9778],[-68.0422,-19.1418,3659.0078],[-68.0414,-19.1396,3659.0767],[-68.0343,-19.1345,3659.0479],[-68.0308,-19.1246,3659.1377],[-68.0241,-19.1223,3659.2903]]]]}}