{"type":"Feature","properties":{"GID_2":"BOL.5.1_2","GID_0":"BOL","country":"Bolivia","GID_1":"BOL.5_1","province":"Oruro","NL_NAME_1":"NA","county":"Abaroa","VARNAME_2":"NA","NL_NAME_2":"NA","TYPE_2":"Provincia","ENGTYPE_2":"Province","CC_2":"NA","HASC_2":"NA","name":"Abaroa.county"},
"geometry":{"type": "MultiPolygon","coordinates": [[[[-66.5458,-19.3862,4982.1992],[-66.5021,-19.3599,4617.4473],[-66.5329,-19.3364,4367.6201],[-66.5392,-19.3335,4361.627],[-66.5583,-19.3268,4345.7002],[-66.5627,-19.3324,4347.7441],[-66.5688,-19.3342,4346.5952],[-66.5824,-19.3231,4792.7339],[-66.6101,-19.3155,4599.3359],[-66.6227,-19.3191,4624.5283],[-66.6511,-19.3322,4569.8721],[-66.6677,-19.328,4495.9893],[-66.6893,-19.3161,4181.1206],[-66.6941,-19.3162,4153.4092],[-66.6945,-19.3128,4148.9683],[-66.7007,-19.3113,4110.6621],[-66.7076,-19.3117,3990.3809],[-66.7103,-19.3085,3985.1716],[-66.7217,-19.3028,3896.843],[-66.7291,-19.3011,3857.3259],[-66.7485,-19.2891,3744.4543],[-66.7638,-19.288,3736.498],[-66.7682,-19.2837,3734.2864],[-66.7786,-19.2784,3730.3486],[-66.7795,-19.2743,3728.5637],[-66.7819,-19.2722,3728.1777],[-66.812,-19.2599,3718.6973],[-66.8225,-19.2381,3712.1448],[-66.81,-19.1872,3704.749],[-66.8291,-19.171,3698.8506],[-66.8687,-19.159,3692.4526],[-66.9205,-19.1395,3685.5],[-66.92,-19.1381,3685.5],[-66.9151,-19.1381,3685.5],[-66.9042,-19.1219,3685.5],[-66.9272,-19.0993,3685.5],[-66.9744,-19.0949,3685.5],[-67.0171,-19.172,3687.6123],[-67.0149,-19.1725,3687.5874],[-67.015,-19.1749,3687.8882],[-67.0251,-19.1877,3690.2466],[-67.0251,-19.1902,3690.6787],[-67.0225,-19.1898,3690.7061],[-67.0197,-19.1862,3689.8896],[-67.0153,-19.1842,3689.032],[-67.0171,-19.1949,3690.7495],[-67.0161,-19.1963,3691.2188],[-67.0137,-19.1954,3690.8367],[-67.0139,-19.2168,3694.3127],[-67.0084,-19.2269,3695.7764],[-67.0143,-19.2365,3699.2048],[-67.0094,-19.2451,3700.6018],[-67.0086,-19.2527,3702.6177],[-67.0157,-19.2585,3701.8896],[-67.0152,-19.263,3702.7266],[-67.0016,-19.2759,3706.9629],[-66.9922,-19.2812,3708.8833],[-66.989,-19.2871,3709.9514],[-66.9894,-19.2947,3711.4238],[-66.9929,-19.3049,3714.3738],[-66.9925,-19.3196,3717.1746],[-66.9947,-19.3253,3715.5498],[-66.9931,-19.3314,3717.5923],[-66.9943,-19.3372,3718.603],[-66.9884,-19.3416,3718.8953],[-66.9874,-19.3442,3719.4878],[-66.9907,-19.3552,3723.2024],[-67.0012,-19.3681,3733.6431],[-67.0025,-19.3793,3726.5977],[-66.9962,-19.3798,3733.0518],[-66.9865,-19.3735,3733.0439],[-66.9751,-19.3708,3730.2969],[-66.9601,-19.368,3728.7595],[-66.9522,-19.3696,3731.502],[-66.9482,-19.3727,3733.9434],[-66.948,-19.3774,3737.459],[-66.9396,-19.3783,3743.2993],[-66.9373,-19.3821,3744.2251],[-66.927,-19.3887,3755.1289],[-66.923,-19.3934,3762.9658],[-66.914,-19.3977,3843.8928],[-66.9011,-19.4077,3764.6353],[-66.8917,-19.4096,3748.9146],[-66.886,-19.4134,3751.9927],[-66.8817,-19.4136,3747.4199],[-66.8809,-19.422,3747.521],[-66.8772,-19.4243,3754.6091],[-66.877,-19.4274,3749.0723],[-66.8734,-19.4303,3749.9927],[-66.8715,-19.4364,3751.7578],[-66.8641,-19.439,3753.0791],[-66.8566,-19.4474,3755.2358],[-66.8494,-19.4477,3760.6655],[-66.8452,-19.4547,3759.6355],[-66.8231,-19.455,3763.9966],[-66.8144,-19.4494,3765.9175],[-66.8073,-19.4502,3800.4998],[-66.8024,-19.4473,3773.822],[-66.802,-19.4429,3790.4475],[-66.7966,-19.4418,3805.2349],[-66.7932,-19.4364,3787.9966],[-66.7893,-19.4356,3794.8018],[-66.7882,-19.4335,3789.51],[-66.7696,-19.4297,3819.6313],[-66.7616,-19.43,3854.376],[-66.7546,-19.4274,3858.7793],[-66.7521,-19.4273,3876.4966],[-66.7533,-19.4314,3893.771],[-66.7503,-19.4369,3960.2917],[-66.7452,-19.4355,3998.7275],[-66.7413,-19.4369,4067.1545],[-66.7349,-19.4293,4136.3877],[-66.7318,-19.4299,4088.9014],[-66.7264,-19.4373,4030.8196],[-66.7173,-19.4409,4125.2246],[-66.7089,-19.4463,4039.0518],[-66.6998,-19.4484,4126.4453],[-66.68,-19.4444,4166.854],[-66.669,-19.4342,4178.9854],[-66.6621,-19.4302,4203.5562],[-66.6588,-19.4305,4300.8691],[-66.6577,-19.4326,4316.6523],[-66.6546,-19.4323,4365.731],[-66.6391,-19.4273,4425.1968],[-66.6214,-19.4256,4497.9229],[-66.6104,-19.4273,4580.5391],[-66.5943,-19.4271,4696.5781],[-66.5906,-19.4262,4735.5205],[-66.584,-19.421,4833.7314],[-66.5756,-19.4013,5164.2837],[-66.5635,-19.3987,4864.1899],[-66.5573,-19.3956,4862.2568],[-66.5458,-19.3862,4982.1992]]],
[[[-66.4373,-18.7085,3569.4402],[-66.4428,-18.7016,3571.0151],[-66.446,-18.7044,3592.2573],[-66.4482,-18.7038,3595.689],[-66.4623,-18.7087,3731.7869],[-66.4708,-18.7194,4234.8721],[-66.4749,-18.7315,4357.0049],[-66.4782,-18.7518,4360.9897],[-66.4775,-18.7613,4293.5],[-66.4831,-18.7697,4042.637],[-66.4997,-18.7873,4515.5562],[-66.5025,-18.7881,4567.3506],[-66.5218,-18.7823,4512.1836],[-66.5292,-18.7778,4604.2358],[-66.5321,-18.7737,4521.0894],[-66.5372,-18.7491,4492.8975],[-66.5382,-18.7368,4445.3301],[-66.537,-18.721,4533.8516],[-66.5557,-18.7191,4247.3984],[-66.5621,-18.7167,4179.5527],[-66.5648,-18.7182,4100.3369],[-66.5762,-18.7144,4500.8774],[-66.5764,-18.7075,4558.8379],[-66.5775,-18.706,4566.3921],[-66.5796,-18.7066,4488.0801],[-66.5813,-18.7028,4439.0508],[-66.5886,-18.6958,4159.4561],[-66.5978,-18.6978,4041.2195],[-66.6002,-18.696,4005.9395],[-66.6019,-18.6942,4015.5544],[-66.5949,-18.687,4338.5264],[-66.5959,-18.6842,4334.2622],[-66.5948,-18.679,4142.3428],[-66.5956,-18.6745,4327.1592],[-66.6006,-18.6662,4404.0625],[-66.6052,-18.6668,4302.5234],[-66.6049,-18.6628,4325.7075],[-66.6119,-18.66,4239.7979],[-66.6069,-18.6506,4408.3799],[-66.6179,-18.6456,4246.8149],[-66.632,-18.6491,4094.0164],[-66.6358,-18.6459,4074.1626],[-66.6442,-18.6303,4103.7812],[-66.6463,-18.6148,4133.1353],[-66.6407,-18.6118,4222.9009],[-66.6395,-18.5988,4194.6309],[-66.6423,-18.5896,4177.8872],[-66.6499,-18.5781,4158.0283],[-66.6509,-18.573,4157.2339],[-66.6576,-18.5673,4168.5586],[-66.6578,-18.5481,4192.9219],[-66.6628,-18.541,4208.5396],[-66.6644,-18.5354,4218.9839],[-66.6631,-18.5329,4223.8398],[-66.6661,-18.5211,4286.9512],[-66.6715,-18.515,4362.626],[-66.6755,-18.5046,4391.541],[-66.6814,-18.5012,4334.8022],[-66.6811,-18.4928,4515.1543],[-66.6831,-18.4825,4428.959],[-66.6896,-18.4872,4381.5674],[-66.6928,-18.4936,4334.1934],[-66.6979,-18.4936,4360.5083],[-66.7082,-18.4996,4617.0186],[-66.7016,-18.5082,4679.8418],[-66.7016,-18.5128,4649.46],[-66.7163,-18.5235,4774.9961],[-66.706,-18.5462,4612.1895],[-66.7028,-18.5587,4512.7109],[-66.6994,-18.5627,4540.2871],[-66.6976,-18.5741,4570.3999],[-66.6993,-18.5792,4586.1943],[-66.6962,-18.5835,4589.1533],[-66.6958,-18.5871,4575.9209],[-66.6997,-18.5911,4577.4395],[-66.7141,-18.5976,4656.0986],[-66.7198,-18.6041,4562.1191],[-66.7254,-18.6176,4430.5928],[-66.7248,-18.6225,4394.3032],[-66.7212,-18.6272,4320.6387],[-66.7219,-18.6382,4395.4541],[-66.7183,-18.6428,4358.1543],[-66.7175,-18.6539,4408.7617],[-66.7147,-18.6583,4430.2896],[-66.7117,-18.6788,4382.0176],[-66.7143,-18.681,4394.9229],[-66.7227,-18.682,4276.377],[-66.727,-18.6922,4161.2397],[-66.7271,-18.7053,4032.5303],[-66.73,-18.7275,4107.7876],[-66.7229,-18.752,3789.2456],[-66.7293,-18.753,3777.4031],[-66.7378,-18.7587,3753.6113],[-66.7493,-18.7737,3733.9028],[-66.7504,-18.7816,3729.5869],[-66.7541,-18.7886,3730.312],[-66.7631,-18.7861,3724.4937],[-66.7659,-18.7898,3723.6372],[-66.7683,-18.7892,3720.8555],[-66.7688,-18.7904,3720.2935],[-66.7895,-18.7911,3714.4302],[-66.8079,-18.7816,3714.188],[-66.8174,-18.7673,3713.3298],[-66.8092,-18.7574,3757.4563],[-66.8098,-18.7484,4184.041],[-66.807,-18.7395,4259.7905],[-66.8082,-18.7321,4296.6431],[-66.8159,-18.7162,4347.2852],[-66.8154,-18.7094,4381.498],[-66.8125,-18.7033,4371.0439],[-66.8172,-18.6939,4282.6509],[-66.8173,-18.6866,4001.6433],[-66.8287,-18.6832,3815.6157],[-66.8439,-18.6842,3748.0737],[-66.8564,-18.683,3871.3145],[-66.8578,-18.6826,3924.9055],[-66.8604,-18.6764,3982.7844],[-66.8661,-18.6757,3818.428],[-66.8695,-18.6717,3772.0938],[-66.8772,-18.6675,3720.6997],[-66.8982,-18.6689,3714.6504],[-66.9039,-18.6633,3745.5247],[-66.9137,-18.6666,3812.563],[-66.9249,-18.6678,3690.3547],[-67.0041,-18.7155,3685.5],[-67.0047,-18.7134,3685.5],[-67.0878,-18.744,3685.5],[-67.0825,-18.7448,3685.5],[-67.0096,-18.883,3685.5],[-66.9913,-18.9738,3685.5],[-66.8722,-18.9624,3685.5],[-66.8636,-18.9716,3685.5],[-66.7972,-18.9693,3702.6736],[-66.7768,-18.962,3741.9907],[-66.7481,-18.9705,4533.291],[-66.7385,-18.9679,4691.8145],[-66.7307,-18.9695,4819.2603],[-66.7167,-18.9672,4824.041],[-66.7087,-18.9609,4967.3496],[-66.7034,-18.949,4912.2378],[-66.6965,-18.9488,5027.6191],[-66.694,-18.9519,4926.3853],[-66.691,-18.9516,4890.2197],[-66.6875,-18.9468,4901.5234],[-66.6847,-18.9476,4840.4102],[-66.6783,-18.9444,4849.6279],[-66.6679,-18.9458,4936.1494],[-66.6596,-18.9506,4875.5923],[-66.6352,-18.9409,4952.021],[-66.615,-18.9473,4658.7793],[-66.5966,-18.9458,4473.7329],[-66.589,-18.9434,4270.4565],[-66.5779,-18.9466,4114.1123],[-66.5678,-18.942,4021.2642],[-66.5624,-18.9332,3990.9297],[-66.5613,-18.9354,3987.6875],[-66.5554,-18.9344,4003.1763],[-66.5521,-18.9373,3992.8159],[-66.5182,-18.9266,3999.5391],[-66.5178,-18.9222,4004.8391],[-66.5232,-18.9149,4130.8984],[-66.5255,-18.9036,4135.2598],[-66.5142,-18.8903,4269.3418],[-66.5132,-18.8871,4267.4233],[-66.5142,-18.8824,4361.625],[-66.503,-18.8726,4383.8228],[-66.4974,-18.8635,4421.2539],[-66.4934,-18.8641,4424.3008],[-66.4879,-18.875,4380.0708],[-66.4823,-18.9108,4276.8667],[-66.4532,-18.9171,4626.0107],[-66.4508,-18.9205,4626.6377],[-66.4514,-18.9274,4543.8662],[-66.4443,-18.9568,4736.2842],[-66.4451,-18.9668,4812.1343],[-66.4495,-18.9756,4644.3628],[-66.4428,-18.9948,4556.4404],[-66.432,-18.999,4703.165],[-66.427,-19.0043,4810.4658],[-66.4204,-19.0055,4821.4146],[-66.4138,-19.0093,4897.8604],[-66.4058,-19.0086,4957.292],[-66.4009,-19.012,5000.7461],[-66.4197,-19.0261,4614.7817],[-66.4226,-19.0317,4601.6475],[-66.4353,-19.0441,4400.2383],[-66.4534,-19.0559,4214.6963],[-66.4546,-19.064,4190.1885],[-66.4542,-19.0707,4188.894],[-66.4099,-19.1371,4204.6816],[-66.396,-19.1428,4128.3481],[-66.3785,-19.14,4089.5366],[-66.3735,-19.1415,4092.4355],[-66.3592,-19.1656,4108.8232],[-66.3591,-19.1723,4075.6675],[-66.3457,-19.176,4045.019],[-66.3253,-19.1671,4060.8823],[-66.2897,-19.1629,4224.1841],[-66.2637,-19.1782,4187.7671],[-66.2536,-19.1758,4155.6475],[-66.2429,-19.1937,4205.7236],[-66.2435,-19.2055,4175.8184],[-66.2367,-19.2087,4225.7129],[-66.1879,-19.2168,3944.8713],[-66.1889,-19.2421,4009.5112],[-66.1788,-19.2418,3858.9014],[-66.1718,-19.2377,3832.689],[-66.1645,-19.2364,3773.9136],[-66.1614,-19.2337,3792.6433],[-66.153,-19.2341,3828.386],[-66.1507,-19.2389,3881.4436],[-66.146,-19.2394,3920.2598],[-66.1391,-19.2453,4014.0442],[-66.1301,-19.2456,4130.127],[-66.13,-19.2431,4152.3511],[-66.1253,-19.2373,4234.415],[-66.1295,-19.2226,4246.3506],[-66.1291,-19.2189,4249.8008],[-66.1256,-19.2156,4298.7275],[-66.1242,-19.2083,4277.291],[-66.1189,-19.1969,4234.6455],[-66.1141,-19.1902,4226.4951],[-66.1041,-19.1812,4048.967],[-66.1007,-19.1745,4113.6016],[-66.1127,-19.157,4180.8809],[-66.1127,-19.15,4123.188],[-66.103,-19.14,4163.5439],[-66.099,-19.1291,4453.6294],[-66.1028,-19.1208,4595.9414],[-66.093,-19.1057,4207.5283],[-66.0914,-19.1039,4182.6768],[-66.0872,-19.1034,4165.6958],[-66.0861,-19.0998,4179.8813],[-66.0908,-19.0923,4408.6416],[-66.093,-19.0851,4475.5161],[-66.102,-19.0859,4576.8496],[-66.106,-19.0847,4612.3916],[-66.1063,-19.0765,4502.6211],[-66.1148,-19.0703,4437.6611],[-66.1204,-19.0618,4236.5659],[-66.125,-19.0593,4167.9087],[-66.13,-19.0536,4066.6831],[-66.1353,-19.0541,3865.0273],[-66.1529,-19.0307,4063.0029],[-66.1719,-19.0199,4043.5815],[-66.1762,-19.0207,4041.8696],[-66.1791,-18.9906,3947.666],[-66.1811,-18.9866,3918.2729],[-66.1839,-18.9849,3916.7087],[-66.1839,-18.9822,3935.7366],[-66.1882,-18.9827,3949.7876],[-66.1934,-18.9867,4011.5898],[-66.1983,-18.987,4063.3665],[-66.2034,-18.9909,4100.8535],[-66.2123,-18.9946,4263.9487],[-66.2152,-18.9938,4326.8965],[-66.2214,-18.996,4407.1777],[-66.2252,-18.9942,4473.8281],[-66.2281,-18.9949,4511.0254],[-66.2415,-19.0052,4568.0444],[-66.2485,-19.0082,4478.229],[-66.2689,-19.0089,4650.1245],[-66.2817,-19.0148,4744.6738],[-66.2951,-18.9961,4714.6074],[-66.3017,-18.9906,4741.4399],[-66.2985,-18.9707,4794.8896],[-66.3017,-18.9478,4685.5591],[-66.3018,-18.9333,4680.2373],[-66.3132,-18.9217,4619.1621],[-66.3113,-18.9096,4635.6919],[-66.3158,-18.8991,4505.7051],[-66.3201,-18.8959,4453.0981],[-66.3221,-18.8848,4435.3218],[-66.3305,-18.8675,4476.4502],[-66.33,-18.8628,4468.748],[-66.3331,-18.8524,4469.6841],[-66.3429,-18.8297,4372.9683],[-66.3417,-18.8231,4407.1743],[-66.3461,-18.81,4264.4717],[-66.3512,-18.8039,4141.1338],[-66.3524,-18.7922,4189.1211],[-66.3644,-18.7653,4176.5981],[-66.3743,-18.752,4239.5723],[-66.3775,-18.7409,4199.5024],[-66.3923,-18.717,4031.7458],[-66.3982,-18.7128,4062.918],[-66.4101,-18.7124,3863.8887],[-66.4133,-18.7077,3882.5356],[-66.4233,-18.7097,3622.4121],[-66.4235,-18.7078,3559.2886],[-66.428,-18.7042,3539.3267],[-66.4298,-18.7066,3543.4028],[-66.4373,-18.7085,3569.4402]]]]}}