{"type":"Feature","properties":{"GID_3":"BOL.4.10.6_2","GID_0":"BOL","country":"Bolivia","GID_1":"BOL.4_1","province":"LaPaz","NL_NAME_1":"NA","GID_2":"BOL.4.10_2","county":"Ingavi","NL_NAME_2":"NA","city":"Taraco","VARNAME_3":"NA","NL_NAME_3":"NA","TYPE_3":"District","ENGTYPE_3":"Distrito","CC_3":"NA","HASC_3":"NA","name":"Taraco.city"},
"geometry":{"type": "MultiPolygon","coordinates": [[[[-68.8223,-16.5286,3813.8115],[-68.8093,-16.5393,3814.302],[-68.799,-16.5388,3815.4878],[-68.7967,-16.5365,3815.165],[-68.8011,-16.5236,3814.6394],[-68.8043,-16.5203,3814.4783],[-68.807,-16.5197,3814.3657],[-68.7852,-16.4649,3997.3896],[-68.7888,-16.4263,3812.3665],[-68.791,-16.4259,3811.2598],[-68.7926,-16.4282,3812.0273],[-68.797,-16.4292,3811.3457],[-68.8007,-16.4259,3811.9092],[-68.8021,-16.4194,3809.8875],[-68.8075,-16.4239,3812.165],[-68.8099,-16.4233,3810.9695],[-68.8124,-16.4251,3811.9854],[-68.8205,-16.4225,3810.7959],[-68.8211,-16.4238,3811.6892],[-68.8215,-16.4221,3810.7959],[-68.824,-16.4215,3811.8928],[-68.8255,-16.4225,3811.5791],[-68.8254,-16.4246,3812.7434],[-68.8315,-16.4252,3812.0972],[-68.8337,-16.4233,3810.9573],[-68.839,-16.4273,3811.6553],[-68.8417,-16.4261,3808.939],[-68.8465,-16.4284,3812.4441],[-68.8516,-16.4265,3812.2783],[-68.8585,-16.4281,3813.2236],[-68.8593,-16.4255,3811.7314],[-68.8688,-16.4243,3808.5],[-68.8702,-16.4264,3812.7988],[-68.8746,-16.4274,3811.8784],[-68.8806,-16.4254,3812.1929],[-68.8824,-16.4232,3810.7383],[-68.8838,-16.4258,3812.24],[-68.8952,-16.4289,3812.4724],[-68.8998,-16.4285,3812.1018],[-68.9042,-16.4322,3815.2063],[-68.9076,-16.4331,3813.2461],[-68.9098,-16.4318,3810.2285],[-68.9148,-16.4347,3813.6885],[-68.9226,-16.4344,3808.5],[-68.9249,-16.4295,3808.5],[-68.9304,-16.4301,3814.5508],[-68.9462,-16.4371,3811.5879],[-68.9529,-16.4448,3810.2114],[-68.9537,-16.4474,3811.9333],[-68.9521,-16.4484,3809.0056],[-68.9519,-16.4447,3810.2114],[-68.9491,-16.4414,3811.7886],[-68.9477,-16.4465,3814.707],[-68.9504,-16.4586,3809.9221],[-68.9529,-16.4617,3809.8679],[-68.9524,-16.4643,3809.749],[-68.9556,-16.4698,3822.0972],[-68.9583,-16.4704,3808.5],[-68.9563,-16.4719,3812.9543],[-68.943,-16.4741,3811.7126],[-68.9309,-16.4726,3813.1555],[-68.9291,-16.4749,3809.3716],[-68.9207,-16.472,3812.002],[-68.912,-16.4737,3811.5908],[-68.8987,-16.4714,3811.9482],[-68.8976,-16.473,3809.8928],[-68.8963,-16.4696,3811.5474],[-68.8941,-16.47,3810.8389],[-68.8917,-16.4679,3811.5891],[-68.8819,-16.468,3810.0669],[-68.8659,-16.4765,3810.4434],[-68.8544,-16.4776,3808.5],[-68.8502,-16.479,3808.5],[-68.8481,-16.4818,3808.5],[-68.8459,-16.4809,3809.2715],[-68.8419,-16.4872,3808.5],[-68.8358,-16.4887,3808.5],[-68.8264,-16.4877,3808.5],[-68.8236,-16.4917,3810.6182],[-68.8297,-16.492,3808.5],[-68.8241,-16.4941,3811.561],[-68.8286,-16.4973,3809.3008],[-68.8288,-16.4945,3808.5],[-68.8309,-16.494,3808.5],[-68.8324,-16.4973,3808.5],[-68.8312,-16.4972,3808.5],[-68.8308,-16.4996,3811.8555],[-68.8335,-16.5007,3808.5],[-68.8318,-16.5037,3812.1782],[-68.835,-16.5052,3809.3564],[-68.84,-16.5151,3810.208],[-68.8363,-16.5204,3812.0591],[-68.8349,-16.5268,3812.2002],[-68.8289,-16.5266,3812.7454],[-68.8271,-16.5249,3812.9417],[-68.8232,-16.5266,3813.8601],[-68.8223,-16.5286,3813.8115]]],
[[[-68.7717,-16.3694,3811.2422],[-68.7741,-16.3704,3808.5],[-68.7737,-16.3726,3808.5],[-68.7666,-16.374,3811.1768],[-68.7671,-16.3715,3814.0127],[-68.7717,-16.3694,3811.2422]]]]}}