{"type":"Feature","properties":{"GID_2":"BOL.5.12_2","GID_0":"BOL","country":"Bolivia","GID_1":"BOL.5_1","province":"Oruro","NL_NAME_1":"NA","county":"SanPedrodeTotora","VARNAME_2":"NA","NL_NAME_2":"NA","TYPE_2":"Provincia","ENGTYPE_2":"Province","CC_2":"NA","HASC_2":"NA","name":"San_Pedrode_Totora.county"},
"geometry":{"type": "MultiPolygon","coordinates": [[[[-68.2894,-17.6152,3819.875],[-68.2917,-17.6203,3825.2964],[-68.2906,-17.6252,3832.9976],[-68.294,-17.6264,3831.0364],[-68.2952,-17.6293,3833.5039],[-68.2955,-17.6323,3834.262],[-68.2938,-17.633,3836.7329],[-68.2945,-17.6386,3839.9648],[-68.2983,-17.6408,3842.4844],[-68.2995,-17.6478,3858.7468],[-68.3066,-17.6482,3860.3674],[-68.319,-17.6535,3885.6392],[-68.3423,-17.6743,4003.5564],[-68.3475,-17.6974,3922.501],[-68.3439,-17.7475,3859.3989],[-68.335,-17.752,3861.5107],[-68.3324,-17.7567,3863.085],[-68.3263,-17.7582,3877.5786],[-68.3209,-17.7651,3867.9609],[-68.3332,-17.7758,3917.916],[-68.3332,-17.7809,3935.4534],[-68.3298,-17.7869,3906.7129],[-68.339,-17.7898,3887.9844],[-68.3414,-17.792,3882.7253],[-68.337,-17.7944,3890.1584],[-68.3387,-17.798,3888.2988],[-68.3382,-17.8022,3891.6479],[-68.3409,-17.8044,3880.7144],[-68.3387,-17.8084,3882.5691],[-68.3347,-17.8091,3883.4148],[-68.3335,-17.8138,3885.9348],[-68.3378,-17.8222,3884.7161],[-68.3394,-17.8297,3893.5938],[-68.3457,-17.8373,3949.0825],[-68.3472,-17.8463,4009.9668],[-68.3381,-17.8588,4127.1396],[-68.341,-17.8688,3942.9602],[-68.347,-17.8809,4078.2412],[-68.341,-17.9055,4012.8013],[-68.3422,-17.9109,4002.0547],[-68.3439,-17.9132,4012.3354],[-68.3483,-17.9136,4005.1606],[-68.3494,-17.9188,4008.9009],[-68.3519,-17.9215,4009.5928],[-68.351,-17.9298,4040.1433],[-68.3532,-17.9315,4018.0791],[-68.3541,-17.9374,4033.9189],[-68.3493,-17.9471,4041.9248],[-68.3528,-17.9583,4093.1934],[-68.3493,-17.9671,4070.6699],[-68.3496,-17.9722,4080.0337],[-68.3441,-17.9737,4087.5847],[-68.3344,-17.9708,4122.2637],[-68.3262,-17.9725,4148.6831],[-68.3233,-17.976,4089.3992],[-68.3149,-17.9774,4066.646],[-68.3122,-17.9847,4070.3125],[-68.3153,-18.0084,4127.2041],[-68.3116,-18.0286,4157.5161],[-68.3234,-18.056,4735.375],[-68.329,-18.0583,4774.376],[-68.326,-18.07,4822.2969],[-68.2708,-18.0291,4255.6543],[-68.2625,-18.021,4226.5054],[-68.2602,-18.0238,4245.7798],[-68.2539,-18.0259,4257.4287],[-68.237,-18.0282,4447.5103],[-68.2133,-18.0162,4277.8203],[-68.2102,-18.0165,4226.873],[-68.2058,-18.01,4397.541],[-68.1827,-18.0194,4293.4961],[-68.1789,-18.0195,4172.7446],[-68.1769,-18.0174,4105.5605],[-68.163,-18.0216,4237.7432],[-68.1595,-18.0257,4248.6382],[-68.1543,-18.0375,4415.3901],[-68.1294,-18.0271,4118.9126],[-68.124,-18.0335,4103.2114],[-68.1124,-18.0426,4078.7517],[-68.1086,-18.0427,4064.3506],[-68.0993,-18.0411,4048.229],[-68.0859,-18.0321,3936.1221],[-68.0656,-18.0338,3938.6377],[-68.0588,-18.0309,3920.3345],[-68.0513,-18.0313,3920.4709],[-68.0438,-18.0231,3972.4539],[-68.0155,-18.015,3902.303],[-68.0026,-18.0132,3883.7383],[-67.9799,-17.9967,4044.3477],[-67.9812,-17.9891,4061.9905],[-67.9862,-17.9793,4008.5315],[-67.9818,-17.9772,3994.4768],[-67.9815,-17.9753,3987.1519],[-67.9763,-17.9716,3971.9153],[-67.9718,-17.9716,3957.9058],[-67.9624,-17.9659,3931.4688],[-67.9518,-17.9642,3915.1438],[-67.9384,-17.9535,3954.8267],[-67.9452,-17.9468,3961.52],[-67.9621,-17.9476,3933.0554],[-67.9637,-17.9413,3935.5713],[-67.963,-17.9377,3943.813],[-67.9504,-17.9237,4106.4707],[-67.959,-17.9169,4087.7778],[-67.972,-17.9131,4079.1001],[-67.9825,-17.9057,4013.5815],[-68.0073,-17.9009,3928.1987],[-68.005,-17.8986,3931.0715],[-68.0064,-17.8958,3935.5703],[-68.0092,-17.8962,3934.2839],[-68.0112,-17.8943,3935.3057],[-68.0091,-17.8904,3948.1855],[-68.0121,-17.8867,3950.9951],[-68.0085,-17.8651,4383.4062],[-68.0167,-17.8571,4325.0815],[-68.0344,-17.847,4126.623],[-68.0375,-17.8279,4212.4819],[-68.0418,-17.8211,4124.2124],[-68.0454,-17.8198,4070.8445],[-68.0452,-17.8172,4054.9583],[-68.051,-17.812,4039.011],[-68.0563,-17.7982,4085.6536],[-68.0553,-17.783,4134.54],[-68.0511,-17.7746,4298.9336],[-68.041,-17.7737,4041.1401],[-68.0383,-17.7673,3968.3494],[-68.0325,-17.7634,3907.7607],[-68.0281,-17.7571,3902.8352],[-68.0193,-17.7527,3874.2593],[-68.0157,-17.7481,3865.521],[-68.0003,-17.7411,3836.2385],[-68.0164,-17.7328,3878.5669],[-68.0548,-17.7179,3896.0986],[-68.074,-17.7187,3933.6855],[-68.0853,-17.7152,3946.9243],[-68.1001,-17.6991,3919.8857],[-68.1373,-17.6761,4161.8311],[-68.1435,-17.6687,4096.667],[-68.1905,-17.6546,3950.7153],[-68.1905,-17.6581,3908.0442],[-68.1888,-17.6594,3908.0442],[-68.1901,-17.6632,3901.5933],[-68.1983,-17.6648,3884.252],[-68.201,-17.6684,3879.6978],[-68.2006,-17.6706,3875.6467],[-68.2033,-17.6714,3873.6357],[-68.2088,-17.6692,3869.6731],[-68.2123,-17.6634,3866.0022],[-68.2241,-17.6511,3858.9844],[-68.2275,-17.6491,3857.2432],[-68.2378,-17.6476,3852.3499],[-68.2512,-17.6388,3843.25],[-68.256,-17.6382,3842.2231],[-68.2625,-17.6419,3839.3401],[-68.2691,-17.6435,3834.8325],[-68.2764,-17.6286,3826.75],[-68.2894,-17.6152,3819.875]]]]}}