{"type": "Feature","bbox": [-67.2169,-18.7909,-66.7117,-18.4763],"geometry": {"type": "MultiPolygon","coordinates": [[[[-66.7175,-18.6539,4408.7617],[-66.7216,-18.6584,4259.6318],[-66.7322,-18.6555,4189.0166],[-66.7393,-18.6581,3991.4136],[-66.743,-18.6567,3970.7534],[-66.7603,-18.6594,3854.376],[-66.7732,-18.6521,3923.5928],[-66.8023,-18.6503,4405.1191],[-66.8,-18.6385,4419.3721],[-66.8019,-18.6347,4472.8369],[-66.7964,-18.6255,4361.9082],[-66.7862,-18.5925,4541.5747],[-66.7816,-18.5882,4498.7798],[-66.7814,-18.586,4486.9448],[-66.7815,-18.5801,4413.0083],[-66.7828,-18.5766,4357.8179],[-66.7862,-18.5741,4475.4316],[-66.7866,-18.5686,4512.6123],[-66.7896,-18.5657,4610.8047],[-66.79,-18.5627,4590.853],[-66.7946,-18.5556,4587.9927],[-66.8027,-18.5517,4476.5552],[-66.8052,-18.5485,4410.0464],[-66.8062,-18.5356,4481.0249],[-66.8076,-18.5302,4483.9868],[-66.8106,-18.5266,4470.2397],[-66.8096,-18.5132,4565.1426],[-66.8083,-18.5098,4593.5859],[-66.8062,-18.509,4589.3975],[-66.8061,-18.5039,4524.9756],[-66.8027,-18.499,4444.666],[-66.8013,-18.4925,4425.6274],[-66.8029,-18.4877,4451.9487],[-66.8102,-18.4887,4235.4966],[-66.816,-18.4939,4132.4062],[-66.8223,-18.4918,4065.8281],[-66.8255,-18.4946,4065.2668],[-66.8443,-18.4875,4153.1216],[-66.8597,-18.4838,4022.9487],[-66.8847,-18.4862,4522.5723],[-66.8873,-18.4829,4568.1025],[-66.8942,-18.4839,4527.7417],[-66.8988,-18.4787,4222.4248],[-66.9056,-18.4793,4103.3057],[-66.927,-18.4763,4459.498],[-66.9322,-18.4822,4492.7158],[-66.9329,-18.4905,4479.6699],[-66.9245,-18.4954,4277.9702],[-66.9218,-18.5078,4238.1211],[-66.9235,-18.5126,4236.9404],[-66.927,-18.5131,4190.7651],[-66.9293,-18.5156,4212.5],[-66.9288,-18.5195,4083.5713],[-66.9327,-18.5225,4238.9019],[-66.9324,-18.5268,4331.5654],[-66.9345,-18.5283,4306.0923],[-66.9356,-18.5334,4242.8184],[-66.9357,-18.542,4173.2095],[-66.9377,-18.5458,4112.7432],[-66.9432,-18.5498,3868.105],[-66.9474,-18.5494,3744.3354],[-66.9597,-18.5537,3690.4092],[-66.9893,-18.5013,3888.1143],[-66.9918,-18.4886,4069.3579],[-67.0602,-18.494,3688.1577],[-67.0596,-18.4831,3688.3987],[-67.0685,-18.489,3688.1621],[-67.1101,-18.5342,3685.5],[-67.1485,-18.5309,3685.5],[-67.1578,-18.5396,3685.5],[-67.1604,-18.5447,3685.5],[-67.1717,-18.5502,3685.5],[-67.1977,-18.5513,3685.5],[-67.2102,-18.5611,3685.5],[-67.2169,-18.5623,3685.5],[-67.1796,-18.5996,3685.5],[-67.0839,-18.7426,3685.5],[-67.0047,-18.7134,3685.5],[-67.0041,-18.7155,3685.5],[-66.9249,-18.6678,3690.3547],[-66.9137,-18.6666,3812.563],[-66.9039,-18.6633,3745.5247],[-66.8982,-18.6689,3714.6504],[-66.8772,-18.6675,3720.6997],[-66.8695,-18.6717,3772.0938],[-66.8661,-18.6757,3818.428],[-66.8604,-18.6764,3982.7844],[-66.8578,-18.6826,3924.9055],[-66.8564,-18.683,3871.3145],[-66.8439,-18.6842,3748.0737],[-66.8287,-18.6832,3815.6157],[-66.8173,-18.6866,4001.6433],[-66.8172,-18.6939,4282.6509],[-66.8125,-18.7033,4371.0439],[-66.8154,-18.7094,4381.498],[-66.8159,-18.7162,4347.2852],[-66.8082,-18.7321,4296.6431],[-66.807,-18.7395,4259.7905],[-66.8098,-18.7484,4184.041],[-66.8092,-18.7574,3757.4563],[-66.8174,-18.7673,3713.3298],[-66.8079,-18.7816,3714.188],[-66.79,-18.7909,3714.4302],[-66.7688,-18.7904,3720.2935],[-66.7683,-18.7892,3720.8555],[-66.7659,-18.7898,3723.6372],[-66.7631,-18.7861,3724.4937],[-66.7547,-18.7888,3728.4688],[-66.7504,-18.7816,3729.5869],[-66.7493,-18.7737,3733.9028],[-66.7378,-18.7587,3753.6113],[-66.7293,-18.753,3777.4031],[-66.7229,-18.752,3789.2456],[-66.73,-18.7275,4107.7876],[-66.7271,-18.7053,4032.5303],[-66.727,-18.6922,4161.2397],[-66.7242,-18.6845,4232.8472],[-66.7209,-18.681,4335.6445],[-66.7143,-18.681,4394.9229],[-66.7117,-18.6788,4382.0176],[-66.7147,-18.6583,4430.2896],[-66.7175,-18.6539,4408.7617]]]]}
,"properties": {"GID_3": "BOL.5.9.2_2","GID_0": "BOL","country": "Bolivia","GID_1": "BOL.5_1","province": "Oruro","NL_NAME_1": "NA","GID_2": "BOL.5.9_2","county": "Poopó","NL_NAME_2": "NA","city": "Pazña","VARNAME_3": "NA","NL_NAME_3": "NA","TYPE_3": "District","ENGTYPE_3": "Distrito","CC_3": "NA","HASC_3": "NA","name": "Pazña.city","area_km2": 950.3806,"hist_schema_id": "Elevation0-9000","hist_area_km2": {"3675": 325.2601,"3700": 225.3036,"3725": 26.6571,"3750": 25.7957,"3775": 20.2906,"3800": 20.5706,"3825": 21.9572,"3850": 20.6917,"3875": 20.4527,"3900": 20.8552,"3925": 18.9658,"3950": 17.2986,"3975": 16.7357,"4000": 13.4811,"4025": 13.2004,"4050": 12.6777,"4075": 14.1851,"4100": 12.7187,"4125": 10.9713,"4150": 10.0677,"4175": 9.4453,"4200": 8.2595,"4225": 7.014,"4250": 6.7727,"4275": 5.9085,"4300": 5.1449,"4325": 5.2659,"4350": 5.2659,"4375": 5.1252,"4400": 4.5225,"4425": 4.1206,"4450": 3.2767,"4475": 3.0957,"4500": 2.2113,"4525": 2.0104,"4550": 1.7892,"4575": 0.7438,"4600": 0.9449,"4625": 0.6232,"4650": 0.2614,"4675": 0.1407,"4700": 0.2212,"4725": 0.0402,"4750": 0.0402}}}