{"type": "Feature","bbox": [-66.5158,-13.5847,-64.9971,-12.0],"geometry": {"type": "MultiPolygon","coordinates": [[[[-66.5158,-13.5711,160.7471],[-65.3267,-13.5847,130.0],[-65.3138,-13.5805,130.0],[-65.3,-13.5791,130.0],[-65.2824,-13.5736,130.0],[-65.271,-13.5658,132.8683],[-65.2636,-13.5573,130.0],[-65.2601,-13.55,130.0],[-65.259,-13.5415,133.7333],[-65.2703,-13.5122,132.3173],[-65.2804,-13.4967,130.0],[-65.2859,-13.4937,131.1096],[-65.2912,-13.4951,138.3342],[-65.2941,-13.4987,140.4857],[-65.2947,-13.5049,139.3283],[-65.293,-13.5197,130.0],[-65.2966,-13.5229,133.7915],[-65.3023,-13.5223,130.0],[-65.3061,-13.5158,130.0],[-65.3057,-13.4977,130.0],[-65.3017,-13.4893,132.4247],[-65.2702,-13.4663,130.0],[-65.2268,-13.4282,130.0],[-65.2181,-13.4177,130.0],[-65.217,-13.4101,130.0],[-65.2204,-13.4045,132.6311],[-65.2295,-13.3976,137.2082],[-65.2379,-13.3936,130.0],[-65.2472,-13.3926,130.0],[-65.2549,-13.3953,131.4881],[-65.2655,-13.4036,133.7977],[-65.2717,-13.4033,130.0],[-65.2756,-13.3998,131.2879],[-65.2767,-13.3962,138.3721],[-65.2758,-13.3908,130.7628],[-65.2707,-13.3781,130.0],[-65.2693,-13.3677,131.3268],[-65.2608,-13.3574,130.0],[-65.2292,-13.3405,130.0],[-65.2175,-13.3359,130.0],[-65.2,-13.3238,130.0],[-65.191,-13.3137,130.0],[-65.1891,-13.3042,136.8518],[-65.1904,-13.3007,137.6547],[-65.2408,-13.3026,129.0],[-65.2425,-13.3005,129.0],[-65.2421,-13.2955,129.0],[-65.2364,-13.2758,129.0],[-65.2184,-13.2396,129.0],[-65.2078,-13.2238,129.0],[-65.1811,-13.2008,128.0],[-65.1765,-13.1943,129.6762],[-65.1751,-13.1864,132.4231],[-65.1775,-13.181,131.4816],[-65.1879,-13.1708,128.0],[-65.1899,-13.1641,134.1783],[-65.188,-13.1583,137.7393],[-65.1775,-13.1452,137.87],[-65.1788,-13.1397,128.0],[-65.1821,-13.1366,140.2636],[-65.1879,-13.1363,135.4268],[-65.2132,-13.1453,128.0],[-65.2199,-13.1452,128.0],[-65.224,-13.1413,128.0],[-65.2208,-13.1248,128.0],[-65.2093,-13.1134,135.3703],[-65.2009,-13.1096,128.0],[-65.1764,-13.1087,128.0],[-65.1669,-13.1102,128.0],[-65.1495,-13.12,128.0],[-65.14,-13.1276,127.0],[-65.1342,-13.1298,127.0],[-65.1293,-13.129,127.0],[-65.1033,-13.1046,128.5645],[-65.0762,-13.0624,127.0],[-65.0635,-13.0464,127.0],[-65.0283,-13.0308,127.0],[-65.0246,-13.0258,129.6015],[-65.0233,-13.0184,136.4729],[-65.026,-13.0124,134.5766],[-65.034,-13.003,129.905],[-65.0347,-12.9962,134.3073],[-65.0237,-12.9757,133.8087],[-65.0195,-12.9564,133.1537],[-65.0192,-12.9474,133.1637],[-65.0243,-12.9347,135.1387],[-65.0379,-12.9184,127.0],[-65.0337,-12.8952,127.0],[-65.0352,-12.8923,127.0],[-65.0474,-12.8876,134.6114],[-65.0498,-12.8825,131.8648],[-65.0568,-12.857,127.0],[-65.0567,-12.8466,127.0],[-65.0322,-12.8364,127.0],[-65.0107,-12.8391,127.0],[-64.9979,-12.8385,127.0],[-64.9971,-12.8321,127.0],[-65.0054,-12.8145,127.0],[-65.0051,-12.8004,134.2582],[-65.0201,-12.7889,129.3713],[-65.0233,-12.7828,127.0],[-65.0177,-12.7696,127.0],[-65.0178,-12.7492,131.0502],[-65.0241,-12.7424,127.0],[-65.0248,-12.7384,127.0],[-65.0248,-12.7367,127.0],[-65.0219,-12.7345,141.8981],[-65.0211,-12.7274,127.0],[-65.0269,-12.7234,130.614],[-65.0429,-12.7168,127.0],[-65.0543,-12.6938,135.5069],[-65.0504,-12.6758,142.2885],[-65.0535,-12.6504,127.0],[-65.0525,-12.6446,127.0],[-65.0282,-12.6196,127.0],[-65.0249,-12.605,127.0],[-65.0244,-12.5903,127.0],[-65.0272,-12.5838,127.0],[-65.0642,-12.556,127.0],[-65.0761,-12.5416,127.0],[-65.089,-12.5207,127.0],[-65.0981,-12.5026,127.0],[-65.1327,-12.4522,131.9913],[-65.1613,-12.4256,126.5],[-65.1635,-12.4161,126.5],[-65.1591,-12.4069,135.9365],[-65.1594,-12.4002,133.8246],[-65.1775,-12.3855,130.4067],[-65.1788,-12.3757,126.5],[-65.1725,-12.3651,126.5],[-65.1659,-12.3584,126.5],[-65.1579,-12.3557,126.5],[-65.1467,-12.3544,126.5],[-65.1111,-12.3544,126.5],[-65.1091,-12.3505,126.5],[-65.1091,-12.3454,126.5],[-65.1163,-12.326599999999999,126.5],[-65.1246,-12.3229,126.5],[-65.1513,-12.3179,126.5],[-65.1578,-12.3154,126.5],[-65.1609,-12.3106,126.5],[-65.1623,-12.3055,126.5],[-65.1588,-12.2953,126.5],[-65.1574,-12.2921,126.5],[-65.1528,-12.2894,130.8566],[-65.1437,-12.2905,126.5],[-65.1312,-12.2965,126.5],[-65.1192,-12.2997,126.5],[-65.113,-12.2956,127.5951],[-65.1113,-12.2868,140.8171],[-65.1169,-12.2589,126.5],[-65.1217,-12.2454,126.5],[-65.1404,-12.206,128.5592],[-65.1489,-12.1948,126.0],[-65.1687,-12.1787,126.0],[-65.1823,-12.165,126.0],[-65.1866,-12.1571,128.7449],[-65.1873,-12.1471,126.0],[-65.1855,-12.1436,127.2338],[-65.1717,-12.1327,126.0],[-65.1621,-12.1322,126.0],[-65.1587,-12.1354,126.0],[-65.1561,-12.1412,126.0],[-65.1523,-12.16,126.0],[-65.1475,-12.1723,126.0],[-65.1382,-12.187,126.0],[-65.1333,-12.1896,126.0],[-65.1253,-12.1887,126.0],[-65.1145,-12.1813,128.5031],[-65.103,-12.1628,126.0],[-65.1002,-12.1534,126.0],[-65.1021,-12.1452,131.7009],[-65.1054,-12.1397,126.0],[-65.1193,-12.1334,126.0],[-65.1211,-12.1289,126.0],[-65.1157,-12.1139,126.0],[-65.1129,-12.1093,126.0],[-65.1079,-12.1069,128.1458],[-65.1011,-12.1063,130.0751],[-65.0727,-12.1118,127.4655],[-65.0688,-12.1079,126.0],[-65.0672,-12.102,126.0],[-65.0726,-12.0887,126.0],[-65.0783,-12.0866,133.2049],[-65.0831,-12.0875,129.5034],[-65.0893,-12.092,129.0614],[-65.0939,-12.0918,129.4527],[-65.0957,-12.0873,126.0],[-65.0947,-12.0767,126.0],[-65.0921,-12.0717,126.0],[-65.0767,-12.0626,128.9745],[-65.074,-12.0572,126.0],[-65.075,-12.0475,126.0],[-65.0845,-12.0327,126.0],[-65.0907,-12.0292,126.0],[-65.1055,-12.026,126.0],[-65.1229,-12.0308,126.0],[-65.1278,-12.0297,130.1453],[-65.1282,-12.0259,126.0],[-65.1217,-12.0001,126.0],[-66.2679,-12.0,139.8118],[-66.267,-12.0025,143.8965],[-66.2615,-12.0047,141.9797],[-66.2619,-12.0085,143.121],[-66.2649,-12.0059,143.6865],[-66.2694,-12.007,139.0119],[-66.2714,-12.0109,133.8922],[-66.271,-12.0088,137.1205],[-66.2736,-12.0077,141.8603],[-66.2801,-12.0097,132.2483],[-66.2772,-12.0111,137.5683],[-66.2794,-12.0146,139.4529],[-66.2837,-12.017,140.0521],[-66.2844,-12.0204,140.4691],[-66.2823,-12.0207,137.1801],[-66.2845,-12.0242,138.9973],[-66.2832,-12.0252,141.22],[-66.2802,-12.0233,137.8615],[-66.2784,-12.0256,137.6257],[-66.286,-12.0277,143.4681],[-66.2868,-12.0295,136.9718],[-66.2828,-12.0315,142.2889],[-66.282,-12.0345,140.7192],[-66.2863,-12.032,138.1438],[-66.288,-12.036,136.6694],[-66.2916,-12.0373,141.0938],[-66.2896,-12.0391,137.9522],[-66.2867,-12.0371,139.6478],[-66.2834,-12.0375,139.4653],[-66.2881,-12.0412,137.8695],[-66.2836,-12.0484,135.7596],[-66.2867,-12.0501,136.938],[-66.2887,-12.0568,137.6589],[-66.288,-12.0586,134.4773],[-66.2847,-12.055,137.9794],[-66.2827,-12.0566,144.3671],[-66.2831,-12.0617,141.0818],[-66.2857,-12.0646,144.8843],[-66.2821,-12.0677,140.9087],[-66.2859,-12.0685,142.9418],[-66.2856,-12.076599999999999,139.6996],[-66.293,-12.0799,143.0213],[-66.2915,-12.0805,143.0213],[-66.2891,-12.0783,140.3751],[-66.2865,-12.0807,143.3123],[-66.2923,-12.0861,146.8155],[-66.2869,-12.0867,139.9435],[-66.2861,-12.0886,140.9924],[-66.2895,-12.0878,139.3233],[-66.2883,-12.091,140.9369],[-66.2958,-12.0936,142.6839],[-66.2972,-12.0923,141.5929],[-66.2955,-12.0893,144.2939],[-66.3007,-12.0915,143.8034],[-66.2975,-12.0943,141.8726],[-66.2999,-12.0964,141.8521],[-66.3007,-12.1002,140.3226],[-66.3032,-12.1018,139.467],[-66.3028,-12.1032,143.7172],[-66.299,-12.1023,144.2023],[-66.297,-12.1042,147.2588],[-66.3012,-12.1059,141.325],[-66.3025,-12.1094,140.1585],[-66.305,-12.1108,138.3799],[-66.3045,-12.1123,142.1573],[-66.302,-12.1107,140.3642],[-66.2977,-12.1133,143.9547],[-66.3009,-12.1173,141.1854],[-66.3044,-12.1164,140.3022],[-66.303,-12.1177,138.9565],[-66.3044,-12.1204,141.9656],[-66.3023,-12.1218,139.3546],[-66.3041,-12.1245,142.2862],[-66.3012,-12.1248,139.6321],[-66.3021,-12.1284,142.8534],[-66.2979,-12.1295,140.5289],[-66.2998,-12.133,143.4966],[-66.2977,-12.1362,139.5807],[-66.3008,-12.1348,141.77],[-66.3026,-12.14,141.2692],[-66.2998,-12.1388,141.7914],[-66.2982,-12.1422,140.1178],[-66.3017,-12.1422,142.9503],[-66.3042,-12.1472,142.4786],[-66.3031,-12.1478,140.5386],[-66.3017,-12.1454,138.7874],[-66.3012,-12.1471,141.1018],[-66.2969,-12.1469,138.0728],[-66.2997,-12.1491,142.3763],[-66.2988,-12.1525,141.5077],[-66.3025,-12.1536,141.3825],[-66.3006,-12.1556,140.7657],[-66.3006,-12.1591,142.2738],[-66.2964,-12.1587,140.6434],[-66.2995,-12.163,143.6911],[-66.2965,-12.1637,141.2769],[-66.2985,-12.1661,141.9547],[-66.2957,-12.1662,142.2702],[-66.2973,-12.1678,140.546],[-66.2951,-12.1686,141.9809],[-66.2972,-12.1713,141.8365],[-66.2964,-12.173,143.9706],[-66.2956,-12.1715,141.8365],[-66.2921,-12.1719,140.9579],[-66.2948,-12.1759,142.5936],[-66.298,-12.175,142.219],[-66.2976,-12.1787,142.3375],[-66.302,-12.1788,143.4954],[-66.3007,-12.1828,142.7032],[-66.3027,-12.1868,141.8562],[-66.2998,-12.1869,141.8165],[-66.3038,-12.1887,142.6991],[-66.3002,-12.189,141.2888],[-66.3019,-12.1939,142.2562],[-66.2983,-12.1955,143.0644],[-66.3011,-12.1969,141.3836],[-66.2995,-12.1997,141.4665],[-66.3022,-12.2014,143.4429],[-66.2999,-12.201599999999999,143.145],[-66.2999,-12.2028,143.145],[-66.3053,-12.204,141.2181],[-66.3035,-12.206,141.8778],[-66.3074,-12.2095,139.703],[-66.3052,-12.2103,146.8005],[-66.3099,-12.214,142.4767],[-66.3079,-12.2154,142.2523],[-66.3069,-12.2137,142.2861],[-66.3051,-12.2157,148.1166],[-66.3068,-12.2172,141.6518],[-66.3051,-12.218,144.6859],[-66.3092,-12.2203,141.1403],[-66.3058,-12.2202,142.0163],[-66.3065,-12.2225,143.1629],[-66.3086,-12.2228,144.5287],[-66.3077,-12.2244,143.594],[-66.3039,-12.2242,144.4089],[-66.3072,-12.2271,143.2648],[-66.3067,-12.2283,144.0434],[-66.3038,-12.2264,143.0739],[-66.3061,-12.2309,143.7303],[-66.3021,-12.2286,144.6712],[-66.3018,-12.2299,145.06],[-66.3002,-12.2287,142.2972],[-66.2978,-12.2309,144.0798],[-66.2988,-12.2409,144.0334],[-66.294,-12.2415,143.1706],[-66.2949,-12.2439,143.7348],[-66.293,-12.2428,143.9277],[-66.2896,-12.2443,146.2672],[-66.2899,-12.2461,144.1303],[-66.2878,-12.2457,143.6701],[-66.2872,-12.2485,146.5979],[-66.2852,-12.2477,144.4222],[-66.2852,-12.2503,144.8066],[-66.2794,-12.2483,144.7625],[-66.2784,-12.2511,143.8378],[-66.2746,-12.2494,146.9449],[-66.2741,-12.2527,145.7979],[-66.2717,-12.2502,143.8753],[-66.2719,-12.2537,143.0407],[-66.2699,-12.2538,139.8515],[-66.271,-12.2565,144.4722],[-66.2697,-12.2578,141.8818],[-66.2735,-12.2603,140.3754],[-66.2711,-12.2605,143.6448],[-66.2717,-12.2628,143.7505],[-66.2678,-12.2623,143.6729],[-66.2687,-12.2664,146.5951],[-66.2668,-12.2649,144.2618],[-66.2653,-12.2669,145.6067],[-66.264,-12.2654,145.1335],[-66.2648,-12.2677,145.6067],[-66.2674,-12.2672,145.8253],[-66.2671,-12.2697,145.6937],[-66.2644,-12.2693,143.8198],[-66.2663,-12.2716,145.4102],[-66.265,-12.2729,145.4102],[-66.2689,-12.276,146.5295],[-66.2683,-12.2808,142.2744],[-66.2702,-12.2826,144.5126],[-66.2691,-12.2884,144.7844],[-66.2712,-12.2902,144.6717],[-66.2696,-12.2924,142.8018],[-66.2727,-12.2957,142.8062],[-66.2707,-12.2961,142.8062],[-66.2716,-12.2975,142.6808],[-66.2682,-12.3025,142.5522],[-66.2703,-12.3062,143.9124],[-66.268,-12.3073,144.8179],[-66.269,-12.3099,143.805],[-66.2711,-12.3104,142.0952],[-66.2696,-12.3128,140.3245],[-66.2718,-12.3126,141.1307],[-66.2715,-12.3173,145.0177],[-66.2738,-12.3164,145.3245],[-66.2738,-12.3184,146.4437],[-66.2758,-12.3183,142.2466],[-66.2761,-12.3214,142.4972],[-66.2801,-12.3252,140.6307],[-66.2798,-12.3278,142.4161],[-66.2838,-12.3281,140.7551],[-66.2814,-12.3296,142.1705],[-66.2848,-12.3364,140.6478],[-66.2851,-12.3399,141.9818],[-66.283,-12.3402,141.4997],[-66.2854,-12.3415,142.3142],[-66.2851,-12.3456,143.3786],[-66.2892,-12.3456,143.9482],[-66.2899,-12.3485,141.8114],[-66.2921,-12.3471,144.721],[-66.2955,-12.3505,144.3475],[-66.2972,-12.3485,143.4845],[-66.298,-12.3512,144.4138],[-66.3001,-12.351,145.1373],[-66.2995,-12.3527,145.4881],[-66.3026,-12.3519,143.8795],[-66.303,-12.3545,144.1672],[-66.3058,-12.3548,148.6252],[-66.3042,-12.3601,144.0513],[-66.3073,-12.3602,144.4757],[-66.3088,-12.3642,142.614],[-66.3073,-12.3674,143.0066],[-66.3091,-12.3718,142.4697],[-66.3066,-12.376,146.4698],[-66.3079,-12.3765,146.5069],[-66.3082,-12.3801,145.1022],[-66.3114,-12.3809,144.2849],[-66.3131,-12.3787,145.5263],[-66.3143,-12.3865,141.7767],[-66.3168,-12.3857,146.0622],[-66.3235,-12.3928,147.4647],[-66.3268,-12.3911,148.6271],[-66.3272,-12.3925,147.9443],[-66.3297,-12.3922,149.6213],[-66.3308,-12.3947,149.3049],[-66.3338,-12.3952,147.4997],[-66.3329,-12.4,149.6233],[-66.3391,-12.3989,149.2709],[-66.3388,-12.4014,150.2568],[-66.3418,-12.4044,150.1168],[-66.342,-12.4076,151.344],[-66.3464,-12.4094,146.7105],[-66.3448,-12.4147,150.4146],[-66.3466,-12.418,149.8046],[-66.3461,-12.4204,148.9657],[-66.3495,-12.4247,147.5106],[-66.3537,-12.4256,138.9059],[-66.3537,-12.4291,148.0436],[-66.3577,-12.4355,148.1551],[-66.3577,-12.438,149.707],[-66.3629,-12.4385,149.1238],[-66.3659,-12.4458,149.7121],[-66.3834,-12.4569,153.0732],[-66.3911,-12.4582,155.5764],[-66.3868,-12.4679,151.8907],[-66.3914,-12.4698,151.5413],[-66.3911,-12.4726,151.4132],[-66.3923,-12.4718,154.7689],[-66.3933,-12.4745,152.8113],[-66.3923,-12.477,152.301],[-66.3949,-12.478,151.1523],[-66.3959,-12.4824,150.7411],[-66.3978,-12.483,156.2262],[-66.402,-12.4955,152.0747],[-66.4079,-12.5015,156.3245],[-66.4058,-12.5071,156.9235],[-66.4106,-12.5076,153.4438],[-66.4131,-12.5102,155.7133],[-66.4146,-12.5169,161.1887],[-66.4176,-12.5202,159.8936],[-66.4207,-12.5202,162.0768],[-66.4213,-12.5257,161.6885],[-66.4245,-12.5234,155.8108],[-66.428,-12.5285,154.2403],[-66.4315,-12.5286,154.5699],[-66.4359,-12.5408,157.0906],[-66.4385,-12.5423,150.786],[-66.4326,-12.5551,156.4473],[-66.4371,-12.56,157.8221],[-66.4367,-12.5633,156.9278],[-66.4399,-12.5653,152.3283],[-66.4422,-12.5719,149.8366],[-66.4405,-12.577,158.7744],[-66.4403,-12.5889,159.7677],[-66.4434,-12.5936,163.141],[-66.4467,-12.6075,148.8193],[-66.4539,-12.6207,149.9927],[-66.453,-12.6242,163.3921],[-66.4586,-12.6294,157.6374],[-66.467,-12.6534,164.7159],[-66.4736,-12.6585,154.8147],[-66.4727,-12.6607,156.626],[-66.4766,-12.6676,156.4064],[-66.4772,-12.6744,158.8615],[-66.4791,-12.6753,159.0103],[-66.4832,-12.6837,159.1382],[-66.4831,-12.6889,159.2661],[-66.4858,-12.6933,158.4607],[-66.4886,-12.7073,164.3637],[-66.497,-12.7196,167.6286],[-66.5061,-12.725,171.5405],[-66.5137,-12.7257,172.5451],[-66.5158,-13.5711,160.7471]]]]}
,"properties": {"GID_3": "BOL.3.8.1_2","GID_0": "BOL","country": "Bolivia","GID_1": "BOL.3_1","province": "Beni","NL_NAME_1": "NA","GID_2": "BOL.3.8_2","county": "Yacuma","NL_NAME_2": "NA","city": "Exaltación","VARNAME_3": "NA","NL_NAME_3": "NA","TYPE_3": "District","ENGTYPE_3": "Distrito","CC_3": "NA","HASC_3": "NA","name": "Exaltación.city","area_km2": 25003.89,"hist_schema_id": "Elevation0-9000","hist_area_km2": {"125": 3184.5,"150": 17719.13,"175": 4087.73,"200": 12.17,"225": 0.35}}}