{"type":"Feature","properties":{"GID_3":"BOL.5.6.1_2","GID_0":"BOL","country":"Bolivia","GID_1":"BOL.5_1","province":"Oruro","NL_NAME_1":"NA","GID_2":"BOL.5.6_2","county":"Mejillones","NL_NAME_2":"NA","city":"Carangas","VARNAME_3":"NA","NL_NAME_3":"NA","TYPE_3":"District","ENGTYPE_3":"Distrito","CC_3":"NA","HASC_3":"NA","name":"Carangas.city"},
"geometry":{"type": "MultiPolygon","coordinates": [[[[-68.5871,-18.9837,4067.6445],[-68.5867,-18.9806,4105.5542],[-68.5822,-18.9766,4139.5161],[-68.5735,-18.9748,4183.7852],[-68.5714,-18.9719,4224.2559],[-68.5748,-18.962,4184.8125],[-68.5697,-18.9504,4126.6997],[-68.5769,-18.9421,4324.293],[-68.5677,-18.9321,4352.3506],[-68.5674,-18.9256,4330.6172],[-68.5689,-18.9191,4359.8164],[-68.568,-18.9165,4395.1572],[-68.5757,-18.9112,4403.4365],[-68.5837,-18.9017,4325.6885],[-68.5829,-18.8965,4414.3882],[-68.5781,-18.8929,4412.4023],[-68.5773,-18.8872,4364.1553],[-68.5808,-18.8732,4230.4551],[-68.5799,-18.8661,4187.8213],[-68.5905,-18.8556,4055.5669],[-68.5932,-18.8487,3837.1328],[-68.5991,-18.8476,3815.1941],[-68.6052,-18.8552,3825.0352],[-68.6078,-18.8628,3834.217],[-68.6206,-18.8537,3987.8647],[-68.6325,-18.8614,3896.865],[-68.6399,-18.8611,3933.9194],[-68.65,-18.8642,4135.6812],[-68.6539,-18.8622,4211.8555],[-68.6558,-18.8583,4222.8501],[-68.6543,-18.8495,4308.5469],[-68.6556,-18.8406,4293.6812],[-68.658,-18.8356,4302.25],[-68.6611,-18.8326,4414.3228],[-68.6799,-18.8323,4228.6831],[-68.684,-18.8292,4160.3657],[-68.7172,-18.8439,4264.8745],[-68.73,-18.8545,4348.8613],[-68.7406,-18.8608,4424.0273],[-68.7425,-18.8656,4343.9199],[-68.7505,-18.8723,4451.7949],[-68.7617,-18.8746,4657.8618],[-68.7641,-18.8731,4667.8623],[-68.7715,-18.873,4759.3555],[-68.7744,-18.8692,4782.4238],[-68.776,-18.8692,4800.7402],[-68.7819,-18.8735,4980.439],[-68.7902,-18.8717,4974.2534],[-68.797,-18.8743,4883.7334],[-68.805,-18.8719,4956.2251],[-68.8084,-18.874,4918.6543],[-68.8125,-18.8721,5015.5347],[-68.8143,-18.8743,5112.4512],[-68.8265,-18.8737,5189.3633],[-68.8316,-18.8757,5247.6177],[-68.8333,-18.8824,5146.5381],[-68.8224,-18.8945,5011.9336],[-68.8198,-18.9003,5259.2754],[-68.8161,-18.8939,5109.6377],[-68.8106,-18.889,5106.1797],[-68.788,-18.9004,4957.3389],[-68.7766,-18.8959,4728.4648],[-68.7718,-18.8958,4686.9512],[-68.7595,-18.9002,4644.2769],[-68.7325,-18.9028,4587.2959],[-68.7302,-18.9083,4489.8657],[-68.7188,-18.9212,4263.1079],[-68.7047,-18.9256,4180.8745],[-68.7026,-18.9299,4161.7969],[-68.7024,-18.9394,4183.4321],[-68.6995,-18.947,4340.4111],[-68.6876,-18.9561,4525.5449],[-68.6807,-18.9527,4560.2329],[-68.6762,-18.9535,4571.666],[-68.6733,-18.9571,4620.3003],[-68.6655,-18.9567,4479.0186],[-68.6579,-18.96,4351.9575],[-68.646,-18.9692,4057.7563],[-68.6341,-18.9694,3860.2671],[-68.626,-18.9716,3951.9385],[-68.6126,-18.9641,3986.0635],[-68.6071,-18.9705,4132.9023],[-68.5925,-18.9774,4324.0332],[-68.5871,-18.9837,4067.6445]]]]}}