{"type":"Feature","properties":{"GID_3":"BOL.1.4.1_2","GID_0":"BOL","country":"Bolivia","GID_1":"BOL.1_1","province":"Chuquisaca","NL_NAME_1":"NA","GID_2":"BOL.1.4_2","county":"LuisCalvo","NL_NAME_2":"NA","city":"Huacaya","VARNAME_3":"NA","NL_NAME_3":"NA","TYPE_3":"District","ENGTYPE_3":"Distrito","CC_3":"NA","HASC_3":"NA","name":"Huacaya.city"},
"geometry":{"type": "MultiPolygon","coordinates": [[[[-63.6672,-20.4732,1640.4336],[-63.6656,-20.4849,1537.3621],[-63.669,-20.4904,1388.6248],[-63.6673,-20.4963,1596.5503],[-63.6686,-20.5012,1640.7694],[-63.6666,-20.5078,1605.0654],[-63.6666,-20.514,1733.9874],[-63.664,-20.5228,1703.0643],[-63.6597,-20.5253,1701.394],[-63.6576,-20.5326,1763.238],[-63.6591,-20.5381,1629.6183],[-63.6734,-20.5557,1750.861],[-63.6715,-20.5715,1718.6785],[-63.6735,-20.5773,1691.1077],[-63.6767,-20.5789,1706.4805],[-63.6756,-20.5877,1615.0909],[-63.6769,-20.5939,1747.2787],[-63.6834,-20.6065,1632.5067],[-63.684,-20.612,1546.9379],[-63.687,-20.6134,1632.3016],[-63.6877,-20.62,1491.7053],[-63.6937,-20.6265,1387.9302],[-63.6934,-20.6358,1487.9698],[-63.6957,-20.6406,1555.9336],[-63.6946,-20.6555,1570.0348],[-63.6963,-20.6582,1535.677],[-63.6976,-20.6678,1627.3359],[-63.702,-20.6716,1602.3536],[-63.711,-20.6856,1512.0765],[-63.7112,-20.6916,1518.5554],[-63.7141,-20.7002,1488.4885],[-63.7128,-20.7046,1435.0319],[-63.7194,-20.7167,1487.2019],[-63.7187,-20.7212,1386.616],[-63.7207,-20.7274,1403.8925],[-63.7175,-20.7356,1505.9187],[-63.719,-20.7451,1469.3079],[-63.7146,-20.7511,1573.5466],[-63.7147,-20.7553,1483.1405],[-63.7176,-20.7581,1464.2052],[-63.7218,-20.7718,1356.0684],[-63.7198,-20.8076,1037.2426],[-63.7222,-20.8208,1251.2808],[-63.7223,-20.8385,1102.0046],[-63.7199,-20.8458,1110.8984],[-63.7194,-20.8585,1319.084],[-63.7156,-20.863,1035.6899],[-63.7106,-20.8649,1025.828],[-63.7074,-20.8686,932.166],[-63.7087,-20.8721,1004.8381],[-63.7069,-20.8787,1271.8145],[-63.7103,-20.8819,1341.1995],[-63.7153,-20.9062,851.0237],[-63.7206,-20.9131,900.9894],[-63.726,-20.916,1106.728],[-63.7266,-20.9255,1112.3684],[-63.7288,-20.9315,1026.6675],[-63.7277,-20.9373,1163.8411],[-63.7239,-20.9398,1172.4432],[-63.7244,-20.9424,1166.8491],[-63.7293,-20.9455,1145.1233],[-63.7307,-20.9535,1057.3137],[-63.7232,-20.9539,996.9865],[-63.7212,-20.9574,1087.1495],[-63.7186,-20.971,1229.8596],[-63.7199,-20.9778,1187.998],[-63.7139,-20.9843,1181.3154],[-63.7175,-20.987,1194.7277],[-63.724,-21.0037,1140.8185],[-63.5326,-21.0037,663.8167],[-63.5339,-20.9981,674.7245],[-63.5324,-20.9963,671.4778],[-63.5329,-20.9942,694.2365],[-63.5339,-20.993,677.2469],[-63.5373,-20.9941,676.7917],[-63.5348,-20.9909,683.4962],[-63.5353,-20.9876,688.6441],[-63.5308,-20.9862,693.1062],[-63.5321,-20.9833,700.0599],[-63.5265,-20.9801,697.5705],[-63.5301,-20.978,767.7863],[-63.5268,-20.9765,706.2391],[-63.5285,-20.975,709.4359],[-63.5254,-20.9735,715.5327],[-63.526,-20.9663,734.1008],[-63.5235,-20.967,712.0667],[-63.5221,-20.9607,772.3458],[-63.5204,-20.9632,716.9117],[-63.5202,-20.9593,772.6526],[-63.5177,-20.9604,727.6049],[-63.5162,-20.9577,760.0695],[-63.5117,-20.9569,735.9187],[-63.5135,-20.9514,749.7928],[-63.5159,-20.9523,753.41],[-63.5149,-20.9502,758.7784],[-63.5184,-20.9471,779.4828],[-63.513,-20.944,755.3958],[-63.5126,-20.9423,764.6476],[-63.5151,-20.9418,762.3319],[-63.515,-20.94,770.8996],[-63.5128,-20.9405,766.2327],[-63.5113,-20.9377,772.2108],[-63.5122,-20.9362,821.2044],[-63.5148,-20.9368,775.7086],[-63.5186,-20.9344,778.8207],[-63.5208,-20.9352,796.2039],[-63.5281,-20.9251,805.6241],[-63.5266,-20.921,850.439],[-63.529,-20.9182,842.3853],[-63.5287,-20.9134,854.1049],[-63.5312,-20.9111,854.2773],[-63.5293,-20.909,867.7277],[-63.5314,-20.908,841.9037],[-63.5277,-20.9058,841.1448],[-63.5264,-20.9014,854.8408],[-63.5288,-20.9006,884.6096],[-63.5298,-20.8977,976.1824],[-63.5384,-20.8949,957.5604],[-63.5421,-20.8919,988.6594],[-63.545,-20.8923,982.1161],[-63.5481,-20.8898,960.6445],[-63.5466,-20.8843,997.5597],[-63.5422,-20.8793,1012.8987],[-63.5409,-20.8744,1092.9817],[-63.535,-20.8656,1343.9493],[-63.5342,-20.8602,1401.0726],[-63.5392,-20.8411,1263.7267],[-63.5476,-20.8201,1340.488],[-63.5459,-20.8096,1336.0405],[-63.5475,-20.8069,1367.5161],[-63.546,-20.8019,1217.4515],[-63.5478,-20.7991,1303.1976],[-63.5442,-20.7888,1351.0513],[-63.5437,-20.7693,1408.7296],[-63.5384,-20.7586,1438.3066],[-63.5397,-20.7547,1485.8345],[-63.5385,-20.7499,1379.7192],[-63.5345,-20.7458,1343.1851],[-63.5296,-20.7174,1217.8462],[-63.527,-20.7116,1180.6425],[-63.5196,-20.707,1006.8517],[-63.5224,-20.7038,1114.5118],[-63.5245,-20.6941,1295.8303],[-63.524,-20.6891,1349.8691],[-63.5262,-20.6877,1367.527],[-63.5268,-20.685,1376.9514],[-63.5241,-20.6641,1370.4097],[-63.5225,-20.6618,1361.4044],[-63.5161,-20.661,1338.0819],[-63.5146,-20.6585,1317.7565],[-63.5156,-20.6552,1255.9929],[-63.5117,-20.6528,1240.7474],[-63.5106,-20.6473,1262.8958],[-63.5086,-20.6464,1217.2897],[-63.5084,-20.6394,1035.6852],[-63.5106,-20.6312,1130.6787],[-63.5134,-20.628,1082.3488],[-63.51,-20.6263,1073.0128],[-63.5105,-20.6254,1079.1697],[-63.4973,-20.627,1357.7178],[-63.4644,-20.6251,1261.2063],[-63.4498,-20.6267,1400.9253],[-63.4339,-20.6262,1149.7473],[-63.4272,-20.6285,1080.9636],[-63.4217,-20.6371,988.2837],[-63.4176,-20.6387,989.9674],[-63.4118,-20.6319,1032.1256],[-63.4096,-20.6316,1058.0928],[-63.4059,-20.6163,1117.0109],[-63.4064,-20.6093,1051.0901],[-63.4104,-20.5836,1127.1677],[-63.4156,-20.5769,1125.0728],[-63.4135,-20.5683,1080.6465],[-63.4179,-20.5631,1052.8757],[-63.4179,-20.5517,1031.2212],[-63.4213,-20.5261,1023.3221],[-63.4203,-20.5228,1015.6379],[-63.4227,-20.5113,1014.125],[-63.4255,-20.5023,1122.3582],[-63.4321,-20.4949,1033.8119],[-63.4402,-20.4906,1050.5282],[-63.4485,-20.4893,1163.0845],[-63.4626,-20.4797,1007.4749],[-63.4658,-20.4793,1001.7678],[-63.4761,-20.4701,996.1616],[-63.4828,-20.4575,976.1688],[-63.4873,-20.4566,980.2756],[-63.4967,-20.4583,985.5973],[-63.5034,-20.4558,1006.2501],[-63.5097,-20.4565,997.6506],[-63.5138,-20.4586,1014.1551],[-63.5124,-20.4611,1001.7513],[-63.5149,-20.4626,1005.6632],[-63.5195,-20.4601,1011.6001],[-63.524,-20.4599,1013.038],[-63.5287,-20.4565,1017.5067],[-63.5342,-20.4565,1026.6654],[-63.5373,-20.4522,1042.4932],[-63.5407,-20.4543,1031.9541],[-63.5475,-20.4511,1039.723],[-63.5577,-20.4521,1048.2797],[-63.5598,-20.4503,1054.1814],[-63.5739,-20.4473,1069.759],[-63.581,-20.448,1091.707],[-63.5818,-20.4454,1089.9133],[-63.5838,-20.4451,1095.2321],[-63.5838,-20.4426,1122.8342],[-63.5868,-20.4426,1114.8712],[-63.5873,-20.4446,1140.3447],[-63.5898,-20.4442,1243.8505],[-63.5884,-20.4467,1162.9938],[-63.5904,-20.4458,1203.3188],[-63.595,-20.4494,1130.7491],[-63.597,-20.4541,1151.5782],[-63.5986,-20.4532,1158.3416],[-63.6026,-20.4546,1186.262],[-63.6039,-20.4568,1195.4248],[-63.6138,-20.4622,1204.5625],[-63.6227,-20.4646,1230.3875],[-63.6363,-20.4635,1640.1606],[-63.6485,-20.4663,1732.095],[-63.6553,-20.4726,1632.1733],[-63.6672,-20.4732,1640.4336]]]]}}