{"type": "Feature","bbox": [-63.6464,-18.28,-63.2706,-17.8075],"geometry": {"type": "MultiPolygon","coordinates": [[[[-63.6168,-18.0162,1418.6547],[-63.5966,-18.032,1440.1526],[-63.5842,-18.0383,1354.1718],[-63.5788,-18.0659,1433.6243],[-63.5739,-18.0779,1586.5564],[-63.5744,-18.0831,1468.577],[-63.5722,-18.0907,1435.255],[-63.5736,-18.0998,1351.9504],[-63.5716,-18.109,1418.7491],[-63.5682,-18.1129,1470.9425],[-63.5695,-18.1237,1519.2834],[-63.5623,-18.1383,1682.5037],[-63.5551,-18.1392,1528.9124],[-63.5483,-18.1579,1370.0452],[-63.5216,-18.1811,1004.6625],[-63.5367,-18.2017,1384.9196],[-63.5365,-18.2143,1484.2085],[-63.5307,-18.2482,1648.983],[-63.5141,-18.28,1710.8351],[-63.491,-18.2655,972.4183],[-63.4825,-18.2547,972.5487],[-63.4726,-18.251,872.4248],[-63.4707,-18.2449,827.4963],[-63.4557,-18.2384,775.7651],[-63.4486,-18.2333,808.8322],[-63.443,-18.2267,804.3327],[-63.4377,-18.2237,802.79],[-63.4363,-18.2209,802.8992],[-63.4308,-18.2178,841.684],[-63.4214,-18.2164,815.0743],[-63.4172,-18.2191,799.4204],[-63.4153,-18.2236,789.3923],[-63.4125,-18.2254,782.2479],[-63.4133,-18.2199,809.4518],[-63.4092,-18.2216,808.1471],[-63.3971,-18.2189,745.2644],[-63.3996,-18.2148,756.5546],[-63.3843,-18.2005,840.8495],[-63.3858,-18.1942,860.9581],[-63.384,-18.1922,831.9338],[-63.3726,-18.1909,774.0463],[-63.3685,-18.1879,766.682],[-63.3674,-18.1844,755.4526],[-63.3585,-18.1839,745.9888],[-63.3559,-18.1771,729.7758],[-63.3418,-18.172,716.1889],[-63.3356,-18.1631,681.1248],[-63.3358,-18.1578,684.5765],[-63.344,-18.149,734.8936],[-63.3487,-18.1475,816.4518],[-63.3499,-18.1449,794.5035],[-63.3492,-18.1402,787.3943],[-63.3562,-18.1307,771.3002],[-63.357,-18.1249,770.0306],[-63.335,-18.1078,668.1721],[-63.3291,-18.1084,664.0907],[-63.3195,-18.1051,655.2277],[-63.3079,-18.1034,636.6855],[-63.2949,-18.1039,628.2928],[-63.2966,-18.0959,635.1044],[-63.2989,-18.0938,638.6399],[-63.2979,-18.087,667.713],[-63.3001,-18.0835,691.4054],[-63.3006,-18.0765,723.4606],[-63.2945,-18.0686,681.3047],[-63.2912,-18.0492,630.4391],[-63.2807,-18.042,602.5217],[-63.2754,-18.042,594.7685],[-63.2713,-18.037,580.4351],[-63.2706,-18.0322,578.8227],[-63.2777,-18.03,589.2893],[-63.2829,-18.0265,601.312],[-63.2788,-18.0235,654.3724],[-63.2807,-18.0224,633.8455],[-63.2796,-18.0202,628.7695],[-63.2842,-18.0185,624.0656],[-63.3004,-18.0157,620.6119],[-63.3047,-18.0266,693.263],[-63.3141,-18.0209,662.1302],[-63.3175,-18.0211,660.2722],[-63.3236,-18.015,611.6728],[-63.3243,-18.0118,621.2188],[-63.3377,-18.0194,591.7452],[-63.3414,-18.0193,644.538],[-63.3464,-18.0061,572.6505],[-63.3463,-18.0006,639.5442],[-63.3443,-17.9966,615.9091],[-63.3506,-17.9902,644.5406],[-63.3517,-17.9847,599.2562],[-63.3524,-17.968,572.3353],[-63.354,-17.9665,558.8211],[-63.3552,-17.9596,526.552],[-63.3589,-17.9574,501.0719],[-63.3526,-17.9482,515.7195],[-63.358,-17.9452,497.532],[-63.3618,-17.9387,488.5421],[-63.3686,-17.9323,494.5688],[-63.3706,-17.9321,498.4005],[-63.3747,-17.9368,527.9868],[-63.3821,-17.936,533.7764],[-63.3855,-17.9377,537.5028],[-63.3899,-17.9374,566.4673],[-63.3942,-17.9425,568.7498],[-63.3995,-17.9419,656.7791],[-63.4187,-17.9477,614.256],[-63.4248,-17.94,619.5013],[-63.434,-17.9415,651.172],[-63.4406,-17.9414,681.8535],[-63.4464,-17.9387,774.2731],[-63.456,-17.9398,888.122],[-63.4584,-17.9387,895.6676],[-63.4593,-17.9363,910.5459],[-63.4675,-17.9326,998.7788],[-63.4705,-17.9251,1038.0638],[-63.469,-17.9133,1107.3822],[-63.4714,-17.9103,1052.8225],[-63.4711,-17.906,1100.9954],[-63.4744,-17.8955,1106.8232],[-63.4741,-17.8901,1101.1997],[-63.4783,-17.887,937.8842],[-63.4797,-17.8817,1134.6902],[-63.4833,-17.8776,1108.3706],[-63.4817,-17.8628,1098.9086],[-63.4837,-17.8357,830.0753],[-63.485,-17.8337,778.6236],[-63.4976,-17.8292,560.549],[-63.5065,-17.8188,721.3695],[-63.5099,-17.8125,618.3657],[-63.5167,-17.8075,480.6281],[-63.5198,-17.8128,499.1468],[-63.5263,-17.8138,495.094],[-63.5372,-17.8241,505.9831],[-63.5329,-17.8332,535.3696],[-63.5371,-17.8383,530.8834],[-63.5365,-17.8415,561.3693],[-63.5384,-17.8463,540.2109],[-63.5414,-17.8466,549.2819],[-63.5433,-17.8492,537.3849],[-63.5431,-17.8509,543.8272],[-63.5413,-17.8495,568.4873],[-63.5412,-17.8526,561.9337],[-63.5437,-17.8531,576.5667],[-63.5469,-17.8578,617.884],[-63.5451,-17.8581,638.7997],[-63.5477,-17.862,578.4117],[-63.5444,-17.8646,572.0638],[-63.5447,-17.8691,595.4061],[-63.5466,-17.8712,624.8506],[-63.5515,-17.8718,594.5937],[-63.5515,-17.8756,607.4727],[-63.5535,-17.8766,601.6526],[-63.5527,-17.8789,618.8555],[-63.5549,-17.8798,639.0745],[-63.5577,-17.8765,649.923],[-63.5626,-17.8767,756.697],[-63.5629,-17.8788,711.4486],[-63.5666,-17.8801,660.6586],[-63.5655,-17.8831,687.8942],[-63.5774,-17.8899,865.1402],[-63.581,-17.8952,952.7504],[-63.5909,-17.8973,987.8506],[-63.5979,-17.9007,1002.8954],[-63.6025,-17.9063,1074.6919],[-63.601,-17.9092,1092.6726],[-63.6012,-17.9144,1127.3894],[-63.6083,-17.919,1212.8507],[-63.6115,-17.919,1241.5979],[-63.6187,-17.9222,1490.6561],[-63.6256,-17.9298,1312.2639],[-63.6311,-17.9315,1163.4052],[-63.6364,-17.9384,1063.2145],[-63.6464,-17.9402,908.4631],[-63.6462,-17.9413,944.827],[-63.6441,-17.942,923.407],[-63.6436,-17.9466,970.8116],[-63.6404,-17.9501,951.7886],[-63.639,-17.95,951.7886],[-63.6394,-17.9482,941.1979],[-63.6351,-17.9473,975.3325],[-63.632,-17.9511,968.2454],[-63.6301,-17.9506,988.6095],[-63.6293,-17.9523,988.8824],[-63.6259,-17.9529,1050.9539],[-63.6219,-17.959,1069.4889],[-63.6216,-17.9784,1120.3297],[-63.6177,-17.9826,1159.2151],[-63.6175,-17.991,1192.7754],[-63.615,-18.0003,1249.9392],[-63.6168,-18.0162,1418.6547]]]]}
,"properties": {"GID_3": "BOL.8.1.2_2","GID_0": "BOL","country": "Bolivia","GID_1": "BOL.8_1","province": "SantaCruz","NL_NAME_1": "NA","GID_2": "BOL.8.1_2","county": "AndrésIbáñez","NL_NAME_2": "NA","city": "ElTorno","VARNAME_3": "NA","NL_NAME_3": "NA","TYPE_3": "District","ENGTYPE_3": "Distrito","CC_3": "NA","HASC_3": "NA","name": "El_Torno.city","area_km2": 973.835,"hist_schema_id": "Elevation0-9000","hist_area_km2": {"475": 0.4035,"500": 10.7904,"525": 18.8153,"550": 22.9272,"575": 35.1434,"600": 46.7734,"625": 56.0052,"650": 63.2615,"675": 73.0342,"700": 77.462,"725": 75.1779,"750": 63.0237,"775": 52.5228,"800": 45.4323,"825": 32.3517,"850": 22.4138,"875": 16.3289,"900": 15.0189,"925": 15.4623,"950": 14.938,"975": 15.462,"1000": 13.89,"1025": 13.5072,"1050": 14.173,"1075": 13.2053,"1100": 13.4271,"1125": 12.7024,"1150": 12.6003,"1175": 11.3911,"1200": 10.8065,"1225": 9.4559,"1250": 8.5079,"1275": 8.4677,"1300": 6.3507,"1325": 6.4516,"1350": 5.6857,"1375": 5.7456,"1400": 5.2822,"1425": 4.3146,"1450": 4.1329,"1475": 3.1859,"1500": 2.9639,"1525": 2.964,"1550": 2.8426,"1575": 2.0967,"1600": 1.7743,"1625": 1.8751,"1650": 1.1291,"1675": 1.0885,"1700": 0.504,"1725": 0.3831,"1750": 0.1814}}}