{"type":"Feature","properties":{"GID_3":"BOL.7.15.3_2","GID_0":"BOL","country":"Bolivia","GID_1":"BOL.7_1","province":"Potosí","NL_NAME_1":"NA","GID_2":"BOL.7.15_2","county":"SurLipez","NL_NAME_2":"NA","city":"SanPablo","VARNAME_3":"NA","NL_NAME_3":"NA","TYPE_3":"District","ENGTYPE_3":"Distrito","CC_3":"NA","HASC_3":"NA","name":"San_Pablo.city"},
"geometry":{"type": "MultiPolygon","coordinates": [[[[-66.871,-22.4718,4880.1685],[-66.8804,-22.46,5205.2393],[-66.8884,-22.4432,5301.458],[-66.9028,-22.4227,4901.8921],[-66.9082,-22.4213,4860.1699],[-66.9128,-22.4166,4787.3032],[-66.9218,-22.4121,4720.8247],[-66.9475,-22.3772,4974.6548],[-66.9561,-22.3344,5012.5674],[-66.9808,-22.319,4934.3193],[-66.9863,-22.3073,4877.6172],[-66.9949,-22.3002,4948.2554],[-66.9864,-22.2639,4486.3027],[-66.9502,-22.2124,4677.5229],[-66.942,-22.2044,4377.5],[-66.9128,-22.1379,4566.3428],[-66.8774,-22.1081,4707.7573],[-66.8031,-22.0632,4509.4043],[-66.7942,-22.0553,4397.0542],[-66.7853,-22.034,4360.5449],[-66.7812,-22.0187,4295.1895],[-66.7798,-22.0081,4278.5146],[-66.7812,-22.0035,4265.9741],[-66.7795,-21.9972,4253.2363],[-66.7763,-21.9907,4260.5942],[-66.7735,-21.9887,4249.9541],[-66.7738,-21.9854,4292.6885],[-66.7694,-21.9792,4264.749],[-66.7611,-21.9731,4205.0723],[-66.76,-21.9704,4224.6689],[-66.75,-21.9668,4203.8916],[-66.7442,-21.9659,4206.6353],[-66.7422,-21.9682,4218.4463],[-66.7279,-21.965,4170.0332],[-66.7252,-21.965699999999998,4163.9321],[-66.7168,-21.957,4148.2588],[-66.7112,-21.9544,4138.9639],[-66.7077,-21.9506,4139.1758],[-66.7011,-21.9501,4131.9795],[-66.7006,-21.9483,4135.519],[-66.6954,-21.9466,4128.9077],[-66.693,-21.9441,4130.9541],[-66.6995,-21.9268,4170.6538],[-66.687,-21.9179,4262.083],[-66.6838,-21.912,4289.0166],[-66.6754,-21.906,4347.2656],[-66.657,-21.8844,4701.5312],[-66.6537,-21.8677,4958.8511],[-66.6459,-21.8612,4916.0117],[-66.6385,-21.8596,4972.7617],[-66.6375,-21.8553,5031.5166],[-66.6424,-21.8487,4868.6475],[-66.6475,-21.8457,4865.9043],[-66.6537,-21.833,4675.1431],[-66.6605,-21.8254,4942.0508],[-66.663,-21.8053,4928.4375],[-66.6584,-21.8,5162.7827],[-66.6534,-21.7992,5076.7822],[-66.6519,-21.7963,5050.7222],[-66.6445,-21.7924,4844.5396],[-66.6411,-21.7879,4888.5889],[-66.6319,-21.7899,4944.1426],[-66.6215,-21.7887,4994.0801],[-66.6083,-21.7713,4987.2046],[-66.6046,-21.7743,4941.4297],[-66.5901,-21.7738,4752.7349],[-66.5778,-21.7681,4597.2964],[-66.5571,-21.7662,4789.6333],[-66.5502,-21.7687,5065.0625],[-66.544,-21.768,5211.0771],[-66.532,-21.7621,5161.3999],[-66.5219,-21.7544,5039.1284],[-66.5195,-21.7474,5213.8022],[-66.505,-21.7515,5182.6548],[-66.5022,-21.7539,5203.0342],[-66.4975,-21.7537,5271.6646],[-66.4959,-21.7565,5357.7676],[-66.4819,-21.7541,5604.7314],[-66.4535,-21.7397,5070.1777],[-66.4473,-21.7288,5022.4326],[-66.4469,-21.7253,4929.1133],[-66.4504,-21.7178,4878.0908],[-66.4419,-21.6984,4231.5454],[-66.4396,-21.6996,4207.3286],[-66.4263,-21.6985,4098.2793],[-66.4209,-21.6972,4055.135],[-66.4159,-21.6932,3861.7402],[-66.4064,-21.695,3827.6455],[-66.3958,-21.7035,3757.6135],[-66.3857,-21.7065,3723.6514],[-66.3793,-21.7137,3713.0327],[-66.3737,-21.717,3666.5918],[-66.3687,-21.7264,3657.5564],[-66.3637,-21.7274,3632.0996],[-66.3595,-21.7324,3633.0569],[-66.3593,-21.737,3664.937],[-66.3554,-21.7455,3634.0444],[-66.3403,-21.7586,3769.1868],[-66.3388,-21.7666,3534.5454],[-66.3355,-21.7677,3540.6409],[-66.3236,-21.7651,3515.5728],[-66.3265,-21.7637,3607.1318],[-66.3335,-21.7556,3756.5977],[-66.3308,-21.7437,3879.8889],[-66.3342,-21.7369,3883.415],[-66.3338,-21.7314,3860.0146],[-66.3468,-21.7119,4278.9648],[-66.3476,-21.7032,4281.7285],[-66.3395,-21.68,4543.5244],[-66.3354,-21.662,5102.4609],[-66.3315,-21.6608,5152.8003],[-66.3122,-21.6419,4644.6299],[-66.306,-21.6199,4210.377],[-66.2942,-21.6092,4190.8008],[-66.2809,-21.6042,4194.3647],[-66.2736,-21.5821,3810.4246],[-66.2692,-21.5795,3821.8862],[-66.2698,-21.5731,3854.4136],[-66.2681,-21.5659,3906.2451],[-66.2699,-21.5483,4018.8025],[-66.2716,-21.5446,4035.9392],[-66.2706,-21.5387,4111.9385],[-66.2727,-21.5302,4166.2871],[-66.2711,-21.5221,4286.4785],[-66.2725,-21.5129,4196.4668],[-66.2758,-21.506,4144.6514],[-66.2741,-21.4967,4124.2544],[-66.2677,-21.4922,4101.2725],[-66.2805,-21.4734,4135.6895],[-66.2832,-21.467,4157.4292],[-66.2825,-21.4591,4179.4253],[-66.2885,-21.454,4177.8462],[-66.2916,-21.4442,4188.8345],[-66.2913,-21.438,4196.5571],[-66.2845,-21.4346,4218.4214],[-66.2774,-21.4349,4263.2168],[-66.2718,-21.4331,4311.8784],[-66.2692,-21.4262,4422.4136],[-66.3028,-21.4078,4216.5303],[-66.3055,-21.4085,4214.0513],[-66.3086,-21.4071,4209.4824],[-66.3227,-21.3943,4200.6201],[-66.3376,-21.3893,4176.5742],[-66.3461,-21.3845,4178.2241],[-66.3558,-21.3832,4161.1953],[-66.36,-21.381,4162.4272],[-66.3775,-21.3856,4143.4307],[-66.3796,-21.3852,4141.3311],[-66.3819,-21.3822,4142.2695],[-66.3882,-21.3832,4127.6777],[-66.3935,-21.3811,4139.6035],[-66.3987,-21.3814,4119.2778],[-66.4081,-21.3774,4123.8901],[-66.4178,-21.3786,4106.3062],[-66.4245,-21.382,4102.1426],[-66.4319,-21.3787,4096.2759],[-66.4428,-21.38,4088.1445],[-66.4483,-21.3778,4091.479],[-66.4526,-21.3721,4112.2178],[-66.4629,-21.3641,4081.3613],[-66.4709,-21.3611,4068.9385],[-66.4797,-21.3603,4057.4592],[-66.4798,-21.3562,4056.7705],[-66.4857,-21.3534,4070.2656],[-66.4902,-21.3476,4054.2114],[-66.4953,-21.3474,4052.3962],[-66.4969,-21.3409,4052.1733],[-66.4998,-21.337,4039.8645],[-66.5069,-21.3301,4033.365],[-66.5183,-21.3237,4024.8875],[-66.5197,-21.3199,4027.1543],[-66.5236,-21.3183,4020.5659],[-66.5257,-21.3156,4024.0811],[-66.5344,-21.3135,4010.3972],[-66.5425,-21.3077,4010.4434],[-66.5473,-21.3072,4000.7419],[-66.5486,-21.3057,4001.8433],[-66.563,-21.3065,3992.3203],[-66.57,-21.3007,3985.0115],[-66.5803,-21.2972,3978.4146],[-66.5874,-21.2966,3974.5845],[-66.5944,-21.2981,3968.5625],[-66.5986,-21.3032,3964.8511],[-66.6069,-21.3049,3958.9062],[-66.6091,-21.3076,3957.8745],[-66.6103,-21.3148,3952.1255],[-66.6189,-21.3222,3944.6799],[-66.6244,-21.3216,3942.4614],[-66.6312,-21.3231,3938.5928],[-66.634,-21.3253,3936.9463],[-66.6399,-21.3251,3934.6711],[-66.642,-21.3281,3934.1643],[-66.6457,-21.3275,3930.2346],[-66.6543,-21.3308,3927.4851],[-66.6597,-21.3373,3920.3562],[-66.6673,-21.3391,3918.3589],[-66.6698,-21.3411,3917.4702],[-66.6731,-21.3481,3913.0876],[-66.6834,-21.3538,3908.2061],[-66.6886,-21.3537,3905.6816],[-66.6917,-21.3512,3908.688],[-66.7005,-21.3527,3900.9949],[-66.7105,-21.3502,3896.5044],[-66.7137,-21.3479,3896.1282],[-66.7167,-21.3422,3891.6992],[-66.7219,-21.3402,3888.2651],[-66.7304,-21.3417,3886.6885],[-66.735,-21.3461,3882.3247],[-66.7451,-21.3443,3882.3616],[-66.7584,-21.349,3873.1377],[-66.761,-21.3486,3871.2432],[-66.7885,-21.3843,3878.7202],[-66.8105,-21.4315,3933.7129],[-66.835,-21.5069,3940.0837],[-66.8449,-21.5112,3892.7852],[-66.8468,-21.5197,3931.6702],[-66.8752,-21.5326,3933.7876],[-66.9095,-21.5683,3908.3474],[-66.918,-21.6035,3968.8848],[-66.9458,-21.6203,4007.9543],[-67.0244,-21.7023,3969.3977],[-67.044,-21.773,4008.7368],[-67.0419,-21.7896,4033.1787],[-67.0985,-21.8506,4387.4766],[-67.0831,-21.8588,4325.2866],[-67.0586,-21.8652,4266.8984],[-67.0468,-21.8763,4283.7881],[-67.041,-21.8854,4293.3364],[-67.038,-21.8953,4306.2988],[-67.0371,-21.9108,4326.2842],[-67.0274,-21.9253,4406.6626],[-67.0321,-21.9656,4807.4375],[-67.0513,-21.9762,4838.6958],[-67.1544,-22.0059,5170.4785],[-67.2197,-22.0092,5866.3784],[-67.2434,-22.0045,5259.8193],[-67.3406,-22.0144,4177.9551],[-67.4376,-21.9828,4301.6958],[-67.5634,-21.9819,4442.5747],[-67.6251,-21.9525,4716.4453],[-67.7736,-21.9487,5467.29],[-67.8163,-21.9636,5018.1201],[-67.9244,-21.959,4974.7036],[-68.0706,-21.962,5318.2236],[-68.072,-21.9802,5589.4775],[-68.0148,-22.024,4829.2891],[-68.0074,-22.0395,4547.6792],[-68.0024,-22.0393,4582.8711],[-67.9652,-22.0541,5684.8203],[-67.9665,-22.0711,5421.9854],[-67.964,-22.0787,5342.7139],[-67.9545,-22.0865,5538.395],[-67.9392,-22.1086,5481.3232],[-67.9405,-22.1168,5439.1465],[-67.9541,-22.149,5473.9238],[-67.9578,-22.1514,5521.7129],[-67.9552,-22.1778,5560.8457],[-67.9436,-22.1853,5064.5029],[-67.9342,-22.2058,5379.4092],[-67.9222,-22.2423,5497.3579],[-67.9225,-22.2525,5423.0303],[-67.9257,-22.2759,5467.792],[-67.9385,-22.2941,5388.9497],[-67.9388,-22.3124,5379.9048],[-67.9514,-22.3304,5286.4868],[-67.9229,-22.3925,5083.4023],[-67.8986,-22.4239,5679.8154],[-67.8929,-22.4822,4624.7661],[-67.8926,-22.4991,4921.0923],[-67.8871,-22.508,4578.9419],[-67.8783,-22.514,4549.1143],[-67.8534,-22.5573,5780.3135],[-67.878,-22.6661,5418.75],[-67.872,-22.6717,5435.5542],[-67.8683,-22.679,5555.2783],[-67.8691,-22.6914,5598.8926],[-67.886,-22.6895,5538.2866],[-67.8892,-22.7023,5591.3325],[-67.8909,-22.7191,5938.7642],[-67.8788,-22.8005,4481.3252],[-67.8832,-22.8344,5898.8281],[-67.8325,-22.8504,5432.2437],[-67.799,-22.8812,4478.457],[-67.7517,-22.8846,4656.5596],[-67.588,-22.9066,5534.5547],[-67.5632,-22.8982,5557.1196],[-67.3586,-22.8527,4595.5957],[-67.3062,-22.8429,4666.9443],[-67.1805,-22.814,5586.2227],[-67.1278,-22.7221,5346.2334],[-67.0141,-22.6548,5825.7476],[-67.0273,-22.5409,5512.2812],[-66.973,-22.5407,5662.9902],[-66.9286,-22.4922,5461.8984],[-66.871,-22.4718,4880.1685]]]]}}