{"type":"Feature","properties":{"GID_3":"BOL.4.3.5_2","GID_0":"BOL","country":"Bolivia","GID_1":"BOL.4_1","province":"LaPaz","NL_NAME_1":"NA","GID_2":"BOL.4.3_2","county":"Aroma","NL_NAME_2":"NA","city":"Patacamaya","VARNAME_3":"NA","NL_NAME_3":"NA","TYPE_3":"District","ENGTYPE_3":"Distrito","CC_3":"NA","HASC_3":"NA","name":"Patacamaya.city"},
"geometry":{"type": "MultiPolygon","coordinates": [[[[-68.1154,-17.1766,3959.5393],[-68.1148,-17.1921,3994.3271],[-68.106,-17.2217,3959.5496],[-68.0896,-17.2202,3909.6709],[-68.0895,-17.237,3938.6221],[-68.1018,-17.269,4006.7905],[-68.0714,-17.2729,3931.6724],[-68.02,-17.2757,3835.0471],[-68.0192,-17.2682,3829.6663],[-67.9961,-17.2735,3802.4653],[-67.9856,-17.277,3793.447],[-67.9866,-17.2788,3792.105],[-67.9791,-17.2879,3781.709],[-67.9603,-17.3068,3760.5312],[-67.9582,-17.3074,3759.4585],[-67.9545,-17.3139,3755.4873],[-67.9447,-17.3179,3750.5049],[-67.9271,-17.319,3747.7546],[-67.917,-17.3237,3746.5703],[-67.8805,-17.3294,3741.3521],[-67.8483,-17.3301,3761.366],[-67.8416,-17.3248,3775.428],[-67.8313,-17.3201,3796.9058],[-67.8301,-17.3173,3804.7209],[-67.8245,-17.3131,3818.1731],[-67.8115,-17.2954,3877.6179],[-67.8412,-17.2776,3846.7051],[-67.8258,-17.2734,3900.6484],[-67.8141,-17.2607,3965.8359],[-67.8026,-17.2546,4026.3274],[-67.8013,-17.2524,4056.1499],[-67.8033,-17.2496,4077.5034],[-67.7995,-17.2441,4186.6411],[-67.7983,-17.2371,4253.999],[-67.7952,-17.2378,4307.4121],[-67.7906,-17.2336,4122.144],[-67.7118,-17.2343,4609.6587],[-67.776,-17.2188,4244.3379],[-67.7681,-17.213,4340.9033],[-67.7677,-17.2111,4344.6836],[-67.748,-17.2025,4710.3564],[-67.7581,-17.1897,4722.7759],[-67.7664,-17.184,4649.8457],[-67.7722,-17.1837,4665.5371],[-67.7703,-17.1808,4698.7607],[-67.7722,-17.1771,4743.9692],[-67.7952,-17.1556,4543.9292],[-67.8086,-17.1406,4324.2144],[-67.8111,-17.1345,4178.002],[-67.8353,-17.1112,3615.853],[-67.8397,-17.123,3880.8926],[-67.8535,-17.1311,4464.9038],[-67.856,-17.1229,4409.5391],[-67.8621,-17.1186,4382.3828],[-67.8654,-17.1128,4401.3955],[-67.8727,-17.0754,4470.3926],[-67.8969,-17.0859,4128.2446],[-67.924,-17.1009,3992.8347],[-67.9291,-17.1091,3959.5859],[-67.9366,-17.1078,3948.8828],[-67.9526,-17.1007,3946.8604],[-67.9645,-17.102,3923.9214],[-67.9701,-17.1197,3851.5715],[-67.958,-17.138,3887.7986],[-67.9588,-17.1447,3948.0525],[-67.9531,-17.1523,3964.2275],[-67.9511,-17.1582,3883.085],[-67.9549,-17.1711,3845.7029],[-67.9529,-17.1815,3834.8762],[-67.991,-17.192,4133.6475],[-68.005,-17.1995,3923.7695],[-68.0102,-17.2042,3986.0728],[-68.0155,-17.202,3989.5786],[-68.0444,-17.1979,4001.4106],[-68.0467,-17.2044,3958.9546],[-68.0508,-17.2072,3941.4678],[-68.0633,-17.2019,4098.6069],[-68.0746,-17.1992,4016.5222],[-68.0863,-17.1902,4013.1047],[-68.1154,-17.1766,3959.5393]]]]}}