{"type": "Feature","bbox": [-67.7315,-18.5779,-66.7134,-17.324],"geometry": {"type": "MultiPolygon","coordinates": [[[[-67.0306,-18.0529,3787.4421],[-67.0273,-18.0516,3739.0593],[-67.0203,-18.0571,3708.7109],[-66.9709,-18.1098,4086.3933],[-66.9594,-18.1082,4458.6792],[-66.9547,-18.1162,4446.6758],[-66.9481,-18.1095,4246.5303],[-66.9278,-18.0981,4492.1763],[-66.9094,-18.0799,4621.0645],[-66.8869,-18.0747,4720.2432],[-66.8817,-18.0683,4736.2788],[-66.8634,-18.0685,4701.1665],[-66.8529,-18.064,4629.3379],[-66.8465,-18.0545,4713.4146],[-66.8356,-18.0475,4541.5225],[-66.827,-18.037,4608.7397],[-66.8225,-18.0254,4434.2471],[-66.8012,-18.0037,4403.7559],[-66.7884,-17.9882,4347.0312],[-66.7814,-17.9846,4265.7305],[-66.7482,-17.9529,4148.4463],[-66.7379,-17.9397,4227.7695],[-66.7151,-17.9001,4293.6318],[-66.7134,-17.8937,4267.3892],[-66.7136,-17.8846,4276.4678],[-66.7162,-17.8781,4178.8799],[-66.7225,-17.8701,4048.7878],[-66.7206,-17.8574,4056.1816],[-66.7234,-17.8512,4000.3525],[-66.7224,-17.8486,3983.9604],[-66.7308,-17.8405,4086.5874],[-66.7471,-17.8377,4093.7642],[-66.7511,-17.8348,4124.9531],[-66.757,-17.825,4125.4863],[-66.7641,-17.8029,4158.8579],[-66.7708,-17.7933,4133.873],[-66.7761,-17.7914,4167.0879],[-66.772,-17.7818,4365.3906],[-66.7791,-17.7844,4344.8892],[-66.7819,-17.781,4311.7983],[-66.7957,-17.7818,4422.1162],[-66.7967,-17.7767,4384.4238],[-66.8157,-17.7567,4338.1646],[-66.8216,-17.7373,4505.4409],[-66.8345,-17.7264,4499.8955],[-66.8513,-17.7191,4562.6035],[-66.8608,-17.7126,4500.833],[-66.8697,-17.7017,4465.8154],[-66.8714,-17.6925,4550.8281],[-66.8772,-17.6896,4509.8652],[-66.879,-17.6789,4522.9834],[-66.892,-17.6661,4507.3345],[-66.8876,-17.6392,4374.7207],[-66.8833,-17.6333,4449.7617],[-66.8724,-17.6248,4595.7603],[-66.8728,-17.6173,4596.1938],[-66.886,-17.5997,4543.5693],[-66.8999,-17.5905,4576.0781],[-66.9365,-17.6109,4393.3091],[-66.9747,-17.6209,4221.2852],[-67.0068,-17.6319,4296.7876],[-67.0104,-17.6294,4315.5996],[-67.014,-17.6182,4510.1475],[-67.0358,-17.6069,4366.8789],[-67.0414,-17.6023,4394.8516],[-67.051,-17.5877,4384.3311],[-67.0213,-17.539,4504.335],[-67.0198,-17.5281,4428.4678],[-67.0261,-17.5119,4416.5591],[-67.036,-17.5002,4509.915],[-67.0498,-17.4957,4559.7881],[-67.0599,-17.4791,4482.2466],[-67.059,-17.476,4456.6758],[-67.0674,-17.4701,4424.1426],[-67.0774,-17.47,4534.8906],[-67.0842,-17.4647,4470.6128],[-67.0877,-17.466,4404.6836],[-67.1245,-17.4654,4639.4077],[-67.1359,-17.4543,4671.646],[-67.1421,-17.4534,4650.4531],[-67.1509,-17.4494,4647.749],[-67.1566,-17.4413,4635.9253],[-67.1712,-17.4327,4603.2393],[-67.1839,-17.4228,4567.8545],[-67.1903,-17.4167,4553.6084],[-67.1913,-17.4139,4476.0254],[-67.1869,-17.4074,4355.5957],[-67.1886,-17.3864,4328.6157],[-67.1875,-17.3786,4283.3433],[-67.1915,-17.3749,4256.7715],[-67.1937,-17.3695,4219.8574],[-67.1996,-17.3655,4257.6729],[-67.1982,-17.3573,4209.6914],[-67.1962,-17.3559,4203.9272],[-67.1968,-17.3516,4211.7129],[-67.194,-17.3486,4211.5884],[-67.1982,-17.3464,4253.1904],[-67.2033,-17.3363,4159.0566],[-67.2155,-17.3351,4141.8193],[-67.2181,-17.3373,4134.603],[-67.223,-17.3322,4134.3745],[-67.2273,-17.3342,4122.3994],[-67.2285,-17.3367,4120.7046],[-67.2328,-17.3353,4114.6582],[-67.2344,-17.3326,4109.626],[-67.2433,-17.3283,4107.4326],[-67.2482,-17.324,4093.4446],[-67.2535,-17.324,4089.4583],[-67.2535,-17.3282,4117.9155],[-67.2567,-17.3325,4181.7578],[-67.2775,-17.3448,4110.1631],[-67.2851,-17.357,4034.8499],[-67.2858,-17.3683,3987.436],[-67.2937,-17.3755,3975.8586],[-67.2943,-17.3805,3961.0391],[-67.2969,-17.3837,3955.5347],[-67.3098,-17.3807,3961.9355],[-67.3134,-17.3838,3983.0273],[-67.3149,-17.3922,4136.125],[-67.3192,-17.395,4357.1621],[-67.3138,-17.4135,4041.2307],[-67.3198,-17.4208,4133.3633],[-67.3216,-17.4252,4297.3989],[-67.3325,-17.4273,4136.0122],[-67.3373,-17.4305,4112.6035],[-67.3401,-17.449,4054.4614],[-67.3417,-17.4504,4050.2803],[-67.3447,-17.4489,4063.5713],[-67.3495,-17.4519,4041.8792],[-67.3666,-17.453,4104.874],[-67.3745,-17.4618,4126.2363],[-67.3771,-17.477,4075.6582],[-67.3758,-17.4906,3988.4888],[-67.3821,-17.5009,4154.1963],[-67.3819,-17.5093,4011.7683],[-67.3876,-17.5166,4107.6348],[-67.3866,-17.52,4170.3208],[-67.3803,-17.5257,4196.2754],[-67.3797,-17.5284,4145.2734],[-67.3816,-17.5312,4185.5317],[-67.3797,-17.5393,4007.1162],[-67.3813,-17.5393,4030.2053],[-67.3908,-17.5488,3969.3267],[-67.3938,-17.5606,4067.8613],[-67.3858,-17.5676,4022.2549],[-67.3832,-17.5835,4190.1089],[-67.3717,-17.5945,4157.7363],[-67.3582,-17.6004,4132.8286],[-67.3529,-17.6114,4255.7583],[-67.3494,-17.6126,4261.8389],[-67.3326,-17.6102,4127.1294],[-67.3295,-17.6116,4156.668],[-67.3301,-17.6191,4163.0527],[-67.3241,-17.624,4146.7783],[-67.324,-17.633,4056.9988],[-67.35,-17.6636,3751.5898],[-67.364,-17.6852,3710.3936],[-67.3375,-17.6973,3713.7065],[-67.4164,-17.7467,3711.0552],[-67.4284,-17.7491,3711.811],[-67.4499,-17.7366,3712.5439],[-67.4843,-17.7337,3715.0],[-67.4851,-17.724,3715.0],[-67.4914,-17.7149,3717.4434],[-67.4932,-17.7072,3716.9321],[-67.496,-17.7034,3716.2595],[-67.5042,-17.6988,3716.5234],[-67.5105,-17.6909,3717.1479],[-67.512,-17.6852,3716.0],[-67.5174,-17.6805,3718.0076],[-67.5161,-17.6717,3717.0093],[-67.5313,-17.6738,3718.5081],[-67.5582,-17.7035,3719.5164],[-67.5863,-17.7119,3721.23],[-67.5858,-17.7682,3718.5564],[-67.6325,-17.7649,3745.311],[-67.6445,-17.758,3717.9634],[-67.677,-17.7639,3720.55],[-67.6798,-17.7781,3719.8975],[-67.7016,-17.8022,3719.8105],[-67.7076,-17.848,3716.3191],[-67.7315,-17.8593,3717.4451],[-67.7275,-17.8635,3717.0312],[-67.7242,-17.8647,3716.9155],[-67.7224,-17.8709,3716.6548],[-67.716,-17.8745,3716.3799],[-67.7164,-17.8814,3716.2314],[-67.7129,-17.8891,3715.7168],[-67.7137,-17.8936,3715.2622],[-67.7093,-17.8916,3715.4844],[-67.7098,-17.8934,3715.4517],[-67.7078,-17.895,3715.2471],[-67.7058,-17.8944,3715.2644],[-67.7029,-17.896,3715.1379],[-67.6987,-17.9022,3714.73],[-67.7006,-17.9058,3714.5894],[-67.6969,-17.9092,3714.5347],[-67.6966,-17.9116,3714.4604],[-67.6721,-17.91,3712.2935],[-67.6655,-17.9134,3712.0159],[-67.6649,-17.915,3711.948],[-67.6567,-17.9157,3712.0996],[-67.6514,-17.9124,3712.6709],[-67.6334,-17.9123,3714.0527],[-67.6172,-17.9006,3714.1099],[-67.5707,-17.8755,3713.1841],[-67.5527,-17.8585,3713.8904],[-67.5359,-17.8307,3714.0601],[-67.4959,-17.811,3713.1863],[-67.4589,-17.7784,3712.0],[-67.4509,-17.7762,3713.4507],[-67.4488,-17.777,3713.7227],[-67.4455,-17.7808,3713.7534],[-67.4476,-17.7821,3714.8096],[-67.4462,-17.7849,3714.6819],[-67.4371,-17.7915,3713.7676],[-67.439,-17.803,3713.8003],[-67.4306,-17.8129,3713.3364],[-67.4258,-17.8236,3712.502],[-67.4145,-17.8349,3713.6426],[-67.4127,-17.8399,3711.4097],[-67.4143,-17.8425,3712.2192],[-67.4112,-17.845,3710.866],[-67.4115,-17.8491,3710.9614],[-67.4088,-17.8548,3711.4463],[-67.4042,-17.8625,3711.1863],[-67.4,-17.8639,3710.4421],[-67.3982,-17.8669,3710.281],[-67.3999,-17.8785,3709.7683],[-67.402,-17.8825,3710.1519],[-67.3982,-17.8924,3709.6333],[-67.402,-17.9,3710.043],[-67.4035,-17.9099,3709.1807],[-67.3867,-17.9184,3708.5249],[-67.3813,-17.9355,3707.5281],[-67.3759,-17.9373,3707.8464],[-67.368,-17.9454,3707.9192],[-67.3584,-17.9665,3707.0596],[-67.3477,-17.9739,3707.1123],[-67.3437,-17.9825,3707.0193],[-67.3447,-17.9888,3706.8616],[-67.3401,-17.9897,3706.6875],[-67.3395,-17.9945,3706.6382],[-67.3354,-17.9984,3706.5098],[-67.3358,-18.0027,3706.1636],[-67.3412,-18.0042,3706.0459],[-67.3444,-18.0164,3705.9001],[-67.3421,-18.0194,3705.7568],[-67.3326,-18.0246,3705.4253],[-67.3263,-18.0327,3705.2092],[-67.3276,-18.0405,3704.9512],[-67.3329,-18.045,3704.7583],[-67.3331,-18.049,3704.6296],[-67.323,-18.0548,3704.1895],[-67.3212,-18.059,3704.1597],[-67.3212,-18.064,3704.1448],[-67.3184,-18.0665,3703.887],[-67.2997,-18.0658,3703.5811],[-67.2953,-18.0675,3703.4509],[-67.2909,-18.077,3703.3713],[-67.2915,-18.0844,3702.9783],[-67.2875,-18.0901,3702.8933],[-67.2776,-18.0935,3702.666],[-67.2598,-18.1044,3702.2178],[-67.2578,-18.1075,3702.1699],[-67.259,-18.1133,3702.0618],[-67.2555,-18.1232,3702.0564],[-67.2491,-18.1306,3701.8184],[-67.253,-18.1361,3701.4102],[-67.2524,-18.1382,3701.1223],[-67.2502,-18.1385,3701.1172],[-67.25,-18.1422,3700.9302],[-67.2474,-18.1452,3700.2485],[-67.2491,-18.1505,3700.5391],[-67.2439,-18.1542,3700.1646],[-67.2397,-18.1662,3699.7109],[-67.2459,-18.179,3699.127],[-67.2478,-18.1873,3698.6277],[-67.2441,-18.2059,3697.2632],[-67.2393,-18.2104,3697.0952],[-67.2264,-18.2342,3696.3853],[-67.2193,-18.2711,3695.1008],[-67.2228,-18.2945,3694.5095],[-67.2171,-18.3122,3694.5591],[-67.2131,-18.3157,3694.499],[-67.2106,-18.3322,3693.8545],[-67.2015,-18.3402,3692.9988],[-67.1998,-18.3455,3693.0486],[-67.2069,-18.3786,3692.3303],[-67.2046,-18.3912,3692.5356],[-67.2081,-18.399,3691.6646],[-67.2268,-18.4111,3691.3169],[-67.2332,-18.4204,3690.8115],[-67.2458,-18.4511,3689.1836],[-67.2817,-18.521,3687.4919],[-67.2786,-18.523,3686.313],[-67.2767,-18.5298,3685.5],[-67.2699,-18.537,3685.77],[-67.2426,-18.5779,3685.5],[-67.2187,-18.5628,3685.5],[-67.2102,-18.5611,3685.5],[-67.1994,-18.5519,3685.5],[-67.1832,-18.55,3685.5],[-67.1723,-18.5504,3685.5],[-67.1627,-18.546,3685.5],[-67.1485,-18.5309,3685.5],[-67.1101,-18.5342,3685.5],[-67.0685,-18.489,3688.1621],[-67.0596,-18.4831,3688.3987],[-67.0586,-18.4788,3688.7832],[-67.0525,-18.4718,3689.0],[-67.0492,-18.4648,3689.2224],[-67.0516,-18.453,3689.3191],[-67.0595,-18.4508,3688.3547],[-67.0562,-18.4476,3688.946],[-67.0549,-18.4386,3689.751],[-67.0509,-18.4353,3689.7229],[-67.0501,-18.4308,3689.823],[-67.0514,-18.4176,3690.0857],[-67.048,-18.3929,3690.7034],[-67.0516,-18.3708,3691.1479],[-67.0428,-18.3457,3691.6116],[-67.045,-18.3246,3692.04],[-67.0432,-18.3147,3691.9297],[-67.046,-18.3072,3692.4783],[-67.0509,-18.3013,3692.8162],[-67.0526,-18.2937,3693.1067],[-67.0495,-18.2797,3693.1287],[-67.0494,-18.2674,3693.4229],[-67.0514,-18.2621,3693.4683],[-67.0486,-18.2552,3693.7874],[-67.0484,-18.25,3694.0398],[-67.0574,-18.2345,3695.4248],[-67.0741,-18.2211,3696.0044],[-67.0803,-18.2038,3694.5],[-67.0894,-18.2003,3696.4895],[-67.0888,-18.1936,3696.6865],[-67.0905,-18.1902,3696.7905],[-67.0951,-18.1893,3696.6726],[-67.0987,-18.1843,3696.6169],[-67.1053,-18.1827,3697.1147],[-67.1097,-18.1792,3697.1152],[-67.109,-18.1749,3697.0188],[-67.1052,-18.1746,3696.8608],[-67.1035,-18.172,3696.3755],[-67.0971,-18.1275,3697.0061],[-67.0831,-18.0882,3696.3706],[-67.0779,-18.0796,3696.8472],[-67.0629,-18.0765,3696.0],[-67.0657,-18.0493,3696.0],[-67.0696,-18.0454,3696.0],[-67.0306,-18.0529,3787.4421]]]]}
,"properties": {"GID_2": "BOL.5.3_2","GID_0": "BOL","country": "Bolivia","GID_1": "BOL.5_1","province": "Oruro","NL_NAME_1": "NA","county": "Cercado","VARNAME_2": "NA","NL_NAME_2": "NA","TYPE_2": "Provincia","ENGTYPE_2": "Province","CC_2": "NA","HASC_2": "NA","name": "Cercado.county","area_km2": 5290.83,"hist_schema_id": "Elevation0-9000","hist_area_km2": {"3625": 0.081,"3650": 0.141,"3675": 110.392,"3700": 1849.756,"3725": 704.387,"3750": 191.834,"3775": 139.91,"3800": 135.578,"3825": 120.496,"3850": 135.481,"3875": 123.718,"3900": 124.4,"3925": 120.28,"3950": 116.896,"3975": 119.29,"4000": 124.843,"4025": 106.423,"4050": 92.103,"4075": 80.045,"4100": 72.649,"4125": 78.256,"4150": 89.958,"4175": 87.778,"4200": 82.133,"4225": 70.837,"4250": 63.973,"4275": 54.117,"4300": 43.877,"4325": 38.299,"4350": 34.238,"4375": 30.523,"4400": 26.141,"4425": 23.008,"4450": 20.988,"4475": 17.25,"4500": 15.208,"4525": 12.482,"4550": 9.128,"4575": 6.946,"4600": 5.329,"4625": 3.451,"4650": 2.179,"4675": 1.915,"4700": 1.774,"4725": 1.734,"4750": 0.464,"4800": 0.101}}}