{"type":"Feature","properties":{"GID_3":"BOL.4.21.5_2","GID_0":"BOL","country":"Bolivia","GID_1":"BOL.4_1","province":"LaPaz","NL_NAME_1":"NA","GID_2":"BOL.4.21_2","county":"SudYungas","NL_NAME_2":"NA","city":"Yanacachi","VARNAME_3":"NA","NL_NAME_3":"NA","TYPE_3":"District","ENGTYPE_3":"Distrito","CC_3":"NA","HASC_3":"NA","name":"Yanacachi.city"},
"geometry":{"type": "MultiPolygon","coordinates": [[[[-67.9381,-16.4539,5171.498],[-67.9288,-16.4613,5065.5352],[-67.9224,-16.4618,5027.707],[-67.9175,-16.4651,4883.8477],[-67.9086,-16.4749,4996.2451],[-67.8895,-16.4801,4782.6582],[-67.8867,-16.4855,4610.3701],[-67.8872,-16.489,4706.0181],[-67.8794,-16.4936,4865.6074],[-67.8755,-16.4942,4767.9058],[-67.8715,-16.492,4802.9258],[-67.8621,-16.4934,4842.5493],[-67.8603,-16.4955,4971.0283],[-67.8508,-16.4969,4961.7104],[-67.8464,-16.4995,4963.5786],[-67.8406,-16.5166,5564.9766],[-67.8302,-16.508,5628.8115],[-67.8231,-16.5088,5707.1797],[-67.8153,-16.5149,5748.9854],[-67.799,-16.5223,5045.7358],[-67.7924,-16.534,5226.7798],[-67.7758,-16.5165,4947.2104],[-67.7689,-16.5136,5045.8037],[-67.766,-16.5197,5223.4863],[-67.757,-16.5313,5147.5498],[-67.751,-16.522,5084.7261],[-67.7414,-16.5169,5058.5244],[-67.7391,-16.5164,5037.7271],[-67.7312,-16.5207,5061.564],[-67.7253,-16.5179,5023.3086],[-67.7218,-16.5122,4870.8115],[-67.7179,-16.5096,4789.0371],[-67.7083,-16.518,4865.439],[-67.6949,-16.5057,3756.0671],[-67.6847,-16.5022,2895.0762],[-67.6756,-16.5022,2401.8862],[-67.6737,-16.4997,2310.0005],[-67.6629,-16.4945,1959.6069],[-67.6614,-16.495,1926.609],[-67.6609,-16.4995,1938.5253],[-67.6593,-16.4989,2148.5347],[-67.6591,-16.5009,2072.1289],[-67.6536,-16.5052,2249.302],[-67.645,-16.5082,2503.1172],[-67.6339,-16.5087,2736.7502],[-67.6309,-16.5129,2905.1497],[-67.6186,-16.5186,3690.7085],[-67.6112,-16.4954,3863.2231],[-67.6124,-16.4857,3701.0339],[-67.6112,-16.4812,3561.7986],[-67.6118,-16.4691,3252.5754],[-67.6174,-16.4613,3044.0051],[-67.6197,-16.4534,2942.52],[-67.618,-16.4463,3096.7573],[-67.6125,-16.4428,2697.5635],[-67.6041,-16.4408,2303.3899],[-67.5973,-16.4327,1846.7871],[-67.5961,-16.4281,1659.2344],[-67.5922,-16.4254,1432.7185],[-67.5915,-16.4215,1424.7075],[-67.5958,-16.4163,1391.8881],[-67.5982,-16.4082,1361.3438],[-67.6012,-16.4065,1320.0193],[-67.6065,-16.3981,1310.6086],[-67.6084,-16.3884,1177.0],[-67.6129,-16.3872,1188.1682],[-67.6228,-16.397,1178.8804],[-67.6336,-16.3971,1208.5015],[-67.6416,-16.4026,1214.2023],[-67.6441,-16.4012,1222.7053],[-67.6568,-16.4014,1228.2305],[-67.6674,-16.3988,1246.7319],[-67.6774,-16.3923,1287.3635],[-67.6845,-16.3897,1361.7001],[-67.6899,-16.3896,1346.0018],[-67.7159,-16.3983,1395.5305],[-67.7195,-16.3981,1434.3337],[-67.7369,-16.3888,1463.925],[-67.7425,-16.3823,1513.6954],[-67.7417,-16.3783,1513.23],[-67.7485,-16.3684,1565.3374],[-67.7473,-16.3663,1545.1476],[-67.7481,-16.3626,1739.8573],[-67.7514,-16.3607,1586.9714],[-67.7572,-16.3613,1635.7312],[-67.7611,-16.356,1617.0375],[-67.769,-16.3562,1676.5575],[-67.7806,-16.3632,1675.5256],[-67.7894,-16.3648,1736.5808],[-67.7977,-16.3644,1792.6392],[-67.8048,-16.3614,1830.9727],[-67.8127,-16.3506,1884.212],[-67.8187,-16.3478,1937.9897],[-67.8252,-16.3362,2065.0283],[-67.8272,-16.3193,2243.594],[-67.8259,-16.3137,2258.9573],[-67.8323,-16.3055,2285.9465],[-67.8336,-16.3009,2344.9863],[-67.8422,-16.2989,2343.4028],[-67.8568,-16.304,2453.447],[-67.8617,-16.3014,2589.2532],[-67.8689,-16.3025,2536.0732],[-67.8808,-16.299,2654.2725],[-67.8864,-16.3017,2714.8762],[-67.8908,-16.3098,2834.3442],[-67.9219,-16.3167,3275.4287],[-67.9391,-16.3276,3477.1077],[-67.954,-16.3312,3620.6138],[-67.9497,-16.3398,4384.21],[-67.9409,-16.3474,4894.7324],[-67.9334,-16.362,5227.0845],[-67.9338,-16.3652,5180.3867],[-67.936,-16.366,5150.2544],[-67.9362,-16.3704,5076.813],[-67.9328,-16.374,5248.5288],[-67.9362,-16.3783,5183.6768],[-67.9355,-16.3842,5239.1719],[-67.941,-16.3926,5476.0122],[-67.9386,-16.4023,5198.1968],[-67.9399,-16.4065,5220.6982],[-67.9477,-16.4115,5318.1802],[-67.9478,-16.4185,5286.5889],[-67.9439,-16.424,4884.0752],[-67.9364,-16.4414,5104.3369],[-67.9381,-16.4539,5171.498]]]]}}