{"type": "Feature","id": "1292","bbox": [-65.69441,-21.53538,-62.21057,-18.34524],"geometry": {"type": "Polygon","coordinates": [[[-65.62209,-18.37464,1814.5198],[-65.62865,-18.37371,1820.8096],[-65.63415,-18.37097,1887.9669],[-65.63904,-18.36761,1858.4916],[-65.64498,-18.36555,1889.6562],[-65.65705,-18.3642,1853.1864],[-65.66103,-18.36182,1875.0018],[-65.66351,-18.3581,1912.8809],[-65.66593,-18.35051,1964.2538],[-65.66842,-18.34699,1866.8638],[-65.67283,-18.34524,1862.2621],[-65.67813,-18.34601,1866.4432],[-65.68358,-18.34803,1868.5862],[-65.6888,-18.35118,1877.3739],[-65.69244,-18.3549,1886.9436],[-65.69441,-18.3642,1982.4165],[-65.68854,-18.39991,2009.5796],[-65.68849,-18.40901,2241.3564],[-65.68699,-18.41464,2033.8833],[-65.68361,-18.4211,1945.3152],[-65.67449,-18.43174,1936.7001],[-65.66748,-18.43748,1942.9995],[-65.66064,-18.44166,1948.7843],[-65.63891,-18.45133,1967.0784],[-65.62865,-18.45825,1977.5157],[-65.62542,-18.46569,1992.2074],[-65.62428,-18.47639,1995.5935],[-65.63074,-18.52414,2082.1187],[-65.62857,-18.56574,2105.8965],[-65.60777,-18.67411,3206.6543],[-65.60855,-18.6786,3463.8823],[-65.61297,-18.68801,3201.1062],[-65.62082,-18.697,3079.6902],[-65.64405,-18.71576,3177.2397],[-65.64847,-18.7202,3398.0366],[-65.65193,-18.72506,3681.698],[-65.65472,-18.73059,3532.3721],[-65.65614,-18.73663,3587.4336],[-65.65503,-18.74361,3516.6431],[-65.65219,-18.74867,3457.9851],[-65.64493,-18.75286,3511.7168],[-65.63981,-18.75369,3428.1907],[-65.63483,-18.75307,3359.3906],[-65.62968,-18.75152,3208.8269],[-65.52111,-18.69994,3176.2676],[-65.50104,-18.69297,3100.3801],[-65.45745,-18.68305,2772.063],[-65.45155,-18.68289,2667.3372],[-65.4467,-18.68382,2786.2817],[-65.44063,-18.68558,2600.252],[-65.43499,-18.68806,2672.1831],[-65.43006,-18.69157,2852.3972],[-65.42616,-18.69638,2865.2183],[-65.4238,-18.70248,2702.0562],[-65.42187,-18.71214,2848.728],[-65.42326,-18.72258,3072.8528],[-65.42714,-18.73426,2977.5542],[-65.43719,-18.75131,2928.7297],[-65.44422,-18.75973,3031.3528],[-65.45057,-18.76526,3033.8711],[-65.46618,-18.77456,3178.2268],[-65.50248,-18.80469,3211.895],[-65.50419,-18.80702,3205.7991],[-65.50636,-18.81291,3209.3025],[-65.50737,-18.82174,3267.647],[-65.50504,-18.83244,3199.123],[-65.50233,-18.83813,3171.8201],[-65.50026,-18.84097,3170.5264],[-65.49204,-18.84769,3176.7117],[-65.48424,-18.85544,3182.2529],[-65.48124,-18.85993,3227.1677],[-65.47874,-18.86474,3223.0986],[-65.4767,-18.87053,3272.6953],[-65.47517,-18.87668,3215.5073],[-65.47375,-18.8898,3179.3159],[-65.47158,-18.9006,3185.8977],[-65.46998,-18.905,3105.3777],[-65.47091,-18.90996,3159.4424],[-65.4737,-18.91564,3202.6274],[-65.48636,-18.92639,3642.8804],[-65.49349,-18.93373,3791.4678],[-65.51855,-18.97321,3440.4263],[-65.53535,-19.00034,3025.6919],[-65.5376,-19.0054,3121.0991],[-65.53964,-19.00887,3101.7827],[-65.54077,-19.01295,3108.2314],[-65.54101,-19.01532,3114.968],[-65.54052,-19.01868,3098.9717],[-65.52196,-19.06736,3006.251],[-65.50618,-19.09361,2901.1018],[-65.47422,-19.11392,2668.0193],[-65.46757,-19.11976,2709.2217],[-65.46163,-19.12808,2696.8745],[-65.45732,-19.14054,2830.5474],[-65.45318,-19.1671,3169.4517],[-65.44721,-19.17893,3301.8989],[-65.43324,-19.19216,3381.4963],[-65.40647,-19.21056,2810.6692],[-65.38435,-19.2426,2571.6516],[-65.37283,-19.25422,2532.0901],[-65.32353,-19.28632,2340.4976],[-65.30937,-19.29975,2490.2253],[-65.2928,-19.31029,2323.7563],[-65.248,-19.3183,2276.8757],[-65.2317,-19.3274,2354.4648],[-65.21583,-19.33861,2272.8601],[-65.15498,-19.37138,2226.7349],[-65.13054,-19.37923,2338.8291],[-65.11075,-19.37324,2180.1309],[-65.10354,-19.36858,2427.0933],[-65.09923,-19.37034,2189.3701],[-65.09643,-19.37437,2410.0217],[-65.09372,-19.37665,2502.8333],[-65.07145,-19.3768,2375.5295],[-64.99373,-19.35267,2104.2646],[-64.9637,-19.35045,2085.1873],[-64.93699,-19.35716,2102.7427],[-64.91999,-19.3706,2308.7251],[-64.90425,-19.3906,2128.3083],[-64.8928,-19.41313,2160.4062],[-64.88846,-19.43406,2444.0957],[-64.88552,-19.4337,2688.4243],[-64.87895,-19.4399,2705.0977],[-64.87226,-19.44817,2825.4846],[-64.86867,-19.45406,2489.5232],[-64.86784,-19.4631,2194.0579],[-64.86942,-19.47152,2167.1858],[-64.87454,-19.48822,2380.3159],[-64.87753,-19.5093,2291.6982],[-64.87637,-19.52847,2411.1724],[-64.87082,-19.54713,2426.9714],[-64.86074,-19.56666,2247.9229],[-64.77609,-19.67224,1846.3524],[-64.75452,-19.71182,1940.6216],[-64.74692,-19.73244,2258.2188],[-64.75615,-19.74567,2460.5107],[-64.78971,-19.79032,3296.843],[-64.86774,-19.8684,3457.0264],[-65.05644,-19.96865,2729.8086],[-65.07328,-19.97284,3172.686],[-65.17581,-19.98121,3084.3452],[-65.19772,-19.9871,3275.4307],[-65.22824,-19.99134,3488.5229],[-65.24754,-19.99842,3610.6292],[-65.25126,-20.00012,3732.488],[-65.27136,-20.0148,3676.1472],[-65.28818,-20.03077,3516.2988],[-65.29231,-20.03371,3468.5618],[-65.29712,-20.03599,3451.1143],[-65.3082,-20.03883,3406.4219],[-65.31324,-20.04234,3391.9033],[-65.31663,-20.04844,3419.0918],[-65.31678,-20.06978,3377.0737],[-65.31603,-20.07505,3390.689],[-65.31084,-20.09247,3331.5366],[-65.3151,-20.10875,3341.1831],[-65.34161,-20.14404,3150.2812],[-65.34812,-20.1521,3204.7825],[-65.35371,-20.16047,3160.3677],[-65.35851,-20.17003,3106.9897],[-65.36885,-20.20311,3068.0076],[-65.3697,-20.21262,3071.9385],[-65.36895,-20.24827,3116.5369],[-65.36606,-20.26905,3012.7825],[-65.29596,-20.53379,3755.9885],[-65.37233,-20.70509,2545.3149],[-65.37696,-20.71998,2636.1614],[-65.38885,-20.77739,3149.6775],[-65.39649,-20.79491,2882.2505],[-65.42272,-20.83682,3692.49],[-65.42928,-20.9626,4134.1953],[-65.47199,-21.1013,3863.771],[-65.47393,-21.12217,3771.5449],[-65.47339,-21.13535,3713.9973],[-65.4713,-21.14656,3718.1572],[-65.46817,-21.15685,3755.4941],[-65.46724,-21.16258,3785.3025],[-65.47788,-21.26702,3864.0933],[-65.47688,-21.29209,3731.6841],[-65.47556,-21.29746,3662.5413],[-65.45845,-21.33508,3784.7886],[-65.31738,-21.47791,3283.8623],[-65.23493,-21.53538,2648.1614],[-65.23077,-21.47791,2666.7227],[-65.20317,-21.27736,2401.9075],[-65.20508,-21.25679,2356.655],[-65.20508,-21.21659,2320.417],[-65.20366,-21.20661,2312.8843],[-65.18689,-21.15091,2427.7458],[-65.17429,-20.96823,2566.4565],[-65.17191,-20.96203,2487.2803],[-65.16837,-20.95598,2434.5137],[-65.16243,-20.94849,2254.1096],[-65.15661,-20.94575,2391.1575],[-65.1509,-20.9459,2636.7427],[-65.14638,-20.94839,2521.8076],[-65.13783,-20.95428,2487.2864],[-65.13279,-20.95655,2266.8855],[-65.11563,-20.96172,2308.6787],[-65.10979,-20.96249,2550.9529],[-65.1037,-20.96167,2477.186],[-65.09023,-20.95671,2221.0718],[-65.08419,-20.95505,2310.0195],[-65.07848,-20.95515,2309.4031],[-65.07375,-20.95707,2233.5151],[-65.06592,-20.96353,2208.4629],[-65.03486,-20.99975,2493.322],[-65.0345,-21.00006,2493.322],[-65.03378,-21.00037,2383.9585],[-65.03137,-21.00084,2286.7146],[-65.02662,-21.00089,2301.9668],[-65.02003,-20.99944,2398.7043],[-65.01308,-20.99965,2496.0859],[-65.01215,-21.00022,2496.0859],[-65.00636,-21.00719,2462.6926],[-65.00306,-21.01009,2363.468],[-64.99892,-21.01076,2342.022],[-64.9936,-21.00998,2244.9995],[-64.98487,-21.00657,2236.8672],[-64.97848,-21.00513,2504.4539],[-64.97295,-21.00611,2598.7141],[-64.96861,-21.00874,2578.4263],[-64.96096,-21.01541,2791.6575],[-64.95662,-21.01815,2818.5835],[-64.95159,-21.01991,2380.3872],[-64.94562,-21.02016,2352.4673],[-64.93334,-21.01923,2495.0977],[-64.92712,-21.01985,2496.2544],[-64.922,-21.02177,2871.0659],[-64.91779,-21.02487,2615.8828],[-64.915,-21.029,2620.3508],[-64.91314,-21.03406,2834.3535],[-64.91182,-21.03939,2955.717],[-64.90991,-21.04435,2891.553],[-64.90557,-21.04729,2532.439],[-64.8942,-21.05081,2288.9727],[-64.88906,-21.05303,2031.6536],[-64.88482,-21.05598,2156.376],[-64.88133,-21.05944,2284.0742],[-64.87831,-21.06316,2041.6985],[-64.87598,-21.06709,2298.9121],[-64.87314,-21.07096,2613.6704],[-64.86945,-21.07437,2204.3125],[-64.86495,-21.07711,1996.8511],[-64.84983,-21.08398,2348.7107],[-64.8456,-21.08693,2334.2466],[-64.84195,-21.09055,1888.9644],[-64.8387,-21.09427,1613.9581],[-64.83454,-21.0968,1940.6975],[-64.82958,-21.09752,1788.3547],[-64.81743,-21.09241,1681.3491],[-64.79862,-21.08714,1592.8508],[-64.78237,-21.07975,2105.7861],[-64.77519,-21.07375,2455.9719],[-64.77116,-21.06724,2229.353],[-64.76857,-21.05546,1777.3218],[-64.76676,-21.05003,2124.8457],[-64.7594,-21.03598,2039.8345],[-64.75788,-21.0306,2178.1733],[-64.75767,-21.02487,2029.161],[-64.75824,-21.01293,1788.9609],[-64.75643,-21.00011,1320.6515],[-64.75643,-21.00006,1320.6515],[-64.75012,-20.9858,1583.6665],[-64.73563,-20.96446,1209.3398],[-64.72723,-20.94942,1303.1074],[-64.71744,-20.93588,1233.7063],[-64.71002,-20.93087,1467.3326],[-64.70266,-20.92885,1283.8015],[-64.697,-20.92999,1246.6117],[-64.69209,-20.93164,1242.4458],[-64.67855,-20.93851,1203.502],[-64.67308,-20.94038,1246.4165],[-64.66734,-20.94162,1155.424],[-64.65501,-20.94156,1409.0618],[-64.64936,-20.94208,1740.714],[-64.64429,-20.94394,1717.066],[-64.6407,-20.9472,1522.5562],[-64.63822,-20.95174,1347.3707],[-64.63259,-20.96652,1540.1958],[-64.62977,-20.97081,1280.3262],[-64.62623,-20.97427,1299.0388],[-64.60727,-20.9844,1108.8892],[-64.60311,-20.9874,1106.833],[-64.59628,-20.99433,1342.3015],[-64.5922,-20.9998,1110.9039],[-64.57262,-21.02068,1440.8127],[-64.5699,-21.02487,1187.9551],[-64.54595,-21.07649,1128.2169],[-64.54313,-21.08068,1187.4303],[-64.5398,-21.08429,1044.3738],[-64.53562,-21.08745,1164.8572],[-64.53099,-21.08998,1164.7745],[-64.5237,-21.09106,1301.8403],[-64.51458,-21.090699999999998,1422.6852],[-64.48381,-21.08305,1208.0817],[-64.46521,-21.08088,1027.5374],[-64.45836,-21.08104,1091.8206],[-64.4457,-21.08321,1162.5878],[-64.44053,-21.08548,1174.6899],[-64.43172,-21.09117,1408.1652],[-64.39581,-21.11964,935.1729],[-64.35904,-21.13473,1072.8914],[-64.34056,-21.13814,1185.7526],[-64.28049,-21.13194,1094.6267],[-64.26754,-21.13349,1048.1006],[-64.24091,-21.1414,1077.2734],[-64.23235,-21.14202,953.7164],[-64.22558,-21.14088,881.2731],[-64.2206,-21.13799,806.4005],[-64.21576,-21.13458,821.4662],[-64.21031,-21.12946,972.2098],[-64.20644,-21.12507,1041.6605],[-64.20316,-21.12047,969.6613],[-64.20078,-21.11566,884.8296],[-64.19897,-21.11024,869.8774],[-64.19781,-21.10424,1068.2826],[-64.19672,-21.08445,858.9922],[-64.19734,-21.07851,838.1179],[-64.20246,-21.06393,757.2399],[-64.20171,-21.05887,844.3096],[-64.19724,-21.05019,977.1858],[-64.19595,-21.04574,770.8986],[-64.19522,-21.04058,1114.9213],[-64.19349,-21.03437,743.854],[-64.18639,-21.02564,1002.1021],[-64.18267,-21.01929,758.832],[-64.18075,-21.01334,866.4674],[-64.18055,-21.00823,840.5239],[-64.18654,-20.94833,682.3524],[-64.18582,-20.92363,699.7562],[-64.18442,-20.91418,752.925],[-64.18287,-20.90911,741.2535],[-64.17517,-20.89144,742.3099],[-64.16874,-20.89454,676.2344],[-64.15649,-20.90751,633.543],[-64.14259,-20.91635,692.8893],[-64.13068,-20.91469,913.8007],[-64.11559,-20.90983,731.4489],[-64.09389,-20.91014,658.9873],[-64.07433,-20.91433,676.7966],[-64.06583,-20.92125,621.301],[-64.06249,-20.93945,649.4825],[-64.05353,-20.94528,769.0185],[-64.02485,-20.94575,805.601],[-64.01903,-20.94394,705.7072],[-64.00751,-20.94187,663.2505],[-64.0004,-20.94425,703.0436],[-64.00779,-20.95598,584.7332],[-64.00996,-20.96559,598.7534],[-64.00294,-20.97608,659.2701],[-63.98327,-20.99355,688.3303],[-63.98304,-20.9967,661.3288],[-63.96229,-20.99681,757.2236],[-63.86925,-20.99934,688.7289],[-62.27245,-21.00042,334.2204],[-62.27189,-21.00042,334.4598],[-62.27379,-20.8548,359.6407],[-62.27503,-20.75868,374.6812],[-62.27617,-20.67073,377.4717],[-62.27731,-20.57978,378.7634],[-62.26883,-20.55311,376.8603],[-62.2324,-20.50102,370.7938],[-62.21057,-20.47131,377.142],[-62.21137,-20.47131,381.9781],[-63.28587,-20.47513,830.7377],[-63.29517,-20.47265,850.833],[-63.30311,-20.46888,888.4527],[-63.31166,-20.45617,893.656],[-63.34217,-20.38692,1005.1553],[-63.35558,-20.36682,907.892],[-63.36848,-20.35741,946.01],[-63.37708,-20.36139,893.7494],[-63.38403,-20.36852,867.2408],[-63.39587,-20.38573,903.2365],[-63.40222,-20.39302,910.9593],[-63.41522,-20.40325,931.3973],[-63.42085,-20.40614,927.1937],[-63.42899,-20.40909,933.0864],[-63.44855,-20.41204,940.2534],[-63.45899,-20.41472,960.1992],[-63.4671,-20.42036,990.7331],[-63.47408,-20.42764,994.9869],[-63.49144,-20.45162,1035.2065],[-63.49744,-20.45751,1002.3202],[-63.50242,-20.46035,998.7464],[-63.51069,-20.46268,1029.5649],[-63.52129,-20.46252,1036.651],[-63.56679,-20.45276,1070.0742],[-63.62929,-20.45245,1380.821],[-63.6519,-20.45012,1589.0958],[-63.66479,-20.40744,1254.1685],[-63.70691,-20.00384,1163.7854],[-63.70882,-20.00012,1200.4725],[-63.70884,-20.00007,1200.4725],[-63.72166,-19.9732,1696.084],[-63.7253,-19.96297,1508.4554],[-63.76765,-19.27128,1032.1719],[-63.76517,-19.21087,1339.6309],[-63.74135,-19.04437,575.8046],[-63.75052,-19.0283,575.2578],[-63.81328,-19.03517,1102.0121],[-63.83424,-19.03434,1064.8907],[-63.86093,-19.02618,818.8054],[-63.87263,-19.02628,849.6369],[-63.88511,-19.03512,899.2188],[-63.89659,-19.05589,654.4752],[-63.90591,-19.12891,754.2308],[-63.91069,-19.14255,614.5116],[-63.91759,-19.15382,836.7712],[-63.92713,-19.16276,1067.8518],[-63.93979,-19.16927,984.1597],[-63.95511,-19.17299,717.709],[-63.97345,-19.17444,770.5234],[-63.99177,-19.1732,1095.3514],[-64.00694,-19.16865,905.0668],[-64.01629,-19.16059,757.8218],[-64.02094,-19.14984,707.3879],[-64.02319,-19.13785,821.1576],[-64.06466,-18.99982,952.0283],[-64.07084,-18.99223,1146.7151],[-64.07743,-18.98974,979.0618],[-64.0844,-18.98897,976.1486],[-64.09177,-18.98654,855.2083],[-64.10337,-18.97615,788.8868],[-64.11125,-18.96473,858.7602],[-64.12037,-18.95528,916.9344],[-64.1358,-18.95083,1304.8569],[-64.16502,-18.94908,1337.7954],[-64.17967,-18.94572,1057.7554],[-64.19197,-18.93921,914.7814],[-64.19912,-18.92877,826.8033],[-64.20202,-18.91538,822.2737],[-64.20347,-18.90127,833.5117],[-64.20618,-18.8883,902.954],[-64.22065,-18.86557,865.8525],[-64.23998,-18.85301,914.413],[-64.26132,-18.84252,980.2575],[-64.28178,-18.82624,879.7043],[-64.28904,-18.8142,881.1892],[-64.2963,-18.78743,1063.2888],[-64.30157,-18.7741,961.7997],[-64.31591,-18.74836,937.514],[-64.31945,-18.73539,895.7216],[-64.31904,-18.71917,982.5542],[-64.31677,-18.70428,953.1079],[-64.31635,-18.69126,1025.8435],[-64.31987,-18.67901,1079.3026],[-64.32958,-18.66687,937.9941],[-64.3402,-18.65695,1202.4397],[-64.34989,-18.64791,1148.3481],[-64.35537,-18.64026,944.1232],[-64.36467,-18.61576,985.4251],[-64.36999,-18.60894,1041.2705],[-64.39141,-18.60181,1320.4261],[-64.414,-18.60972,2198.3855],[-64.48192,-18.66175,1585.3423],[-64.49399,-18.66625,1090.9951],[-64.51017,-18.66868,1050.8766],[-64.56086,-18.66858,1071.6293],[-64.57458,-18.66672,1135.636],[-64.58375,-18.66124,1239.4609],[-64.59959,-18.64119,1097.2854],[-64.60827,-18.63266,1485.8049],[-64.62765,-18.61814,1107.9263],[-64.6362,-18.60899,1117.0294],[-64.65054,-18.57959,1132.9895],[-64.65207,-18.57473,1135.874],[-64.66455,-18.57106,1142.2249],[-64.67318,-18.56181,1157.3397],[-64.68501,-18.54011,1156.2732],[-64.7032,-18.52807,1189.2819],[-64.75142,-18.52864,1246.9193],[-64.7717,-18.52119,1638.1167],[-64.77813,-18.51344,1622.3391],[-64.78942,-18.49618,1579.4919],[-64.7972,-18.48947,1545.4996],[-64.81604,-18.48466,1239.4476],[-64.83875,-18.48688,1296.006],[-64.91027,-18.50673,1346.7345],[-64.96458,-18.53132,1525.2885],[-65.00194,-18.55592,1649.2269],[-65.02476,-18.57618,1559.4862],[-65.03453,-18.58781,1541.5027],[-65.04171,-18.60181,1435.5646],[-65.04887,-18.63075,1422.0818],[-65.05486,-18.64413,1621.6099],[-65.0668,-18.65478,1786.0781],[-65.08018,-18.65586,1609.2078],[-65.09388,-18.65075,1666.9443],[-65.13943,-18.6215,1544.8391],[-65.15726,-18.61364,1489.1763],[-65.17516,-18.61158,1595.4246],[-65.21358,-18.61886,1592.9543],[-65.23139,-18.61628,1816.0869],[-65.24451,-18.6014,1608.2559],[-65.2472,-18.58109,1535.0917],[-65.24725,-18.55391,1610.84],[-65.25025,-18.53024,1838.8323],[-65.26157,-18.52011,2174.3726],[-65.27273,-18.51613,1977.1686],[-65.28394,-18.50667,1704.7576],[-65.2935,-18.49536,1632.8136],[-65.29976,-18.48595,1825.4998],[-65.30596,-18.45184,1895.8131],[-65.31655,-18.44916,1698.9939],[-65.32792,-18.4519,2044.3684],[-65.33699,-18.4519,1752.3792],[-65.34073,-18.44125,2137.4495],[-65.34161,-18.43288,2267.1899],[-65.34394,-18.42265,1802.4647],[-65.3768,-18.42993,1788.7886],[-65.39189,-18.42818,2250.3638],[-65.41499,-18.41805,1856.8839],[-65.49085,-18.39402,1848.0892],[-65.49868,-18.38952,1908.1174],[-65.50062,-18.38864,1892.3171],[-65.50318,-18.38797,1749.5229],[-65.50811,-18.38859,1828.1858],[-65.51452,-18.39061,1921.9868],[-65.54258,-18.40379,1882.4132],[-65.54842,-18.40534,1853.5146],[-65.55426,-18.40518,1900.9542],[-65.55995,-18.40311,2036.2841],[-65.56439,-18.39924,1945.4961],[-65.56749,-18.39407,1827.8402],[-65.56976,-18.38849,1775.6456],[-65.57219,-18.38379,1857.8064],[-65.57537,-18.38012,1861.0743],[-65.57958,-18.37717,1863.1118],[-65.58547,-18.37495,1790.1438],[-65.59261,-18.37361,1793.927],[-65.62209,-18.37464,1814.5198]]]}
,"properties": {"ISO3166-1-Alpha-3": "BOL","country": "Bolivia","fill": "#F0F","name": "Chuquisaca","area_km2": 51802.14,"hist_schema_id": "Elevation0-9000","hist_area_km2": {"325": 4.47,"350": 243.16,"375": 663.73,"400": 769.13,"425": 673.23,"450": 566.68,"475": 497.68,"500": 414.83,"525": 365.29,"550": 326.12,"575": 286.12,"600": 193.33,"625": 178.92,"650": 233.38,"675": 281.11,"700": 293.56,"725": 295.68,"750": 313.28,"775": 292.21,"800": 302.95,"825": 308.52,"850": 293.16,"875": 280.48,"900": 296.8,"925": 332.73,"950": 363.19,"975": 401.12,"1000": 438.74,"1025": 492.22,"1050": 540.2,"1075": 576.53,"1100": 604.06,"1125": 612.8,"1150": 614.61,"1175": 608.77,"1200": 601.4,"1225": 566.04,"1250": 516.57,"1275": 478.14,"1300": 444.04,"1325": 430.04,"1350": 404.75,"1375": 393.56,"1400": 371.83,"1425": 359.97,"1450": 347.04,"1475": 331.33,"1500": 320.99,"1525": 319.39,"1550": 306.99,"1575": 302.62,"1600": 297.46,"1625": 290.78,"1650": 289.75,"1675": 288.05,"1700": 284.05,"1725": 284.12,"1750": 282.67,"1775": 279.66,"1800": 288.27,"1825": 291.19,"1850": 294.32,"1875": 298.19,"1900": 306.17,"1925": 313.38,"1950": 321.01,"1975": 337.8,"2000": 336.42,"2025": 351.57,"2050": 373.76,"2075": 387.82,"2100": 392.14,"2125": 395.12,"2150": 401.95,"2175": 406.1,"2200": 414.36,"2225": 422.96,"2250": 422.97,"2275": 422.97,"2300": 434.89,"2325": 436.52,"2350": 445.6,"2375": 454.68,"2400": 472.08,"2425": 481.79,"2450": 497.95,"2475": 503.54,"2500": 493.37,"2525": 482.86,"2550": 462.27,"2575": 451.47,"2600": 437.65,"2625": 424.7,"2650": 417.28,"2675": 419.91,"2700": 415.71,"2725": 419.66,"2750": 406.81,"2775": 405.81,"2800": 399.79,"2825": 396.24,"2850": 401.08,"2875": 396.96,"2900": 389.08,"2925": 449.49,"2950": 448.43,"2975": 414.85,"3000": 403.57,"3025": 400.28,"3050": 390.64,"3075": 390.75,"3100": 391.26,"3125": 382.17,"3150": 362.35,"3175": 350.69,"3200": 346.71,"3225": 344.77,"3250": 334.28,"3275": 317.67,"3300": 304.1,"3325": 289.11,"3350": 277.28,"3375": 271.56,"3400": 261.15,"3425": 247.39,"3450": 237.77,"3475": 230.52,"3500": 221.85,"3525": 211.79,"3550": 199.2,"3575": 183.03,"3600": 177.83,"3625": 162.04,"3650": 156.72,"3675": 146.75,"3700": 138.93,"3725": 134.57,"3750": 132.93,"3775": 122.89,"3800": 117.09,"3825": 109.9,"3850": 96.88,"3875": 87.85,"3900": 76.31,"3925": 70.02,"3950": 60.26,"3975": 51.85,"4000": 48.21,"4025": 41.36,"4050": 37.79,"4075": 32.9,"4100": 29.48,"4125": 25.0,"4150": 23.81,"4175": 20.13,"4200": 18.51,"4225": 16.95,"4250": 16.98,"4275": 16.11,"4300": 14.18,"4325": 12.75,"4350": 10.66,"4375": 10.26,"4400": 9.19,"4425": 7.72,"4450": 6.74,"4475": 5.27,"4500": 4.59,"4525": 3.06,"4550": 2.72,"4575": 2.09,"4600": 1.35,"4625": 1.09,"4650": 0.62,"4675": 0.48}}}