{"type":"Feature","properties":{"GID_1":"BOL.1_1","GID_0":"BOL","country":"Bolivia","province":"Chuquisaca","VARNAME_1":"NA","NL_NAME_1":"NA","TYPE_1":"Departamento","ENGTYPE_1":"Department","CC_1":"NA","HASC_1":"BO.CQ","ISO_1":"BO-H","name":"Chuquisaca.province"},
"geometry":{"type": "MultiPolygon","coordinates": [[[[-65.202,-21.0714,2321.9873],[-65.1992,-21.0664,2313.9658],[-65.2005,-21.0623,2275.6006],[-65.1957,-21.0495,2259.5808],[-65.1976,-21.0471,2246.1086],[-65.1967,-21.0445,2248.6616],[-65.1983,-21.0407,2244.1475],[-65.1962,-21.0324,2293.0481],[-65.1974,-21.029,2269.9756],[-65.1927,-21.0246,2256.7036],[-65.1926,-21.021,2245.3093],[-65.1884,-21.0138,2231.9846],[-65.1917,-21.0064,2225.1282],[-65.1898,-21.0007,2282.3208],[-65.1923,-20.9981,2286.3066],[-65.1914,-20.9933,2280.7354],[-65.1931,-20.9915,2222.9573],[-65.1915,-20.9877,2250.9431],[-65.192,-20.9833,2217.989],[-65.1873,-20.9797,2223.3511],[-65.1893,-20.9758,2225.4319],[-65.1884,-20.971,2316.3879],[-65.1865,-20.9704,2268.5576],[-65.1865,-20.9679,2298.155],[-65.1839,-20.965699999999998,2310.5166],[-65.1858,-20.9617,2213.7168],[-65.1817,-20.9588,2215.7341],[-65.1793,-20.9546,2237.2349],[-65.1761,-20.9566,2208.8452],[-65.1744,-20.9557,2242.0513],[-65.1766,-20.9516,2216.9485],[-65.1757,-20.9495,2257.1523],[-65.1723,-20.9481,2257.0918],[-65.1695,-20.9502,2205.7231],[-65.166,-20.9496,2204.0378],[-65.164,-20.9455,2229.0264],[-65.1623,-20.9451,2229.4968],[-65.1582,-20.9459,2278.2136],[-65.1592,-20.9494,2266.0208],[-65.1568,-20.9526,2305.9883],[-65.1572,-20.9577,2243.856],[-65.1518,-20.9637,2224.7524],[-65.1496,-20.9604,2220.9829],[-65.1502,-20.9557,2190.532],[-65.1476,-20.9534,2223.7476],[-65.1435,-20.9575,2185.4604],[-65.141,-20.9647,2183.7644],[-65.1343,-20.9635,2192.0715],[-65.1293,-20.9574,2221.1045],[-65.1242,-20.9643,2188.6899],[-65.1247,-20.9685,2189.7935],[-65.1188,-20.9686,2225.9663],[-65.1143,-20.9708,2194.2119],[-65.1091,-20.9698,2195.7732],[-65.1084,-20.9727,2177.7468],[-65.1123,-20.9738,2201.217],[-65.1148,-20.9775,2179.6631],[-65.1132,-20.9818,2176.3081],[-65.0994,-20.9759,2190.6384],[-65.1,-20.9741,2231.1694],[-65.1027,-20.9744,2209.0103],[-65.105,-20.9726,2167.6897],[-65.1013,-20.9686,2191.3535],[-65.0968,-20.9688,2199.6565],[-65.0939,-20.976,2162.1978],[-65.0889,-20.977,2165.9661],[-65.0857,-20.9737,2159.1094],[-65.0887,-20.9661,2160.5796],[-65.0868,-20.9626,2159.8481],[-65.0824,-20.9605,2237.4189],[-65.0784,-20.964,2172.6501],[-65.0742,-20.9646,2157.6714],[-65.0729,-20.9592,2190.5178],[-65.07,-20.9589,2193.0474],[-65.0694,-20.9707,2150.8547],[-65.065,-20.9708,2169.1289],[-65.0617,-20.9733,2180.769],[-65.0628,-20.9807,2150.9275],[-65.0572,-20.9805,2160.9543],[-65.059,-20.9875,2146.1987],[-65.0534,-20.9931,2168.0547],[-65.0539,-20.9969,2188.4194],[-65.0443,-21.0002,2161.8462],[-65.0445,-21.0039,2144.5896],[-65.0487,-21.0035,2207.0471],[-65.0514,-21.0054,2153.1331],[-65.051,-21.0087,2148.4617],[-65.0441,-21.0084,2264.8052],[-65.0403,-21.0143,2132.4482],[-65.0334,-21.0143,2161.106],[-65.0289,-21.0172,2140.6189],[-65.0265,-21.0167,2153.6455],[-65.026,-21.0148,2164.6426],[-65.0314,-21.0103,2128.8623],[-65.0317,-21.0065,2131.054],[-65.0284,-21.0067,2129.5815],[-65.0223,-21.0118,2140.4502],[-65.0216,-21.0168,2139.0056],[-65.0278,-21.0256,2154.3179],[-65.0271,-21.0276,2132.4326],[-65.0209,-21.0253,2133.0347],[-65.0194,-21.0212,2171.0962],[-65.0177,-21.0204,2171.0962],[-65.0146,-21.0213,2141.2544],[-65.0129,-21.0294,2130.8369],[-64.9997,-21.0263,2114.0154],[-64.9995,-21.0239,2108.4124],[-65.0046,-21.0196,2112.5286],[-65.0041,-21.0162,2175.1709],[-65.0008,-21.0142,2156.6846],[-64.9985,-21.0208,2129.2751],[-64.9924,-21.0198,2141.6475],[-64.9922,-21.0106,2123.364],[-64.9878,-21.0081,2146.2317],[-64.9859,-21.0089,2186.939],[-64.986,-21.0159,2116.2454],[-64.9794,-21.016,2222.9958],[-64.9767,-21.0175,2189.3325],[-64.9745,-21.0164,2109.4856],[-64.9695,-21.0211,2168.7646],[-64.9699,-21.023,2154.1077],[-64.976,-21.0234,2140.2786],[-64.9774,-21.027,2119.6179],[-64.9674,-21.0267,2157.6409],[-64.9628,-21.0306,2158.6748],[-64.96,-21.0291,2115.9695],[-64.96,-21.0238,2154.3374],[-64.9564,-21.0243,2174.6018],[-64.9546,-21.0262,2204.2383],[-64.9543,-21.0337,2179.6543],[-64.9493,-21.0322,2257.9207],[-64.9473,-21.0334,2223.3147],[-64.9504,-21.0417,2382.7231],[-64.9437,-21.0377,2272.0112],[-64.9405,-21.0378,2256.4822],[-64.9438,-21.0339,2184.6169],[-64.9439,-21.0278,2302.0154],[-64.9453,-21.0258,2216.0801],[-64.9443,-21.0243,2209.373],[-64.9422,-21.0242,2209.7156],[-64.9394,-21.0271,2232.9871],[-64.9342,-21.0267,2003.7948],[-64.9262,-21.0328,1999.1207],[-64.9259,-21.0401,1942.8406],[-64.9239,-21.0444,1978.0566],[-64.9253,-21.0526,1876.2196],[-64.9186,-21.0592,2059.1985],[-64.9124,-21.059,1920.8699],[-64.9,-21.0545,1916.5519],[-64.8896,-21.0568,1846.25],[-64.8842,-21.0643,1791.5409],[-64.8896,-21.0675,1904.6411],[-64.8953,-21.0684,1869.0215],[-64.8954,-21.0733,1748.9907],[-64.8812,-21.0795,1871.4188],[-64.8682,-21.0786,1792.5564],[-64.8517,-21.09,1703.7808],[-64.8502,-21.0931,1800.8101],[-64.8542,-21.0957,1719.1384],[-64.8555,-21.106,1876.9017],[-64.8363,-21.1056,1617.2332],[-64.8358,-21.1031,1608.8566],[-64.8393,-21.0961,1529.0966],[-64.8385,-21.0938,1613.9581],[-64.8358,-21.0928,1593.2498],[-64.8178,-21.0932,1530.9495],[-64.8019,-21.0965,1544.3013],[-64.7978,-21.0947,1577.7676],[-64.7968,-21.0862,1480.0645],[-64.7908,-21.0778,1565.2441],[-64.792,-21.0678,1458.1338],[-64.7886,-21.0625,1456.1766],[-64.7782,-21.0606,1381.2002],[-64.7747,-21.0558,1432.7963],[-64.7757,-21.0485,1358.4271],[-64.7782,-21.0472,1352.3417],[-64.7789,-21.0438,1412.2108],[-64.7818,-21.0425,1359.7076],[-64.7821,-21.0376,1352.4473],[-64.7793,-21.0302,1327.052],[-64.7709,-21.0274,1319.6718],[-64.7696,-21.0256,1292.3906],[-64.7679,-21.0212,1414.3069],[-64.7712,-21.016,1315.2246],[-64.7686,-21.0145,1312.1488],[-64.7572,-20.9942,1248.3298],[-64.7566,-20.9877,1242.616],[-64.7574,-20.9852,1292.4248],[-64.7623,-20.9834,1246.0981],[-64.761,-20.9802,1253.05],[-64.7399,-20.973,1218.2255],[-64.734,-20.9673,1211.9934],[-64.7351,-20.9621,1207.8446],[-64.7336,-20.9531,1202.0162],[-64.7276,-20.9414,1192.104],[-64.7197,-20.9365,1192.4977],[-64.7147,-20.937,1184.7136],[-64.7125,-20.9346,1182.4512],[-64.6989,-20.931,1192.2928],[-64.6866,-20.9411,1174.8809],[-64.6781,-20.9428,1163.6799],[-64.6668,-20.9405,1172.5715],[-64.6595,-20.9443,1167.1284],[-64.6546,-20.9494,1219.4368],[-64.6541,-20.9538,1152.1528],[-64.6509,-20.9553,1147.5155],[-64.6452,-20.9547,1150.8771],[-64.6426,-20.9672,1134.9359],[-64.6384,-20.9712,1170.7665],[-64.6272,-20.9756,1143.8479],[-64.624,-20.9801,1121.21],[-64.62,-20.9815,1122.2959],[-64.615,-20.9782,1159.1829],[-64.6051,-20.9819,1112.0991],[-64.6013,-20.991,1104.778],[-64.6016,-20.9955,1102.3169],[-64.5989,-21.0024,1099.9663],[-64.5923,-21.0076,1114.8643],[-64.5884,-21.0052,1177.9924],[-64.5848,-21.0074,1178.1523],[-64.5847,-21.0164,1085.6376],[-64.5793,-21.0186,1125.7556],[-64.5805,-21.025,1131.4487],[-64.5774,-21.0326,1080.0439],[-64.5717,-21.0314,1076.2795],[-64.5676,-21.0342,1074.866],[-64.5681,-21.0426,1067.1846],[-64.5624,-21.0526,1062.1202],[-64.5571,-21.056,1064.8015],[-64.5551,-21.0626,1056.3762],[-64.5485,-21.0681,1049.5931],[-64.5464,-21.0812,1046.876],[-64.5445,-21.0825,1050.4137],[-64.5385,-21.0819,1044.3793],[-64.5359,-21.0835,1148.3901],[-64.5374,-21.0899,1039.2054],[-64.5308,-21.0919,1069.6121],[-64.5272,-21.0976,1033.1218],[-64.5215,-21.0968,1084.3799],[-64.5174,-21.0992,1088.1572],[-64.5117,-21.0995,1024.3247],[-64.5054,-21.0954,1064.6064],[-64.4961,-21.0961,1012.6973],[-64.4916,-21.0919,1009.5781],[-64.4818,-21.092,999.8343],[-64.4805,-21.0913,999.8343],[-64.4803,-21.0861,1111.1366],[-64.4739,-21.0853,1025.3032],[-64.4676,-21.0866,985.9694],[-64.4571,-21.0831,1040.4136],[-64.455,-21.0851,988.9054],[-64.4507,-21.0847,989.8625],[-64.4444,-21.088,976.1756],[-64.4417,-21.0933,971.1766],[-64.4352,-21.0967,967.9702],[-64.4337,-21.1003,962.241],[-64.4299,-21.1033,959.9789],[-64.4187,-21.0989,987.6693],[-64.414,-21.1001,1092.0139],[-64.413,-21.1095,948.642],[-64.4066,-21.11,943.7172],[-64.3998,-21.1142,1010.0161],[-64.3986,-21.1186,950.3795],[-64.3942,-21.1203,935.1729],[-64.391,-21.124,977.8383],[-64.3837,-21.1266,931.1663],[-64.3803,-21.1364,920.1609],[-64.3763,-21.1363,933.8721],[-64.3643,-21.1428,919.1545],[-64.3426,-21.146,974.6013],[-64.3368,-21.1406,945.339],[-64.3301,-21.1415,898.9219],[-64.3233,-21.1361,995.9111],[-64.3144,-21.1353,900.1545],[-64.3108,-21.1374,870.8527],[-64.3056,-21.1337,949.6152],[-64.2971,-21.1353,869.8995],[-64.2903,-21.1325,974.2468],[-64.2869,-21.1342,862.8596],[-64.2817,-21.1333,901.0179],[-64.2762,-21.1346,880.5258],[-64.273,-21.1384,846.1783],[-64.2695,-21.1368,836.5219],[-64.2618,-21.1389,855.8254],[-64.2569,-21.1428,834.9254],[-64.2468,-21.1451,867.9703],[-64.2446,-21.1493,847.3085],[-64.2291,-21.152,810.343],[-64.2223,-21.149,805.2133],[-64.2192,-21.1439,806.7618],[-64.2108,-21.1396,808.4879],[-64.201,-21.1385,803.2256],[-64.2032,-21.1349,800.5343],[-64.2005,-21.1277,826.0949],[-64.2015,-21.1223,822.132],[-64.1981,-21.1194,801.3707],[-64.1993,-21.1132,804.6931],[-64.1958,-21.1092,824.8157],[-64.1891,-21.0912,793.1624],[-64.1935,-21.084,790.1298],[-64.1936,-21.0777,804.8716],[-64.1964,-21.0701,857.3992],[-64.1997,-21.0662,772.0151],[-64.1995,-21.0619,756.0715],[-64.1955,-21.0572,830.2957],[-64.194,-21.0498,798.6929],[-64.1949,-21.0443,847.0737],[-64.1986,-21.0421,769.3732],[-64.2001,-21.0368,812.2225],[-64.1993,-21.0336,767.8035],[-64.1874,-21.033,737.3212],[-64.1797,-21.0287,731.7828],[-64.1796,-21.0267,734.1209],[-64.1832,-21.0239,743.3773],[-64.1817,-21.0209,856.2194],[-64.1848,-21.015,796.2195],[-64.188,-21.0111,809.1246],[-64.1934,-21.0101,766.7368],[-64.1957,-21.0053,729.1077],[-64.1859,-21.0036,830.0853],[-64.1864,-21.0008,771.2494],[-64.1835,-20.9927,710.3584],[-64.1855,-20.9889,709.6263],[-64.1928,-20.9849,701.3912],[-64.1898,-20.9777,695.5664],[-64.1915,-20.9703,697.38],[-64.1905,-20.9683,748.9114],[-64.1842,-20.9666,693.3548],[-64.1808,-20.9614,702.1241],[-64.1853,-20.9558,798.4153],[-64.195,-20.9595,739.9619],[-64.1973,-20.9592,689.6578],[-64.1976,-20.9574,691.1686],[-64.1902,-20.9532,679.3606],[-64.1872,-20.9494,682.3524],[-64.1875,-20.9442,717.9671],[-64.1822,-20.9408,675.6686],[-64.1835,-20.9365,700.193],[-64.1873,-20.9342,674.0529],[-64.1873,-20.9309,668.4512],[-64.1811,-20.9186,691.762],[-64.1827,-20.9135,662.0505],[-64.1814,-20.9085,659.7222],[-64.1774,-20.9042,655.3258],[-64.1749,-20.8984,651.6473],[-64.1808,-20.8904,687.9626],[-64.1787,-20.887,684.8806],[-64.1715,-20.8858,659.1365],[-64.1579,-20.8889,674.6843],[-64.1578,-20.8961,642.9071],[-64.1605,-20.9007,651.5574],[-64.1602,-20.9035,635.8893],[-64.1556,-20.9058,636.5482],[-64.1453,-20.9232,636.8494],[-64.1388,-20.9187,723.7107],[-64.132,-20.922,753.2988],[-64.1307,-20.9251,655.4518],[-64.1242,-20.926,637.4082],[-64.1193,-20.9148,622.7891],[-64.1141,-20.9117,651.5543],[-64.0997,-20.9192,616.8605],[-64.0904,-20.9174,616.8582],[-64.0852,-20.919,616.5264],[-64.0776,-20.9234,611.709],[-64.0742,-20.9278,608.3018],[-64.0735,-20.932,608.4424],[-64.0656,-20.9341,606.2032],[-64.0617,-20.9537,611.5298],[-64.0585,-20.9549,598.7015],[-64.0549,-20.9539,623.4736],[-64.0528,-20.9563,598.6517],[-64.0484,-20.954,692.6666],[-64.046,-20.9573,608.748],[-64.0256,-20.9625,619.0137],[-64.0226,-20.962,594.2587],[-64.0186,-20.9561,646.1705],[-64.0124,-20.9557,590.5789],[-64.0115,-20.9472,636.9886],[-64.0093,-20.9459,614.9864],[-64.0064,-20.9467,609.3967],[-64.0056,-20.9508,585.5965],[-64.0108,-20.9688,612.6147],[-64.0033,-20.9797,574.9711],[-64.0034,-20.9816,585.487],[-64.0101,-20.9953,576.6964],[-64.003,-21.0054,591.0271],[-63.9987,-21.0064,569.1412],[-63.9874,-21.0037,564.7922],[-63.0015,-21.0037,555.7373],[-62.2613,-20.9925,335.7168],[-62.2666,-20.5627,377.3667],[-62.2056,-20.4792,374.7504],[-62.1918,-20.4625,373.2821],[-62.1794,-20.4426,369.0851],[-62.6925,-20.4422,494.4824],[-63.0219,-20.4442,684.5654],[-63.2491,-20.4606,869.4868],[-63.3576,-20.4601,1399.0175],[-63.3597,-20.4479,1504.2314],[-63.3581,-20.4452,1526.9844],[-63.3609,-20.4356,1597.4421],[-63.3572,-20.4331,1518.0272],[-63.3524,-20.4227,1384.9431],[-63.3517,-20.4178,1404.1479],[-63.3563,-20.4138,1311.4908],[-63.3547,-20.4053,1293.7144],[-63.3568,-20.4014,1196.0479],[-63.3571,-20.3925,1034.209],[-63.3684,-20.396,934.1852],[-63.3714,-20.395,925.2546],[-63.3902,-20.3996,914.806],[-63.3997,-20.3986,900.5963],[-63.3995,-20.4035,898.2488],[-63.4044,-20.4071,914.1759],[-63.403,-20.4108,900.0411],[-63.405,-20.4176,900.9988],[-63.4091,-20.4205,905.8984],[-63.4065,-20.4228,907.7849],[-63.4067,-20.425,911.5009],[-63.4124,-20.4283,912.8607],[-63.4152,-20.4382,918.4294],[-63.4214,-20.4404,922.2212],[-63.4394,-20.4367,954.2689],[-63.4437,-20.4422,943.4022],[-63.4604,-20.4489,959.91],[-63.4641,-20.4535,963.3237],[-63.4734,-20.4534,970.4004],[-63.4828,-20.4575,976.1688],[-63.49,-20.4563,979.5802],[-63.4967,-20.4583,985.5973],[-63.5034,-20.4558,1006.2501],[-63.5097,-20.4565,997.6506],[-63.5138,-20.4586,1014.1551],[-63.5124,-20.4611,1001.7513],[-63.5134,-20.4627,1005.6632],[-63.524,-20.4599,1013.038],[-63.5287,-20.4565,1017.5067],[-63.5342,-20.4565,1026.6654],[-63.5373,-20.4522,1042.4932],[-63.5407,-20.4543,1031.9541],[-63.5475,-20.4511,1039.723],[-63.5577,-20.4521,1048.2797],[-63.5598,-20.4503,1054.1814],[-63.5739,-20.4473,1069.759],[-63.581,-20.448,1091.707],[-63.5818,-20.4454,1089.9133],[-63.5838,-20.4451,1095.2321],[-63.5838,-20.4426,1122.8342],[-63.5868,-20.4426,1114.8712],[-63.5873,-20.4446,1140.3447],[-63.5898,-20.4442,1243.8505],[-63.5884,-20.4467,1162.9938],[-63.5904,-20.4458,1203.3188],[-63.595,-20.4494,1130.7491],[-63.597,-20.4541,1151.5782],[-63.5986,-20.4532,1158.3416],[-63.6026,-20.4546,1186.262],[-63.6084,-20.4596,1198.6772],[-63.6221,-20.4646,1225.7306],[-63.6363,-20.4635,1640.1606],[-63.6485,-20.4663,1732.095],[-63.6553,-20.4726,1632.1733],[-63.6672,-20.4732,1640.4336],[-63.6791,-20.4683,1512.2781],[-63.6842,-20.4651,1425.7859],[-63.6904,-20.4462,1407.3962],[-63.6923,-20.4359,1301.7759],[-63.6908,-20.4288,1238.2501],[-63.6934,-20.4239,1212.1316],[-63.6944,-20.4149,1207.1381],[-63.6957,-20.394,1166.2355],[-63.6939,-20.3917,1182.4446],[-63.6934,-20.3793,1138.8744],[-63.692,-20.3782,1159.3082],[-63.6942,-20.3696,1120.5519],[-63.6929,-20.3683,1131.2748],[-63.6924,-20.3454,1153.7625],[-63.6947,-20.3311,1102.7777],[-63.6969,-20.3297,1094.175],[-63.6961,-20.321,1064.9286],[-63.6983,-20.3074,1047.0603],[-63.6963,-20.2987,1023.5748],[-63.6987,-20.2957,1022.1352],[-63.7008,-20.2824,994.4028],[-63.6943,-20.2773,1008.1168],[-63.6966,-20.277,1017.9985],[-63.6969,-20.2744,980.4602],[-63.7018,-20.2687,980.8192],[-63.6996,-20.2646,969.9693],[-63.7049,-20.2603,990.6366],[-63.7025,-20.2573,986.5411],[-63.7062,-20.257,961.4171],[-63.7076,-20.2543,971.5417],[-63.7024,-20.2465,957.4464],[-63.698,-20.2438,954.4866],[-63.6985,-20.2401,968.3504],[-63.695,-20.2405,953.6722],[-63.6937,-20.237,959.3867],[-63.695,-20.2346,948.3367],[-63.6936,-20.2341,957.7731],[-63.6921,-20.2295,952.4617],[-63.6868,-20.226,943.219],[-63.688,-20.2195,948.0813],[-63.6835,-20.2161,934.0645],[-63.6808,-20.2084,926.6535],[-63.6845,-20.205,926.6597],[-63.6848,-20.1988,951.4139],[-63.6893,-20.1984,916.9354],[-63.691,-20.196,918.4636],[-63.6875,-20.1891,911.1762],[-63.692,-20.1902,927.1947],[-63.6981,-20.187,1096.7593],[-63.6963,-20.1728,1076.0918],[-63.6969,-20.1623,1308.6555],[-63.692,-20.1566,1152.1329],[-63.6923,-20.1487,898.5151],[-63.6986,-20.1469,1231.0767],[-63.6987,-20.14,1324.2336],[-63.7021,-20.1347,1322.7148],[-63.7024,-20.1306,1287.7014],[-63.7051,-20.1293,1461.4357],[-63.7058,-20.1264,1489.2863],[-63.7157,-20.1248,1406.3352],[-63.7258,-20.1157,1444.2745],[-63.7229,-20.1074,1412.2603],[-63.7266,-20.1048,1521.0901],[-63.727,-20.101,1421.5988],[-63.7252,-20.0948,1432.7721],[-63.7282,-20.0711,1608.9611],[-63.7255,-20.0658,1595.907],[-63.7289,-20.058,1568.5001],[-63.728,-20.0471,1534.4583],[-63.7294,-20.0406,1716.8954],[-63.7318,-20.0389,1756.0684],[-63.7323,-20.0272,1708.7793],[-63.7284,-20.021,1596.8235],[-63.7305,-20.0133,1615.8628],[-63.7286,-20.0074,1665.3005],[-63.7295,-20.0037,1614.9629],[-63.7269,-20.0,1621.6975],[-63.7278,-19.9954,1619.8958],[-63.7267,-19.9924,1587.3137],[-63.728,-19.9894,1590.2347],[-63.7217,-19.969,1567.2867],[-63.7218,-19.9614,1721.297],[-63.7164,-19.952,1784.1743],[-63.715,-19.9355,1716.6028],[-63.7177,-19.9207,1646.3529],[-63.7159,-19.9156,1707.0405],[-63.7198,-19.908,1659.5911],[-63.7174,-19.8872,1839.9445],[-63.7131,-19.8792,1704.0868],[-63.7132,-19.8729,1791.0708],[-63.71,-19.8669,1861.2712],[-63.709,-19.8611,1882.5417],[-63.712,-19.8339,1825.4094],[-63.7158,-19.8267,1879.4775],[-63.7204,-19.8104,1574.4954],[-63.72,-19.7991,1747.4235],[-63.7164,-19.7917,1778.12],[-63.7197,-19.7779,1603.8116],[-63.7194,-19.7618,1635.9557],[-63.7216,-19.7537,1600.2959],[-63.7182,-19.7426,1608.4095],[-63.7183,-19.7328,1523.6072],[-63.7203,-19.7291,1496.9742],[-63.7179,-19.7237,1493.7729],[-63.717,-19.7001,1532.588],[-63.7141,-19.6914,1589.4901],[-63.7141,-19.6849,1716.9639],[-63.7115,-19.6739,1647.9451],[-63.7009,-19.6546,1581.318],[-63.7014,-19.6451,1542.9312],[-63.7071,-19.6365,1567.0398],[-63.7045,-19.6255,1330.9578],[-63.7055,-19.6136,1477.9307],[-63.7002,-19.6093,1463.6707],[-63.6981,-19.602,1500.9752],[-63.6941,-19.6026,1462.3231],[-63.6936,-19.5954,1467.5541],[-63.6922,-19.5944,1430.9202],[-63.6975,-19.5886,1393.0344],[-63.7022,-19.5867,1465.6296],[-63.7046,-19.5766,1405.6787],[-63.7102,-19.5729,1498.8448],[-63.7119,-19.5561,1424.6077],[-63.7103,-19.5526,1376.4866],[-63.7136,-19.5503,1371.4529],[-63.7116,-19.5482,1311.3533],[-63.7115,-19.545,1344.3884],[-63.7094,-19.5462,1319.7268],[-63.7081,-19.5435,1314.8235],[-63.7105,-19.5362,1233.7312],[-63.7072,-19.5281,1253.707],[-63.7098,-19.5129,1300.6633],[-63.708,-19.5092,1362.1406],[-63.7022,-19.5057,1434.6907],[-63.7045,-19.5029,1379.9536],[-63.7056,-19.4939,1411.0734],[-63.7032,-19.4842,1521.2625],[-63.708,-19.4735,1460.9921],[-63.7061,-19.4693,1458.7365],[-63.7178,-19.4396,1520.9587],[-63.7149,-19.428,1376.5498],[-63.7154,-19.4234,1373.6305],[-63.7183,-19.4221,1359.5568],[-63.7209,-19.4173,1308.189],[-63.7171,-19.4069,1287.5348],[-63.7169,-19.4019,1213.7112],[-63.7182,-19.3981,1160.9847],[-63.7245,-19.3931,824.3642],[-63.7174,-19.3807,1281.9463],[-63.713,-19.3765,1355.1821],[-63.7185,-19.3701,1276.8928],[-63.7201,-19.3655,1234.5365],[-63.7254,-19.3635,1252.1448],[-63.729,-19.3492,1266.7019],[-63.7232,-19.3443,1184.8107],[-63.7253,-19.3399,1208.4462],[-63.7206,-19.3349,1245.3202],[-63.7209,-19.3217,1200.9575],[-63.7179,-19.3168,1302.3558],[-63.7197,-19.3124,1301.9026],[-63.7189,-19.2794,1255.6661],[-63.7145,-19.2721,1241.6396],[-63.7178,-19.2611,1267.7316],[-63.7226,-19.2525,1326.3121],[-63.7228,-19.2433,1239.5254],[-63.728,-19.2271,1292.186],[-63.7377,-19.216,1285.438],[-63.7393,-19.2087,1352.4376],[-63.7356,-19.2034,1401.2253],[-63.7445,-19.1852,1347.6752],[-63.7437,-19.1805,1278.9775],[-63.7456,-19.175,1299.1215],[-63.7438,-19.1592,1330.9696],[-63.7397,-19.1482,1216.3143],[-63.7363,-19.1465,1144.5757],[-63.7343,-19.1325,838.1977],[-63.7319,-19.1302,743.5061],[-63.7312,-19.1261,659.1759],[-63.7225,-19.1194,640.5036],[-63.7202,-19.1159,627.6201],[-63.7206,-19.1138,624.0139],[-63.7186,-19.113,657.7507],[-63.7202,-19.1099,616.7449],[-63.7191,-19.1061,610.6783],[-63.7204,-19.1003,606.9098],[-63.7188,-19.0975,595.9913],[-63.717,-19.0973,595.9913],[-63.7154,-19.0852,602.0173],[-63.711,-19.0767,570.2122],[-63.7115,-19.0735,569.3528],[-63.7137,-19.0712,589.9471],[-63.709,-19.0653,571.9411],[-63.7083,-19.0541,550.1132],[-63.7095,-19.0518,541.0021],[-63.7067,-19.0501,537.3104],[-63.7079,-19.0452,536.4278],[-63.7052,-19.0431,529.7347],[-63.7165,-19.0446,516.8679],[-63.7221,-19.0477,516.3727],[-63.7231,-19.0462,517.2997],[-63.7212,-19.0415,526.0491],[-63.7218,-19.0379,516.4158],[-63.7306,-19.03,546.3398],[-63.7366,-19.032,519.1923],[-63.7363,-19.0391,527.8803],[-63.7431,-19.0422,526.4753],[-63.7546,-19.0362,542.1573],[-63.761,-19.0359,530.6423],[-63.7687,-19.0316,531.9125],[-63.7805,-19.0367,546.6223],[-63.7814,-19.0391,541.6826],[-63.7776,-19.0469,548.5122],[-63.7786,-19.0491,557.9641],[-63.7948,-19.0435,566.7998],[-63.8095,-19.0551,621.6575],[-63.8141,-19.046,628.9116],[-63.8232,-19.0493,609.3435],[-63.8305,-19.0494,648.6367],[-63.8327,-19.0512,600.7838],[-63.8389,-19.0496,622.9857],[-63.8419,-19.0411,625.7239],[-63.8452,-19.0399,580.0369],[-63.8477,-19.0366,571.7296],[-63.8564,-19.037,572.9473],[-63.862,-19.0355,581.3471],[-63.8661,-19.0381,622.5522],[-63.8716,-19.0374,589.1334],[-63.8844,-19.0294,675.4423],[-63.8903,-19.0302,589.3519],[-63.8912,-19.0336,641.1425],[-63.8952,-19.0355,588.295],[-63.9017,-19.0317,584.0851],[-63.9043,-19.0366,604.7916],[-63.898,-19.0422,640.7371],[-63.8969,-19.0459,642.7301],[-63.8987,-19.0469,592.0142],[-63.9045,-19.0458,600.4494],[-63.9076,-19.0481,590.5],[-63.9111,-19.0637,599.0171],[-63.9096,-19.0841,604.6224],[-63.9107,-19.0882,622.331],[-63.9043,-19.0956,600.4956],[-63.9055,-19.0989,645.571],[-63.9092,-19.099,616.0853],[-63.9101,-19.1006,605.2665],[-63.9049,-19.1112,612.6107],[-63.9081,-19.1139,613.8773],[-63.9074,-19.1178,610.9138],[-63.9101,-19.1206,611.5806],[-63.9117,-19.1272,630.8104],[-63.9137,-19.1291,610.7716],[-63.9087,-19.1332,610.751],[-63.9132,-19.1528,625.3501],[-63.908,-19.1557,623.4847],[-63.9072,-19.1603,621.1082],[-63.9199,-19.1698,624.4836],[-63.9246,-19.1763,620.5632],[-63.9196,-19.179,626.5415],[-63.9195,-19.1833,650.9623],[-63.9248,-19.1843,633.8315],[-63.9303,-19.1819,627.6892],[-63.9311,-19.1783,634.6631],[-63.9343,-19.1775,672.2116],[-63.9421,-19.1785,654.3253],[-63.9454,-19.1829,634.9363],[-63.9498,-19.1756,643.0549],[-63.9531,-19.1751,639.7249],[-63.9554,-19.1768,656.7864],[-63.9605,-19.1734,642.1674],[-63.9677,-19.1795,654.9026],[-63.9719,-19.1808,661.1414],[-63.9782,-19.1787,660.683],[-63.9948,-19.1821,665.8263],[-64.0006,-19.1795,716.6661],[-64.0043,-19.1796,711.965],[-64.0079,-19.1761,750.8902],[-64.0099,-19.1798,676.0062],[-64.0165,-19.174,661.2655],[-64.0187,-19.1668,727.8454],[-64.024,-19.1645,668.1456],[-64.0218,-19.1533,673.7473],[-64.0238,-19.1502,677.1206],[-64.0281,-19.1503,676.6829],[-64.0298,-19.1487,689.9542],[-64.0323,-19.1321,685.3054],[-64.0394,-19.1311,688.82],[-64.0422,-19.1283,706.9236],[-64.0412,-19.1209,694.3044],[-64.0439,-19.1176,689.0538],[-64.0373,-19.1165,711.8898],[-64.0319,-19.1128,693.3182],[-64.0412,-19.1057,705.9675],[-64.0355,-19.1009,810.9178],[-64.0362,-19.0997,713.5275],[-64.0401,-19.0982,706.9529],[-64.0434,-19.0992,704.1506],[-64.0452,-19.0974,714.8392],[-64.0453,-19.0932,722.7323],[-64.0425,-19.0879,710.9125],[-64.0443,-19.0837,711.3187],[-64.0418,-19.0791,750.3517],[-64.0496,-19.0653,719.7874],[-64.0461,-19.058,823.2126],[-64.0523,-19.0519,795.2566],[-64.058,-19.0492,743.9236],[-64.0551,-19.0463,740.4531],[-64.058,-19.0421,743.1849],[-64.0535,-19.0399,787.8635],[-64.053,-19.0378,767.7922],[-64.0577,-19.0303,743.9939],[-64.0655,-19.0266,782.6465],[-64.0631,-19.0168,770.7101],[-64.0685,-19.0053,801.7204],[-64.0785,-19.0014,789.6981],[-64.082,-18.9959,796.7668],[-64.0897,-19.001,797.375],[-64.0915,-18.9952,842.0168],[-64.0895,-18.9921,779.9993],[-64.098,-18.9902,780.9078],[-64.1002,-18.9862,800.5634],[-64.1012,-18.9764,798.1134],[-64.1033,-18.9734,818.3657],[-64.1063,-18.9735,786.6783],[-64.1111,-18.9707,789.3016],[-64.1197,-18.9722,790.3201],[-64.1226,-18.9685,790.6975],[-64.1304,-18.9643,873.2527],[-64.1406,-18.9689,802.2987],[-64.1453,-18.9669,798.4102],[-64.1528,-18.9696,827.948],[-64.1579,-18.9671,804.3244],[-64.1595,-18.9688,798.6931],[-64.164,-18.9694,800.326],[-64.1719,-18.9664,802.7937],[-64.1759,-18.9579,824.4417],[-64.1846,-18.9612,817.8719],[-64.1876,-18.952,820.7981],[-64.1921,-18.9515,809.7936],[-64.1959,-18.9482,815.6299],[-64.1939,-18.9435,841.5961],[-64.1955,-18.9385,865.0177],[-64.197,-18.9378,825.0233],[-64.1999,-18.9395,817.3599],[-64.2016,-18.9371,818.2997],[-64.1965,-18.9272,821.4688],[-64.1971,-18.9238,819.4868],[-64.2023,-18.9166,826.0331],[-64.2001,-18.9129,823.9615],[-64.2,-18.9081,829.6857],[-64.2061,-18.9003,825.338],[-64.2124,-18.896,837.3959],[-64.2137,-18.8928,847.1416],[-64.2132,-18.8824,831.3585],[-64.2168,-18.8796,833.2812],[-64.2234,-18.8784,871.4568],[-64.2227,-18.8741,838.0718],[-64.2242,-18.8685,838.519],[-64.2288,-18.8652,842.5996],[-64.2331,-18.8589,850.1959],[-64.2388,-18.86,862.2639],[-64.2482,-18.8451,853.9429],[-64.2583,-18.8374,866.9422],[-64.2641,-18.8359,892.0958],[-64.2676,-18.8382,852.2082],[-64.2773,-18.8366,862.9189],[-64.2844,-18.8276,858.5375],[-64.2901,-18.8231,859.0829],[-64.2893,-18.8187,861.6228],[-64.2828,-18.8126,865.1161],[-64.2868,-18.7857,874.202],[-64.2924,-18.7787,875.9163],[-64.2978,-18.7665,881.0473],[-64.316,-18.7606,887.3208],[-64.3176,-18.7567,891.4084],[-64.3164,-18.7542,887.7139],[-64.3111,-18.7522,892.0542],[-64.3094,-18.7498,890.4246],[-64.3175,-18.7387,913.5082],[-64.3198,-18.7267,898.6777],[-64.3123,-18.7153,901.5186],[-64.3096,-18.7018,908.0388],[-64.3102,-18.6862,912.211],[-64.3129,-18.6773,913.8479],[-64.3109,-18.6705,917.3411],[-64.3146,-18.6678,919.74],[-64.3246,-18.6697,956.7964],[-64.3292,-18.6655,922.016],[-64.3407,-18.6676,926.9268],[-64.3432,-18.6659,929.0542],[-64.3583,-18.639,939.0392],[-64.3609,-18.6269,961.9401],[-64.3613,-18.615,953.2],[-64.3642,-18.6165,952.9615],[-64.366,-18.6208,954.3149],[-64.3708,-18.6231,961.5617],[-64.3809,-18.6224,982.0799],[-64.3858,-18.6245,992.4709],[-64.3894,-18.6225,996.2842],[-64.3979,-18.6216,1000.459],[-64.4161,-18.6287,1030.6603],[-64.4239,-18.6278,1081.8369],[-64.4296,-18.6296,1123.4692],[-64.4332,-18.6321,1162.2622],[-64.4383,-18.6413,1015.1931],[-64.4403,-18.6499,1018.5139],[-64.446,-18.6532,1024.1305],[-64.453,-18.6526,1036.0249],[-64.4567,-18.6542,1030.7905],[-64.4641,-18.664,1032.5858],[-64.4697,-18.6685,1035.1201],[-64.4795,-18.6683,1038.1616],[-64.4908,-18.6716,1043.8939],[-64.5002,-18.6713,1046.0912],[-64.5082,-18.6696,1050.2499],[-64.5114,-18.6674,1051.5774],[-64.52,-18.6763,1070.157],[-64.5332,-18.675,1059.95],[-64.5397,-18.6762,1065.8853],[-64.5446,-18.6738,1065.4315],[-64.5579,-18.6745,1069.468],[-64.5603,-18.6721,1070.6539],[-64.5636,-18.6623,1074.3137],[-64.5741,-18.6536,1079.4929],[-64.5845,-18.6533,1083.8997],[-64.5949,-18.644,1089.1075],[-64.6021,-18.6427,1092.7897],[-64.6078,-18.6435,1093.8213],[-64.6117,-18.6391,1109.2179],[-64.6216,-18.6328,1100.9235],[-64.6241,-18.6228,1116.5347],[-64.6337,-18.6174,1111.927],[-64.6366,-18.604,1116.4281],[-64.6433,-18.6047,1137.6995],[-64.6468,-18.6032,1121.116],[-64.6482,-18.5945,1125.1848],[-64.6432,-18.5917,1127.448],[-64.6431,-18.5886,1132.7777],[-64.6525,-18.5724,1137.4829],[-64.6631,-18.5705,1141.3208],[-64.6706,-18.5665,1145.4849],[-64.6747,-18.5611,1148.2859],[-64.6821,-18.5424,1156.2832],[-64.6864,-18.5385,1158.6182],[-64.6939,-18.5384,1160.7578],[-64.6967,-18.5296,1172.6594],[-64.7008,-18.5305,1165.229],[-64.7027,-18.538,1189.4285],[-64.7054,-18.5397,1307.73],[-64.712,-18.535,1186.1056],[-64.7224,-18.537,1179.8799],[-64.7264,-18.534,1177.5607],[-64.7352,-18.5378,1182.9258],[-64.7427,-18.5342,1189.111],[-64.75,-18.5348,1193.5242],[-64.764,-18.5286,1241.9657],[-64.7708,-18.5292,1221.5281],[-64.7844,-18.526,1204.6957],[-64.7876,-18.5212,1206.7335],[-64.7856,-18.5165,1208.2577],[-64.7972,-18.5024,1218.9231],[-64.7981,-18.4948,1221.5934],[-64.806,-18.4887,1221.6709],[-64.8301,-18.4899,1239.6211],[-64.8338,-18.4885,1235.0862],[-64.8379,-18.484,1253.6243],[-64.8424,-18.484,1245.7909],[-64.8514,-18.4892,1243.0642],[-64.8579,-18.4867,1246.7002],[-64.8629,-18.4936,1256.8966],[-64.8658,-18.4912,1295.7888],[-64.8712,-18.4924,1257.9856],[-64.8725,-18.4894,1293.2277],[-64.8754,-18.4885,1261.1777],[-64.879,-18.4924,1271.2396],[-64.8839,-18.4936,1273.6691],[-64.8883,-18.4979,1372.3865],[-64.9017,-18.5033,1294.7662],[-64.9077,-18.504,1304.0117],[-64.9143,-18.5108,1321.3073],[-64.9323,-18.5179,1305.9126],[-64.9363,-18.53,1317.7345],[-64.9497,-18.536,1443.0842],[-64.953,-18.5401,1312.2334],[-64.9595,-18.543,1318.9568],[-64.9568,-18.5515,1337.4329],[-64.9592,-18.5534,1320.4774],[-64.9663,-18.5555,1345.7214],[-64.971,-18.5551,1335.1899],[-64.975,-18.5588,1340.7108],[-64.9835,-18.5606,1335.636],[-64.9859,-18.5594,1359.5648],[-64.9902,-18.5612,1338.8694],[-64.9953,-18.5574,1385.3843],[-65.0006,-18.559,1433.8434],[-65.0006,-18.5657,1341.7689],[-65.0046,-18.5725,1353.5271],[-65.0136,-18.5769,1425.2915],[-65.0158,-18.5809,1390.8945],[-65.0207,-18.5843,1397.4437],[-65.0222,-18.5926,1388.6162],[-65.0211,-18.5985,1368.1656],[-65.035,-18.5989,1380.2823],[-65.0376,-18.601,1388.566],[-65.0391,-18.6094,1382.8638],[-65.0477,-18.6134,1385.1223],[-65.0452,-18.624,1432.4563],[-65.0514,-18.63,1398.3728],[-65.0483,-18.6342,1414.8491],[-65.0495,-18.6408,1402.8667],[-65.0481,-18.6465,1406.8182],[-65.044,-18.6518,1426.6715],[-65.0389,-18.6491,1416.546],[-65.0358,-18.663,1418.8328],[-65.0316,-18.6689,1420.2214],[-65.0396,-18.6793,1425.8203],[-65.0435,-18.6818,1429.4923],[-65.0471,-18.6795,1434.818],[-65.0498,-18.6746,1436.2207],[-65.0584,-18.6754,1441.5764],[-65.0768,-18.659,1456.5701],[-65.0849,-18.6616,1484.7412],[-65.0889,-18.6578,1555.0237],[-65.0965,-18.6568,1460.7996],[-65.1004,-18.6489,1498.7173],[-65.102,-18.6402,1480.6831],[-65.1091,-18.6374,1473.4338],[-65.1144,-18.6329,1500.4298],[-65.1223,-18.6333,1477.7424],[-65.1266,-18.6263,1492.1932],[-65.1317,-18.6251,1475.7478],[-65.145,-18.6167,1479.6438],[-65.1468,-18.6142,1483.0654],[-65.1466,-18.6064,1487.66],[-65.1547,-18.6135,1494.4226],[-65.1643,-18.6102,1498.7568],[-65.1691,-18.6124,1494.4851],[-65.1758,-18.6185,1496.5586],[-65.1842,-18.6175,1520.8223],[-65.2027,-18.624,1506.8757],[-65.2056,-18.623,1512.1523],[-65.2069,-18.6183,1510.6492],[-65.2106,-18.6135,1513.5815],[-65.2153,-18.611,1516.3376],[-65.2339,-18.6131,1565.1697],[-65.2436,-18.6107,1531.4462],[-65.248,-18.6012,1612.3822],[-65.2448,-18.5963,1542.6458],[-65.2455,-18.5799,1535.4094],[-65.2387,-18.563,1542.4714],[-65.2378,-18.5557,1546.002],[-65.2392,-18.5469,1549.7515],[-65.245,-18.5336,1556.0166],[-65.2433,-18.5262,1559.6646],[-65.2467,-18.5198,1561.2002],[-65.2458,-18.506,1570.0667],[-65.2533,-18.5037,1571.7141],[-65.2622,-18.5071,1587.876],[-65.2784,-18.509,1581.2832],[-65.2832,-18.5029,1585.7184],[-65.2883,-18.5011,1585.8333],[-65.2875,-18.4961,1591.8284],[-65.292,-18.4919,1593.0647],[-65.2932,-18.4859,1592.2957],[-65.2893,-18.474,1597.207],[-65.2907,-18.4668,1608.3805],[-65.3034,-18.4487,1612.4565],[-65.3098,-18.443,1620.3042],[-65.3125,-18.4426,1626.1277],[-65.3183,-18.4473,1680.2987],[-65.3199,-18.4532,1628.2665],[-65.3255,-18.4586,1648.4377],[-65.3308,-18.4585,1637.6154],[-65.3345,-18.4538,1650.5824],[-65.3358,-18.4482,1657.663],[-65.3333,-18.4389,1641.42],[-65.3344,-18.4349,1736.6711],[-65.3304,-18.4261,1657.9629],[-65.3331,-18.4232,1660.2329],[-65.3457,-18.4179,1647.2909],[-65.3493,-18.421,1673.272],[-65.3511,-18.4329,1670.8207],[-65.3548,-18.4339,1666.5388],[-65.3572,-18.4366,1726.9258],[-65.3661,-18.4356,1718.9506],[-65.3722,-18.4303,1671.2372],[-65.3804,-18.4279,1668.3032],[-65.3859,-18.423,1711.8181],[-65.3996,-18.4256,1677.8394],[-65.4039,-18.4201,1699.3375],[-65.4106,-18.4199,1719.618],[-65.4203,-18.4151,1703.6501],[-65.4245,-18.4103,1729.9344],[-65.4328,-18.4096,1813.7432],[-65.4412,-18.4038,1761.8611],[-65.4481,-18.4053,1757.4253],[-65.4547,-18.4104,1707.6897],[-65.4602,-18.4058,1722.7964],[-65.4623,-18.4004,1716.2626],[-65.4647,-18.3987,1715.8174],[-65.4784,-18.4007,1725.6926],[-65.4893,-18.4,1756.2048],[-65.4976,-18.3919,1740.0111],[-65.5042,-18.3892,1749.5229],[-65.5064,-18.3868,1763.5132],[-65.5128,-18.3875,1770.8781],[-65.5188,-18.3929,1834.2195],[-65.5238,-18.3948,1866.5345],[-65.5293,-18.3916,1814.7253],[-65.5348,-18.3921,1820.9993],[-65.5368,-18.3993,1785.2249],[-65.5419,-18.4009,1781.771],[-65.5465,-18.4046,1803.4011],[-65.549,-18.4008,1784.5863],[-65.5559,-18.4005,1770.1282],[-65.5648,-18.3916,1772.0913],[-65.5782,-18.3851,1781.3303],[-65.5831,-18.3787,1786.6925],[-65.5908,-18.3748,1792.6907],[-65.6181,-18.3759,1811.8098],[-65.6343,-18.3739,1823.8198],[-65.6404,-18.3689,1828.4517],[-65.6616,-18.3645,1845.4359],[-65.6663,-18.3609,1848.9136],[-65.6726,-18.3483,1860.5208],[-65.6793,-18.3473,1865.9178],[-65.6939,-18.3519,1876.2859],[-65.6926,-18.3599,1884.9517],[-65.6956,-18.3651,1885.739],[-65.6904,-18.3746,1894.2531],[-65.6868,-18.3777,1895.6455],[-65.6835,-18.3872,1909.1609],[-65.6845,-18.4025,1915.7542],[-65.6818,-18.4114,1937.9431],[-65.6842,-18.4171,1932.6417],[-65.6791,-18.4236,1935.824],[-65.6773,-18.4293,1960.3517],[-65.6724,-18.4337,1938.0894],[-65.6662,-18.4368,1942.9995],[-65.6555,-18.4462,1952.5919],[-65.6447,-18.4454,1960.6649],[-65.6241,-18.462,1982.4152],[-65.6221,-18.475,1994.6237],[-65.6191,-18.4831,2001.6284],[-65.6238,-18.5011,2019.4591],[-65.6187,-18.5003,2173.3857],[-65.6115,-18.4966,2559.3684],[-65.5839,-18.4983,3059.1689],[-65.5757,-18.5018,3013.1187],[-65.5639,-18.5118,3169.2798],[-65.5558,-18.514,3194.489],[-65.5343,-18.5258,3112.9849],[-65.5299,-18.5274,3125.0896],[-65.5261,-18.5265,3173.7129],[-65.516,-18.5393,3078.3982],[-65.5143,-18.5475,3106.551],[-65.504,-18.5438,2754.7],[-65.496,-18.5358,2370.0945],[-65.493,-18.5385,2403.7422],[-65.4968,-18.5452,2471.9985],[-65.4965,-18.5495,2508.2432],[-65.5013,-18.5597,2900.9785],[-65.5013,-18.564,3121.1328],[-65.4945,-18.5692,3111.5698],[-65.4951,-18.5758,3168.6445],[-65.4912,-18.5792,3240.9565],[-65.491,-18.5817,3260.5693],[-65.4889,-18.5824,3240.8745],[-65.486,-18.5908,3323.2373],[-65.4811,-18.5928,3214.1667],[-65.4756,-18.5927,3188.4233],[-65.4751,-18.5967,3291.8386],[-65.4668,-18.5977,3254.9751],[-65.4621,-18.606,3393.4568],[-65.4476,-18.6064,3367.1211],[-65.4376,-18.6137,3413.2075],[-65.4367,-18.616,3402.0913],[-65.434,-18.6131,3400.3181],[-65.4357,-18.6099,3326.2544],[-65.4339,-18.6063,3239.8442],[-65.4277,-18.6034,3419.6694],[-65.4216,-18.605,3463.8945],[-65.4163,-18.6106,3467.9214],[-65.4124,-18.613,3366.6899],[-65.4073,-18.6136,3358.0581],[-65.4021,-18.6176,3292.4922],[-65.3921,-18.6282,3172.6379],[-65.3902,-18.6355,3111.2722],[-65.3844,-18.6375,3039.687],[-65.3813,-18.6408,3079.9919],[-65.3839,-18.6419,2968.9944],[-65.3894,-18.6532,3312.062],[-65.3933,-18.6562,3420.4197],[-65.4001,-18.6539,3541.2729],[-65.4028,-18.654,3508.468],[-65.4039,-18.6559,3501.9175],[-65.4074,-18.6526,3417.9937],[-65.411,-18.6518,3430.4346],[-65.4143,-18.6598,3078.6536],[-65.4191,-18.6632,2961.2759],[-65.417,-18.6661,2944.2705],[-65.4181,-18.6701,2819.0242],[-65.4163,-18.6747,2708.3074],[-65.4168,-18.6783,2772.3044],[-65.4145,-18.6812,2823.3855],[-65.4145,-18.6897,2967.7866],[-65.4085,-18.6975,3133.179],[-65.4006,-18.702,3214.4971],[-65.4064,-18.7103,2877.2373],[-65.4114,-18.713,2797.2178],[-65.4105,-18.7175,2854.2256],[-65.4138,-18.7186,2848.2913],[-65.4145,-18.7233,2916.0176],[-65.4188,-18.7291,3110.4304],[-65.4174,-18.7338,3150.2002],[-65.4242,-18.738,3015.6565],[-65.4255,-18.7445,3001.7109],[-65.4292,-18.748,3143.7495],[-65.4269,-18.7511,3158.04],[-65.4272,-18.7542,3062.1865],[-65.4226,-18.7569,3011.9446],[-65.4239,-18.7596,3025.9961],[-65.4226,-18.7611,3051.4189],[-65.4074,-18.773,3103.4624],[-65.4033,-18.7707,3133.4426],[-65.3956,-18.7777,2984.7825],[-65.3898,-18.775,2962.8269],[-65.3868,-18.7759,2958.3579],[-65.3829,-18.7718,2884.7769],[-65.3772,-18.7727,2852.3486],[-65.3749,-18.7748,2807.5999],[-65.3702,-18.7733,2798.4775],[-65.3675,-18.7749,2774.7642],[-65.3647,-18.7744,2782.3762],[-65.3594,-18.7803,2808.9114],[-65.3601,-18.7827,2829.365],[-65.3564,-18.7864,2936.6785],[-65.3597,-18.7892,2768.9541],[-65.363,-18.7886,2677.292],[-65.3663,-18.7903,2524.6719],[-65.3666,-18.7867,2544.5588],[-65.3687,-18.785,2529.7356],[-65.3673,-18.7813,2570.3308],[-65.3714,-18.7788,2625.0669],[-65.3749,-18.7839,2610.8281],[-65.3793,-18.7851,2611.8328],[-65.3808,-18.7826,2628.9883],[-65.3835,-18.7849,2609.021],[-65.3825,-18.7864,2625.1023],[-65.3866,-18.7876,2629.8718],[-65.3857,-18.7929,2807.613],[-65.3871,-18.7962,2993.0728],[-65.3911,-18.7949,2924.9033],[-65.4023,-18.7779,3063.2861],[-65.4059,-18.7749,3106.4707],[-65.412,-18.7769,2867.8667],[-65.4135,-18.7789,2736.1326],[-65.4176,-18.7789,2742.5383],[-65.4198,-18.7875,2845.2021],[-65.4278,-18.7957,3140.3052],[-65.4268,-18.7996,3108.9248],[-65.4314,-18.8041,3092.3359],[-65.4306,-18.8073,3148.4072],[-65.4318,-18.8094,3160.5637],[-65.4381,-18.8112,3207.9814],[-65.4384,-18.8143,3209.7202],[-65.4343,-18.822,3179.2688],[-65.4374,-18.827,3147.3135],[-65.4433,-18.8306,3203.4165],[-65.4438,-18.8332,3214.1279],[-65.443,-18.8353,3217.1509],[-65.4378,-18.8344,3110.342],[-65.4287,-18.8372,3118.335],[-65.4239,-18.8527,3169.7239],[-65.421,-18.8522,3138.5305],[-65.4197,-18.8589,2908.616],[-65.4165,-18.865,2810.1558],[-65.4206,-18.8767,3054.8047],[-65.4242,-18.8789,3167.978],[-65.4191,-18.8802,3110.6895],[-65.4146,-18.8862,3114.6113],[-65.4122,-18.8854,3111.5479],[-65.4117,-18.8888,3062.3101],[-65.4092,-18.8895,3062.9846],[-65.4096,-18.8935,3071.2634],[-65.4072,-18.899,3065.0845],[-65.4049,-18.8994,3075.3],[-65.4017,-18.9038,3071.3687],[-65.3978,-18.9196,3268.7573],[-65.4047,-18.9257,3345.3523],[-65.403,-18.9281,3365.7393],[-65.4059,-18.9392,3231.3921],[-65.4092,-18.9438,3394.4922],[-65.4138,-18.9454,3569.4976],[-65.4217,-18.9305,3470.8628],[-65.4245,-18.9303,3348.0122],[-65.4255,-18.9274,3270.0122],[-65.4287,-18.9293,3424.4543],[-65.4366,-18.92,3466.2371],[-65.441,-18.9185,3450.394],[-65.4495,-18.921,3485.8193],[-65.4535,-18.925,3423.4414],[-65.4531,-18.9275,3391.186],[-65.4603,-18.9304,3100.7603],[-65.463,-18.9295,3093.9163],[-65.4655,-18.9246,3137.9648],[-65.4681,-18.9233,3167.6887],[-65.4809,-18.9259,3613.3809],[-65.4849,-18.9277,3642.8804],[-65.4861,-18.9317,3690.9888],[-65.4889,-18.9311,3740.6489],[-65.4962,-18.9378,3810.1384],[-65.4994,-18.9378,3890.9668],[-65.5055,-18.9412,3966.4863],[-65.5015,-18.9424,3986.0576],[-65.5025,-18.9436,4024.6587],[-65.5082,-18.9453,3969.0781],[-65.5097,-18.9483,3919.3403],[-65.5192,-18.9513,3855.4001],[-65.5218,-18.9538,3781.0491],[-65.5245,-18.9579,3765.6387],[-65.5271,-18.9678,3428.0303],[-65.5324,-18.9765,3327.6309],[-65.5459,-18.982,3042.4617],[-65.5495,-18.9863,3137.1555],[-65.5524,-18.9863,3120.5837],[-65.5535,-18.9887,3146.6873],[-65.5596,-18.9871,3119.1101],[-65.57,-18.9924,3265.6494],[-65.5779,-18.994,3538.8799],[-65.5837,-18.9983,3962.1929],[-65.5873,-18.9977,3985.3894],[-65.5846,-19.0011,4034.5842],[-65.5836,-19.0056,3990.9253],[-65.5675,-19.0241,3799.3499],[-65.567,-19.0324,3399.5759],[-65.5609,-19.0427,3851.3345],[-65.558,-19.0513,4024.5735],[-65.5572,-19.0608,4075.146],[-65.5586,-19.0625,4101.5083],[-65.5574,-19.0646,4014.7822],[-65.553,-19.0658,4014.5356],[-65.5486,-19.0723,3915.3994],[-65.546,-19.0818,3866.4858],[-65.5371,-19.087,3589.2112],[-65.528,-19.0862,3313.5127],[-65.5219,-19.0919,3301.4326],[-65.522,-19.0939,3089.2],[-65.5177,-19.0964,2734.8066],[-65.5127,-19.0919,2722.7134],[-65.5057,-19.0912,2834.657],[-65.5047,-19.0874,2675.29],[-65.4967,-19.0892,2644.7886],[-65.487,-19.0964,2632.157],[-65.4845,-19.1042,2650.1956],[-65.4783,-19.11,2610.3435],[-65.4742,-19.1179,2650.8196],[-65.4699,-19.1226,2606.5259],[-65.4566,-19.1241,2578.4338],[-65.45,-19.1321,2589.77],[-65.4392,-19.1368,2575.0327],[-65.4314,-19.1374,2608.6145],[-65.4298,-19.1389,2571.6387],[-65.4249,-19.1376,2573.5396],[-65.4183,-19.1418,2540.4023],[-65.4106,-19.1406,2530.8875],[-65.4062,-19.1438,2592.9272],[-65.4009,-19.161,2503.3757],[-65.3896,-19.1767,2491.7451],[-65.3902,-19.1831,2518.5002],[-65.3886,-19.1914,2561.3887],[-65.3933,-19.2037,2580.145],[-65.3848,-19.2174,2449.4465],[-65.3831,-19.2261,2438.6387],[-65.3796,-19.2323,2461.229],[-65.3721,-19.2406,2435.2756],[-65.3728,-19.2469,2426.1362],[-65.3698,-19.2556,2397.4089],[-65.3611,-19.2628,2404.2793],[-65.3524,-19.2653,2374.2778],[-65.3477,-19.265,2371.8745],[-65.3453,-19.2671,2369.8853],[-65.3412,-19.2676,2368.7781],[-65.3386,-19.2711,2364.7354],[-65.3304,-19.2714,2355.2339],[-65.324,-19.2815,2343.522],[-65.3156,-19.3023,2323.2822],[-65.3092,-19.3066,2315.7986],[-65.301,-19.306,2311.6138],[-65.2946,-19.3085,2306.4736],[-65.2869,-19.3081,2304.0715],[-65.2647,-19.3151,2298.9866],[-65.2605,-19.3159,2281.1021],[-65.2539,-19.3144,2275.6885],[-65.2468,-19.3183,2271.6421],[-65.2417,-19.3184,2267.8213],[-65.2374,-19.3207,2264.4541],[-65.2307,-19.3205,2261.645],[-65.222,-19.3293,2253.9768],[-65.2211,-19.3376,2260.272],[-65.2168,-19.3427,2244.3372],[-65.2009,-19.3496,2233.9844],[-65.1973,-19.3529,2231.8508],[-65.1869,-19.3566,2224.2922],[-65.175,-19.3557,2236.9968],[-65.1668,-19.3629,2226.6221],[-65.1649,-19.3689,2210.8691],[-65.1583,-19.3709,2207.009],[-65.1532,-19.3759,2205.8167],[-65.1484,-19.3756,2215.2292],[-65.141,-19.3781,2201.8481],[-65.1318,-19.3745,2214.1709],[-65.1263,-19.3757,2191.2295],[-65.1219,-19.3741,2198.6995],[-65.1146,-19.3751,2192.1482],[-65.1104,-19.3733,2180.1309],[-65.1022,-19.3731,2191.061],[-65.0882,-19.3668,2191.9075],[-65.0822,-19.3711,2189.7349],[-65.0817,-19.376,2271.2861],[-65.0712,-19.379,2187.0073],[-65.0667,-19.384,2167.2881],[-65.0561,-19.3858,2161.3926],[-65.044,-19.3813,2186.3455],[-65.0443,-19.3773,2143.2754],[-65.0379,-19.3744,2182.9651],[-65.0368,-19.3696,2136.8943],[-65.0256,-19.3678,2127.4197],[-65.0158,-19.3569,2118.4124],[-65.0041,-19.352,2111.1743],[-64.9885,-19.3527,2099.4736],[-64.9704,-19.3468,2089.9685],[-64.9621,-19.3515,2085.0381],[-64.9588,-19.3562,2082.4536],[-64.9474,-19.3585,2075.7817],[-64.9417,-19.3567,2074.0588],[-64.9369,-19.3603,2070.5491],[-64.9293,-19.3627,2067.5198],[-64.9211,-19.3617,2063.6465],[-64.9182,-19.3566,2070.0952],[-64.9127,-19.3547,2067.5398],[-64.9112,-19.3587,2063.2651],[-64.9118,-19.3656,2053.8105],[-64.9098,-19.3702,2051.3027],[-64.8991,-19.3747,2044.7688],[-64.8935,-19.3801,2042.0404],[-64.8934,-19.3842,2038.3706],[-64.8976,-19.3921,2033.8276],[-64.8956,-19.3996,2029.8103],[-64.8893,-19.4022,2028.7224],[-64.8782,-19.3973,2036.8706],[-64.8657,-19.4063,2092.0315],[-64.8526,-19.4102,2019.5742],[-64.8525,-19.4148,2039.8025],[-64.8551,-19.4203,2006.5182],[-64.85,-19.4229,2004.0898],[-64.8518,-19.4288,2002.3387],[-64.8487,-19.4333,1998.249],[-64.8454,-19.4488,1993.0503],[-64.8403,-19.4551,1993.2524],[-64.8407,-19.4618,1992.2836],[-64.8345,-19.4737,1979.0474],[-64.8286,-19.4763,1981.5497],[-64.8231,-19.4835,1976.516],[-64.823,-19.4895,1973.0533],[-64.8184,-19.5013,1968.1802],[-64.8225,-19.5053,1976.5154],[-64.8234,-19.5167,1959.645],[-64.8312,-19.5432,1951.9473],[-64.8328,-19.5616,1942.6307],[-64.84,-19.5754,1939.0532],[-64.8428,-19.5896,1936.0613],[-64.8378,-19.5925,1932.1956],[-64.8301,-19.6027,1924.8765],[-64.8301,-19.6091,1918.2358],[-64.8289,-19.61,1918.2722],[-64.8216,-19.6082,1912.4763],[-64.8179,-19.6097,1928.639],[-64.814,-19.6218,1898.5757],[-64.8106,-19.6255,1895.0851],[-64.787,-19.6332,1880.3654],[-64.7895,-19.641,1876.2666],[-64.7877,-19.6453,1870.5852],[-64.7879,-19.653,1869.2622],[-64.7785,-19.6631,1849.5814],[-64.7733,-19.6737,1840.0593],[-64.7683,-19.6793,1856.8915],[-64.7671,-19.6841,1832.9176],[-64.7616,-19.6862,1827.5031],[-64.7512,-19.7035,1810.3943],[-64.7454,-19.7038,1807.259],[-64.7418,-19.707,1806.9166],[-64.7424,-19.7147,1804.1682],[-64.736,-19.7228,1791.6591],[-64.7349,-19.7373,1775.313],[-64.7268,-19.7466,1768.514],[-64.7273,-19.7514,1807.2106],[-64.73,-19.7562,1756.5254],[-64.7253,-19.7667,1744.8162],[-64.725,-19.7732,1740.0579],[-64.7173,-19.776,1755.4457],[-64.7144,-19.7796,1765.1559],[-64.7189,-19.7816,1793.5061],[-64.7243,-19.7879,1795.9656],[-64.7349,-19.7878,1876.0679],[-64.7393,-19.7898,1878.7915],[-64.7484,-19.8042,2009.8481],[-64.7607,-19.819,2077.8853],[-64.7617,-19.8247,2140.792],[-64.7665,-19.8269,2147.6675],[-64.7765,-19.841,2231.5994],[-64.78,-19.8492,2277.7021],[-64.7842,-19.8542,2315.4973],[-64.784,-19.8607,2346.4116],[-64.7891,-19.8693,2407.5056],[-64.7876,-19.8766,2428.3508],[-64.7927,-19.8885,2494.3577],[-64.7932,-19.8988,2556.3047],[-64.795,-19.9028,2567.4629],[-64.8056,-19.9123,2678.4563],[-64.8067,-19.9196,2732.8809],[-64.8105,-19.9228,2738.9587],[-64.8107,-19.9252,2760.4497],[-64.8198,-19.9313,2925.4607],[-64.8236,-19.9308,3016.427],[-64.8292,-19.9331,3074.3853],[-64.8373,-19.9474,3337.5239],[-64.8383,-19.9556,3466.7051],[-64.8466,-19.9713,3591.9067],[-64.8472,-19.979,3636.0933],[-64.8508,-19.9811,3677.7888],[-64.8589,-19.9745,3900.5332],[-64.8613,-19.9784,3838.6665],[-64.8665,-19.9781,3915.6594],[-64.8718,-19.981,3902.4229],[-64.8762,-19.9732,3698.1006],[-64.8788,-19.9724,3567.2283],[-64.8813,-19.9686,3293.0286],[-64.8836,-19.968,3194.6624],[-64.8829,-19.9671,3193.2188],[-64.8864,-19.9678,3147.9858],[-64.886,-19.9665,3147.9858],[-64.8888,-19.9654,3206.9746],[-64.8885,-19.9638,3131.1934],[-64.8908,-19.9636,3163.0134],[-64.8887,-19.9604,3017.5464],[-64.8929,-19.9571,3003.6992],[-64.8925,-19.9527,2994.9006],[-64.8947,-19.9495,2973.6565],[-64.8946,-19.9464,2978.5347],[-64.8969,-19.9458,3045.8499],[-64.8958,-19.9379,3021.7473],[-64.897,-19.9339,2927.8477],[-64.8931,-19.9247,2871.8418],[-64.895,-19.9205,2903.0647],[-64.8966,-19.9203,2952.3306],[-64.8948,-19.9142,2853.54],[-64.8969,-19.9088,2784.6509],[-64.9053,-19.8982,2718.4436],[-64.9073,-19.8896,2679.8154],[-64.9159,-19.8742,2604.5103],[-64.9191,-19.8636,2571.9878],[-64.919,-19.86,2564.895],[-64.9155,-19.8548,2536.269],[-64.9159,-19.85,2513.3489],[-64.9133,-19.8452,2496.249],[-64.9143,-19.8422,2504.4062],[-64.928,-19.8438,3095.8179],[-64.9311,-19.8565,3069.5205],[-64.93,-19.8595,3099.5222],[-64.9391,-19.8659,3176.5154],[-64.9416,-19.8765,3313.9204],[-64.9599,-19.869,3102.9531],[-64.9785,-19.8549,2581.1548],[-64.9783,-19.8531,2493.3],[-64.9827,-19.855,2615.6438],[-64.9831,-19.8534,2579.9663],[-64.9849,-19.8546,2673.4412],[-64.9909,-19.8533,2680.1462],[-64.991,-19.8478,2811.5513],[-64.9892,-19.8457,2787.5386],[-64.9902,-19.8433,2792.1492],[-64.9916,-19.8435,2824.8076],[-64.9908,-19.8405,2827.6597],[-64.9931,-19.8388,2936.4199],[-64.995,-19.8323,2930.4097],[-64.996,-19.8329,2930.4097],[-64.9958,-19.8303,2939.2603],[-64.9972,-19.8306,2982.5232],[-64.9988,-19.8278,3041.9568],[-65.0025,-19.8292,2999.4854],[-65.004,-19.8283,3045.4231],[-65.0092,-19.8132,3158.7395],[-65.0117,-19.814,3195.8003],[-65.0207,-19.8035,3247.7747],[-65.0263,-19.8025,3301.7449],[-65.0302,-19.7946,3349.885],[-65.0359,-19.7945,3419.4009],[-65.0398,-19.7968,3470.1328],[-65.0567,-19.7937,4050.1604],[-65.0525,-19.8062,3856.8101],[-65.054,-19.8185,3772.1396],[-65.0527,-19.8204,3768.0461],[-65.057,-19.8277,3787.0271],[-65.0559,-19.8333,3780.6357],[-65.0583,-19.8424,3754.0366],[-65.061,-19.844,3806.9539],[-65.0618,-19.8628,3766.8027],[-65.0648,-19.8707,3729.4229],[-65.0692,-19.8748,3734.854],[-65.0689,-19.8806,3728.3979],[-65.0759,-19.8991,3626.022],[-65.0745,-19.9009,3600.1602],[-65.077,-19.9086,3570.1775],[-65.0775,-19.9183,3581.377],[-65.0831,-19.9319,3543.6533],[-65.0816,-19.9348,3527.8118],[-65.0768,-19.9354,3379.7007],[-65.0717,-19.9388,3031.769],[-65.0696,-19.9423,3039.5317],[-65.0661,-19.9439,2925.4783],[-65.0632,-19.9492,2781.1162],[-65.0597,-19.9501,2728.5066],[-65.0598,-19.9533,2656.8198],[-65.062,-19.957,2713.2002],[-65.0658,-19.9591,2832.0356],[-65.0657,-19.9635,2920.2776],[-65.0714,-19.9671,3082.6882],[-65.075,-19.9745,3198.3455],[-65.0752,-19.9782,3201.9419],[-65.0772,-19.9799,3171.5229],[-65.0775,-19.9838,3184.0547],[-65.0746,-19.9899,3319.5662],[-65.0822,-19.995,3253.4968],[-65.0865,-19.9953,3410.9692],[-65.088,-19.9917,3439.5605],[-65.0906,-20.0094,2981.6787],[-65.1046,-20.0165,3425.6099],[-65.1281,-20.0152,3194.6909],[-65.1445,-20.0112,3183.7703],[-65.1522,-20.0124,3068.7227],[-65.1542,-20.0074,3010.532],[-65.1607,-20.0044,3023.3799],[-65.1709,-19.9956,3117.5181],[-65.2033,-19.938,3377.0811],[-65.214,-19.9393,3435.1748],[-65.2223,-19.9359,3454.5525],[-65.223,-19.9413,3527.2742],[-65.2278,-19.9481,3558.5803],[-65.2313,-19.95,3547.4097],[-65.2329,-19.9556,3520.9819],[-65.2381,-19.9589,3525.375],[-65.2442,-19.9702,3541.1184],[-65.2662,-19.9878,3966.1113],[-65.2683,-19.9916,3810.0811],[-65.2721,-19.9933,3667.9304],[-65.2703,-20.0039,4065.0259],[-65.2751,-20.0052,4104.2036],[-65.2774,-20.009,4068.627],[-65.2827,-20.004,4002.3916],[-65.2869,-20.0033,4096.2549],[-65.2938,-20.0066,4046.9976],[-65.2942,-20.0081,4053.9436],[-65.305,-20.0093,3960.9019],[-65.3051,-20.0261,3658.866],[-65.2932,-20.0488,3597.71],[-65.2893,-20.0532,3517.741],[-65.283,-20.0522,3651.1572],[-65.283,-20.0597,3741.3374],[-65.2793,-20.0691,3690.886],[-65.2722,-20.0795,3544.3652],[-65.2685,-20.0924,3637.4834],[-65.256,-20.1024,3869.3892],[-65.2495,-20.1034,3874.1794],[-65.2432,-20.1131,3818.1328],[-65.239,-20.1163,3755.9841],[-65.2337,-20.1305,3845.9136],[-65.2326,-20.1405,3847.687],[-65.2353,-20.1438,3945.9805],[-65.235,-20.1464,3912.6953],[-65.2571,-20.1586,3839.8633],[-65.2643,-20.1576,3794.02],[-65.2713,-20.1514,3692.8625],[-65.2844,-20.1702,3350.8457],[-65.2882,-20.1695,3338.8574],[-65.3016,-20.1778,3303.4182],[-65.3158,-20.1945,3222.2458],[-65.3161,-20.1976,3150.1018],[-65.3121,-20.207,3267.9299],[-65.3152,-20.2153,3223.9778],[-65.3157,-20.2251,3241.5127],[-65.3137,-20.2305,3273.7397],[-65.2921,-20.2297,3300.0962],[-65.2826,-20.2327,3313.9785],[-65.2796,-20.2398,3306.7556],[-65.2686,-20.2562,3351.2971],[-65.2654,-20.2575,3349.6147],[-65.2451,-20.2761,3890.3564],[-65.2218,-20.3138,4298.3262],[-65.2212,-20.3188,4405.6719],[-65.2255,-20.3266,4490.082],[-65.2313,-20.3327,4583.4419],[-65.2332,-20.3434,4698.4473],[-65.2285,-20.3516,4649.5479],[-65.238,-20.3582,4594.6147],[-65.2408,-20.3626,4684.5605],[-65.2393,-20.3658,4662.626],[-65.2443,-20.3675,4638.4326],[-65.2465,-20.3712,4625.2837],[-65.2463,-20.3752,4551.3438],[-65.2515,-20.3796,4595.0566],[-65.2507,-20.3829,4553.2896],[-65.2526,-20.3868,4712.9678],[-65.2491,-20.3903,4605.5859],[-65.2476,-20.3965,4417.9951],[-65.248,-20.4056,4544.6025],[-65.2456,-20.4079,4597.9146],[-65.2459,-20.4106,4563.8315],[-65.2435,-20.4151,4551.5391],[-65.2463,-20.4186,4604.5391],[-65.2486,-20.4183,4508.877],[-65.2555,-20.4235,4371.4453],[-65.2624,-20.4238,4469.749],[-65.2634,-20.4301,4518.5283],[-65.2612,-20.4368,4481.7686],[-65.2564,-20.4425,4455.2231],[-65.2573,-20.4471,4534.043],[-65.2591,-20.4504,4627.522],[-65.2645,-20.4511,4512.6152],[-65.2714,-20.4577,4600.0879],[-65.2692,-20.463,4499.2988],[-65.2728,-20.4716,4423.3979],[-65.2681,-20.4797,4369.5986],[-65.2699,-20.4888,4304.6987],[-65.2682,-20.4926,4264.1421],[-65.2686,-20.5047,4258.6191],[-65.3276,-20.5119,4125.4688],[-65.3501,-20.5484,3703.0786],[-65.3799,-20.5589,3401.7292],[-65.3878,-20.5576,3480.2957],[-65.3819,-20.5753,3435.7969],[-65.3824,-20.5817,3437.7498],[-65.3683,-20.5974,3449.7068],[-65.3642,-20.5989,3407.1902],[-65.3601,-20.5977,3383.7927],[-65.3546,-20.6023,3392.1157],[-65.3556,-20.6061,3354.4036],[-65.3497,-20.6145,3292.3145],[-65.3472,-20.6226,3270.6101],[-65.356,-20.6398,3234.1887],[-65.3564,-20.6451,3179.2402],[-65.358,-20.6466,3162.4509],[-65.3556,-20.6545,3025.4031],[-65.3575,-20.6579,2983.1628],[-65.3584,-20.6674,2922.593],[-65.3632,-20.672,2935.7437],[-65.3645,-20.6772,2929.1584],[-65.3644,-20.6881,2887.8032],[-65.3617,-20.6976,2817.0679],[-65.3638,-20.701,2701.106],[-65.3636,-20.7081,2675.8569],[-65.358,-20.7146,2620.1113],[-65.3572,-20.7271,2464.522],[-65.3607,-20.7299,2587.6116],[-65.3614,-20.7328,2628.8213],[-65.3688,-20.7365,2909.5471],[-65.3697,-20.7398,2984.5447],[-65.3753,-20.7467,3043.1899],[-65.3745,-20.7495,3071.4043],[-65.3763,-20.7512,3085.7471],[-65.3716,-20.7555,2883.8169],[-65.3723,-20.7586,2866.0586],[-65.3695,-20.7636,2900.0671],[-65.3715,-20.7722,3026.6504],[-65.3664,-20.7795,3058.2839],[-65.3644,-20.7918,3164.8086],[-65.3577,-20.8002,3209.9375],[-65.3586,-20.8052,3246.5415],[-65.3524,-20.8109,3378.9954],[-65.3492,-20.8213,3366.3145],[-65.3491,-20.8267,3446.6353],[-65.3468,-20.8324,3455.7747],[-65.3488,-20.8343,3501.6655],[-65.3485,-20.839,3474.5984],[-65.3508,-20.8435,3592.3984],[-65.3497,-20.8475,3645.3247],[-65.3506,-20.8518,3800.061],[-65.3478,-20.8542,3819.5054],[-65.3483,-20.8572,3802.7402],[-65.3462,-20.863,3824.95],[-65.3523,-20.8669,3837.4673],[-65.354,-20.8733,3833.8445],[-65.3579,-20.8729,3751.6401],[-65.3597,-20.871,3733.1191],[-65.3625,-20.8717,3807.1631],[-65.3685,-20.8679,3861.5679],[-65.3758,-20.8691,3837.231],[-65.3778,-20.874,3877.4585],[-65.38,-20.8752,3880.5828],[-65.3805,-20.8805,3880.3394],[-65.3947,-20.8921,3977.5422],[-65.3907,-20.8976,3887.2646],[-65.4011,-20.9471,3634.7896],[-65.3983,-20.9701,4003.918],[-65.3999,-21.0069,3275.8354],[-65.4086,-21.0266,3839.7803],[-65.4206,-21.0613,3535.1128],[-65.4186,-21.0958,3829.4209],[-65.4085,-21.1222,3654.9702],[-65.4025,-21.1607,3888.894],[-65.4086,-21.1716,3868.573],[-65.4183,-21.1707,3936.0757],[-65.4248,-21.1768,3928.1277],[-65.4318,-21.1778,3942.5588],[-65.4385,-21.1824,3960.5779],[-65.4417,-21.1811,3908.97],[-65.4411,-21.1954,3768.0469],[-65.4399,-21.1969,3725.8843],[-65.4413,-21.2009,3775.7478],[-65.4411,-21.2114,3838.0779],[-65.4337,-21.2597,3374.1416],[-65.436,-21.2811,3567.3391],[-65.4318,-21.287,3571.2915],[-65.4333,-21.2891,3584.563],[-65.4321,-21.2968,3694.7649],[-65.4333,-21.2989,3696.0059],[-65.4302,-21.3151,3849.5994],[-65.4304,-21.3217,3848.8218],[-65.432,-21.3223,3899.2021],[-65.4341,-21.3332,3808.262],[-65.4331,-21.3373,3816.7241],[-65.437,-21.3417,3801.8887],[-65.4361,-21.3525,3863.8125],[-65.4332,-21.353,3859.4868],[-65.4325,-21.3594,3685.2456],[-65.4294,-21.3614,3555.0664],[-65.4312,-21.3669,3602.2231],[-65.4338,-21.3694,3594.2188],[-65.4333,-21.3759,3604.5457],[-65.4349,-21.3821,3729.5959],[-65.4334,-21.3866,3766.4524],[-65.4377,-21.3959,3930.8193],[-65.4365,-21.3976,3933.8958],[-65.4349,-21.3972,3920.8831],[-65.4341,-21.4036,3963.8208],[-65.436,-21.4097,3975.1194],[-65.4346,-21.413,3970.6499],[-65.4371,-21.4265,4104.3428],[-65.4077,-21.4319,4236.2861],[-65.4091,-21.4387,4333.9629],[-65.4046,-21.4477,4281.9844],[-65.4047,-21.4514,4405.9082],[-65.3995,-21.4528,4415.9922],[-65.3985,-21.4549,4437.6606],[-65.4012,-21.4662,4322.1045],[-65.4011,-21.4738,4372.5366],[-65.3988,-21.4768,4352.479],[-65.3984,-21.4803,4337.1504],[-65.4006,-21.4834,4258.396],[-65.4057,-21.4847,4302.8057],[-65.4014,-21.4904,4292.8496],[-65.402,-21.5002,4287.8125],[-65.3999,-21.5058,4369.4316],[-65.3877,-21.5164,4305.3833],[-65.3534,-21.5008,3681.8813],[-65.3279,-21.5096,3458.0442],[-65.3201,-21.5173,3127.1672],[-65.3117,-21.4858,3213.9602],[-65.3057,-21.4834,3117.3125],[-65.3009,-21.4851,3064.1704],[-65.2987,-21.4882,2948.043],[-65.2848,-21.4939,2820.0566],[-65.2802,-21.4912,2806.7842],[-65.2748,-21.4929,2761.6831],[-65.2717,-21.49,2688.8696],[-65.265,-21.489,2619.3076],[-65.2621,-21.4861,2598.8479],[-65.262,-21.4837,2554.5422],[-65.2594,-21.4823,2531.8645],[-65.2551,-21.4806,2503.5874],[-65.2498,-21.4824,2428.1353],[-65.2466,-21.48,2432.1738],[-65.2462,-21.4766,2420.8376],[-65.2496,-21.4701,2422.4517],[-65.2485,-21.4669,2478.8438],[-65.2419,-21.4619,2412.3818],[-65.2439,-21.4531,2410.4482],[-65.2414,-21.4479,2406.9375],[-65.2438,-21.4387,2404.7542],[-65.2428,-21.4315,2410.7849],[-65.2348,-21.4258,2412.8257],[-65.2369,-21.4149,2395.28],[-65.2352,-21.409,2394.8391],[-65.2375,-21.4065,2396.0256],[-65.2368,-21.4046,2392.5181],[-65.2305,-21.4016,2389.6528],[-65.2306,-21.3963,2386.0159],[-65.2337,-21.3917,2407.5303],[-65.2327,-21.388,2384.7983],[-65.2296,-21.3863,2383.3311],[-65.2326,-21.3831,2387.7627],[-65.2309,-21.3754,2380.0303],[-65.2316,-21.3672,2433.0649],[-65.2231,-21.3513,2380.3628],[-65.2283,-21.3464,2368.7705],[-65.2266,-21.3399,2376.7773],[-65.228,-21.3364,2370.2949],[-65.2263,-21.3349,2367.6169],[-65.2214,-21.3365,2366.6428],[-65.22,-21.3352,2369.6504],[-65.2215,-21.3276,2365.4858],[-65.2253,-21.3263,2360.5098],[-65.2235,-21.3234,2385.562],[-65.2174,-21.3202,2357.8813],[-65.2192,-21.3154,2356.6367],[-65.2163,-21.3117,2355.4741],[-65.2184,-21.3082,2354.2358],[-65.217,-21.3041,2352.4014],[-65.2187,-21.3012,2350.9902],[-65.2132,-21.296,2352.4766],[-65.2117,-21.2915,2354.1831],[-65.2172,-21.2864,2364.3245],[-65.2139,-21.2792,2345.3667],[-65.216,-21.273,2342.936],[-65.2204,-21.2688,2362.2673],[-65.2203,-21.2626,2378.8901],[-65.2171,-21.2634,2340.6467],[-65.2162,-21.2608,2359.3027],[-65.2181,-21.2583,2378.9355],[-65.2233,-21.2584,2351.4194],[-65.2242,-21.2564,2350.2407],[-65.2228,-21.2533,2336.5532],[-65.22,-21.2522,2365.5312],[-65.2135,-21.2577,2333.2747],[-65.211,-21.2555,2336.7087],[-65.214,-21.2462,2404.1978],[-65.2064,-21.2398,2328.0959],[-65.2119,-21.2364,2323.2275],[-65.2114,-21.2317,2320.9663],[-65.2057,-21.2225,2318.4121],[-65.2003,-21.2211,2349.5083],[-65.2007,-21.2132,2322.1179],[-65.205,-21.2112,2313.4143],[-65.2061,-21.2085,2316.0537],[-65.2,-21.204,2326.4795],[-65.2073,-21.1953,2307.9976],[-65.2118,-21.1939,2307.0828],[-65.2118,-21.192,2307.0786],[-65.2032,-21.181,2306.8569],[-65.2053,-21.1782,2303.2056],[-65.2046,-21.1754,2301.5942],[-65.1961,-21.1708,2324.7334],[-65.1896,-21.1643,2330.532],[-65.1884,-21.1604,2328.2683],[-65.1912,-21.1574,2333.6133],[-65.1912,-21.1516,2329.127],[-65.1946,-21.1487,2328.394],[-65.1944,-21.1464,2300.1833],[-65.1902,-21.144,2350.3374],[-65.1904,-21.1403,2314.7983],[-65.1933,-21.1382,2324.1758],[-65.198,-21.1422,2305.8457],[-65.2,-21.1399,2313.6162],[-65.1991,-21.1278,2300.1101],[-65.2005,-21.1224,2292.1201],[-65.1977,-21.1154,2298.5972],[-65.1992,-21.1093,2333.5237],[-65.1966,-21.1023,2305.7632],[-65.2019,-21.0971,2283.8574],[-65.1986,-21.092,2311.0269],[-65.2026,-21.0859,2329.0962],[-65.2013,-21.0803,2307.4915],[-65.202,-21.0714,2321.9873]]]]}}