{"type":"Feature","properties":{"featurecla":"River","scalerank":3,"rivernum":77,"dissolve":"77River","name":"Grande13","name_alt":null,"note":null,"min_zoom":3.0,"strokeweig":0.2,"name_en":"Grande","min_label":4.0},
"geometry":{"type": "LineString","coordinates": [[-66.018603515624989,-17.86223723750588,2360.9661],[-66.01337890625,-17.88176848750588,2237.2251],[-66.000659179687489,-17.90691497188088,2203.8657],[-65.985888671874989,-17.92864348750588,2266.2468],[-65.97421875,-17.93792083125588,2418.637],[-65.963134765625,-17.940459893755886,2563.1504],[-65.953466796874991,-17.94719817500588,2118.519],[-65.946704101562489,-17.956866143755889,2231.3862],[-65.9404296875,-17.98137786250588,2094.0962],[-65.93125,-17.983916925005886,2161.9731],[-65.864990234375,-17.96819426875588,2031.5342],[-65.84345703125,-17.96843840938088,2060.6748],[-65.825610351562489,-17.99431731563088,1992.291],[-65.765380859375,-18.026202081255889,2092.9346],[-65.7033203125,-18.077666925005886,1982.3918],[-65.695654296874991,-18.09490325313088,1913.3823],[-65.677783203124989,-18.10881926875588,1973.217],[-65.642504882812489,-18.12908294063088,1994.9867],[-65.618579101562489,-18.157061456255889,1951.7219],[-65.606689453125,-18.17473723750588,1875.391],[-65.595507812499989,-18.20378997188088,1824.3665],[-65.580859374999989,-18.21843840938088,1995.7531],[-65.562744140625,-18.23040130000588,2252.3303],[-65.546240234374991,-18.23894622188088,2067.6018],[-65.510424804687489,-18.26677825313088,2035.7959],[-65.467211914062489,-18.338702081255889,1867.4695],[-65.436450195312489,-18.36931731563088,1758.7555],[-65.4306640625,-18.37151458125588,1976.4519],[-65.415698242187489,-18.374053643755886,2039.7972],[-65.409106445312489,-18.37615325313088,2346.6919],[-65.404394531249991,-18.37957122188088,2330.2295],[-65.395458984375,-18.38982512813088,2425.9822],[-65.36083984375,-18.407745050005886,1834.9739],[-65.35107421875,-18.41033294063088,1741.3024],[-65.347338867187489,-18.41399505000588,1648.7467],[-65.344042968749989,-18.42278411250588,1802.4647],[-65.341723632812489,-18.43303801875588,2271.8921],[-65.3408203125,-18.44133880000588,2076.2141],[-65.337158203125,-18.451983331255889,1752.3792],[-65.32802734375,-18.451983331255889,2044.3684],[-65.316699218749989,-18.449248956255886,1698.9939],[-65.306079101562489,-18.45183684688088,1895.8131],[-65.299902343749991,-18.48601653438088,1825.4998],[-65.293627929687489,-18.495440362505889,1632.8136],[-65.284033203124991,-18.50676848750588,1704.7576],[-65.272802734374991,-18.51628997188088,2034.2474],[-65.26171875,-18.52019622188088,2174.3726],[-65.250341796874991,-18.530303643755886,1838.8323],[-65.247363281249989,-18.554034112505889,1610.84],[-65.247314453125,-18.58123137813088,1535.0917],[-65.24462890625,-18.60149505000588,1608.2559],[-65.231494140624989,-18.61638762813088,1784.8751],[-65.213720703124991,-18.618975518755889,1592.9543],[-65.17529296875,-18.611651300005889,1595.4246],[-65.157397460937489,-18.61370208125588,1489.1763],[-65.139501953124991,-18.621612237505886,1544.8391],[-65.093994140625,-18.65081145625588,1666.9443],[-65.080322265625,-18.65593840938088,1609.2078],[-65.066943359374989,-18.654815362505886,1752.4082],[-65.054980468749989,-18.64421965938088,1621.6099],[-65.048999023437489,-18.63079192500588,1422.0818],[-65.041796874999989,-18.601885675005889,1435.5646],[-65.03466796875,-18.587920831255886,1476.1377],[-65.02490234375,-18.576202081255886,1559.4862],[-65.002050781249991,-18.55608489375588,1649.2269],[-64.964697265624991,-18.53142669063088,1525.2885],[-64.910400390625,-18.50676848750588,1346.7345],[-64.8388671875,-18.48699309688088,1296.006],[-64.816162109375,-18.484698175005889,1239.4476],[-64.797290039062489,-18.489580987505889,1545.4996],[-64.78955078125,-18.49627044063088,1471.7452],[-64.778247070312489,-18.513506768755889,1622.3391],[-64.771826171874991,-18.521319268755889,1678.3944],[-64.7515625,-18.52874114375588,1246.9193],[-64.703369140625,-18.528155206255889,1189.2819],[-64.685107421874989,-18.54021575313088,1156.2732],[-64.673266601562489,-18.56194426875588,1157.3397],[-64.664648437499991,-18.57122161250588,1142.2249],[-64.652197265624991,-18.574737237505886,1135.874],[-64.650683593749989,-18.579620050005886,1132.9895],[-64.636328124999991,-18.60906340938088,1117.0294],[-64.627783203124991,-18.618194268755886,1107.9263],[-64.6083984375,-18.63274505000588,1485.8049],[-64.599707031249991,-18.64128997188088,1090.0947],[-64.583837890624991,-18.66130950313088,1251.7512],[-64.57470703125,-18.666827081255889,1135.636],[-64.560961914062489,-18.66863372188088,1071.6293],[-64.510302734374989,-18.668780206255889,1050.8766],[-64.494067382812489,-18.666338800005889,1090.9951],[-64.48203125,-18.66179778438088,1585.3423],[-64.414111328124989,-18.60979583125588,2198.3855],[-64.391528320312489,-18.601885675005889,1320.4261],[-64.3701171875,-18.60906340938088,1041.2705],[-64.364794921874989,-18.61589934688088,985.4251],[-64.355517578124989,-18.64031340938088,944.1232],[-64.350024414062489,-18.647979425005886,1092.0281],[-64.3296875,-18.66692473750588,937.9941],[-64.32001953125,-18.679034112505889,1078.7454],[-64.316455078124989,-18.69133880000588,1025.8435],[-64.31689453125,-18.704424737505889,953.1079],[-64.319140624999989,-18.719268487505886,982.5542],[-64.319580078125,-18.73552825313088,895.7216],[-64.316015624999991,-18.74846770625588,937.514],[-64.301684570312489,-18.774248956255889,961.7997],[-64.296435546874989,-18.78753020625588,1063.2888],[-64.289160156249991,-18.814288018755889,881.1892],[-64.281909179687489,-18.82634856563088,873.1322],[-64.261376953125,-18.842608331255889,980.2575],[-64.240087890624991,-18.853057550005886,914.413],[-64.220751953124989,-18.86565520625588,865.8525],[-64.206298828125,-18.88836028438088,902.954],[-64.20361328125,-18.901397393755886,833.5117],[-64.2021484375,-18.91545989375588,822.2737],[-64.19921875,-18.928741143755886,826.8033],[-64.192138671875,-18.939288018755889,914.7814],[-64.179785156249991,-18.945830987505886,1057.7554],[-64.165136718749991,-18.94915130000588,1337.7954],[-64.1359375,-18.951006768755889,1304.8569],[-64.120458984374991,-18.955401300005889,916.9344],[-64.111376953124989,-18.96477630000588,858.7602],[-64.103515625,-18.97625090938088,787.5292],[-64.091894531249991,-18.986651300005889,855.2083],[-64.084521484374989,-18.989092706255889,976.1486],[-64.077563476562489,-18.989776300005886,979.0618],[-64.070971679687489,-18.992217706255886,1144.8079],[-64.064794921874991,-18.99993255000588,947.7547],[-64.023291015624991,-19.13787200313088,821.1576],[-64.02109375,-19.149932550005886,707.3879],[-64.016406249999989,-19.16057708125588,757.8218],[-64.007080078125,-19.168780206255889,905.0668],[-63.991943359375,-19.17327239375588,1095.3514],[-63.973559570312489,-19.17449309688088,770.5234],[-63.955249023437489,-19.17302825313088,717.709],[-63.93994140625,-19.16936614375588,984.1597],[-63.92724609375,-19.16277434688088,1067.8518],[-63.917724609375,-19.15398528438088,836.7712],[-63.91083984375,-19.142608331255886,614.5116],[-63.906054687499989,-19.128936456255886,754.2308],[-63.896728515625,-19.055987237505889,654.4752],[-63.88525390625,-19.035186456255886,899.2188],[-63.872802734375,-19.02629973750588,849.6369],[-63.861083984375,-19.02629973750588,887.0365],[-63.834326171874991,-19.034502862505889,1004.8932],[-63.813403320312489,-19.03533294063088,1102.0121],[-63.750585937499991,-19.028350518755886,575.2578]]}}