{"type": "Feature","bbox": [-64.8799,-19.6649,-64.6275,-19.2766],"geometry": {"type": "MultiPolygon","coordinates": [[[[-64.6285,-19.5662,4117.4897],[-64.6289,-19.5625,4087.1909],[-64.6332,-19.5596,3977.4771],[-64.6329,-19.545,3957.446],[-64.6349,-19.5334,3637.9272],[-64.6346,-19.5064,3321.9165],[-64.6295,-19.4817,3410.2007],[-64.631,-19.4775,3390.7832],[-64.6413,-19.4716,3496.55],[-64.6513,-19.4562,3558.3521],[-64.6573,-19.4521,3626.709],[-64.6598,-19.4465,3654.512],[-64.6567,-19.4388,3485.8425],[-64.6567,-19.432,3542.866],[-64.66,-19.4262,3715.6968],[-64.6638,-19.4237,3707.8464],[-64.6646,-19.4194,3684.1873],[-64.6633,-19.4028,3566.1411],[-64.6581,-19.3954,3550.3784],[-64.6403,-19.382,3180.6562],[-64.6382,-19.3658,3121.7402],[-64.632,-19.3552,3174.7649],[-64.6389,-19.3459,2844.7095],[-64.652,-19.3442,3041.3496],[-64.6572,-19.3408,3130.1255],[-64.6603,-19.3368,3259.6755],[-64.6629,-19.3285,3366.9724],[-64.6759,-19.3374,3276.0396],[-64.6791,-19.3379,3450.5676],[-64.6813,-19.3281,3462.4419],[-64.689,-19.318,3400.9099],[-64.6895,-19.3128,3392.6406],[-64.693,-19.3092,3377.1665],[-64.6987,-19.3102,3653.5786],[-64.7017,-19.3081,3683.1729],[-64.701,-19.3026,3648.8313],[-64.7114,-19.2894,3593.8689],[-64.7112,-19.283,3608.5471],[-64.715,-19.2776,3521.3354],[-64.719,-19.2766,3507.6304],[-64.7267,-19.2858,3521.2517],[-64.7396,-19.2899,3473.7695],[-64.7521,-19.2904,3285.0073],[-64.7606,-19.2949,3205.7153],[-64.7671,-19.2959,3221.6133],[-64.7755,-19.2942,3202.3962],[-64.8056,-19.293,3085.8198],[-64.8218,-19.2806,3008.7778],[-64.829,-19.2816,3022.2844],[-64.8338,-19.2848,3077.7832],[-64.8435,-19.2858,3191.5068],[-64.8551,-19.2937,3551.1367],[-64.8579,-19.3085,3487.4019],[-64.8557,-19.3211,3433.5896],[-64.8602,-19.3231,3356.4814],[-64.8636,-19.3273,3377.3831],[-64.8628,-19.3325,3359.8289],[-64.8607,-19.3344,3375.748],[-64.8543,-19.351,3478.1418],[-64.8604,-19.3541,3221.313],[-64.8655,-19.3537,3186.3569],[-64.8636,-19.3579,3216.7017],[-64.8721,-19.3611,3073.4692],[-64.8772,-19.3611,2893.2471],[-64.8794,-19.3689,2674.5532],[-64.878,-19.3726,2617.7251],[-64.8795,-19.3747,2579.4604],[-64.8795,-19.38,2629.3894],[-64.8765,-19.3826,2550.6272],[-64.8751,-19.3885,2470.1543],[-64.8799,-19.3925,2154.8516],[-64.8793,-19.3973,2036.8706],[-64.8699,-19.4038,2017.8625],[-64.8526,-19.4102,2019.5742],[-64.8525,-19.4148,2039.8025],[-64.8551,-19.4203,2006.5182],[-64.85,-19.4229,2004.0898],[-64.8518,-19.4288,2002.3387],[-64.8487,-19.4333,1998.249],[-64.8454,-19.4488,1993.0503],[-64.8403,-19.4551,1993.2524],[-64.8407,-19.4618,1992.2836],[-64.8345,-19.4737,1979.0474],[-64.8286,-19.4763,1981.5497],[-64.8231,-19.4835,1976.516],[-64.823,-19.4895,1973.0533],[-64.8188,-19.4982,1966.8611],[-64.8188,-19.5025,1968.1802],[-64.8225,-19.5053,1976.5154],[-64.8234,-19.5167,1959.645],[-64.8295,-19.5347,1951.3109],[-64.8328,-19.5616,1942.6307],[-64.84,-19.5754,1939.0532],[-64.8429,-19.5875,1935.4443],[-64.8428,-19.5896,1936.0613],[-64.8378,-19.5925,1932.1956],[-64.8301,-19.6027,1924.8765],[-64.8301,-19.6091,1918.2358],[-64.8273,-19.6099,1914.8535],[-64.8216,-19.6082,1912.4763],[-64.8179,-19.6097,1928.639],[-64.814,-19.6218,1898.5757],[-64.8106,-19.6255,1895.0851],[-64.787,-19.6332,1880.3654],[-64.7895,-19.641,1876.2666],[-64.7877,-19.6453,1870.5852],[-64.7883,-19.652,1866.2306],[-64.7775,-19.6649,1848.4189],[-64.7519,-19.6552,2728.2156],[-64.7409,-19.6555,2917.2561],[-64.7263,-19.6587,3236.6353],[-64.7159,-19.6547,3240.5525],[-64.7054,-19.6432,3461.0498],[-64.6937,-19.6219,4063.5518],[-64.682,-19.6143,4104.8022],[-64.6751,-19.6137,4050.719],[-64.6629,-19.6164,4065.2026],[-64.6525,-19.6245,3851.2056],[-64.6458,-19.6339,4041.136],[-64.639,-19.634,4009.1748],[-64.6339,-19.6316,3937.3118],[-64.6302,-19.6276,4088.8472],[-64.629,-19.6214,4103.271],[-64.6275,-19.6024,3925.9973],[-64.6285,-19.5662,4117.4897]]]]}
,"properties": {"GID_3": "BOL.1.10.3_2","GID_0": "BOL","country": "Bolivia","GID_1": "BOL.1_1","province": "Chuquisaca","NL_NAME_1": "NA","GID_2": "BOL.1.10_2","county": "Zudáñez","NL_NAME_2": "NA","city": "VillaRicardoMugia-Icla","VARNAME_3": "NA","NL_NAME_3": "NA","TYPE_3": "District","ENGTYPE_3": "Distrito","CC_3": "NA","HASC_3": "NA","name": "Villa_Ricardo_Mugia-Icla.city","area_km2": 803.5911,"hist_schema_id": "Elevation0-9000","hist_area_km2": {"1850": 0.5591,"1875": 1.1182,"1900": 1.8971,"1925": 2.1769,"1950": 4.0354,"1975": 4.7156,"2000": 5.1163,"2025": 4.7765,"2050": 5.4359,"2075": 4.7964,"2100": 4.6163,"2125": 5.5358,"2150": 5.1559,"2175": 5.4361,"2200": 6.8547,"2225": 6.5353,"2250": 7.5743,"2275": 6.3752,"2300": 6.6551,"2325": 7.3547,"2350": 8.3743,"2375": 9.9749,"2400": 9.8354,"2425": 11.5756,"2450": 12.3347,"2475": 11.8945,"2500": 11.4348,"2525": 10.8151,"2550": 10.3354,"2575": 10.4154,"2600": 9.3356,"2625": 9.595,"2650": 8.7155,"2675": 9.3552,"2700": 9.4549,"2725": 10.255,"2750": 9.6951,"2775": 9.8956,"2800": 10.2154,"2825": 10.6161,"2850": 10.9758,"2875": 10.8161,"2900": 11.7156,"2925": 12.6569,"2950": 14.3569,"2975": 14.6176,"3000": 15.196,"3025": 14.5363,"3050": 13.0159,"3075": 13.3564,"3100": 13.276,"3125": 12.8965,"3150": 12.9363,"3175": 13.2566,"3200": 13.2967,"3225": 13.2172,"3250": 14.4979,"3275": 14.5576,"3300": 14.0173,"3325": 10.4574,"3350": 9.7769,"3375": 11.1773,"3400": 11.7172,"3425": 10.6373,"3450": 12.4362,"3475": 12.2767,"3500": 11.1956,"3525": 10.2753,"3550": 10.4551,"3575": 10.4342,"3600": 9.9746,"3625": 9.6742,"3650": 8.9743,"3675": 7.6346,"3700": 8.2339,"3725": 7.5941,"3750": 8.5927,"3775": 7.8332,"3800": 7.4931,"3825": 6.6338,"3850": 5.6148,"3875": 4.9754,"3900": 4.5154,"3925": 4.2155,"3950": 4.5152,"3975": 3.3564,"4000": 3.1766,"4025": 2.9767,"4050": 2.5372,"4075": 2.737,"4100": 2.3576,"4125": 1.4587,"4150": 1.1789,"4175": 0.8192,"4200": 0.7593,"4225": 0.4795,"4250": 0.3796,"4275": 0.02}}}