{"type": "Feature","bbox": [-66.8414,-18.1357,-66.4314,-17.8887],"geometry": {"type": "MultiPolygon","coordinates": [[[[-66.4632,-17.9102,3890.0842],[-66.4671,-17.9121,3813.1382],[-66.4774,-17.922,4147.5859],[-66.4965,-17.9294,4325.3892],[-66.5056,-17.9295,4063.0498],[-66.5139,-17.9217,3867.6396],[-66.5213,-17.9058,3710.9673],[-66.5328,-17.8956,3608.3818],[-66.5352,-17.89,3588.0483],[-66.5394,-17.8951,3781.1587],[-66.5446,-17.8947,3785.6714],[-66.5462,-17.8903,4040.6697],[-66.5517,-17.8887,3960.8169],[-66.5589,-17.8902,4227.3052],[-66.558,-17.8933,4068.9043],[-66.5597,-17.8969,4008.0454],[-66.6006,-17.913,4065.2122],[-66.6098,-17.9156,4111.9971],[-66.6145,-17.9152,4084.5806],[-66.6179,-17.9185,3960.7129],[-66.6264,-17.9179,4044.2935],[-66.6305,-17.9219,4076.4841],[-66.6464,-17.9293,4088.2986],[-66.6581,-17.9275,3999.8804],[-66.6678,-17.9298,4059.7053],[-66.6725,-17.9359,4095.8159],[-66.6811,-17.9381,4145.3174],[-66.6909,-17.9451,4170.5127],[-66.7012,-17.9488,4194.6689],[-66.7143,-17.9516,4201.8838],[-66.7304,-17.9513,4188.4756],[-66.7428,-17.9454,4198.1353],[-66.7482,-17.9529,4148.4463],[-66.7814,-17.9846,4265.7305],[-66.7884,-17.9882,4347.0312],[-66.8012,-18.0037,4403.7559],[-66.8225,-18.0254,4434.2471],[-66.827,-18.037,4608.7397],[-66.8356,-18.0475,4541.5225],[-66.8414,-18.0517,4769.9595],[-66.8323,-18.0633,4704.6309],[-66.8321,-18.0833,4485.1118],[-66.8223,-18.0938,4431.4644],[-66.818,-18.1019,4439.8911],[-66.8157,-18.1113,4616.6479],[-66.799,-18.1245,4585.7285],[-66.7958,-18.1296,4534.4297],[-66.7852,-18.1357,4579.4946],[-66.7575,-18.1349,4294.2754],[-66.7247,-18.1159,4703.5186],[-66.7124,-18.1166,4566.293],[-66.7049,-18.1204,4471.8105],[-66.6902,-18.1202,4168.1504],[-66.6839,-18.116,4115.8574],[-66.684,-18.1144,4114.1724],[-66.6863,-18.1137,4100.6865],[-66.6848,-18.112,4080.0181],[-66.6815,-18.1114,4086.8723],[-66.6803,-18.1134,4108.1592],[-66.6779,-18.1134,4082.5352],[-66.6764,-18.1093,4057.5225],[-66.6706,-18.1108,4048.917],[-66.6595,-18.1178,4120.8594],[-66.6369,-18.1189,4100.2188],[-66.6262,-18.1125,4024.3579],[-66.6204,-18.1056,3949.4932],[-66.6185,-18.0971,3933.6475],[-66.614,-18.0969,3947.0508],[-66.6129,-18.093,3917.9126],[-66.6075,-18.0855,3906.3345],[-66.6011,-18.0823,3991.0972],[-66.5953,-18.0843,3979.1577],[-66.5765,-18.0829,3951.7319],[-66.5646,-18.076,3966.3821],[-66.5485,-18.0803,3942.9998],[-66.5457,-18.0829,3941.8125],[-66.54,-18.0821,3906.4663],[-66.5372,-18.084,3906.1006],[-66.5358,-18.0834,3854.7905],[-66.5274,-18.0891,3537.208],[-66.5234,-18.0895,3525.3035],[-66.5243,-18.0821,3586.7],[-66.5321,-18.0658,3902.8779],[-66.5335,-18.0584,3901.6362],[-66.5184,-18.0466,3738.3921],[-66.5121,-18.0363,3703.749],[-66.4934,-18.022,3819.4907],[-66.4853,-18.0138,3921.3123],[-66.4745,-18.0066,4086.5566],[-66.4718,-18.0037,4128.2617],[-66.4726,-18.0006,4154.4531],[-66.4613,-17.9934,4026.0481],[-66.4462,-17.9811,3924.8025],[-66.4449,-17.9786,4049.6353],[-66.4314,-17.9734,4062.2578],[-66.4332,-17.9631,4077.9485],[-66.4428,-17.957,4102.0889],[-66.4468,-17.9579,4117.8613],[-66.4628,-17.9458,4315.0869],[-66.463,-17.9395,4386.3555],[-66.453,-17.9392,4388.3813],[-66.4533,-17.9353,4314.3291],[-66.4514,-17.9283,4158.1289],[-66.4486,-17.9241,4093.9092],[-66.448,-17.9177,4048.7561],[-66.4531,-17.914,4010.7468],[-66.4575,-17.9135,4011.8584],[-66.4632,-17.9102,3890.0842]]]]}
,"properties": {"GID_2": "BOL.2.4_2","GID_0": "BOL","country": "Bolivia","GID_1": "BOL.2_1","province": "Cochabamba","NL_NAME_1": "NA","county": "Bolivar","VARNAME_2": "NA","NL_NAME_2": "NA","TYPE_2": "Provincia","ENGTYPE_2": "Province","CC_2": "NA","HASC_2": "NA","name": "Bolivar.county","area_km2": 686.1571,"hist_schema_id": "Elevation0-9000","hist_area_km2": {"3525": 0.0403,"3550": 0.0403,"3575": 0.121,"3600": 0.1613,"3625": 0.4033,"3650": 3.3873,"3675": 5.8674,"3700": 6.6943,"3725": 6.8961,"3750": 7.0171,"3775": 8.348,"3800": 8.0256,"3825": 9.1955,"3850": 10.3048,"3875": 12.785,"3900": 14.9225,"3925": 17.3616,"3950": 28.147,"3975": 34.4172,"4000": 40.1437,"4025": 43.1287,"4050": 47.2626,"4075": 44.9646,"4100": 39.059,"4125": 32.0624,"4150": 28.6349,"4175": 31.4997,"4200": 22.8673,"4225": 18.5306,"4250": 14.5569,"4275": 13.7901,"4300": 14.4552,"4325": 14.2537,"4350": 11.5515,"4375": 11.8132,"4400": 11.5506,"4425": 11.7316,"4450": 12.0132,"4475": 9.4733,"4500": 9.3721,"4525": 7.9613,"4550": 6.2481,"4575": 5.2203,"4600": 3.9103,"4625": 2.9025,"4650": 1.7537,"4675": 0.6249,"4700": 0.2822,"4725": 0.3024,"4750": 0.1008}}}