{"type": "Feature","bbox": [-68.6129,-16.7727,-68.2367,-16.4596],"geometry": {"type": "MultiPolygon","coordinates": [[[[-68.4837,-16.77,4184.7573],[-68.4623,-16.7256,3960.8406],[-68.4495,-16.7078,3953.8782],[-68.4375,-16.686,3959.6172],[-68.4295,-16.6848,3938.1497],[-68.4272,-16.6799,3933.4624],[-68.392,-16.6511,3847.5544],[-68.384,-16.6226,3851.4858],[-68.3556,-16.611,3845.9512],[-68.3392,-16.6004,3885.761],[-68.3271,-16.5903,3859.634],[-68.3248,-16.5921,3859.3267],[-68.3239,-16.596,3858.6248],[-68.32,-16.594,3858.9609],[-68.3162,-16.5854,3862.1404],[-68.2982,-16.5697,3873.1011],[-68.296,-16.5613,3878.6646],[-68.2906,-16.5528,3892.636],[-68.2849,-16.5483,3895.6711],[-68.2736,-16.5472,3905.9346],[-68.2669,-16.5505,3910.8301],[-68.2622,-16.5592,3912.5],[-68.2533,-16.5608,3921.3953],[-68.2367,-16.5435,3943.3638],[-68.2663,-16.5246,3924.1514],[-68.283,-16.5363,3902.5044],[-68.2971,-16.5299,3895.1113],[-68.2874,-16.5105,3910.3069],[-68.3005,-16.5102,3896.541],[-68.3076,-16.513,3890.7751],[-68.3201,-16.5017,3884.6594],[-68.3062,-16.4746,3922.6038],[-68.3167,-16.4596,3930.4153],[-68.3309,-16.4682,3903.3342],[-68.3602,-16.4793,3867.71],[-68.3731,-16.4913,3877.658],[-68.3979,-16.4599,3847.7561],[-68.4082,-16.4685,3840.8269],[-68.4083,-16.4714,3839.3271],[-68.4106,-16.4723,3838.9019],[-68.4342,-16.4674,3834.3989],[-68.4511,-16.4796,4041.0278],[-68.4594,-16.4716,4108.9199],[-68.4679,-16.473,4001.7207],[-68.4724,-16.4772,3993.2756],[-68.4779,-16.4913,3905.5686],[-68.4975,-16.5066,3830.5537],[-68.5033,-16.5148,3822.5676],[-68.5104,-16.5139,3822.6184],[-68.5146,-16.5088,3821.7634],[-68.5145,-16.5055,3822.0764],[-68.5198,-16.5027,3822.0679],[-68.5223,-16.5036,3821.3916],[-68.526,-16.4996,3821.7754],[-68.5289,-16.4991,3821.2349],[-68.5315,-16.5008,3820.7632],[-68.5353,-16.4979,3821.3342],[-68.5367,-16.4989,3820.8643],[-68.5411,-16.4931,3820.3108],[-68.5409,-16.486,3820.03],[-68.5467,-16.4784,3819.5742],[-68.5723,-16.5005,3820.8379],[-68.5936,-16.5226,4135.8223],[-68.6011,-16.5179,4093.8145],[-68.6044,-16.5117,4111.1875],[-68.6129,-16.5171,4014.7739],[-68.6003,-16.53,3982.3767],[-68.5883,-16.5477,3905.8005],[-68.5932,-16.5573,3873.9714],[-68.5935,-16.5632,3865.5022],[-68.5958,-16.5651,3862.5051],[-68.5955,-16.5707,3850.9075],[-68.5933,-16.5726,3844.8599],[-68.5951,-16.5757,3843.5181],[-68.5886,-16.5811,3845.1448],[-68.6048,-16.6206,3962.614],[-68.608,-16.6423,4383.5063],[-68.6054,-16.643,4300.7207],[-68.5963,-16.6574,4382.7607],[-68.5956,-16.6625,4347.3438],[-68.5928,-16.6664,4433.6763],[-68.5934,-16.6761,4592.0898],[-68.5428,-16.7081,4635.0933],[-68.519,-16.7419,4310.5225],[-68.4946,-16.7727,4190.4102],[-68.4837,-16.77,4184.7573]]]]}
,"properties": {"GID_3": "BOL.4.14.3_2","GID_0": "BOL","country": "Bolivia","GID_1": "BOL.4_1","province": "LaPaz","NL_NAME_1": "NA","GID_2": "BOL.4.14_2","county": "LosAndes","NL_NAME_2": "NA","city": "Laja","VARNAME_3": "NA","NL_NAME_3": "NA","TYPE_3": "District","ENGTYPE_3": "Distrito","CC_3": "NA","HASC_3": "NA","name": "Laja.city","area_km2": 693.1881,"hist_schema_id": "Elevation0-9000","hist_area_km2": {"3825": 89.5336,"3850": 177.8429,"3875": 101.4494,"3900": 75.9015,"3925": 54.2098,"3950": 44.6504,"3975": 30.959,"4000": 20.03,"4025": 15.0533,"4050": 11.0311,"4075": 10.1568,"4100": 8.2063,"4125": 6.6214,"4150": 5.768,"4175": 4.3664,"4200": 3.9601,"4225": 3.6148,"4250": 3.4118,"4275": 3.0259,"4300": 2.2949,"4325": 2.0309,"4350": 2.0918,"4375": 1.9294,"4400": 1.6856,"4425": 1.5231,"4450": 1.4216,"4475": 1.3607,"4500": 1.5841,"4525": 1.4419,"4550": 1.6044,"4575": 1.6044,"4600": 1.6247,"4625": 1.056,"4650": 0.1422}}}