{"type": "Feature","bbox": [-64.6081,-20.4851,-64.2803,-19.8224],"geometry": {"type": "MultiPolygon","coordinates": [[[[-64.3103,-19.8603,3354.2256],[-64.3132,-19.8576,3289.1514],[-64.3112,-19.8525,3143.2307],[-64.3309,-19.8476,2058.7688],[-64.3368,-19.8394,1900.2048],[-64.3617,-19.8297,2033.3363],[-64.4028,-19.8269,2634.2788],[-64.4138,-19.8224,2724.8696],[-64.4165,-19.8229,2624.6704],[-64.4188,-19.8281,2580.5806],[-64.4236,-19.8306,2753.9556],[-64.4268,-19.8306,2807.6091],[-64.4315,-19.8353,2709.9771],[-64.4343,-19.8441,2996.9883],[-64.4409,-19.8402,2863.7676],[-64.4428,-19.8369,2771.1865],[-64.4435,-19.8285,2388.1519],[-64.4461,-19.8243,2245.6047],[-64.4571,-19.8414,2416.177],[-64.4584,-19.8468,2517.6619],[-64.4555,-19.8524,2558.1838],[-64.4587,-19.8606,2954.2112],[-64.4573,-19.8648,2978.511],[-64.4601,-19.8695,2966.9097],[-64.4571,-19.8809,2914.1138],[-64.4602,-19.8853,2822.656],[-64.4558,-19.8924,2888.6431],[-64.4569,-19.9242,3036.0361],[-64.4541,-19.9437,3092.9771],[-64.4632,-19.9581,2972.3882],[-64.4599,-19.967,2950.1221],[-64.4646,-19.9748,2930.7546],[-64.4584,-19.9916,3074.0149],[-64.4615,-19.9935,3082.0767],[-64.4632,-19.9976,3143.3459],[-64.4644,-20.0029,3113.3464],[-64.4626,-20.0053,3160.4092],[-64.4653,-20.0075,3137.9438],[-64.4667,-20.0188,3098.4155],[-64.4707,-20.0221,3001.0488],[-64.4764,-20.0184,2919.9111],[-64.4776,-20.0145,2975.7622],[-64.4798,-20.0144,2956.5884],[-64.4854,-20.0098,2880.4507],[-64.4987,-20.0112,3111.2107],[-64.4977,-19.9966,3088.7791],[-64.5003,-19.9955,3078.085],[-64.5113,-19.9961,2593.7678],[-64.515,-19.9945,2575.7378],[-64.5211,-19.9968,2433.7012],[-64.5227,-20.0001,2379.5769],[-64.5297,-20.0018,2295.2966],[-64.5395,-20.0008,2254.0076],[-64.5427,-20.0014,2137.5222],[-64.5457,-20.0045,2115.4578],[-64.5482,-20.0036,2086.2695],[-64.5503,-20.0052,2011.4824],[-64.5752,-20.0047,1741.0747],[-64.5881,-20.007,1648.5894],[-64.5919,-20.0096,1604.4993],[-64.5995,-20.0115,1567.1918],[-64.6063,-20.0184,1507.8052],[-64.6081,-20.0185,1492.701],[-64.6077,-20.024,1471.8992],[-64.6041,-20.0292,1466.9078],[-64.6055,-20.0366,1457.2542],[-64.6034,-20.0418,1467.4023],[-64.6054,-20.0456,1451.5073],[-64.6048,-20.0557,1453.5588],[-64.6016,-20.0607,1490.7599],[-64.5997,-20.0739,1424.2491],[-64.595,-20.0777,1507.9487],[-64.5913,-20.0858,1420.8707],[-64.5948,-20.0945,1407.088],[-64.5916,-20.0998,1401.7645],[-64.5912,-20.1083,1394.564],[-64.5891,-20.1136,1388.0081],[-64.5848,-20.1185,1383.2505],[-64.5852,-20.1214,1383.6945],[-64.583,-20.1249,1381.7241],[-64.5845,-20.1286,1374.2094],[-64.5819,-20.1324,1374.5719],[-64.5846,-20.1381,1366.2236],[-64.5816,-20.1434,1361.6012],[-64.5892,-20.1486,1355.5558],[-64.5856,-20.1564,1349.194],[-64.588,-20.1658,1342.3849],[-64.5847,-20.1708,1337.2084],[-64.5862,-20.1781,1330.5354],[-64.5839,-20.1859,1324.3949],[-64.5858,-20.1938,1321.7375],[-64.5797,-20.2033,1316.0034],[-64.5797,-20.2073,1306.6426],[-64.5812,-20.2101,1315.7897],[-64.5854,-20.2126,1391.9275],[-64.5831,-20.2167,1297.0742],[-64.5838,-20.2216,1314.1656],[-64.589,-20.2274,1288.4451],[-64.5931,-20.2274,1384.5712],[-64.5947,-20.2301,1282.2476],[-64.5911,-20.2376,1284.9933],[-64.5905,-20.2441,1284.2026],[-64.5851,-20.2507,1321.1429],[-64.5887,-20.2592,1260.4442],[-64.587,-20.2665,1257.1918],[-64.5799,-20.2719,1248.8645],[-64.5743,-20.2721,1266.3925],[-64.5747,-20.2801,1286.4412],[-64.5779,-20.2869,1235.8813],[-64.5743,-20.3035,1223.8877],[-64.5749,-20.3076,1220.5032],[-64.5725,-20.3113,1308.9769],[-64.5717,-20.3175,1262.7289],[-64.5744,-20.3256,1207.4678],[-64.5727,-20.3305,1296.5865],[-64.5698,-20.3322,1253.8846],[-64.5731,-20.3385,1315.4047],[-64.5725,-20.3427,1251.4164],[-64.5756,-20.346,1208.7832],[-64.5702,-20.3495,1214.8523],[-64.5711,-20.3556,1192.2566],[-64.5697,-20.3604,1235.178],[-64.5717,-20.3644,1202.6581],[-64.5679,-20.3698,1175.9681],[-64.5608,-20.3699,1173.5198],[-64.5545,-20.3729,1170.5026],[-64.5534,-20.3749,1202.0881],[-64.5594,-20.3844,1162.0187],[-64.5598,-20.3886,1157.5543],[-64.5562,-20.3963,1167.2261],[-64.5619,-20.4008,1151.7538],[-64.5613,-20.4048,1148.4161],[-64.5514,-20.4212,1157.6991],[-64.5503,-20.4279,1131.0312],[-64.5465,-20.4304,1144.3361],[-64.5454,-20.4376,1181.806],[-64.5437,-20.4396,1141.6677],[-64.5351,-20.4412,1143.0771],[-64.532,-20.4445,1117.3021],[-64.5303,-20.4494,1112.3839],[-64.5278,-20.4503,1111.6273],[-64.5235,-20.4481,1108.5283],[-64.5179,-20.4488,1134.5171],[-64.513,-20.4468,1128.1086],[-64.511,-20.4486,1181.7913],[-64.5104,-20.4558,1096.2653],[-64.5075,-20.4585,1107.135],[-64.5042,-20.4538,1160.4503],[-64.4964,-20.4522,1158.9292],[-64.4941,-20.4604,1080.2465],[-64.4886,-20.4631,1075.6302],[-64.4839,-20.4597,1084.9427],[-64.4727,-20.4582,1066.8774],[-64.4711,-20.4562,1063.756],[-64.4712,-20.4542,1062.5737],[-64.477,-20.4518,1090.2241],[-64.4784,-20.4487,1121.0317],[-64.4753,-20.4338,1111.0601],[-64.4674,-20.4418,1046.1396],[-64.464,-20.4424,1084.1434],[-64.4583,-20.4499,1079.3367],[-64.4498,-20.4519,1030.7345],[-64.4495,-20.454,1065.2389],[-64.4521,-20.4576,1037.0685],[-64.4512,-20.4586,1026.9771],[-64.4435,-20.4567,1050.9246],[-64.4386,-20.4578,1147.3604],[-64.4378,-20.4604,1032.0465],[-64.4405,-20.4641,1014.3286],[-64.4401,-20.4675,1012.8217],[-64.4392,-20.469,1024.4956],[-64.4331,-20.4688,1077.2043],[-64.4307,-20.4703,1082.3453],[-64.4306,-20.4721,1039.593],[-64.4331,-20.4735,1098.0135],[-64.4327,-20.4757,1007.712],[-64.425,-20.4831,997.5365],[-64.4128,-20.4851,1002.7325],[-64.4003,-20.4831,990.3513],[-64.3975,-20.4779,1047.0947],[-64.3905,-20.4749,995.1501],[-64.3908,-20.4725,1030.6425],[-64.3869,-20.4692,994.489],[-64.3859,-20.4643,1092.9987],[-64.3813,-20.4615,962.9864],[-64.377,-20.4642,953.7203],[-64.3704,-20.4638,949.4577],[-64.3514,-20.4568,976.8288],[-64.3482,-20.4582,948.5139],[-64.3402,-20.458,971.1293],[-64.3384,-20.4557,1031.76],[-64.3307,-20.4526,1080.0947],[-64.3222,-20.4508,1039.6609],[-64.3098,-20.4537,949.5684],[-64.2984,-20.453,937.991],[-64.2947,-20.4539,964.2495],[-64.2914,-20.4571,914.3146],[-64.2887,-20.4537,999.2158],[-64.29,-20.4489,940.188],[-64.2882,-20.4455,995.0527],[-64.2914,-20.4411,1065.7417],[-64.2906,-20.4356,995.9826],[-64.2886,-20.4332,1046.4803],[-64.2917,-20.4296,1099.6069],[-64.2915,-20.4182,1127.0841],[-64.2893,-20.4142,1102.9741],[-64.2911,-20.4098,1168.8428],[-64.2898,-20.4037,1131.5811],[-64.2865,-20.3996,1144.754],[-64.288,-20.3968,1184.5358],[-64.2865,-20.3973,1178.5552],[-64.2831,-20.3949,1167.1599],[-64.283,-20.3923,1245.9316],[-64.2803,-20.3907,1206.9521],[-64.2839,-20.3796,1206.9062],[-64.2907,-20.3773,1270.386],[-64.2877,-20.3754,1298.9927],[-64.2895,-20.3737,1301.2927],[-64.2887,-20.3699,1343.1201],[-64.2899,-20.3699,1309.7773],[-64.2891,-20.3648,1343.5134],[-64.287,-20.3624,1310.3293],[-64.2896,-20.3522,1362.3662],[-64.2897,-20.3479,1437.5699],[-64.2875,-20.3442,1460.7261],[-64.2897,-20.3422,1448.0063],[-64.2902,-20.3374,1479.5059],[-64.2885,-20.3344,1584.9565],[-64.2915,-20.3296,1620.0891],[-64.2897,-20.3286,1552.7789],[-64.2909,-20.3232,1592.7632],[-64.2991,-20.306,1894.6584],[-64.3001,-20.2985,1920.2758],[-64.3134,-20.2778,2574.4634],[-64.301,-20.2603,2005.3785],[-64.2924,-20.2593,1935.4042],[-64.2871,-20.2622,1711.1287],[-64.2853,-20.2588,1686.1245],[-64.2895,-20.2548,1743.3585],[-64.2963,-20.2515,1753.2616],[-64.296,-20.2295,2345.3909],[-64.2942,-20.221,2476.2646],[-64.2979,-20.2142,2431.9165],[-64.3018,-20.1935,2576.5303],[-64.3107,-20.1916,2790.1545],[-64.3162,-20.1834,2761.1511],[-64.3148,-20.177,2760.6514],[-64.3159,-20.1684,2664.4028],[-64.3131,-20.1595,2644.8694],[-64.3148,-20.1508,2611.0044],[-64.3004,-20.141,2358.78],[-64.2994,-20.1301,2256.6367],[-64.2913,-20.1123,2184.4148],[-64.2922,-20.1034,2489.0378],[-64.2984,-20.0802,2685.5049],[-64.3029,-20.0729,2741.6228],[-64.3118,-20.0662,2590.0684],[-64.3177,-20.0454,2798.1255],[-64.3314,-20.0418,2908.5935],[-64.3364,-20.0275,2932.9944],[-64.3427,-20.0241,2985.7151],[-64.3448,-20.0145,3170.7002],[-64.3521,-20.0049,3193.9556],[-64.3503,-19.9861,3050.6902],[-64.3352,-19.982,2693.4734],[-64.3326,-19.9859,2786.9834],[-64.3298,-19.9856,2872.1587],[-64.3208,-19.9754,2883.0776],[-64.3201,-19.9588,2549.0269],[-64.3267,-19.9213,2969.7388],[-64.3263,-19.9183,3013.228],[-64.3208,-19.91,2976.8574],[-64.3168,-19.8907,3042.259],[-64.3186,-19.8815,3045.2886],[-64.3164,-19.8756,3194.6565],[-64.3167,-19.8707,3176.1204],[-64.3103,-19.8603,3354.2256]]]]}
,"properties": {"GID_3": "BOL.1.1.1_2","GID_0": "BOL","country": "Bolivia","GID_1": "BOL.1_1","province": "Chuquisaca","NL_NAME_1": "NA","GID_2": "BOL.1.1_2","county": "Azurduy","NL_NAME_2": "NA","city": "Azurduy","VARNAME_3": "NA","NL_NAME_3": "NA","TYPE_3": "District","ENGTYPE_3": "Distrito","CC_3": "NA","HASC_3": "NA","name": "Azurduy.city","area_km2": 1734.361,"hist_schema_id": "Elevation0-9000","hist_area_km2": {"925": 0.119,"950": 0.457,"975": 0.596,"1000": 0.914,"1025": 1.391,"1050": 1.47,"1075": 2.165,"1100": 2.523,"1125": 2.563,"1150": 4.371,"1175": 4.033,"1200": 4.868,"1225": 5.425,"1250": 5.743,"1275": 6.181,"1300": 7.791,"1325": 7.433,"1350": 7.831,"1375": 8.09,"1400": 8.826,"1425": 9.859,"1450": 10.894,"1475": 10.019,"1500": 11.013,"1525": 10.854,"1550": 11.292,"1575": 11.452,"1600": 12.188,"1625": 12.407,"1650": 13.025,"1675": 14.139,"1700": 13.502,"1725": 13.721,"1750": 14.059,"1775": 14.995,"1800": 14.935,"1825": 16.327,"1850": 16.228,"1875": 16.846,"1900": 17.779,"1925": 19.152,"1950": 20.068,"1975": 20.568,"2000": 21.125,"2025": 21.801,"2050": 21.863,"2075": 24.032,"2100": 23.316,"2125": 25.347,"2150": 26.025,"2175": 27.279,"2200": 27.321,"2225": 28.455,"2250": 28.954,"2275": 28.277,"2300": 28.299,"2325": 30.449,"2350": 31.326,"2375": 31.924,"2400": 30.931,"2425": 31.569,"2450": 34.773,"2475": 35.471,"2500": 36.527,"2525": 39.495,"2550": 39.633,"2575": 40.709,"2600": 40.093,"2625": 38.004,"2650": 37.169,"2675": 34.224,"2700": 33.966,"2725": 34.845,"2750": 31.48,"2775": 30.287,"2800": 29.194,"2825": 30.609,"2850": 30.29,"2875": 30.471,"2900": 27.026,"2925": 24.277,"2950": 20.732,"2975": 19.776,"3000": 16.728,"3025": 15.533,"3050": 13.522,"3075": 12.326,"3100": 11.33,"3125": 8.084,"3150": 7.805,"3175": 6.112,"3200": 5.614,"3225": 4.798,"3250": 3.981,"3275": 2.926,"3300": 2.368,"3325": 1.692,"3350": 1.274,"3375": 0.895,"3400": 0.895,"3425": 0.816,"3450": 0.577,"3475": 0.517,"3500": 0.398,"3525": 0.378,"3550": 0.259,"3575": 0.08}}}