{"type": "Feature","bbox": [-64.6646,-19.6051,-64.3653,-19.2872],"geometry": {"type": "MultiPolygon","coordinates": [[[[-64.4268,-19.604,2707.6938],[-64.4177,-19.6025,2465.0574],[-64.4132,-19.605,2472.1768],[-64.4035,-19.6051,2248.1218],[-64.3857,-19.5971,2512.2153],[-64.3798,-19.5771,2680.5918],[-64.3742,-19.5705,2859.5303],[-64.3734,-19.5621,2990.9834],[-64.3653,-19.5558,3069.7595],[-64.3756,-19.5363,2956.1279],[-64.3784,-19.5233,2878.6819],[-64.376,-19.5129,2851.3296],[-64.4007,-19.5091,2492.8655],[-64.4038,-19.5069,2436.854],[-64.4052,-19.5037,2397.6914],[-64.4125,-19.5024,2207.5869],[-64.4194,-19.4981,2140.9749],[-64.428,-19.5031,2147.1541],[-64.4318,-19.5024,2125.1211],[-64.4379,-19.4975,2592.939],[-64.4399,-19.4906,2673.1174],[-64.4375,-19.4804,2701.1387],[-64.4311,-19.4726,2763.4119],[-64.4335,-19.467,2814.2173],[-64.4384,-19.4647,2821.2578],[-64.441,-19.4572,2822.2866],[-64.4385,-19.4491,2928.8276],[-64.4315,-19.4429,2916.8259],[-64.4284,-19.438,2925.2256],[-64.4285,-19.434,2951.5361],[-64.4336,-19.4323,2742.6453],[-64.4434,-19.4325,2525.7683],[-64.448,-19.4299,2482.3491],[-64.4502,-19.426,2426.7546],[-64.4469,-19.4096,2419.1111],[-64.4491,-19.4025,2406.2651],[-64.4487,-19.3946,2503.7961],[-64.4522,-19.385,2503.675],[-64.4725,-19.3977,2500.866],[-64.4826,-19.3944,2612.7139],[-64.4909,-19.3975,2503.145],[-64.4906,-19.4021,2458.7598],[-64.4978,-19.403,2508.7693],[-64.4991,-19.4025,2559.2102],[-64.5008,-19.3964,2562.7771],[-64.5067,-19.3952,2461.2205],[-64.5205,-19.3872,2496.2576],[-64.5197,-19.3834,2439.415],[-64.5233,-19.3783,2492.5427],[-64.5227,-19.3724,2459.9604],[-64.5258,-19.3602,2490.3154],[-64.5338,-19.3557,2495.2678],[-64.5372,-19.35,2520.3384],[-64.5391,-19.3373,2534.7668],[-64.5531,-19.3251,2506.4409],[-64.5568,-19.3087,2628.7793],[-64.5606,-19.3071,2605.6667],[-64.5663,-19.2994,2760.3977],[-64.5684,-19.2929,2741.4146],[-64.5727,-19.2872,2714.6636],[-64.5787,-19.2936,2526.6016],[-64.5819,-19.294,2545.6711],[-64.582,-19.2997,2467.2427],[-64.5842,-19.2985,2495.356],[-64.588,-19.3002,2505.2542],[-64.5878,-19.3015,2546.0432],[-64.5943,-19.306,2570.4976],[-64.5994,-19.306,2589.6899],[-64.5994,-19.3035,2658.7107],[-64.605,-19.3035,2600.6348],[-64.6095,-19.3062,2634.2236],[-64.6136,-19.3139,2694.7009],[-64.6168,-19.3143,2750.1606],[-64.6182,-19.3165,2750.7771],[-64.6275,-19.3145,2859.2043],[-64.6296,-19.3161,2879.6453],[-64.632,-19.3156,2932.6411],[-64.6462,-19.3209,3124.1487],[-64.6536,-19.3216,3337.552],[-64.6629,-19.3285,3366.9724],[-64.6603,-19.3368,3259.6755],[-64.6572,-19.3408,3130.1255],[-64.652,-19.3442,3041.3496],[-64.6389,-19.3459,2844.7095],[-64.632,-19.3552,3174.7649],[-64.6382,-19.3658,3121.7402],[-64.6403,-19.382,3180.6562],[-64.6581,-19.3954,3550.3784],[-64.6633,-19.4028,3566.1411],[-64.6646,-19.4194,3684.1873],[-64.6638,-19.4237,3707.8464],[-64.66,-19.4262,3715.6968],[-64.6567,-19.432,3542.866],[-64.6567,-19.4388,3485.8425],[-64.6598,-19.4465,3654.512],[-64.6573,-19.4521,3626.709],[-64.6513,-19.4562,3558.3521],[-64.6413,-19.4716,3496.55],[-64.631,-19.4775,3390.7832],[-64.6295,-19.4817,3410.2007],[-64.6346,-19.5064,3321.9165],[-64.6349,-19.5334,3637.9272],[-64.6329,-19.545,3957.446],[-64.6332,-19.5596,3977.4771],[-64.6289,-19.5625,4087.1909],[-64.6285,-19.5662,4117.4897],[-64.6231,-19.5692,3986.3232],[-64.6151,-19.5638,3809.0024],[-64.6028,-19.5636,3619.0398],[-64.5994,-19.5671,3512.4414],[-64.5942,-19.5661,3462.1729],[-64.5932,-19.5645,3441.4478],[-64.5825,-19.5645,3332.1475],[-64.5511,-19.5683,2787.2529],[-64.5371,-19.5525,2561.7129],[-64.5315,-19.55,2479.3293],[-64.5225,-19.5556,2470.854],[-64.5184,-19.5523,2457.8054],[-64.5132,-19.5567,2504.9321],[-64.5102,-19.5562,2586.7112],[-64.5068,-19.5609,2544.3188],[-64.5072,-19.565,2479.1396],[-64.5051,-19.5686,2482.1904],[-64.4975,-19.576,2574.9214],[-64.4807,-19.5767,2308.999],[-64.4756,-19.5692,2150.9958],[-64.4702,-19.5648,2078.3027],[-64.4548,-19.5613,1927.937],[-64.4528,-19.5631,1932.4047],[-64.453,-19.5662,1923.7997],[-64.4471,-19.5713,1974.0121],[-64.4494,-19.5782,1903.2037],[-64.4484,-19.5845,1895.8879],[-64.4347,-19.5819,2198.9507],[-64.4231,-19.5839,2357.293],[-64.4269,-19.5929,2553.6345],[-64.4268,-19.604,2707.6938]]]]}
,"properties": {"GID_3": "BOL.1.8.4_2","GID_0": "BOL","country": "Bolivia","GID_1": "BOL.1_1","province": "Chuquisaca","NL_NAME_1": "NA","GID_2": "BOL.1.8_2","county": "Tomina","NL_NAME_2": "NA","city": "Sopachui","VARNAME_3": "NA","NL_NAME_3": "NA","TYPE_3": "District","ENGTYPE_3": "Distrito","CC_3": "NA","HASC_3": "NA","name": "Sopachui.city","area_km2": 587.9068,"hist_schema_id": "Elevation0-9000","hist_area_km2": {"1900": 0.2397,"1925": 0.899,"1950": 2.0379,"1975": 2.8172,"2000": 3.4766,"2025": 3.9363,"2050": 5.8948,"2075": 6.7745,"2100": 7.0944,"2125": 8.0137,"2150": 9.4528,"2175": 11.6118,"2200": 12.272,"2225": 14.2314,"2250": 13.772,"2275": 15.5113,"2300": 16.6517,"2325": 18.271,"2350": 19.1909,"2375": 21.072,"2400": 23.5905,"2425": 23.7508,"2450": 22.6111,"2475": 20.3321,"2500": 18.2732,"2525": 17.4135,"2550": 16.9348,"2575": 14.636,"2600": 13.4169,"2625": 11.9166,"2650": 11.517,"2675": 10.4175,"2700": 10.7169,"2725": 11.077,"2750": 10.8966,"2775": 10.2969,"2800": 9.8961,"2825": 11.2554,"2850": 11.8747,"2875": 11.7744,"2900": 10.895,"2925": 8.7961,"2950": 6.8772,"2975": 5.9976,"3000": 5.4778,"3025": 4.638,"3050": 4.8181,"3075": 4.1982,"3100": 3.4186,"3125": 3.2385,"3150": 2.799,"3175": 2.8787,"3200": 3.0385,"3225": 2.6587,"3250": 2.8785,"3275": 2.4185,"3300": 2.9984,"3325": 2.3586,"3350": 2.1188,"3375": 1.8588,"3400": 1.699,"3425": 1.7787,"3450": 1.519,"3475": 1.3191,"3500": 1.5389,"3525": 1.2791,"3550": 1.2392,"3575": 0.9993,"3600": 0.7994,"3625": 0.6394,"3650": 0.5195,"3675": 0.6994,"3700": 0.3197,"3725": 0.3796,"3750": 0.3796,"3775": 0.2997,"3800": 0.2997,"3825": 0.1598,"3850": 0.1798,"3875": 0.2597,"3900": 0.1998,"3925": 0.2597,"3950": 0.0999,"3975": 0.1998,"4000": 0.0999,"4025": 0.1199,"4050": 0.1199,"4075": 0.1199,"4100": 0.1798,"4125": 0.02}}}