{"type":"Feature","properties":{"GID_3":"BOL.4.20.8_2","GID_0":"BOL","country":"Bolivia","GID_1":"BOL.4_1","province":"LaPaz","NL_NAME_1":"NA","GID_2":"BOL.4.20_2","county":"Pacajes","NL_NAME_2":"NA","city":"WaldoBallivian","VARNAME_3":"NA","NL_NAME_3":"NA","TYPE_3":"District","ENGTYPE_3":"Distrito","CC_3":"NA","HASC_3":"NA","name":"Waldo_Ballivian.city"},
"geometry":{"type": "MultiPolygon","coordinates": [[[[-68.1848,-17.0592,3991.301],[-68.1943,-17.0584,4004.6677],[-68.2131,-17.062,4038.563],[-68.2229,-17.0613,4055.9778],[-68.2262,-17.0632,4064.0662],[-68.2276,-17.0677,4082.3928],[-68.2317,-17.0725,4125.4141],[-68.2523,-17.0871,4328.6289],[-68.2528,-17.0889,4353.9072],[-68.2687,-17.0956,4490.5112],[-68.2646,-17.1065,4501.7607],[-68.2662,-17.1196,4524.4595],[-68.2688,-17.1226,4561.2031],[-68.2688,-17.1252,4543.3301],[-68.2749,-17.1297,4600.6768],[-68.2849,-17.1256,4646.3955],[-68.2892,-17.1293,4617.5679],[-68.2891,-17.1363,4459.916],[-68.2843,-17.1467,4355.0146],[-68.2718,-17.1495,4288.0947],[-68.2694,-17.1524,4261.1499],[-68.2705,-17.1554,4251.4121],[-68.2658,-17.1611,4213.5791],[-68.2572,-17.1629,4191.103],[-68.2502,-17.1675,4159.8389],[-68.2367,-17.1678,4134.1279],[-68.223,-17.1631,4173.0156],[-68.2019,-17.162,4242.8784],[-68.1939,-17.1566,4152.6499],[-68.1872,-17.15,4122.5317],[-68.1832,-17.1421,4095.6438],[-68.1785,-17.1384,4084.7937],[-68.1714,-17.1256,4077.9644],[-68.1659,-17.1198,4089.7979],[-68.1634,-17.1022,4031.1565],[-68.1611,-17.0976,3996.8005],[-68.1604,-17.0863,3970.6416],[-68.1848,-17.0592,3991.301]]]]}}