{"type":"Feature","properties":{"GID_2":"BOL.4.20_2","GID_0":"BOL","country":"Bolivia","GID_1":"BOL.4_1","province":"LaPaz","NL_NAME_1":"NA","county":"Pacajes","VARNAME_2":"NA","NL_NAME_2":"NA","TYPE_2":"Provincia","ENGTYPE_2":"Province","CC_2":"NA","HASC_2":"NA","name":"Pacajes.county"},
"geometry":{"type": "MultiPolygon","coordinates": [[[[-69.4347,-17.4718,4042.1702],[-69.4475,-17.4769,4087.4746],[-69.4687,-17.492,4096.686],[-69.4679,-17.6049,4063.2659],[-69.3436,-17.7239,4052.4824],[-69.3421,-17.7279,4053.7603],[-69.3379,-17.7292,4055.6389],[-69.338,-17.7319,4056.7676],[-69.3349,-17.7344,4057.9883],[-69.3356,-17.7368,4059.1929],[-69.3337,-17.7395,4061.0374],[-69.3363,-17.7417,4061.8911],[-69.3352,-17.7445,4062.9678],[-69.3384,-17.7458,4063.8867],[-69.3359,-17.7502,4067.2249],[-69.3368,-17.7538,4067.6506],[-69.3348,-17.7543,4068.0125],[-69.3353,-17.7575,4069.6907],[-69.3319,-17.7595,4072.9175],[-69.3331,-17.7613,4073.0659],[-69.3323,-17.766,4075.2253],[-69.3298,-17.7707,4077.373],[-69.3248,-17.7767,4083.3477],[-69.3219,-17.7769,4082.9468],[-69.321,-17.7811,4084.2568],[-69.313,-17.7889,4089.991],[-69.3125,-17.7935,4092.1089],[-69.3107,-17.7944,4092.4539],[-69.3117,-17.7971,4094.2593],[-69.3081,-17.8041,4098.0669],[-69.3095,-17.8062,4099.126],[-69.3078,-17.8066,4101.8647],[-69.3094,-17.8079,4100.2563],[-69.3078,-17.8105,4107.7778],[-69.309,-17.8108,4102.4648],[-69.3103,-17.8163,4105.7778],[-69.3091,-17.8228,4109.312],[-69.3071,-17.8236,4135.9106],[-69.306,-17.8272,4120.2671],[-69.3071,-17.8289,4114.7568],[-69.3056,-17.8334,4172.7603],[-69.3062,-17.8441,4132.2393],[-69.3008,-17.8494,4127.998],[-69.2993,-17.8553,4197.7754],[-69.3007,-17.8616,4134.3145],[-69.3087,-17.8687,4140.9678],[-69.3051,-17.8838,4143.3208],[-69.3082,-17.887,4150.0244],[-69.3073,-17.8945,4152.9727],[-69.3129,-17.9089,4161.0625],[-69.3124,-17.9136,4164.6089],[-69.31,-17.9205,4170.7441],[-69.3005,-17.9337,4184.2119],[-69.2996,-17.9393,4189.166],[-69.2973,-17.941,4191.0264],[-69.2961,-17.9471,4201.5835],[-69.2911,-17.9538,4258.4648],[-69.2888,-17.9599,4229.8071],[-69.2851,-17.9624,4255.5308],[-69.2813,-17.9692,4219.8784],[-69.276,-17.9693,4359.6875],[-69.2565,-17.954,4811.394],[-69.2549,-17.9547,4846.1948],[-69.2537,-17.962,4770.4062],[-69.2562,-17.9749,4617.5771],[-69.2472,-17.9821,4634.189],[-69.2391,-17.9842,4669.2402],[-69.2305,-17.9836,4662.3091],[-69.2272,-17.9799,4501.1865],[-69.2221,-17.9797,4411.9053],[-69.1263,-18.032,5180.1104],[-69.088,-18.0419,5478.1826],[-69.0795,-18.0469,5577.0889],[-69.0725,-18.0382,5664.2051],[-69.0572,-18.0343,5217.1011],[-69.0462,-18.029,5229.8896],[-69.0342,-18.0171,5105.1162],[-69.0235,-18.0099,5096.2979],[-69.0141,-18.0071,5038.3237],[-69.0057,-17.9977,5351.8418],[-68.992,-17.9949,5038.8296],[-68.9327,-17.9667,4707.084],[-68.9104,-17.9496,4837.1206],[-68.8702,-17.9434,4746.6821],[-68.8504,-17.9383,4519.5859],[-68.8382,-17.9419,4414.0571],[-68.8299,-17.9347,4356.5957],[-68.8185,-17.9308,4246.5938],[-68.8126,-17.9314,4223.6602],[-68.8065,-17.9271,4224.2607],[-68.7846,-17.93,4112.7588],[-68.778,-17.9235,4098.9951],[-68.7597,-17.9142,4075.3516],[-68.7579,-17.9082,4069.8152],[-68.7594,-17.9056,4064.9897],[-68.7583,-17.9029,4062.23],[-68.7544,-17.8983,4059.8542],[-68.7419,-17.8914,4054.894],[-68.74,-17.8869,4054.1672],[-68.7278,-17.8846,4053.7942],[-68.7211,-17.8901,4054.3225],[-68.7114,-17.8874,4055.2102],[-68.6958,-17.8891,4058.4014],[-68.6908,-17.88,4060.6777],[-68.6811,-17.8777,4070.0889],[-68.669,-17.878,4091.3354],[-68.662,-17.8693,4092.8081],[-68.6489,-17.8675,4092.4751],[-68.6445,-17.8634,4101.5791],[-68.6394,-17.8633,4113.4224],[-68.6337,-17.8535,4128.1475],[-68.6224,-17.8487,4090.3635],[-68.6202,-17.8417,4031.5303],[-68.6151,-17.8369,4012.0117],[-68.6086,-17.8362,3981.3848],[-68.5866,-17.8199,3963.4321],[-68.5683,-17.8157,3950.1548],[-68.5594,-17.8196,3969.397],[-68.5479,-17.8148,3952.8232],[-68.543,-17.811,3924.0513],[-68.5365,-17.8097,3929.7173],[-68.5375,-17.8003,4042.905],[-68.5444,-17.7955,4060.4204],[-68.5438,-17.7891,3967.7183],[-68.5412,-17.7844,4049.4434],[-68.5436,-17.7705,4054.0564],[-68.5436,-17.7595,4053.6899],[-68.5385,-17.732,4045.5708],[-68.5395,-17.7148,4035.4341],[-68.5329,-17.7028,3897.1299],[-68.5216,-17.7015,3865.2104],[-68.5134,-17.706,3859.8445],[-68.5097,-17.705,3854.7712],[-68.5047,-17.706,3843.8335],[-68.4981,-17.7004,3838.4111],[-68.4994,-17.696,3837.0605],[-68.4975,-17.6906,3835.1558],[-68.4811,-17.684,3884.3677],[-68.4782,-17.6846,3880.2595],[-68.4747,-17.6884,3864.3762],[-68.4725,-17.688,3877.4602],[-68.4632,-17.6683,3879.1357],[-68.458,-17.6684,3843.0371],[-68.4526,-17.6626,3858.0015],[-68.4491,-17.6628,3833.6616],[-68.4422,-17.6672,3824.3862],[-68.436,-17.6676,3832.3196],[-68.4356,-17.6601,3877.3586],[-68.4175,-17.6394,3859.0281],[-68.4142,-17.6306,3853.5283],[-68.4154,-17.6292,3851.8608],[-68.4149,-17.6257,3850.6946],[-68.4106,-17.6233,3851.9224],[-68.4062,-17.6244,3855.1714],[-68.3998,-17.6196,3879.3262],[-68.3887,-17.6183,3899.6892],[-68.3858,-17.6166,3890.8298],[-68.3845,-17.6124,3880.2773],[-68.3855,-17.6014,3863.6145],[-68.3784,-17.5955,3846.916],[-68.3606,-17.5908,3876.5547],[-68.3481,-17.5935,3897.4868],[-68.3327,-17.6084,3861.8862],[-68.3243,-17.5993,3837.4067],[-68.3219,-17.5984,3831.7456],[-68.322,-17.5968,3827.2378],[-68.316,-17.5987,3820.9209],[-68.3097,-17.5939,3810.8789],[-68.3071,-17.599,3812.7383],[-68.3,-17.6022,3814.533],[-68.2894,-17.6152,3819.875],[-68.2784,-17.6004,3882.1284],[-68.2785,-17.5915,3844.3606],[-68.2758,-17.5796,3865.5393],[-68.2706,-17.5761,3922.187],[-68.266,-17.5775,3916.0674],[-68.2589,-17.576,3933.832],[-68.254,-17.5568,3819.4939],[-68.2536,-17.5445,3786.009],[-68.2464,-17.5445,3791.8838],[-68.2363,-17.5346,3815.3665],[-68.2332,-17.5255,3828.6309],[-68.2456,-17.5199,3797.7314],[-68.247,-17.5166,3784.2495],[-68.246,-17.5125,3787.4067],[-68.233,-17.5025,3762.9878],[-68.2229,-17.5019,3762.7073],[-68.2104,-17.4951,3762.6511],[-68.1958,-17.4796,3760.7041],[-68.193,-17.4786,3760.1543],[-68.201,-17.4525,3878.1108],[-68.1999,-17.446,3901.0981],[-68.1852,-17.4311,3806.7627],[-68.1848,-17.4237,3796.0791],[-68.1662,-17.4137,3788.1228],[-68.1793,-17.3826,3931.7288],[-68.1936,-17.3284,4148.4858],[-68.2018,-17.3094,4284.2891],[-68.1959,-17.3019,4338.2319],[-68.2149,-17.2746,4381.1724],[-68.2184,-17.2556,4375.7183],[-68.2171,-17.2474,4414.0127],[-68.1948,-17.2614,4369.9937],[-68.179,-17.2691,4350.3345],[-68.1668,-17.271,4309.0415],[-68.1545,-17.2752,4263.9033],[-68.1347,-17.2755,4216.873],[-68.1247,-17.2786,4128.4883],[-68.1191,-17.2775,4087.3062],[-68.1064,-17.2744,4023.1946],[-68.1016,-17.271,3988.5278],[-68.0989,-17.259,3997.5369],[-68.0895,-17.237,3938.6221],[-68.0896,-17.2202,3909.6709],[-68.106,-17.2217,3959.5496],[-68.1096,-17.211,3981.6162],[-68.1156,-17.1873,3974.6523],[-68.1151,-17.1737,3973.6553],[-68.1186,-17.1288,4103.7241],[-68.1212,-17.1276,4092.7415],[-68.1229,-17.1231,4090.5178],[-68.125,-17.1221,4095.1089],[-68.128,-17.1233,4098.0376],[-68.1645,-17.1154,4094.7156],[-68.1604,-17.0863,3970.6416],[-68.1848,-17.0592,3991.301],[-68.1943,-17.0584,4004.6677],[-68.2131,-17.062,4038.563],[-68.2229,-17.0613,4055.9778],[-68.2262,-17.0632,4064.0662],[-68.2276,-17.0677,4082.3928],[-68.2317,-17.0725,4125.4141],[-68.2523,-17.0871,4328.6289],[-68.2528,-17.0889,4353.9072],[-68.2986,-17.11,4344.6997],[-68.3055,-17.1052,4291.0918],[-68.3118,-17.0921,4292.1406],[-68.3139,-17.092,4336.5303],[-68.3209,-17.0842,4464.8848],[-68.323,-17.0748,4577.5713],[-68.3394,-17.0655,4332.0557],[-68.3455,-17.053,4371.3047],[-68.3548,-16.9924,4149.3521],[-68.3581,-16.9842,4169.2236],[-68.3598,-16.9734,4246.0996],[-68.3646,-16.9655,4124.811],[-68.3714,-16.9645,4100.3633],[-68.3697,-16.9518,4066.9148],[-68.372,-16.9503,4061.8657],[-68.3741,-16.9455,4056.1296],[-68.3737,-16.9424,4046.3247],[-68.376,-16.9408,4041.3232],[-68.3758,-16.9368,4045.5178],[-68.379,-16.9333,4036.4756],[-68.3747,-16.9287,4066.8513],[-68.3759,-16.9225,4152.6738],[-68.3736,-16.9179,4192.4531],[-68.3756,-16.9084,4100.1953],[-68.3814,-16.9018,4145.3164],[-68.3879,-16.8988,4145.3965],[-68.3889,-16.8945,4156.9531],[-68.4018,-16.8884,4124.3057],[-68.4022,-16.8816,4077.7021],[-68.3975,-16.8731,4007.124],[-68.3969,-16.8689,4005.9951],[-68.4019,-16.8653,3987.998],[-68.4082,-16.8556,3971.7271],[-68.4109,-16.854,3966.6599],[-68.4129,-16.8457,3951.6611],[-68.4178,-16.8389,3938.1094],[-68.4332,-16.839,4052.3169],[-68.4398,-16.8446,4084.1218],[-68.4486,-16.8486,4243.3066],[-68.4612,-16.8428,4230.9634],[-68.462,-16.8404,4238.8804],[-68.4705,-16.8404,4285.6108],[-68.468,-16.835,4155.6992],[-68.4676,-16.8293,4094.7739],[-68.455,-16.8178,3964.2585],[-68.4483,-16.8158,3951.5645],[-68.4436,-16.8069,3970.7427],[-68.4383,-16.8012,3920.3525],[-68.4453,-16.7939,3973.491],[-68.4678,-16.7811,3982.9741],[-68.4775,-16.7899,4023.2756],[-68.5039,-16.8203,4076.6851],[-68.5084,-16.8344,4005.8611],[-68.5337,-16.8395,3998.5293],[-68.5521,-16.8519,3926.093],[-68.5577,-16.8531,3922.7261],[-68.5923,-16.8696,3926.5923],[-68.6023,-16.8791,3960.3906],[-68.6162,-16.8829,3976.5347],[-68.6308,-16.9015,4249.2715],[-68.639,-16.885,4155.0322],[-68.6445,-16.8694,4106.4902],[-68.6431,-16.8584,3973.7822],[-68.6493,-16.8495,3918.1382],[-68.6389,-16.8477,3924.3242],[-68.6381,-16.8376,3892.9001],[-68.6222,-16.8067,3873.1719],[-68.625,-16.8074,3872.6763],[-68.6258,-16.8126,3868.8882],[-68.6285,-16.8158,3867.9087],[-68.6358,-16.8136,3864.158],[-68.6379,-16.8147,3863.0522],[-68.637,-16.8165,3864.7805],[-68.6383,-16.818,3863.7483],[-68.641,-16.8177,3862.0762],[-68.6424,-16.8151,3860.9331],[-68.6486,-16.8174,3859.3804],[-68.6528,-16.8165,3856.9124],[-68.6551,-16.8208,3856.2354],[-68.6604,-16.8213,3855.8892],[-68.6675,-16.8202,3852.7822],[-68.6691,-16.8213,3854.7327],[-68.6721,-16.819,3850.8667],[-68.6724,-16.8229,3851.3271],[-68.6738,-16.8232,3858.9731],[-68.6749,-16.8206,3850.5498],[-68.673,-16.8182,3850.8667],[-68.675,-16.8147,3849.3076],[-68.6803,-16.8151,3847.832],[-68.6818,-16.8169,3849.5789],[-68.6882,-16.8134,3846.1333],[-68.6911,-16.8155,3845.3179],[-68.694,-16.8133,3844.5308],[-68.6958,-16.8158,3843.4746],[-68.6988,-16.815,3843.6577],[-68.7002,-16.8189,3843.9548],[-68.7029,-16.8188,3841.8074],[-68.7078,-16.8238,3841.1138],[-68.7109,-16.8234,3840.2439],[-68.713,-16.8248,3840.2622],[-68.7141,-16.8233,3839.3169],[-68.7243,-16.822,3836.9951],[-68.7255,-16.8264,3837.073],[-68.7289,-16.8265,3836.1333],[-68.7301,-16.8289,3836.4658],[-68.7318,-16.825,3834.7725],[-68.7388,-16.8281,3833.616],[-68.7397,-16.8309,3833.4358],[-68.7412,-16.8307,3833.657],[-68.7417,-16.8273,3833.3767],[-68.7436,-16.8268,3833.0029],[-68.7437,-16.8721,3858.833],[-68.7576,-16.9078,3814.5168],[-68.7642,-16.9091,3812.9832],[-68.7721,-16.9064,3811.4524],[-68.7764,-16.907,3811.0435],[-68.7803,-16.9088,3810.2175],[-68.7806,-16.9112,3809.5061],[-68.7835,-16.9113,3809.686],[-68.7896,-16.916,3809.1799],[-68.7841,-16.9307,3808.1777],[-68.7776,-16.9334,3808.0],[-68.7695,-16.9332,3811.4431],[-68.7673,-16.9352,3810.0991],[-68.7665,-16.9383,3808.8396],[-68.7707,-16.9452,3809.6069],[-68.7718,-16.9512,3808.9121],[-68.7652,-16.9556,3809.0925],[-68.7644,-16.9584,3808.7317],[-68.7742,-16.9575,3808.9404],[-68.778,-16.952,3808.5337],[-68.783,-16.9546,3808.7405],[-68.7886,-16.9545,3808.321],[-68.7926,-16.96,3810.1326],[-68.7889,-16.9705,3808.3071],[-68.7912,-16.9754,3808.1318],[-68.7963,-16.9802,3807.7046],[-68.8066,-16.9839,3808.9067],[-68.8205,-16.9839,3807.9048],[-68.8332,-16.9914,3809.9292],[-68.8369,-16.9916,3808.675],[-68.8396,-16.9889,3808.9507],[-68.848,-16.9935,3807.0928],[-68.8584,-17.0092,3806.9985],[-68.858,-17.0174,3806.8687],[-68.8519,-17.0239,3807.0801],[-68.8526,-17.0272,3809.1565],[-68.8558,-17.0293,3806.9167],[-68.8586,-17.0382,3806.4785],[-68.8529,-17.0415,3806.5801],[-68.8533,-17.0465,3806.8857],[-68.8512,-17.0492,3806.1025],[-68.9059,-17.0497,3925.6353],[-68.9337,-17.0669,4011.7263],[-68.9406,-17.0635,3920.2273],[-68.9454,-17.0636,3904.2832],[-68.9511,-17.0693,3882.2319],[-68.9556,-17.0702,3874.8735],[-68.9637,-17.1006,3855.7791],[-68.9664,-17.1016,3853.8855],[-68.981,-17.1012,3851.4492],[-68.9825,-17.0999,3851.4492],[-68.9845,-17.1018,3850.8018],[-68.9901,-17.0997,3850.2866],[-68.9957,-17.0955,3849.7266],[-69.0037,-17.0831,3848.6321],[-69.0071,-17.082,3848.6545],[-69.0092,-17.0839,3848.9407],[-69.0117,-17.0831,3848.573],[-69.0139,-17.0783,3848.2097],[-69.0164,-17.0774,3848.085],[-69.0174,-17.0701,3847.876],[-69.0193,-17.068,3847.6646],[-69.0576,-17.0797,3857.1204],[-69.0194,-17.1059,3874.3105],[-69.0169,-17.1117,3883.6184],[-69.0172,-17.1269,3868.7349],[-69.0152,-17.1304,3866.3577],[-69.018,-17.1447,3872.5061],[-69.023,-17.1515,3874.9773],[-69.028,-17.1528,3876.8438],[-69.0301,-17.1554,3880.6021],[-69.0348,-17.1552,3883.4702],[-69.0395,-17.1602,3894.9202],[-69.0474,-17.1636,3912.9482],[-69.0632,-17.1519,3903.3838],[-69.0744,-17.1481,3882.6074],[-69.0802,-17.1512,3882.5159],[-69.0809,-17.1547,3885.1108],[-69.0867,-17.1593,3891.0728],[-69.0937,-17.1585,3895.3386],[-69.0999,-17.1625,3902.2153],[-69.1025,-17.171,3915.1921],[-69.1121,-17.1805,3927.2563],[-69.1274,-17.1872,3970.4343],[-69.1335,-17.1962,4019.3818],[-69.1395,-17.1965,4082.7905],[-69.1456,-17.2025,4230.8408],[-69.1494,-17.2109,4206.3833],[-69.1491,-17.215,4233.2891],[-69.1442,-17.2232,4372.8853],[-69.1466,-17.2314,4473.6743],[-69.153,-17.2316,4244.6733],[-69.1575,-17.2295,4171.2744],[-69.1691,-17.2342,4322.5249],[-69.1881,-17.2368,4036.4956],[-69.1919,-17.2416,4006.8325],[-69.1814,-17.2509,4245.3179],[-69.1733,-17.2638,4292.1899],[-69.1712,-17.2719,4099.7905],[-69.1786,-17.2766,4036.6479],[-69.1774,-17.289,4057.5752],[-69.1784,-17.2909,4077.1899],[-69.1756,-17.3018,4150.6611],[-69.1825,-17.3045,4180.7603],[-69.1843,-17.3032,4180.7603],[-69.1885,-17.3035,4213.3027],[-69.1912,-17.3001,4163.3604],[-69.2017,-17.3024,4130.9678],[-69.212,-17.3084,4480.957],[-69.2157,-17.3128,4426.2246],[-69.2173,-17.3224,4185.9839],[-69.2228,-17.3282,4093.8455],[-69.2304,-17.333,4051.5195],[-69.2313,-17.3359,4051.9946],[-69.2294,-17.3408,4067.6384],[-69.2373,-17.3471,4063.8313],[-69.238,-17.3522,4105.0488],[-69.2415,-17.3572,4083.0078],[-69.2413,-17.3617,4056.9075],[-69.2454,-17.3637,4090.1484],[-69.2491,-17.368,4110.5107],[-69.2525,-17.3658,4088.0569],[-69.2606,-17.3668,4092.0112],[-69.2644,-17.3645,4129.6543],[-69.269,-17.3656,4109.8301],[-69.2779,-17.3633,4125.4678],[-69.2866,-17.3667,4157.0806],[-69.2944,-17.3673,4213.4829],[-69.2962,-17.3797,4183.5967],[-69.3158,-17.3946,4244.3169],[-69.3164,-17.3976,4248.542],[-69.314,-17.4011,4230.377],[-69.2982,-17.4077,4158.1895],[-69.2971,-17.412,4138.9512],[-69.2906,-17.4223,4132.543],[-69.292,-17.428,4101.4922],[-69.2956,-17.4323,4093.252],[-69.3035,-17.4336,4072.4365],[-69.3078,-17.4361,4046.3779],[-69.3144,-17.4308,4061.6807],[-69.3212,-17.4296,4074.7705],[-69.324,-17.4305,4068.5339],[-69.3301,-17.4284,4084.1213],[-69.3315,-17.4461,4087.8884],[-69.334,-17.4546,4079.1489],[-69.3374,-17.4563,4080.1641],[-69.3466,-17.4582,4057.98],[-69.3548,-17.4508,4079.0308],[-69.3713,-17.4495,4030.3701],[-69.3735,-17.4469,4031.105],[-69.3829,-17.4513,4022.4163],[-69.3956,-17.449,4190.7241],[-69.3975,-17.4507,4128.9985],[-69.3988,-17.4589,4017.5049],[-69.4041,-17.4663,4104.3389],[-69.4179,-17.4656,4109.3457],[-69.4347,-17.4718,4042.1702]]]]}}