{"type": "Feature","bbox": [-68.7812,-16.3731,-68.5643,-16.2674],"geometry": {"type": "MultiPolygon","coordinates": [[[[-68.7321,-16.3549,3809.9524],[-68.736,-16.3494,3811.8044],[-68.736,-16.3465,3814.2197],[-68.7439,-16.3421,3819.2134],[-68.7452,-16.346,3826.2539],[-68.7438,-16.3505,3819.8545],[-68.7367,-16.3557,3813.9148],[-68.7352,-16.362,3816.3567],[-68.7304,-16.3655,3809.0168],[-68.7345,-16.3568,3814.9307],[-68.7321,-16.3549,3809.9524]]],
[[[-68.7579,-16.3298,3808.5],[-68.7529,-16.3301,3808.5],[-68.7523,-16.3289,3810.0962],[-68.7583,-16.3237,3808.5],[-68.7595,-16.3263,3808.5],[-68.7579,-16.3298,3808.5]]],
[[[-68.7607,-16.3119,3819.0728],[-68.7602,-16.3091,3810.2827],[-68.7562,-16.3132,3808.5],[-68.7552,-16.3108,3812.3965],[-68.7467,-16.3088,3811.4893],[-68.7472,-16.3074,3808.5],[-68.7562,-16.3049,3813.0085],[-68.7556,-16.3025,3810.5098],[-68.7513,-16.2999,3808.5],[-68.7518,-16.2988,3808.5],[-68.7637,-16.2967,3812.1802],[-68.7717,-16.2919,3821.8284],[-68.7792,-16.2943,3808.5],[-68.7812,-16.301,3808.5],[-68.7765,-16.3088,3810.675],[-68.7699,-16.3086,3812.0281],[-68.7681,-16.3134,3809.4802],[-68.7627,-16.3171,3809.8875],[-68.7596,-16.3153,3809.0662],[-68.7607,-16.3119,3819.0728]]],
[[[-68.7002,-16.3528,3808.5],[-68.7046,-16.3555,3808.5],[-68.7038,-16.3592,3808.5],[-68.6998,-16.3578,3809.7937],[-68.7002,-16.3528,3808.5]]],
[[[-68.6932,-16.3511,3812.7612],[-68.6881,-16.3531,3808.5],[-68.6869,-16.3472,3818.7412],[-68.6926,-16.3467,3821.2261],[-68.694,-16.3492,3819.9954],[-68.6932,-16.3511,3812.7612]]],
[[[-68.5653,-16.2727,3812.5188],[-68.5643,-16.2696,3816.9631],[-68.5681,-16.2674,3812.1245],[-68.5691,-16.2688,3811.7861],[-68.5743,-16.269,3811.2271],[-68.5785,-16.272,3810.6528],[-68.5795,-16.2776,3811.2954],[-68.5778,-16.2816,3811.0884],[-68.5791,-16.2844,3811.5132],[-68.5823,-16.2824,3814.9023],[-68.5805,-16.2792,3811.353],[-68.5814,-16.2731,3811.7229],[-68.5837,-16.2766,3812.175],[-68.589,-16.2774,3814.2488],[-68.5896,-16.2836,3818.6255],[-68.5933,-16.2859,3811.1499],[-68.594,-16.2849,3814.9622],[-68.5916,-16.2824,3810.6018],[-68.5945,-16.2791,3810.5991],[-68.598,-16.2827,3813.8044],[-68.5998,-16.2814,3813.8044],[-68.6013,-16.2822,3811.4402],[-68.6022,-16.2874,3810.6318],[-68.6041,-16.2889,3812.1096],[-68.6019,-16.2966,3811.0615],[-68.5976,-16.3,3817.2937],[-68.5955,-16.3075,3811.3901],[-68.5944,-16.3075,3811.3901],[-68.5952,-16.3032,3810.938],[-68.5907,-16.3092,3811.5073],[-68.5898,-16.3129,3810.1787],[-68.5861,-16.315,3811.1377],[-68.5852,-16.3215,3811.4277],[-68.5868,-16.3228,3811.1025],[-68.5899,-16.3226,3811.0229],[-68.5925,-16.3255,3810.9661],[-68.5941,-16.3248,3811.0168],[-68.5945,-16.3278,3811.0532],[-68.6071,-16.3358,3811.0286],[-68.6148,-16.3366,3822.7295],[-68.6303,-16.3271,3815.3467],[-68.6318,-16.3274,3810.6775],[-68.628,-16.3324,3813.4055],[-68.6272,-16.3361,3809.9692],[-68.6294,-16.3337,3809.2209],[-68.6342,-16.3358,3810.9866],[-68.6405,-16.3298,3815.0464],[-68.6402,-16.3276,3810.2776],[-68.6431,-16.3271,3823.0308],[-68.6555,-16.3176,3808.8799],[-68.6612,-16.3192,3811.0725],[-68.6679,-16.3185,3812.3325],[-68.681,-16.3084,3814.7231],[-68.6938,-16.3062,3808.5],[-68.6984,-16.3085,3811.4861],[-68.6908,-16.3154,3809.6848],[-68.6919,-16.3227,3813.9236],[-68.6897,-16.325,3812.8323],[-68.6916,-16.3264,3826.9253],[-68.7052,-16.3202,3813.9695],[-68.715,-16.3207,3811.6958],[-68.7196,-16.328,3810.4631],[-68.7159,-16.3325,3811.3459],[-68.7244,-16.3304,3823.4482],[-68.7269,-16.3281,3824.7529],[-68.7313,-16.3284,3811.1909],[-68.7314,-16.3305,3812.5151],[-68.7278,-16.3382,3811.5095],[-68.7212,-16.339,3832.7417],[-68.7214,-16.3468,3831.825],[-68.7164,-16.3504,3811.5388],[-68.7122,-16.3507,3813.1528],[-68.708,-16.3471,3811.2124],[-68.7131,-16.3383,3815.9797],[-68.7138,-16.3344,3812.293],[-68.7094,-16.3359,3812.2346],[-68.7073,-16.3334,3811.4736],[-68.7026,-16.3347,3808.5],[-68.7,-16.3319,3809.9644],[-68.695,-16.3312,3838.7214],[-68.6924,-16.3358,3816.6597],[-68.6871,-16.3394,3809.9519],[-68.678,-16.341,3810.7412],[-68.6788,-16.3477,3808.5],[-68.6763,-16.3488,3808.5],[-68.6762,-16.3538,3808.5],[-68.6859,-16.3618,3825.197],[-68.6866,-16.3651,3809.2266],[-68.6834,-16.368,3811.312],[-68.6877,-16.3723,3810.8325],[-68.6799,-16.3731,3809.7998],[-68.6766,-16.371,3808.5],[-68.6642,-16.3495,3837.8208],[-68.656,-16.3417,4013.0767],[-68.6514,-16.3514,4031.0598],[-68.6449,-16.3526,4063.6135],[-68.6374,-16.3479,3825.4819],[-68.6295,-16.3509,3811.7261],[-68.6246,-16.3491,3812.1577],[-68.6237,-16.3447,3813.0632],[-68.6257,-16.3427,3810.8428],[-68.6245,-16.3397,3817.7903],[-68.6191,-16.3377,3919.7515],[-68.6123,-16.3466,4028.7197],[-68.598,-16.3552,3932.5808],[-68.5896,-16.3643,4110.6445],[-68.5771,-16.3715,4256.2246],[-68.5782,-16.3604,3871.5024],[-68.5743,-16.3489,3823.4231],[-68.5813,-16.3415,3813.3076],[-68.573,-16.3303,3819.7649],[-68.573,-16.3281,3843.4373],[-68.5752,-16.3237,3863.5527],[-68.5749,-16.3162,3870.2319],[-68.5812,-16.3109,3868.1223],[-68.5758,-16.2956,3826.9895],[-68.5737,-16.296,3824.8921],[-68.5653,-16.2727,3812.5188]]]]}
,"properties": {"GID_3": "BOL.4.14.5_2","GID_0": "BOL","country": "Bolivia","GID_1": "BOL.4_1","province": "LaPaz","NL_NAME_1": "NA","GID_2": "BOL.4.14_2","county": "LosAndes","NL_NAME_2": "NA","city": "PuertoPérez","VARNAME_3": "NA","NL_NAME_3": "NA","TYPE_3": "District","ENGTYPE_3": "Distrito","CC_3": "NA","HASC_3": "NA","name": "Puerto_Pérez.city","area_km2": 64.84646,"hist_schema_id": "Elevation0-9000","hist_area_km2": {"3800": 8.60692,"3825": 25.9025,"3850": 6.87737,"3875": 5.57509,"3900": 3.92692,"3925": 3.2351,"3950": 2.46194,"3975": 1.74984,"4000": 1.77017,"4025": 1.22078,"4050": 0.91558,"4075": 0.67142,"4100": 0.63072,"4125": 0.4476,"4150": 0.36621,"4175": 0.26449,"4200": 0.18312,"4225": 0.04069}}}