{"type": "Feature","bbox": [-69.142,-15.8963,-68.9034,-15.535],"geometry": {"type": "MultiPolygon","coordinates": [[[[-69.142,-15.7207,3809.9922],[-69.1294,-15.7222,3810.8293],[-69.1112,-15.7284,3809.4949],[-69.1043,-15.7274,3810.6709],[-69.1056,-15.7252,3810.5771],[-69.1094,-15.7264,3811.8782],[-69.1094,-15.7227,3810.271],[-69.1147,-15.7171,3813.8877],[-69.1141,-15.7138,3816.8186],[-69.1037,-15.7174,3811.5967],[-69.1052,-15.7213,3810.4377],[-69.1073,-15.7199,3811.8706],[-69.1082,-15.722,3810.1909],[-69.1056,-15.7216,3810.4377],[-69.1056,-15.723,3810.0891],[-69.1017,-15.72,3810.936],[-69.0978,-15.723,3812.5752],[-69.0877,-15.7353,3812.8984],[-69.0859,-15.7453,3809.5837],[-69.0731,-15.7546,3810.2883],[-69.0706,-15.7584,3811.3013],[-69.0689,-15.7584,3811.7129],[-69.0708,-15.7617,3811.6106],[-69.0664,-15.7679,3812.3862],[-69.0652,-15.7751,3808.5],[-69.0619,-15.7824,3812.8616],[-69.054,-15.7956,3812.5127],[-69.0391,-15.8024,3811.1638],[-69.0311,-15.8093,3825.0071],[-69.0278,-15.8195,3815.6636],[-69.0244,-15.8216,3811.3848],[-69.0222,-15.8269,3810.2817],[-69.0195,-15.8388,3810.0698],[-69.0155,-15.8447,3817.718],[-69.0116,-15.861,3808.5],[-69.0095,-15.8638,3823.7156],[-69.0028,-15.8663,3808.5],[-68.996,-15.8654,3810.1597],[-68.9899,-15.8673,3813.3789],[-68.9857,-15.8774,3811.2351],[-68.9857,-15.8809,3810.9004],[-68.9875,-15.8822,3810.9482],[-68.9856,-15.8821,3811.5425],[-68.9855,-15.8847,3808.5],[-68.9822,-15.8881,3808.5],[-68.975,-15.8918,3808.5],[-68.9706,-15.891,3814.8477],[-68.9611,-15.8963,3808.5],[-68.9619,-15.89,3938.7051],[-68.9595,-15.8886,3962.3555],[-68.9573,-15.884,4053.4648],[-68.9535,-15.8832,4048.22],[-68.9533,-15.879,4043.6011],[-68.9634,-15.8654,4093.6157],[-68.9671,-15.8625,4098.0107],[-68.9749,-15.8501,4157.2837],[-68.9854,-15.845,3986.749],[-68.9892,-15.8411,3935.2695],[-68.9855,-15.8309,4221.1182],[-68.988,-15.8253,4236.0205],[-68.9777,-15.8019,4472.4785],[-68.9693,-15.7997,4187.5322],[-68.9572,-15.7921,4399.9912],[-68.953,-15.7928,4411.9717],[-68.9503,-15.7973,4378.8447],[-68.9336,-15.7994,4604.418],[-68.9268,-15.7982,4626.2852],[-68.9213,-15.8019,4568.9658],[-68.9122,-15.8038,4392.6597],[-68.9072,-15.802,4270.9019],[-68.9179,-15.7726,4672.457],[-68.928,-15.7606,4607.376],[-68.9396,-15.7556,4606.0234],[-68.9454,-15.7425,4486.2129],[-68.9522,-15.738,4560.0645],[-68.9527,-15.6996,4426.2842],[-68.9508,-15.6936,4368.0566],[-68.9395,-15.6837,4338.4629],[-68.9362,-15.6833,4317.3462],[-68.9323,-15.6762,4287.2568],[-68.9289,-15.6732,4191.3794],[-68.9267,-15.6653,4227.395],[-68.9034,-15.6379,3587.165],[-68.9114,-15.623,3080.7188],[-68.9123,-15.6171,2948.4321],[-68.9211,-15.6159,3354.8889],[-68.9317,-15.6051,3689.7222],[-68.9405,-15.5991,3885.5967],[-68.9427,-15.5931,3914.7568],[-68.9384,-15.5825,3838.6265],[-68.9332,-15.5783,4006.8066],[-68.9361,-15.571,3932.011],[-68.9279,-15.5499,3804.3438],[-68.9291,-15.5364,3444.7388],[-68.9322,-15.535,3536.573],[-68.9375,-15.5366,3484.7227],[-68.9431,-15.5354,3310.4626],[-68.9488,-15.5393,3090.7085],[-68.9598,-15.5429,2713.3618],[-68.9623,-15.5408,2660.1743],[-68.9637,-15.5437,2569.6926],[-68.9754,-15.553,2692.5386],[-68.9773,-15.5575,2734.5042],[-68.9902,-15.5664,2882.3604],[-68.9906,-15.5686,2891.9253],[-68.981,-15.5844,3020.3765],[-68.9805,-15.5886,3126.4043],[-68.9859,-15.5943,3107.9443],[-68.9854,-15.6036,3159.7288],[-68.9887,-15.6107,3196.2568],[-68.9862,-15.6173,3248.981],[-68.9858,-15.6247,3367.6584],[-68.9811,-15.6293,3405.8564],[-68.9825,-15.6308,3375.1792],[-68.9816,-15.6349,3444.2437],[-68.986,-15.6416,3507.2097],[-68.987,-15.6469,3586.3499],[-68.992,-15.6527,3614.5969],[-68.9909,-15.6612,3676.1851],[-69.0054,-15.6625,4247.5283],[-69.0229,-15.6668,4468.0957],[-69.047,-15.6677,4331.166],[-69.068,-15.6546,4145.1152],[-69.0936,-15.634,3814.5725],[-69.0968,-15.634,3814.9944],[-69.0985,-15.6377,3814.7168],[-69.1065,-15.6392,3819.8301],[-69.099,-15.6509,4057.7651],[-69.0942,-15.6675,4066.7927],[-69.0925,-15.6689,4052.3755],[-69.102,-15.6767,3924.364],[-69.142,-15.7207,3809.9922]]]]}
,"properties": {"GID_3": "BOL.4.5.6_2","GID_0": "BOL","country": "Bolivia","GID_1": "BOL.4_1","province": "LaPaz","NL_NAME_1": "NA","GID_2": "BOL.4.5_2","county": "Camacho","NL_NAME_2": "NA","city": "PuertoMayordeCarabuco","VARNAME_3": "NA","NL_NAME_3": "NA","TYPE_3": "District","ENGTYPE_3": "Distrito","CC_3": "NA","HASC_3": "NA","name": "Puerto_Mayorde_Carabuco.city","area_km2": 386.9729,"hist_schema_id": "Elevation0-9000","hist_area_km2": {"2575": 0.143,"2600": 0.1226,"2625": 0.1838,"2650": 0.2043,"2675": 0.2043,"2700": 0.3064,"2725": 0.3064,"2750": 0.3268,"2775": 0.2655,"2800": 0.4494,"2825": 0.3677,"2850": 0.3268,"2875": 0.286,"2900": 0.4289,"2925": 0.3472,"2950": 0.4698,"2975": 0.5719,"3000": 0.4698,"3025": 0.6536,"3050": 0.8374,"3075": 0.531,"3100": 0.9191,"3125": 0.9599,"3150": 0.7353,"3175": 1.0007,"3200": 1.0008,"3225": 1.0416,"3250": 0.9803,"3275": 1.1641,"3300": 1.0212,"3325": 1.4704,"3350": 1.2049,"3375": 1.4091,"3400": 1.4704,"3425": 1.3274,"3450": 1.4908,"3475": 1.695,"3500": 2.0625,"3525": 2.0013,"3550": 1.9604,"3575": 1.7562,"3600": 1.7358,"3625": 2.2259,"3650": 2.0012,"3675": 1.8991,"3700": 2.0624,"3725": 2.3483,"3750": 2.5525,"3775": 2.6342,"3800": 5.6131,"3825": 32.6693,"3850": 16.815,"3875": 12.5095,"3900": 9.3875,"3925": 8.5515,"3950": 7.7148,"3975": 8.2656,"4000": 7.592,"4025": 8.2245,"4050": 9.1837,"4075": 10.8779,"4100": 13.1429,"4125": 11.9397,"4150": 11.3889,"4175": 10.6948,"4200": 10.8784,"4225": 11.4085,"4250": 11.2659,"4275": 11.3064,"4300": 13.1434,"4325": 14.0413,"4350": 16.47,"4375": 16.1841,"4400": 11.8775,"4425": 8.8974,"4450": 6.428,"4475": 4.3871,"4500": 3.2035,"4525": 2.8158,"4550": 2.6933,"4575": 1.9587,"4600": 1.5302,"4625": 1.0201,"4650": 0.6121,"4675": 0.2448,"4700": 0.0816,"4725": 0.0204}}}