{"type": "Feature","bbox": [-68.5813,-16.3716,-68.2369,-15.9714],"geometry": {"type": "MultiPolygon","coordinates": [[[[-68.4963,-16.0141,4676.5254],[-68.4963,-16.0221,4483.6797],[-68.5043,-16.0292,4480.875],[-68.5074,-16.0362,4494.7764],[-68.5056,-16.0412,4461.3853],[-68.5001,-16.0453,4462.8281],[-68.498,-16.0494,4464.3101],[-68.5014,-16.0623,4346.4316],[-68.501,-16.0667,4280.4829],[-68.5075,-16.0702,4225.3008],[-68.5125,-16.0698,4198.564],[-68.5251,-16.0791,4146.6694],[-68.5466,-16.082,4072.2769],[-68.5398,-16.0871,4091.8164],[-68.5435,-16.0903,4062.7866],[-68.5484,-16.0996,4003.5869],[-68.5498,-16.1059,3988.884],[-68.5396,-16.107,4065.4739],[-68.5229,-16.1157,4022.5022],[-68.507,-16.1187,4064.0657],[-68.5009,-16.1335,4212.1074],[-68.5097,-16.1314,4164.9004],[-68.5187,-16.121,4053.2668],[-68.5274,-16.1282,4027.8376],[-68.5306,-16.1719,3922.1938],[-68.5177,-16.1791,3937.022],[-68.5114,-16.1871,3944.9624],[-68.5243,-16.2071,3934.3582],[-68.5308,-16.1977,3926.8235],[-68.5529,-16.1975,3910.1682],[-68.5691,-16.2252,4031.9448],[-68.558,-16.2354,4085.4033],[-68.5504,-16.2477,4040.7705],[-68.5737,-16.2562,3810.7646],[-68.5717,-16.2606,3810.8013],[-68.5743,-16.2633,3810.7842],[-68.5688,-16.2642,3813.1343],[-68.5643,-16.2696,3816.9631],[-68.5737,-16.296,3824.8921],[-68.5758,-16.2956,3826.9895],[-68.5812,-16.3109,3868.1223],[-68.5749,-16.3162,3870.2319],[-68.5752,-16.3237,3863.5527],[-68.573,-16.3303,3819.7649],[-68.5813,-16.3415,3813.3076],[-68.5743,-16.3489,3823.4231],[-68.554,-16.3518,3829.5959],[-68.5494,-16.3475,3830.1846],[-68.541,-16.3319,3829.0273],[-68.5293,-16.3507,3834.6072],[-68.5094,-16.3592,3845.3384],[-68.5047,-16.3524,3850.3342],[-68.4997,-16.3575,3850.584],[-68.488,-16.3502,3864.6558],[-68.4817,-16.3431,3875.269],[-68.4777,-16.3418,3879.2903],[-68.4642,-16.3507,3888.5918],[-68.4664,-16.3624,3874.9053],[-68.4519,-16.3716,3881.2307],[-68.4265,-16.3454,3943.7058],[-68.425,-16.342,3949.3628],[-68.4236,-16.3427,3949.3628],[-68.4151,-16.3372,3967.5093],[-68.4295,-16.3242,3959.4512],[-68.4374,-16.3202,3952.4001],[-68.4539,-16.295,3945.9824],[-68.4383,-16.2863,3984.4006],[-68.4354,-16.2822,3994.854],[-68.4284,-16.2775,4018.178],[-68.4242,-16.2714,4033.9814],[-68.4143,-16.2647,4072.3105],[-68.3986,-16.2496,4157.2832],[-68.397,-16.2424,4189.6309],[-68.3925,-16.2362,4222.2651],[-68.3845,-16.2294,4244.3545],[-68.3788,-16.2187,4244.7437],[-68.3718,-16.2161,4247.311],[-68.3568,-16.2172,4276.1084],[-68.3534,-16.2147,4293.2988],[-68.3539,-16.2121,4290.0],[-68.3399,-16.182,4292.6201],[-68.3361,-16.1687,4306.4604],[-68.3287,-16.1607,4391.749],[-68.3252,-16.1538,4391.7725],[-68.3159,-16.1506,4437.8848],[-68.3106,-16.1546,4515.2139],[-68.2823,-16.1493,4577.8135],[-68.2728,-16.1447,4643.2339],[-68.2647,-16.1439,4645.6138],[-68.2552,-16.14,4793.3711],[-68.2512,-16.136,4860.3799],[-68.2477,-16.1251,5125.0576],[-68.2369,-16.1111,4677.144],[-68.241,-16.1079,5029.0654],[-68.2515,-16.0841,4758.6748],[-68.2682,-16.0723,4598.6587],[-68.3108,-16.048,5177.3672],[-68.339,-16.0387,5454.0771],[-68.3606,-16.0266,5527.686],[-68.3624,-16.009,5344.5684],[-68.3738,-15.9975,5558.5527],[-68.3808,-15.9935,5811.7896],[-68.3838,-15.9833,5913.0469],[-68.3879,-15.9785,5777.8809],[-68.3916,-15.9765,5805.3662],[-68.3957,-15.9765,5844.9551],[-68.3998,-15.9727,5587.2847],[-68.4047,-15.9714,5420.5664],[-68.4067,-15.9777,5351.3828],[-68.4132,-15.9845,5092.9473],[-68.4137,-15.9984,5427.709],[-68.4203,-16.0082,5382.6709],[-68.439,-16.0115,5070.4961],[-68.4456,-16.0108,4940.1699],[-68.4582,-16.0127,4664.4434],[-68.4675,-16.0167,4668.5391],[-68.4908,-16.0167,4527.2275],[-68.4963,-16.0141,4676.5254]]]]}
,"properties": {"GID_3": "BOL.4.14.1_2","GID_0": "BOL","country": "Bolivia","GID_1": "BOL.4_1","province": "LaPaz","NL_NAME_1": "NA","GID_2": "BOL.4.14_2","county": "LosAndes","NL_NAME_2": "NA","city": "Batallas","VARNAME_3": "NA","NL_NAME_3": "NA","TYPE_3": "District","ENGTYPE_3": "Distrito","CC_3": "NA","HASC_3": "NA","name": "Batallas.city","area_km2": 795.3566,"hist_schema_id": "Elevation0-9000","hist_area_km2": {"3800": 0.2442,"3825": 35.5291,"3850": 26.7983,"3875": 21.0405,"3900": 24.7853,"3925": 38.0228,"3950": 33.8113,"3975": 26.7084,"4000": 24.5308,"4025": 19.9105,"4050": 14.8825,"4075": 13.255,"4100": 14.4376,"4125": 12.0962,"4150": 9.0822,"4175": 9.7136,"4200": 9.1842,"4225": 9.4898,"4250": 9.9173,"4275": 10.0602,"4300": 12.7887,"4325": 14.4995,"4350": 16.4544,"4375": 14.8462,"4400": 15.397,"4425": 16.7828,"4450": 16.3955,"4475": 14.0339,"4500": 12.975,"4525": 11.7939,"4550": 12.487,"4575": 12.9149,"4600": 9.8186,"4625": 10.1038,"4650": 9.4116,"4675": 10.4099,"4700": 9.8393,"4725": 9.9006,"4750": 9.9011,"4775": 9.6157,"4800": 9.412,"4825": 9.1473,"4850": 8.9435,"4875": 8.3322,"4900": 9.4937,"4925": 9.0251,"4950": 8.9232,"4975": 8.903,"5000": 9.2493,"5025": 8.7604,"5050": 8.3122,"5075": 7.1305,"5100": 6.6214,"5125": 6.7233,"5150": 7.2326,"5175": 6.4788,"5200": 6.3158,"5225": 5.5008,"5250": 5.1343,"5275": 5.012,"5300": 4.6249,"5325": 3.8304,"5350": 3.5859,"5375": 2.6895,"5400": 2.6692,"5425": 1.9154,"5450": 1.4264,"5475": 0.8559,"5500": 0.8355,"5525": 0.4687,"5550": 0.2649,"5575": 0.3261,"5600": 0.3669,"5625": 0.2038,"5650": 0.2242,"5675": 0.3057,"5700": 0.3669,"5725": 0.4076,"5750": 0.3465,"5775": 0.3261,"5800": 0.2242,"5825": 0.2854,"5850": 0.1223,"5875": 0.1019,"5900": 0.0204,"5925": 0.0204,"5950": 0.0204}}}