{"type":"Feature","properties":{"GID_3":"BOL.4.19.2_2","GID_0":"BOL","country":"Bolivia","GID_1":"BOL.4_1","province":"LaPaz","NL_NAME_1":"NA","GID_2":"BOL.4.19_2","county":"Omasuyos","NL_NAME_2":"NA","city":"ChuaCocani","VARNAME_3":"NA","NL_NAME_3":"NA","TYPE_3":"District","ENGTYPE_3":"Distrito","CC_3":"NA","HASC_3":"NA","name":"Chua_Cocani.city"},
"geometry":{"type": "MultiPolygon","coordinates": [[[[-68.8068,-16.1809,3811.6443],[-68.804,-16.1804,3811.5535],[-68.8018,-16.1823,3809.9138],[-68.7943,-16.1812,3810.0967],[-68.7876,-16.183,3808.5],[-68.7808,-16.1819,3809.8438],[-68.7576,-16.191,3813.6785],[-68.7461,-16.2005,3809.9204],[-68.7417,-16.2019,3808.5],[-68.741,-16.2008,3808.5],[-68.7373,-16.2029,3808.5],[-68.7224,-16.2031,3808.5],[-68.7103,-16.1837,3971.6221],[-68.6957,-16.1736,4152.8706],[-68.7024,-16.1716,4150.1816],[-68.6998,-16.1621,4015.8247],[-68.7021,-16.1421,4208.105],[-68.7044,-16.1363,4277.5195],[-68.7097,-16.1309,4308.4521],[-68.7151,-16.1209,4146.6401],[-68.7196,-16.12,4013.2144],[-68.7378,-16.1264,4291.2241],[-68.7431,-16.1264,4201.6206],[-68.7534,-16.1209,4395.7783],[-68.7523,-16.1172,4382.8218],[-68.7753,-16.1258,4283.2949],[-68.7853,-16.1253,4267.707],[-68.7992,-16.12,4241.7881],[-68.7959,-16.1289,4276.2295],[-68.7995,-16.1319,4327.876],[-68.8023,-16.1397,4300.8984],[-68.8073,-16.1461,4153.356],[-68.8086,-16.154,4042.0583],[-68.8064,-16.1604,3953.6814],[-68.8068,-16.1809,3811.6443]]]]}}