{"type": "Feature","bbox": [-67.0057,-17.4485,-66.5655,-16.8297],"geometry": {"type": "MultiPolygon","coordinates": [[[[-66.8464,-17.3843,2930.5217],[-66.8454,-17.3867,3040.6094],[-66.8337,-17.3957,3212.519],[-66.8246,-17.3929,3328.7896],[-66.8182,-17.397,3418.0786],[-66.8081,-17.4157,3641.4927],[-66.7967,-17.4201,3770.0813],[-66.7946,-17.4306,3815.2996],[-66.7834,-17.4319,4178.8579],[-66.7755,-17.4411,4179.3896],[-66.7459,-17.4445,4056.4292],[-66.7331,-17.4485,4024.3909],[-66.7153,-17.4403,3992.3477],[-66.72,-17.4177,4120.6196],[-66.7198,-17.4124,4157.5703],[-66.7165,-17.4094,4232.1924],[-66.6813,-17.4057,4212.3564],[-66.6649,-17.4093,4200.7656],[-66.6587,-17.4147,4195.5176],[-66.6538,-17.4141,4227.6821],[-66.6492,-17.4156,4148.2959],[-66.6459,-17.4209,4198.7026],[-66.6391,-17.4244,4094.9321],[-66.6249,-17.4273,4077.3035],[-66.6164,-17.4265,4035.2642],[-66.6122,-17.4208,4025.6448],[-66.6121,-17.4114,4059.9746],[-66.6088,-17.407,4155.0508],[-66.6109,-17.4035,4138.0146],[-66.6063,-17.3986,4153.436],[-66.6052,-17.3952,4077.7246],[-66.5909,-17.3895,4160.0425],[-66.5891,-17.3862,4185.1147],[-66.5842,-17.3846,4131.7588],[-66.5767,-17.3766,4325.5332],[-66.5714,-17.3768,4442.6484],[-66.5655,-17.3674,4570.7871],[-66.5699,-17.3631,4447.7393],[-66.5773,-17.3597,4496.7808],[-66.5769,-17.3559,4551.416],[-66.5791,-17.3545,4516.3579],[-66.5817,-17.3465,4469.7661],[-66.5841,-17.3459,4479.52],[-66.5862,-17.3429,4478.7114],[-66.5851,-17.3389,4538.7686],[-66.5875,-17.3347,4480.022],[-66.6051,-17.3252,4298.7939],[-66.6095,-17.314,4300.6504],[-66.6153,-17.3121,4335.3706],[-66.6182,-17.3063,4324.3115],[-66.6212,-17.3045,4302.8945],[-66.6268,-17.3053,4320.7114],[-66.6328,-17.2984,4344.7666],[-66.6329,-17.2951,4256.0259],[-66.6429,-17.288,4188.9775],[-66.6572,-17.2715,4214.9805],[-66.6671,-17.2571,4457.71],[-66.6672,-17.2492,4363.5117],[-66.6834,-17.2434,4444.9629],[-66.7218,-17.2418,2814.8125],[-66.7264,-17.2394,2591.7783],[-66.7295,-17.2355,2417.6292],[-66.728,-17.2344,2359.3455],[-66.7295,-17.2234,2442.2207],[-66.7285,-17.2213,2414.0793],[-66.732,-17.2096,2276.7764],[-66.7304,-17.2049,2270.2603],[-66.7222,-17.1994,2225.7607],[-66.7185,-17.1925,2174.9741],[-66.7088,-17.189,2205.7327],[-66.7061,-17.1825,2102.6636],[-66.7021,-17.1809,2105.3455],[-66.6964,-17.1753,2070.1418],[-66.6929,-17.1752,2089.8711],[-66.6909,-17.1727,2090.1743],[-66.6843,-17.1731,2047.1616],[-66.6818,-17.1702,1955.208],[-66.6798,-17.1707,1972.6384],[-66.6749,-17.1679,1942.2312],[-66.675,-17.1574,1916.3074],[-66.677,-17.1515,1866.5742],[-66.6759,-17.1474,1904.8971],[-66.6797,-17.1402,1828.856],[-66.6765,-17.1309,1803.8822],[-66.6817,-17.1177,1791.7427],[-66.6869,-17.1097,1795.3901],[-66.6882,-17.1032,1765.2021],[-66.6936,-17.0919,1740.7369],[-66.7076,-17.0812,1710.1035],[-66.7137,-17.0689,1706.7051],[-66.7184,-17.0545,1692.2712],[-66.7172,-17.0329,1649.8052],[-66.7224,-17.0278,1680.6427],[-66.7224,-17.0207,1638.4685],[-66.7252,-17.0182,1639.5522],[-66.7266,-17.0138,1650.0651],[-66.7325,-17.0078,1640.1986],[-66.7355,-17.0022,1636.2749],[-66.7345,-16.9994,1636.6331],[-66.7357,-16.9972,1601.7368],[-66.7416,-16.9929,1611.7751],[-66.7492,-16.9921,1602.75],[-66.7539,-16.9853,1611.6157],[-66.7531,-16.9824,1596.4692],[-66.7553,-16.979,1583.7637],[-66.7571,-16.9785,1591.8763],[-66.7619,-16.9716,1556.0631],[-66.7687,-16.967,1611.2178],[-66.7726,-16.9589,1599.3337],[-66.7709,-16.952,1517.2594],[-66.7718,-16.9496,1518.6731],[-66.7765,-16.9416,1504.345],[-66.7837,-16.9387,1547.5629],[-66.7851,-16.932,1516.7094],[-66.7889,-16.9288,1498.4508],[-66.7902,-16.9237,1486.2869],[-66.7957,-16.9189,1496.319],[-66.7982,-16.9109,1475.8643],[-66.8037,-16.9037,1458.2866],[-66.8051,-16.8975,1484.7209],[-66.809,-16.8936,1441.2777],[-66.808,-16.8895,1462.5107],[-66.8106,-16.884,1433.9514],[-66.8091,-16.8788,1532.828],[-66.8106,-16.8738,1426.9026],[-66.8168,-16.8626,1418.2078],[-66.8213,-16.8613,1488.2666],[-66.8226,-16.8588,1419.6207],[-66.8202,-16.8529,1390.2479],[-66.8218,-16.8511,1388.7664],[-66.819,-16.8484,1389.0972],[-66.8174,-16.8426,1403.5144],[-66.8159,-16.8297,1393.6526],[-66.8212,-16.8313,1377.02],[-66.8222,-16.8338,1383.929],[-66.8261,-16.8347,1418.8695],[-66.828,-16.8374,1411.7338],[-66.8368,-16.8408,1447.8787],[-66.8393,-16.8389,1440.5278],[-66.841,-16.8403,1460.1631],[-66.8445,-16.8396,1451.6056],[-66.8488,-16.836,1510.624],[-66.8544,-16.8344,1470.9552],[-66.8577,-16.8358,1449.139],[-66.8664,-16.8331,1486.5844],[-66.8703,-16.8352,1506.4189],[-66.8819,-16.836,1465.2404],[-66.885,-16.8375,1475.7823],[-66.8875,-16.834,1513.676],[-66.8911,-16.8351,1499.7727],[-66.8947,-16.8336,1482.8867],[-66.9015,-16.8339,1501.0282],[-66.9043,-16.8368,1557.4109],[-66.9073,-16.8364,1565.874],[-66.9107,-16.8329,1565.186],[-66.9155,-16.8362,1515.2163],[-66.924,-16.8358,1507.811],[-66.9355,-16.8524,1524.3724],[-66.9416,-16.8561,1538.2222],[-66.9466,-16.8685,1576.2272],[-66.9525,-16.8761,1560.8921],[-66.956,-16.8776,1560.8431],[-66.9652,-16.8873,1588.2845],[-66.972,-16.89,1585.853],[-66.9736,-16.8921,1604.7067],[-66.9762,-16.9064,1607.4846],[-66.9702,-16.921,1635.0186],[-66.9705,-16.9243,1638.948],[-66.9779,-16.9285,1663.5706],[-66.9917,-16.9333,1650.4907],[-66.9922,-16.9416,1669.2234],[-67.0031,-16.9477,1666.8015],[-67.0057,-16.9549,1670.9982],[-67.0044,-16.9593,1675.6477],[-67.001,-16.9616,1678.0801],[-67.0,-16.9684,1689.1527],[-67.0022,-16.9767,1690.6295],[-67.0018,-16.9893,1701.3628],[-66.9906,-17.0144,1744.2452],[-66.9907,-17.0196,1753.761],[-66.9867,-17.0256,1749.9666],[-66.984,-17.0344,1756.3801],[-66.9849,-17.0388,1797.7112],[-66.9807,-17.0468,1806.3347],[-66.9736,-17.0515,1787.8607],[-66.9695,-17.0572,1792.9148],[-66.9573,-17.0656,1816.8586],[-66.9565,-17.0718,1830.4111],[-66.9444,-17.0845,1848.8138],[-66.9403,-17.0943,1875.6857],[-66.9306,-17.1071,1887.4246],[-66.9256,-17.1109,1893.0906],[-66.9154,-17.1135,1907.9923],[-66.9047,-17.1229,1923.1346],[-66.8971,-17.1336,1949.2134],[-66.8904,-17.1398,1961.7554],[-66.8892,-17.1478,1970.502],[-66.8839,-17.1566,1994.7249],[-66.8831,-17.1613,2005.1953],[-66.8852,-17.1659,2012.5803],[-66.8863,-17.1781,2043.5439],[-66.8853,-17.1852,2072.2573],[-66.8898,-17.1898,2079.4314],[-66.8905,-17.1946,2113.8887],[-66.8888,-17.1962,2106.0576],[-66.8886,-17.2004,2124.6692],[-66.89,-17.2061,2119.8394],[-66.8876,-17.2156,2131.949],[-66.8822,-17.2203,2140.4236],[-66.8823,-17.2256,2153.2734],[-66.8775,-17.2332,2172.657],[-66.8772,-17.2368,2174.5339],[-66.8787,-17.2484,2247.165],[-66.8886,-17.2661,2234.9624],[-66.8866,-17.2709,2236.8787],[-66.8889,-17.2728,2242.4243],[-66.8888,-17.2835,2269.1257],[-66.8872,-17.2904,2292.9399],[-66.883,-17.2916,2295.1587],[-66.8732,-17.3021,2334.4407],[-66.8669,-17.3039,2357.5552],[-66.8574,-17.3107,2406.9338],[-66.8426,-17.3175,2550.5474],[-66.8472,-17.3365,2665.7185],[-66.8492,-17.3381,2708.6577],[-66.8559,-17.3378,2742.4565],[-66.8595,-17.3412,2715.4812],[-66.8578,-17.3478,2717.8203],[-66.8497,-17.3486,2697.675],[-66.8454,-17.354,2734.5613],[-66.8468,-17.3606,2740.6643],[-66.8458,-17.365,2761.4924],[-66.8515,-17.378,2868.9116],[-66.8498,-17.3819,2861.8804],[-66.8464,-17.3843,2930.5217]]]]}
,"properties": {"GID_3": "BOL.2.3.1_2","GID_0": "BOL","country": "Bolivia","GID_1": "BOL.2_1","province": "Cochabamba","NL_NAME_1": "NA","GID_2": "BOL.2.3_2","county": "Ayopaya","NL_NAME_2": "NA","city": "Ayopaya","VARNAME_3": "NA","NL_NAME_3": "NA","TYPE_3": "District","ENGTYPE_3": "Distrito","CC_3": "NA","HASC_3": "NA","name": "Ayopaya.city","area_km2": 1504.227,"hist_schema_id": "Elevation0-9000","hist_area_km2": {"1375": 0.568,"1400": 0.284,"1425": 0.791,"1450": 0.73,"1475": 1.055,"1500": 1.42,"1525": 1.684,"1550": 1.501,"1575": 1.704,"1600": 1.988,"1625": 2.049,"1650": 2.495,"1675": 3.063,"1700": 3.306,"1725": 3.914,"1750": 3.59,"1775": 3.954,"1800": 4.015,"1825": 5.293,"1850": 4.725,"1875": 4.988,"1900": 5.515,"1925": 6.812,"1950": 6.427,"1975": 6.893,"2000": 7.299,"2025": 6.933,"2050": 7.562,"2075": 7.765,"2100": 7.156,"2125": 8.211,"2150": 8.21,"2175": 8.758,"2200": 8.514,"2225": 9.082,"2250": 8.514,"2275": 8.392,"2300": 9.264,"2325": 9.406,"2350": 9.406,"2375": 10.784,"2400": 9.75,"2425": 10.52,"2450": 10.602,"2475": 10.763,"2500": 10.662,"2525": 11.938,"2550": 11.938,"2575": 12.831,"2600": 12.87,"2625": 12.363,"2650": 12.869,"2675": 13.721,"2700": 14.653,"2725": 14.794,"2750": 15.767,"2775": 15.969,"2800": 16.9,"2825": 17.224,"2850": 17.852,"2875": 16.961,"2900": 19.473,"2925": 19.29,"2950": 19.573,"2975": 19.898,"3000": 20.322,"3025": 21.62,"3050": 21.72,"3075": 21.335,"3100": 21.435,"3125": 21.8,"3150": 21.699,"3175": 24.069,"3200": 22.042,"3225": 24.413,"3250": 23.683,"3275": 24.533,"3300": 24.19,"3325": 25.181,"3350": 25.16,"3375": 25.848,"3400": 23.68,"3425": 25.361,"3450": 24.186,"3475": 24.711,"3500": 24.003,"3525": 23.131,"3550": 24.184,"3575": 22.259,"3600": 22.097,"3625": 22.522,"3650": 21.366,"3675": 20.414,"3700": 19.806,"3725": 19.299,"3750": 18.711,"3775": 17.881,"3800": 17.799,"3825": 17.495,"3850": 15.935,"3875": 15.247,"3900": 14.476,"3925": 13.424,"3950": 13.038,"3975": 12.795,"4000": 11.459,"4025": 10.831,"4050": 10.65,"4075": 10.266,"4100": 8.949,"4125": 8.706,"4150": 7.592,"4175": 6.337,"4200": 5.021,"4225": 4.474,"4250": 3.563,"4275": 2.389,"4300": 1.923,"4325": 1.215,"4350": 1.032,"4375": 1.255,"4400": 0.891,"4425": 0.526,"4450": 0.283,"4475": 0.344,"4500": 0.223,"4525": 0.182,"4550": 0.02,"4600": 0.02}}}