{"type": "Feature","bbox": [-66.0389,-17.385,-65.7549,-17.0407],"geometry": {"type": "MultiPolygon","coordinates": [[[[-65.7549,-17.3137,3506.584],[-65.7581,-17.313,3493.2444],[-65.7683,-17.3038,3290.0786],[-65.7752,-17.3037,3192.8452],[-65.781,-17.2994,3051.241],[-65.7925,-17.2864,2789.0403],[-65.7964,-17.2859,2721.8042],[-65.7974,-17.283,2694.1509],[-65.8073,-17.2761,2553.1606],[-65.812,-17.2691,2434.8289],[-65.8147,-17.2614,2365.9863],[-65.821,-17.2608,2658.9419],[-65.8363,-17.2643,3311.29],[-65.8712,-17.2523,3747.0088],[-65.8796,-17.2264,3374.5364],[-65.8859,-17.2161,3370.1948],[-65.888,-17.203,3263.5073],[-65.8949,-17.1842,3197.176],[-65.8814,-17.1803,2550.2563],[-65.8732,-17.1761,2342.281],[-65.8685,-17.1769,2252.7749],[-65.8771,-17.1505,3260.646],[-65.8766,-17.1327,3276.6558],[-65.8825,-17.1191,3424.4612],[-65.9023,-17.1134,3372.9658],[-65.9313,-17.0951,2457.0969],[-65.9334,-17.0823,2205.5491],[-65.9357,-17.0773,2082.0525],[-65.9398,-17.0783,2114.658],[-65.9422,-17.0815,2135.7581],[-65.9527,-17.0806,2263.6963],[-65.9555,-17.0747,2343.647],[-65.962,-17.0702,2609.699],[-65.966,-17.068,2552.709],[-65.9718,-17.0689,2391.4387],[-65.9751,-17.0672,2318.0496],[-65.9848,-17.0544,2176.3708],[-65.9896,-17.0407,1562.329],[-65.9945,-17.0454,1619.1362],[-65.9989,-17.0453,1637.8336],[-66.0062,-17.0491,1752.9406],[-66.0077,-17.0555,1768.8418],[-66.0097,-17.0559,1779.8091],[-66.0115,-17.0605,1757.4757],[-66.0102,-17.0611,1751.9663],[-66.0117,-17.0643,1714.5463],[-66.0132,-17.0644,1714.5463],[-66.0126,-17.0662,1716.3242],[-66.0141,-17.0667,1727.4158],[-66.0153,-17.0715,1735.1392],[-66.0131,-17.0742,1805.8896],[-66.0146,-17.0793,1901.3035],[-66.0086,-17.0878,1929.3939],[-66.0087,-17.0993,2029.0513],[-66.0233,-17.1155,2282.4922],[-66.0343,-17.1198,2466.3818],[-66.034,-17.1258,2569.1265],[-66.0366,-17.1312,2595.916],[-66.0356,-17.1353,2752.0649],[-66.0386,-17.1386,2752.3909],[-66.0389,-17.1424,2833.8525],[-66.0311,-17.1473,3546.0752],[-66.022,-17.1581,3594.6636],[-66.0231,-17.1721,3631.9607],[-66.0126,-17.1751,3596.9727],[-66.0041,-17.1824,3560.5911],[-66.0016,-17.1917,3641.3655],[-66.0031,-17.1952,3667.0933],[-66.0024,-17.1982,3725.1482],[-66.0049,-17.2014,3808.0156],[-66.0038,-17.2166,4015.897],[-65.9966,-17.2398,4184.502],[-65.9866,-17.2606,4218.9644],[-65.982,-17.2762,4248.3369],[-65.9815,-17.2935,4265.4507],[-65.9715,-17.3264,4054.5063],[-65.9722,-17.3339,3830.1289],[-65.9749,-17.3366,3716.0862],[-65.9885,-17.3401,3788.3647],[-65.9935,-17.3374,3982.1069],[-65.9995,-17.342,3689.6753],[-65.9996,-17.3451,3602.3735],[-65.9955,-17.3482,3542.0352],[-65.9961,-17.36,3597.8882],[-65.9943,-17.3658,3576.9521],[-65.9888,-17.3676,3408.2366],[-65.9814,-17.3671,3444.2686],[-65.9756,-17.3703,3387.991],[-65.9698,-17.368,3381.5017],[-65.9697,-17.3579,3638.0815],[-65.9647,-17.3546,3739.7114],[-65.9594,-17.3461,4085.8237],[-65.9444,-17.346,4106.2266],[-65.9416,-17.3497,4011.2991],[-65.9386,-17.3505,4091.2449],[-65.9252,-17.3501,4035.6201],[-65.9171,-17.3643,4011.2192],[-65.9107,-17.3699,4045.0759],[-65.9037,-17.375,4107.1309],[-65.8942,-17.3757,4180.7031],[-65.8842,-17.385,4005.5332],[-65.8785,-17.3807,4102.5654],[-65.8717,-17.3808,4119.4014],[-65.8606,-17.3738,3865.8022],[-65.8485,-17.3563,3307.5894],[-65.8407,-17.3646,3342.3462],[-65.8392,-17.3637,3328.6672],[-65.8391,-17.3591,3334.74],[-65.834,-17.3517,3443.2556],[-65.8171,-17.3461,3649.9927],[-65.8098,-17.3453,3708.3691],[-65.7929,-17.3469,3750.6138],[-65.782,-17.3442,3941.0332],[-65.7774,-17.3399,4032.1316],[-65.7618,-17.3326,4160.7646],[-65.7549,-17.3137,3506.584]]]]}
,"properties": {"GID_3": "BOL.2.9.1_2","GID_0": "BOL","country": "Bolivia","GID_1": "BOL.2_1","province": "Cochabamba","NL_NAME_1": "NA","GID_2": "BOL.2.9_2","county": "Chapare","NL_NAME_2": "NA","city": "Colomi","VARNAME_3": "NA","NL_NAME_3": "NA","TYPE_3": "District","ENGTYPE_3": "Distrito","CC_3": "NA","HASC_3": "NA","name": "Colomi.city","area_km2": 516.7077,"hist_schema_id": "Elevation0-9000","hist_area_km2": {"1575": 0.0203,"1600": 0.0608,"1625": 0.0203,"1675": 0.0811,"1700": 0.0811,"1725": 0.304,"1750": 0.2027,"1775": 0.223,"1800": 0.304,"1825": 0.6283,"1850": 0.7702,"1875": 0.7297,"1900": 0.9121,"1925": 0.9729,"1950": 0.7296,"1975": 1.1755,"2000": 1.3173,"2025": 1.3984,"2050": 1.5403,"2075": 1.2971,"2100": 1.2971,"2125": 1.7429,"2150": 1.824,"2175": 2.0468,"2200": 2.3305,"2225": 2.5331,"2250": 3.607,"2275": 4.3972,"2300": 4.7416,"2325": 5.1873,"2350": 5.4912,"2375": 6.0179,"2400": 6.2812,"2425": 6.6256,"2450": 6.7268,"2475": 5.653,"2500": 5.9164,"2525": 5.2476,"2550": 4.5993,"2575": 4.4572,"2600": 4.133,"2625": 3.4237,"2650": 3.4236,"2675": 3.3021,"2700": 3.4034,"2725": 3.5856,"2750": 3.3426,"2775": 3.2007,"2800": 3.1196,"2825": 3.4843,"2850": 2.917,"2875": 3.0789,"2900": 3.2815,"2925": 2.9978,"2950": 3.7879,"2975": 3.5043,"3000": 3.4232,"3025": 4.0917,"3050": 3.2205,"3075": 3.3421,"3100": 3.504,"3125": 3.7876,"3150": 3.2408,"3175": 3.4433,"3200": 4.0914,"3225": 4.2331,"3250": 27.8192,"3275": 14.9632,"3300": 13.2416,"3325": 11.116,"3350": 10.7112,"3375": 11.7639,"3400": 11.3183,"3425": 12.411,"3450": 11.2772,"3475": 10.0012,"3500": 9.1915,"3525": 9.3131,"3550": 8.4427,"3575": 8.5839,"3600": 7.4906,"3625": 7.8954,"3650": 8.4822,"3675": 7.3486,"3700": 7.976,"3725": 7.8747,"3750": 7.571,"3775": 8.0566,"3800": 7.1455,"3825": 8.0563,"3850": 7.5906,"3875": 8.6026,"3900": 7.9144,"3925": 7.3476,"3950": 6.882,"3975": 6.72,"4000": 5.4652,"4025": 4.5947,"4050": 5.1413,"4075": 4.777,"4100": 4.0282,"4125": 2.6518,"4150": 2.0042,"4175": 1.3766,"4200": 1.7208,"4225": 0.911,"4250": 0.7693,"4275": 0.1822,"4300": 0.1012,"4325": 0.0202}}}