{"type":"Feature","properties":{"GID_3":"BOL.7.6.1_2","GID_0":"BOL","country":"Bolivia","GID_1":"BOL.7_1","province":"Potosí","NL_NAME_1":"NA","GID_2":"BOL.7.6_2","county":"DanielCampos","NL_NAME_2":"NA","city":"Llica","VARNAME_3":"NA","NL_NAME_3":"NA","TYPE_3":"District","ENGTYPE_3":"Distrito","CC_3":"NA","HASC_3":"NA","name":"Llica.city"},
"geometry":{"type": "MultiPolygon","coordinates": [[[[-68.0881,-19.5764,3657.0059],[-68.095,-19.5905,3656.5],[-68.0992,-19.5918,3656.5],[-68.1073,-19.588,3658.0161],[-68.1093,-19.588,3656.8838],[-68.1101,-19.5903,3656.5],[-68.1153,-19.59,3657.9641],[-68.1135,-19.594,3656.5],[-68.1153,-19.5962,3656.5],[-68.1253,-19.597,3656.5],[-68.1255,-19.5995,3656.5],[-68.1299,-19.6021,3656.5],[-68.1447,-19.604,3656.5],[-68.1555,-19.6108,3656.5],[-68.167,-19.6143,3656.5],[-68.1658,-19.6117,3656.5],[-68.1757,-19.5999,3656.5],[-68.1777,-19.5986,3656.5],[-68.1985,-19.5964,3656.5],[-68.2022,-19.5899,3656.5],[-68.2069,-19.5875,3656.5],[-68.2072,-19.5826,3656.5],[-68.2116,-19.5847,3656.5],[-68.2122,-19.5827,3656.5],[-68.2161,-19.5835,3656.5],[-68.218,-19.5821,3656.5],[-68.2211,-19.5835,3656.5],[-68.2246,-19.5785,3656.5],[-68.2252,-19.5807,3656.5],[-68.2296,-19.5789,3656.5],[-68.2326,-19.5751,3656.5],[-68.2308,-19.573,3656.5],[-68.2344,-19.5713,3656.5],[-68.2371,-19.5665,3656.5],[-68.2451,-19.5628,3656.5],[-68.256,-19.5615,3656.5],[-68.2609,-19.559,3656.5],[-68.2621,-19.5564,3656.5],[-68.274,-19.5518,3656.5],[-68.285,-19.5504,3656.5],[-68.294,-19.5463,3656.5],[-68.2964,-19.5418,3656.5],[-68.2873,-19.5346,3656.5],[-68.2877,-19.5302,3656.5],[-68.2911,-19.5267,3656.5],[-68.2906,-19.5242,3656.5],[-68.2924,-19.5237,3656.5],[-68.2945,-19.5263,3656.5],[-68.3108,-19.5255,3656.5],[-68.3218,-19.5184,3656.5],[-68.3315,-19.5157,3656.5],[-68.339,-19.516,3656.5],[-68.3435,-19.5213,3656.5],[-68.3463,-19.5184,3656.5],[-68.3521,-19.52,3656.5],[-68.3647,-19.5071,3656.5],[-68.3809,-19.4964,3656.5],[-68.3963,-19.4801,3666.0781],[-68.3975,-19.4743,3656.5],[-68.404,-19.4714,3658.7773],[-68.4046,-19.4639,3659.2417],[-68.4069,-19.4621,3662.4304],[-68.4128,-19.4507,3706.7434],[-68.4115,-19.4399,3656.5],[-68.4258,-19.4355,3656.5],[-68.4406,-19.4404,4021.3079],[-68.5569,-19.5964,4305.9937],[-68.5725,-19.6055,3964.2063],[-68.5988,-19.6407,4574.6748],[-68.6043,-19.6663,4431.4219],[-68.6232,-19.7006,4752.7676],[-68.6594,-19.7088,5435.7188],[-68.6835,-19.7194,5834.3545],[-68.6889,-19.7484,5725.541],[-68.6673,-19.7521,5604.2222],[-68.6519,-19.7722,5599.6851],[-68.6208,-19.7891,5191.6851],[-68.5993,-19.828,4270.4414],[-68.5282,-19.8453,4362.457],[-68.5423,-19.89,4203.0771],[-68.5216,-19.9243,4044.8362],[-68.5515,-20.0213,4056.9915],[-68.5662,-20.0501,3989.2729],[-68.6404,-20.0489,4912.0923],[-68.693,-20.0683,4461.0459],[-68.7635,-20.0787,5018.6055],[-68.7739,-20.1297,4805.8833],[-68.7617,-20.1341,4821.9072],[-68.7417,-20.1252,4615.7593],[-68.7235,-20.1353,4623.5698],[-68.7021,-20.1435,4611.4517],[-68.7047,-20.159,4825.1841],[-68.6917,-20.1772,4928.3687],[-68.7139,-20.1951,4826.6855],[-68.715,-20.2468,4898.396],[-68.695,-20.2791,4465.144],[-68.6924,-20.2955,4744.4893],[-68.6656,-20.3058,4563.6973],[-68.6594,-20.3355,4788.8936],[-68.7108,-20.3664,4004.9185],[-68.7418,-20.3694,4911.8037],[-68.7387,-20.4568,3986.9031],[-68.6662,-20.5166,5121.3647],[-68.6085,-20.5456,3796.2209],[-68.5928,-20.5486,3793.3142],[-68.5709,-20.5756,4045.3257],[-68.52,-20.5873,4989.1377],[-68.4487,-20.6242,5277.418],[-68.4391,-20.641,5122.436],[-68.4281,-20.6251,4922.0708],[-68.4274,-20.6183,4743.1514],[-68.4238,-20.6088,4523.5991],[-68.4189,-20.6031,4386.6421],[-68.4076,-20.5984,4204.1699],[-68.394,-20.5868,4060.093],[-68.3902,-20.5854,4038.3179],[-68.3823,-20.5857,3982.6729],[-68.3748,-20.58,3917.4519],[-68.3679,-20.5714,3849.3757],[-68.3151,-20.5768,4442.2783],[-68.3023,-20.5801,4510.1318],[-68.2781,-20.5767,3815.4133],[-68.27,-20.5734,3745.269],[-68.2665,-20.574,3732.365],[-68.2533,-20.5703,3665.8765],[-68.247,-20.5824,3665.8428],[-68.2399,-20.5884,3668.2917],[-68.2336,-20.5913,3665.7791],[-68.2331,-20.5957,3667.7808],[-68.2312,-20.598,3672.0791],[-68.22,-20.6058,3668.9326],[-68.2136,-20.6075,3667.9829],[-68.2087,-20.604,3666.187],[-68.2045,-20.6037,3666.2681],[-68.165,-20.5695,3655.7925],[-68.149,-20.5377,3653.5],[-67.933,-20.1755,3653.5],[-68.0015,-20.126,3653.5],[-68.0191,-19.821,3653.5],[-68.0439,-19.7676,3653.5],[-68.0918,-19.7084,3796.6853],[-68.1488,-19.6776,3935.3643],[-68.0358,-19.6206,4901.5845],[-68.0422,-19.6184,4784.0371],[-68.0539,-19.61,4321.8711],[-68.0602,-19.5958,3892.6421],[-68.0785,-19.5876,3700.4194],[-68.0881,-19.5764,3657.0059]]]]}}