{"type":"Feature","properties":{"GID_3":"BOL.3.4.2_2","GID_0":"BOL","country":"Bolivia","GID_1":"BOL.3_1","province":"Beni","NL_NAME_1":"NA","GID_2":"BOL.3.4_2","county":"Mamoré","NL_NAME_2":"NA","city":"SanJoaquín","VARNAME_3":"NA","NL_NAME_3":"NA","TYPE_3":"District","ENGTYPE_3":"Distrito","CC_3":"NA","HASC_3":"NA","name":"San_Joaquín.city"},
"geometry":{"type": "MultiPolygon","coordinates": [[[[-64.3778,-12.4529,125.0],[-64.3924,-12.4486,124.5],[-64.4058,-12.4465,124.0],[-64.4123,-12.443,123.5],[-64.4229,-12.4347,122.5],[-64.4347,-12.418,122.0],[-64.4485,-12.407,122.0],[-64.4541,-12.3959,122.0],[-64.4631,-12.3839,122.0],[-64.4764,-12.3802,122.0],[-64.4924,-12.3676,133.2326],[-64.5045,-12.3638,122.0],[-64.5087,-12.3608,122.0],[-64.5127,-12.3548,122.0],[-64.5152,-12.3494,122.0],[-64.5145,-12.343,122.0],[-64.5119,-12.3376,133.5461],[-64.5011,-12.3276,122.0],[-64.4992,-12.3236,122.0],[-64.4936,-12.2889,122.0],[-64.4955,-12.2678,122.0],[-64.5094,-12.2272,122.0],[-64.5135,-12.2234,122.0],[-64.5236,-12.2238,122.0],[-64.547,-12.2396,122.0],[-64.5517,-12.2394,132.741],[-64.5591,-12.2362,124.9864],[-64.5619,-12.2334,123.9322],[-64.5732,-12.2142,125.4704],[-64.5781,-12.2108,124.6724],[-64.5886,-12.2117,122.0],[-64.594,-12.2138,122.0],[-64.5946,-12.2157,122.0],[-64.6088,-12.2181,134.2258],[-64.6157,-12.2165,133.1235],[-64.6293,-12.2095,122.0],[-64.6716,-12.1927,122.0],[-64.6988,-12.1872,122.0],[-64.713,-12.1736,132.9694],[-64.716,-12.1621,122.0],[-64.7248,-12.1624,142.9676],[-64.7313,-12.1556,141.7755],[-64.7317,-12.1195,124.2882],[-64.7355,-12.1111,126.6278],[-64.7337,-12.1181,122.0],[-64.7366,-12.1385,128.3701],[-64.7429,-12.1529,122.0],[-64.7523,-12.1579,122.0],[-64.7642,-12.153,122.0],[-64.7686,-12.1477,122.0],[-64.7702,-12.1416,122.0],[-64.7703,-12.1375,122.0],[-64.7598,-12.1136,122.0],[-64.7617,-12.1026,122.0],[-64.769,-12.0948,123.0391],[-64.7885,-12.0858,122.0],[-64.801,-12.0861,122.0],[-64.8095,-12.0939,134.4994],[-64.822,-12.1186,126.6508],[-64.8262,-12.122,122.0],[-64.8326,-12.1217,131.3721],[-64.8366,-12.1175,122.0],[-64.8417,-12.1097,122.0],[-64.8448,-12.0969,131.3],[-64.8403,-12.0874,122.0],[-64.8343,-12.0801,122.0],[-64.828,-12.0761,122.0],[-64.8173,-12.0723,122.0],[-64.8124,-12.0651,122.0],[-64.8105,-12.0587,122.0],[-64.8144,-12.042,122.0],[-64.8252,-12.0257,122.0],[-64.8391,-12.0228,131.5536],[-64.89,-12.021,130.6057],[-64.8936,-12.018,130.8119],[-64.9144,-12.0279,122.0],[-64.9213,-12.028,127.6359],[-64.9304,-12.0231,124.9599],[-64.9382,-12.01,122.0],[-64.9525,-12.0125,125.3222],[-64.9684,-12.0096,122.0],[-64.971,-12.0166,122.0],[-64.9785,-12.0191,122.0],[-64.986,-12.015,125.8394],[-64.9928,-12.0071,130.8733],[-64.9966,-11.9991,122.0],[-65.0031,-11.9949,131.5412],[-65.0102,-11.9938,122.0],[-65.0226,-11.9991,122.0],[-65.0324,-11.9982,128.6225],[-65.0364,-11.9957,128.7989],[-65.0383,-11.9865,138.1868],[-65.0286,-11.9752,122.0],[-65.0276,-11.9717,122.0],[-65.0282,-11.9693,132.7353],[-65.0318,-11.9665,124.437],[-65.0396,-11.9702,122.0],[-65.0425,-11.977,122.0],[-65.0492,-11.9856,122.9031],[-65.0505,-11.9919,125.0656],[-65.0446,-12.0106,124.8363],[-65.04,-12.0179,125.1916],[-65.0332,-12.0242,125.4135],[-65.0147,-12.0332,126.0181],[-65.0078,-12.035,127.2493],[-65.0004,-12.0337,124.4261],[-65.0019,-12.0422,128.0731],[-64.9996,-12.0427,128.9511],[-64.9991,-12.0406,124.5699],[-64.9953,-12.0404,125.4892],[-64.9939,-12.0428,124.4497],[-64.9952,-12.0441,127.3099],[-64.9916,-12.0453,125.1666],[-64.9891,-12.0509,125.5166],[-64.982,-12.0528,130.7424],[-64.9825,-12.0553,127.4654],[-64.97,-12.0567,126.8164],[-64.9691,-12.0598,127.2222],[-64.9668,-12.0605,129.4536],[-64.9646,-12.0578,127.7352],[-64.9615,-12.062,128.0759],[-64.9635,-12.0678,129.0443],[-64.9604,-12.0691,129.5895],[-64.9618,-12.0741,128.0632],[-64.9599,-12.0813,132.5341],[-64.9588,-12.0823,129.7331],[-64.9513,-12.0813,128.7919],[-64.9496,-12.0836,130.0936],[-64.9487,-12.0878,130.2304],[-64.95,-12.0932,133.4002],[-64.9473,-12.0956,127.8219],[-64.9496,-12.1025,130.3156],[-64.9472,-12.1032,128.2271],[-64.9525,-12.1098,128.052],[-64.9482,-12.1132,126.7437],[-64.9501,-12.1151,127.0885],[-64.9496,-12.1165,129.6594],[-64.9435,-12.1199,130.6551],[-64.9409,-12.1257,128.9503],[-64.9439,-12.1281,129.8232],[-64.9464,-12.139,130.1995],[-64.9437,-12.1507,131.6928],[-64.9477,-12.1538,132.2878],[-64.9465,-12.1574,130.1311],[-64.9428,-12.1599,132.8187],[-64.9451,-12.1639,132.0312],[-64.9428,-12.1686,132.9396],[-64.9455,-12.1703,131.9092],[-64.949,-12.1678,128.3139],[-64.9505,-12.1717,132.2272],[-64.9497,-12.1749,129.7785],[-64.9444,-12.1737,132.6325],[-64.9435,-12.1759,134.6626],[-64.9507,-12.1818,129.6665],[-64.9486,-12.1904,132.1338],[-64.9508,-12.1908,130.8898],[-64.9508,-12.1945,130.1784],[-64.9486,-12.1993,132.1411],[-64.9527,-12.2057,132.2556],[-64.9502,-12.2102,130.9374],[-64.9528,-12.2122,132.0659],[-64.9525,-12.2142,133.0757],[-64.9464,-12.2179,135.4635],[-64.9459,-12.2212,130.8729],[-64.9532,-12.2261,128.7965],[-64.9538,-12.2285,133.828],[-64.9521,-12.2308,137.2897],[-64.9453,-12.2325,132.0207],[-64.9486,-12.2372,131.1673],[-64.9465,-12.2411,128.2068],[-64.9465,-12.2533,127.9071],[-64.9437,-12.2617,131.8789],[-64.9398,-12.2622,132.5364],[-64.9378,-12.2648,130.2555],[-64.94,-12.2754,136.7612],[-64.937,-12.278,137.0861],[-64.9361,-12.2827,140.1203],[-64.9295,-12.2811,138.8423],[-64.9271,-12.2827,137.2816],[-64.9255,-12.2908,133.1425],[-64.9227,-12.2915,139.047],[-64.9198,-12.2949,136.7978],[-64.9199,-12.2997,134.9155],[-64.918,-12.3037,137.0922],[-64.9199,-12.3044,138.2407],[-64.9195,-12.3065,141.9943],[-64.9148,-12.3065,138.0877],[-64.9121,-12.3119,136.8698],[-64.8959,-12.3186,144.3466],[-64.8895,-12.3239,144.1786],[-64.888,-12.3314,144.9574],[-64.8822,-12.339,141.0417],[-64.878,-12.3419,143.7281],[-64.8774,-12.3471,144.8032],[-64.8732,-12.3484,141.0886],[-64.8688,-12.3527,147.3731],[-64.866,-12.361,144.9181],[-64.8606,-12.3686,144.9467],[-64.8577,-12.3782,144.4593],[-64.8532,-12.3827,142.5802],[-64.8424,-12.4123,145.7425],[-64.8317,-12.4223,142.8399],[-64.8248,-12.4254,148.5482],[-64.8226,-12.4391,145.8802],[-64.8149,-12.4566,144.3269],[-64.8167,-12.4762,138.8988],[-64.8139,-12.4896,144.4787],[-64.8143,-12.4996,150.9155],[-64.8201,-12.5134,155.9998],[-64.8207,-12.5214,155.6163],[-64.8267,-12.5349,152.8357],[-64.8151,-12.5496,153.3492],[-64.8147,-12.5864,162.3401],[-64.8189,-12.6172,151.2183],[-64.8174,-12.6346,158.4418],[-64.8209,-12.6505,163.6707],[-64.8212,-12.662,142.599],[-64.8231,-12.6669,131.7366],[-64.8308,-12.6746,131.5486],[-64.8321,-12.6805,131.6234],[-64.8286,-12.6897,131.1361],[-64.8195,-12.6963,131.3699],[-64.8191,-12.7008,141.0957],[-64.82,-12.7048,139.3146],[-64.8309,-12.7183,143.3986],[-64.8353,-12.7345,130.0],[-64.8464,-12.7494,148.3806],[-64.8609,-12.7585,147.1849],[-64.8671,-12.7652,144.3503],[-64.8766,-12.7868,157.8752],[-64.8831,-12.7949,153.3471],[-64.9184,-12.8036,134.1014],[-64.9205,-12.805,132.9281],[-64.923,-12.8104,132.7105],[-64.9261,-12.8115,132.8736],[-64.9302,-12.8188,132.7816],[-64.9319,-12.8258,132.9353],[-64.9425,-12.8304,140.8088],[-64.9468,-12.8285,137.1348],[-64.9498,-12.8215,140.3447],[-64.9561,-12.8198,137.9315],[-64.9599,-12.8221,136.6988],[-64.9644,-12.8218,135.3262],[-64.9685,-12.8185,134.8438],[-64.9721,-12.8192,135.5217],[-64.9761,-12.8152,139.6602],[-64.9804,-12.8144,140.7817],[-64.9859,-12.8094,139.2395],[-64.9904,-12.8101,137.1392],[-65.0046,-12.8033,127.0],[-65.0054,-12.8145,127.0],[-64.9971,-12.8321,127.0],[-64.9979,-12.8385,127.0],[-65.0107,-12.8391,127.0],[-65.0322,-12.8364,127.0],[-65.0567,-12.8466,127.0],[-65.0568,-12.857,127.0],[-65.0498,-12.8825,131.8648],[-65.0474,-12.8876,134.6114],[-65.0352,-12.8923,127.0],[-65.0337,-12.8952,127.0],[-65.0379,-12.9184,127.0],[-65.0243,-12.9347,135.1387],[-65.0192,-12.9474,133.1637],[-65.0195,-12.9564,133.1537],[-65.0237,-12.9757,133.8087],[-65.0347,-12.9962,134.3073],[-65.034,-13.003,129.905],[-65.026,-13.0124,134.5766],[-65.0233,-13.0184,136.4729],[-65.0246,-13.0258,129.6015],[-65.0283,-13.0308,127.0],[-65.0635,-13.0464,127.0],[-65.0762,-13.0624,127.0],[-65.1033,-13.1046,128.5645],[-65.1293,-13.129,127.0],[-65.1342,-13.1298,127.0],[-65.14,-13.1276,127.0],[-65.1495,-13.12,128.0],[-65.1669,-13.1102,128.0],[-65.1764,-13.1087,128.0],[-65.2009,-13.1096,128.0],[-65.2093,-13.1134,135.3703],[-65.2208,-13.1248,128.0],[-65.224,-13.1413,128.0],[-65.2199,-13.1452,128.0],[-65.2132,-13.1453,128.0],[-65.1879,-13.1363,135.4268],[-65.1821,-13.1366,140.2636],[-65.1788,-13.1397,128.0],[-65.1775,-13.1452,137.87],[-65.188,-13.1583,137.7393],[-65.1899,-13.1641,134.1783],[-65.1879,-13.1708,128.0],[-65.1775,-13.181,131.4816],[-65.1751,-13.1864,132.4231],[-65.1765,-13.1943,129.6762],[-65.1811,-13.2008,128.0],[-65.2078,-13.2238,129.0],[-65.2184,-13.2396,129.0],[-65.2364,-13.2758,129.0],[-65.2425,-13.3005,129.0],[-65.2408,-13.3026,129.0],[-65.2356,-13.3029,130.1919],[-65.1948,-13.2999,136.4096],[-65.1904,-13.3007,137.6547],[-65.1894,-13.3076,133.8318],[-65.191,-13.3137,130.0],[-65.2,-13.3238,130.0],[-65.2175,-13.3359,130.0],[-65.2292,-13.3405,130.0],[-65.2608,-13.3574,130.0],[-65.2693,-13.3677,131.3268],[-65.2707,-13.3781,130.0],[-65.2767,-13.3962,138.3721],[-65.2756,-13.3998,131.2879],[-65.2717,-13.4033,130.0],[-65.2655,-13.4036,133.7977],[-65.2549,-13.3953,131.4881],[-65.2472,-13.3926,130.0],[-65.2379,-13.3936,130.0],[-65.2295,-13.3976,137.2082],[-65.2204,-13.4045,132.6311],[-65.217,-13.4101,130.0],[-65.2181,-13.4177,130.0],[-65.2268,-13.4282,130.0],[-65.2767,-13.4717,130.0],[-65.3017,-13.4893,132.4247],[-65.3057,-13.4977,130.0],[-65.3061,-13.5158,130.0],[-65.3045,-13.52,130.0],[-65.2999,-13.5233,130.75],[-65.2966,-13.5229,133.7915],[-65.293,-13.5197,130.0],[-65.2947,-13.5049,139.3283],[-65.2941,-13.4987,140.4857],[-65.2912,-13.4951,138.3342],[-65.2859,-13.4937,131.1096],[-65.2804,-13.4967,130.0],[-65.2772,-13.5012,130.0],[-65.2664,-13.5201,130.0],[-65.2607,-13.5345,138.8042],[-65.259,-13.5415,133.7333],[-65.2601,-13.55,130.0],[-65.2636,-13.5573,130.0],[-65.271,-13.5658,132.8683],[-65.2824,-13.5736,130.0],[-65.3,-13.5791,130.0],[-65.3233,-13.5829,130.0],[-65.3328,-13.5886,130.0],[-65.3384,-13.594,130.0],[-65.3414,-13.6082,130.0],[-65.3408,-13.612,130.0],[-65.3381,-13.6146,132.75],[-65.3323,-13.615,137.4843],[-65.3174,-13.6066,137.2],[-65.3049,-13.6054,130.0],[-65.2952,-13.607,130.0],[-65.2853,-13.6131,137.0774],[-65.2815,-13.6204,130.0],[-65.2906,-13.6278,138.3946],[-65.2991,-13.6305,130.0],[-65.3127,-13.6334,138.16309999999999],[-65.3255,-13.633,140.5294],[-65.3332,-13.6367,131.0],[-65.3394,-13.6433,131.0],[-65.3417,-13.6487,131.0],[-65.342,-13.6535,131.0],[-65.3387,-13.6574,131.0],[-65.3333,-13.6579,131.0],[-65.3101,-13.6514,131.0],[-65.2901,-13.6497,132.61],[-65.2779,-13.6504,132.9069],[-65.2743,-13.6545,131.0],[-65.274,-13.6599,131.0],[-65.2769,-13.6646,131.0],[-65.2921,-13.6737,132.5434],[-65.3238,-13.6841,133.6376],[-65.3298,-13.6872,132.9904],[-65.3327,-13.6906,132.0],[-65.3357,-13.7008,132.0],[-65.3347,-13.7107,132.0],[-65.3279,-13.7294,132.0],[-65.3255,-13.7331,132.0],[-65.3219,-13.7347,139.2121],[-65.319,-13.7322,140.0974],[-65.3128,-13.7203,141.1554],[-65.305,-13.7195,133.278],[-65.2998,-13.715,141.3762],[-65.296,-13.7097,136.1348],[-65.2914,-13.6847,134.0],[-65.2884,-13.6815,134.0],[-65.2847,-13.6814,135.9122],[-65.2812,-13.6849,134.0],[-65.2803,-13.6915,134.0],[-65.28,-13.7204,134.0],[-65.2842,-13.7235,134.0],[-65.2992,-13.722,134.0],[-65.3043,-13.7244,132.0],[-65.3052,-13.7306,132.0],[-65.2968,-13.7679,132.0],[-65.2905,-13.7744,132.0],[-65.2739,-13.783,132.0],[-65.2677,-13.7844,132.0],[-65.2433,-13.7827,139.0613],[-65.2216,-13.7781,141.9066],[-65.2142,-13.7821,142.8487],[-65.2128,-13.7857,132.0],[-65.2137,-13.7896,132.0],[-65.2172,-13.7928,141.4273],[-65.2295,-13.7961,132.0],[-65.2439,-13.7949,142.0818],[-65.2479,-13.7979,142.5908],[-65.2495,-13.8017,135.6643],[-65.2468,-13.8102,141.7124],[-65.2366,-13.8173,132.5],[-65.2292,-13.8313,136.2737],[-65.2223,-13.8313,132.5],[-65.2154,-13.828,132.75],[-65.1805,-13.8044,133.0],[-65.1765,-13.8023,133.5],[-65.173,-13.8029,133.5],[-65.1722,-13.8097,133.5],[-65.183,-13.831,133.5],[-65.1863,-13.8415,145.0195],[-65.1895,-13.8635,135.3441],[-65.198,-13.8791,134.5],[-65.2002,-13.8873,134.5],[-65.1977,-13.8971,142.2431],[-65.1945,-13.9005,136.8061],[-65.1913,-13.9008,135.6465],[-65.1884,-13.8983,136.1223],[-65.1807,-13.8761,140.9666],[-65.178,-13.8721,144.2289],[-65.1743,-13.8702,140.649],[-65.171,-13.8709,134.5],[-65.1683,-13.8741,136.6837],[-65.1631,-13.8879,134.5],[-65.1384,-13.9265,134.5],[-65.1379,-13.9303,134.5],[-65.1428,-13.9423,134.5],[-65.143,-13.9491,140.5017],[-65.1398,-13.9631,137.7467],[-65.1374,-13.9683,140.4345],[-65.1328,-13.9728,141.1684],[-65.1138,-13.9788,141.9768],[-65.0758,-13.9739,146.0731],[-65.0667,-13.971,143.1906],[-65.0641,-13.9687,142.9568],[-65.064,-13.9651,144.1901],[-65.07,-13.9652,146.3877],[-65.0702,-13.961,146.7673],[-65.0632,-13.9576,144.8968],[-65.0605,-13.9539,146.7448],[-65.0607,-13.9494,146.6101],[-65.0556,-13.9485,147.2332],[-65.0512,-13.9453,145.5824],[-65.0528,-13.9381,143.8902],[-65.0601,-13.9323,145.2709],[-65.0616,-13.9275,144.5803],[-65.0519,-13.9254,146.683],[-65.0448,-13.92,148.2081],[-65.0379,-13.9113,147.023],[-65.0343,-13.91,146.981],[-65.0301,-13.9107,148.2296],[-65.0286,-13.9093,146.3719],[-65.032,-13.9044,150.6791],[-65.0314,-13.9003,146.3978],[-65.0375,-13.9001,147.5795],[-65.0433,-13.8952,145.9929],[-65.0448,-13.891,147.8707],[-65.0423,-13.889099999999999,145.412],[-65.0399,-13.8833,145.9851],[-65.0404,-13.8691,145.0919],[-65.0455,-13.8675,143.7799],[-65.0471,-13.8628,149.0031],[-65.0426,-13.8568,145.0629],[-65.0409,-13.8501,147.9878],[-65.0475,-13.8451,149.7903],[-65.0451,-13.8428,143.7222],[-65.0319,-13.8452,144.6949],[-65.0325,-13.8376,143.8019],[-65.0391,-13.8382,144.1155],[-65.0407,-13.8369,147.4925],[-65.0369,-13.8312,143.0124],[-65.0324,-13.8185,146.9017],[-65.0258,-13.8086,145.0736],[-65.0262,-13.8015,144.2768],[-65.0356,-13.7975,143.3164],[-65.0317,-13.7932,142.6477],[-65.0244,-13.7896,146.0918],[-65.0241,-13.7878,142.6671],[-65.0271,-13.787,141.4556],[-65.0302,-13.7827,145.0043],[-65.0241,-13.7786,143.0859],[-65.0215,-13.7748,142.3491],[-65.0242,-13.765,141.9786],[-65.0297,-13.758,142.5482],[-65.0298,-13.7559,142.6213],[-65.0247,-13.753,146.3706],[-65.0169,-13.752,144.2489],[-65.0184,-13.7504,146.444],[-65.0268,-13.7491,142.7379],[-65.0318,-13.7517,143.6538],[-65.0312,-13.7472,142.6605],[-65.0244,-13.7356,142.5834],[-65.023,-13.7274,145.5488],[-65.024,-13.7193,146.0285],[-65.0163,-13.714,144.3076],[-65.0077,-13.7114,141.3904],[-64.9956,-13.7108,141.9633],[-64.9873,-13.7149,147.2386],[-64.9732,-13.7057,142.7473],[-64.966,-13.7049,144.231],[-64.966,-13.7078,143.7327],[-64.9643,-13.7086,141.8496],[-64.9567,-13.6992,143.3948],[-64.9545,-13.6927,143.1225],[-64.9552,-13.6849,141.9162],[-64.9567,-13.6838,144.4063],[-64.963,-13.6874,144.095],[-64.9638,-13.6865,144.095],[-64.9553,-13.674,143.6055],[-64.958,-13.672,144.0241],[-64.9652,-13.6726,140.6226],[-64.9705,-13.6709,141.6617],[-64.9728,-13.6668,141.0836],[-64.9665,-13.6616,140.8483],[-64.9679,-13.6584,143.5086],[-64.9632,-13.6573,140.6999],[-64.9584,-13.6529,141.4809],[-64.9584,-13.6488,139.7707],[-64.9653,-13.6482,143.2178],[-64.9631,-13.639,139.4847],[-64.9666,-13.6368,140.1569],[-64.9716,-13.6302,140.663],[-64.9742,-13.6303,140.5243],[-64.9764,-13.6344,141.2984],[-64.9777,-13.6341,141.2984],[-64.979,-13.6309,142.0756],[-64.9768,-13.6248,140.8828],[-64.9779,-13.6209,139.239],[-64.9807,-13.6195,140.8469],[-64.9837,-13.6212,141.7079],[-64.9871,-13.6206,142.6634],[-64.9857,-13.61,143.8094],[-64.9822,-13.6048,140.4277],[-64.9771,-13.6059,141.1649],[-64.9707,-13.6049,141.8184],[-64.9603,-13.6076,139.4722],[-64.9532,-13.6065,141.2787],[-64.9502,-13.6025,139.6363],[-64.9498,-13.5976,139.9628],[-64.9469,-13.5955,138.9785],[-64.9406,-13.5966,142.6773],[-64.938,-13.5918,138.8203],[-64.9331,-13.5965,142.7854],[-64.9297,-13.5899,139.1576],[-64.9204,-13.5912,138.8208],[-64.9161,-13.5852,138.9381],[-64.9221,-13.581,143.9747],[-64.9271,-13.5797,140.1078],[-64.9284,-13.5774,140.9058],[-64.9273,-13.5759,143.8451],[-64.9136,-13.5739,141.2035],[-64.9214,-13.5576,139.9786],[-64.9208,-13.5484,140.7906],[-64.9153,-13.538,143.0236],[-64.9189,-13.5368,139.0805],[-64.9242,-13.5385,139.0778],[-64.9239,-13.5359,139.2991],[-64.9272,-13.5334,138.6247],[-64.9298,-13.5274,137.9708],[-64.9288,-13.5219,140.9572],[-64.9157,-13.5181,139.7297],[-64.9154,-13.5143,139.3027],[-64.9179,-13.5115,139.9871],[-64.9255,-13.5137,139.5186],[-64.9282,-13.5101,141.3047],[-64.9264,-13.5064,138.9425],[-64.9179,-13.5004,139.4501],[-64.9118,-13.5011,137.7988],[-64.9096,-13.5036,139.5142],[-64.8969,-13.5018,137.4203],[-64.8947,-13.4996,138.0891],[-64.8951,-13.4956,138.1813],[-64.8937,-13.4948,137.0604],[-64.8959,-13.4883,141.2935],[-64.8827,-13.4829,138.3141],[-64.884,-13.48,138.5715],[-64.8888,-13.4767,138.5454],[-64.8983,-13.4746,140.4673],[-64.9066,-13.4703,139.3926],[-64.9035,-13.4662,139.9561],[-64.8768,-13.452,140.2911],[-64.8754,-13.4535,138.7792],[-64.878,-13.4549,138.6499],[-64.8791,-13.4584,138.3433],[-64.8767,-13.4635,138.8873],[-64.8777,-13.4657,136.9441],[-64.876,-13.4663,137.9798],[-64.8704,-13.4617,138.1165],[-64.8679,-13.4451,138.075],[-64.866,-13.4424,139.9682],[-64.8689,-13.4395,136.8041],[-64.8645,-13.4388,139.2391],[-64.8634,-13.4361,137.0524],[-64.8657,-13.4278,139.1699],[-64.8685,-13.4258,136.8755],[-64.8694,-13.4228,136.711],[-64.8645,-13.4154,139.5203],[-64.8661,-13.4138,140.4541],[-64.8742,-13.4128,139.3371],[-64.8773,-13.4097,137.6048],[-64.8764,-13.4059,137.1168],[-64.8744,-13.4035,137.7069],[-64.8684,-13.4013,140.093],[-64.8666,-13.3987,141.5698],[-64.8648,-13.3995,138.875],[-64.8509,-13.3908,136.8543],[-64.8455,-13.3796,138.0067],[-64.8413,-13.3748,138.6113],[-64.8398,-13.3755,137.9339],[-64.8392,-13.3815,139.6228],[-64.8357,-13.3848,137.6077],[-64.8343,-13.3844,137.5166],[-64.8342,-13.3819,138.4384],[-64.8317,-13.3816,141.5405],[-64.8326,-13.3786,137.3973],[-64.8393,-13.3719,138.8932],[-64.8453,-13.3706,136.4754],[-64.8459,-13.3661,136.7088],[-64.8429,-13.3573,138.6769],[-64.8371,-13.3597,138.8589],[-64.8273,-13.3588,138.447],[-64.8106,-13.3533,137.6274],[-64.8088,-13.3515,141.4442],[-64.8085,-13.345,139.4995],[-64.8031,-13.3402,143.3046],[-64.8001,-13.3331,140.688],[-64.7981,-13.3327,140.1317],[-64.7909,-13.3333,141.4696],[-64.791,-13.3351,142.8425],[-64.7926,-13.3355,143.1525],[-64.7916,-13.3376,143.2773],[-64.7951,-13.3433,141.2693],[-64.7981,-13.343,140.7067],[-64.8011,-13.3448,142.1786],[-64.8047,-13.3498,138.26],[-64.8042,-13.3523,137.25],[-64.7845,-13.3527,136.1206],[-64.7807,-13.3492,140.5569],[-64.7751,-13.3488,141.2504],[-64.7737,-13.346,142.1891],[-64.7754,-13.3436,141.9563],[-64.7786,-13.343,142.4872],[-64.7782,-13.3414,139.6222],[-64.7732,-13.3414,139.298],[-64.7701,-13.346,140.1179],[-64.7641,-13.3359,142.6987],[-64.7677,-13.3333,140.4796],[-64.7749,-13.334,142.2728],[-64.7797,-13.3299,140.5066],[-64.7795,-13.3264,139.509],[-64.7727,-13.3222,138.4989],[-64.7711,-13.3176,140.3945],[-64.7679,-13.3208,138.5725],[-64.7682,-13.3255,141.0901],[-64.7635,-13.329,138.5205],[-64.7626,-13.3278,136.6704],[-64.7637,-13.326599999999999,136.6704],[-64.7539,-13.3146,144.7641],[-64.7517,-13.3152,139.5611],[-64.7504,-13.3207,142.9247],[-64.7427,-13.3088,138.3724],[-64.7391,-13.3095,141.7105],[-64.7385,-13.3129,141.7657],[-64.7354,-13.3156,140.615],[-64.7244,-13.3175,140.7013],[-64.7226,-13.3162,138.5195],[-64.7236,-13.31,144.9649],[-64.7146,-13.3096,142.7349],[-64.7092,-13.3078,141.6806],[-64.7144,-13.3014,144.7396],[-64.7135,-13.2994,144.2212],[-64.7097,-13.2997,141.0757],[-64.7091,-13.3022,143.1251],[-64.7064,-13.3012,141.6005],[-64.7046,-13.3045,141.0019],[-64.7029,-13.3021,139.3644],[-64.7006,-13.304,137.7786],[-64.6996,-13.2928,139.5544],[-64.6969,-13.2936,138.6702],[-64.6971,-13.2911,144.6874],[-64.6948,-13.2921,139.5859],[-64.695,-13.2901,141.8286],[-64.6932,-13.291,140.381],[-64.6913,-13.2867,141.0583],[-64.6892,-13.2868,140.7675],[-64.6906,-13.2852,137.8855],[-64.6931,-13.2862,142.0995],[-64.6948,-13.2824,141.1231],[-64.6979,-13.2821,143.4404],[-64.6973,-13.28,142.4209],[-64.6991,-13.2799,142.9811],[-64.6989,-13.2777,142.1015],[-64.7009,-13.2758,141.4854],[-64.6994,-13.2729,139.6858],[-64.6975,-13.2745,139.7326],[-64.6956,-13.2735,137.7706],[-64.6961,-13.276,143.0093],[-64.6923,-13.2732,140.3166],[-64.6913,-13.2746,144.3065],[-64.6897,-13.2733,140.0521],[-64.6888,-13.2752,145.481],[-64.6868,-13.2741,139.7437],[-64.6861,-13.2755,142.0291],[-64.6846,-13.274,137.4189],[-64.6826,-13.277,138.4774],[-64.6835,-13.2783,143.9087],[-64.6857,-13.2776,138.9951],[-64.6858,-13.28,137.6158],[-64.6828,-13.2798,139.5514],[-64.6846,-13.2819,137.6558],[-64.6806,-13.2815,138.0177],[-64.6797,-13.2837,139.4671],[-64.6785,-13.2816,137.5646],[-64.6782,-13.2839,139.4671],[-64.6769,-13.282,139.153],[-64.6761,-13.2844,138.1422],[-64.6753,-13.2825,138.797],[-64.6742,-13.2836,134.6187],[-64.6745,-13.2819,138.797],[-64.6716,-13.283,139.3831],[-64.6682,-13.2794,137.5595],[-64.6664,-13.2725,139.2487],[-64.6586,-13.2601,139.3492],[-64.6589,-13.2562,136.8917],[-64.6604,-13.2523,140.066],[-64.664,-13.2499,137.4285],[-64.6665,-13.2519,139.4854],[-64.6651,-13.254,138.1698],[-64.6665,-13.2551,142.5492],[-64.668,-13.2543,137.03],[-64.6677,-13.2564,139.7744],[-64.6696,-13.256,136.124],[-64.6707,-13.2579,134.0733],[-64.6743,-13.255,136.8101],[-64.673,-13.2526,134.5388],[-64.6754,-13.2516,134.6628],[-64.6728,-13.2502,136.5688],[-64.6706,-13.2459,132.7044],[-64.6726,-13.2433,136.8211],[-64.6688,-13.2399,135.6768],[-64.6663,-13.2426,134.884],[-64.6676,-13.2441,134.2427],[-64.6651,-13.2453,136.6193],[-64.6642,-13.2437,134.995],[-64.6636,-13.2458,136.6193],[-64.6615,-13.2439,133.1479],[-64.6594,-13.2444,133.9132],[-64.6581,-13.2412,139.4866],[-64.6576,-13.2429,131.923],[-64.6558,-13.2414,132.7204],[-64.6545,-13.2424,135.9439],[-64.6551,-13.2378,132.743],[-64.6594,-13.2367,136.7168],[-64.6599,-13.2335,133.8904],[-64.661,-13.2338,133.8904],[-64.661,-13.2322,130.7479],[-64.6631,-13.2334,139.4227],[-64.665,-13.2303,133.4734],[-64.6626,-13.2269,131.5483],[-64.66,-13.2279,131.4728],[-64.6563,-13.2241,130.2326],[-64.6547,-13.2249,135.6953],[-64.6551,-13.2229,132.5584],[-64.6505,-13.2247,137.5777],[-64.647,-13.2223,132.8733],[-64.6466,-13.2196,132.0869],[-64.6502,-13.2153,134.5114],[-64.6438,-13.2073,133.1007],[-64.6446,-13.2059,133.9368],[-64.6521,-13.2044,134.5392],[-64.6606,-13.2057,132.8528],[-64.6651,-13.1977,135.7598],[-64.6656,-13.1936,139.9812],[-64.6617,-13.1879,137.0683],[-64.6494,-13.1941,133.5283],[-64.6477,-13.194,132.8604],[-64.6474,-13.1923,132.1602],[-64.6495,-13.1866,133.2564],[-64.6593,-13.1735,135.2748],[-64.6615,-13.1681,139.9333],[-64.661,-13.1653,131.3976],[-64.6575,-13.1636,129.7549],[-64.6604,-13.1629,138.5534],[-64.6672,-13.1664,140.2706],[-64.6701,-13.1724,134.4355],[-64.6718,-13.1723,139.1392],[-64.6733,-13.1695,133.4157],[-64.6734,-13.1573,132.5567],[-64.6749,-13.1523,132.4217],[-64.6691,-13.1462,138.8535],[-64.6695,-13.1382,145.4318],[-64.663,-13.139,131.0804],[-64.6615,-13.1371,138.4397],[-64.6635,-13.1322,130.8633],[-64.6721,-13.1335,139.8543],[-64.6724,-13.1295,132.4328],[-64.6702,-13.126,131.2392],[-64.6659,-13.1255,131.0387],[-64.6613,-13.1283,138.2772],[-64.6581,-13.1264,136.1393],[-64.6603,-13.1023,131.7198],[-64.6495,-13.0991,133.0538],[-64.6443,-13.0919,128.5141],[-64.6424,-13.0961,131.5599],[-64.6376,-13.0953,130.7446],[-64.6388,-13.0767,139.5973],[-64.6362,-13.0714,130.2733],[-64.6452,-13.0672,138.7404],[-64.6452,-13.0638,136.6213],[-64.6432,-13.0604,133.6467],[-64.6363,-13.0629,133.0215],[-64.6333,-13.0613,138.7731],[-64.6367,-13.0565,133.1098],[-64.6446,-13.0522,131.9859],[-64.6445,-13.0482,129.3998],[-64.6405,-13.0417,138.2701],[-64.6486,-13.0394,132.9313],[-64.6496,-13.0377,129.3303],[-64.6466,-13.0315,135.7497],[-64.642,-13.0295,138.5527],[-64.6451,-13.0238,138.5639],[-64.6505,-13.0189,134.0395],[-64.6516,-13.0081,142.2703],[-64.6405,-12.9985,139.4633],[-64.6432,-12.9966,142.6866],[-64.6474,-12.9888,133.3454],[-64.6445,-12.987,133.534],[-64.6388,-12.9882,145.7145],[-64.6342,-12.982,142.8172],[-64.6216,-12.9772,130.5622],[-64.6261,-12.9571,131.3039],[-64.6194,-12.9377,129.8718],[-64.611,-12.9322,129.137],[-64.6108,-12.9304,131.781],[-64.6138,-12.9273,130.3751],[-64.6133,-12.9248,134.5213],[-64.6113,-12.9249,131.569],[-64.6103,-12.9273,141.616],[-64.6069,-12.9289,134.7141],[-64.5919,-12.9234,136.6952],[-64.5874,-12.9184,142.9362],[-64.5921,-12.9144,137.8204],[-64.5946,-12.9093,130.2377],[-64.5946,-12.9055,133.0333],[-64.5874,-12.8978,133.2398],[-64.5587,-12.8917,141.1727],[-64.5569,-12.8898,131.6651],[-64.5569,-12.8858,142.1479],[-64.5588,-12.884,131.4747],[-64.5645,-12.888,141.6994],[-64.5702,-12.8873,132.7523],[-64.5669,-12.8788,131.5357],[-64.5556,-12.8752,134.6777],[-64.5445,-12.8794,133.3204],[-64.5316,-12.8811,129.4532],[-64.5188,-12.8714,138.226],[-64.5171,-12.8676,140.5118],[-64.5202,-12.8468,142.7882],[-64.5281,-12.8358,139.6744],[-64.527,-12.8283,137.2223],[-64.5232,-12.8211,134.6328],[-64.5207,-12.8112,134.0279],[-64.5154,-12.8063,130.75],[-64.5206,-12.7945,135.2128],[-64.5177,-12.785,131.3748],[-64.4995,-12.774,138.5462],[-64.4955,-12.7673,137.4759],[-64.4919,-12.7655,142.4937],[-64.4888,-12.7648,147.7805],[-64.4751,-12.7673,135.9089],[-64.4729,-12.7648,131.7953],[-64.4756,-12.7608,139.0663],[-64.4745,-12.758,143.3261],[-64.4725,-12.7574,134.256],[-64.4665,-12.7636,144.1208],[-64.4632,-12.7515,135.5121],[-64.4613,-12.7496,144.5945],[-64.4571,-12.7469,141.8391],[-64.4467,-12.7459,128.6295],[-64.4458,-12.7445,134.5753],[-64.4455,-12.7235,131.947],[-64.4369,-12.7198,146.1921],[-64.431,-12.7207,133.863],[-64.4187,-12.7262,133.1132],[-64.4157,-12.7261,141.4134],[-64.4051,-12.7142,129.185],[-64.4042,-12.7111,140.4165],[-64.4074,-12.701599999999999,138.2875],[-64.3961,-12.6987,133.6862],[-64.3991,-12.6946,144.118],[-64.4044,-12.6923,134.7047],[-64.4307,-12.6878,143.4771],[-64.4362,-12.6685,133.4991],[-64.4335,-12.6594,138.5421],[-64.42,-12.656,134.7294],[-64.4101,-12.6564,139.5657],[-64.4049,-12.6548,134.6124],[-64.3991,-12.6489,130.616],[-64.3961,-12.6414,131.3888],[-64.3945,-12.6295,132.6676],[-64.3954,-12.6268,135.6979],[-64.4045,-12.6256,132.3292],[-64.4113,-12.6221,132.6807],[-64.4163,-12.6215,135.0343],[-64.4213,-12.6121,131.601],[-64.4203,-12.6095,133.0248],[-64.4029,-12.6056,134.4289],[-64.3948,-12.6062,132.5142],[-64.3776,-12.5925,131.1445],[-64.3822,-12.5853,134.9159],[-64.3795,-12.5678,144.4277],[-64.3809,-12.5589,132.6916],[-64.3828,-12.5565,135.9645],[-64.3899,-12.554,141.7989],[-64.3949,-12.5463,140.7868],[-64.3976,-12.5472,143.2396],[-64.3997,-12.5551,135.4901],[-64.4017,-12.557,134.4679],[-64.4084,-12.5538,138.4712],[-64.4073,-12.549,133.0157],[-64.404,-12.5448,140.0927],[-64.3918,-12.5425,130.3899],[-64.3875,-12.5464,145.6727],[-64.3777,-12.543,141.8263],[-64.3686,-12.544,143.0852],[-64.3721,-12.5363,140.9512],[-64.3794,-12.5319,135.4729],[-64.3791,-12.5294,131.3702],[-64.376,-12.5263,129.4764],[-64.3756,-12.5203,133.7962],[-64.3717,-12.5082,136.332],[-64.3672,-12.5052,131.5239],[-64.3523,-12.5103,131.0934],[-64.347,-12.5094,131.5402],[-64.344,-12.5065,139.2191],[-64.3455,-12.5037,134.4438],[-64.356,-12.4966,136.5829],[-64.3601,-12.4876,128.6947],[-64.3604,-12.4822,132.7023],[-64.3624,-12.4806,130.3448],[-64.3697,-12.4812,132.0375],[-64.3757,-12.4782,128.0652],[-64.376,-12.4839,128.8533],[-64.3791,-12.4842,129.2567],[-64.3863,-12.4723,129.0553],[-64.3895,-12.4734,130.5295],[-64.3916,-12.4776,132.5422],[-64.3935,-12.4772,129.7812],[-64.3937,-12.474,134.1475],[-64.3872,-12.4663,135.5678],[-64.3801,-12.4645,141.6278],[-64.3773,-12.462,128.0612],[-64.3758,-12.458,129.7796],[-64.3778,-12.4529,125.0]]]]}}