{"type": "Feature","bbox": [-63.4297,-17.6334,-63.1977,-17.4409],"geometry": {"type": "MultiPolygon","coordinates": [[[[-63.1998,-17.6114,359.941],[-63.1977,-17.6031,357.7495],[-63.1983,-17.5931,352.25],[-63.2009,-17.5848,351.9918],[-63.2048,-17.5803,356.4354],[-63.2067,-17.5709,353.5867],[-63.2105,-17.5638,349.1227],[-63.2092,-17.555,344.5709],[-63.2136,-17.5462,341.1428],[-63.2141,-17.5408,341.1408],[-63.2118,-17.5298,337.4461],[-63.2137,-17.5109,332.0986],[-63.219,-17.5028,330.1026],[-63.2224,-17.4857,326.5786],[-63.2335,-17.4717,323.6099],[-63.2343,-17.466,320.001],[-63.2408,-17.4533,317.3839],[-63.2487,-17.4446,314.9619],[-63.2561,-17.4409,312.6856],[-63.3275,-17.4718,311.4131],[-63.3678,-17.5164,321.2103],[-63.4064,-17.5463,345.4311],[-63.4297,-17.5604,347.5726],[-63.4191,-17.5659,377.0267],[-63.4141,-17.5627,377.7437],[-63.4059,-17.5606,370.6569],[-63.4038,-17.5613,351.5936],[-63.403,-17.5662,352.3438],[-63.3864,-17.565,339.4865],[-63.3864,-17.5686,340.4473],[-63.3846,-17.5709,340.8356],[-63.3747,-17.5692,343.6331],[-63.3675,-17.573,345.8234],[-63.364,-17.5788,347.5145],[-63.3617,-17.5921,351.2265],[-63.3546,-17.6029,354.9051],[-63.3544,-17.6196,359.6287],[-63.3568,-17.6238,360.7902],[-63.3299,-17.6329,361.7295],[-63.3278,-17.6253,374.6433],[-63.3334,-17.6196,355.9673],[-63.3336,-17.611,353.9045],[-63.33,-17.6113,355.9259],[-63.3248,-17.6159,362.2101],[-63.3218,-17.6121,364.6497],[-63.3172,-17.6106,378.5016],[-63.3124,-17.6186,369.5087],[-63.3059,-17.6208,386.6303],[-63.3045,-17.6231,377.8465],[-63.302,-17.6219,391.3513],[-63.2994,-17.6308,383.9714],[-63.2957,-17.6334,391.9081],[-63.2665,-17.6202,374.1001],[-63.2634,-17.6153,369.0946],[-63.2601,-17.6132,375.9628],[-63.2605,-17.6109,364.9999],[-63.2569,-17.6068,361.3419],[-63.2481,-17.6033,376.6763],[-63.239,-17.6078,357.6096],[-63.2152,-17.6154,370.8575],[-63.2061,-17.6114,365.6555],[-63.1998,-17.6114,359.941]]]]}
,"properties": {"GID_3": "BOL.8.12.1_2","GID_0": "BOL","country": "Bolivia","GID_1": "BOL.8_1","province": "SantaCruz","NL_NAME_1": "NA","GID_2": "BOL.8.12_2","county": "Sara","NL_NAME_2": "NA","city": "ColpaBélgica","VARNAME_3": "NA","NL_NAME_3": "NA","TYPE_3": "District","ENGTYPE_3": "Distrito","CC_3": "NA","HASC_3": "NA","name": "Colpa_Bélgica.city","area_km2": 292.9306,"hist_schema_id": "Elevation0-9000","hist_area_km2": {"300": 1.3551,"325": 79.8955,"350": 122.4057,"375": 65.6898,"400": 23.4027,"425": 0.1819}}}