{"type": "Feature","bbox": [-65.7479,-17.9014,-65.5016,-17.6517],"geometry": {"type": "MultiPolygon","coordinates": [[[[-65.7342,-17.6732,3363.3171],[-65.7393,-17.6795,3499.4646],[-65.7479,-17.7035,3578.1074],[-65.7441,-17.7041,3568.4595],[-65.7342,-17.7131,3548.8528],[-65.7227,-17.718,3472.532],[-65.7199,-17.7315,3431.8545],[-65.7164,-17.7353,3410.208],[-65.7129,-17.7358,3529.144],[-65.7067,-17.7465,3686.228],[-65.7116,-17.7613,3841.3176],[-65.7182,-17.7731,3849.3086],[-65.7212,-17.775,3845.2734],[-65.7236,-17.8008,3622.563],[-65.722,-17.8259,3421.7449],[-65.7111,-17.832,3397.6746],[-65.7094,-17.8392,3399.9836],[-65.7031,-17.8371,3457.6128],[-65.7009,-17.8324,3253.3105],[-65.6974,-17.8296,3211.3586],[-65.6938,-17.832,3250.8201],[-65.6944,-17.8341,3241.6165],[-65.6895,-17.838,3197.916],[-65.6871,-17.8565,3158.9749],[-65.6768,-17.863,3481.7776],[-65.6684,-17.8631,3282.1643],[-65.6632,-17.8682,3219.5723],[-65.6594,-17.8662,3288.8904],[-65.663,-17.8732,3158.2656],[-65.6598,-17.8738,3163.1694],[-65.6594,-17.8757,3214.7886],[-65.6624,-17.8776,3162.8149],[-65.6568,-17.8821,3136.8538],[-65.6558,-17.8866,3120.3984],[-65.6516,-17.8872,3092.8503],[-65.648,-17.8913,3077.7854],[-65.6506,-17.8966,3204.76],[-65.6457,-17.8975,3234.6162],[-65.6438,-17.901,3251.3354],[-65.6401,-17.9014,3327.1685],[-65.6404,-17.8988,3245.0176],[-65.6342,-17.8961,3027.6392],[-65.6313,-17.8901,2954.666],[-65.6311,-17.8923,2953.3269],[-65.6294,-17.8905,2952.6138],[-65.6266,-17.8953,2983.3086],[-65.6248,-17.8938,2947.188],[-65.6233,-17.8956,2938.4456],[-65.6191,-17.8879,3185.2505],[-65.6165,-17.8881,3130.2314],[-65.6121,-17.8954,3205.2307],[-65.6093,-17.8944,3231.8711],[-65.6069,-17.8859,3304.2256],[-65.6009,-17.8842,3412.7537],[-65.5909,-17.8871,3341.646],[-65.5901,-17.8906,3322.687],[-65.5858,-17.8931,3335.2798],[-65.583,-17.8904,3229.2998],[-65.5839,-17.8844,3181.7083],[-65.5816,-17.8845,3165.9749],[-65.5724,-17.876,2908.5647],[-65.5627,-17.8732,3153.1348],[-65.5587,-17.8645,3309.0942],[-65.5394,-17.8509,3562.0205],[-65.5376,-17.8479,3458.1746],[-65.5428,-17.8324,3277.856],[-65.5493,-17.8253,3208.8135],[-65.5485,-17.8123,3021.9187],[-65.5529,-17.8091,3057.083],[-65.5552,-17.8098,3109.0181],[-65.5591,-17.793,3120.0151],[-65.5407,-17.7846,3422.0693],[-65.5396,-17.7805,3578.3516],[-65.5257,-17.7745,3224.2983],[-65.5184,-17.7691,3483.9795],[-65.5016,-17.7624,3802.3667],[-65.5033,-17.7544,3871.4727],[-65.5248,-17.7385,3956.7073],[-65.528,-17.7327,3988.0571],[-65.5332,-17.7296,4007.5146],[-65.5398,-17.7201,4041.9697],[-65.5491,-17.7149,4091.489],[-65.5521,-17.7084,4079.0435],[-65.5777,-17.6953,4096.3696],[-65.5863,-17.6871,4147.668],[-65.6235,-17.6736,4178.6235],[-65.6382,-17.6624,4129.7832],[-65.6539,-17.6572,4146.3457],[-65.6614,-17.6517,4142.208],[-65.6647,-17.658,4106.5557],[-65.6761,-17.6698,3986.918],[-65.6826,-17.6702,3915.4092],[-65.6891,-17.6736,3926.1553],[-65.6974,-17.6749,3848.4072],[-65.7032,-17.6827,3970.4104],[-65.7078,-17.6835,4090.5195],[-65.7164,-17.6811,3866.9678],[-65.7197,-17.6779,3735.6072],[-65.7292,-17.678,3485.7917],[-65.7342,-17.6732,3363.3171]]]]}
,"properties": {"GID_3": "BOL.2.12.1_2","GID_0": "BOL","country": "Bolivia","GID_1": "BOL.2_1","province": "Cochabamba","NL_NAME_1": "NA","GID_2": "BOL.2.12_2","county": "Mizque","NL_NAME_2": "NA","city": "Alalay","VARNAME_3": "NA","NL_NAME_3": "NA","TYPE_3": "District","ENGTYPE_3": "Distrito","CC_3": "NA","HASC_3": "NA","name": "Alalay.city","area_km2": 420.1591,"hist_schema_id": "Elevation0-9000","hist_area_km2": {"2875": 0.0807,"2900": 0.222,"2925": 0.3834,"2950": 0.5448,"2975": 0.7668,"3000": 1.1098,"3025": 1.8162,"3050": 2.0989,"3075": 2.9465,"3100": 2.9265,"3125": 3.7137,"3150": 4.7834,"3175": 6.1358,"3200": 6.7616,"3225": 7.8111,"3250": 9.8904,"3275": 12.1513,"3300": 12.9389,"3325": 15.0788,"3350": 14.9177,"3375": 15.9069,"3400": 16.4322,"3425": 16.3716,"3450": 16.7155,"3475": 15.747,"3500": 15.4451,"3525": 15.6879,"3550": 16.6368,"3575": 16.1323,"3600": 14.7997,"3625": 13.9521,"3650": 10.4191,"3675": 9.9146,"3700": 7.5117,"3725": 6.1387,"3750": 5.6137,"3775": 4.9072,"3800": 4.4833,"3825": 4.7661,"3850": 5.251,"3875": 5.5743,"3900": 7.1902,"3925": 6.4229,"3950": 7.5338,"3975": 9.4526,"4000": 8.1803,"4025": 9.3114,"4050": 7.3524,"4075": 5.7972,"4100": 4.6461,"4125": 2.9493,"4150": 2.5857,"4175": 1.8988,"4200": 0.9292,"4225": 0.4242}}}