{"type":"Feature","properties":{"GID_3":"BOL.8.11.3_2","GID_0":"BOL","country":"Bolivia","GID_1":"BOL.8_1","province":"SantaCruz","NL_NAME_1":"NA","GID_2":"BOL.8.11_2","county":"ObispoSantistéban","NL_NAME_2":"NA","city":"Mineros","VARNAME_3":"NA","NL_NAME_3":"NA","TYPE_3":"District","ENGTYPE_3":"Distrito","CC_3":"NA","HASC_3":"NA","name":"Mineros.city"},
"geometry":{"type": "MultiPolygon","coordinates": [[[[-63.0488,-16.9647,240.0191],[-63.0514,-16.9696,239.7656],[-63.0548,-16.9715,239.1194],[-63.1221,-16.9706,238.2375],[-63.1448,-16.9893,235.8739],[-63.1707,-16.9894,233.2194],[-63.1707,-17.0223,236.0259],[-63.2838,-17.0473,237.4007],[-63.3021,-17.0474,236.9903],[-63.3021,-17.0254,233.843],[-63.3316,-17.0258,235.1152],[-63.3284,-17.0134,233.4781],[-63.331,-17.0075,232.6965],[-63.3363,-17.0041,231.6753],[-63.3384,-16.9979,232.0058],[-63.3319,-16.9931,230.0487],[-63.3306,-16.9849,231.1036],[-63.3343,-16.9796,230.8362],[-63.3389,-16.9764,230.4299],[-63.339,-16.9731,230.3363],[-63.3435,-16.97,227.4269],[-63.3431,-16.9639,226.5828],[-63.3473,-16.9561,231.5311],[-63.3506,-16.953,227.5992],[-63.3574,-16.9505,227.3158],[-63.3594,-16.9457,224.946],[-63.4439,-16.9647,224.487],[-63.4451,-16.9699,224.7526],[-63.4486,-16.9725,233.4543],[-63.447,-16.9751,225.9802],[-63.4453,-16.9746,226.226],[-63.4429,-16.9766,227.2884],[-63.4433,-16.9816,227.615],[-63.4418,-16.9831,225.3506],[-63.4369,-16.9817,228.2258],[-63.4337,-16.989,229.8756],[-63.43,-16.9867,231.7139],[-63.426,-16.9898,232.4848],[-63.4201,-16.9986,231.733],[-63.4222,-17.0075,232.3331],[-63.4201,-17.0088,230.9846],[-63.4201,-17.0109,233.0652],[-63.4165,-17.0094,230.8833],[-63.4141,-17.0103,232.1303],[-63.411,-17.0143,231.396],[-63.4097,-17.0204,232.1332],[-63.4076,-17.0221,232.871],[-63.4088,-17.0291,244.4995],[-63.4037,-17.0404,234.58],[-63.4065,-17.0423,233.8098],[-63.4079,-17.0457,237.528],[-63.4025,-17.055,237.2948],[-63.4017,-17.0607,239.9789],[-63.3953,-17.0634,239.7337],[-63.3949,-17.0666,240.328],[-63.3895,-17.0703,242.7447],[-63.3884,-17.074,240.7542],[-63.3853,-17.0757,243.11],[-63.3871,-17.0851,245.2096],[-63.386,-17.0899,242.6261],[-63.3826,-17.0918,245.6057],[-63.3778,-17.0984,249.0485],[-63.3684,-17.1011,246.4918],[-63.3678,-17.1041,245.6284],[-63.3709,-17.1097,248.4449],[-63.3711,-17.1188,249.0344],[-63.3676,-17.1208,249.6184],[-63.3637,-17.13,250.162],[-63.3604,-17.1298,249.7517],[-63.3576,-17.1318,250.0864],[-63.3533,-17.1514,252.0863],[-63.3493,-17.1541,252.6136],[-63.3427,-17.164,256.0146],[-63.2576,-17.1354,253.5357],[-63.2532,-17.1372,250.0],[-63.2483,-17.1367,250.0],[-63.2466,-17.1401,253.5751],[-63.239,-17.1382,250.7448],[-63.2383,-17.143,252.9875],[-63.2275,-17.1393,253.6983],[-63.2271,-17.1411,253.5573],[-63.2197,-17.1399,251.9607],[-63.2203,-17.131,251.3726],[-63.2047,-17.1288,250.8546],[-63.1889,-17.1226,246.978],[-63.1869,-17.1258,247.7387],[-63.1789,-17.1232,248.1522],[-63.1756,-17.1139,245.1595],[-63.1757,-17.1027,244.5916],[-63.1787,-17.0983,244.0798],[-63.177,-17.0894,242.3942],[-63.181,-17.0797,243.9613],[-63.1805,-17.0757,241.1566],[-63.1714,-17.0751,241.577],[-63.1724,-17.0568,239.169],[-63.135,-17.0563,236.6601],[-63.1223,-17.0551,238.5728],[-63.1177,-17.0529,238.3801],[-63.1198,-17.0484,236.4673],[-63.1212,-17.0364,237.5874],[-63.0863,-17.0095,240.9383],[-63.0854,-17.0102,243.3031],[-63.0676,-16.9976,240.2944],[-63.0504,-16.991,241.815],[-63.0438,-16.9857,240.7068],[-63.0407,-16.9732,240.0575],[-63.0488,-16.9647,240.0191]]]]}}