{"type": "Feature","id": "1941","bbox": [-65.32854,-22.87194,-62.27188,-20.89144],"geometry": {"type": "Polygon","coordinates": [[[-64.14259,-20.91635,692.8893],[-64.15649,-20.90751,633.543],[-64.16874,-20.89454,676.2344],[-64.17517,-20.89144,742.3099],[-64.18287,-20.90911,741.2535],[-64.18442,-20.91418,752.925],[-64.18582,-20.92363,699.7562],[-64.18654,-20.94833,682.3524],[-64.18055,-21.00823,840.5239],[-64.18075,-21.01334,866.4674],[-64.18267,-21.01929,758.832],[-64.18639,-21.02564,1002.1021],[-64.19349,-21.03437,743.854],[-64.19522,-21.04058,1114.9213],[-64.19595,-21.04574,770.8986],[-64.19724,-21.05019,977.1858],[-64.20171,-21.05887,844.3096],[-64.20246,-21.06393,757.2399],[-64.19734,-21.07851,838.1179],[-64.19672,-21.08445,858.9922],[-64.19781,-21.10424,1068.2826],[-64.19897,-21.11024,869.8774],[-64.20078,-21.11566,884.8296],[-64.20316,-21.12047,969.6613],[-64.20644,-21.12507,1041.6605],[-64.21031,-21.12946,972.2098],[-64.21576,-21.13458,821.4662],[-64.2206,-21.13799,806.4005],[-64.22558,-21.14088,881.2731],[-64.23235,-21.14202,953.7164],[-64.24091,-21.1414,1077.2734],[-64.26754,-21.13349,1048.1006],[-64.28049,-21.13194,1094.6267],[-64.34056,-21.13814,1185.7526],[-64.35904,-21.13473,1072.8914],[-64.39581,-21.11964,935.1729],[-64.43172,-21.09117,1408.1652],[-64.44053,-21.08548,1174.6899],[-64.4457,-21.08321,1162.5878],[-64.45836,-21.08104,1091.8206],[-64.46521,-21.08088,1027.5374],[-64.48381,-21.08305,1208.0817],[-64.51458,-21.090699999999998,1422.6852],[-64.5237,-21.09106,1301.8403],[-64.53099,-21.08998,1164.7745],[-64.53562,-21.08745,1164.8572],[-64.5398,-21.08429,1044.3738],[-64.54313,-21.08068,1187.4303],[-64.54595,-21.07649,1128.2169],[-64.5699,-21.02487,1187.9551],[-64.57262,-21.02068,1440.8127],[-64.5922,-20.9998,1110.9039],[-64.59628,-20.99433,1342.3015],[-64.60311,-20.9874,1106.833],[-64.60727,-20.9844,1108.8892],[-64.62623,-20.97427,1299.0388],[-64.62977,-20.97081,1280.3262],[-64.63259,-20.96652,1540.1958],[-64.63822,-20.95174,1347.3707],[-64.6407,-20.9472,1522.5562],[-64.64429,-20.94394,1717.066],[-64.64936,-20.94208,1740.714],[-64.65501,-20.94156,1409.0618],[-64.66734,-20.94162,1155.424],[-64.67308,-20.94038,1246.4165],[-64.67855,-20.93851,1203.502],[-64.69209,-20.93164,1242.4458],[-64.697,-20.92999,1246.6117],[-64.70266,-20.92885,1283.8015],[-64.71002,-20.93087,1467.3326],[-64.71744,-20.93588,1233.7063],[-64.72723,-20.94942,1303.1074],[-64.73563,-20.96446,1209.3398],[-64.75012,-20.9858,1583.6665],[-64.75643,-21.00006,1320.6515],[-64.75643,-21.00011,1320.6515],[-64.75824,-21.01293,1788.9609],[-64.75767,-21.02487,2029.161],[-64.75788,-21.0306,2178.1733],[-64.7594,-21.03598,2039.8345],[-64.76676,-21.05003,2124.8457],[-64.76857,-21.05546,1777.3218],[-64.77116,-21.06724,2229.353],[-64.77519,-21.07375,2455.9719],[-64.78237,-21.07975,2105.7861],[-64.79862,-21.08714,1592.8508],[-64.81743,-21.09241,1681.3491],[-64.82958,-21.09752,1788.3547],[-64.83454,-21.0968,1940.6975],[-64.8387,-21.09427,1613.9581],[-64.84195,-21.09055,1888.9644],[-64.8456,-21.08693,2334.2466],[-64.84983,-21.08398,2348.7107],[-64.86495,-21.07711,1996.8511],[-64.86945,-21.07437,2204.3125],[-64.87314,-21.07096,2613.6704],[-64.87598,-21.06709,2298.9121],[-64.87831,-21.06316,2041.6985],[-64.88133,-21.05944,2284.0742],[-64.88482,-21.05598,2156.376],[-64.88906,-21.05303,2031.6536],[-64.8942,-21.05081,2288.9727],[-64.90557,-21.04729,2532.439],[-64.90991,-21.04435,2891.553],[-64.91182,-21.03939,2955.717],[-64.91314,-21.03406,2834.3535],[-64.915,-21.029,2620.3508],[-64.91779,-21.02487,2615.8828],[-64.922,-21.02177,2871.0659],[-64.92712,-21.01985,2496.2544],[-64.93334,-21.01923,2495.0977],[-64.94562,-21.02016,2352.4673],[-64.95159,-21.01991,2380.3872],[-64.95662,-21.01815,2818.5835],[-64.96096,-21.01541,2791.6575],[-64.96861,-21.00874,2578.4263],[-64.97295,-21.00611,2598.7141],[-64.97848,-21.00513,2504.4539],[-64.98487,-21.00657,2236.8672],[-64.9936,-21.00998,2244.9995],[-64.99892,-21.01076,2342.022],[-65.00306,-21.01009,2363.468],[-65.00636,-21.00719,2462.6926],[-65.01215,-21.00022,2496.0859],[-65.01308,-20.99965,2496.0859],[-65.02003,-20.99944,2398.7043],[-65.02662,-21.00089,2301.9668],[-65.03137,-21.00084,2286.7146],[-65.03378,-21.00037,2383.9585],[-65.0345,-21.00006,2493.322],[-65.03486,-20.99975,2493.322],[-65.06592,-20.96353,2208.4629],[-65.07375,-20.95707,2233.5151],[-65.07848,-20.95515,2309.4031],[-65.08419,-20.95505,2310.0195],[-65.09023,-20.95671,2221.0718],[-65.1037,-20.96167,2477.186],[-65.10979,-20.96249,2550.9529],[-65.11563,-20.96172,2308.6787],[-65.13279,-20.95655,2266.8855],[-65.13783,-20.95428,2487.2864],[-65.14638,-20.94839,2521.8076],[-65.1509,-20.9459,2636.7427],[-65.15661,-20.94575,2391.1575],[-65.16243,-20.94849,2254.1096],[-65.16837,-20.95598,2434.5137],[-65.17191,-20.96203,2487.2803],[-65.17429,-20.96823,2566.4565],[-65.18689,-21.15091,2427.7458],[-65.20366,-21.20661,2312.8843],[-65.20508,-21.21659,2320.417],[-65.20508,-21.25679,2356.655],[-65.20317,-21.27736,2401.9075],[-65.23077,-21.47791,2666.7227],[-65.23493,-21.53538,2648.1614],[-65.23444,-21.56752,2667.0581],[-65.23552,-21.57693,2737.3596],[-65.23847,-21.58938,2805.9404],[-65.25529,-21.63237,2670.4194],[-65.26872,-21.65444,2623.5208],[-65.28195,-21.66875,2540.4956],[-65.28601,-21.6718,2517.562],[-65.28942,-21.67842,2604.1931],[-65.292,-21.68772,2651.582],[-65.29498,-21.71666,2592.6763],[-65.29766,-21.72555,2576.7939],[-65.30386,-21.73268,2547.2671],[-65.31309,-21.74162,2581.6829],[-65.3197,-21.75712,2597.4543],[-65.32854,-21.80291,2691.4241],[-65.31851,-21.80802,2834.3164],[-65.31474,-21.8105,2935.8975],[-65.30968,-21.81453,2915.676],[-65.30518,-21.81929,2809.3301],[-65.30022,-21.82699,2747.8545],[-65.29436,-21.83443,2797.3638],[-65.28345,-21.84347,2864.3833],[-65.27648,-21.85071,3218.9744],[-65.2603,-21.87375,3142.3569],[-65.2349,-21.91975,2997.5532],[-65.22307,-21.93639,3630.1992],[-65.21503,-21.94279,3635.4399],[-65.21149,-21.94646,3667.3457],[-65.20111,-21.97695,3810.03],[-65.17444,-22.09534,4110.4365],[-65.17302,-22.09808,4122.1304],[-65.19046,-22.09824,4421.5938],[-65.19048,-22.09847,4421.5938],[-65.02037,-22.09658,3374.2314],[-64.83247,-22.13751,2191.0835],[-64.76232,-22.17441,1959.3982],[-64.72289,-22.1833,1688.9658],[-64.71369,-22.18175,1575.782],[-64.69525,-22.1742,1753.5947],[-64.68744,-22.17286,1705.7465],[-64.67904,-22.17544,1387.6755],[-64.65778,-22.17844,1361.9049],[-64.63871,-22.19167,1167.0946],[-64.61628,-22.20221,1347.9241],[-64.59621,-22.20655,1597.743],[-64.58688,-22.21275,1423.0239],[-64.56021,-22.24314,1065.6743],[-64.55184,-22.25502,965.7699],[-64.54277,-22.27549,851.3182],[-64.54226,-22.29151,831.4056],[-64.54916,-22.30536,865.1107],[-64.56208,-22.31983,774.0767],[-64.57202,-22.34318,828.8098],[-64.55887,-22.36065,806.043],[-64.53789,-22.37429,757.1483],[-64.52456,-22.38535,756.3159],[-64.52329,-22.3962,775.6072],[-64.53107,-22.41553,823.7865],[-64.53133,-22.42566,843.0886],[-64.52575,-22.433,672.8312],[-64.50781,-22.44395,628.3553],[-64.50404,-22.44995,780.1245],[-64.49813,-22.47279,665.1632],[-64.48373,-22.49118,783.3938],[-64.42828,-22.54234,687.9245],[-64.42984,-22.55712,709.972],[-64.43725,-22.56736,762.9861],[-64.44554,-22.57624,620.8202],[-64.44942,-22.5871,677.6931],[-64.45045,-22.59712,585.5522],[-64.45521,-22.61665,697.4748],[-64.45624,-22.62802,774.9462],[-64.45371,-22.64291,562.0835],[-64.44722,-22.64869,515.4474],[-64.43823,-22.6519,519.2562],[-64.42828,-22.65903,512.1252],[-64.40172,-22.71236,514.8975],[-64.39077,-22.72052,441.4415],[-64.36899,-22.72972,575.6824],[-64.35573,-22.75194,475.6498],[-64.35232,-22.77913,408.6159],[-64.35999,-22.803,394.2401],[-64.34772,-22.81695,384.8853],[-64.3439,-22.86367,346.667],[-64.32529,-22.87194,351.3604],[-64.32695,-22.85922,353.7575],[-64.30349,-22.78233,375.1865],[-64.2946,-22.7629,377.2379],[-64.29398,-22.69086,406.9818],[-64.25083,-22.54069,635.1616],[-64.23633,-22.51671,440.8381],[-64.18471,-22.47124,446.0068],[-64.16055,-22.43847,450.0993],[-64.08624,-22.25792,593.7711],[-64.07887,-22.25058,541.7453],[-64.0588,-22.24035,508.6966],[-64.05102,-22.22918,580.4956],[-64.01978,-22.15539,670.0001],[-64.00438,-22.09927,694.4688],[-63.99565,-22.08294,654.0426],[-63.99038,-22.07932,702.7158],[-63.98345,-22.07736,613.8604],[-63.97581,-22.07385,665.9006],[-63.96811,-22.06651,733.3278],[-63.96464,-22.05855,707.1337],[-63.96103,-22.03912,787.1763],[-63.95147,-22.01669,685.0176],[-63.95095,-22.0108,779.7048],[-63.94759,-22.0076,778.054],[-63.93317,-22.00181,674.1663],[-63.9064,-21.99716,1048.8704],[-63.81313,-22.00305,681.2036],[-63.79303,-22.01152,763.2232],[-63.75179,-22.04573,969.1608],[-63.74042,-22.05059,1006.841],[-63.69391,-22.01204,681.7339],[-63.67784,-22.00367,634.2953],[-63.63939,-21.99747,782.9756],[-63.32492,-21.99912,398.9268],[-63.01044,-22.00077,301.2155],[-63.00992,-22.00067,301.2155],[-62.86202,-21.99323,286.4076],[-62.81856,-22.00088,284.8221],[-62.80435,-22.00408,279.284],[-62.80136,-22.01349,278.6417],[-62.795,-22.05121,281.4154],[-62.79505,-22.06113,275.2437],[-62.79779,-22.0694,274.6311],[-62.79107,-22.0816,276.6151],[-62.79092,-22.11322,276.4435],[-62.78348,-22.1309,274.8559],[-62.76937,-22.14475,268.1699],[-62.72203,-22.16624,268.1385],[-62.6793,-22.19477,269.3937],[-62.66746,-22.20655,268.0816],[-62.66322,-22.21554,267.1989],[-62.66183,-22.22453,268.2425],[-62.65899,-22.23167,267.9666],[-62.65036,-22.23446,267.204],[-62.62752,-22.18454,265.3937],[-62.5994,-22.08987,267.055],[-62.57284,-22.00077,272.9658],[-62.52923,-21.86507,275.7186],[-62.4928,-21.7518,278.9229],[-62.44618,-21.6069,278.2793],[-62.41197,-21.50086,277.9425],[-62.37549,-21.38448,289.2492],[-62.3404,-21.27286,303.9549],[-62.3079,-21.1693,315.8021],[-62.2757,-21.06657,329.1174],[-62.27188,-21.00094,334.4598],[-62.27189,-21.00042,334.4598],[-62.27245,-21.00042,334.2204],[-63.86925,-20.99934,688.7289],[-63.96229,-20.99681,757.2236],[-63.98304,-20.9967,661.3288],[-63.98327,-20.99355,688.3303],[-64.00294,-20.97608,659.2701],[-64.00996,-20.96559,598.7534],[-64.00779,-20.95598,584.7332],[-64.0004,-20.94425,703.0436],[-64.00751,-20.94187,663.2505],[-64.01903,-20.94394,705.7072],[-64.02485,-20.94575,805.601],[-64.05353,-20.94528,769.0185],[-64.06249,-20.93945,649.4825],[-64.06583,-20.92125,621.301],[-64.07433,-20.91433,676.7966],[-64.09389,-20.91014,658.9873],[-64.11559,-20.90983,731.4489],[-64.13068,-20.91469,913.8007],[-64.14259,-20.91635,692.8893]]]}
,"properties": {"ISO3166-1-Alpha-3": "BOL","country": "Bolivia","fill": "#FF0","name": "Tarija","area_km2": 36770.14,"hist_schema_id": "Elevation0-9000","hist_area_km2": {"275": 1557.87,"300": 2658.73,"325": 1418.53,"350": 1246.74,"375": 1012.3,"400": 940.32,"425": 841.19,"450": 811.15,"475": 747.32,"500": 661.61,"525": 516.67,"550": 529.73,"575": 511.67,"600": 495.9,"625": 442.87,"650": 408.79,"675": 381.89,"700": 353.72,"725": 354.07,"750": 360.45,"775": 352.47,"800": 351.31,"825": 357.0,"850": 364.39,"875": 370.44,"900": 380.56,"925": 375.87,"950": 369.59,"975": 361.87,"1000": 359.12,"1025": 347.16,"1050": 346.83,"1075": 344.01,"1100": 341.45,"1125": 331.23,"1150": 329.51,"1175": 321.11,"1200": 306.62,"1225": 303.01,"1250": 285.54,"1275": 272.72,"1300": 252.24,"1325": 234.74,"1350": 210.46,"1375": 190.92,"1400": 181.1,"1425": 171.76,"1450": 163.7,"1475": 155.14,"1500": 147.38,"1525": 142.73,"1550": 138.08,"1575": 126.15,"1600": 118.79,"1625": 112.33,"1650": 113.7,"1675": 116.24,"1700": 116.5,"1725": 121.91,"1750": 120.25,"1775": 123.03,"1800": 124.18,"1825": 133.62,"1850": 154.71,"1875": 155.83,"1900": 161.31,"1925": 170.25,"1950": 174.68,"1975": 181.54,"2000": 174.26,"2025": 177.6,"2050": 179.1,"2075": 167.23,"2100": 163.77,"2125": 160.92,"2150": 159.65,"2175": 158.11,"2200": 156.25,"2225": 155.23,"2250": 151.39,"2275": 147.59,"2300": 143.51,"2325": 146.22,"2350": 146.82,"2375": 150.99,"2400": 152.16,"2425": 146.79,"2450": 141.8,"2475": 140.31,"2500": 137.69,"2525": 135.92,"2550": 133.15,"2575": 133.91,"2600": 132.85,"2625": 131.4,"2650": 130.72,"2675": 132.77,"2700": 133.05,"2725": 134.34,"2750": 134.29,"2775": 134.22,"2800": 139.96,"2825": 135.35,"2850": 129.88,"2875": 124.71,"2900": 126.07,"2925": 124.27,"2950": 121.31,"2975": 116.57,"3000": 111.77,"3025": 110.35,"3050": 103.97,"3075": 99.43,"3100": 89.1,"3125": 83.33,"3150": 78.35,"3175": 74.92,"3200": 68.88,"3225": 67.38,"3250": 64.31,"3275": 66.73,"3300": 66.34,"3325": 65.35,"3350": 72.3,"3375": 80.78,"3400": 71.0,"3425": 69.92,"3450": 64.48,"3475": 59.13,"3500": 51.86,"3525": 53.15,"3550": 53.49,"3575": 54.25,"3600": 51.8,"3625": 51.5,"3650": 98.41,"3675": 90.0,"3700": 89.29,"3725": 86.01,"3750": 89.81,"3775": 80.91,"3800": 79.13,"3825": 68.74,"3850": 61.55,"3875": 54.23,"3900": 52.12,"3925": 47.97,"3950": 46.29,"3975": 43.73,"4000": 42.13,"4025": 39.73,"4050": 37.5,"4075": 37.26,"4100": 34.43,"4125": 33.77,"4150": 29.96,"4175": 26.73,"4200": 24.66,"4225": 21.1,"4250": 19.84,"4275": 16.73,"4300": 13.12,"4325": 10.15,"4350": 9.5,"4375": 7.24,"4400": 5.21,"4425": 3.32,"4450": 1.93,"4475": 1.52,"4500": 1.26,"4525": 0.85,"4550": 0.41,"4575": 0.47,"4600": 0.33}}}