{"type": "Feature","bbox": [-65.4199,-22.8828,-62.2607,-20.8859],"geometry": {"type": "MultiPolygon","coordinates": [[[[-64.3073,-22.8619,352.3175],[-64.2981,-22.8622,347.9853],[-64.2981,-22.8529,354.144],[-64.3066,-22.840699999999998,356.8782],[-64.305,-22.8378,359.4747],[-64.2878,-22.8361,354.6922],[-64.2845,-22.8298,356.3975],[-64.2863,-22.808,363.5394],[-64.2851,-22.7953,363.3676],[-64.2769,-22.7912,367.8749],[-64.2757,-22.7888,370.7252],[-64.2785,-22.7838,372.9415],[-64.2776,-22.7784,366.3362],[-64.2676,-22.7701,369.8532],[-64.2651,-22.7641,372.0898],[-64.2674,-22.7577,372.9308],[-64.2788,-22.7552,371.885],[-64.2835,-22.752,372.4193],[-64.2814,-22.7475,372.5847],[-64.2752,-22.7446,373.3162],[-64.2679,-22.7444,374.5557],[-64.2641,-22.7408,369.8874],[-64.269,-22.7395,370.7561],[-64.2701,-22.737,370.4395],[-64.2707,-22.7343,373.6471],[-64.2673,-22.728,374.5618],[-64.272,-22.7135,378.6914],[-64.2711,-22.7083,376.1447],[-64.2639,-22.7009,381.1051],[-64.2648,-22.696,378.1831],[-64.2616,-22.6872,379.7489],[-64.2612,-22.6763,385.2197],[-64.2572,-22.6721,384.2061],[-64.2444,-22.6706,387.3701],[-64.2422,-22.6653,387.4886],[-64.2645,-22.65,385.6001],[-64.2561,-22.6283,391.8358],[-64.2476,-22.6329,393.2673],[-64.2412,-22.6274,393.6682],[-64.2389,-22.6206,399.4574],[-64.2379,-22.6087,398.3444],[-64.2432,-22.5986,397.623],[-64.2441,-22.58,397.2812],[-64.2428,-22.5639,402.8911],[-64.2398,-22.5554,418.8927],[-64.2308,-22.5574,408.6781],[-64.2274,-22.5432,408.4283],[-64.2163,-22.5435,411.9217],[-64.214,-22.5259,412.1694],[-64.2074,-22.5057,414.561],[-64.1977,-22.4896,422.0266],[-64.1901,-22.4916,424.3367],[-64.1876,-22.4887,419.4741],[-64.1868,-22.4798,438.9802],[-64.1832,-22.4732,422.2575],[-64.1738,-22.4664,431.1343],[-64.1664,-22.47,431.4587],[-64.1618,-22.4673,435.7054],[-64.1609,-22.4546,427.2943],[-64.1544,-22.4525,434.4944],[-64.1506,-22.4361,434.6465],[-64.1421,-22.4333,436.4564],[-64.1387,-22.4306,435.4993],[-64.1384,-22.4271,438.4012],[-64.1446,-22.4162,441.2408],[-64.1426,-22.4117,442.7494],[-64.1334,-22.4067,447.6342],[-64.1214,-22.4084,447.0162],[-64.1167,-22.4071,447.7099],[-64.1161,-22.4035,470.0555],[-64.1195,-22.3941,449.4528],[-64.1208,-22.3843,456.4492],[-64.1199,-22.3821,451.7244],[-64.1172,-22.3818,452.4519],[-64.1121,-22.3842,451.8789],[-64.1086,-22.3818,454.7171],[-64.1166,-22.3677,486.701],[-64.1171,-22.3643,456.7492],[-64.1041,-22.3554,459.6843],[-64.0981,-22.343,480.3108],[-64.0991,-22.3381,466.2953],[-64.1035,-22.3368,471.5666],[-64.0993,-22.3352,464.3455],[-64.1018,-22.329,478.2257],[-64.0998,-22.3262,494.2189],[-64.0922,-22.324,476.372],[-64.0903,-22.3189,474.9579],[-64.0927,-22.3174,477.9321],[-64.0974,-22.3187,473.1577],[-64.0985,-22.317,472.0463],[-64.0947,-22.3135,475.5736],[-64.0859,-22.3097,481.2534],[-64.086,-22.3046,476.9941],[-64.0909,-22.3035,476.2602],[-64.0915,-22.3004,482.205],[-64.0813,-22.285,484.4182],[-64.0806,-22.282,488.7429],[-64.082,-22.2783,498.9763],[-64.0796,-22.2775,492.1279],[-64.0775,-22.2836,484.6057],[-64.075,-22.2829,485.1433],[-64.0739,-22.2807,487.0538],[-64.0734,-22.2767,487.8157],[-64.0765,-22.2746,489.1668],[-64.0733,-22.2672,492.6438],[-64.0738,-22.2592,499.8748],[-64.0618,-22.2379,527.0859],[-64.058,-22.2379,518.0421],[-64.0563,-22.2457,506.1539],[-64.0511,-22.2446,506.4043],[-64.0426,-22.2474,508.2742],[-64.0395,-22.245,509.4486],[-64.0429,-22.244,509.4817],[-64.0422,-22.2418,513.6128],[-64.0357,-22.2435,527.2072],[-64.0333,-22.2424,530.9507],[-64.0334,-22.2393,521.4926],[-64.0391,-22.238,519.1082],[-64.0398,-22.235,518.1932],[-64.0322,-22.2346,516.6975],[-64.032,-22.2274,516.1213],[-64.0383,-22.2259,548.5474],[-64.039,-22.2214,534.1648],[-64.0312,-22.2182,526.2221],[-64.0258,-22.21,534.9969],[-64.0323,-22.2027,527.6267],[-64.0331,-22.1965,529.6372],[-64.0257,-22.1882,532.9331],[-64.0166,-22.1873,558.9156],[-64.0238,-22.1766,542.791],[-64.0168,-22.1679,546.3604],[-64.0094,-22.166,550.9056],[-64.0069,-22.1606,550.5213],[-64.0037,-22.1607,554.5325],[-64.0006,-22.158,551.8603],[-64.0004,-22.1564,551.5361],[-64.005,-22.1533,574.8272],[-63.9969,-22.142,561.3599],[-63.9995,-22.1382,579.0281],[-63.996,-22.1333,563.9189],[-63.9925,-22.133,603.6857],[-63.9937,-22.1302,563.8083],[-63.9975,-22.129,565.2124],[-63.9985,-22.1247,568.7243],[-63.9956,-22.1205,575.3231],[-63.99,-22.1178,577.1819],[-63.9894,-22.1143,595.4918],[-63.9932,-22.1139,587.5748],[-63.9927,-22.1083,594.1879],[-63.9976,-22.1107,581.5693],[-64.0001,-22.1076,620.3629],[-63.9928,-22.1051,583.9707],[-63.9898,-22.1066,585.0522],[-63.9888,-22.1097,607.3851],[-63.9859,-22.109,592.53],[-63.9862,-22.1044,625.0729],[-63.9901,-22.1051,588.3459],[-63.9909,-22.104,590.4044],[-63.9865,-22.0936,599.9097],[-63.9801,-22.0912,604.2712],[-63.9781,-22.0931,609.2407],[-63.9768,-22.092,597.422],[-63.9773,-22.0859,598.9671],[-63.9828,-22.0863,617.4458],[-63.9798,-22.0809,608.3521],[-63.975,-22.0803,609.6896],[-63.9745,-22.0872,620.7207],[-63.9703,-22.0885,611.0977],[-63.9663,-22.0926,607.7744],[-63.9632,-22.0923,618.3173],[-63.9607,-22.0871,619.0403],[-63.9582,-22.0861,614.7752],[-63.9581,-22.0841,613.528],[-63.9613,-22.0848,622.6735],[-63.9619,-22.0837,615.4273],[-63.9575,-22.081,652.5531],[-63.9602,-22.0772,633.4669],[-63.9573,-22.0677,644.0947],[-63.9624,-22.0656,632.861],[-63.9606,-22.0631,626.5564],[-63.9516,-22.0594,632.3908],[-63.9497,-22.0572,625.983],[-63.9511,-22.0556,624.5549],[-63.954,-22.0577,624.8099],[-63.9566,-22.0574,628.1249],[-63.9551,-22.0527,639.22],[-63.95,-22.0501,627.9865],[-63.9555,-22.0461,634.1703],[-63.9496,-22.0431,631.9402],[-63.9535,-22.0368,634.6781],[-63.9467,-22.0363,639.3014],[-63.9416,-22.0303,637.8129],[-63.9452,-22.0248,641.2002],[-63.9378,-22.0156,658.1116],[-63.9436,-22.0121,678.3005],[-63.9445,-22.0099,660.8517],[-63.9408,-22.0088,653.9998],[-63.9379,-22.0114,663.3607],[-63.9384,-22.0069,651.6658],[-63.9308,-21.9993,699.3626],[-63.7177,-21.9995,1132.3225],[-63.7099,-22.0037,874.2163],[-63.7063,-22.0095,771.4573],[-63.707,-22.0122,797.3784],[-63.7025,-22.0159,710.3632],[-63.6982,-22.0135,693.2148],[-63.6968,-22.0152,733.6952],[-63.6889,-22.0117,663.0178],[-63.6877,-22.0259,618.8316],[-63.6824,-22.0293,606.9736],[-63.6831,-22.0307,605.6281],[-63.6817,-22.0315,604.0434],[-63.6846,-22.033,599.7562],[-63.6868,-22.0394,598.3128],[-63.6847,-22.0408,590.5634],[-63.6866,-22.0404,596.0856],[-63.6837,-22.0471,581.2946],[-63.6836,-22.0548,568.9359],[-63.6784,-22.0511,571.0468],[-63.68,-22.0485,581.2416],[-63.6766,-22.0453,580.4681],[-63.6786,-22.0429,589.4739],[-63.6744,-22.0405,582.906],[-63.6741,-22.0386,585.8844],[-63.6763,-22.0367,593.103],[-63.675,-22.0364,586.8213],[-63.6735,-22.0304,597.0306],[-63.6698,-22.0277,606.4329],[-63.6712,-22.0229,608.7008],[-63.6678,-22.0185,607.0214],[-63.6674,-22.0151,614.3433],[-63.6703,-22.0132,615.6295],[-63.6671,-22.0035,625.0364],[-62.8077,-22.0039,278.0],[-62.8048,-22.0022,279.587],[-62.8015,-22.0068,279.1924],[-62.8012,-22.0161,282.5931],[-62.8087,-22.0275,277.4777],[-62.817,-22.0335,278.4385],[-62.8142,-22.0415,276.9565],[-62.8147,-22.0471,276.8506],[-62.8126,-22.0531,274.5],[-62.7963,-22.059,275.3994],[-62.7931,-22.064,273.7668],[-62.7998,-22.0707,275.8094],[-62.8109,-22.0908,274.0781],[-62.8116,-22.0988,272.0],[-62.8065,-22.1095,273.5707],[-62.8107,-22.1155,273.7874],[-62.8136,-22.1299,271.8847],[-62.8121,-22.1338,272.0068],[-62.7903,-22.1593,268.0911],[-62.7853,-22.1713,267.5],[-62.7822,-22.1745,267.9805],[-62.7761,-22.173,268.4984],[-62.7705,-22.161,269.6281],[-62.7656,-22.1549,269.3733],[-62.7594,-22.1519,267.3996],[-62.7555,-22.1527,268.4274],[-62.7363,-22.17,266.205],[-62.7327,-22.1755,266.3322],[-62.7272,-22.1861,266.4487],[-62.7229,-22.2069,262.0],[-62.7204,-22.2108,263.2643],[-62.7094,-22.2112,261.5],[-62.6969,-22.1954,262.7851],[-62.691,-22.1911,261.6718],[-62.6897,-22.1922,260.7158],[-62.6878,-22.2044,262.8614],[-62.6838,-22.2169,262.9353],[-62.6794,-22.2269,263.1779],[-62.6655,-22.2447,260.9922],[-62.6576,-22.2502,260.7908],[-62.6514,-22.2524,260.6885],[-62.6439,-22.2466,260.0768],[-62.2607,-21.0585,329.0172],[-62.2613,-20.9925,335.7168],[-63.0015,-21.0037,555.7373],[-63.9874,-21.0037,564.7922],[-63.9987,-21.0064,569.1412],[-64.003,-21.0054,591.0271],[-64.0101,-20.9953,576.6964],[-64.0034,-20.9816,585.487],[-64.0033,-20.9797,574.9711],[-64.0108,-20.9688,612.6147],[-64.0056,-20.9508,585.5965],[-64.0064,-20.9467,609.3967],[-64.0093,-20.9459,614.9864],[-64.0115,-20.9472,636.9886],[-64.0124,-20.9557,590.5789],[-64.0186,-20.9561,646.1705],[-64.0226,-20.962,594.2587],[-64.0256,-20.9625,619.0137],[-64.046,-20.9573,608.748],[-64.0484,-20.954,692.6666],[-64.0528,-20.9563,598.6517],[-64.0549,-20.9539,623.4736],[-64.0608,-20.9542,611.5298],[-64.063,-20.9516,624.7452],[-64.0628,-20.9447,601.4576],[-64.0656,-20.9341,606.2032],[-64.0735,-20.932,608.4424],[-64.0742,-20.9278,608.3018],[-64.0776,-20.9234,611.709],[-64.0904,-20.9174,616.8582],[-64.0997,-20.9192,616.8605],[-64.1141,-20.9117,651.5543],[-64.1193,-20.9148,622.7891],[-64.1242,-20.926,637.4082],[-64.1307,-20.9251,655.4518],[-64.132,-20.922,753.2988],[-64.1388,-20.9187,723.7107],[-64.1453,-20.9232,636.8494],[-64.1556,-20.9058,636.5482],[-64.1602,-20.9035,635.8893],[-64.1605,-20.9007,651.5574],[-64.1578,-20.8961,642.9071],[-64.1579,-20.8889,674.6843],[-64.1604,-20.8874,640.581],[-64.1732,-20.8859,658.0001],[-64.1787,-20.887,684.8806],[-64.1808,-20.8904,687.9626],[-64.1749,-20.8984,651.6473],[-64.1774,-20.9042,655.3258],[-64.1814,-20.9085,659.7222],[-64.1827,-20.9135,662.0505],[-64.1811,-20.9186,691.762],[-64.1873,-20.9309,668.4512],[-64.1873,-20.9342,674.0529],[-64.1835,-20.9365,700.193],[-64.1822,-20.9408,675.6686],[-64.1875,-20.9442,717.9671],[-64.1872,-20.9494,682.3524],[-64.1902,-20.9532,679.3606],[-64.1976,-20.9574,691.1686],[-64.1973,-20.9592,689.6578],[-64.195,-20.9595,739.9619],[-64.1853,-20.9558,798.4153],[-64.1808,-20.9614,702.1241],[-64.1842,-20.9666,693.3548],[-64.1905,-20.9683,748.9114],[-64.1915,-20.9703,697.38],[-64.1898,-20.9777,695.5664],[-64.1928,-20.9849,701.3912],[-64.1855,-20.9889,709.6263],[-64.1835,-20.9927,710.3584],[-64.1864,-21.0008,771.2494],[-64.1859,-21.0036,830.0853],[-64.1957,-21.0053,729.1077],[-64.1934,-21.0101,766.7368],[-64.188,-21.0111,809.1246],[-64.1848,-21.015,796.2195],[-64.1817,-21.0209,856.2194],[-64.1832,-21.0239,743.3773],[-64.1796,-21.0267,734.1209],[-64.1797,-21.0287,731.7828],[-64.1874,-21.033,737.3212],[-64.1993,-21.0336,767.8035],[-64.2001,-21.0368,812.2225],[-64.1986,-21.0421,769.3732],[-64.1949,-21.0443,847.0737],[-64.194,-21.0498,798.6929],[-64.1955,-21.0572,830.2957],[-64.1995,-21.0619,756.0715],[-64.1997,-21.0662,772.0151],[-64.1964,-21.0701,857.3992],[-64.1936,-21.0777,804.8716],[-64.1935,-21.084,790.1298],[-64.1891,-21.0912,793.1624],[-64.1958,-21.1092,824.8157],[-64.1993,-21.1132,804.6931],[-64.1981,-21.1194,801.3707],[-64.2015,-21.1223,822.132],[-64.2005,-21.1277,826.0949],[-64.2032,-21.1349,800.5343],[-64.201,-21.1385,803.2256],[-64.2108,-21.1396,808.4879],[-64.2192,-21.1439,806.7618],[-64.2223,-21.149,805.2133],[-64.2302,-21.1521,815.0287],[-64.2446,-21.1493,847.3085],[-64.2468,-21.1451,867.9703],[-64.2569,-21.1428,834.9254],[-64.2618,-21.1389,855.8254],[-64.2695,-21.1368,836.5219],[-64.273,-21.1384,846.1783],[-64.2762,-21.1346,880.5258],[-64.2817,-21.1333,901.0179],[-64.2869,-21.1342,862.8596],[-64.2903,-21.1325,974.2468],[-64.2971,-21.1353,869.8995],[-64.3056,-21.1337,949.6152],[-64.3108,-21.1374,870.8527],[-64.3144,-21.1353,900.1545],[-64.3233,-21.1361,995.9111],[-64.3301,-21.1415,898.9219],[-64.3368,-21.1406,945.339],[-64.3426,-21.146,974.6013],[-64.3643,-21.1428,919.1545],[-64.3763,-21.1363,933.8721],[-64.3803,-21.1364,920.1609],[-64.3837,-21.1266,931.1663],[-64.391,-21.124,977.8383],[-64.3942,-21.1203,935.1729],[-64.3986,-21.1186,950.3795],[-64.3998,-21.1142,1010.0161],[-64.4066,-21.11,943.7172],[-64.413,-21.1095,948.642],[-64.414,-21.1001,1092.0139],[-64.4187,-21.0989,987.6693],[-64.4299,-21.1033,959.9789],[-64.4337,-21.1003,962.241],[-64.4352,-21.0967,967.9702],[-64.4417,-21.0933,971.1766],[-64.4444,-21.088,976.1756],[-64.4507,-21.0847,989.8625],[-64.455,-21.0851,988.9054],[-64.4571,-21.0831,1040.4136],[-64.4676,-21.0866,985.9694],[-64.4739,-21.0853,1025.3032],[-64.4803,-21.0861,1111.1366],[-64.4805,-21.0913,999.8343],[-64.4818,-21.092,999.8343],[-64.4916,-21.0919,1009.5781],[-64.4961,-21.0961,1012.6973],[-64.5054,-21.0954,1064.6064],[-64.5117,-21.0995,1024.3247],[-64.5174,-21.0992,1088.1572],[-64.5215,-21.0968,1084.3799],[-64.5272,-21.0976,1033.1218],[-64.5308,-21.0919,1069.6121],[-64.5374,-21.0899,1039.2054],[-64.5359,-21.0835,1148.3901],[-64.5385,-21.0819,1044.3793],[-64.5445,-21.0825,1050.4137],[-64.5464,-21.0812,1046.876],[-64.5485,-21.0681,1049.5931],[-64.5551,-21.0626,1056.3762],[-64.5571,-21.056,1064.8015],[-64.5624,-21.0526,1062.1202],[-64.5681,-21.0426,1067.1846],[-64.5676,-21.0342,1074.866],[-64.5717,-21.0314,1076.2795],[-64.5774,-21.0326,1080.0439],[-64.5805,-21.025,1131.4487],[-64.5793,-21.0186,1125.7556],[-64.5847,-21.0164,1085.6376],[-64.5848,-21.0074,1178.1523],[-64.5884,-21.0052,1177.9924],[-64.5923,-21.0076,1114.8643],[-64.5989,-21.0024,1099.9663],[-64.6016,-20.9955,1102.3169],[-64.6013,-20.991,1104.778],[-64.6051,-20.9819,1112.0991],[-64.615,-20.9782,1159.1829],[-64.62,-20.9815,1122.2959],[-64.624,-20.9801,1121.21],[-64.6272,-20.9756,1143.8479],[-64.6384,-20.9712,1170.7665],[-64.6426,-20.9672,1134.9359],[-64.6452,-20.9547,1150.8771],[-64.6509,-20.9553,1147.5155],[-64.6541,-20.9538,1152.1528],[-64.6546,-20.9494,1219.4368],[-64.6595,-20.9443,1167.1284],[-64.6668,-20.9405,1172.5715],[-64.6781,-20.9428,1163.6799],[-64.6866,-20.9411,1174.8809],[-64.6989,-20.931,1192.2928],[-64.7125,-20.9346,1182.4512],[-64.7147,-20.937,1184.7136],[-64.7197,-20.9365,1192.4977],[-64.7276,-20.9414,1192.104],[-64.7336,-20.9531,1202.0162],[-64.7351,-20.9621,1207.8446],[-64.734,-20.9673,1211.9934],[-64.7399,-20.973,1218.2255],[-64.761,-20.9802,1253.05],[-64.7623,-20.9834,1246.0981],[-64.7574,-20.9852,1292.4248],[-64.7566,-20.9877,1242.616],[-64.7572,-20.9942,1248.3298],[-64.7686,-21.0145,1312.1488],[-64.7712,-21.016,1315.2246],[-64.7679,-21.0212,1414.3069],[-64.7696,-21.0256,1292.3906],[-64.7709,-21.0274,1319.6718],[-64.7793,-21.0302,1327.052],[-64.7821,-21.0376,1352.4473],[-64.7818,-21.0425,1359.7076],[-64.7789,-21.0438,1412.2108],[-64.7782,-21.0472,1352.3417],[-64.7759,-21.0481,1358.4271],[-64.7744,-21.055,1457.4937],[-64.7782,-21.0606,1381.2002],[-64.7878,-21.062,1456.1766],[-64.792,-21.0678,1458.1338],[-64.7904,-21.0758,1584.1857],[-64.7968,-21.0862,1480.0645],[-64.7978,-21.0947,1577.7676],[-64.8041,-21.0968,1500.8374],[-64.8098,-21.0942,1553.5823],[-64.8178,-21.0932,1530.9495],[-64.8367,-21.093,1554.6458],[-64.8391,-21.0944,1613.9581],[-64.8392,-21.0977,1536.051],[-64.8358,-21.1043,1608.8566],[-64.8386,-21.1059,1673.3068],[-64.8561,-21.1056,1876.9017],[-64.8542,-21.0957,1719.1384],[-64.8503,-21.0922,1775.4695],[-64.8673,-21.0791,1792.5564],[-64.8852,-21.0787,1732.7457],[-64.8954,-21.0733,1748.9907],[-64.8953,-21.0684,1869.0215],[-64.8896,-21.0675,1904.6411],[-64.8842,-21.0643,1791.5409],[-64.8896,-21.0568,1846.25],[-64.9,-21.0545,1916.5519],[-64.9124,-21.059,1920.8699],[-64.9186,-21.0592,2059.1985],[-64.9253,-21.0526,1876.2196],[-64.9239,-21.0444,1978.0566],[-64.9259,-21.0401,1942.8406],[-64.9262,-21.0328,1999.1207],[-64.9342,-21.0267,2003.7948],[-64.9394,-21.0271,2232.9871],[-64.9422,-21.0242,2209.7156],[-64.9443,-21.0243,2209.373],[-64.9453,-21.0258,2216.0801],[-64.9439,-21.0278,2302.0154],[-64.9438,-21.0339,2184.6169],[-64.9405,-21.0378,2256.4822],[-64.9437,-21.0377,2272.0112],[-64.9504,-21.0417,2382.7231],[-64.9473,-21.0334,2223.3147],[-64.9493,-21.0322,2257.9207],[-64.9543,-21.0337,2179.6543],[-64.9546,-21.0262,2204.2383],[-64.9564,-21.0243,2174.6018],[-64.96,-21.0238,2154.3374],[-64.96,-21.0291,2115.9695],[-64.9628,-21.0306,2158.6748],[-64.9674,-21.0267,2157.6409],[-64.9774,-21.027,2119.6179],[-64.976,-21.0234,2140.2786],[-64.9699,-21.023,2154.1077],[-64.9695,-21.0211,2168.7646],[-64.9745,-21.0164,2109.4856],[-64.9767,-21.0175,2189.3325],[-64.9794,-21.016,2222.9958],[-64.986,-21.0159,2116.2454],[-64.9859,-21.0089,2186.939],[-64.9878,-21.0081,2146.2317],[-64.9922,-21.0106,2123.364],[-64.9924,-21.0198,2141.6475],[-64.9985,-21.0208,2129.2751],[-65.0008,-21.0142,2156.6846],[-65.0041,-21.0162,2175.1709],[-65.0046,-21.0196,2112.5286],[-64.9995,-21.0239,2108.4124],[-64.9997,-21.0263,2114.0154],[-65.0129,-21.0294,2130.8369],[-65.0146,-21.0213,2141.2544],[-65.0177,-21.0204,2171.0962],[-65.0194,-21.0212,2171.0962],[-65.0209,-21.0253,2133.0347],[-65.0271,-21.0276,2132.4326],[-65.0278,-21.0256,2154.3179],[-65.0216,-21.0168,2139.0056],[-65.0223,-21.0118,2140.4502],[-65.0284,-21.0067,2129.5815],[-65.0317,-21.0065,2131.054],[-65.0314,-21.0103,2128.8623],[-65.026,-21.0148,2164.6426],[-65.0265,-21.0167,2153.6455],[-65.0289,-21.0172,2140.6189],[-65.0334,-21.0143,2161.106],[-65.0403,-21.0143,2132.4482],[-65.0441,-21.0084,2264.8052],[-65.051,-21.0087,2148.4617],[-65.0514,-21.0054,2153.1331],[-65.0487,-21.0035,2207.0471],[-65.0445,-21.0039,2144.5896],[-65.0443,-21.0002,2161.8462],[-65.0539,-20.9969,2188.4194],[-65.0534,-20.9931,2168.0547],[-65.059,-20.9875,2146.1987],[-65.0572,-20.9805,2160.9543],[-65.0628,-20.9807,2150.9275],[-65.0617,-20.9733,2180.769],[-65.065,-20.9708,2169.1289],[-65.0694,-20.9707,2150.8547],[-65.07,-20.9589,2193.0474],[-65.0729,-20.9592,2190.5178],[-65.0742,-20.9646,2157.6714],[-65.0784,-20.964,2172.6501],[-65.0824,-20.9605,2237.4189],[-65.0868,-20.9626,2159.8481],[-65.0887,-20.9661,2160.5796],[-65.0857,-20.9737,2159.1094],[-65.0889,-20.977,2165.9661],[-65.0939,-20.976,2162.1978],[-65.0968,-20.9688,2199.6565],[-65.1022,-20.9689,2201.7969],[-65.105,-20.9726,2167.6897],[-65.1027,-20.9744,2209.0103],[-65.1,-20.9741,2231.1694],[-65.0994,-20.9759,2190.6384],[-65.1093,-20.9794,2223.4668],[-65.1121,-20.982,2173.8381],[-65.1145,-20.9801,2174.5049],[-65.1148,-20.9775,2179.6631],[-65.1123,-20.9738,2201.217],[-65.1084,-20.9727,2177.7468],[-65.1091,-20.9698,2195.7732],[-65.1143,-20.9708,2194.2119],[-65.1188,-20.9686,2225.9663],[-65.1247,-20.9685,2189.7935],[-65.1242,-20.9643,2188.6899],[-65.1293,-20.9574,2221.1045],[-65.1343,-20.9635,2192.0715],[-65.141,-20.9647,2183.7644],[-65.1435,-20.9575,2185.4604],[-65.1469,-20.9535,2230.8723],[-65.1485,-20.9535,2223.7476],[-65.1505,-20.9568,2204.71],[-65.1496,-20.9604,2220.9829],[-65.1512,-20.9639,2230.7075],[-65.1572,-20.9577,2243.856],[-65.1568,-20.9526,2305.9883],[-65.1592,-20.9494,2266.0208],[-65.1582,-20.9459,2278.2136],[-65.1631,-20.9452,2229.4968],[-65.166,-20.9496,2204.0378],[-65.1695,-20.9502,2205.7231],[-65.1723,-20.9481,2257.0918],[-65.1766,-20.9503,2218.0303],[-65.1742,-20.9553,2242.0513],[-65.1761,-20.9566,2208.8452],[-65.1793,-20.9546,2237.2349],[-65.1817,-20.9588,2215.7341],[-65.1858,-20.9617,2213.7168],[-65.1839,-20.965699999999998,2310.5166],[-65.1865,-20.9679,2298.155],[-65.1865,-20.9704,2268.5576],[-65.1884,-20.971,2316.3879],[-65.1893,-20.9758,2225.4319],[-65.1874,-20.9801,2223.3511],[-65.1923,-20.9842,2217.989],[-65.1924,-20.9977,2228.3984],[-65.1898,-21.0007,2282.3208],[-65.1917,-21.0064,2225.1282],[-65.1883,-21.0133,2231.9846],[-65.1926,-21.021,2245.3093],[-65.1927,-21.0246,2256.7036],[-65.1974,-21.029,2269.9756],[-65.1962,-21.0324,2293.0481],[-65.1983,-21.0407,2244.1475],[-65.1967,-21.0445,2248.6616],[-65.1976,-21.0471,2246.1086],[-65.1957,-21.0495,2259.5808],[-65.2005,-21.0623,2275.6006],[-65.1992,-21.0664,2313.9658],[-65.202,-21.0714,2321.9873],[-65.2013,-21.0803,2307.4915],[-65.2028,-21.0843,2273.0869],[-65.1986,-21.092,2311.0269],[-65.2019,-21.0971,2283.8574],[-65.1966,-21.1023,2305.7632],[-65.1992,-21.1093,2333.5237],[-65.1977,-21.1154,2298.5972],[-65.2005,-21.1224,2292.1201],[-65.1991,-21.1278,2300.1101],[-65.2,-21.1399,2313.6162],[-65.198,-21.1422,2305.8457],[-65.1933,-21.1382,2324.1758],[-65.1904,-21.1403,2314.7983],[-65.1902,-21.144,2350.3374],[-65.1944,-21.1464,2300.1833],[-65.1946,-21.1487,2328.394],[-65.1912,-21.1516,2329.127],[-65.1912,-21.1574,2333.6133],[-65.1884,-21.1604,2328.2683],[-65.1896,-21.1643,2330.532],[-65.1961,-21.1708,2324.7334],[-65.2046,-21.1754,2301.5942],[-65.2053,-21.1782,2303.2056],[-65.2032,-21.181,2306.8569],[-65.2118,-21.192,2307.0786],[-65.2118,-21.1939,2307.0828],[-65.208,-21.1948,2307.9976],[-65.2003,-21.2028,2328.5334],[-65.2001,-21.2048,2324.8679],[-65.2054,-21.2072,2325.2974],[-65.2062,-21.2092,2316.0537],[-65.2007,-21.2132,2322.1179],[-65.2003,-21.2211,2349.5083],[-65.2057,-21.2225,2318.4121],[-65.2114,-21.2317,2320.9663],[-65.2119,-21.2364,2323.2275],[-65.2064,-21.2398,2328.0959],[-65.214,-21.2462,2404.1978],[-65.2115,-21.2567,2341.6338],[-65.2144,-21.2572,2333.2747],[-65.2191,-21.2522,2404.8857],[-65.2228,-21.2533,2336.5532],[-65.2242,-21.2564,2350.2407],[-65.2233,-21.2584,2351.4194],[-65.2181,-21.2583,2378.9355],[-65.2162,-21.2608,2359.3027],[-65.2171,-21.2634,2340.6467],[-65.2203,-21.2626,2378.8901],[-65.2204,-21.2688,2362.2673],[-65.216,-21.273,2342.936],[-65.2139,-21.2792,2345.3667],[-65.2172,-21.2864,2364.3245],[-65.2117,-21.2915,2354.1831],[-65.2132,-21.296,2352.4766],[-65.2187,-21.3012,2350.9902],[-65.217,-21.3041,2352.4014],[-65.2184,-21.3082,2354.2358],[-65.2163,-21.3117,2355.4741],[-65.2192,-21.3154,2356.6367],[-65.2174,-21.3202,2357.8813],[-65.2235,-21.3234,2385.562],[-65.2253,-21.3263,2360.5098],[-65.2215,-21.3276,2365.4858],[-65.22,-21.3352,2369.6504],[-65.2214,-21.3365,2366.6428],[-65.2263,-21.3349,2367.6169],[-65.228,-21.3364,2370.2949],[-65.2266,-21.3399,2376.7773],[-65.2283,-21.3464,2368.7705],[-65.2231,-21.3513,2380.3628],[-65.2316,-21.3672,2433.0649],[-65.2309,-21.3754,2380.0303],[-65.2326,-21.3831,2387.7627],[-65.2296,-21.3863,2383.3311],[-65.2327,-21.388,2384.7983],[-65.2337,-21.3917,2407.5303],[-65.2306,-21.3963,2386.0159],[-65.2305,-21.4016,2389.6528],[-65.2372,-21.4051,2392.5181],[-65.2373,-21.4073,2396.0256],[-65.2352,-21.409,2394.8391],[-65.2369,-21.4149,2395.28],[-65.2348,-21.4258,2412.8257],[-65.2428,-21.4315,2410.7849],[-65.2438,-21.4387,2404.7542],[-65.2414,-21.4479,2406.9375],[-65.2439,-21.4531,2410.4482],[-65.2419,-21.4619,2412.3818],[-65.2485,-21.4669,2478.8438],[-65.2496,-21.4701,2422.4517],[-65.2461,-21.4781,2423.5527],[-65.2502,-21.4838,2428.6731],[-65.2473,-21.4885,2428.7734],[-65.2472,-21.4959,2434.7263],[-65.2447,-21.5002,2431.2134],[-65.2462,-21.5081,2437.6118],[-65.2485,-21.5093,2453.5432],[-65.2534,-21.519,2436.0022],[-65.2523,-21.5205,2444.0991],[-65.2495,-21.5199,2437.8018],[-65.248,-21.5229,2463.7192],[-65.2448,-21.5226,2462.5806],[-65.2472,-21.5282,2445.6702],[-65.2448,-21.5303,2450.7974],[-65.2481,-21.5333,2476.4229],[-65.2458,-21.5414,2516.2964],[-65.25,-21.5428,2466.7476],[-65.2521,-21.5465,2485.6653],[-65.2482,-21.5482,2451.437],[-65.2452,-21.5534,2458.1062],[-65.2467,-21.56,2453.0298],[-65.2451,-21.57,2490.6353],[-65.2531,-21.5764,2461.1841],[-65.25,-21.5807,2469.0437],[-65.254,-21.583,2466.2932],[-65.252,-21.5888,2468.8481],[-65.2549,-21.5969,2468.4539],[-65.2538,-21.6005,2470.0491],[-65.2587,-21.6015,2472.3252],[-65.2643,-21.6095,2476.0337],[-65.263,-21.6139,2481.2854],[-65.2663,-21.6213,2482.7046],[-65.2616,-21.6304,2484.3284],[-65.2628,-21.6366,2485.647],[-65.2674,-21.6392,2510.3848],[-65.27,-21.6445,2489.7666],[-65.2758,-21.6444,2507.4822],[-65.2799,-21.6462,2506.5137],[-65.2795,-21.6491,2495.9863],[-65.2719,-21.6529,2549.9834],[-65.2729,-21.6559,2498.7012],[-65.2772,-21.6568,2499.7717],[-65.277,-21.6642,2507.5381],[-65.2801,-21.6663,2548.1836],[-65.2844,-21.6654,2507.0217],[-65.2856,-21.6702,2507.1499],[-65.2903,-21.6708,2509.2644],[-65.2971,-21.6761,2513.6123],[-65.3003,-21.6857,2517.0918],[-65.3043,-21.6887,2529.0259],[-65.3017,-21.6983,2522.2581],[-65.3073,-21.7052,2527.7896],[-65.3072,-21.7077,2528.114],[-65.3021,-21.7095,2530.3008],[-65.3,-21.7154,2548.4985],[-65.3011,-21.7197,2533.2515],[-65.3002,-21.7214,2556.228],[-65.2938,-21.7232,2532.9143],[-65.2926,-21.7318,2537.0181],[-65.294,-21.7331,2538.542],[-65.3023,-21.7333,2549.1851],[-65.3139,-21.7309,2567.2571],[-65.3146,-21.7336,2546.9495],[-65.3129,-21.737,2548.7273],[-65.3155,-21.7392,2550.7527],[-65.3154,-21.7466,2573.4553],[-65.3238,-21.7562,2558.6045],[-65.3233,-21.7604,2560.2612],[-65.3194,-21.7636,2562.5283],[-65.32,-21.7671,2564.4768],[-65.3246,-21.769,2568.3276],[-65.3295,-21.7768,2578.9033],[-65.33,-21.7799,2570.6377],[-65.3275,-21.7852,2573.0151],[-65.3339,-21.7892,2577.9509],[-65.3335,-21.7947,2582.208],[-65.336,-21.8007,2589.7002],[-65.3361,-21.8057,2597.991],[-65.3478,-21.8122,2605.4155],[-65.3492,-21.8196,2596.4907],[-65.3481,-21.8263,2596.6455],[-65.3539,-21.833,2600.7329],[-65.3546,-21.8376,2603.8655],[-65.3572,-21.8395,2604.9497],[-65.3622,-21.8378,2717.8096],[-65.3651,-21.8403,2620.8188],[-65.3719,-21.8404,2642.3806],[-65.3737,-21.8374,2616.5615],[-65.3785,-21.8356,2620.1824],[-65.382,-21.8367,2620.407],[-65.3848,-21.8418,2628.7268],[-65.3895,-21.8415,2623.7158],[-65.3911,-21.8478,2649.1033],[-65.3895,-21.8619,2659.5488],[-65.3931,-21.8644,2716.5781],[-65.3926,-21.8679,2665.2139],[-65.3949,-21.8738,2717.7075],[-65.3984,-21.8745,2785.9678],[-65.396,-21.8773,2778.7407],[-65.3967,-21.8793,2723.4146],[-65.4018,-21.8822,2697.8809],[-65.4106,-21.8832,2708.7297],[-65.4162,-21.8819,2727.675],[-65.4154,-21.8893,2732.8323],[-65.4199,-21.8956,2739.3586],[-65.4172,-21.897,2775.843],[-65.4117,-21.9055,2894.811],[-65.4086,-21.9156,2922.0613],[-65.3973,-21.9235,3058.4214],[-65.3927,-21.9292,3139.7629],[-65.3871,-21.933,3175.3579],[-65.3825,-21.9331,3197.7769],[-65.3693,-21.9438,3335.7925],[-65.3657,-21.9436,3349.6743],[-65.3559,-21.949,3416.3037],[-65.3517,-21.9541,3457.3469],[-65.3362,-21.9648,3532.9614],[-65.3232,-21.9691,3558.7397],[-65.3136,-21.975,3573.8308],[-65.2988,-21.9782,3594.303],[-65.2761,-21.9711,3615.9539],[-65.2673,-21.9702,3623.9983],[-65.2618,-21.9712,3631.5239],[-65.2468,-21.979,3660.2021],[-65.2424,-21.9849,3658.6125],[-65.2351,-21.9907,3675.0334],[-65.2168,-21.9959,3709.1638],[-65.2042,-22.0061,3801.3643],[-65.2007,-22.0117,3875.4141],[-65.185,-22.0131,4154.6577],[-65.1807,-22.0194,4307.291],[-65.1809,-22.0242,4482.166],[-65.1916,-22.077,4470.647],[-65.1866,-22.0853,4400.9966],[-65.0525,-22.0833,4429.0518],[-64.9943,-22.084,4123.7476],[-64.9926,-22.087,3958.7507],[-64.9887,-22.089,3847.4568],[-64.9872,-22.0941,3602.3723],[-64.9844,-22.0944,3521.0369],[-64.9814,-22.0979,3341.0352],[-64.971,-22.1001,3081.5027],[-64.9687,-22.1041,3061.4128],[-64.9639,-22.103,2986.2192],[-64.9615,-22.1045,2954.2988],[-64.9598,-22.1025,2936.1577],[-64.9571,-22.1027,2938.5752],[-64.9532,-22.1054,2890.2485],[-64.9534,-22.1072,2868.823],[-64.9478,-22.1077,2802.6499],[-64.9452,-22.11,2769.75],[-64.9383,-22.1098,2656.5649],[-64.9353,-22.1163,2676.8765],[-64.9266,-22.1184,2544.0488],[-64.924,-22.1211,2534.0366],[-64.9028,-22.1196,2411.4707],[-64.8966,-22.124,2371.0591],[-64.893,-22.1238,2357.9241],[-64.8867,-22.1294,2322.1912],[-64.8816,-22.1225,2302.6831],[-64.8798,-22.1225,2302.6831],[-64.8807,-22.1212,2348.6418],[-64.8787,-22.1174,2267.9634],[-64.8744,-22.1174,2270.7217],[-64.869,-22.1225,2243.853],[-64.8674,-22.1221,2243.853],[-64.8679,-22.1233,2268.3145],[-64.8618,-22.1224,2244.3628],[-64.8618,-22.1249,2318.5708],[-64.8494,-22.1316,2201.8396],[-64.8488,-22.1333,2276.533],[-64.8449,-22.1342,2200.113],[-64.8403,-22.1393,2156.6794],[-64.8358,-22.1393,2246.7429],[-64.8323,-22.1442,2136.7649],[-64.8304,-22.1415,2128.6372],[-64.8201,-22.1457,2245.5647],[-64.819,-22.1448,2183.4336],[-64.8178,-22.1484,2072.4595],[-64.8123,-22.1512,2095.7183],[-64.8127,-22.1533,2101.1086],[-64.8105,-22.1527,2072.9236],[-64.8077,-22.1561,2054.8208],[-64.8049,-22.156,2060.0208],[-64.8043,-22.158,2081.9321],[-64.7978,-22.1602,1972.3101],[-64.7968,-22.1624,1991.3752],[-64.7959,-22.1609,2001.4861],[-64.7934,-22.1612,2011.3075],[-64.7949,-22.1629,1948.1731],[-64.7936,-22.1649,2058.687],[-64.7905,-22.1644,2017.6223],[-64.789,-22.1684,2008.0581],[-64.7868,-22.1685,1910.2373],[-64.7823,-22.175,1828.5642],[-64.7779,-22.1779,1769.9255],[-64.7768,-22.1764,1769.9255],[-64.7744,-22.1783,1817.5776],[-64.7698,-22.1776,1704.4359],[-64.7664,-22.1789,1684.1212],[-64.7645,-22.1773,1646.0017],[-64.758,-22.1812,1594.1921],[-64.7565,-22.1794,1658.4625],[-64.7526,-22.1791,1571.8828],[-64.7495,-22.182,1598.9982],[-64.746,-22.1826,1549.4146],[-64.7452,-22.1888,1451.6873],[-64.7369,-22.1942,1399.4824],[-64.7234,-22.195,1344.1389],[-64.7219,-22.1966,1358.0181],[-64.7132,-22.1924,1261.3335],[-64.7099,-22.1891,1250.5201],[-64.6998,-22.1907,1220.4641],[-64.6973,-22.1889,1224.2698],[-64.6867,-22.1871,1201.5613],[-64.6751,-22.1885,1171.7505],[-64.6599,-22.1955,1149.5212],[-64.6509,-22.1897,1149.0752],[-64.6382,-22.1945,1131.173],[-64.6358,-22.2002,1137.9243],[-64.6267,-22.203,1133.8022],[-64.6236,-22.2086,1158.4033],[-64.6194,-22.2049,1081.2622],[-64.6166,-22.2056,1109.4852],[-64.617,-22.2126,1114.8295],[-64.6138,-22.2151,1080.948],[-64.6138,-22.2174,1053.2888],[-64.608,-22.2204,1084.6362],[-64.602,-22.227,1026.8574],[-64.5973,-22.2428,966.7332],[-64.595,-22.2422,983.6383],[-64.5925,-22.2473,992.7169],[-64.5807,-22.25,922.5332],[-64.5376,-22.2832,837.6824],[-64.5366,-22.2856,833.9466],[-64.5359,-22.29,827.8573],[-64.5376,-22.2967,847.1818],[-64.5476,-22.3168,789.813],[-64.5592,-22.3194,776.3308],[-64.5636,-22.3259,769.2399],[-64.5666,-22.3389,753.8111],[-64.5647,-22.343,779.7538],[-64.5649,-22.3483,754.1381],[-64.5617,-22.3502,739.2942],[-64.5613,-22.3521,737.6144],[-64.5646,-22.3561,741.7762],[-64.5634,-22.3608,730.5426],[-64.5668,-22.368,720.64],[-64.5638,-22.3763,712.2408],[-64.5586,-22.3821,704.3301],[-64.55,-22.3888,695.3315],[-64.533,-22.3977,677.944],[-64.5129,-22.4156,654.9388],[-64.5132,-22.4218,650.3182],[-64.5172,-22.4284,646.8827],[-64.5219,-22.4326,642.7007],[-64.5251,-22.4412,640.3484],[-64.521,-22.4449,630.9717],[-64.5146,-22.4459,628.5948],[-64.4995,-22.4397,643.1738],[-64.4951,-22.4351,615.694],[-64.4921,-22.4366,616.8567],[-64.4899,-22.4418,611.7961],[-64.4887,-22.4575,600.6431],[-64.4791,-22.4619,597.1156],[-64.4748,-22.469,594.175],[-64.4821,-22.472,590.8073],[-64.4841,-22.476,592.6238],[-64.483,-22.4805,598.5924],[-64.4771,-22.4823,589.3182],[-64.4754,-22.4888,579.1587],[-64.4691,-22.4875,606.3395],[-64.4687,-22.4924,591.2371],[-64.4609,-22.491,632.5157],[-64.4586,-22.4953,577.7532],[-64.4588,-22.5021,570.5184],[-64.4552,-22.5042,634.0541],[-64.4489,-22.5035,561.2485],[-64.446,-22.5049,557.3448],[-64.4456,-22.5087,563.8027],[-64.4514,-22.5139,552.1844],[-64.4508,-22.5188,548.9215],[-64.4446,-22.5219,546.3231],[-64.4311,-22.5217,539.8771],[-64.4226,-22.5338,532.9059],[-64.4168,-22.5349,531.2834],[-64.4129,-22.5382,530.0759],[-64.4121,-22.544,527.0804],[-64.4164,-22.5494,524.3126],[-64.4173,-22.5528,521.1896],[-64.4152,-22.5561,523.3702],[-64.4099,-22.558,516.3456],[-64.4101,-22.5631,514.3673],[-64.4171,-22.5748,510.7104],[-64.4233,-22.5782,507.485],[-64.4302,-22.5787,505.3653],[-64.4318,-22.5814,503.3112],[-64.429,-22.5862,501.7271],[-64.425,-22.5871,505.0472],[-64.425,-22.5886,512.7415],[-64.4297,-22.5985,493.9569],[-64.426,-22.6039,498.9913],[-64.4289,-22.6079,490.7198],[-64.4289,-22.6171,497.5271],[-64.4348,-22.6232,483.0129],[-64.4329,-22.6281,508.1837],[-64.4339,-22.6311,495.1177],[-64.4322,-22.6328,486.3081],[-64.4251,-22.6296,481.3663],[-64.4239,-22.6353,477.5329],[-64.4272,-22.639,482.0131],[-64.4351,-22.6346,475.7277],[-64.4402,-22.6355,470.6937],[-64.4423,-22.638,479.3884],[-64.4352,-22.6424,467.4217],[-64.4338,-22.6484,474.3618],[-64.4312,-22.651,464.5828],[-64.4145,-22.657,480.5152],[-64.4186,-22.6708,463.7103],[-64.4155,-22.679,457.8339],[-64.3981,-22.6833,440.5326],[-64.3944,-22.6881,437.5513],[-64.3946,-22.6902,438.3513],[-64.4009,-22.6974,435.7499],[-64.3974,-22.7063,445.1318],[-64.3974,-22.7101,428.6315],[-64.3922,-22.7102,427.9497],[-64.3914,-22.7126,431.5994],[-64.4016,-22.7153,433.2638],[-64.403,-22.7194,421.9812],[-64.3982,-22.7202,421.9849],[-64.3948,-22.7186,418.7153],[-64.3917,-22.7222,415.0111],[-64.3892,-22.7225,419.5572],[-64.3848,-22.7177,416.7362],[-64.3812,-22.7174,421.0115],[-64.374,-22.7212,409.9909],[-64.3724,-22.7274,405.73],[-64.3651,-22.7238,402.0403],[-64.3612,-22.7243,403.0618],[-64.3525,-22.7309,403.2152],[-64.3491,-22.7388,398.4213],[-64.3417,-22.7493,390.97],[-64.3407,-22.7524,392.8689],[-64.3422,-22.7641,387.342],[-64.3393,-22.7684,387.1897],[-64.3383,-22.778,380.4268],[-64.3397,-22.7851,379.1969],[-64.3442,-22.7935,376.8156],[-64.3422,-22.8066,373.6837],[-64.3343,-22.808,365.0307],[-64.3306,-22.8121,364.014],[-64.3287,-22.8312,358.3521],[-64.3268,-22.8365,359.1232],[-64.3286,-22.8625,353.5481],[-64.3314,-22.8631,353.407],[-64.3377,-22.8557,350.1795],[-64.3407,-22.8583,349.0911],[-64.3388,-22.8682,349.5157],[-64.3344,-22.8741,353.588],[-64.3281,-22.8722,352.1595],[-64.3245,-22.8742,351.7994],[-64.3205,-22.8684,351.5749],[-64.3148,-22.8671,351.7639],[-64.3128,-22.8721,346.7145],[-64.3172,-22.8813,344.6183],[-64.3157,-22.8828,345.1407],[-64.3116,-22.882,348.2487],[-64.3095,-22.8645,350.8915],[-64.3073,-22.8619,352.3175]]]]}
,"properties": {"GID_1": "BOL.9_1","GID_0": "BOL","country": "Bolivia","province": "Tarija","VARNAME_1": "NA","NL_NAME_1": "NA","TYPE_1": "Departamento","ENGTYPE_1": "Department","CC_1": "NA","HASC_1": "BO.TR","ISO_1": "BO-T","name": "Tarija.province","area_km2": 37354.91,"hist_schema_id": "Elevation0-9000","hist_area_km2": {"250": 3.98,"275": 1703.45,"300": 2687.43,"325": 1451.57,"350": 1274.74,"375": 1056.21,"400": 956.99,"425": 859.28,"450": 825.78,"475": 761.35,"500": 664.95,"525": 514.67,"550": 531.11,"575": 510.31,"600": 493.97,"625": 445.36,"650": 407.45,"675": 378.02,"700": 352.09,"725": 349.42,"750": 354.67,"775": 345.72,"800": 344.72,"825": 350.1,"850": 360.68,"875": 367.66,"900": 378.43,"925": 373.35,"950": 366.94,"975": 358.26,"1000": 354.84,"1025": 342.9,"1050": 343.25,"1075": 341.08,"1100": 339.88,"1125": 329.54,"1150": 329.0,"1175": 320.1,"1200": 306.67,"1225": 302.64,"1250": 286.0,"1275": 273.52,"1300": 252.76,"1325": 235.36,"1350": 211.13,"1375": 191.5,"1400": 182.08,"1425": 172.69,"1450": 164.73,"1475": 155.73,"1500": 148.3,"1525": 143.6,"1550": 139.16,"1575": 127.0,"1600": 119.85,"1625": 113.09,"1650": 114.37,"1675": 116.61,"1700": 117.23,"1725": 122.69,"1750": 120.7,"1775": 123.48,"1800": 124.41,"1825": 133.89,"1850": 154.77,"1875": 156.13,"1900": 161.21,"1925": 170.35,"1950": 174.52,"1975": 181.46,"2000": 174.26,"2025": 177.58,"2050": 179.23,"2075": 167.05,"2100": 163.43,"2125": 160.02,"2150": 158.32,"2175": 154.65,"2200": 153.3,"2225": 152.4,"2250": 148.79,"2275": 145.69,"2300": 143.45,"2325": 147.52,"2350": 152.11,"2375": 158.08,"2400": 159.1,"2425": 153.44,"2450": 147.75,"2475": 148.02,"2500": 145.8,"2525": 143.4,"2550": 139.77,"2575": 140.74,"2600": 138.55,"2625": 137.67,"2650": 136.3,"2675": 137.99,"2700": 138.11,"2725": 139.08,"2750": 138.84,"2775": 137.82,"2800": 143.76,"2825": 138.47,"2850": 133.5,"2875": 128.21,"2900": 129.87,"2925": 128.34,"2950": 125.19,"2975": 120.98,"3000": 115.82,"3025": 114.05,"3050": 107.08,"3075": 102.91,"3100": 92.31,"3125": 86.34,"3150": 81.4,"3175": 78.13,"3200": 72.54,"3225": 70.56,"3250": 67.42,"3275": 70.39,"3300": 69.57,"3325": 68.48,"3350": 75.58,"3375": 83.45,"3400": 74.44,"3425": 75.53,"3450": 72.06,"3475": 64.69,"3500": 58.67,"3525": 61.26,"3550": 62.04,"3575": 67.52,"3600": 73.75,"3625": 78.07,"3650": 114.57,"3675": 94.06,"3700": 92.89,"3725": 89.08,"3750": 91.73,"3775": 82.34,"3800": 79.96,"3825": 69.13,"3850": 61.43,"3875": 53.93,"3900": 51.59,"3925": 47.34,"3950": 45.52,"3975": 43.08,"4000": 41.5,"4025": 38.9,"4050": 36.2,"4075": 35.53,"4100": 32.21,"4125": 31.51,"4150": 27.87,"4175": 24.9,"4200": 23.92,"4225": 20.34,"4250": 19.06,"4275": 15.88,"4300": 12.22,"4325": 9.37,"4350": 8.44,"4375": 6.55,"4400": 5.17,"4425": 3.62,"4450": 2.05,"4475": 1.61,"4500": 1.38,"4525": 0.98,"4550": 0.45,"4575": 0.47,"4600": 0.33}}}