{"type": "Feature","bbox": [-64.5256,-17.1986,-63.3514,-15.9497],"geometry": {"type": "MultiPolygon","coordinates": [[[[-64.5156,-15.973,179.9681],[-64.522,-15.9766,186.631],[-64.5249,-15.9765,181.1988],[-64.5256,-15.9835,187.2228],[-64.5128,-15.9886,183.2699],[-64.5087,-15.9931,175.879],[-64.5149,-15.9974,182.0537],[-64.5116,-15.9995,186.4295],[-64.5097,-15.9966,182.8714],[-64.5075,-15.9961,179.0492],[-64.5073,-15.9982,183.7887],[-64.5108,-16.0014,180.5377],[-64.5097,-16.0027,180.5377],[-64.4979,-16.0008,180.3753],[-64.4943,-15.9953,177.2859],[-64.491,-15.9969,178.0231],[-64.486,-15.9967,174.4902],[-64.4781,-15.9933,178.1592],[-64.4731,-15.9964,183.0749],[-64.4713,-15.9936,178.5903],[-64.471,-15.987,177.2484],[-64.4665,-15.9886,183.2728],[-64.4639,-15.9809,180.4478],[-64.4621,-15.9807,180.4478],[-64.4602,-15.9853,181.517],[-64.4635,-15.9872,182.6389],[-64.4621,-15.9886,179.7519],[-64.4631,-15.9939,179.7584],[-64.4671,-15.9964,181.5126],[-64.4679,-16.0069,177.1662],[-64.4606,-16.0179,185.7118],[-64.455,-16.0157,181.3955],[-64.4528,-16.0173,180.2859],[-64.4518,-16.0196,184.7029],[-64.4537,-16.0223,189.1996],[-64.4528,-16.0262,182.0297],[-64.4461,-16.0227,177.8188],[-64.4467,-16.0276,187.721],[-64.4445,-16.0293,183.5341],[-64.4428,-16.0265,185.8957],[-64.4365,-16.0284,185.7753],[-64.431,-16.0263,182.738],[-64.4309,-16.0221,184.296],[-64.4267,-16.0237,185.1638],[-64.4232,-16.0227,186.3954],[-64.4229,-16.0326,186.2165],[-64.4172,-16.0352,185.2173],[-64.4182,-16.0384,185.2888],[-64.4096,-16.0446,190.8884],[-64.4038,-16.0423,190.6758],[-64.402,-16.0485,188.9462],[-64.3943,-16.0425,187.5704],[-64.3919,-16.0377,189.3794],[-64.3833,-16.0375,189.3392],[-64.3836,-16.0419,186.3524],[-64.3766,-16.0392,188.4277],[-64.3722,-16.0419,186.588],[-64.3694,-16.0423,187.6399],[-64.3649,-16.0399,187.512],[-64.3611,-16.043,191.8651],[-64.3572,-16.0423,187.7702],[-64.3443,-16.0511,183.1425],[-64.3434,-16.061,190.8016],[-64.3385,-16.0636,189.4442],[-64.3352,-16.0624,189.0503],[-64.3345,-16.0658,190.9358],[-64.3304,-16.0677,189.1283],[-64.329,-16.0709,188.6074],[-64.3282,-16.0685,190.4705],[-64.326,-16.0693,192.6086],[-64.325,-16.0714,189.3945],[-64.3292,-16.0756,188.6832],[-64.3236,-16.0799,189.7793],[-64.3227,-16.0825,188.8536],[-64.3262,-16.0847,193.1878],[-64.3265,-16.0867,192.2531],[-64.3224,-16.0864,189.5419],[-64.3223,-16.0896,192.4135],[-64.3185,-16.0923,190.6659],[-64.3174,-16.0954,191.0605],[-64.3183,-16.0976,189.5354],[-64.3208,-16.098,188.943],[-64.321,-16.0998,191.198],[-64.3184,-16.1025,192.9784],[-64.3228,-16.1077,191.0984],[-64.3197,-16.1148,191.2744],[-64.315,-16.1128,194.7022],[-64.3136,-16.115,191.5086],[-64.3123,-16.1124,191.2302],[-64.3085,-16.1138,190.4871],[-64.3033,-16.1122,191.8291],[-64.3013,-16.1141,192.7321],[-64.2981,-16.1127,193.5307],[-64.297,-16.115,193.1947],[-64.2979,-16.1172,190.9334],[-64.2928,-16.1196,193.0516],[-64.2924,-16.1232,192.0357],[-64.2894,-16.1238,189.645],[-64.2853,-16.1316,194.9753],[-64.2853,-16.1334,192.1149],[-64.2893,-16.132,190.5018],[-64.2903,-16.137,191.7749],[-64.28,-16.1428,197.392],[-64.281,-16.1456,190.9864],[-64.2748,-16.1502,194.191],[-64.2734,-16.1547,198.1718],[-64.2688,-16.154,193.368],[-64.2654,-16.159,198.335],[-64.2655,-16.1607,194.5781],[-64.2683,-16.1627,193.1638],[-64.2669,-16.1647,196.9253],[-64.2638,-16.1657,195.3498],[-64.261,-16.16,194.1573],[-64.2574,-16.1589,194.0305],[-64.2562,-16.1596,197.8667],[-64.2566,-16.1649,195.2684],[-64.2533,-16.1637,195.2111],[-64.2448,-16.1701,196.07],[-64.2427,-16.1676,194.235],[-64.2405,-16.1698,193.4171],[-64.2384,-16.1682,192.9312],[-64.2362,-16.1733,185.7331],[-64.2347,-16.1736,183.7353],[-64.2418,-16.1764,197.3777],[-64.2315,-16.1843,188.8013],[-64.232,-16.1863,185.8682],[-64.2404,-16.1879,196.6546],[-64.2358,-16.189,186.3815],[-64.2328,-16.1935,184.0297],[-64.2331,-16.1951,187.3551],[-64.2383,-16.1952,185.0719],[-64.2404,-16.1999,193.7375],[-64.2378,-16.2024,180.0],[-64.2325,-16.1999,185.0872],[-64.2315,-16.2024,187.454],[-64.2373,-16.2053,190.8458],[-64.2412,-16.2126,185.9053],[-64.2375,-16.2126,184.3145],[-64.2335,-16.2092,197.7313],[-64.2325,-16.2122,186.5974],[-64.2355,-16.2171,195.0719],[-64.2351,-16.2276,189.5537],[-64.2376,-16.2281,197.1693],[-64.2414,-16.2262,195.1732],[-64.2441,-16.2272,184.961],[-64.2438,-16.2289,185.5262],[-64.2344,-16.2338,187.1176],[-64.2395,-16.235,196.4013],[-64.239,-16.24,181.0],[-64.2358,-16.2406,189.3138],[-64.2347,-16.2382,184.2784],[-64.2324,-16.2415,192.5325],[-64.2254,-16.2398,191.0455],[-64.2257,-16.2467,193.6156],[-64.2212,-16.2491,189.9461],[-64.2201,-16.2529,190.7474],[-64.2216,-16.2543,187.7641],[-64.2268,-16.2503,185.624],[-64.2327,-16.2517,185.0423],[-64.2363,-16.2542,187.7256],[-64.2374,-16.2608,192.0029],[-64.2317,-16.2627,191.1915],[-64.2303,-16.2618,193.9337],[-64.2306,-16.2574,184.8199],[-64.2287,-16.2571,192.4727],[-64.2252,-16.2635,189.3083],[-64.2268,-16.2668,196.2873],[-64.2209,-16.2655,187.7676],[-64.2196,-16.2701,184.5754],[-64.2165,-16.2663,184.4142],[-64.2164,-16.2716,183.6814],[-64.2124,-16.2739,183.687],[-64.2093,-16.2698,183.5929],[-64.2091,-16.2671,183.5574],[-64.2079,-16.2705,183.5642],[-64.2038,-16.2695,183.8246],[-64.2019,-16.2728,184.9489],[-64.1953,-16.2711,183.5299],[-64.1934,-16.2687,187.732],[-64.1887,-16.2685,188.043],[-64.1783,-16.2767,183.8952],[-64.1742,-16.2715,183.3633],[-64.1716,-16.2734,183.9112],[-64.1696,-16.2726,184.0521],[-64.17,-16.2761,183.7557],[-64.1669,-16.2761,185.3943],[-64.1653,-16.2806,184.1673],[-64.1637,-16.2812,184.1673],[-64.1643,-16.2789,183.6501],[-64.1626,-16.2765,183.4254],[-64.1637,-16.2734,188.8406],[-64.1605,-16.2743,187.4103],[-64.1613,-16.2773,184.7981],[-64.1582,-16.2761,184.9879],[-64.157,-16.2726,190.7832],[-64.1547,-16.2727,188.9081],[-64.1538,-16.2738,185.8751],[-64.1563,-16.2745,184.7194],[-64.1568,-16.2769,184.1395],[-64.1551,-16.28,184.6742],[-64.1506,-16.2821,189.2342],[-64.1499,-16.2777,188.5647],[-64.1456,-16.2743,190.668],[-64.1458,-16.2774,185.986],[-64.1435,-16.2779,185.6853],[-64.1417,-16.2812,192.9012],[-64.1428,-16.2817,189.8382],[-64.1442,-16.2797,185.2458],[-64.1483,-16.2828,187.5138],[-64.1468,-16.2857,186.1746],[-64.1419,-16.285,187.3925],[-64.1349,-16.2906,185.4699],[-64.135,-16.2945,185.4595],[-64.1329,-16.2975,190.1164],[-64.1353,-16.3015,186.6153],[-64.1322,-16.3078,189.8277],[-64.129,-16.3084,190.6711],[-64.1291,-16.3066,189.0171],[-64.1263,-16.3051,195.8169],[-64.1274,-16.3004,188.9548],[-64.1262,-16.2985,189.3443],[-64.1245,-16.3007,193.0502],[-64.1229,-16.2995,192.8051],[-64.1176,-16.3016,193.21],[-64.1163,-16.3052,192.6393],[-64.1185,-16.3073,193.3398],[-64.1157,-16.3093,188.8625],[-64.1161,-16.3119,191.7218],[-64.1135,-16.312,193.5051],[-64.114,-16.3052,195.0334],[-64.1082,-16.3072,190.1319],[-64.1051,-16.3055,196.092],[-64.1033,-16.3089,191.5681],[-64.1074,-16.3108,193.5234],[-64.1038,-16.3115,198.0204],[-64.1054,-16.3134,192.8139],[-64.1047,-16.315,193.7633],[-64.0986,-16.3133,197.5823],[-64.0988,-16.3102,196.4453],[-64.0931,-16.3097,192.8887],[-64.0914,-16.312,193.1235],[-64.0919,-16.3192,194.3929],[-64.0877,-16.3191,190.8026],[-64.0858,-16.3156,189.4639],[-64.0834,-16.3193,194.4424],[-64.0832,-16.3232,196.9337],[-64.0808,-16.3236,198.7351],[-64.0819,-16.3218,195.4784],[-64.0803,-16.3195,201.6301],[-64.0751,-16.3202,194.9431],[-64.0749,-16.3247,199.4058],[-64.0707,-16.328,203.5425],[-64.0751,-16.33,199.6287],[-64.0753,-16.3332,200.2293],[-64.0696,-16.3348,200.0465],[-64.0677,-16.3371,197.1094],[-64.0705,-16.3371,199.9046],[-64.0706,-16.3397,200.8438],[-64.0728,-16.3403,198.1361],[-64.0708,-16.3425,198.1653],[-64.0723,-16.3427,198.1998],[-64.073,-16.3457,194.1595],[-64.0751,-16.3426,196.9982],[-64.0765,-16.343,196.9776],[-64.0756,-16.3443,196.9776],[-64.0779,-16.3447,198.0236],[-64.0752,-16.3504,198.6407],[-64.0768,-16.351,198.6407],[-64.0765,-16.354,197.7733],[-64.0719,-16.3556,194.3878],[-64.0737,-16.358,191.2054],[-64.0708,-16.358,198.4952],[-64.0712,-16.3645,199.2155],[-64.0701,-16.3635,201.2698],[-64.0689,-16.3648,198.3043],[-64.07,-16.3657,198.3043],[-64.0685,-16.3686,198.8769],[-64.0709,-16.369,201.6595],[-64.0698,-16.3709,199.4763],[-64.0717,-16.3701,199.6243],[-64.0717,-16.3715,199.1764],[-64.0666,-16.3725,199.5756],[-64.0672,-16.374,200.6846],[-64.0655,-16.3755,199.5952],[-64.0634,-16.3726,199.3688],[-64.0625,-16.3743,192.093],[-64.0645,-16.3767,196.2378],[-64.063,-16.3757,202.6627],[-64.0615,-16.3777,199.7093],[-64.0587,-16.377,197.4489],[-64.0572,-16.3746,199.8604],[-64.054,-16.377,191.9442],[-64.0562,-16.3802,199.7138],[-64.055,-16.3824,200.63],[-64.0593,-16.3861,199.4236],[-64.061,-16.3849,200.7065],[-64.0611,-16.3884,199.1548],[-64.0671,-16.3876,201.9489],[-64.0684,-16.3907,195.9936],[-64.0662,-16.3957,202.2884],[-64.0683,-16.3966,200.8915],[-64.0657,-16.3995,200.0458],[-64.0684,-16.3999,197.6404],[-64.0701,-16.407,196.7438],[-64.0731,-16.4072,204.335],[-64.0717,-16.4092,199.2923],[-64.0726,-16.4113,201.6444],[-64.07,-16.4131,204.4056],[-64.0729,-16.4149,201.2375],[-64.0719,-16.416,201.2375],[-64.0736,-16.4185,204.8307],[-64.0769,-16.4196,205.0639],[-64.078,-16.4179,205.1235],[-64.08,-16.42,205.2469],[-64.0791,-16.4251,204.1406],[-64.0757,-16.4267,202.1051],[-64.0704,-16.4394,205.6276],[-64.068,-16.4395,199.4364],[-64.0673,-16.4416,199.3605],[-64.0633,-16.4429,208.7341],[-64.0644,-16.449,198.0505],[-64.0668,-16.4492,206.0125],[-64.0671,-16.4509,206.6874],[-64.0656,-16.4508,205.9117],[-64.067,-16.4521,202.4754],[-64.0557,-16.4616,206.5098],[-64.0567,-16.4629,203.4775],[-64.0541,-16.4644,200.2538],[-64.0549,-16.4654,203.5272],[-64.053,-16.4663,207.0186],[-64.0526,-16.4698,204.4866],[-64.0504,-16.4708,207.8178],[-64.0502,-16.474,198.2471],[-64.0525,-16.4734,207.1958],[-64.0535,-16.4754,208.0886],[-64.0556,-16.4745,207.8885],[-64.054,-16.4774,207.2661],[-64.0572,-16.4778,205.7789],[-64.056,-16.4786,208.3718],[-64.0574,-16.4787,207.7169],[-64.0578,-16.4816,206.3311],[-64.0586,-16.4795,208.2659],[-64.0606,-16.481,207.4598],[-64.059,-16.4818,208.1962],[-64.0599,-16.484,205.5855],[-64.058,-16.4852,203.8825],[-64.058,-16.4872,207.0324],[-64.0547,-16.4879,208.6048],[-64.0573,-16.4895,209.2396],[-64.0556,-16.4925,207.9034],[-64.0578,-16.4931,205.5772],[-64.0565,-16.4952,207.9551],[-64.0584,-16.4984,207.7345],[-64.0571,-16.501,208.2051],[-64.0523,-16.503,206.3052],[-64.0535,-16.5073,206.6537],[-64.0523,-16.5092,208.8179],[-64.0538,-16.509,205.3736],[-64.0554,-16.5119,205.5743],[-64.0531,-16.5146,205.5426],[-64.0539,-16.5178,207.9707],[-64.0511,-16.5178,206.4935],[-64.0528,-16.5219,207.4469],[-64.0512,-16.523,207.2926],[-64.0531,-16.5235,208.0169],[-64.0509,-16.5267,207.1844],[-64.0533,-16.5262,208.8339],[-64.0537,-16.528,208.2482],[-64.0509,-16.5285,206.3952],[-64.0536,-16.5305,208.1067],[-64.0477,-16.529,202.1005],[-64.0461,-16.5306,209.1724],[-64.0476,-16.5342,203.4669],[-64.0471,-16.5387,207.6814],[-64.0487,-16.5402,201.5751],[-64.0468,-16.5408,205.8895],[-64.0492,-16.5447,202.6346],[-64.0474,-16.5448,205.9366],[-64.048,-16.5461,205.9366],[-64.0464,-16.5472,207.9969],[-64.043,-16.5466,210.7122],[-64.0388,-16.5485,210.1588],[-64.0363,-16.5467,210.0385],[-64.0347,-16.5508,207.1171],[-64.0351,-16.5453,208.3371],[-64.0311,-16.5453,206.6012],[-64.0286,-16.5392,209.3842],[-64.0229,-16.5396,210.6549],[-64.0224,-16.5443,207.6869],[-64.0198,-16.5406,210.168],[-64.0149,-16.5423,208.9595],[-64.009,-16.5395,213.513],[-64.0047,-16.5448,207.2985],[-64.0018,-16.5418,213.1694],[-64.0024,-16.5458,208.7107],[-64.0001,-16.5445,210.6387],[-64.0,-16.5464,208.5496],[-63.9979,-16.5455,209.4641],[-63.9979,-16.5483,205.53],[-63.9961,-16.5499,211.9876],[-63.9977,-16.5528,210.5962],[-63.9957,-16.5535,206.9993],[-63.9942,-16.5513,210.6714],[-63.9951,-16.5537,206.9993],[-63.9979,-16.5548,207.6489],[-63.9959,-16.556,210.7849],[-63.9978,-16.5571,209.4726],[-63.9971,-16.5596,209.4974],[-64.0,-16.5604,207.066],[-63.9972,-16.5644,209.8063],[-63.9998,-16.5643,208.0908],[-63.9991,-16.5678,214.4605],[-64.0011,-16.5692,212.1136],[-64.0,-16.5724,210.1577],[-64.0021,-16.5709,212.374],[-64.0009,-16.5737,209.2125],[-64.0027,-16.5737,206.4601],[-64.0004,-16.5751,205.774],[-64.0024,-16.5774,210.9928],[-64.0006,-16.5805,208.2875],[-64.0015,-16.5825,209.7975],[-63.9971,-16.5831,210.1726],[-63.9942,-16.5885,207.8715],[-63.9973,-16.5906,211.2394],[-63.9948,-16.5934,209.0714],[-63.9969,-16.5942,211.6017],[-63.9959,-16.5963,210.5619],[-63.9981,-16.5967,205.951],[-63.9946,-16.5985,206.3717],[-63.9945,-16.6014,212.2871],[-63.9977,-16.6012,213.9375],[-63.9973,-16.6044,212.2551],[-64.0009,-16.6085,205.97],[-64.0,-16.6128,210.1077],[-64.0023,-16.6126,209.758],[-64.005,-16.6152,213.5342],[-64.0027,-16.6169,215.1046],[-64.0044,-16.6189,213.2492],[-64.0042,-16.623,215.7313],[-64.0062,-16.624,212.7403],[-64.0097,-16.6215,211.7864],[-64.0113,-16.6236,216.3079],[-64.01,-16.6251,209.4891],[-64.0085,-16.6237,212.0775],[-64.0091,-16.6251,209.3559],[-64.0072,-16.6258,209.3559],[-64.0116,-16.6296,216.9097],[-64.0105,-16.6326,220.7852],[-64.0125,-16.6317,210.1209],[-64.0093,-16.6378,218.8244],[-64.011,-16.637,218.8244],[-64.0105,-16.6389,220.1115],[-64.0137,-16.6393,213.7758],[-64.0108,-16.6415,219.3582],[-64.011,-16.6436,215.3442],[-64.0127,-16.6432,211.5891],[-64.0135,-16.6461,211.1675],[-64.0147,-16.6448,211.1675],[-64.0177,-16.6465,209.5889],[-64.0162,-16.6479,213.55],[-64.0187,-16.6498,211.852],[-64.0183,-16.6541,211.5047],[-64.0164,-16.6523,214.9575],[-64.0155,-16.6552,213.2733],[-64.0105,-16.6573,218.3289],[-64.0132,-16.6571,212.351],[-64.0109,-16.6613,220.3813],[-64.0126,-16.661,218.1277],[-64.012,-16.6634,212.681],[-64.0151,-16.6654,210.2556],[-64.0136,-16.6649,210.2556],[-64.0121,-16.6664,213.7493],[-64.0132,-16.6675,213.7493],[-64.0123,-16.6694,214.6342],[-64.0142,-16.6719,213.3633],[-64.0159,-16.6683,218.5801],[-64.0194,-16.6684,212.4344],[-64.0181,-16.6689,212.4344],[-64.0198,-16.671,214.6714],[-64.0182,-16.6712,216.5963],[-64.0175,-16.6742,214.5919],[-64.0235,-16.6761,213.9188],[-64.0207,-16.6784,213.6357],[-64.0236,-16.6794,218.5694],[-64.023,-16.6811,214.9353],[-64.0247,-16.6802,211.5531],[-64.0264,-16.6841,212.9785],[-64.0247,-16.6879,219.3929],[-64.0271,-16.6892,211.388],[-64.0277,-16.6915,218.9177],[-64.0254,-16.6954,220.6237],[-64.027,-16.6953,211.4821],[-64.0267,-16.6977,214.8668],[-64.0311,-16.7001,215.096],[-64.0292,-16.7003,221.4326],[-64.0288,-16.7021,220.5298],[-64.0321,-16.7022,220.6039],[-64.031,-16.7045,218.1596],[-64.0331,-16.7044,213.8767],[-64.0308,-16.7064,216.0311],[-64.0336,-16.7071,215.8044],[-64.0348,-16.7092,213.9895],[-64.0322,-16.7096,216.0861],[-64.0327,-16.7123,217.8302],[-64.0295,-16.7117,219.5179],[-64.032,-16.7149,220.8377],[-64.0309,-16.718,217.4678],[-64.0278,-16.7174,220.4243],[-64.0303,-16.7187,217.4678],[-64.0289,-16.7196,221.5499],[-64.03,-16.7207,219.9449],[-64.0271,-16.7278,223.7614],[-64.0294,-16.7281,215.0698],[-64.0278,-16.7291,215.0698],[-64.0298,-16.731,215.0872],[-64.0286,-16.7322,225.1187],[-64.0312,-16.7323,213.8021],[-64.0297,-16.7337,221.4831],[-64.0298,-16.7385,217.8069],[-64.0271,-16.7403,221.4129],[-64.0277,-16.7417,215.8828],[-64.0256,-16.7421,224.0374],[-64.0278,-16.743,214.919],[-64.0236,-16.7434,218.4951],[-64.0228,-16.7458,213.2562],[-64.0177,-16.7444,225.9719],[-64.0182,-16.7457,222.089],[-64.02,-16.7454,219.4334],[-64.0179,-16.7491,220.825],[-64.0196,-16.7485,219.9884],[-64.0214,-16.7503,215.4881],[-64.0179,-16.7532,220.5262],[-64.0183,-16.756,217.7073],[-64.0142,-16.7555,219.4435],[-64.0134,-16.7577,218.8626],[-64.0153,-16.7612,220.7845],[-64.0108,-16.7571,219.8203],[-64.0095,-16.7615,221.8637],[-64.0065,-16.7594,219.7137],[-64.0031,-16.7599,220.6469],[-64.0055,-16.7618,218.981],[-64.004,-16.7666,221.9305],[-64.0066,-16.7681,224.1471],[-64.0061,-16.7713,219.2767],[-64.0046,-16.7698,218.2552],[-64.004,-16.772,221.7321],[-64.0025,-16.7721,225.2518],[-64.0015,-16.7704,221.6978],[-63.9999,-16.7754,221.3291],[-63.9956,-16.7764,223.9276],[-63.9936,-16.7781,219.2652],[-63.9941,-16.7795,219.2652],[-63.9906,-16.7788,227.6502],[-63.9896,-16.7839,222.3418],[-63.9869,-16.7827,226.0198],[-63.9851,-16.7843,220.41],[-63.9866,-16.7858,223.8082],[-63.9841,-16.7879,228.985],[-63.9879,-16.7905,221.0722],[-63.9858,-16.7911,218.559],[-63.9857,-16.7933,227.6133],[-63.9827,-16.7933,224.0145],[-63.9825,-16.7905,225.6859],[-63.9812,-16.7935,224.227],[-63.9782,-16.7938,224.4627],[-63.9799,-16.7962,218.5353],[-63.9781,-16.7951,225.1528],[-63.9754,-16.796,229.1472],[-63.974,-16.8007,224.8925],[-63.9721,-16.7986,220.9505],[-63.9696,-16.7986,223.3672],[-63.9625,-16.8049,225.7822],[-63.9599,-16.8037,222.2757],[-63.9612,-16.8066,225.2203],[-63.9596,-16.8052,225.2513],[-63.9577,-16.8073,217.9425],[-63.9612,-16.8088,222.9001],[-63.9596,-16.8089,220.4406],[-63.9608,-16.8129,223.8851],[-63.959,-16.812,221.7054],[-63.9562,-16.8165,224.7595],[-63.9526,-16.8163,222.97],[-63.9508,-16.8187,222.9869],[-63.951,-16.817,222.0591],[-63.9478,-16.8159,221.7211],[-63.9486,-16.8177,220.1431],[-63.9455,-16.82,224.0879],[-63.948,-16.8211,222.4929],[-63.9449,-16.8211,230.7558],[-63.9461,-16.8218,222.7446],[-63.9458,-16.825,226.8456],[-63.9481,-16.8234,228.1319],[-63.9493,-16.8253,227.3964],[-63.9468,-16.8266,227.6828],[-63.9468,-16.8288,224.1744],[-63.9448,-16.8277,232.9257],[-63.9458,-16.8289,224.1744],[-63.9449,-16.8311,226.9351],[-63.9409,-16.8343,233.3288],[-63.9422,-16.8361,231.5169],[-63.9398,-16.8368,227.8336],[-63.9406,-16.8381,229.6781],[-63.9425,-16.8371,228.7761],[-63.9434,-16.841,228.8065],[-63.9465,-16.842,227.676],[-63.9461,-16.8432,231.2753],[-63.9453,-16.842,228.5212],[-63.9417,-16.8429,231.9127],[-63.9427,-16.8447,227.2113],[-63.9443,-16.8444,231.3275],[-63.9421,-16.8476,227.1394],[-63.9429,-16.8488,227.3116],[-63.9445,-16.8478,230.4449],[-63.9449,-16.8508,230.5655],[-63.9424,-16.8525,228.2345],[-63.9445,-16.8525,227.8199],[-63.9435,-16.8542,228.59],[-63.9448,-16.8556,227.7614],[-63.9428,-16.8563,228.193],[-63.9443,-16.8588,228.1456],[-63.9421,-16.8573,228.193],[-63.9413,-16.86,231.7401],[-63.939,-16.8597,227.2107],[-63.9371,-16.8628,230.2437],[-63.9404,-16.8644,235.0501],[-63.9416,-16.8681,226.4824],[-63.9432,-16.8678,233.6938],[-63.9407,-16.8691,234.4554],[-63.9412,-16.8715,234.3897],[-63.9437,-16.8701,230.0205],[-63.9439,-16.8722,227.8968],[-63.9456,-16.8694,234.7137],[-63.9464,-16.8706,227.1683],[-63.9483,-16.8698,227.0999],[-63.9481,-16.8714,234.6659],[-63.9508,-16.8695,234.0794],[-63.9517,-16.8714,234.2587],[-63.9541,-16.8713,231.669],[-63.9529,-16.8754,231.6866],[-63.9542,-16.8775,228.0593],[-63.9599,-16.8764,234.8814],[-63.9595,-16.878,235.0589],[-63.9619,-16.8787,234.0066],[-63.9594,-16.8803,232.7437],[-63.9625,-16.8819,231.3746],[-63.9622,-16.884,229.2933],[-63.9643,-16.8856,231.9693],[-63.9624,-16.8895,235.0292],[-63.9634,-16.8912,234.3222],[-63.9568,-16.8934,239.6813],[-63.9593,-16.8938,231.4434],[-63.9585,-16.8965,232.473],[-63.9596,-16.898,234.1764],[-63.9562,-16.8956,236.1756],[-63.9561,-16.8985,233.8755],[-63.9534,-16.9008,236.4375],[-63.957,-16.9015,231.7122],[-63.9569,-16.9035,237.0804],[-63.9602,-16.9038,230.5733],[-63.9545,-16.909,239.8549],[-63.9551,-16.9133,233.6108],[-63.9499,-16.9142,234.4213],[-63.9534,-16.9154,234.2437],[-63.9534,-16.9174,236.0051],[-63.9565,-16.9149,236.0526],[-63.9576,-16.916,236.0526],[-63.9563,-16.9167,234.7387],[-63.9592,-16.9175,237.2837],[-63.9598,-16.9196,238.6002],[-63.9565,-16.9201,238.0645],[-63.9585,-16.9207,234.8461],[-63.9573,-16.9224,244.271],[-63.9588,-16.9241,233.803],[-63.9555,-16.9245,242.737],[-63.9538,-16.9263,233.5317],[-63.9502,-16.926,236.1188],[-63.9517,-16.9284,234.6691],[-63.9497,-16.929,233.8917],[-63.9505,-16.9308,233.0058],[-63.948,-16.9315,232.9112],[-63.9486,-16.9345,234.7788],[-63.9538,-16.9386,236.143],[-63.9574,-16.9375,237.2622],[-63.955,-16.941,239.01],[-63.956,-16.9426,235.0085],[-63.9573,-16.9416,235.0085],[-63.9578,-16.9434,235.066],[-63.9601,-16.9424,237.9547],[-63.9596,-16.9451,236.4485],[-63.9626,-16.9431,236.2175],[-63.9641,-16.944,232.4199],[-63.9606,-16.9455,235.6401],[-63.9616,-16.9478,235.7441],[-63.9546,-16.9499,234.24],[-63.9531,-16.9547,238.7528],[-63.9547,-16.9543,237.4645],[-63.9548,-16.9562,234.3402],[-63.9523,-16.9561,238.7528],[-63.954,-16.9572,238.6724],[-63.9529,-16.9596,237.0424],[-63.9491,-16.9615,234.9915],[-63.9401,-16.9591,254.1584],[-63.9351,-16.9596,244.9296],[-63.9347,-16.9635,235.5241],[-63.9368,-16.9623,237.3752],[-63.9373,-16.9643,240.1304],[-63.9354,-16.9663,240.2586],[-63.9337,-16.9658,238.0316],[-63.9345,-16.9675,237.3681],[-63.9329,-16.9703,239.5629],[-63.932,-16.969,238.9952],[-63.9291,-16.9696,240.4932],[-63.9291,-16.9678,238.5264],[-63.9262,-16.9663,237.5641],[-63.9274,-16.9646,238.6733],[-63.9247,-16.9631,238.6316],[-63.9151,-16.9664,238.4337],[-63.9117,-16.9658,264.5008],[-63.9111,-16.9681,238.5322],[-63.9065,-16.9679,240.1808],[-63.903,-16.9659,239.8883],[-63.8961,-16.9693,241.603],[-63.8892,-16.9668,243.7841],[-63.8863,-16.9685,240.6135],[-63.888,-16.9716,245.1306],[-63.8842,-16.9726,238.8535],[-63.8807,-16.9712,240.7915],[-63.8815,-16.9684,243.0565],[-63.8783,-16.967,242.5544],[-63.8776,-16.969,239.9072],[-63.872,-16.9717,242.8113],[-63.8721,-16.9732,243.7438],[-63.8751,-16.9739,242.5068],[-63.8742,-16.9755,243.7155],[-63.8697,-16.9771,239.109],[-63.8661,-16.9763,242.1935],[-63.8675,-16.9804,239.8595],[-63.8616,-16.9803,241.1405],[-63.861,-16.9762,240.3044],[-63.857,-16.9784,241.0054],[-63.8554,-16.9764,239.0909],[-63.8526,-16.9808,237.1311],[-63.8521,-16.9795,241.6405],[-63.8509,-16.9811,237.1311],[-63.8491,-16.9802,237.7759],[-63.845,-16.9839,236.5116],[-63.8436,-16.9825,240.6154],[-63.8417,-16.9856,236.7483],[-63.8392,-16.9843,239.5222],[-63.8389,-16.9886,237.7275],[-63.8359,-16.9876,237.7406],[-63.8353,-16.9858,238.98],[-63.8346,-16.9886,237.8092],[-63.8331,-16.9872,236.8934],[-63.8314,-16.9887,238.3608],[-63.8276,-16.9878,237.7979],[-63.8262,-16.9918,236.269],[-63.8248,-16.9903,239.7848],[-63.8207,-16.9941,237.8919],[-63.8165,-16.9917,236.7812],[-63.8173,-16.9885,236.7625],[-63.8164,-16.9876,239.1227],[-63.8146,-16.9889,235.7377],[-63.8147,-16.9859,242.8215],[-63.8137,-16.9875,237.2237],[-63.813,-16.986,240.6802],[-63.8088,-16.986,240.129],[-63.809,-16.9876,238.465],[-63.8067,-16.9872,239.3412],[-63.8055,-16.9893,237.1879],[-63.8011,-16.9889,237.9526],[-63.8017,-16.9862,236.7199],[-63.7994,-16.987,237.9859],[-63.7997,-16.9853,237.9606],[-63.7973,-16.9851,237.1438],[-63.7963,-16.9874,238.0872],[-63.7915,-16.9872,238.1638],[-63.7916,-16.9889,239.14],[-63.7878,-16.9917,238.8306],[-63.7881,-16.9901,238.9781],[-63.7867,-16.9908,239.4287],[-63.7862,-16.9892,241.41309999999999],[-63.7845,-16.9907,238.8463],[-63.7837,-16.989,240.8121],[-63.7829,-16.99,238.8463],[-63.7826,-16.9886,240.5681],[-63.7801,-16.9887,238.7147],[-63.7772,-16.9954,239.0725],[-63.7751,-16.9953,240.2299],[-63.7757,-16.9964,238.5803],[-63.7728,-16.9969,239.0291],[-63.772,-16.9939,236.7552],[-63.7713,-16.995,240.0198],[-63.7671,-16.994,239.1428],[-63.7633,-16.9961,234.0569],[-63.7593,-17.0075,233.5],[-63.7561,-17.0062,233.5],[-63.7569,-17.0029,236.8002],[-63.7554,-16.9997,239.9677],[-63.753,-17.0005,240.8146],[-63.7501,-16.9989,239.7176],[-63.7474,-17.0001,240.9544],[-63.748,-17.0039,239.4174],[-63.7465,-17.0064,237.7184],[-63.7477,-17.009,236.4038],[-63.7451,-17.0105,243.3207],[-63.7433,-17.0163,236.4188],[-63.7441,-17.0192,238.9799],[-63.742,-17.0219,237.1839],[-63.7386,-17.0227,235.0153],[-63.7366,-17.0267,240.3657],[-63.7379,-17.0292,240.4941],[-63.7335,-17.0317,240.7104],[-63.7353,-17.0335,242.6281],[-63.7338,-17.0353,242.0844],[-63.7363,-17.0377,239.516],[-63.7361,-17.0401,239.5155],[-63.7333,-17.0409,242.1338],[-63.7296,-17.046,246.9041],[-63.7272,-17.0468,243.6344],[-63.7276,-17.0508,244.4539],[-63.7213,-17.0453,247.3393],[-63.7157,-17.0555,242.6039],[-63.7126,-17.053,247.3333],[-63.7098,-17.0549,244.1077],[-63.7079,-17.055,244.7549],[-63.7073,-17.0532,247.441],[-63.7011,-17.0538,244.4824],[-63.7,-17.0568,243.1748],[-63.6972,-17.056,247.2177],[-63.6956,-17.0529,250.5785],[-63.6943,-17.0547,244.5739],[-63.689,-17.0546,249.4723],[-63.6869,-17.0565,247.2107],[-63.6878,-17.0595,250.1666],[-63.6849,-17.062,244.3715],[-63.6861,-17.0628,244.3715],[-63.6852,-17.0653,247.5663],[-63.6823,-17.0632,247.0043],[-63.6828,-17.0651,247.8644],[-63.6808,-17.0671,248.1799],[-63.6785,-17.0656,243.4825],[-63.6774,-17.068,246.9767],[-63.6734,-17.068,246.5587],[-63.6688,-17.0756,250.9554],[-63.6697,-17.0767,247.4729],[-63.6663,-17.0784,250.4499],[-63.6665,-17.0828,248.0716],[-63.6648,-17.0835,251.7573],[-63.6669,-17.0898,248.6732],[-63.6629,-17.0923,247.0218],[-63.6646,-17.0952,250.4005],[-63.6631,-17.0984,250.732],[-63.6597,-17.1005,250.5351],[-63.6595,-17.0992,251.2079],[-63.6549,-17.0995,250.8068],[-63.6551,-17.0978,250.934],[-63.6527,-17.098,250.055],[-63.6504,-17.101,249.1532],[-63.6475,-17.0998,246.7418],[-63.6453,-17.1013,247.6404],[-63.6465,-17.1049,248.9761],[-63.6419,-17.1054,246.2962],[-63.6416,-17.1098,249.903],[-63.6395,-17.1089,247.8724],[-63.64,-17.1098,249.3344],[-63.6383,-17.11,247.8093],[-63.6408,-17.1111,249.3344],[-63.642,-17.1141,250.1436],[-63.6382,-17.1181,252.259],[-63.638,-17.1204,250.7815],[-63.6336,-17.1213,252.5395],[-63.6324,-17.1232,250.2656],[-63.6332,-17.1261,252.506],[-63.6311,-17.1266,250.8035],[-63.6306,-17.1286,248.9202],[-63.6282,-17.1281,252.2252],[-63.6245,-17.1335,253.2366],[-63.6184,-17.1351,251.675],[-63.6163,-17.1388,251.1662],[-63.6143,-17.1381,253.8313],[-63.6123,-17.1395,253.1597],[-63.6128,-17.1426,254.3071],[-63.611,-17.1436,254.1429],[-63.6155,-17.147,253.5323],[-63.6161,-17.1511,255.9698],[-63.6177,-17.1521,253.998],[-63.6168,-17.155,255.7701],[-63.6187,-17.1565,258.876],[-63.616,-17.1578,258.6691],[-63.6171,-17.1591,259.0657],[-63.616,-17.1619,260.6544],[-63.6129,-17.1635,263.4453],[-63.6149,-17.1672,257.2752],[-63.6178,-17.1689,259.3677],[-63.6165,-17.1702,259.5458],[-63.5232,-17.1567,249.7082],[-63.4863,-17.1777,252.1423],[-63.4667,-17.1968,258.1206],[-63.4502,-17.1986,258.0096],[-63.3755,-17.1686,254.3688],[-63.3514,-17.1527,253.0925],[-63.3533,-17.1514,252.0863],[-63.3572,-17.1326,250.0864],[-63.3604,-17.1298,249.7517],[-63.3637,-17.13,250.162],[-63.3676,-17.1208,249.6184],[-63.3711,-17.1188,249.0344],[-63.3709,-17.1097,248.4449],[-63.3678,-17.1041,245.6284],[-63.3684,-17.1011,246.4918],[-63.3778,-17.0984,249.0485],[-63.3826,-17.0918,245.6057],[-63.386,-17.0899,242.6261],[-63.3871,-17.0851,245.2096],[-63.3853,-17.0757,243.11],[-63.3884,-17.074,240.7542],[-63.3895,-17.0703,242.7447],[-63.3949,-17.0666,240.328],[-63.3953,-17.0634,239.7337],[-63.4017,-17.0607,239.9789],[-63.4025,-17.055,237.2948],[-63.4079,-17.0457,237.528],[-63.4065,-17.0423,233.8098],[-63.4037,-17.041,234.58],[-63.4089,-17.0283,244.4995],[-63.4077,-17.0214,232.871],[-63.4097,-17.0204,232.1332],[-63.411,-17.0143,231.396],[-63.4141,-17.0103,232.1303],[-63.4165,-17.0094,230.8833],[-63.4201,-17.0109,233.0652],[-63.4201,-17.0088,230.9846],[-63.4222,-17.0075,232.3331],[-63.4199,-17.0015,235.8832],[-63.4205,-16.9975,229.0125],[-63.428,-16.9879,228.4159],[-63.4302,-16.9867,231.7139],[-63.4339,-16.9888,229.8756],[-63.4366,-16.9818,228.2258],[-63.4417,-16.9831,225.3506],[-63.4433,-16.9816,227.615],[-63.4429,-16.9766,227.2884],[-63.4453,-16.9746,226.226],[-63.447,-16.9751,225.9802],[-63.4486,-16.9725,233.4543],[-63.4458,-16.9711,225.7142],[-63.4435,-16.9662,224.487],[-63.4447,-16.9623,224.3066],[-63.4528,-16.9604,228.2335],[-63.4641,-16.9508,222.0969],[-63.4691,-16.9504,223.6313],[-63.4719,-16.9481,229.4676],[-63.4722,-16.9411,226.8361],[-63.4691,-16.9368,226.1463],[-63.4696,-16.9327,220.2237],[-63.4673,-16.9299,216.3069],[-63.4677,-16.925,215.7917],[-63.4728,-16.9156,215.254],[-63.4746,-16.9087,214.7365],[-63.4729,-16.9033,214.5959],[-63.4751,-16.8963,216.0956],[-63.4731,-16.8862,222.2904],[-63.4816,-16.8821,219.2521],[-63.4845,-16.8752,217.9147],[-63.4911,-16.8744,214.496],[-63.4879,-16.8678,218.842],[-63.4932,-16.8705,215.9015],[-63.495,-16.8688,216.9037],[-63.497,-16.8695,215.396],[-63.5018,-16.8654,214.9047],[-63.4999,-16.8632,216.5668],[-63.5041,-16.8609,214.2885],[-63.5052,-16.8574,214.3062],[-63.5074,-16.8559,214.7484],[-63.5052,-16.8542,216.7816],[-63.5095,-16.8528,216.4826],[-63.5053,-16.8529,219.3591],[-63.5043,-16.8514,216.6239],[-63.5064,-16.8496,215.807],[-63.5105,-16.8495,215.6702],[-63.5119,-16.8447,214.7862],[-63.5138,-16.8458,215.1777],[-63.516,-16.8438,215.4762],[-63.5212,-16.8448,212.9005],[-63.5208,-16.8426,215.1697],[-63.5252,-16.8414,214.1088],[-63.5308,-16.8333,213.0383],[-63.5357,-16.8318,213.6593],[-63.5369,-16.8292,217.2754],[-63.5437,-16.8243,212.2751],[-63.5485,-16.8274,213.491],[-63.5493,-16.824,212.5717],[-63.5544,-16.8197,212.2365],[-63.5638,-16.8169,211.4152],[-63.5687,-16.8116,211.4259],[-63.5776,-16.8079,210.7792],[-63.5774,-16.8052,210.2919],[-63.5792,-16.8037,210.0774],[-63.5786,-16.7997,210.6223],[-63.5818,-16.7986,209.3042],[-63.5858,-16.7882,209.2424],[-63.5898,-16.7861,209.3558],[-63.5936,-16.7796,210.744],[-63.5941,-16.7733,209.9453],[-63.5916,-16.7667,208.8992],[-63.5925,-16.7638,209.6118],[-63.6021,-16.7602,208.1059],[-63.609,-16.7461,214.5367],[-63.6106,-16.746,206.0908],[-63.6114,-16.7435,209.7918],[-63.6147,-16.746,210.0223],[-63.6163,-16.743,212.5797],[-63.6235,-16.7402,207.5085],[-63.6247,-16.7357,207.9335],[-63.6264,-16.7346,207.9335],[-63.6264,-16.7298,203.666],[-63.6323,-16.7275,209.801],[-63.6402,-16.7196,207.5614],[-63.6379,-16.713,204.9991],[-63.6389,-16.7049,205.8296],[-63.6357,-16.7014,208.6403],[-63.6387,-16.6953,204.0172],[-63.6416,-16.6966,203.6651],[-63.6435,-16.6933,204.0685],[-63.6503,-16.6923,206.3106],[-63.6519,-16.6951,205.8154],[-63.6561,-16.6963,206.1954],[-63.6582,-16.6998,206.2047],[-63.6694,-16.7048,206.6578],[-63.6713,-16.704,212.1849],[-63.6718,-16.7014,210.5398],[-63.6804,-16.7022,206.6789],[-63.6863,-16.6995,201.6796],[-63.688,-16.6961,203.4706],[-63.6866,-16.6938,201.2625],[-63.6888,-16.6859,201.5612],[-63.6884,-16.6799,206.0579],[-63.6905,-16.6774,202.1687],[-63.6887,-16.6757,205.9483],[-63.6892,-16.6711,202.4856],[-63.6863,-16.6723,207.7448],[-63.6851,-16.6703,201.3862],[-63.6868,-16.667,205.412],[-63.6849,-16.6657,203.2168],[-63.686,-16.6633,201.7902],[-63.6852,-16.6557,209.0189],[-63.6807,-16.6574,208.1861],[-63.6821,-16.6535,208.9181],[-63.6799,-16.6519,205.3243],[-63.6819,-16.6498,209.1102],[-63.6816,-16.6465,209.068],[-63.6895,-16.6465,205.2354],[-63.6902,-16.6429,206.4066],[-63.6911,-16.6467,209.2617],[-63.6929,-16.6465,209.1901],[-63.6933,-16.6437,206.8588],[-63.7013,-16.6373,209.088],[-63.7068,-16.6291,205.413],[-63.7113,-16.628,204.0489],[-63.7038,-16.6209,209.3595],[-63.7028,-16.6179,203.0691],[-63.6993,-16.6179,207.9625],[-63.6986,-16.615,205.9419],[-63.7005,-16.6136,208.2974],[-63.6979,-16.612,203.8675],[-63.6979,-16.6094,206.6934],[-63.6999,-16.6071,203.4404],[-63.698,-16.6026,204.2259],[-63.7008,-16.5995,201.7124],[-63.7012,-16.5945,203.9914],[-63.6989,-16.5932,205.1308],[-63.699,-16.5956,204.2131],[-63.6972,-16.5959,208.2624],[-63.6963,-16.5922,207.5856],[-63.7075,-16.5904,201.0665],[-63.7106,-16.584,203.5607],[-63.7071,-16.5762,201.2948],[-63.7101,-16.5757,204.5883],[-63.712,-16.5814,204.1523],[-63.7153,-16.5806,200.6792],[-63.7133,-16.5716,212.1392],[-63.7179,-16.5661,202.9545],[-63.7213,-16.5699,199.6505],[-63.7194,-16.5721,202.0123],[-63.7215,-16.5742,204.3484],[-63.7241,-16.5738,204.6635],[-63.7255,-16.57,204.0535],[-63.7291,-16.5686,204.3762],[-63.7259,-16.5672,201.7536],[-63.7234,-16.5684,204.858],[-63.7245,-16.5631,201.6285],[-63.7276,-16.5615,201.3939],[-63.729,-16.5667,201.3889],[-63.7333,-16.5639,202.977],[-63.7326,-16.5616,202.2825],[-63.7281,-16.5598,200.0219],[-63.7266,-16.557,200.7959],[-63.7311,-16.5559,200.6385],[-63.734,-16.557,202.9256],[-63.7328,-16.5602,200.6899],[-63.7395,-16.5598,205.8692],[-63.7391,-16.558,206.6869],[-63.7339,-16.5546,204.7491],[-63.7395,-16.5466,202.4256],[-63.7406,-16.5456,199.6094],[-63.7464,-16.5471,204.8681],[-63.7492,-16.5424,203.3421],[-63.7529,-16.5426,202.8942],[-63.7568,-16.5407,208.5195],[-63.7563,-16.5373,198.1768],[-63.7598,-16.5404,204.6537],[-63.7561,-16.543,210.6669],[-63.7588,-16.5483,200.7563],[-63.7602,-16.5488,204.2212],[-63.7648,-16.5444,207.4956],[-63.7703,-16.5496,202.959],[-63.7667,-16.5505,204.5554],[-63.7683,-16.5532,200.2498],[-63.7856,-16.5496,195.8824],[-63.7929,-16.5427,204.6223],[-63.7976,-16.5447,202.5732],[-63.8035,-16.5378,207.3947],[-63.8104,-16.539,205.1097],[-63.8152,-16.5434,199.0064],[-63.8263,-16.5398,198.9831],[-63.8279,-16.537,198.1657],[-63.8315,-16.5353,197.3788],[-63.8315,-16.532,197.0515],[-63.8344,-16.5286,195.9362],[-63.8353,-16.5239,196.0338],[-63.8315,-16.5158,194.4759],[-63.8325,-16.5097,194.0882],[-63.8376,-16.5082,194.7183],[-63.8447,-16.5021,198.0866],[-63.8506,-16.5018,196.5044],[-63.8534,-16.4984,204.2762],[-63.852,-16.4948,206.9925],[-63.8541,-16.49,201.4436],[-63.8513,-16.4885,201.1476],[-63.8458,-16.4895,206.1436],[-63.8427,-16.4883,199.3841],[-63.8503,-16.4784,198.5333],[-63.8433,-16.4781,202.6593],[-63.8381,-16.4844,201.5354],[-63.8307,-16.4794,201.1804],[-63.8292,-16.4804,196.0302],[-63.8256,-16.4792,195.9132],[-63.8168,-16.4706,196.5303],[-63.8116,-16.4701,196.1605],[-63.8046,-16.4752,195.259],[-63.8013,-16.4836,195.5493],[-63.7986,-16.4862,195.8936],[-63.7932,-16.4853,195.7997],[-63.7896,-16.4822,195.7693],[-63.794,-16.4801,195.4307],[-63.8005,-16.4695,209.4318],[-63.8035,-16.472,202.6623],[-63.8102,-16.4641,196.7409],[-63.8012,-16.4544,194.0919],[-63.8057,-16.4526,194.5325],[-63.8074,-16.4489,194.6263],[-63.8046,-16.4477,196.937],[-63.8006,-16.4392,194.1056],[-63.8068,-16.4323,193.867],[-63.8083,-16.4337,194.095],[-63.8078,-16.4369,194.3172],[-63.8105,-16.4375,194.3158],[-63.8153,-16.4328,193.784],[-63.8127,-16.4285,204.5083],[-63.8249,-16.4223,193.5951],[-63.8161,-16.4197,194.2331],[-63.8192,-16.4138,197.0313],[-63.8141,-16.4157,197.7762],[-63.8161,-16.4112,207.7743],[-63.8134,-16.4085,207.2331],[-63.8142,-16.4065,196.3319],[-63.8159,-16.4052,192.821],[-63.8194,-16.4082,195.6496],[-63.8219,-16.4078,202.5543],[-63.8233,-16.403,192.6276],[-63.8206,-16.3991,192.6014],[-63.8154,-16.3962,192.5989],[-63.8185,-16.3943,192.4628],[-63.8159,-16.3921,192.2113],[-63.8188,-16.3882,192.7522],[-63.8218,-16.3886,192.5196],[-63.8271,-16.3845,197.6235],[-63.8306,-16.3849,193.4533],[-63.8375,-16.3808,192.1285],[-63.8365,-16.379,194.0883],[-63.8231,-16.373,205.2995],[-63.8193,-16.3694,194.4618],[-63.8366,-16.3671,191.9844],[-63.8375,-16.3689,194.7554],[-63.8353,-16.3725,192.299],[-63.8431,-16.3721,204.9783],[-63.8428,-16.3752,192.8503],[-63.8452,-16.3732,195.9254],[-63.8494,-16.3734,193.5512],[-63.8502,-16.3721,193.3551],[-63.8478,-16.3657,198.043],[-63.8489,-16.3612,192.0582],[-63.8455,-16.3609,194.8026],[-63.8474,-16.3569,192.2226],[-63.8454,-16.356,191.3625],[-63.8447,-16.3533,191.5936],[-63.8466,-16.3492,192.2441],[-63.8511,-16.3493,191.3773],[-63.8486,-16.346,191.9482],[-63.8523,-16.3474,191.5748],[-63.8564,-16.3446,195.04],[-63.8576,-16.3466,192.9738],[-63.8558,-16.3544,202.1848],[-63.8579,-16.3532,193.7488],[-63.8595,-16.3489,194.4427],[-63.8628,-16.3489,195.5102],[-63.8657,-16.3538,199.2919],[-63.8629,-16.3562,191.2606],[-63.8662,-16.3586,199.4219],[-63.8682,-16.3548,199.3512],[-63.8759,-16.3493,194.6097],[-63.8787,-16.3497,195.9157],[-63.8783,-16.3475,194.5906],[-63.8818,-16.3465,194.0274],[-63.8758,-16.3438,193.9626],[-63.8729,-16.3379,198.7504],[-63.8888,-16.3419,195.0873],[-63.8932,-16.3401,198.6986],[-63.8962,-16.341,193.0898],[-63.8985,-16.339,189.8875],[-63.8921,-16.3318,190.8003],[-63.8924,-16.3299,191.5257],[-63.9033,-16.3368,190.2574],[-63.9029,-16.3344,191.0561],[-63.8938,-16.3248,192.7002],[-63.8953,-16.3237,199.0494],[-63.8973,-16.3251,191.776],[-63.8967,-16.3199,199.977],[-63.8982,-16.3181,204.7187],[-63.9023,-16.3189,198.4799],[-63.9032,-16.3148,203.694],[-63.8927,-16.3114,201.5627],[-63.8934,-16.3096,203.5315],[-63.8989,-16.3087,201.8846],[-63.8985,-16.3071,201.9565],[-63.8897,-16.3079,200.6017],[-63.8894,-16.3067,200.6017],[-63.894,-16.3055,202.8958],[-63.8939,-16.3003,203.8635],[-63.8975,-16.3054,204.9584],[-63.8987,-16.3011,204.4798],[-63.9045,-16.3028,200.7406],[-63.9023,-16.3052,200.866],[-63.9064,-16.3046,201.3102],[-63.907,-16.2952,192.4301],[-63.902,-16.2964,205.127],[-63.8981,-16.2951,198.2585],[-63.9005,-16.2928,200.4182],[-63.9045,-16.2922,196.55],[-63.9058,-16.2899,195.8481],[-63.9072,-16.2924,193.7153],[-63.9088,-16.2915,189.9328],[-63.9091,-16.2897,193.9366],[-63.9042,-16.2847,189.3877],[-63.9078,-16.2826,192.2192],[-63.9112,-16.2865,204.5943],[-63.9166,-16.2885,206.2462],[-63.9168,-16.2919,198.9164],[-63.9209,-16.2932,196.3718],[-63.919,-16.2866,203.6414],[-63.9237,-16.2868,203.503],[-63.9234,-16.283,204.1714],[-63.9261,-16.2825,201.5799],[-63.927,-16.2805,204.1589],[-63.9225,-16.2711,190.2796],[-63.9283,-16.2754,203.1011],[-63.9273,-16.2715,203.0759],[-63.929,-16.2703,198.5753],[-63.9312,-16.2728,198.9404],[-63.9332,-16.2693,187.6774],[-63.9241,-16.2696,199.7206],[-63.924,-16.2683,198.7224],[-63.9266,-16.2678,200.2229],[-63.9259,-16.2663,200.2229],[-63.9219,-16.2668,191.4824],[-63.9194,-16.262,197.1463],[-63.9155,-16.262,192.1742],[-63.9156,-16.2583,197.6224],[-63.9219,-16.2572,190.9263],[-63.9201,-16.2548,188.4094],[-63.9215,-16.2541,189.9728],[-63.927,-16.2573,194.3602],[-63.9283,-16.2524,188.8028],[-63.9301,-16.2563,192.5972],[-63.9323,-16.2541,200.8575],[-63.9355,-16.2545,193.9045],[-63.935,-16.2515,189.6408],[-63.9298,-16.2491,190.551],[-63.9325,-16.248,198.7591],[-63.9374,-16.2499,190.5525],[-63.9352,-16.2456,200.1182],[-63.9315,-16.2428,191.2192],[-63.9317,-16.2395,188.663],[-63.9341,-16.2396,199.9194],[-63.9364,-16.2446,200.1182],[-63.942,-16.2421,190.5248],[-63.9421,-16.2456,196.1488],[-63.9479,-16.2441,190.2822],[-63.95,-16.2401,194.1632],[-63.954,-16.238,193.8639],[-63.9503,-16.2343,201.0584],[-63.9528,-16.2317,196.9036],[-63.9485,-16.2292,187.422],[-63.9575,-16.2242,200.2207],[-63.9611,-16.2272,195.9688],[-63.962,-16.2255,202.7177],[-63.9604,-16.2226,198.2743],[-63.9661,-16.2218,193.9032],[-63.9673,-16.2163,203.3192],[-63.9618,-16.2113,195.7435],[-63.9614,-16.2072,199.6967],[-63.9653,-16.2052,195.8453],[-63.9656,-16.2025,202.0098],[-63.9695,-16.2034,192.5365],[-63.9685,-16.1982,192.9779],[-63.9731,-16.1998,192.2372],[-63.9718,-16.1967,200.9739],[-63.9657,-16.1967,195.3087],[-63.9653,-16.1944,189.907],[-63.9718,-16.1928,189.7255],[-63.9776,-16.1889,189.6905],[-63.9736,-16.1876,189.473],[-63.9793,-16.1841,189.9697],[-63.9791,-16.1803,187.214],[-63.9813,-16.1852,186.9841],[-63.9862,-16.1867,190.7862],[-63.9859,-16.1774,196.4509],[-63.9934,-16.1821,201.1576],[-63.9902,-16.171,196.7554],[-63.9925,-16.1706,193.854],[-63.9961,-16.1739,194.1598],[-63.997,-16.1707,197.7748],[-63.9942,-16.1695,193.8191],[-63.9942,-16.1681,193.8191],[-63.9983,-16.1675,199.3323],[-63.9947,-16.1656,195.2001],[-63.9957,-16.1606,194.209],[-64.0059,-16.1599,196.2532],[-64.003,-16.1667,200.5073],[-64.0091,-16.1683,197.1686],[-64.0074,-16.1715,198.489],[-64.0122,-16.179,195.1559],[-64.0143,-16.1774,193.1232],[-64.0152,-16.1739,194.8463],[-64.0166,-16.1763,189.1017],[-64.0198,-16.1719,196.5514],[-64.0246,-16.1728,196.7151],[-64.0246,-16.1661,195.5196],[-64.0206,-16.1615,196.3655],[-64.0231,-16.1604,188.6947],[-64.0249,-16.1628,190.1216],[-64.0273,-16.1571,189.5002],[-64.0309,-16.157,192.6909],[-64.0325,-16.1598,188.6209],[-64.0261,-16.1663,193.4968],[-64.0262,-16.1699,195.7158],[-64.0302,-16.1685,192.2182],[-64.0322,-16.1718,191.7471],[-64.0345,-16.1715,189.6824],[-64.0348,-16.1644,184.2075],[-64.037,-16.1616,184.2892],[-64.0351,-16.1591,190.362],[-64.0422,-16.1531,185.7831],[-64.0423,-16.1468,186.5253],[-64.0471,-16.1461,188.8142],[-64.0455,-16.1414,184.4382],[-64.0466,-16.1372,189.7555],[-64.0524,-16.138,187.0617],[-64.052,-16.1356,188.1369],[-64.0481,-16.1343,186.65],[-64.0475,-16.1327,187.3605],[-64.0558,-16.1304,187.799],[-64.0605,-16.1319,194.2632],[-64.0655,-16.1363,186.4554],[-64.0671,-16.136,195.0781],[-64.065,-16.1281,196.848],[-64.062,-16.1261,191.8619],[-64.0671,-16.1223,194.2507],[-64.0633,-16.1228,190.0265],[-64.0618,-16.1203,187.4719],[-64.0679,-16.12,192.7339],[-64.0684,-16.1214,194.2507],[-64.0696,-16.1192,194.4584],[-64.0639,-16.1146,197.6692],[-64.0669,-16.1115,192.2478],[-64.0714,-16.1129,183.5135],[-64.0728,-16.1106,183.6417],[-64.0719,-16.1082,184.6329],[-64.0764,-16.1078,196.1701],[-64.0733,-16.1145,194.1907],[-64.0841,-16.1108,190.4144],[-64.0827,-16.1089,194.9689],[-64.0836,-16.1044,195.8086],[-64.0809,-16.1002,196.1021],[-64.0837,-16.0991,193.6901],[-64.0846,-16.1009,192.7764],[-64.0871,-16.1012,194.875],[-64.0841,-16.0966,190.2462],[-64.0883,-16.0955,194.4808],[-64.0908,-16.0919,191.6773],[-64.094,-16.0933,192.2602],[-64.0913,-16.0954,196.9174],[-64.0903,-16.0993,193.6342],[-64.1014,-16.0961,197.9029],[-64.1056,-16.0966,198.3601],[-64.1077,-16.101,197.3914],[-64.1143,-16.1032,197.5274],[-64.1153,-16.1072,195.5314],[-64.12,-16.1057,197.3985],[-64.1221,-16.1021,194.7663],[-64.1235,-16.1025,190.4678],[-64.1225,-16.1057,194.4937],[-64.1247,-16.1079,194.1426],[-64.1323,-16.1033,194.0322],[-64.132,-16.1068,190.6243],[-64.1344,-16.1088,196.8619],[-64.1346,-16.1131,194.6814],[-64.1369,-16.1074,185.819],[-64.1385,-16.1073,185.819],[-64.1385,-16.1094,193.1119],[-64.1402,-16.1098,191.6403],[-64.1502,-16.1032,188.4907],[-64.156,-16.1106,188.0789],[-64.1616,-16.113,187.2631],[-64.162,-16.1147,194.7809],[-64.1665,-16.1115,189.5991],[-64.1683,-16.1081,190.6583],[-64.1693,-16.1145,197.6997],[-64.1674,-16.1201,189.2265],[-64.1715,-16.1191,192.4379],[-64.1787,-16.1221,191.4514],[-64.1892,-16.1219,186.3123],[-64.1909,-16.1169,183.9495],[-64.1946,-16.1153,187.8653],[-64.1934,-16.1115,195.7715],[-64.1961,-16.1061,192.3375],[-64.1954,-16.1031,190.406],[-64.1987,-16.1019,181.1252],[-64.2006,-16.1026,178.9336],[-64.2042,-16.1098,177.7091],[-64.2079,-16.111,182.9707],[-64.2101,-16.1154,177.5416],[-64.2174,-16.1157,179.0684],[-64.222,-16.1139,178.0738],[-64.229,-16.1089,184.3254],[-64.23,-16.102,183.6162],[-64.2348,-16.1001,182.9418],[-64.2306,-16.095,192.7705],[-64.2352,-16.0925,189.8744],[-64.2371,-16.0841,197.0971],[-64.2394,-16.0808,197.3712],[-64.2349,-16.0735,189.5798],[-64.2292,-16.0724,195.3269],[-64.2375,-16.0682,183.0015],[-64.2342,-16.0621,176.0378],[-64.2358,-16.0575,181.8106],[-64.2412,-16.0511,181.7104],[-64.2385,-16.0368,181.8199],[-64.2429,-16.037,183.3934],[-64.2456,-16.0349,179.5881],[-64.2481,-16.028,192.0516],[-64.2473,-16.0247,194.3062],[-64.2529,-16.0219,175.3305],[-64.2526,-16.0172,180.4118],[-64.2556,-16.0194,183.2961],[-64.2588,-16.019,181.5709],[-64.2584,-16.0133,186.1374],[-64.2631,-16.0125,177.6202],[-64.2632,-16.0063,183.8391],[-64.2649,-16.0031,176.9851],[-64.2679,-16.0052,182.8766],[-64.2713,-16.0052,184.3875],[-64.2731,-16.0044,182.7192],[-64.2744,-16.0007,191.4799],[-64.2758,-16.0009,185.3303],[-64.2785,-16.0055,187.9368],[-64.2777,-16.0106,176.7097],[-64.2829,-16.0102,184.1172],[-64.284,-16.0116,179.8418],[-64.2815,-16.0171,180.6622],[-64.2824,-16.0187,178.3604],[-64.2891,-16.0151,178.8845],[-64.2931,-16.0182,181.6554],[-64.2979,-16.0115,182.374],[-64.3,-16.014,181.6301],[-64.2952,-16.0188,188.5534],[-64.2996,-16.0217,182.8347],[-64.311,-16.0172,179.2723],[-64.313,-16.0148,175.7009],[-64.3172,-16.0209,178.9824],[-64.3207,-16.0138,180.8504],[-64.323,-16.0122,183.4999],[-64.3267,-16.0129,192.2823],[-64.3327,-16.0185,179.6509],[-64.3386,-16.0161,182.8451],[-64.3484,-16.0189,176.7081],[-64.3505,-16.0153,185.8436],[-64.3509,-16.0057,175.0553],[-64.357,-16.0024,174.1104],[-64.3621,-16.005,173.7343],[-64.3655,-16.0124,171.4503],[-64.3691,-16.0112,175.6466],[-64.3742,-16.0152,175.7265],[-64.3781,-16.0074,174.2076],[-64.3791,-15.9961,189.0173],[-64.3842,-15.9962,180.009],[-64.3858,-16.0014,174.4454],[-64.3896,-16.0029,181.2236],[-64.3946,-15.992,173.1712],[-64.401,-15.9948,180.4703],[-64.4022,-15.9939,176.6781],[-64.402,-15.9851,183.9296],[-64.4033,-15.9836,171.5521],[-64.4055,-15.9857,184.2749],[-64.4063,-15.9928,189.9339],[-64.408,-15.9932,177.6405],[-64.4192,-15.9867,173.1462],[-64.4251,-15.9775,176.5348],[-64.4347,-15.9845,177.4133],[-64.4396,-15.9846,182.2939],[-64.4384,-15.9728,176.8773],[-64.4397,-15.9708,175.0811],[-64.458,-15.9689,171.8176],[-64.4595,-15.974,169.576],[-64.4612,-15.9736,169.6623],[-64.4651,-15.9675,176.7221],[-64.4601,-15.9585,176.7059],[-64.4658,-15.9546,171.187],[-64.4666,-15.9497,171.7315],[-64.4778,-15.9614,170.3604],[-64.4792,-15.9679,167.0],[-64.4821,-15.9699,173.996],[-64.4787,-15.9767,173.6423],[-64.4797,-15.9787,169.6496],[-64.4897,-15.9737,169.2714],[-64.4932,-15.975,173.7785],[-64.4919,-15.979,179.524],[-64.4945,-15.9802,173.4286],[-64.5012,-15.9762,177.67],[-64.5018,-15.9784,172.016],[-64.4965,-15.9842,175.7264],[-64.4977,-15.9868,173.1534],[-64.5009,-15.9873,168.1512],[-64.5064,-15.9843,168.6586],[-64.5045,-15.9788,167.8924],[-64.5074,-15.9749,177.5347],[-64.5112,-15.9727,182.2598],[-64.5156,-15.973,179.9681]]]]}
,"properties": {"GID_3": "BOL.8.12.3_2","GID_0": "BOL","country": "Bolivia","GID_1": "BOL.8_1","province": "SantaCruz","NL_NAME_1": "NA","GID_2": "BOL.8.12_2","county": "Sara","NL_NAME_2": "NA","city": "SantaRosa","VARNAME_3": "NA","NL_NAME_3": "NA","TYPE_3": "District","ENGTYPE_3": "Distrito","CC_3": "NA","HASC_3": "NA","name": "Santa_Rosa.city","area_km2": 4107.998,"hist_schema_id": "Elevation0-9000","hist_area_km2": {"175": 495.323,"200": 1978.415,"225": 1011.455,"250": 470.73,"275": 121.32,"300": 30.328,"325": 0.426}}}