{"type":"Feature","properties":{"GID_3":"BOL.8.9.1_2","GID_0":"BOL","country":"Bolivia","GID_1":"BOL.8_1","province":"SantaCruz","NL_NAME_1":"NA","GID_2":"BOL.8.9_2","county":"ManuelMaríaCaballero","NL_NAME_2":"NA","city":"Comarapa","VARNAME_3":"NA","NL_NAME_3":"NA","TYPE_3":"District","ENGTYPE_3":"Distrito","CC_3":"NA","HASC_3":"NA","name":"Comarapa.city"},
"geometry":{"type": "MultiPolygon","coordinates": [[[[-64.4942,-18.2345,1272.9379],[-64.4931,-18.2324,1307.705],[-64.487,-18.2351,1294.4233],[-64.4862,-18.232,1287.9047],[-64.4852,-18.2348,1305.2886],[-64.4807,-18.2331,1303.7252],[-64.474,-18.2343,1318.5513],[-64.4697,-18.2334,1314.4586],[-64.4712,-18.2315,1310.6891],[-64.4683,-18.2286,1300.7834],[-64.4694,-18.2258,1305.0177],[-64.4645,-18.2274,1318.6183],[-64.4642,-18.2241,1313.3459],[-64.4606,-18.219,1340.285],[-64.4549,-18.2191,1373.8872],[-64.4547,-18.2228,1327.615],[-64.4522,-18.2212,1360.2847],[-64.4405,-18.2229,1356.9788],[-64.4302,-18.2218,1362.9077],[-64.4257,-18.2231,1388.5779],[-64.418,-18.2163,1371.3652],[-64.4153,-18.2196,1392.6652],[-64.4145,-18.2147,1383.4019],[-64.4105,-18.2136,1385.5486],[-64.4102,-18.211,1401.6759],[-64.4114,-18.2092,1419.2814],[-64.4138,-18.2096,1393.2496],[-64.4143,-18.2069,1398.3513],[-64.4126,-18.2035,1398.3434],[-64.4161,-18.2026,1407.0544],[-64.4145,-18.2015,1430.9243],[-64.415,-18.1954,1405.3259],[-64.4174,-18.1971,1409.1561],[-64.4203,-18.1959,1410.4578],[-64.418,-18.1922,1416.1166],[-64.4153,-18.1928,1411.8019],[-64.4154,-18.1889,1418.0813],[-64.4095,-18.186,1461.5239],[-64.3965,-18.1886,1611.6812],[-64.3929,-18.1931,1689.0327],[-64.3726,-18.2014,2138.6562],[-64.3634,-18.2013,1988.2776],[-64.329,-18.1749,2170.6255],[-64.3142,-18.1597,1862.6587],[-64.3187,-18.1581,2019.3889],[-64.3237,-18.1512,2142.908],[-64.3199,-18.1428,1987.2058],[-64.3221,-18.1408,1953.603],[-64.3242,-18.1344,1919.9489],[-64.3219,-18.1228,1930.7294],[-64.3258,-18.12,1866.4683],[-64.3251,-18.1125,1800.6833],[-64.3229,-18.1106,1772.2319],[-64.3147,-18.1148,1735.2843],[-64.306,-18.1147,1695.6725],[-64.3063,-18.1131,1724.8171],[-64.2998,-18.1104,1627.2672],[-64.2909,-18.102,1570.7053],[-64.2861,-18.1013,1568.6791],[-64.2808,-18.0981,1557.8445],[-64.2777,-18.0914,1525.1901],[-64.2747,-18.0914,1551.2917],[-64.2685,-18.0857,1718.0569],[-64.2736,-18.0702,1814.095],[-64.2757,-18.0476,1751.9539],[-64.283,-18.0238,1600.046],[-64.28,-18.0238,1527.0741],[-64.2767,-18.0207,1518.4945],[-64.2741,-18.0203,1500.056],[-64.2538,-18.0283,1451.5796],[-64.2547,-18.0268,1448.8125],[-64.2526,-18.0231,1448.6189],[-64.2538,-18.0212,1456.676],[-64.256,-18.0218,1458.4327],[-64.2547,-18.0155,1461.606],[-64.2568,-18.0113,1466.4703],[-64.2587,-18.0107,1468.4064],[-64.2576,-18.0084,1459.5343],[-64.2614,-18.0049,1463.1228],[-64.2605,-17.998,1484.2434],[-64.2464,-17.9851,1520.1016],[-64.2447,-17.9765,1543.6648],[-64.2416,-17.9739,1545.453],[-64.2428,-17.9703,1550.6344],[-64.2413,-17.9568,1584.2668],[-64.2486,-17.945,1668.1599],[-64.2507,-17.9354,1722.8601],[-64.2536,-17.9334,1745.835],[-64.2568,-17.9279,1904.4999],[-64.2555,-17.923,1949.9075],[-64.2573,-17.9193,2012.5751],[-64.2543,-17.9087,1770.9968],[-64.2545,-17.9034,1671.3098],[-64.2512,-17.8983,1614.6124],[-64.2474,-17.896,1605.4727],[-64.2419,-17.887,1508.0067],[-64.2494,-17.8764,1527.0342],[-64.2533,-17.8756,1542.6488],[-64.2544,-17.872,1548.968],[-64.2478,-17.8641,1556.6804],[-64.2457,-17.8636,1555.9227],[-64.2447,-17.86,1573.8898],[-64.2464,-17.8572,1569.9812],[-64.2464,-17.853,1577.1538],[-64.2398,-17.8476,1599.8052],[-64.2383,-17.844,1643.8027],[-64.2401,-17.8422,1642.0973],[-64.2511,-17.8396,1680.959],[-64.2536,-17.837,1685.2522],[-64.2532,-17.8297,1800.1653],[-64.2486,-17.8178,2175.7876],[-64.249,-17.8144,2258.0942],[-64.2424,-17.8043,2068.5696],[-64.2393,-17.7938,2085.0293],[-64.2352,-17.7894,1984.0089],[-64.2309,-17.781,1743.2483],[-64.2312,-17.7704,1564.5779],[-64.2184,-17.7516,1396.1558],[-64.2177,-17.7374,1344.8813],[-64.2144,-17.7355,1321.4548],[-64.2133,-17.7314,1294.1702],[-64.2153,-17.7296,1291.1045],[-64.211,-17.7258,1290.7745],[-64.2116,-17.7219,1290.4994],[-64.2079,-17.7227,1301.1384],[-64.21,-17.7197,1290.5912],[-64.2082,-17.7182,1306.6204],[-64.2091,-17.7154,1303.2419],[-64.2059,-17.7148,1302.4027],[-64.205,-17.7162,1302.4027],[-64.2036,-17.7135,1303.6438],[-64.201,-17.7139,1305.9736],[-64.2008,-17.7114,1320.2897],[-64.1986,-17.7104,1268.6104],[-64.1885,-17.7124,1150.3956],[-64.183,-17.7177,1146.2526],[-64.174,-17.7133,1081.5205],[-64.1731,-17.7103,1042.5889],[-64.1703,-17.7108,994.5031],[-64.1686,-17.7147,964.9627],[-64.1659,-17.7124,1000.3896],[-64.1693,-17.7093,1009.7927],[-64.1679,-17.7062,995.5766],[-64.1629,-17.7071,915.7688],[-64.1603,-17.7028,932.1165],[-64.1567,-17.7027,937.3793],[-64.1571,-17.6966,949.3455],[-64.1626,-17.6943,857.0871],[-64.1636,-17.6904,871.149],[-64.1616,-17.6875,840.6535],[-64.1618,-17.6825,879.664],[-64.1589,-17.6813,819.988],[-64.1556,-17.6827,814.5115],[-64.1584,-17.6779,807.7987],[-64.1501,-17.6753,800.4102],[-64.1487,-17.6733,819.5009],[-64.1539,-17.6668,782.8223],[-64.1515,-17.6589,761.7261],[-64.1542,-17.6521,750.3967],[-64.1513,-17.6496,729.2609],[-64.1524,-17.6462,725.8243],[-64.1494,-17.6444,745.3444],[-64.1502,-17.6422,726.1027],[-64.1476,-17.6388,696.6749],[-64.1422,-17.6364,728.7559],[-64.1373,-17.6316,676.0131],[-64.1335,-17.631,666.29],[-64.1278,-17.6257,656.6674],[-64.1283,-17.6199,649.712],[-64.1255,-17.6157,645.0461],[-64.1267,-17.6085,662.7523],[-64.1199,-17.6067,631.855],[-64.1213,-17.6003,624.6193],[-64.1232,-17.5994,609.7358],[-64.1219,-17.5971,607.6844],[-64.1225,-17.5898,587.9556],[-64.1202,-17.5861,654.8152],[-64.1204,-17.5814,603.8873],[-64.1184,-17.5793,583.6501],[-64.1199,-17.577,576.0229],[-64.1153,-17.5757,647.8724],[-64.116,-17.567,585.4604],[-64.1218,-17.5632,547.6987],[-64.1172,-17.5587,528.6248],[-64.1184,-17.5525,553.9162],[-64.1246,-17.5478,554.7375],[-64.1347,-17.547,548.108],[-64.1397,-17.5432,505.7993],[-64.1451,-17.5432,525.5926],[-64.1524,-17.538,518.8345],[-64.1586,-17.5376,498.1711],[-64.1608,-17.5352,482.8367],[-64.1709,-17.5316,472.784],[-64.173,-17.5281,459.4284],[-64.1769,-17.5283,452.146],[-64.18,-17.5306,459.944],[-64.1852,-17.5301,459.8771],[-64.1866,-17.5261,467.2289],[-64.1928,-17.5252,441.1769],[-64.1965,-17.5267,467.9908],[-64.2019,-17.521,468.3284],[-64.2061,-17.5231,434.5937],[-64.2085,-17.517,457.3908],[-64.2123,-17.5138,475.2192],[-64.2222,-17.5095,405.6574],[-64.2269,-17.5008,426.1583],[-64.2336,-17.4965,393.4175],[-64.2344,-17.4943,395.6174],[-64.241,-17.4928,378.9813],[-64.2454,-17.4812,366.5293],[-64.2495,-17.4754,385.7708],[-64.2444,-17.4584,347.9979],[-64.247,-17.4561,411.5244],[-64.256,-17.4567,338.1296],[-64.258,-17.4526,348.9139],[-64.2521,-17.4461,333.7814],[-64.2495,-17.4355,328.4239],[-64.2539,-17.4255,310.3147],[-64.2557,-17.4265,313.2078],[-64.2596,-17.4232,323.5244],[-64.2628,-17.4228,367.2574],[-64.2691,-17.4253,319.5714],[-64.274,-17.4231,322.1645],[-64.2807,-17.4246,327.0893],[-64.2906,-17.4338,336.7356],[-64.2994,-17.4375,343.1276],[-64.3072,-17.4373,349.8252],[-64.3136,-17.4335,352.7084],[-64.316,-17.4273,361.5628],[-64.3238,-17.4221,367.9892],[-64.3335,-17.4226,376.3667],[-64.3354,-17.4264,384.3445],[-64.3402,-17.428,382.5623],[-64.3491,-17.4235,391.9892],[-64.3527,-17.4293,403.4619],[-64.3528,-17.4343,440.4774],[-64.355,-17.4376,445.1525],[-64.3568,-17.4384,460.3062],[-64.3584,-17.4337,488.3672],[-64.3595,-17.4379,468.5945],[-64.3622,-17.4396,475.5258],[-64.3617,-17.4418,479.125],[-64.3574,-17.4416,426.5556],[-64.3575,-17.4446,466.9458],[-64.3659,-17.4435,440.455],[-64.3675,-17.4455,441.2426],[-64.3705,-17.4455,441.9033],[-64.3726,-17.4532,458.2217],[-64.3765,-17.4534,453.6816],[-64.3839,-17.4571,464.7646],[-64.3909,-17.4556,463.9388],[-64.3972,-17.4511,509.7629],[-64.3987,-17.451,478.9398],[-64.4008,-17.4538,500.0568],[-64.4058,-17.4533,500.2725],[-64.4051,-17.4575,500.5167],[-64.3999,-17.4635,525.677],[-64.4015,-17.467,548.1987],[-64.4054,-17.4672,545.4488],[-64.4064,-17.4715,550.0216],[-64.4058,-17.4776,557.38],[-64.4036,-17.4796,565.7727],[-64.4012,-17.4873,570.2414],[-64.4006,-17.4939,591.043],[-64.403,-17.4961,615.043],[-64.4059,-17.4952,627.1843],[-64.4068,-17.4975,634.4042],[-64.4087,-17.4976,664.3113],[-64.4091,-17.5028,676.2001],[-64.411,-17.5038,650.3757],[-64.4094,-17.5061,689.6608],[-64.4106,-17.5089,671.8761],[-64.4089,-17.5159,708.7218],[-64.4112,-17.5187,723.0663],[-64.4276,-17.5235,826.0317],[-64.4281,-17.528,872.0054],[-64.4235,-17.535,1012.2092],[-64.4238,-17.5366,1052.9456],[-64.4298,-17.5397,1259.4567],[-64.4294,-17.5486,1443.7854],[-64.4323,-17.56,1731.4594],[-64.4667,-17.5636,937.9319],[-64.4742,-17.559,922.728],[-64.4781,-17.5596,866.7194],[-64.481,-17.5576,874.9514],[-64.4894,-17.56,865.0174],[-64.4956,-17.5533,857.736],[-64.4992,-17.5548,824.2275],[-64.5087,-17.5484,790.7621],[-64.5141,-17.5433,754.0775],[-64.5149,-17.5381,764.9937],[-64.5198,-17.534,758.1311],[-64.5221,-17.5404,771.1422],[-64.5258,-17.5403,822.7902],[-64.5322,-17.5481,924.7394],[-64.5437,-17.5535,996.4499],[-64.5461,-17.5607,1126.7554],[-64.5502,-17.5658,1224.1422],[-64.5621,-17.5637,1103.0812],[-64.5846,-17.5564,965.4568],[-64.6025,-17.5574,832.9915],[-64.603,-17.5648,834.091],[-64.5997,-17.5727,1031.2429],[-64.5986,-17.5902,841.675],[-64.5941,-17.593,859.7329],[-64.592,-17.5977,882.5176],[-64.5884,-17.6006,905.4613],[-64.5922,-17.6069,993.7703],[-64.5911,-17.6135,985.5629],[-64.5921,-17.619,989.4247],[-64.5974,-17.6347,991.1862],[-64.6019,-17.6362,971.2608],[-64.6016,-17.6408,978.4959],[-64.6141,-17.651,1008.6315],[-64.6143,-17.6587,1033.6718],[-64.6165,-17.664,1056.2384],[-64.6211,-17.6629,1080.8114],[-64.6246,-17.6589,1118.2585],[-64.6275,-17.659,1150.5657],[-64.6295,-17.6663,1254.288],[-64.6333,-17.6698,1279.6542],[-64.6356,-17.6698,1225.7321],[-64.6387,-17.6752,1263.2791],[-64.6409,-17.6758,1242.4083],[-64.6403,-17.6791,1316.5331],[-64.6423,-17.6807,1249.259],[-64.6398,-17.6953,1278.3516],[-64.6402,-17.7009,1308.8656],[-64.6419,-17.7036,1292.4863],[-64.6393,-17.705,1329.7382],[-64.6398,-17.7082,1332.3408],[-64.6485,-17.7089,1341.3069],[-64.652,-17.7144,1358.7811],[-64.6589,-17.7166,1332.696],[-64.6705,-17.714,1361.6659],[-64.6744,-17.7162,1370.2744],[-64.6822,-17.7162,1396.0419],[-64.6878,-17.7187,1406.5476],[-64.699,-17.7154,1437.4814],[-64.7019,-17.7161,1440.5885],[-64.7051,-17.718,1593.9739],[-64.7054,-17.7227,1655.0361],[-64.7153,-17.7327,1847.0348],[-64.7294,-17.7335,1800.8831],[-64.7324,-17.7357,1793.9192],[-64.74,-17.7374,1817.1426],[-64.7465,-17.7362,1847.4269],[-64.7513,-17.7425,1866.3096],[-64.7528,-17.7472,1898.2845],[-64.7562,-17.7501,1958.3331],[-64.7633,-17.7749,2362.4104],[-64.7747,-17.8075,2901.5439],[-64.7777,-17.8116,2718.855],[-64.7743,-17.8156,2849.6807],[-64.774,-17.8211,2876.4402],[-64.7773,-17.8262,2943.3872],[-64.7776,-17.8298,2977.21],[-64.7915,-17.8445,3178.4656],[-64.8064,-17.8931,2318.1851],[-64.8024,-17.8975,2274.1519],[-64.7954,-17.916,2305.6934],[-64.7866,-17.9333,2323.3784],[-64.7683,-17.9265,1937.2642],[-64.7603,-17.93,2063.9685],[-64.747,-17.9279,2220.8169],[-64.7336,-17.9297,2055.6687],[-64.7243,-17.9139,2117.4541],[-64.7125,-17.9146,2305.7458],[-64.697,-17.9221,2498.7124],[-64.6932,-17.934,2404.8091],[-64.6889,-17.9352,2448.3533],[-64.6821,-17.9442,2189.3901],[-64.66,-17.9519,1848.2546],[-64.6495,-17.9497,1899.5054],[-64.6164,-17.9315,2106.4246],[-64.6034,-17.9139,2457.1792],[-64.5968,-17.9142,2313.7236],[-64.5842,-17.9253,2186.5635],[-64.5784,-17.9375,1974.6084],[-64.5761,-17.9514,1829.4613],[-64.568,-17.9589,1960.8235],[-64.5624,-17.9825,1838.2177],[-64.5535,-18.0092,2155.9434],[-64.5514,-18.0321,2063.8191],[-64.5472,-18.0341,2027.0701],[-64.5282,-18.0577,1924.1599],[-64.511,-18.0889,1830.558],[-64.51,-18.102,1852.9456],[-64.4919,-18.1137,1989.7816],[-64.4913,-18.1231,1990.344],[-64.4852,-18.1391,1775.8127],[-64.4958,-18.1402,1749.6487],[-64.5082,-18.163,1432.7079],[-64.523,-18.1694,1316.0928],[-64.5196,-18.1723,1308.3245],[-64.5221,-18.176,1304.7345],[-64.5226,-18.1813,1312.7559],[-64.5137,-18.1861,1302.6985],[-64.5117,-18.1855,1304.948],[-64.5081,-18.1893,1337.1769],[-64.5084,-18.1918,1304.3208],[-64.5142,-18.1975,1313.304],[-64.5141,-18.199,1296.4705],[-64.5096,-18.199,1331.1719],[-64.5088,-18.2031,1291.5348],[-64.5036,-18.2053,1301.0562],[-64.497,-18.2131,1294.8744],[-64.4966,-18.2146,1329.2716],[-64.4991,-18.215699999999998,1304.3142],[-64.5021,-18.2226,1309.8186],[-64.4974,-18.2266,1279.6787],[-64.4996,-18.2313,1278.0488],[-64.4986,-18.2343,1279.6543],[-64.4965,-18.2356,1278.533],[-64.4942,-18.2345,1272.9379]]]]}}