{"type":"Feature","properties":{"GID_1":"BOL.2_1","GID_0":"BOL","country":"Bolivia","province":"Cochabamba","VARNAME_1":"NA","NL_NAME_1":"NA","TYPE_1":"Departamento","ENGTYPE_1":"Department","CC_1":"NA","HASC_1":"BO.CB","ISO_1":"BO-C","name":"Cochabamba.province"},
"geometry":{"type": "MultiPolygon","coordinates": [[[[-64.3367,-18.6672,953.7162],[-64.3292,-18.6655,922.016],[-64.3247,-18.6599,982.773],[-64.3247,-18.6573,943.3316],[-64.3194,-18.6548,939.7173],[-64.3179,-18.6424,979.9668],[-64.3134,-18.6464,949.184],[-64.3103,-18.6463,947.0819],[-64.3112,-18.6417,935.9734],[-64.3149,-18.6379,937.7981],[-64.3143,-18.6348,938.8729],[-64.3166,-18.6306,941.7061],[-64.3149,-18.6262,944.7059],[-64.3097,-18.6236,945.3784],[-64.3055,-18.6237,977.425],[-64.3052,-18.6182,951.7363],[-64.3036,-18.6158,993.1107],[-64.2982,-18.616,962.6479],[-64.2958,-18.6114,963.41],[-64.2936,-18.6125,957.8483],[-64.2932,-18.6155,1005.2656],[-64.2909,-18.6158,963.1179],[-64.289,-18.6132,966.2346],[-64.2877,-18.606,968.5108],[-64.2809,-18.5999,971.345],[-64.2804,-18.596,980.1498],[-64.2844,-18.5946,992.4655],[-64.2858,-18.5895,1016.7239],[-64.291,-18.5875,985.6127],[-64.2923,-18.5845,1023.183],[-64.2876,-18.5806,986.4846],[-64.2868,-18.5778,995.4863],[-64.2888,-18.5694,996.785],[-64.2967,-18.5655,997.5604],[-64.2929,-18.5596,1011.8854],[-64.2963,-18.5599,1008.4806],[-64.2986,-18.5585,998.9772],[-64.2981,-18.557,1002.0903],[-64.2938,-18.5557,1004.2201],[-64.2914,-18.5514,1035.577],[-64.2876,-18.5559,1007.0717],[-64.2848,-18.5546,1030.9359],[-64.2908,-18.544,1015.1746],[-64.2882,-18.5403,1029.8313],[-64.2884,-18.5378,1029.6433],[-64.2917,-18.5337,1018.6748],[-64.3005,-18.5332,1018.6011],[-64.2981,-18.52,1036.9336],[-64.3,-18.5181,1026.4668],[-64.3043,-18.5183,1039.9498],[-64.3042,-18.5099,1030.3865],[-64.306,-18.5046,1039.4834],[-64.3028,-18.5005,1047.9985],[-64.3056,-18.4957,1051.6565],[-64.3072,-18.4946,1051.6565],[-64.3102,-18.4972,1040.949],[-64.3177,-18.4948,1045.3109],[-64.3227,-18.4988,1050.0553],[-64.3251,-18.4974,1050.7209],[-64.3281,-18.489,1057.6975],[-64.3354,-18.4847,1069.8562],[-64.3338,-18.4783,1098.4479],[-64.3355,-18.476,1156.8921],[-64.344,-18.4741,1076.3394],[-64.3499,-18.4747,1092.1597],[-64.3577,-18.4681,1086.9718],[-64.3622,-18.4696,1127.6011],[-64.3642,-18.4641,1104.3434],[-64.3702,-18.4634,1098.5101],[-64.3731,-18.4602,1132.1189],[-64.3811,-18.4572,1117.0586],[-64.3821,-18.4533,1118.9918],[-64.392,-18.45,1126.6541],[-64.4026,-18.4507,1142.637],[-64.4054,-18.4484,1162.6985],[-64.4061,-18.4451,1248.3108],[-64.4105,-18.4427,1158.0715],[-64.4119,-18.4374,1191.9899],[-64.4174,-18.4332,1171.7024],[-64.4166,-18.4306,1232.5071],[-64.419,-18.4298,1174.3942],[-64.4214,-18.4233,1183.27],[-64.4276,-18.4181,1194.6235],[-64.4274,-18.4089,1176.2098],[-64.4296,-18.4053,1201.0516],[-64.4329,-18.4038,1180.1979],[-64.4343,-18.4003,1178.9114],[-64.4293,-18.3922,1203.0039],[-64.4311,-18.3852,1200.3911],[-64.4297,-18.3764,1207.9135],[-64.4317,-18.373,1214.0269],[-64.4362,-18.3722,1206.4441],[-64.4402,-18.3689,1257.2056],[-64.4461,-18.3747,1239.0725],[-64.4484,-18.3735,1213.3914],[-64.4453,-18.3663,1214.6783],[-64.44,-18.3647,1240.5913],[-64.44,-18.3589,1245.3773],[-64.4443,-18.3578,1224.0931],[-64.4454,-18.3559,1220.9817],[-64.4414,-18.3533,1225.8656],[-64.4337,-18.3363,1231.2366],[-64.4392,-18.3291,1250.5264],[-64.445,-18.3276,1229.8744],[-64.4459,-18.3251,1242.2466],[-64.4515,-18.3273,1233.2695],[-64.4526,-18.3231,1234.9769],[-64.459,-18.3245,1238.0674],[-64.461,-18.3195,1303.907],[-64.4626,-18.321,1256.8416],[-64.4615,-18.3233,1256.3552],[-64.4626,-18.3244,1238.8551],[-64.4712,-18.3123,1244.9346],[-64.4665,-18.3096,1272.0431],[-64.4637,-18.3061,1306.136],[-64.4641,-18.3047,1251.6622],[-64.4714,-18.3042,1246.9243],[-64.4732,-18.3008,1257.2538],[-64.4729,-18.2955,1290.125],[-64.4835,-18.2952,1263.7961],[-64.4854,-18.2936,1282.6104],[-64.4835,-18.2841,1261.7443],[-64.4805,-18.2792,1264.7783],[-64.4826,-18.272,1274.8521],[-64.4889,-18.273,1313.531],[-64.489,-18.27,1292.135],[-64.4862,-18.2695,1264.2035],[-64.4817,-18.2609,1299.1467],[-64.4848,-18.261,1282.4806],[-64.4888,-18.2555,1286.1594],[-64.4906,-18.2396,1317.6964],[-64.4943,-18.2371,1272.0184],[-64.4923,-18.2342,1289.2665],[-64.4972,-18.2355,1275.6548],[-64.4996,-18.2324,1278.0488],[-64.4974,-18.2266,1279.6787],[-64.5006,-18.225,1286.6007],[-64.5022,-18.2216,1309.8186],[-64.4991,-18.215699999999998,1304.3142],[-64.4966,-18.2146,1329.2716],[-64.4971,-18.2128,1295.2026],[-64.5036,-18.2053,1301.0562],[-64.5088,-18.2031,1291.5348],[-64.5096,-18.199,1331.1719],[-64.5141,-18.199,1296.4705],[-64.5142,-18.1975,1313.304],[-64.5084,-18.1918,1304.3208],[-64.5081,-18.1893,1337.1769],[-64.5117,-18.1855,1304.948],[-64.5137,-18.1861,1302.6985],[-64.5226,-18.1813,1312.7559],[-64.5221,-18.176,1304.7345],[-64.5196,-18.1723,1308.3245],[-64.5265,-18.1654,1309.2385],[-64.5224,-18.1623,1310.4944],[-64.5222,-18.1604,1320.8242],[-64.5294,-18.1595,1309.2908],[-64.5277,-18.1575,1354.5856],[-64.5297,-18.1552,1312.3788],[-64.5374,-18.153,1315.0527],[-64.5393,-18.1504,1311.1265],[-64.5379,-18.1468,1392.7659],[-64.5429,-18.1386,1314.6711],[-64.5456,-18.1356,1376.1925],[-64.5497,-18.1358,1317.5923],[-64.556,-18.132,1321.7655],[-64.5584,-18.13,1321.9399],[-64.5603,-18.1248,1324.3818],[-64.5732,-18.1209,1329.9564],[-64.5789,-18.1149,1332.3958],[-64.5826,-18.1149,1334.8416],[-64.5963,-18.1084,1341.6244],[-64.6041,-18.1093,1346.0641],[-64.6067,-18.1044,1348.625],[-64.6104,-18.1037,1360.6355],[-64.6112,-18.0962,1397.9231],[-64.6157,-18.0934,1365.1172],[-64.6206,-18.0964,1383.6233],[-64.6236,-18.0944,1385.4054],[-64.6264,-18.0966,1390.6887],[-64.635,-18.0959,1425.384],[-64.6389,-18.0991,1365.9646],[-64.6434,-18.1004,1371.5176],[-64.6447,-18.1029,1374.3129],[-64.6546,-18.1005,1384.3513],[-64.6615,-18.1042,1382.3882],[-64.6661,-18.1045,1384.1246],[-64.6698,-18.1004,1391.856],[-64.6793,-18.1014,1403.7051],[-64.6825,-18.0988,1407.3105],[-64.6919,-18.0988,1403.4817],[-64.6935,-18.094,1435.6743],[-64.6976,-18.0926,1401.3462],[-64.7012,-18.0872,1412.5106],[-64.7064,-18.085,1403.4818],[-64.7097,-18.0814,1419.7025],[-64.7114,-18.0781,1413.6439],[-64.7113,-18.073,1418.2317],[-64.7134,-18.0719,1418.8138],[-64.7143,-18.0736,1415.4414],[-64.7156,-18.0723,1432.4167],[-64.7144,-18.0661,1437.2726],[-64.7192,-18.061,1425.7927],[-64.7156,-18.0569,1439.7759],[-64.7166,-18.0428,1498.1321],[-64.7202,-18.0438,1459.3704],[-64.7254,-18.0406,1452.7523],[-64.7345,-18.038,1464.855],[-64.7369,-18.0393,1494.8845],[-64.7471,-18.0273,1488.6968],[-64.7503,-18.0169,1491.3634],[-64.7536,-18.015,1487.2064],[-64.7633,-18.0015,1514.6714],[-64.7668,-17.9898,1545.839],[-64.7663,-17.9849,1556.3317],[-64.7707,-17.9821,1657.4956],[-64.7744,-17.9772,1773.4048],[-64.7772,-17.9813,1536.7177],[-64.78,-17.9789,1538.4025],[-64.7833,-17.9818,1593.7009],[-64.7826,-17.9796,1557.9469],[-64.7851,-17.979,1562.1429],[-64.7864,-17.9747,1561.3562],[-64.7961,-17.9681,1592.1627],[-64.7988,-17.9637,1575.0265],[-64.7995,-17.9578,1580.7468],[-64.8041,-17.9532,1615.2626],[-64.8074,-17.9469,1615.4041],[-64.8106,-17.9447,1612.413],[-64.7866,-17.9333,2323.3784],[-64.7954,-17.916,2305.6934],[-64.8024,-17.8975,2274.1519],[-64.8064,-17.8931,2318.1851],[-64.7915,-17.8445,3178.4656],[-64.7776,-17.8298,2977.21],[-64.7773,-17.8262,2943.3872],[-64.774,-17.8211,2876.4402],[-64.7743,-17.8156,2849.6807],[-64.7777,-17.8116,2718.855],[-64.7747,-17.8075,2901.5439],[-64.7633,-17.7749,2362.4104],[-64.7562,-17.7501,1958.3331],[-64.7528,-17.7472,1898.2845],[-64.7513,-17.7425,1866.3096],[-64.7463,-17.736,1847.4269],[-64.74,-17.7374,1817.1426],[-64.7324,-17.7357,1793.9192],[-64.7294,-17.7335,1800.8831],[-64.7133,-17.7316,1810.6118],[-64.7052,-17.7225,1655.0361],[-64.7048,-17.7176,1567.6769],[-64.7019,-17.7161,1440.5885],[-64.699,-17.7154,1437.4814],[-64.6878,-17.7187,1406.5476],[-64.6822,-17.7162,1396.0419],[-64.6744,-17.7162,1370.2744],[-64.6705,-17.714,1361.6659],[-64.6589,-17.7166,1332.696],[-64.652,-17.7144,1358.7811],[-64.6485,-17.7089,1341.3069],[-64.6398,-17.7082,1332.3408],[-64.6393,-17.705,1329.7382],[-64.6419,-17.7036,1292.4863],[-64.6402,-17.7009,1308.8656],[-64.6398,-17.6953,1278.3516],[-64.6423,-17.6807,1249.259],[-64.6403,-17.6791,1316.5331],[-64.6409,-17.6758,1242.4083],[-64.6387,-17.6752,1263.2791],[-64.6356,-17.6698,1225.7321],[-64.6333,-17.6698,1279.6542],[-64.6295,-17.6663,1254.288],[-64.6275,-17.659,1150.5657],[-64.6246,-17.6589,1118.2585],[-64.6211,-17.6629,1080.8114],[-64.6165,-17.664,1056.2384],[-64.6143,-17.6587,1033.6718],[-64.6141,-17.651,1008.6315],[-64.6016,-17.6408,978.4959],[-64.6019,-17.6362,971.2608],[-64.5974,-17.6347,991.1862],[-64.5921,-17.619,989.4247],[-64.5911,-17.6135,985.5629],[-64.5922,-17.6069,993.7703],[-64.5884,-17.6006,905.4613],[-64.592,-17.5977,882.5176],[-64.5941,-17.593,859.7329],[-64.5986,-17.5902,841.675],[-64.5997,-17.5727,1031.2429],[-64.603,-17.5648,834.091],[-64.6025,-17.5574,832.9915],[-64.5846,-17.5564,965.4568],[-64.5621,-17.5637,1103.0812],[-64.5502,-17.5658,1224.1422],[-64.5461,-17.5607,1126.7554],[-64.5437,-17.5535,996.4499],[-64.5322,-17.5481,924.7394],[-64.5258,-17.5403,822.7902],[-64.5221,-17.5404,771.1422],[-64.5198,-17.534,758.1311],[-64.5149,-17.5381,764.9937],[-64.5141,-17.5433,754.0775],[-64.5087,-17.5484,790.7621],[-64.4992,-17.5548,824.2275],[-64.4956,-17.5533,857.736],[-64.4894,-17.56,865.0174],[-64.481,-17.5576,874.9514],[-64.4781,-17.5596,866.7194],[-64.4742,-17.559,922.728],[-64.4667,-17.5636,937.9319],[-64.4323,-17.56,1731.4594],[-64.4294,-17.5486,1443.7854],[-64.4298,-17.5397,1259.4567],[-64.4238,-17.5366,1052.9456],[-64.4235,-17.535,1012.2092],[-64.4281,-17.528,872.0054],[-64.4276,-17.5235,826.0317],[-64.4112,-17.5187,723.0663],[-64.4089,-17.5159,708.7218],[-64.4106,-17.5089,671.8761],[-64.4094,-17.5061,689.6608],[-64.411,-17.5038,650.3757],[-64.4091,-17.5028,676.2001],[-64.4087,-17.4976,664.3113],[-64.4068,-17.4975,634.4042],[-64.4059,-17.4952,627.1843],[-64.403,-17.4961,615.043],[-64.4006,-17.4939,591.043],[-64.4012,-17.4873,570.2414],[-64.4036,-17.4796,565.7727],[-64.4058,-17.4776,557.38],[-64.4064,-17.4715,550.0216],[-64.4054,-17.4672,545.4488],[-64.4015,-17.467,548.1987],[-64.3999,-17.4635,525.677],[-64.4051,-17.4575,500.5167],[-64.4058,-17.4533,500.2725],[-64.4008,-17.4538,500.0568],[-64.3987,-17.451,478.9398],[-64.3972,-17.4511,509.7629],[-64.3909,-17.4556,463.9388],[-64.3839,-17.4571,464.7646],[-64.3765,-17.4534,453.6816],[-64.3726,-17.4532,458.2217],[-64.3705,-17.4455,441.9033],[-64.3675,-17.4455,441.2426],[-64.3659,-17.4435,440.455],[-64.3575,-17.4446,466.9458],[-64.3574,-17.4416,426.5556],[-64.3617,-17.4418,479.125],[-64.3622,-17.4396,475.5258],[-64.3595,-17.4379,468.5945],[-64.3584,-17.4337,488.3672],[-64.3568,-17.4384,460.3062],[-64.355,-17.4376,445.1525],[-64.3528,-17.4343,440.4774],[-64.3527,-17.4293,403.4619],[-64.3491,-17.4235,391.9892],[-64.3402,-17.428,382.5623],[-64.3354,-17.4264,384.3445],[-64.3335,-17.4226,376.3667],[-64.3238,-17.4221,367.9892],[-64.316,-17.4273,361.5628],[-64.3136,-17.4335,352.7084],[-64.3062,-17.4374,349.8252],[-64.2956,-17.4368,346.8874],[-64.2819,-17.4252,328.0138],[-64.2752,-17.4233,323.1158],[-64.2691,-17.4253,319.5714],[-64.2606,-17.423,316.0417],[-64.255,-17.4265,313.2078],[-64.254,-17.4231,356.6138],[-64.2581,-17.4171,322.5399],[-64.2537,-17.4164,468.0161],[-64.2529,-17.4126,340.7284],[-64.2489,-17.4114,312.8168],[-64.2537,-17.4055,334.6375],[-64.2538,-17.4031,324.3688],[-64.2427,-17.3992,292.7249],[-64.2341,-17.3737,281.2933],[-64.2378,-17.3669,282.2754],[-64.2366,-17.3624,286.1158],[-64.2391,-17.3606,287.6442],[-64.2366,-17.3499,278.5106],[-64.2409,-17.3432,271.2763],[-64.2415,-17.3357,265.3705],[-64.2451,-17.3311,263.1207],[-64.2412,-17.3257,262.0132],[-64.2415,-17.3221,256.9074],[-64.239,-17.3184,254.0089],[-64.2453,-17.3178,266.5922],[-64.246,-17.3103,254.614],[-64.2485,-17.307,257.1989],[-64.2461,-17.3048,254.2179],[-64.2473,-17.302,259.0143],[-64.2582,-17.296,244.6136],[-64.2608,-17.2967,248.345],[-64.2617,-17.2994,247.7042],[-64.2646,-17.2995,251.899],[-64.2661,-17.2974,249.7886],[-64.2652,-17.2939,239.7508],[-64.2669,-17.2924,242.3572],[-64.2709,-17.2944,242.3825],[-64.2745,-17.2911,237.0634],[-64.2787,-17.2908,238.1665],[-64.2749,-17.2851,231.4882],[-64.2813,-17.2844,237.561],[-64.2844,-17.281,237.5395],[-64.2849,-17.2758,236.7487],[-64.2822,-17.2685,231.3165],[-64.2838,-17.2647,236.5731],[-64.2955,-17.2633,229.5963],[-64.3056,-17.2574,236.7297],[-64.3105,-17.2587,233.022],[-64.3122,-17.2619,233.7366],[-64.3113,-17.2649,233.5818],[-64.3016,-17.2722,230.5],[-64.3013,-17.2765,235.2686],[-64.3045,-17.2779,232.2591],[-64.3115,-17.2744,232.2816],[-64.3125,-17.2678,233.4429],[-64.3154,-17.2648,231.0571],[-64.3304,-17.2622,229.5912],[-64.3369,-17.265,231.7531],[-64.3402,-17.2638,230.8235],[-64.34,-17.2516,229.2661],[-64.3373,-17.2445,228.0993],[-64.3338,-17.2432,231.7539],[-64.3253,-17.2445,225.0],[-64.3211,-17.2408,230.6211],[-64.3232,-17.2368,229.7832],[-64.3325,-17.2343,228.8074],[-64.3361,-17.2318,230.8268],[-64.3369,-17.2245,225.3052],[-64.3329,-17.2142,223.5],[-64.3362,-17.208,224.5743],[-64.3529,-17.214,231.7057],[-64.355,-17.2207,232.9105],[-64.3532,-17.2299,228.9713],[-64.3564,-17.2311,228.5281],[-64.3712,-17.2299,229.6523],[-64.3714,-17.2265,234.7758],[-64.3661,-17.2156,231.1835],[-64.3683,-17.2088,227.6822],[-64.375,-17.2016,230.0196],[-64.3749,-17.1998,231.5657],[-64.3728,-17.1971,230.8365],[-64.3588,-17.198,228.4921],[-64.3564,-17.1925,219.8132],[-64.3573,-17.1871,218.5],[-64.3593,-17.1847,218.5],[-64.3643,-17.1841,223.4961],[-64.3753,-17.1895,224.3565],[-64.3851,-17.1744,216.9239],[-64.3984,-17.1765,218.6371],[-64.4001,-17.1727,224.8622],[-64.3988,-17.1691,219.1825],[-64.387,-17.1653,215.5],[-64.3877,-17.1559,231.2246],[-64.3948,-17.1535,218.9452],[-64.4007,-17.1606,219.7586],[-64.4049,-17.163,220.7931],[-64.4094,-17.1607,223.57],[-64.4103,-17.1563,228.4957],[-64.4073,-17.1517,216.577],[-64.4046,-17.1503,222.4243],[-64.3916,-17.1491,221.2365],[-64.3909,-17.1449,218.9368],[-64.3946,-17.1407,222.4363],[-64.3985,-17.1387,219.9779],[-64.4023,-17.14,219.4333],[-64.4068,-17.1489,214.0],[-64.4107,-17.1514,226.2019],[-64.4138,-17.1503,220.2805],[-64.4195,-17.1409,213.5],[-64.4241,-17.1414,218.3005],[-64.4251,-17.1555,228.8756],[-64.4284,-17.1594,216.1891],[-64.4326,-17.1585,222.8161],[-64.4353,-17.1543,214.5918],[-64.4353,-17.1476,223.0421],[-64.4303,-17.1375,212.5],[-64.4316,-17.133,212.125],[-64.4354,-17.13,216.5924],[-64.4402,-17.1307,211.5],[-64.4479,-17.1402,210.5],[-64.4512,-17.1419,213.7656],[-64.4574,-17.1405,215.4182],[-64.4604,-17.1349,210.8605],[-64.4642,-17.1327,215.2647],[-64.4695,-17.1336,208.0],[-64.4767,-17.1383,207.625],[-64.487,-17.1354,207.125],[-64.4896,-17.1313,207.0],[-64.4882,-17.1268,213.4546],[-64.4782,-17.123,209.6304],[-64.477,-17.1181,212.9566],[-64.4807,-17.114,209.1516],[-64.4979,-17.1029,206.4428],[-64.5003,-17.0909,225.2127],[-64.5042,-17.0897,213.44],[-64.508,-17.0906,212.9335],[-64.5191,-17.099,204.5],[-64.5363,-17.0893,210.2964],[-64.5478,-17.0896,214.6622],[-64.5497,-17.0873,212.1609],[-64.5471,-17.0792,217.2755],[-64.5431,-17.0742,206.9251],[-64.5344,-17.0721,202.0],[-64.5279,-17.0641,221.7194],[-64.5171,-17.0643,203.3357],[-64.5157,-17.0604,214.1261],[-64.5188,-17.0568,209.5779],[-64.5352,-17.0574,201.5],[-64.5442,-17.0548,203.8862],[-64.5469,-17.0553,201.8562],[-64.5499,-17.0583,214.8833],[-64.5491,-17.0678,204.9511],[-64.5533,-17.0702,208.0106],[-64.5601,-17.0657,205.4659],[-64.5658,-17.0587,200.4765],[-64.5684,-17.0579,200.567],[-64.5775,-17.0602,198.0],[-64.5809,-17.0561,213.83],[-64.5791,-17.0514,212.8993],[-64.5728,-17.0487,210.7682],[-64.5644,-17.0402,207.8874],[-64.5647,-17.0357,203.4069],[-64.5699,-17.0325,198.3426],[-64.5748,-17.0331,213.6841],[-64.5825,-17.0413,201.7083],[-64.5878,-17.0539,199.566],[-64.5927,-17.0538,206.6043],[-64.5988,-17.0467,198.9276],[-64.611,-17.0424,206.5466],[-64.6116,-17.0378,207.5953],[-64.6085,-17.035,206.6538],[-64.6058,-17.0352,206.028],[-64.5988,-17.0376,209.996],[-64.5926,-17.0422,201.3057],[-64.5898,-17.0423,204.7243],[-64.5881,-17.0415,202.0263],[-64.5872,-17.0363,202.2505],[-64.5938,-17.0308,200.5891],[-64.604,-17.0258,202.5693],[-64.6099,-17.028,211.1495],[-64.6129,-17.0349,204.2525],[-64.6176,-17.0353,204.7937],[-64.6198,-17.0335,203.2971],[-64.6206,-17.0282,204.4935],[-64.6159,-17.019,203.7204],[-64.6175,-17.0152,204.4794],[-64.6195,-17.0145,197.2374],[-64.6259,-17.0179,207.1722],[-64.6289,-17.0228,211.1435],[-64.6276,-17.028,206.9688],[-64.6246,-17.0316,204.3458],[-64.6257,-17.0358,201.0496],[-64.6343,-17.0391,200.2145],[-64.6393,-17.0372,198.4037],[-64.6416,-17.0314,201.0361],[-64.6401,-17.0196,204.2079],[-64.6385,-17.0169,204.3027],[-64.6284,-17.0125,195.5967],[-64.6267,-17.0084,208.1864],[-64.629,-17.0049,208.1712],[-64.6376,-17.0051,196.3047],[-64.6443,-17.0081,200.4016],[-64.6511,-17.0085,196.7552],[-64.6592,-17.0021,207.6675],[-64.662,-17.0019,203.9343],[-64.6645,-17.0028,203.4977],[-64.6661,-17.0067,201.9112],[-64.6625,-17.0126,195.55],[-64.6641,-17.0158,205.0025],[-64.6728,-17.0129,194.4845],[-64.6803,-17.0182,195.9831],[-64.6875,-17.0192,196.4235],[-64.6911,-17.0145,197.7121],[-64.6897,-17.0086,194.4486],[-64.6914,-17.0004,193.1502],[-64.69,-16.9965,203.9805],[-64.6854,-16.9954,199.4457],[-64.6805,-16.999,195.2855],[-64.6753,-17.0001,192.0],[-64.672,-16.9969,202.4336],[-64.6719,-16.9943,200.6764],[-64.6756,-16.9895,200.4582],[-64.682,-16.9855,195.733],[-64.6906,-16.9836,191.5],[-64.6963,-16.9855,202.2307],[-64.6982,-16.9879,200.384],[-64.6954,-16.9986,199.8044],[-64.7007,-17.0024,197.083],[-64.7046,-17.003,198.0766],[-64.7074,-17.0016,194.5337],[-64.7099,-16.9912,192.0744],[-64.7079,-16.9863,204.9247],[-64.6979,-16.9834,200.4012],[-64.6927,-16.98,199.9872],[-64.6897,-16.9695,195.0474],[-64.6856,-16.9689,193.5202],[-64.6835,-16.9703,191.5],[-64.6804,-16.9772,195.1017],[-64.6769,-16.9792,196.9107],[-64.6733,-16.9765,191.0],[-64.6745,-16.9707,195.3119],[-64.6907,-16.9606,193.1033],[-64.6981,-16.9538,193.5161],[-64.7039,-16.9525,190.5],[-64.7074,-16.9564,196.2728],[-64.704,-16.9673,198.9526],[-64.7048,-16.9702,198.7931],[-64.7094,-16.9721,196.5675],[-64.712,-16.9714,193.3888],[-64.7172,-16.9674,193.4427],[-64.7188,-16.9624,195.6835],[-64.7172,-16.9592,194.6213],[-64.7093,-16.9531,197.9688],[-64.7087,-16.946,197.0422],[-64.7102,-16.9438,191.8147],[-64.7133,-16.9419,195.9575],[-64.7159,-16.9424,191.9996],[-64.7232,-16.9517,190.0],[-64.7294,-16.9544,196.4578],[-64.7356,-16.952,191.9318],[-64.7394,-16.9464,198.9726],[-64.7467,-16.9423,194.8442],[-64.7467,-16.9397,192.9165],[-64.7394,-16.941,195.9226],[-64.7348,-16.938,191.148],[-64.7349,-16.9322,189.5],[-64.7394,-16.9278,211.8693],[-64.7364,-16.9234,199.0352],[-64.7318,-16.9237,200.3792],[-64.7264,-16.9295,199.8558],[-64.7233,-16.9299,190.2923],[-64.7203,-16.9264,192.1862],[-64.7217,-16.9209,197.4119],[-64.7319,-16.9146,202.4889],[-64.7355,-16.9138,190.9052],[-64.7421,-16.9195,204.2739],[-64.7484,-16.919,190.1001],[-64.75,-16.9174,189.0],[-64.7502,-16.9119,190.41],[-64.7443,-16.9045,193.7133],[-64.7382,-16.9022,191.8534],[-64.7326,-16.9024,190.1809],[-64.7281,-16.8994,194.1413],[-64.7288,-16.8934,200.1652],[-64.7322,-16.8881,196.0887],[-64.7346,-16.8861,194.3844],[-64.7405,-16.8865,196.5746],[-64.7438,-16.8942,193.1939],[-64.7515,-16.8979,195.8224],[-64.7568,-16.8968,196.2146],[-64.7608,-16.8907,189.7734],[-64.7583,-16.8862,198.9855],[-64.7476,-16.8831,200.5878],[-64.7385,-16.8777,192.3125],[-64.7364,-16.8715,190.7372],[-64.737,-16.8681,191.14],[-64.7418,-16.8656,192.4908],[-64.7447,-16.8661,188.5],[-64.7548,-16.8745,191.9988],[-64.7606,-16.8772,188.5],[-64.7651,-16.8774,190.7177],[-64.7704,-16.8731,196.7031],[-64.7691,-16.8679,188.0],[-64.7661,-16.8663,212.313],[-64.7419,-16.861,200.4232],[-64.7396,-16.8551,195.6868],[-64.7451,-16.8516,201.6463],[-64.7537,-16.8531,194.4288],[-64.759,-16.8522,188.0],[-64.7633,-16.8548,202.84],[-64.7669,-16.8608,193.614],[-64.7693,-16.8615,188.3637],[-64.7778,-16.8531,192.7464],[-64.7894,-16.8447,188.4062],[-64.7926,-16.8242,187.5],[-64.7902,-16.8185,193.9949],[-64.7805,-16.8127,187.5],[-64.7789,-16.805,192.9412],[-64.7814,-16.8003,187.6569],[-64.7886,-16.796,187.7209],[-64.7977,-16.798,191.3645],[-64.8017,-16.797,187.381],[-64.8041,-16.792,188.1595],[-64.8045,-16.7852,187.0],[-64.8086,-16.7801,189.2333],[-64.8154,-16.7759,192.5676],[-64.8166,-16.7715,190.5421],[-64.8161,-16.7693,190.7006],[-64.8123,-16.7672,190.7855],[-64.8083,-16.7682,190.4209],[-64.8017,-16.7744,189.4824],[-64.7969,-16.7737,185.2357],[-64.794,-16.7683,188.0704],[-64.7964,-16.7644,188.1319],[-64.8017,-16.7624,185.0],[-64.8074,-16.7625,185.0],[-64.8185,-16.767,196.2905],[-64.8306,-16.7757,188.5431],[-64.8342,-16.775,188.3801],[-64.8357,-16.7731,189.234],[-64.8297,-16.7608,186.5],[-64.8299,-16.7563,186.6116],[-64.8342,-16.7494,186.0],[-64.841,-16.7456,186.0],[-64.8424,-16.7404,193.0095],[-64.8403,-16.7341,186.0],[-64.8318,-16.7251,185.5],[-64.8245,-16.7252,186.3148],[-64.8144,-16.7316,185.5],[-64.8039,-16.7352,185.0],[-64.8,-16.739,185.0],[-64.7971,-16.747,187.9157],[-64.7926,-16.75,187.6219],[-64.7877,-16.7488,190.1686],[-64.7836,-16.7445,192.6303],[-64.78,-16.7299,184.5],[-64.7825,-16.7215,184.5],[-64.7901,-16.7156,184.5],[-64.8005,-16.7149,185.5756],[-64.8065,-16.7115,184.0],[-64.8093,-16.7074,191.6102],[-64.8101,-16.7,184.0],[-64.8071,-16.6951,187.1088],[-64.7928,-16.6905,183.5],[-64.7875,-16.6857,184.0897],[-64.7842,-16.6785,183.0],[-64.7834,-16.6612,188.3611],[-64.7798,-16.6561,183.532],[-64.7732,-16.6539,183.1289],[-64.7676,-16.6584,184.866],[-64.767,-16.6646,182.5],[-64.7735,-16.6806,182.0],[-64.7725,-16.6849,182.7782],[-64.7685,-16.6867,182.0],[-64.7635,-16.6856,182.0],[-64.759,-16.6817,182.659],[-64.758,-16.6789,186.025],[-64.7584,-16.6687,194.7556],[-64.7553,-16.6574,187.1084],[-64.7575,-16.6526,181.5],[-64.7722,-16.6374,186.7704],[-64.7872,-16.6363,181.0],[-64.7905,-16.6312,188.2008],[-64.7811,-16.6132,180.5],[-64.7783,-16.6106,181.3049],[-64.765,-16.6049,180.0],[-64.7505,-16.5934,180.0],[-64.7486,-16.5901,179.5],[-64.7472,-16.5821,179.5],[-64.7502,-16.5558,179.0],[-64.7538,-16.5535,179.6278],[-64.7593,-16.5538,181.7284],[-64.7612,-16.5511,182.683],[-64.7574,-16.5446,180.8465],[-64.7426,-16.5385,182.8135],[-64.7401,-16.534,186.3456],[-64.7418,-16.5253,184.8336],[-64.7503,-16.5178,177.5],[-64.7508,-16.5126,180.8741],[-64.746,-16.507,182.3725],[-64.7396,-16.5053,177.5],[-64.7228,-16.5078,177.0],[-64.7199,-16.5095,180.03809999999999],[-64.7186,-16.5144,177.0],[-64.7264,-16.5262,176.5],[-64.7264,-16.5293,176.5],[-64.7207,-16.5354,178.0349],[-64.7112,-16.5363,183.8998],[-64.7063,-16.5317,176.0],[-64.7014,-16.5161,176.0],[-64.7026,-16.5108,181.5003],[-64.7115,-16.5026,175.5],[-64.7112,-16.4958,178.0522],[-64.7084,-16.4934,176.2345],[-64.6929,-16.4901,175.5],[-64.6879,-16.485,175.0],[-64.6884,-16.4824,183.2503],[-64.6918,-16.4798,184.0217],[-64.6974,-16.4809,175.0],[-64.7048,-16.4862,178.0882],[-64.7099,-16.4861,182.0024],[-64.7125,-16.4823,181.1139],[-64.7111,-16.4747,176.8071],[-64.709,-16.4718,175.0],[-64.7026,-16.4685,176.7718],[-64.692,-16.4708,179.6354],[-64.6821,-16.4791,177.0753],[-64.6775,-16.4787,177.841],[-64.6733,-16.474,175.0],[-64.6759,-16.4643,175.0],[-64.6856,-16.4523,175.0],[-64.6876,-16.4466,175.0],[-64.6869,-16.4423,175.0],[-64.6784,-16.4361,178.664],[-64.6767,-16.4316,175.0],[-64.6814,-16.4267,180.7469],[-64.6952,-16.425,174.5],[-64.6985,-16.4217,176.0107],[-64.6989,-16.4176,178.034],[-64.6961,-16.4141,180.9925],[-64.6832,-16.4108,174.5],[-64.6794,-16.408,174.5],[-64.6565,-16.3781,175.8332],[-64.6563,-16.3748,174.0],[-64.6599,-16.3718,177.7],[-64.6645,-16.3711,174.7607],[-64.6855,-16.3788,174.0],[-64.6927,-16.3788,176.2368],[-64.6957,-16.3764,176.7234],[-64.6961,-16.3735,176.2438],[-64.6932,-16.3678,174.0],[-64.6872,-16.3648,178.5096],[-64.6867,-16.3597,182.0608],[-64.692,-16.3563,181.865],[-64.7009,-16.3568,174.0],[-64.706,-16.355,174.0],[-64.7088,-16.3509,183.4122],[-64.7088,-16.3464,181.8566],[-64.7059,-16.3429,174.0],[-64.7015,-16.3426,174.0],[-64.6847,-16.3494,174.0],[-64.6791,-16.3536,174.8959],[-64.6768,-16.3631,174.4812],[-64.6735,-16.3651,174.8505],[-64.6657,-16.3579,174.0],[-64.6668,-16.3414,174.0],[-64.6652,-16.3364,174.4625],[-64.6583,-16.3304,174.9288],[-64.6481,-16.3288,173.5],[-64.6453,-16.3257,179.6857],[-64.644,-16.3208,179.2059],[-64.6463,-16.3164,175.3722],[-64.6509,-16.3151,175.1016],[-64.656,-16.3163,181.8258],[-64.6721,-16.3244,173.5],[-64.6777,-16.3243,173.5],[-64.6803,-16.3213,173.5],[-64.6784,-16.3145,184.1049],[-64.674,-16.3099,173.0],[-64.6495,-16.3,173.0],[-64.6467,-16.2962,175.3243],[-64.65,-16.2911,173.3834],[-64.6553,-16.2883,173.0],[-64.671,-16.2858,172.5],[-64.6808,-16.2879,172.5],[-64.6876,-16.2955,172.5],[-64.6899,-16.2956,172.5],[-64.6928,-16.2931,174.719],[-64.6932,-16.2855,176.1836],[-64.6841,-16.2734,174.2402],[-64.6734,-16.2611,172.0],[-64.6648,-16.2568,174.1032],[-64.6663,-16.2502,176.7055],[-64.6659,-16.2418,174.9541],[-64.6745,-16.2398,177.7753],[-64.6774,-16.2356,171.9447],[-64.6721,-16.2236,172.0461],[-64.67,-16.2084,174.2281],[-64.6715,-16.2049,171.0],[-64.6833,-16.2013,173.4479],[-64.7037,-16.1918,170.5],[-64.7066,-16.1898,172.8886],[-64.7082,-16.1859,170.5],[-64.7073,-16.1824,170.5],[-64.7004,-16.1775,173.88],[-64.6946,-16.1691,177.2041],[-64.6909,-16.1705,170.5],[-64.6936,-16.1806,171.1498],[-64.6918,-16.1841,176.5092],[-64.6877,-16.1862,173.1901],[-64.6842,-16.1848,170.0],[-64.6817,-16.1814,170.0],[-64.6819,-16.1699,169.9206],[-64.6739,-16.1538,169.5],[-64.6724,-16.1419,169.5],[-64.6737,-16.1373,172.13],[-64.6835,-16.1286,169.52],[-64.6845,-16.1245,170.9769],[-64.6827,-16.1215,176.435],[-64.6749,-16.1184,174.5866],[-64.6717,-16.1152,168.5],[-64.6693,-16.1066,169.0234],[-64.6634,-16.0971,173.3896],[-64.6678,-16.0943,175.482],[-64.6779,-16.0987,167.5],[-64.6822,-16.1034,168.4886],[-64.6829,-16.1138,167.9222],[-64.6864,-16.1165,170.4948],[-64.6888,-16.1164,169.0],[-64.6978,-16.1109,170.0422],[-64.6997,-16.1065,170.0126],[-64.6968,-16.1021,173.0548],[-64.6887,-16.0981,170.9101],[-64.6884,-16.0942,175.4043],[-64.6919,-16.0901,172.6158],[-64.698,-16.0879,168.5],[-64.7079,-16.0889,172.1941],[-64.7151,-16.0823,170.548],[-64.7272,-16.0812,170.0664],[-64.727,-16.0777,170.2198],[-64.7222,-16.0721,169.7336],[-64.7189,-16.069,169.7029],[-64.7116,-16.066,169.1843],[-64.708,-16.0664,172.024],[-64.7025,-16.0698,173.9076],[-64.7005,-16.0761,177.9701],[-64.7015,-16.0824,172.0652],[-64.6994,-16.0856,169.2838],[-64.6973,-16.0865,168.5],[-64.6929,-16.0847,176.5678],[-64.6901,-16.0808,176.9642],[-64.6905,-16.0756,170.7657],[-64.6951,-16.0683,177.1524],[-64.6932,-16.0542,173.509],[-64.699,-16.0537,170.3252],[-64.7047,-16.0614,169.6503],[-64.7095,-16.0642,171.8081],[-64.7135,-16.0627,169.5717],[-64.716,-16.0588,168.0],[-64.702,-16.0349,172.4023],[-64.7025,-16.0287,168.0],[-64.7143,-16.0242,168.0],[-64.7193,-16.0185,171.0509],[-64.7233,-16.0172,168.3888],[-64.7259,-16.0216,170.224],[-64.7204,-16.0284,168.0],[-64.7195,-16.0341,168.0],[-64.7237,-16.0386,168.0],[-64.7268,-16.0391,168.0],[-64.7316,-16.0369,171.4056],[-64.7327,-16.0345,168.0],[-64.7305,-16.0189,171.8748],[-64.7267,-16.0122,173.0273],[-64.7232,-16.0095,169.7051],[-64.7158,-16.0087,167.5],[-64.7057,-16.0125,167.5],[-64.7015,-16.0116,167.5],[-64.7009,-16.007,168.5423],[-64.7024,-16.0046,167.5],[-64.7087,-16.0009,169.4285],[-64.7175,-16.0014,168.404],[-64.731,-16.0062,167.0],[-64.7341,-16.0027,167.959],[-64.7336,-15.9961,168.1202],[-64.7316,-15.9932,167.0],[-64.711,-15.9777,167.0859],[-64.7095,-15.9675,166.0],[-64.7136,-15.9631,169.7345],[-64.7199,-15.963,169.0429],[-64.7241,-15.9685,166.0],[-64.7246,-15.9796,165.5],[-64.7288,-15.9817,166.4134],[-64.74,-15.9816,168.0376],[-64.7417,-15.9794,165.5],[-64.7329,-15.9705,165.0],[-64.7261,-15.9556,165.0],[-64.7268,-15.9512,164.5],[-64.7331,-15.9488,165.2728],[-64.7537,-15.9531,167.8061],[-64.7562,-15.9502,164.0],[-64.7508,-15.9259,163.75],[-64.7456,-15.9221,167.5822],[-64.7349,-15.9226,163.5],[-64.7304,-15.9202,163.5],[-64.7297,-15.9177,169.5368],[-64.7304,-15.9113,169.2991],[-64.7326,-15.9082,169.1303],[-64.7466,-15.8971,163.0],[-64.7459,-15.8912,169.6023],[-64.74,-15.8922,170.3041],[-64.7292,-15.9031,163.0],[-64.7252,-15.9019,163.0],[-64.723,-15.8968,163.0],[-64.7303,-15.8792,164.0255],[-64.7364,-15.8747,165.7566],[-64.749,-15.8709,163.0],[-64.7512,-15.8666,166.2351],[-64.7503,-15.8611,163.0],[-64.745,-15.8521,163.0],[-64.7432,-15.838,163.0],[-64.7332,-15.8257,164.8454],[-64.7304,-15.8199,162.8537],[-64.729,-15.8139,163.915],[-64.7297,-15.802,165.4082],[-64.9583,-15.801,164.8983],[-65.0027,-15.8215,164.8677],[-65.0216,-15.8371,165.3315],[-65.0412,-15.858,166.307],[-65.0717,-15.9057,168.4511],[-65.0807,-15.931,169.0041],[-65.0889,-16.0058,171.2612],[-65.1162,-16.188,177.3204],[-65.1398,-16.2366,178.502],[-65.2399,-16.3688,189.3216],[-65.3534,-16.4006,197.1851],[-65.5947,-16.4602,206.0745],[-65.8353,-16.4904,288.1794],[-65.8617,-16.4917,281.8451],[-65.9141,-16.4814,485.3248],[-65.9712,-16.467,520.6696],[-66.0089,-16.4492,658.1254],[-66.0563,-16.4171,719.7173],[-66.1098,-16.3966,813.7796],[-66.1697,-16.3628,987.6312],[-66.2311,-16.2857,925.9248],[-66.3104,-16.159,1079.1006],[-66.3393,-16.1172,342.186],[-66.3497,-16.1146,378.1414],[-66.3552,-16.111,418.5772],[-66.3561,-16.108,399.3926],[-66.361,-16.1075,423.9351],[-66.3674,-16.104,467.9567],[-66.3722,-16.0956,570.2062],[-66.3783,-16.0928,710.9547],[-66.3832,-16.0861,651.9261],[-66.4016,-16.0745,952.2649],[-66.4769,-16.0044,1106.6057],[-66.5063,-15.9852,695.4521],[-66.5697,-15.9606,1251.6289],[-66.6156,-15.9517,1161.3781],[-66.6352,-15.9335,1244.4656],[-66.6347,-15.927,1296.1047],[-66.6388,-15.916,1417.3684],[-66.6468,-15.9169,1427.4312],[-66.6587,-15.9054,1459.283],[-66.6689,-15.9061,1366.5416],[-66.6762,-15.911,1445.5706],[-66.6817,-15.9029,1465.6118],[-66.7071,-15.8939,1571.9539],[-66.7295,-15.8786,1614.6637],[-66.7476,-15.8603,1590.3751],[-66.7663,-15.8464,1753.8839],[-66.7908,-15.8338,1609.4016],[-66.8075,-15.828,1525.3596],[-66.8089,-15.8234,1419.8077],[-66.8058,-15.8083,1331.0939],[-66.8028,-15.8045,1338.8179],[-66.8015,-15.7995,1180.2786],[-66.7972,-15.7953,1145.7502],[-66.7944,-15.7878,1179.4954],[-66.7954,-15.7851,1097.2786],[-66.8003,-15.7848,1092.0889],[-66.8027,-15.7826,1083.371],[-66.8041,-15.7839,1094.7245],[-66.8069,-15.7804,1095.0247],[-66.8093,-15.7799,1097.9294],[-66.8128,-15.7822,1135.6075],[-66.8123,-15.7861,1155.6016],[-66.8262,-15.7886,1367.6958],[-66.8304,-15.7905,1525.5067],[-66.8337,-15.7951,1629.7548],[-66.8368,-15.7967,1619.9581],[-66.8485,-15.7884,1346.3987],[-66.8605,-15.7831,1228.2673],[-66.8641,-15.7915,1025.4271],[-66.8737,-15.7964,875.1456],[-66.8819,-15.8089,748.1306],[-66.8835,-15.8088,748.1306],[-66.8908,-15.8159,671.9509],[-66.8928,-15.8203,650.4168],[-66.8954,-15.8206,644.2667],[-66.9003,-15.8352,582.3257],[-66.9081,-15.8461,518.4365],[-66.9065,-15.8489,505.5568],[-66.9011,-15.8494,502.0],[-66.9016,-15.8522,505.1821],[-66.8999,-15.8556,508.5671],[-66.9035,-15.8618,507.728],[-66.9014,-15.868,515.3816],[-66.8948,-15.8718,513.7339],[-66.8871,-15.8734,515.2974],[-66.8829,-15.8785,513.228],[-66.8818,-15.8845,514.1585],[-66.8831,-15.8899,532.8432],[-66.8885,-15.894,517.0527],[-66.8902,-15.8975,528.9762],[-66.8747,-15.919,527.7446],[-66.8787,-15.9224,528.3793],[-66.8783,-15.9258,533.6263],[-66.8688,-15.9354,554.8882],[-66.8753,-15.938,545.6948],[-66.8785,-15.9436,569.911],[-66.884,-15.9417,557.4535],[-66.8888,-15.9504,576.0762],[-66.8948,-15.9521,568.2567],[-66.8987,-15.9556,647.5669],[-66.9003,-15.9611,598.838],[-66.9052,-15.9629,626.5836],[-66.9058,-15.9683,584.6353],[-66.9104,-15.9729,590.8333],[-66.9137,-15.9797,609.1932],[-66.9117,-15.9857,652.1373],[-66.9125,-15.9878,627.667],[-66.9099,-15.9913,659.5439],[-66.9208,-15.9983,630.1872],[-66.9217,-16.0014,616.5479],[-66.917,-16.0043,640.502],[-66.9165,-16.0111,680.4526],[-66.9135,-16.0156,704.8517],[-66.9156,-16.0216,643.3588],[-66.913,-16.0259,681.6903],[-66.9116,-16.0329,660.0099],[-66.9132,-16.0424,644.2468],[-66.9091,-16.0473,667.425],[-66.911,-16.0489,662.8553],[-66.9095,-16.0532,683.2635],[-66.9131,-16.0607,668.256],[-66.9103,-16.0642,744.2485],[-66.9135,-16.0678,675.2394],[-66.9177,-16.0695,667.6076],[-66.918,-16.0823,692.0887],[-66.92,-16.0851,657.8212],[-66.9205,-16.0914,666.5267],[-66.9186,-16.0951,678.8006],[-66.9133,-16.0965,663.8464],[-66.9101,-16.1047,709.5721],[-66.903,-16.1035,682.1484],[-66.8982,-16.112,673.6812],[-66.8945,-16.1121,688.8082],[-66.8897,-16.1169,680.7587],[-66.8882,-16.1199,681.6628],[-66.8892,-16.1242,689.5135],[-66.8846,-16.1266,697.8524],[-66.8826,-16.1344,700.7922],[-66.8762,-16.1387,699.0433],[-66.8745,-16.1475,708.6226],[-66.868,-16.1515,702.1301],[-66.8706,-16.1606,715.3256],[-66.8629,-16.1646,705.5602],[-66.859,-16.1729,712.9099],[-66.8508,-16.1823,766.8002],[-66.8479,-16.1928,724.4815],[-66.8443,-16.195,851.8102],[-66.8457,-16.2092,748.0515],[-66.8516,-16.2167,735.5361],[-66.8495,-16.218,733.1347],[-66.8498,-16.2235,739.4211],[-66.8467,-16.2276,816.2178],[-66.8527,-16.2338,741.5006],[-66.8503,-16.2372,791.1313],[-66.8505,-16.2408,814.3184],[-66.8514,-16.244,832.7717],[-66.8535,-16.2446,824.3873],[-66.8499,-16.2516,760.0499],[-66.843,-16.258,813.974],[-66.8341,-16.2606,778.455],[-66.8277,-16.2686,767.9927],[-66.8195,-16.2695,863.4748],[-66.8198,-16.2749,772.8201],[-66.8163,-16.2812,782.7812],[-66.809,-16.2831,827.3624],[-66.807,-16.2877,798.1582],[-66.8004,-16.2956,791.5245],[-66.8003,-16.3,792.8279],[-66.801,-16.3016,803.3688],[-66.8038,-16.3019,826.0642],[-66.804,-16.3035,822.3332],[-66.8022,-16.3085,858.1342],[-66.8029,-16.3119,842.9132],[-66.7987,-16.3209,884.4648],[-66.7991,-16.3286,883.2786],[-66.7949,-16.3443,899.5167],[-66.7989,-16.3535,918.3804],[-66.7956,-16.3656,860.2856],[-66.7968,-16.3762,864.2659],[-66.7942,-16.3906,864.5402],[-66.7946,-16.3983,864.4362],[-66.7892,-16.4088,884.4299],[-66.7913,-16.4121,1005.6657],[-66.7857,-16.4142,887.6636],[-66.783,-16.4198,1044.2549],[-66.786,-16.4283,899.6951],[-66.7853,-16.4323,891.1746],[-66.7874,-16.436,914.5917],[-66.7882,-16.4434,912.5629],[-66.7851,-16.4505,905.022],[-66.786,-16.4565,904.8835],[-66.7825,-16.4618,1031.1731],[-66.7825,-16.4679,1010.8889],[-66.7845,-16.4721,958.3277],[-66.7882,-16.4735,922.5886],[-66.7888,-16.4845,965.2108],[-66.7816,-16.4941,938.7285],[-66.7731,-16.5,961.9312],[-66.7691,-16.5049,953.92],[-66.7688,-16.5121,1000.5378],[-66.7768,-16.5174,1013.126],[-66.7765,-16.5218,1000.9589],[-66.769,-16.5339,1006.3037],[-66.7649,-16.5356,1007.6779],[-66.765,-16.543,1028.6893],[-66.7597,-16.5444,1078.6641],[-66.7484,-16.564,1078.3954],[-66.7421,-16.5713,1064.6532],[-66.7426,-16.5776,1081.3223],[-66.7381,-16.5784,1099.1714],[-66.7321,-16.5901,1124.965],[-66.7338,-16.5964,1156.8904],[-66.7382,-16.6001,1192.1843],[-66.7367,-16.6048,1238.2775],[-66.7378,-16.6074,1255.9172],[-66.734,-16.6129,1134.6426],[-66.7373,-16.617,1161.8313],[-66.7369,-16.6228,1210.396],[-66.7414,-16.6246,1155.3015],[-66.7423,-16.6281,1153.7057],[-66.7466,-16.6321,1174.1432],[-66.7447,-16.64,1196.8065],[-66.742,-16.6438,1173.9038],[-66.7427,-16.6488,1164.8562],[-66.741,-16.6567,1193.4545],[-66.7469,-16.6621,1207.0911],[-66.747,-16.6669,1276.1436],[-66.7542,-16.6762,1217.9437],[-66.7543,-16.6843,1197.4513],[-66.7587,-16.6938,1231.9991],[-66.7566,-16.6971,1217.2971],[-66.7577,-16.7032,1229.0879],[-66.7532,-16.7065,1231.566],[-66.7436,-16.7203,1250.8271],[-66.7445,-16.7309,1252.1868],[-66.7409,-16.7363,1275.9984],[-66.7447,-16.7382,1256.9703],[-66.7456,-16.7406,1278.9883],[-66.7412,-16.75,1264.4408],[-66.7412,-16.7552,1270.6481],[-66.7516,-16.7687,1290.1998],[-66.7593,-16.7704,1291.713],[-66.7623,-16.7821,1335.1738],[-66.7691,-16.7858,1307.7385],[-66.7759,-16.7841,1312.1387],[-66.7841,-16.7931,1328.4807],[-66.7849,-16.7957,1330.2543],[-66.7806,-16.7999,1446.4871],[-66.784,-16.8031,1337.8206],[-66.7848,-16.8065,1432.4176],[-66.7892,-16.8067,1347.7617],[-66.7926,-16.8104,1359.5759],[-66.7969,-16.8117,1376.6755],[-66.8003,-16.818,1365.3853],[-66.8067,-16.821,1356.9575],[-66.8149,-16.8293,1366.1707],[-66.8212,-16.8313,1377.02],[-66.8222,-16.8338,1383.929],[-66.8261,-16.8347,1418.8695],[-66.8272,-16.837,1411.7338],[-66.8305,-16.8373,1428.6718],[-66.833,-16.8397,1468.5847],[-66.8374,-16.8408,1447.8787],[-66.8393,-16.8389,1440.5278],[-66.8415,-16.8403,1460.1631],[-66.8544,-16.8344,1470.9552],[-66.8577,-16.8358,1449.139],[-66.8664,-16.8331,1486.5844],[-66.8703,-16.8352,1506.4189],[-66.8819,-16.836,1465.2404],[-66.885,-16.8375,1475.7823],[-66.8875,-16.834,1513.676],[-66.8911,-16.8351,1499.7727],[-66.8947,-16.8336,1482.8867],[-66.9015,-16.8339,1501.0282],[-66.9043,-16.8368,1557.4109],[-66.9073,-16.8364,1565.874],[-66.9107,-16.8329,1565.186],[-66.9155,-16.8362,1515.2163],[-66.924,-16.8358,1507.811],[-66.9355,-16.8524,1524.3724],[-66.9416,-16.8561,1538.2222],[-66.9466,-16.8685,1576.2272],[-66.9525,-16.8761,1560.8921],[-66.956,-16.8776,1560.8431],[-66.9652,-16.8873,1588.2845],[-66.972,-16.89,1585.853],[-66.9736,-16.8921,1604.7067],[-66.9762,-16.9064,1607.4846],[-66.9702,-16.921,1635.0186],[-66.9705,-16.9243,1638.948],[-66.9779,-16.9285,1663.5706],[-66.9917,-16.9333,1650.4907],[-66.9922,-16.9416,1669.2234],[-67.0031,-16.9477,1666.8015],[-67.0055,-16.9516,1668.2754],[-67.0057,-16.9559,1670.9982],[-67.0044,-16.9593,1675.6477],[-67.001,-16.9616,1678.0801],[-67.0,-16.9684,1689.1527],[-67.0022,-16.9767,1690.6295],[-67.0018,-16.9893,1701.3628],[-66.9906,-17.0144,1744.2452],[-66.9907,-17.0196,1753.761],[-66.9867,-17.0256,1749.9666],[-66.984,-17.0344,1756.3801],[-66.9849,-17.0388,1797.7112],[-66.9807,-17.0468,1806.3347],[-66.9736,-17.0515,1787.8607],[-66.9695,-17.0572,1792.9148],[-66.9573,-17.0656,1816.8586],[-66.9565,-17.0718,1830.4111],[-66.9444,-17.0845,1848.8138],[-66.9403,-17.0943,1875.6857],[-66.9306,-17.1071,1887.4246],[-66.9256,-17.1109,1893.0906],[-66.9154,-17.1135,1907.9923],[-66.9047,-17.1229,1923.1346],[-66.8971,-17.1336,1949.2134],[-66.8904,-17.1398,1961.7554],[-66.8892,-17.1478,1970.502],[-66.8839,-17.1566,1994.7249],[-66.8831,-17.1613,2005.1953],[-66.8852,-17.1659,2012.5803],[-66.8863,-17.1781,2043.5439],[-66.8853,-17.1852,2072.2573],[-66.8898,-17.1898,2079.4314],[-66.8905,-17.1946,2113.8887],[-66.8888,-17.1962,2106.0576],[-66.8886,-17.2004,2124.6692],[-66.89,-17.2061,2119.8394],[-66.8885,-17.2137,2135.4907],[-66.8822,-17.2203,2140.4236],[-66.8823,-17.2256,2153.2734],[-66.8771,-17.2342,2172.657],[-66.8787,-17.2484,2247.165],[-66.8886,-17.2661,2234.9624],[-66.8866,-17.2709,2236.8787],[-66.8889,-17.2728,2242.4243],[-66.888,-17.2757,2250.7708],[-66.8894,-17.2777,2253.9619],[-66.8875,-17.29,2292.9399],[-66.883,-17.2916,2295.1587],[-66.8732,-17.3021,2334.4407],[-66.8669,-17.3039,2357.5552],[-66.8574,-17.3107,2406.9338],[-66.8426,-17.3175,2550.5474],[-66.8472,-17.3365,2665.7185],[-66.8492,-17.3381,2708.6577],[-66.8559,-17.3378,2742.4565],[-66.8595,-17.3412,2715.4812],[-66.8578,-17.3478,2717.8203],[-66.8497,-17.3486,2697.675],[-66.8454,-17.354,2734.5613],[-66.8468,-17.3606,2740.6643],[-66.8458,-17.365,2761.4924],[-66.8515,-17.378,2868.9116],[-66.8498,-17.3819,2861.8804],[-66.8464,-17.3843,2930.5217],[-66.8474,-17.386,2899.2412],[-66.8533,-17.3846,2937.4441],[-66.8649,-17.3887,2915.5959],[-66.8669,-17.4026,2937.2297],[-66.8739,-17.4102,2968.3281],[-66.8769,-17.4168,2985.4197],[-66.8753,-17.4219,3002.2407],[-66.872,-17.4259,3013.5593],[-66.8685,-17.4274,3016.3281],[-66.8629,-17.4361,3026.5557],[-66.8439,-17.4415,3062.8447],[-66.8404,-17.4472,3088.0457],[-66.8357,-17.4511,3091.5105],[-66.8372,-17.4634,3139.9849],[-66.8347,-17.4767,3226.7922],[-66.8314,-17.4798,3186.439],[-66.8274,-17.4892,3200.1057],[-66.8228,-17.493,3218.4668],[-66.8219,-17.499,3244.4763],[-66.8163,-17.5035,3246.968],[-66.8174,-17.507,3267.8687],[-66.8157,-17.5116,3372.1577],[-66.8175,-17.5166,3394.1758],[-66.8249,-17.5256,3406.4258],[-66.8291,-17.5278,3422.9497],[-66.8346,-17.5269,3507.1345],[-66.8403,-17.5336,3650.7925],[-66.8477,-17.5339,3717.4531],[-66.8613,-17.5399,3934.6028],[-66.8699,-17.5394,3982.6482],[-66.8777,-17.5415,3960.7825],[-66.8735,-17.557,4056.4761],[-66.8758,-17.5597,4013.9932],[-66.8799,-17.5608,4066.5225],[-66.883,-17.5675,4101.4443],[-66.8856,-17.5687,4112.9556],[-66.8849,-17.5749,4157.436],[-66.8916,-17.5855,4290.3188],[-66.8999,-17.5905,4576.0781],[-66.886,-17.5997,4543.5693],[-66.8728,-17.6173,4596.1938],[-66.8724,-17.6248,4595.7603],[-66.8833,-17.6333,4449.7617],[-66.8876,-17.6392,4374.7207],[-66.892,-17.6661,4507.3345],[-66.879,-17.6789,4522.9834],[-66.8772,-17.6896,4509.8652],[-66.8714,-17.6925,4550.8281],[-66.8697,-17.7017,4465.8154],[-66.8608,-17.7126,4500.833],[-66.8513,-17.7191,4562.6035],[-66.8345,-17.7264,4499.8955],[-66.8216,-17.7373,4505.4409],[-66.8157,-17.7567,4338.1646],[-66.7967,-17.7767,4384.4238],[-66.7957,-17.7818,4422.1162],[-66.7819,-17.781,4311.7983],[-66.7791,-17.7844,4344.8892],[-66.772,-17.7818,4365.3906],[-66.7761,-17.7914,4167.0879],[-66.7708,-17.7933,4133.873],[-66.7641,-17.8029,4158.8579],[-66.757,-17.825,4125.4863],[-66.7511,-17.8348,4124.9531],[-66.7471,-17.8377,4093.7642],[-66.7308,-17.8405,4086.5874],[-66.7227,-17.8476,3976.781],[-66.7234,-17.8512,4000.3525],[-66.7206,-17.8574,4056.1816],[-66.7225,-17.8701,4048.7878],[-66.7162,-17.8781,4178.8799],[-66.7136,-17.8846,4276.4678],[-66.7134,-17.8937,4267.3892],[-66.7151,-17.9001,4293.6318],[-66.7379,-17.9397,4227.7695],[-66.7482,-17.9529,4148.4463],[-66.7814,-17.9846,4265.7305],[-66.7884,-17.9882,4347.0312],[-66.8012,-18.0037,4403.7559],[-66.8225,-18.0254,4434.2471],[-66.827,-18.037,4608.7397],[-66.8356,-18.0475,4541.5225],[-66.8414,-18.0517,4769.9595],[-66.8329,-18.0615,4725.7852],[-66.8321,-18.0833,4485.1118],[-66.8223,-18.0938,4431.4644],[-66.818,-18.1019,4439.8911],[-66.8157,-18.1113,4616.6479],[-66.799,-18.1245,4585.7285],[-66.7958,-18.1296,4534.4297],[-66.7852,-18.1357,4579.4946],[-66.761,-18.1359,4314.2793],[-66.7247,-18.1159,4703.5186],[-66.7124,-18.1166,4566.293],[-66.7049,-18.1204,4471.8105],[-66.6956,-18.1213,4191.5806],[-66.6886,-18.1195,4154.9277],[-66.6839,-18.116,4115.8574],[-66.684,-18.1144,4114.1724],[-66.6863,-18.1137,4100.6865],[-66.6848,-18.112,4080.0181],[-66.6815,-18.1114,4086.8723],[-66.6803,-18.1134,4108.1592],[-66.6779,-18.1134,4082.5352],[-66.6752,-18.1092,4065.4028],[-66.6595,-18.1178,4120.8594],[-66.6369,-18.1189,4100.2188],[-66.6262,-18.1125,4024.3579],[-66.6204,-18.1056,3949.4932],[-66.6185,-18.0971,3933.6475],[-66.614,-18.0969,3947.0508],[-66.6129,-18.093,3917.9126],[-66.6075,-18.0855,3906.3345],[-66.6011,-18.0823,3991.0972],[-66.5953,-18.0843,3979.1577],[-66.5765,-18.0829,3951.7319],[-66.5646,-18.076,3966.3821],[-66.5485,-18.0803,3942.9998],[-66.5457,-18.0829,3941.8125],[-66.54,-18.0821,3906.4663],[-66.5372,-18.084,3906.1006],[-66.5358,-18.0834,3854.7905],[-66.5274,-18.0891,3537.208],[-66.5234,-18.0895,3525.3035],[-66.5243,-18.0821,3586.7],[-66.5321,-18.0658,3902.8779],[-66.5335,-18.0584,3901.6362],[-66.5184,-18.0466,3738.3921],[-66.5121,-18.0363,3703.749],[-66.4934,-18.022,3819.4907],[-66.4853,-18.0138,3921.3123],[-66.4745,-18.0066,4086.5566],[-66.4718,-18.0037,4128.2617],[-66.4726,-18.0006,4154.4531],[-66.4613,-17.9934,4026.0481],[-66.4462,-17.9811,3924.8025],[-66.4449,-17.9786,4049.6353],[-66.4314,-17.9734,4062.2578],[-66.4193,-17.9757,4063.4819],[-66.4129,-17.9707,4021.5596],[-66.3953,-17.9633,3692.0896],[-66.3878,-17.9641,3811.821],[-66.3811,-17.9599,3700.4771],[-66.3721,-17.9581,3527.855],[-66.372,-17.9566,3501.8159],[-66.3593,-17.9569,3654.3279],[-66.3509,-17.96,3459.1865],[-66.3435,-17.9597,3344.4834],[-66.3427,-17.9569,3413.2307],[-66.3376,-17.9536,3502.0171],[-66.3268,-17.9528,3039.4158],[-66.3202,-17.9495,3125.7373],[-66.3092,-17.9618,3306.9287],[-66.2873,-17.9626,3673.4485],[-66.2809,-17.966,3744.6006],[-66.278,-17.964,3727.543],[-66.272,-17.9539,3669.6045],[-66.2665,-17.9514,3771.8977],[-66.2662,-17.9461,3753.7163],[-66.2608,-17.9392,3847.9277],[-66.2517,-17.9343,4102.6943],[-66.2496,-17.9374,4092.573],[-66.2472,-17.9532,4071.6265],[-66.2366,-17.9487,3922.582],[-66.226,-17.9526,3760.2532],[-66.2233,-17.9493,3730.4111],[-66.222,-17.9423,3758.0244],[-66.2192,-17.9414,3699.646],[-66.2193,-17.9376,3725.0225],[-66.2161,-17.9352,3678.8352],[-66.2107,-17.9353,3649.2935],[-66.2099,-17.9319,3740.3989],[-66.2034,-17.9309,3722.1238],[-66.197,-17.9262,3748.5327],[-66.1822,-17.9335,3707.1682],[-66.1799,-17.9334,3597.6338],[-66.1722,-17.928,3393.4646],[-66.1672,-17.9271,3351.144],[-66.1648,-17.9245,3374.6936],[-66.166,-17.9152,3490.8889],[-66.1617,-17.9116,3586.6602],[-66.1639,-17.907,3563.2593],[-66.1594,-17.9034,3438.3337],[-66.1569,-17.9033,3435.7212],[-66.1586,-17.8993,3470.6936],[-66.1463,-17.8844,3247.3508],[-66.1339,-17.8781,3226.4104],[-66.1165,-17.8583,3051.2307],[-66.1157,-17.8535,3032.3467],[-66.1175,-17.8499,2977.6982],[-66.1156,-17.8424,2935.5249],[-66.1167,-17.8396,2967.4639],[-66.1135,-17.8338,2867.9792],[-66.1124,-17.8272,2763.7317],[-66.1099,-17.8271,2768.9951],[-66.1077,-17.8195,2638.7422],[-66.1042,-17.8155,2488.2441],[-66.1005,-17.8071,2339.697],[-66.092,-17.8082,2273.157],[-66.0827,-17.8138,2249.1265],[-66.0809,-17.8192,2241.7312],[-66.0776,-17.8187,2237.3896],[-66.0624,-17.8273,2236.2749],[-66.0594,-17.8273,2228.4312],[-66.0533,-17.8347,2231.5759],[-66.0439,-17.8388,2237.0669],[-66.0411,-17.8464,2211.5117],[-66.0356,-17.8506,2198.5249],[-66.0349,-17.8555,2196.0542],[-66.0254,-17.8636,2206.5291],[-66.0257,-17.868,2185.8633],[-66.0231,-17.874,2188.168],[-66.0169,-17.8752,2198.8774],[-66.0166,-17.8858,2180.1863],[-66.0133,-17.8889,2183.5188],[-66.01,-17.8976,2171.3594],[-66.0066,-17.9003,2169.594],[-66.0018,-17.9107,2162.5459],[-65.9928,-17.918,2185.2529],[-65.9886,-17.9352,2144.5044],[-65.9844,-17.939,2139.3315],[-65.9745,-17.9423,2144.7932],[-65.9676,-17.9516,2129.5176],[-65.9643,-17.9532,2137.6143],[-65.9606,-17.953,2144.8257],[-65.9595,-17.947,2131.7676],[-65.9565,-17.9467,2142.0146],[-65.9504,-17.9492,2114.5195],[-65.9487,-17.9548,2148.8196],[-65.9431,-17.9562,2142.2202],[-65.9431,-17.9602,2112.1296],[-65.9413,-17.9624,2217.9629],[-65.9431,-17.9774,2111.1055],[-65.9412,-17.9814,2094.0962],[-65.9344,-17.9838,2099.4429],[-65.934,-17.9921,2099.7349],[-65.9257,-17.9945,2075.6926],[-65.914,-17.9916,2065.4968],[-65.9066,-17.9869,2068.0212],[-65.895,-17.9873,2079.978],[-65.8924,-17.9837,2047.8492],[-65.8879,-17.9831,2065.8711],[-65.8877,-17.9799,2044.1433],[-65.8752,-17.9776,2038.002],[-65.8712,-17.9756,2186.3184],[-65.8676,-17.9709,2095.3774],[-65.8577,-17.975,2045.5967],[-65.8528,-17.9744,2015.0649],[-65.8512,-17.9763,2034.8923],[-65.8488,-17.974,2012.3884],[-65.8451,-17.9742,2010.9956],[-65.8433,-17.9796,2007.1005],[-65.8366,-17.9846,2001.4932],[-65.8357,-17.9869,2005.7828],[-65.8303,-17.9877,2002.0541],[-65.8271,-17.9969,1992.2609],[-65.8159,-18.0022,1984.5845],[-65.8125,-18.0084,1990.9117],[-65.8065,-18.0105,1978.5853],[-65.8041,-18.0087,1977.0005],[-65.8007,-18.009,1975.0818],[-65.7982,-18.0128,1974.1361],[-65.7908,-18.0139,1969.5074],[-65.7869,-18.0199,2006.7192],[-65.7825,-18.021,1964.3617],[-65.7813,-18.0239,1970.413],[-65.7834,-18.0273,1961.2469],[-65.7834,-18.0319,2013.7516],[-65.7722,-18.037,1952.4036],[-65.7679,-18.0361,1967.9653],[-65.7644,-18.0413,1951.2451],[-65.7557,-18.0434,1942.5681],[-65.752,-18.0487,1940.7924],[-65.7441,-18.0497,1935.8832],[-65.7408,-18.0543,1933.3865],[-65.7413,-18.0588,1934.375],[-65.7332,-18.0612,1927.9329],[-65.7296,-18.0606,1926.4839],[-65.728,-18.0675,1923.4707],[-65.724,-18.0681,1923.0206],[-65.7151,-18.0755,1919.1627],[-65.7089,-18.0783,1913.8713],[-65.7042,-18.0887,1913.7141],[-65.6976,-18.0943,1911.1653],[-65.6934,-18.0942,1908.4607],[-65.6882,-18.0992,1905.3738],[-65.6842,-18.1076,1901.295],[-65.6841,-18.1126,1900.0573],[-65.6809,-18.1166,1906.0496],[-65.6763,-18.1201,1901.9227],[-65.6707,-18.1204,1891.8164],[-65.6685,-18.1257,1891.979],[-65.6652,-18.1264,1889.385],[-65.6612,-18.1316,1891.6643],[-65.6542,-18.1335,1898.0625],[-65.6506,-18.1391,1947.2206],[-65.6455,-18.1389,1880.9197],[-65.6409,-18.1366,1867.458],[-65.638,-18.1374,1865.1315],[-65.6392,-18.1422,1869.1184],[-65.6336,-18.1463,1871.5035],[-65.6322,-18.1521,1897.2158],[-65.6226,-18.157,1904.1222],[-65.6142,-18.1657,2008.147],[-65.6126,-18.1696,1872.199],[-65.6042,-18.1759,1891.7991],[-65.6031,-18.185,1852.2755],[-65.6001,-18.1879,1841.0876],[-65.5967,-18.2036,1824.3284],[-65.594,-18.2036,1824.3665],[-65.5937,-18.2058,1823.8125],[-65.5916,-18.2072,1821.4663],[-65.5846,-18.2079,1824.2145],[-65.5839,-18.2143,1870.7859],[-65.5789,-18.2156,1888.4664],[-65.5748,-18.2213,1879.1328],[-65.5716,-18.2225,1889.6047],[-65.5648,-18.2342,1924.8199],[-65.5613,-18.2342,1914.7911],[-65.5543,-18.2382,1896.2004],[-65.5495,-18.2376,1830.2416],[-65.5441,-18.2464,1798.1808],[-65.5389,-18.2453,1819.754],[-65.5355,-18.2467,1874.0958],[-65.5338,-18.2423,1823.3098],[-65.5268,-18.2454,1837.7555],[-65.5223,-18.2533,1824.6453],[-65.5154,-18.2522,1793.4277],[-65.5023,-18.2573,1768.9542],[-65.5012,-18.2689,1769.3945],[-65.4931,-18.2783,1832.5299],[-65.4883,-18.2916,1779.0781],[-65.4839,-18.2961,1759.8746],[-65.4785,-18.2932,1749.8292],[-65.4771,-18.2944,1739.026],[-65.4796,-18.2977,1756.9258],[-65.4792,-18.3019,1742.6536],[-65.4729,-18.3047,1731.5],[-65.4756,-18.3102,1733.2495],[-65.4736,-18.3198,1722.0403],[-65.4713,-18.3253,1719.8892],[-65.4634,-18.3341,1714.0693],[-65.4635,-18.3411,1710.02],[-65.4575,-18.3453,1728.1353],[-65.4555,-18.3497,1717.7968],[-65.4486,-18.3539,1718.8066],[-65.447,-18.3575,1703.0167],[-65.4412,-18.3604,1768.9717],[-65.4394,-18.3651,1722.4659],[-65.4324,-18.3683,1699.5281],[-65.428,-18.3682,1698.6487],[-65.4223,-18.3628,1713.0688],[-65.4201,-18.3625,1705.6411],[-65.4044,-18.3673,1693.5273],[-65.3789,-18.3877,1704.0751],[-65.3736,-18.394,1684.6005],[-65.3512,-18.408,1659.9154],[-65.3457,-18.4179,1647.2909],[-65.3316,-18.4242,1641.4219],[-65.3305,-18.427,1654.1023],[-65.334,-18.4324,1700.5377],[-65.3337,-18.4431,1673.4087],[-65.3358,-18.4482,1657.663],[-65.3345,-18.4538,1650.5824],[-65.3308,-18.4585,1637.6154],[-65.3255,-18.4586,1648.4377],[-65.3199,-18.4532,1628.2665],[-65.3183,-18.4473,1680.2987],[-65.3139,-18.4431,1614.4359],[-65.3098,-18.443,1620.3042],[-65.3034,-18.4487,1612.4565],[-65.2907,-18.4668,1608.3805],[-65.2893,-18.474,1597.207],[-65.2932,-18.4859,1592.2957],[-65.292,-18.4919,1593.0647],[-65.2875,-18.4961,1591.8284],[-65.2883,-18.5011,1585.8333],[-65.2832,-18.5029,1585.7184],[-65.2794,-18.5087,1588.6698],[-65.2738,-18.5094,1580.537],[-65.2622,-18.5071,1587.876],[-65.2533,-18.5037,1571.7141],[-65.2458,-18.506,1570.0667],[-65.2467,-18.5198,1561.2002],[-65.2433,-18.5262,1559.6646],[-65.245,-18.5336,1556.0166],[-65.2392,-18.5469,1549.7515],[-65.2378,-18.5557,1546.002],[-65.2387,-18.563,1542.4714],[-65.2455,-18.5799,1535.4094],[-65.2448,-18.5963,1542.6458],[-65.248,-18.6012,1612.3822],[-65.243,-18.6113,1560.958],[-65.2339,-18.6131,1565.1697],[-65.2153,-18.611,1516.3376],[-65.2106,-18.6135,1513.5815],[-65.2069,-18.6183,1510.6492],[-65.2056,-18.623,1512.1523],[-65.2027,-18.624,1506.8757],[-65.1842,-18.6175,1520.8223],[-65.1758,-18.6185,1496.5586],[-65.1691,-18.6124,1494.4851],[-65.1643,-18.6102,1498.7568],[-65.1547,-18.6135,1494.4226],[-65.1466,-18.6064,1487.66],[-65.1468,-18.6142,1483.0654],[-65.145,-18.6167,1479.6438],[-65.1317,-18.6251,1475.7478],[-65.1266,-18.6263,1492.1932],[-65.1223,-18.6333,1477.7424],[-65.1144,-18.6329,1500.4298],[-65.1091,-18.6374,1473.4338],[-65.102,-18.6402,1480.6831],[-65.1004,-18.6489,1498.7173],[-65.0965,-18.6568,1460.7996],[-65.0889,-18.6578,1555.0237],[-65.0849,-18.6616,1484.7412],[-65.0768,-18.659,1456.5701],[-65.0584,-18.6754,1441.5764],[-65.0498,-18.6746,1436.2207],[-65.0461,-18.6806,1437.9414],[-65.0425,-18.6817,1429.4923],[-65.0316,-18.6689,1420.2214],[-65.0358,-18.663,1418.8328],[-65.0389,-18.6491,1416.546],[-65.044,-18.6518,1426.6715],[-65.0481,-18.6465,1406.8182],[-65.0495,-18.6408,1402.8667],[-65.0483,-18.6342,1414.8491],[-65.0514,-18.63,1398.3728],[-65.0452,-18.624,1432.4563],[-65.0477,-18.6134,1385.1223],[-65.0391,-18.6094,1382.8638],[-65.0376,-18.601,1388.566],[-65.035,-18.5989,1380.2823],[-65.0211,-18.5985,1368.1656],[-65.0222,-18.5926,1388.6162],[-65.0207,-18.5843,1397.4437],[-65.0158,-18.5809,1390.8945],[-65.0136,-18.5769,1425.2915],[-65.0046,-18.5725,1353.5271],[-65.0006,-18.5657,1341.7689],[-65.0006,-18.559,1433.8434],[-64.9953,-18.5574,1385.3843],[-64.9902,-18.5612,1338.8694],[-64.9859,-18.5594,1359.5648],[-64.9835,-18.5606,1335.636],[-64.975,-18.5588,1340.7108],[-64.971,-18.5551,1335.1899],[-64.9663,-18.5555,1345.7214],[-64.9592,-18.5534,1320.4774],[-64.9568,-18.5515,1337.4329],[-64.9595,-18.543,1318.9568],[-64.953,-18.5401,1312.2334],[-64.9497,-18.536,1443.0842],[-64.9363,-18.53,1317.7345],[-64.9323,-18.5179,1305.9126],[-64.9143,-18.5108,1321.3073],[-64.9077,-18.504,1304.0117],[-64.9017,-18.5033,1294.7662],[-64.8883,-18.4979,1372.3865],[-64.8839,-18.4936,1273.6691],[-64.879,-18.4924,1271.2396],[-64.8754,-18.4885,1261.1777],[-64.8725,-18.4894,1293.2277],[-64.8712,-18.4924,1257.9856],[-64.8658,-18.4912,1295.7888],[-64.8629,-18.4936,1256.8966],[-64.8579,-18.4867,1246.7002],[-64.8514,-18.4892,1243.0642],[-64.8433,-18.4842,1246.6475],[-64.8396,-18.4837,1248.7487],[-64.8314,-18.4897,1252.526],[-64.8073,-18.4885,1221.6709],[-64.7988,-18.494,1249.2396],[-64.7972,-18.5024,1218.9231],[-64.7856,-18.5165,1208.2577],[-64.7876,-18.5212,1206.7335],[-64.7844,-18.526,1204.6957],[-64.7708,-18.5292,1221.5281],[-64.764,-18.5286,1241.9657],[-64.75,-18.5348,1193.5242],[-64.7427,-18.5342,1189.111],[-64.7352,-18.5378,1182.9258],[-64.7264,-18.534,1177.5607],[-64.7224,-18.537,1179.8799],[-64.712,-18.535,1186.1056],[-64.7054,-18.5397,1307.73],[-64.7027,-18.538,1189.4285],[-64.7008,-18.5305,1165.229],[-64.6967,-18.5296,1172.6594],[-64.6939,-18.5384,1160.7578],[-64.6864,-18.5385,1158.6182],[-64.6821,-18.5424,1156.2832],[-64.6747,-18.5611,1148.2859],[-64.6706,-18.5665,1145.4849],[-64.6631,-18.5705,1141.3208],[-64.6525,-18.5724,1137.4829],[-64.6431,-18.5886,1132.7777],[-64.6432,-18.5917,1127.448],[-64.6482,-18.5945,1125.1848],[-64.6468,-18.6032,1121.116],[-64.6433,-18.6047,1137.6995],[-64.6366,-18.604,1116.4281],[-64.6337,-18.6174,1111.927],[-64.6241,-18.6228,1116.5347],[-64.6216,-18.6328,1100.9235],[-64.6117,-18.6391,1109.2179],[-64.6078,-18.6435,1093.8213],[-64.6021,-18.6427,1092.7897],[-64.5949,-18.644,1089.1075],[-64.5845,-18.6533,1083.8997],[-64.5741,-18.6536,1079.4929],[-64.5636,-18.6623,1074.3137],[-64.5603,-18.6721,1070.6539],[-64.5579,-18.6745,1069.468],[-64.5446,-18.6738,1065.4315],[-64.5397,-18.6762,1065.8853],[-64.5332,-18.675,1059.95],[-64.52,-18.6763,1070.157],[-64.5114,-18.6674,1051.5774],[-64.5082,-18.6696,1050.2499],[-64.5002,-18.6713,1046.0912],[-64.4908,-18.6716,1043.8939],[-64.4795,-18.6683,1038.1616],[-64.4697,-18.6685,1035.1201],[-64.4641,-18.664,1032.5858],[-64.4567,-18.6542,1030.7905],[-64.453,-18.6526,1036.0249],[-64.446,-18.6532,1024.1305],[-64.4403,-18.6499,1018.5139],[-64.4383,-18.6413,1015.1931],[-64.4332,-18.6321,1162.2622],[-64.4296,-18.6296,1123.4692],[-64.4239,-18.6278,1081.8369],[-64.4161,-18.6287,1030.6603],[-64.3979,-18.6216,1000.459],[-64.3894,-18.6225,996.2842],[-64.3858,-18.6245,992.4709],[-64.3809,-18.6224,982.0799],[-64.3708,-18.6231,961.5617],[-64.366,-18.6208,954.3149],[-64.3642,-18.6165,952.9615],[-64.3613,-18.615,953.2],[-64.3605,-18.6299,942.8842],[-64.3578,-18.6402,939.0309],[-64.3525,-18.6472,1024.8169],[-64.3496,-18.6557,934.9065],[-64.3432,-18.6659,929.0542],[-64.3407,-18.6676,926.9268],[-64.3367,-18.6672,953.7162]]]]}}