{"type":"Feature","properties":{"GID_3":"BOL.8.8.1_2","GID_0":"BOL","country":"Bolivia","GID_1":"BOL.8_1","province":"SantaCruz","NL_NAME_1":"NA","GID_2":"BOL.8.8_2","county":"Ichilo","NL_NAME_2":"NA","city":"BuenaVista","VARNAME_3":"NA","NL_NAME_3":"NA","TYPE_3":"District","ENGTYPE_3":"Distrito","CC_3":"NA","HASC_3":"NA","name":"Buena_Vista.city"},
"geometry":{"type": "MultiPolygon","coordinates": [[[[-63.5167,-17.8075,480.6281],[-63.5248,-17.8015,734.9221],[-63.5265,-17.7936,866.0453],[-63.5175,-17.7709,439.1622],[-63.5183,-17.7663,439.1398],[-63.5154,-17.7631,443.489],[-63.5087,-17.7453,487.1174],[-63.5024,-17.738,469.7976],[-63.4995,-17.7318,472.0179],[-63.4943,-17.7276,462.0024],[-63.4944,-17.7234,437.5395],[-63.4911,-17.7211,431.1199],[-63.4903,-17.714,429.6605],[-63.4895,-17.7122,426.4221],[-63.4882,-17.7129,425.5821],[-63.4871,-17.7054,416.7573],[-63.4882,-17.7048,416.7573],[-63.4853,-17.7039,417.4835],[-63.4873,-17.7023,414.3345],[-63.4851,-17.6995,410.0842],[-63.4858,-17.6937,406.1247],[-63.4794,-17.6902,407.7526],[-63.4773,-17.6849,404.516],[-63.4751,-17.6862,398.6526],[-63.4764,-17.684,405.226],[-63.4733,-17.6817,396.1285],[-63.4733,-17.6761,408.7082],[-63.4718,-17.677,399.7043],[-63.4684,-17.6757,394.6834],[-63.4693,-17.6728,396.363],[-63.4673,-17.6732,402.7039],[-63.4677,-17.6698,398.6024],[-63.4634,-17.6677,393.7023],[-63.4652,-17.6625,381.5757],[-63.4637,-17.6617,392.0565],[-63.4641,-17.6596,384.7152],[-63.4673,-17.6584,379.6215],[-63.4645,-17.6546,384.6596],[-63.4648,-17.6524,377.3017],[-63.4628,-17.6517,370.5083],[-63.4647,-17.635,365.8857],[-63.4585,-17.6306,372.1124],[-63.4632,-17.6224,361.4296],[-63.4651,-17.6219,361.6383],[-63.4832,-17.6281,414.3725],[-63.4879,-17.6272,427.9549],[-63.4924,-17.6229,413.8501],[-63.4917,-17.6206,416.3078],[-63.4949,-17.6188,397.3869],[-63.4957,-17.6156,414.8259],[-63.5025,-17.6115,381.8434],[-63.5022,-17.6023,367.8886],[-63.5072,-17.5949,361.8393],[-63.5111,-17.5951,361.3433],[-63.5109,-17.5925,371.4703],[-63.5136,-17.5893,365.8842],[-63.5126,-17.5874,362.0407],[-63.5182,-17.5835,354.7367],[-63.5175,-17.5814,352.6556],[-63.5211,-17.5743,354.9228],[-63.5238,-17.5733,348.2218],[-63.524,-17.571,352.8083],[-63.5284,-17.5716,345.235],[-63.5289,-17.5678,351.8652],[-63.5313,-17.5691,344.6895],[-63.5336,-17.5684,344.769],[-63.5332,-17.5657,348.2184],[-63.5368,-17.561,344.1517],[-63.5392,-17.5621,342.2022],[-63.5384,-17.56,343.2318],[-63.532,-17.5558,339.3595],[-63.5351,-17.5528,340.1337],[-63.532,-17.5496,338.2627],[-63.5367,-17.5506,340.114],[-63.5369,-17.5478,342.8519],[-63.5294,-17.5434,370.8629],[-63.5365,-17.5379,337.5494],[-63.5401,-17.5387,347.2986],[-63.5407,-17.5374,341.8096],[-63.5383,-17.5337,332.0273],[-63.5416,-17.5315,335.564],[-63.5364,-17.5236,330.3565],[-63.5335,-17.5287,331.9016],[-63.5305,-17.5263,331.8432],[-63.5328,-17.5238,330.2521],[-63.5327,-17.5205,328.652],[-63.5319,-17.5181,330.0161],[-63.5265,-17.5136,328.5414],[-63.5294,-17.5112,323.4305],[-63.5241,-17.4986,325.9434],[-63.5246,-17.4928,325.5005],[-63.523,-17.4895,325.7269],[-63.5166,-17.4884,325.73],[-63.5147,-17.4852,322.9142],[-63.5129,-17.4851,322.9335],[-63.5101,-17.4928,321.8156],[-63.5074,-17.4929,325.4761],[-63.5091,-17.4848,318.1196],[-63.5072,-17.4811,318.4033],[-63.5094,-17.479,321.1214],[-63.5116,-17.4724,324.4099],[-63.5102,-17.4648,323.3475],[-63.511,-17.4592,318.257],[-63.507,-17.4531,314.4222],[-63.4995,-17.448,316.6182],[-63.5009,-17.4454,315.4797],[-63.505,-17.4477,312.523],[-63.508,-17.4457,309.3805],[-63.5098,-17.4476,311.9136],[-63.5084,-17.4485,311.1664],[-63.5072,-17.447,313.3755],[-63.506,-17.45,313.5909],[-63.5123,-17.4519,311.6472],[-63.5208,-17.4456,312.1884],[-63.5227,-17.442,308.4404],[-63.5226,-17.4372,308.8976],[-63.5208,-17.4336,306.6651],[-63.5173,-17.4317,307.2826],[-63.5153,-17.4357,304.9741],[-63.509,-17.4399,307.2242],[-63.5071,-17.4374,306.8249],[-63.5092,-17.4271,304.1756],[-63.5078,-17.4261,303.9816],[-63.5018,-17.4279,305.5739],[-63.5015,-17.4253,302.6459],[-63.4996,-17.4239,304.0375],[-63.5014,-17.4182,303.5462],[-63.5124,-17.4124,300.6468],[-63.517,-17.4066,298.6186],[-63.5172,-17.3995,299.5629],[-63.5186,-17.3994,298.7211],[-63.5186,-17.4018,300.841],[-63.521,-17.403,299.496],[-63.5225,-17.3989,297.7795],[-63.5203,-17.3968,298.0065],[-63.5227,-17.3961,294.5207],[-63.5265,-17.3863,293.6763],[-63.5328,-17.3881,291.1725],[-63.5467,-17.3769,290.2845],[-63.5465,-17.3721,293.5914],[-63.5497,-17.3695,287.3364],[-63.5493,-17.367,286.2764],[-63.5532,-17.3639,289.1425],[-63.555,-17.3593,291.5949],[-63.5581,-17.3568,288.3809],[-63.5623,-17.3592,285.4897],[-63.5639,-17.3519,285.9792],[-63.5661,-17.353,284.2667],[-63.571,-17.3485,284.3998],[-63.5748,-17.3485,285.8187],[-63.5781,-17.3438,284.0837],[-63.5829,-17.3433,284.3548],[-63.5852,-17.3446,282.9647],[-63.5859,-17.3411,280.9556],[-63.595,-17.3423,284.9891],[-63.6018,-17.3363,282.0725],[-63.6003,-17.3319,280.3003],[-63.6016,-17.3297,280.2839],[-63.6025,-17.3324,278.0113],[-63.6046,-17.3322,277.4897],[-63.6068,-17.3338,279.4067],[-63.6067,-17.3355,279.2005],[-63.6091,-17.3358,278.7549],[-63.612,-17.3428,281.0467],[-63.6124,-17.3486,282.4239],[-63.6144,-17.3501,281.6322],[-63.6183,-17.3494,279.7591],[-63.6221,-17.353,281.9874],[-63.6267,-17.3531,282.9445],[-63.6275,-17.356,285.1899],[-63.6327,-17.3541,284.1542],[-63.6342,-17.3555,287.7799],[-63.6329,-17.3591,287.1031],[-63.635,-17.362,286.5875],[-63.6386,-17.3599,287.6276],[-63.6379,-17.357,285.5364],[-63.6453,-17.3544,284.8583],[-63.6506,-17.3543,287.2551],[-63.6549,-17.3575,290.3116],[-63.6577,-17.3551,287.7877],[-63.6629,-17.3578,289.8559],[-63.6668,-17.3524,288.3682],[-63.6662,-17.3501,288.8546],[-63.6682,-17.3498,288.9233],[-63.67,-17.3558,287.0895],[-63.6666,-17.3613,291.395],[-63.6669,-17.3648,292.1114],[-63.6704,-17.3701,293.1863],[-63.6703,-17.3745,294.1009],[-63.6763,-17.3752,291.3111],[-63.6759,-17.3779,290.126],[-63.6793,-17.3791,289.8724],[-63.6797,-17.3824,289.8944],[-63.6818,-17.3842,289.4496],[-63.6794,-17.3886,292.7791],[-63.6748,-17.3917,292.7705],[-63.6723,-17.3966,295.9377],[-63.6727,-17.402,296.7368],[-63.6703,-17.4042,296.3288],[-63.6713,-17.4174,303.4294],[-63.6748,-17.4239,321.4029],[-63.6743,-17.4258,327.6961],[-63.6752,-17.4275,330.8627],[-63.701,-17.4397,340.041],[-63.7045,-17.442,350.8748],[-63.7053,-17.4455,360.6203],[-63.7103,-17.4461,324.3951],[-63.714,-17.4527,316.0251],[-63.7138,-17.4556,317.3349],[-63.721,-17.4592,317.1599],[-63.7274,-17.465699999999998,324.3461],[-63.7412,-17.4703,321.2871],[-63.7383,-17.4738,332.7309],[-63.7407,-17.479,329.9325],[-63.7385,-17.4835,328.602],[-63.7394,-17.4845,328.602],[-63.7364,-17.488,331.1873],[-63.7371,-17.4973,337.716],[-63.7347,-17.5019,348.1638],[-63.737,-17.5043,337.9988],[-63.738,-17.5152,382.5042],[-63.7492,-17.5204,320.5778],[-63.7505,-17.5224,325.4767],[-63.7535,-17.5228,323.658],[-63.7546,-17.5278,327.7236],[-63.7569,-17.5306,349.3956],[-63.7535,-17.5334,338.6879],[-63.7529,-17.5428,338.5878],[-63.7499,-17.5459,338.1063],[-63.7541,-17.5449,346.7542],[-63.7575,-17.5493,346.7998],[-63.7634,-17.5527,353.9178],[-63.7636,-17.5562,347.5368],[-63.7667,-17.5594,372.5739],[-63.7678,-17.5631,358.7214],[-63.7839,-17.5775,430.3854],[-63.7907,-17.5776,389.1014],[-63.7943,-17.584,407.0691],[-63.7908,-17.5889,414.1428],[-63.7921,-17.5887,413.0229],[-63.7927,-17.595,411.7375],[-63.7952,-17.5987,425.5902],[-63.7995,-17.5995,444.1983],[-63.8155,-17.6078,810.4491],[-63.829,-17.6203,497.0355],[-63.8498,-17.6319,734.4872],[-63.8675,-17.649,406.0546],[-63.8719,-17.6474,416.3754],[-63.8779,-17.651,400.77],[-63.8826,-17.6505,414.6032],[-63.877,-17.6407,420.7313],[-63.8812,-17.6345,400.5928],[-63.8794,-17.6286,441.0304],[-63.8915,-17.6087,384.644],[-63.8877,-17.6074,423.5849],[-63.8879,-17.6049,403.0421],[-63.8994,-17.5939,403.7259],[-63.9041,-17.5935,381.0868],[-63.9053,-17.5865,389.979],[-63.9103,-17.5874,382.1152],[-63.9131,-17.5784,365.5439],[-63.9184,-17.5733,368.5743],[-63.923,-17.5842,368.7128],[-63.9275,-17.5866,376.9101],[-63.9317,-17.5919,376.7741],[-63.9374,-17.5941,381.6249],[-63.9427,-17.5933,396.2734],[-63.9535,-17.599,434.5153],[-63.9688,-17.5904,410.2223],[-63.975,-17.5784,449.8172],[-63.9812,-17.5761,430.9269],[-63.9947,-17.5765,440.062],[-64.0042,-17.5867,461.1869],[-64.0133,-17.5933,474.7345],[-64.0152,-17.5974,473.735],[-64.0152,-17.6045,479.7271],[-64.0196,-17.612,501.2687],[-64.0209,-17.6187,502.2675],[-64.0202,-17.6227,539.2455],[-64.0146,-17.6238,546.3136],[-64.0123,-17.6267,557.8986],[-64.0213,-17.6318,547.2645],[-64.0237,-17.6311,574.4525],[-64.024,-17.6292,586.1551],[-64.0332,-17.6264,611.3337],[-64.039,-17.6297,634.8973],[-64.0445,-17.6297,631.6381],[-64.046,-17.6242,666.4993],[-64.0484,-17.6244,660.158],[-64.0488,-17.623,660.158],[-64.0515,-17.624,671.3999],[-64.0536,-17.6285,750.584],[-64.0566,-17.63,719.8838],[-64.0629,-17.6303,758.6341],[-64.0663,-17.6288,819.3825],[-64.0747,-17.6309,933.1242],[-64.0818,-17.6306,1134.1128],[-64.0854,-17.6275,1190.7413],[-64.0896,-17.6272,1288.1572],[-64.0926,-17.6247,1228.7295],[-64.0999,-17.6222,1003.2385],[-64.1141,-17.6102,736.0226],[-64.1192,-17.6092,647.7084],[-64.1204,-17.6075,618.6603],[-64.125,-17.6079,693.9312],[-64.1271,-17.6096,645.6723],[-64.1255,-17.6157,645.0461],[-64.1283,-17.6199,649.712],[-64.1278,-17.6257,656.6674],[-64.1335,-17.631,666.29],[-64.1373,-17.6316,676.0131],[-64.1422,-17.6364,728.7559],[-64.1476,-17.6388,696.6749],[-64.1502,-17.6422,726.1027],[-64.1494,-17.6444,745.3444],[-64.1524,-17.6462,725.8243],[-64.1513,-17.6496,729.2609],[-64.1542,-17.6521,750.3967],[-64.1515,-17.6589,761.7261],[-64.1539,-17.6668,782.8223],[-64.1487,-17.6733,819.5009],[-64.1501,-17.6753,800.4102],[-64.1584,-17.6779,807.7987],[-64.1556,-17.6827,814.5115],[-64.1589,-17.6813,819.988],[-64.1618,-17.6825,879.664],[-64.1616,-17.6875,840.6535],[-64.1636,-17.6904,871.149],[-64.1626,-17.6943,857.0871],[-64.1571,-17.6966,949.3455],[-64.1567,-17.7027,937.3793],[-64.1603,-17.7028,932.1165],[-64.1629,-17.7071,915.7688],[-64.1679,-17.7062,995.5766],[-64.1693,-17.7093,1009.7927],[-64.1663,-17.7107,1044.5088],[-64.1673,-17.7143,967.8899],[-64.1694,-17.7145,993.0555],[-64.1703,-17.7108,994.5031],[-64.1731,-17.7103,1042.5889],[-64.174,-17.7133,1081.5205],[-64.1773,-17.714,1066.6089],[-64.1812,-17.7177,1150.3784],[-64.1848,-17.7173,1219.7509],[-64.1885,-17.7124,1150.3956],[-64.1986,-17.7104,1268.6104],[-64.2008,-17.7114,1320.2897],[-64.201,-17.7139,1305.9736],[-64.2036,-17.7135,1303.6438],[-64.205,-17.7162,1302.4027],[-64.2084,-17.7149,1301.2288],[-64.2082,-17.7182,1306.6204],[-64.21,-17.7197,1290.5912],[-64.2079,-17.7227,1301.1384],[-64.2116,-17.7219,1290.4994],[-64.211,-17.7258,1290.7745],[-64.2153,-17.7296,1291.1045],[-64.2135,-17.7324,1294.1702],[-64.2149,-17.7362,1321.4548],[-64.2177,-17.7374,1344.8813],[-64.219,-17.7463,1387.2305],[-64.2187,-17.7495,1359.8779],[-64.2175,-17.7498,1343.8884],[-64.2118,-17.7475,1340.4122],[-64.2093,-17.7491,1332.4545],[-64.2066,-17.7487,1378.4404],[-64.204,-17.7544,1403.5906],[-64.1979,-17.7574,1418.2609],[-64.194,-17.7527,1498.4839],[-64.1844,-17.7635,1547.9192],[-64.1816,-17.7636,1605.0996],[-64.1814,-17.768,1619.0288],[-64.1751,-17.777,1689.2808],[-64.1672,-17.7777,1741.3644],[-64.1651,-17.7826,1765.2089],[-64.1587,-17.7848,1655.7634],[-64.1532,-17.7921,1487.6425],[-64.1463,-17.7875,1636.1489],[-64.1431,-17.7804,1813.9307],[-64.1439,-17.7739,1950.6771],[-64.1472,-17.7674,2124.4504],[-64.1457,-17.765,2169.2932],[-64.1335,-17.7713,1937.298],[-64.1225,-17.7733,1705.6624],[-64.1142,-17.7712,1468.3069],[-64.1135,-17.7653,1396.236],[-64.106,-17.7598,1252.2964],[-64.0986,-17.749,1066.9419],[-64.0946,-17.7498,1078.6855],[-64.093,-17.7486,1039.3973],[-64.0892,-17.7521,1016.1837],[-64.0835,-17.7488,995.2434],[-64.0809,-17.7501,956.4478],[-64.0783,-17.7494,982.0481],[-64.078,-17.7519,941.694],[-64.0733,-17.7522,931.7485],[-64.0728,-17.7541,919.8547],[-64.0708,-17.7524,974.8199],[-64.0677,-17.7552,891.1095],[-64.0643,-17.7558,880.8436],[-64.0592,-17.755,887.1464],[-64.0596,-17.7526,874.1664],[-64.0545,-17.7536,850.6885],[-64.0554,-17.7518,855.5668],[-64.0529,-17.7513,833.8542],[-64.0497,-17.7555,840.018],[-64.0518,-17.7573,839.477],[-64.0481,-17.7622,854.9039],[-64.0428,-17.7653,855.2095],[-64.0435,-17.7689,859.9313],[-64.0385,-17.7706,866.2689],[-64.0366,-17.7762,876.0433],[-64.0348,-17.7763,860.833],[-64.0331,-17.7793,876.7692],[-64.0276,-17.7797,901.9435],[-64.0241,-17.7824,882.5291],[-64.0254,-17.7841,892.2908],[-64.0248,-17.7918,898.3519],[-64.0224,-17.797,912.3596],[-64.0269,-17.7965,904.4447],[-64.0293,-17.8,915.0972],[-64.0242,-17.8023,930.4182],[-64.0195,-17.8107,981.9838],[-64.0168,-17.8092,1001.7292],[-64.0165,-17.8142,930.5936],[-64.0134,-17.813,934.4312],[-64.0107,-17.8174,948.2698],[-64.0085,-17.8152,956.1813],[-64.0062,-17.8161,973.0055],[-64.0066,-17.8219,938.5088],[-64.0019,-17.8214,944.9312],[-64.0003,-17.8286,949.2864],[-63.9752,-17.8453,1570.4163],[-63.9731,-17.852,1772.5188],[-63.9643,-17.8571,1960.988],[-63.9505,-17.856,2015.0356],[-63.9463,-17.86,2065.4836],[-63.933,-17.8611,2152.7981],[-63.93,-17.8708,2223.0652],[-63.923,-17.8814,2028.5305],[-63.9199,-17.8832,1956.7258],[-63.8958,-17.8802,1527.6371],[-63.8813,-17.8838,1166.5991],[-63.8786,-17.8805,1147.2434],[-63.8761,-17.8808,1119.5476],[-63.8734,-17.878,1110.0496],[-63.8673,-17.8809,1067.1819],[-63.8562,-17.881,987.5676],[-63.8465,-17.8846,1004.4888],[-63.8468,-17.8819,941.5657],[-63.8451,-17.8829,906.6766],[-63.8438,-17.8816,947.393],[-63.843,-17.8833,853.617],[-63.8405,-17.8836,866.8996],[-63.834,-17.8815,835.2314],[-63.8293,-17.8819,839.6132],[-63.8262,-17.8791,815.9858],[-63.8221,-17.8793,797.965],[-63.8244,-17.8766,785.4368],[-63.8176,-17.8729,818.4611],[-63.8177,-17.87,782.5669],[-63.8157,-17.8681,763.2266],[-63.8017,-17.867,719.7262],[-63.7925,-17.8608,700.0591],[-63.7879,-17.8743,728.782],[-63.7805,-17.8792,849.0778],[-63.7806,-17.8832,700.7261],[-63.7756,-17.8903,700.6952],[-63.7736,-17.8976,714.5308],[-63.7724,-17.8969,772.6066],[-63.7704,-17.8995,821.207],[-63.7749,-17.9033,750.9488],[-63.7743,-17.9058,756.1458],[-63.778,-17.9049,726.2732],[-63.7797,-17.9075,725.9556],[-63.7785,-17.9128,781.6769],[-63.7811,-17.9146,761.7385],[-63.7791,-17.9159,773.5803],[-63.782,-17.9174,767.6359],[-63.7818,-17.92,772.3015],[-63.7803,-17.9205,827.8546],[-63.7814,-17.9227,771.2144],[-63.7792,-17.9249,789.6194],[-63.7819,-17.9264,774.3673],[-63.7723,-17.9336,802.9596],[-63.7709,-17.9329,845.8928],[-63.7653,-17.9428,830.805],[-63.7629,-17.9421,846.359],[-63.7648,-17.9471,859.1932],[-63.7642,-17.9521,916.2931],[-63.7576,-17.9574,922.908],[-63.7592,-17.9581,934.9867],[-63.7614,-17.9653,982.6598],[-63.7656,-17.9642,1030.4827],[-63.7666,-17.967,1032.1949],[-63.7694,-17.9682,1046.5769],[-63.7715,-17.9744,1076.4856],[-63.7711,-17.9811,1119.5527],[-63.7763,-17.988,1143.3127],[-63.7712,-17.9968,1355.0541],[-63.7681,-17.9991,1504.2159],[-63.7695,-18.0068,1298.1694],[-63.7678,-18.0127,1222.136],[-63.7657,-18.0151,1167.3311],[-63.7615,-18.0146,1142.4695],[-63.7566,-18.0181,1123.3259],[-63.7548,-18.0221,1096.9778],[-63.7509,-18.0239,1086.1169],[-63.7469,-18.0227,1065.7948],[-63.7459,-18.0208,1178.7285],[-63.7433,-18.0223,1068.3929],[-63.7411,-18.0201,1063.0746],[-63.7373,-18.0196,1080.4999],[-63.7263,-18.0233,1054.9403],[-63.7247,-18.0192,1026.1265],[-63.7266,-18.0169,1032.6989],[-63.7241,-18.0182,1026.1265],[-63.7192,-18.0159,1011.7387],[-63.7194,-18.0134,1008.9374],[-63.7119,-18.0134,1047.3988],[-63.7062,-18.0084,1027.5237],[-63.7007,-18.0063,1245.3789],[-63.6994,-18.0082,1320.9263],[-63.692,-18.011,1481.927],[-63.6863,-18.0068,1497.4435],[-63.6753,-18.0073,1754.4324],[-63.6699,-18.0105,1752.7786],[-63.6661,-18.0107,1662.4744],[-63.6619,-18.0075,1711.1445],[-63.6536,-18.0079,1754.8875],[-63.65,-18.009,1757.0061],[-63.6444,-18.016,1736.7557],[-63.6354,-18.0147,1740.3223],[-63.6168,-18.0162,1418.6547],[-63.615,-18.0003,1249.9392],[-63.6175,-17.991,1192.7754],[-63.6177,-17.9826,1159.2151],[-63.6216,-17.9784,1120.3297],[-63.6219,-17.959,1069.4889],[-63.6259,-17.9529,1050.9539],[-63.6293,-17.9523,988.8824],[-63.6301,-17.9506,988.6095],[-63.632,-17.9511,968.2454],[-63.6351,-17.9473,975.3325],[-63.6394,-17.9482,941.1979],[-63.639,-17.95,951.7886],[-63.6404,-17.9501,951.7886],[-63.6436,-17.9466,970.8116],[-63.6441,-17.942,923.407],[-63.6464,-17.9402,908.4631],[-63.6364,-17.9384,1063.2145],[-63.6311,-17.9315,1163.4052],[-63.6256,-17.9298,1312.2639],[-63.6187,-17.9222,1490.6561],[-63.6115,-17.919,1241.5979],[-63.6083,-17.919,1212.8507],[-63.6012,-17.9144,1127.3894],[-63.601,-17.9092,1092.6726],[-63.6025,-17.9063,1074.6919],[-63.5979,-17.9007,1002.8954],[-63.5909,-17.8973,987.8506],[-63.581,-17.8952,952.7504],[-63.5774,-17.8899,865.1402],[-63.5655,-17.8831,687.8942],[-63.5666,-17.8801,660.6586],[-63.5629,-17.8788,711.4486],[-63.5626,-17.8767,756.697],[-63.5577,-17.8765,649.923],[-63.5549,-17.8798,639.0745],[-63.5527,-17.8789,618.8555],[-63.5535,-17.8766,601.6526],[-63.5515,-17.8756,607.4727],[-63.5515,-17.8718,594.5937],[-63.5466,-17.8712,624.8506],[-63.5447,-17.8691,595.4061],[-63.5444,-17.8646,572.0638],[-63.5477,-17.862,578.4117],[-63.5451,-17.8581,638.7997],[-63.5469,-17.8578,617.884],[-63.5437,-17.8531,576.5667],[-63.5412,-17.8526,561.9337],[-63.5413,-17.8495,568.4873],[-63.5431,-17.8509,543.8272],[-63.5433,-17.8492,537.3849],[-63.5414,-17.8466,549.2819],[-63.5384,-17.8463,540.2109],[-63.5365,-17.8415,561.3693],[-63.5371,-17.8383,530.8834],[-63.5329,-17.8332,535.3696],[-63.5372,-17.8241,505.9831],[-63.5263,-17.8138,495.094],[-63.5198,-17.8128,499.1468],[-63.5167,-17.8075,480.6281]]]]}}