{"type":"Feature","properties":{"GID_3":"BOL.8.3.3_2","GID_0":"BOL","country":"Bolivia","GID_1":"BOL.8_1","province":"SantaCruz","NL_NAME_1":"NA","GID_2":"BOL.8.3_2","county":"Chiquitos","NL_NAME_2":"NA","city":"SanJosé","VARNAME_3":"NA","NL_NAME_3":"NA","TYPE_3":"District","ENGTYPE_3":"Distrito","CC_3":"NA","HASC_3":"NA","name":"San_José.city"},
"geometry":{"type": "MultiPolygon","coordinates": [[[[-59.5202,-17.0091,216.325],[-60.3846,-17.2096,341.2686],[-60.4448,-17.2219,327.2277],[-60.4472,-17.2264,352.0721],[-60.4566,-17.2291,320.2575],[-60.4623,-17.2344,312.8293],[-60.474,-17.2313,306.1086],[-60.4804,-17.2356,293.9515],[-60.489,-17.236,290.2935],[-60.4989,-17.2321,287.8107],[-60.5029,-17.2266,289.4294],[-60.5107,-17.2203,284.4126],[-60.5178,-17.22,278.8726],[-60.5257,-17.2251,276.334],[-60.5264,-17.2301,277.2469],[-60.5289,-17.2318,279.1474],[-60.5399,-17.2288,276.0175],[-60.547,-17.2316,277.6913],[-60.5483,-17.2336,282.835],[-60.5533,-17.233,272.5775],[-60.5563,-17.237,275.7607],[-60.5647,-17.233,273.0641],[-60.5674,-17.2347,269.5515],[-60.5664,-17.2369,281.3911],[-60.5708,-17.2366,272.8749],[-60.5728,-17.2402,271.9985],[-60.5737,-17.2472,266.1377],[-60.5684,-17.2531,267.2502],[-60.5711,-17.2562,266.044],[-60.5795,-17.2605,265.6284],[-60.6009,-17.2676,268.1596],[-60.6096,-17.2679,267.5635],[-60.611,-17.2616,268.3105],[-60.615,-17.2578,275.324],[-60.6199,-17.2587,278.3714],[-60.6382,-17.2571,284.4244],[-60.6439,-17.248,294.5477],[-60.6527,-17.2423,297.7799],[-60.6596,-17.2428,303.8132],[-60.6686,-17.2408,316.6008],[-60.6756,-17.2345,323.3349],[-60.6829,-17.2227,382.7112],[-60.6818,-17.2189,395.6425],[-60.6784,-17.2167,414.7617],[-60.6932,-17.2068,340.2697],[-60.7026,-17.2091,318.5821],[-60.714,-17.2053,306.8098],[-60.7329,-17.2046,296.1881],[-60.7422,-17.201,293.354],[-60.7456,-17.1975,293.1696],[-60.7568,-17.1979,291.0832],[-60.7674,-17.1889,285.481],[-60.7744,-17.187,284.402],[-60.7772,-17.1845,284.8271],[-60.7836,-17.1838,283.7529],[-60.7873,-17.1866,280.7999],[-60.7909,-17.1844,280.1656],[-60.7936,-17.1867,279.8526],[-60.8039,-17.1876,279.6552],[-60.8078,-17.1844,274.3374],[-60.8135,-17.1851,266.8912],[-60.813,-17.1772,266.9366],[-60.8177,-17.1774,267.2621],[-60.8226,-17.1806,268.2113],[-60.8263,-17.1773,268.6945],[-60.8347,-17.1785,268.3986],[-60.8402,-17.1764,266.5414],[-60.8452,-17.1794,265.5621],[-60.8417,-17.185,265.4493],[-60.8428,-17.1907,265.6846],[-60.8565,-17.1963,272.1012],[-60.8555,-17.1999,265.382],[-60.8572,-17.216,264.1345],[-60.8637,-17.2192,267.4448],[-60.8749,-17.2352,262.6695],[-60.8836,-17.2398,264.537],[-60.8966,-17.2394,262.496],[-60.9044,-17.2424,262.3513],[-60.9076,-17.2421,263.9003],[-60.9092,-17.2457,261.3235],[-60.913,-17.2458,261.6327],[-60.9176,-17.2507,261.5658],[-60.922,-17.2499,265.7783],[-60.9256,-17.255,262.3723],[-60.9332,-17.2589,260.6117],[-60.933,-17.2657,260.6233],[-60.9353,-17.2676,263.7317],[-60.9363,-17.2721,261.263],[-60.9343,-17.2763,260.3204],[-60.9348,-17.2825,259.7884],[-60.9325,-17.2867,261.305],[-60.9371,-17.2971,259.3694],[-60.94,-17.2975,259.2074],[-60.9439,-17.2954,258.7407],[-60.9531,-17.2977,258.1241],[-60.9628,-17.2947,257.8073],[-60.9714,-17.2941,257.3513],[-60.9835,-17.298,258.434],[-60.9907,-17.2961,259.5912],[-60.9957,-17.303,257.2883],[-60.9955,-17.3049,256.8216],[-61.0053,-17.3158,256.2138],[-61.0141,-17.33,255.3178],[-61.0208,-17.3349,257.9165],[-61.0288,-17.3369,254.9512],[-61.0328,-17.3413,259.7951],[-61.0459,-17.3382,254.637],[-61.05,-17.3399,253.7487],[-61.0574,-17.3398,253.873],[-61.0637,-17.3439,256.308],[-61.0719,-17.3417,254.0694],[-61.0767,-17.3374,254.4276],[-61.0775,-17.3469,256.119],[-61.0813,-17.3504,253.81],[-61.0905,-17.3489,254.7848],[-61.095,-17.3542,251.9448],[-61.0987,-17.3552,251.8542],[-61.1029,-17.3538,251.7529],[-61.1056,-17.3553,253.7871],[-61.1108,-17.3498,252.8153],[-61.1141,-17.3495,253.0571],[-61.1164,-17.3514,252.7198],[-61.1239,-17.3495,250.8951],[-61.1249,-17.3515,251.5017],[-61.1228,-17.356,250.6426],[-61.1274,-17.358,250.7236],[-61.1358,-17.3579,251.1516],[-61.1404,-17.3664,260.0392],[-61.1525,-17.364,250.8963],[-61.1662,-17.3666,253.7899],[-61.1764,-17.3646,253.6048],[-61.1863,-17.3664,251.9432],[-61.1901,-17.3648,250.5963],[-61.1956,-17.3684,257.7341],[-61.2147,-17.3694,252.0169],[-61.2178,-17.3729,251.3447],[-61.2147,-17.3795,265.1687],[-61.2156,-17.3867,254.4146],[-61.22,-17.3887,252.9739],[-61.231,-17.388,250.8389],[-61.2347,-17.3938,252.9831],[-61.241,-17.3958,252.669],[-61.2461,-17.4014,250.2587],[-61.2543,-17.4025,250.2293],[-61.2588,-17.4047,250.4101],[-61.262,-17.4071,250.2151],[-61.2617,-17.4089,250.1198],[-61.2594,-17.413,251.1475],[-61.255,-17.4144,250.1429],[-61.2577,-17.4224,250.3795],[-61.2476,-17.4309,250.5822],[-61.2425,-17.4303,250.7023],[-61.2399,-17.424,250.7817],[-61.2356,-17.4254,250.5408],[-61.2312,-17.4292,250.5647],[-61.2266,-17.4254,251.8967],[-61.2235,-17.4263,251.1946],[-61.2201,-17.4251,252.4767],[-61.2188,-17.4285,250.7367],[-61.2136,-17.4301,250.5744],[-61.2145,-17.4339,254.5374],[-61.2221,-17.4395,253.1403],[-61.2255,-17.4388,254.1181],[-61.2277,-17.4403,252.2028],[-61.2279,-17.4433,251.5565],[-61.225,-17.4462,253.8869],[-61.2285,-17.4493,253.3055],[-61.2263,-17.4521,254.5797],[-61.2269,-17.4555,251.6559],[-61.2221,-17.4543,255.2086],[-61.216,-17.4578,254.9487],[-61.2082,-17.4585,254.0811],[-61.2075,-17.4664,254.1196],[-61.2051,-17.471,255.075],[-61.2022,-17.4731,254.8757],[-61.2006,-17.4773,255.8005],[-61.1961,-17.4781,256.2691],[-61.1941,-17.4811,256.9024],[-61.1963,-17.4856,256.5844],[-61.195,-17.4902,254.8801],[-61.1971,-17.4912,255.7751],[-61.2004,-17.4897,257.1343],[-61.2003,-17.4931,257.1231],[-61.1963,-17.4959,256.6779],[-61.193,-17.4961,256.6246],[-61.1919,-17.499,255.7682],[-61.1882,-17.4966,256.4712],[-61.1886,-17.5006,256.9912],[-61.1861,-17.4997,256.7097],[-61.1848,-17.5027,255.4632],[-61.1824,-17.5004,256.3712],[-61.1803,-17.5046,256.8477],[-61.175,-17.507,258.6281],[-61.1783,-17.5086,258.5582],[-61.1749,-17.5125,256.6453],[-61.1776,-17.5126,256.2644],[-61.1798,-17.5108,258.3535],[-61.1801,-17.5153,259.0751],[-61.1709,-17.5152,257.06],[-61.1635,-17.5203,258.5838],[-61.1626,-17.5174,256.0795],[-61.1617,-17.519,255.4783],[-61.1601,-17.5181,257.364],[-61.16,-17.5223,259.7829],[-61.1637,-17.5225,260.43],[-61.1598,-17.5271,259.3432],[-61.1601,-17.5303,260.3792],[-61.1582,-17.5328,263.6515],[-61.1554,-17.534,263.374],[-61.1546,-17.5319,262.6712],[-61.1529,-17.5336,265.0097],[-61.1513,-17.533,265.0097],[-61.1497,-17.536,264.2824],[-61.1487,-17.5331,262.2744],[-61.1467,-17.5345,259.3174],[-61.146,-17.5393,259.0313],[-61.1486,-17.5493,260.2112],[-61.1454,-17.5513,260.557],[-61.1451,-17.5548,254.6905],[-61.1476,-17.5566,255.518],[-61.1509,-17.555,258.3985],[-61.1533,-17.5562,258.9318],[-61.1543,-17.5595,256.4706],[-61.1521,-17.5601,260.73],[-61.1512,-17.5633,258.9872],[-61.1529,-17.5637,258.9872],[-61.1549,-17.5614,260.9271],[-61.1574,-17.5652,259.5859],[-61.1594,-17.5638,261.9086],[-61.16,-17.5661,261.4012],[-61.1644,-17.5677,260.6224],[-61.1655,-17.5701,262.0209],[-61.1677,-17.5671,260.4949],[-61.1683,-17.5701,261.677],[-61.1707,-17.5703,262.2123],[-61.1726,-17.5739,261.0652],[-61.1727,-17.5798,262.8539],[-61.1698,-17.5873,266.796],[-61.1687,-17.5856,260.2648],[-61.1654,-17.5857,260.9671],[-61.1591,-17.5888,261.0701],[-61.1555,-17.588,263.6648],[-61.156,-17.5914,263.1995],[-61.1459,-17.592,261.4214],[-61.1434,-17.5953,260.9702],[-61.1447,-17.5962,260.9702],[-61.1434,-17.5981,262.7008],[-61.1452,-17.599,262.4243],[-61.1408,-17.6022,261.0782],[-61.142,-17.6045,261.7761],[-61.1385,-17.6065,263.5196],[-61.136,-17.6048,263.023],[-61.1368,-17.6085,259.8433],[-61.1346,-17.6112,260.608],[-61.1321,-17.6112,262.7408],[-61.1325,-17.6137,260.1752],[-61.1294,-17.6168,261.9986],[-61.1304,-17.6186,261.2641],[-61.1293,-17.6206,262.4795],[-61.1307,-17.6202,263.7963],[-61.1321,-17.6246,255.9689],[-61.1363,-17.624,260.6806],[-61.1389,-17.6258,259.9893],[-61.1369,-17.6275,264.6189],[-61.1391,-17.631,259.8881],[-61.139,-17.6343,260.4197],[-61.1371,-17.6356,264.4889],[-61.1343,-17.6349,266.1829],[-61.1386,-17.6421,261.599],[-61.1382,-17.6446,266.4245],[-61.136,-17.6429,263.5846],[-61.1343,-17.644,266.1763],[-61.1346,-17.6476,265.4129],[-61.1324,-17.6486,261.1686],[-61.1329,-17.6519,260.3298],[-61.1304,-17.6526,257.1156],[-61.1339,-17.6564,262.5622],[-61.1311,-17.6615,260.2145],[-61.1342,-17.6625,261.4288],[-61.1352,-17.66,262.3873],[-61.1387,-17.6629,262.973],[-61.1427,-17.6625,262.1897],[-61.1453,-17.6654,261.2664],[-61.1452,-17.6675,261.5601],[-61.1479,-17.6684,262.5027],[-61.1469,-17.6703,261.8291],[-61.1485,-17.6772,261.4785],[-61.1513,-17.6785,262.6843],[-61.1498,-17.6795,260.0724],[-61.1506,-17.6827,261.2091],[-61.1491,-17.6856,260.1471],[-61.1521,-17.6847,261.0735],[-61.1555,-17.692,261.6735],[-61.1596,-17.6917,260.8463],[-61.1637,-17.6943,259.0469],[-61.165,-17.6927,261.6559],[-61.1648,-17.6953,261.3941],[-61.1677,-17.6938,265.5132],[-61.1707,-17.6947,263.1166],[-61.1748,-17.6924,267.3889],[-61.1748,-17.6957,259.2883],[-61.1788,-17.7,261.9179],[-61.1838,-17.6991,260.2364],[-61.1848,-17.7013,262.6868],[-61.1835,-17.7031,262.7969],[-61.1851,-17.7049,258.7015],[-61.188,-17.7042,264.0815],[-61.1927,-17.7093,264.2207],[-61.1955,-17.7098,264.4881],[-61.1939,-17.7126,260.0449],[-61.197,-17.7163,265.2683],[-61.2013,-17.7177,263.6117],[-61.204,-17.7165,264.2226],[-61.2059,-17.7184,262.3183],[-61.2096,-17.7177,262.4286],[-61.2097,-17.7204,264.9],[-61.2139,-17.7203,261.6945],[-61.2153,-17.7222,262.9577],[-61.2153,-17.7205,264.6429],[-61.2182,-17.719,261.4622],[-61.2242,-17.7253,263.8765],[-61.2233,-17.7324,262.7686],[-61.2202,-17.7368,264.4431],[-61.22,-17.7405,265.7482],[-61.2227,-17.741,263.1248],[-61.2228,-17.7424,264.184],[-61.2195,-17.7443,263.9539],[-61.2221,-17.7455,263.8482],[-61.2201,-17.7474,263.3953],[-61.2212,-17.7487,263.0801],[-61.2196,-17.7518,262.6918],[-61.2177,-17.7488,263.5725],[-61.2178,-17.7509,265.263],[-61.2091,-17.7582,264.3943],[-61.2067,-17.7575,264.211],[-61.2049,-17.759,263.2271],[-61.199,-17.7571,265.1111],[-61.1982,-17.7597,264.8117],[-61.1956,-17.759,263.5243],[-61.1925,-17.7606,264.021],[-61.193,-17.7635,263.7435],[-61.1872,-17.762,263.7771],[-61.1885,-17.7664,267.3146],[-61.182,-17.7698,266.5991],[-61.1819,-17.7726,263.8279],[-61.1782,-17.7752,267.0769],[-61.1791,-17.7773,265.8814],[-61.1763,-17.7811,265.5207],[-61.1764,-17.7839,265.7005],[-61.1778,-17.788,265.0702],[-61.1837,-17.7925,264.7678],[-61.1872,-17.7909,264.6369],[-61.1931,-17.7835,265.9365],[-61.1976,-17.7879,262.8386],[-61.2046,-17.789,266.2812],[-61.2045,-17.7948,267.2199],[-61.2087,-17.8033,267.4327],[-61.2064,-17.8099,266.8459],[-61.21,-17.82,266.6582],[-61.2084,-17.8222,266.1215],[-61.2088,-17.8278,266.3701],[-61.2046,-17.8342,267.5574],[-61.2046,-17.8386,267.6843],[-61.206,-17.8413,266.3034],[-61.2133,-17.8442,269.3877],[-61.2181,-17.8927,270.2385],[-61.2302,-17.9804,272.7437],[-61.24,-18.1042,274.4657],[-61.2636,-18.2466,277.063],[-60.1175,-18.4166,461.3408],[-60.1015,-18.1952,714.8546],[-60.0966,-18.1867,723.1656],[-60.0783,-18.0945,470.9152],[-60.0772,-18.0835,447.4135],[-60.0785,-18.0786,445.0849],[-60.0751,-18.071,458.2591],[-60.0741,-18.0636,428.147],[-60.0727,-18.0287,401.647],[-60.0661,-18.0129,377.8635],[-60.057,-18.007,389.8961],[-60.0556,-18.0039,409.581],[-60.0611,-17.9894,390.3705],[-60.0666,-17.9844,367.2857],[-60.0602,-17.9745,359.1835],[-60.0602,-17.9656,354.4367],[-60.0582,-17.9611,353.4436],[-60.0552,-17.958,350.7197],[-60.0511,-17.9595,348.9803],[-60.0481,-17.9566,345.6342],[-60.0479,-17.9502,339.4371],[-60.045,-17.9471,337.264],[-60.0427,-17.9373,336.6524],[-60.0437,-17.9346,335.1442],[-60.0384,-17.9318,329.9578],[-60.0347,-17.9257,326.449],[-60.0309,-17.9241,325.9725],[-60.0313,-17.921,323.7843],[-60.0266,-17.9177,317.8569],[-60.0255,-17.9144,318.8618],[-60.0221,-17.9128,319.5042],[-60.021,-17.9095,312.0339],[-60.0222,-17.9056,311.6274],[-60.02,-17.8973,309.8407],[-60.0185,-17.8963,311.5171],[-60.0183,-17.8925,306.9322],[-60.0153,-17.8894,305.7477],[-60.0132,-17.8819,302.9418],[-60.0115,-17.8814,299.8591],[-60.0075,-17.8743,297.9062],[-59.9998,-17.8723,295.7038],[-59.9988,-17.8689,295.851],[-59.9961,-17.8686,293.6103],[-59.9954,-17.8612,291.7592],[-59.9863,-17.8559,290.2885],[-59.9905,-17.8499,288.148],[-59.9869,-17.849,286.8625],[-59.9876,-17.8447,286.613],[-59.9843,-17.8422,282.0123],[-59.9838,-17.839,283.2347],[-59.9808,-17.838,282.1043],[-59.9797,-17.8358,282.3662],[-59.9749,-17.8349,289.8208],[-59.9722,-17.8298,281.2348],[-59.9722,-17.8262,277.9896],[-59.967,-17.8208,277.9418],[-59.9577,-17.8185,277.6858],[-59.9549,-17.8121,274.6154],[-59.9551,-17.802,271.0847],[-59.9508,-17.7974,270.9584],[-59.9474,-17.7986,271.4452],[-59.9438,-17.7948,272.0246],[-59.9419,-17.7894,274.1805],[-59.9365,-17.7935,268.9544],[-59.932,-17.7883,268.2569],[-59.9272,-17.7946,266.9318],[-59.9205,-17.7966,261.9616],[-59.9182,-17.7941,264.438],[-59.9138,-17.7946,259.7715],[-59.9107,-17.7922,262.0133],[-59.8961,-17.7914,260.7163],[-59.8922,-17.7897,258.2741],[-59.891,-17.7953,257.7715],[-59.8818,-17.8049,255.2418],[-59.8783,-17.8108,254.0954],[-59.8763,-17.8114,252.3459],[-59.8707,-17.8058,254.0063],[-59.8669,-17.8054,250.1742],[-59.8607,-17.8147,252.4291],[-59.8571,-17.8157,249.9508],[-59.855,-17.8184,250.0709],[-59.8467,-17.819,250.6555],[-59.8262,-17.8083,316.9517],[-59.8101,-17.8029,496.3859],[-59.7916,-17.7939,322.4897],[-59.7649,-17.7884,305.1961],[-59.7502,-17.7787,316.4832],[-59.7365,-17.7784,326.3615],[-59.727,-17.7761,328.8693],[-59.709,-17.7673,327.4608],[-59.7007,-17.7519,336.4244],[-59.6954,-17.7318,386.2983],[-59.69,-17.7013,385.8989],[-59.6887,-17.6825,349.4092],[-59.6832,-17.6735,335.1895],[-59.6648,-17.6687,325.5527],[-59.653,-17.6637,300.0779],[-59.6318,-17.6499,297.6067],[-59.6063,-17.6427,344.6309],[-59.5869,-17.6403,309.9449],[-59.5805,-17.643,300.1632],[-59.5765,-17.641,282.2476],[-59.5667,-17.6444,282.0599],[-59.5585,-17.6426,270.389],[-59.5258,-17.6467,233.6817],[-59.5202,-17.0091,216.325]]]]}}