{"type": "Feature","bbox": [-63.9459,-18.8387,-63.5266,-18.402],"geometry": {"type": "MultiPolygon","coordinates": [[[[-63.6509,-18.4092,1900.4469],[-63.6574,-18.4131,1718.6115],[-63.6693,-18.4132,1468.6838],[-63.6722,-18.4161,1290.9888],[-63.6771,-18.4167,1311.943],[-63.6793,-18.4188,1259.0667],[-63.6847,-18.4164,1290.5281],[-63.6941,-18.4044,1330.1565],[-63.7004,-18.402,1209.7507],[-63.7037,-18.4047,1308.3341],[-63.7054,-18.4041,1327.0909],[-63.7045,-18.4067,1288.3251],[-63.7072,-18.4067,1310.0696],[-63.7075,-18.4097,1268.8756],[-63.7097,-18.411,1291.4336],[-63.735,-18.4198,1356.9321],[-63.744,-18.4342,1575.8763],[-63.7466,-18.4358,1661.4565],[-63.8008,-18.4413,2474.9993],[-63.8045,-18.4478,2273.7832],[-63.8191,-18.4481,1886.6071],[-63.8197,-18.455,1860.9939],[-63.8264,-18.4454,1875.4227],[-63.8292,-18.4447,1879.4678],[-63.8311,-18.4481,1880.5444],[-63.834,-18.4486,1899.8643],[-63.8386,-18.4439,1980.7778],[-63.8504,-18.4397,2000.058],[-63.855,-18.4426,2029.825],[-63.8631,-18.4424,2117.8027],[-63.8656,-18.4454,2102.0144],[-63.8726,-18.445,2212.8125],[-63.8787,-18.4412,2301.2388],[-63.8876,-18.4437,2477.6011],[-63.8899,-18.4459,2404.5906],[-63.9038,-18.438,2047.0911],[-63.9093,-18.4371,1854.8458],[-63.9114,-18.4332,1779.3212],[-63.9142,-18.4327,1749.7709],[-63.913,-18.4318,1749.7709],[-63.9142,-18.4282,1762.0098],[-63.9196,-18.4232,1712.9639],[-63.9339,-18.4305,2064.1716],[-63.9405,-18.4376,2338.5664],[-63.9459,-18.4407,2636.1628],[-63.9417,-18.4432,2652.2292],[-63.9399,-18.4519,2704.9033],[-63.9415,-18.4903,2736.9844],[-63.9387,-18.5006,2622.3806],[-63.93,-18.5081,2577.553],[-63.9212,-18.5207,2672.8782],[-63.9239,-18.5363,2718.5854],[-63.9127,-18.5569,2644.1882],[-63.9113,-18.5746,2634.0095],[-63.9087,-18.5842,2714.8821],[-63.9124,-18.607,2741.3257],[-63.9061,-18.6095,2557.1567],[-63.9041,-18.6258,2530.3262],[-63.9052,-18.6398,2581.0425],[-63.9148,-18.6543,2439.2847],[-63.9088,-18.6677,2658.541],[-63.9102,-18.6917,2473.7065],[-63.9054,-18.6992,2089.4753],[-63.8987,-18.7052,1893.5853],[-63.8911,-18.7073,1741.8188],[-63.8895,-18.7101,1702.819],[-63.8756,-18.7155,1607.5283],[-63.8723,-18.7193,1577.1365],[-63.8731,-18.7245,1498.6959],[-63.8793,-18.7294,1354.1278],[-63.8793,-18.7347,1307.2327],[-63.8765,-18.7381,1272.0756],[-63.8736,-18.7389,1260.2778],[-63.8722,-18.7408,1254.4641],[-63.8733,-18.7416,1262.8076],[-63.8686,-18.7458,1213.0757],[-63.8606,-18.7509,1185.5364],[-63.8544,-18.7594,1125.3591],[-63.852,-18.7585,1120.2454],[-63.8479,-18.7614,1087.1835],[-63.842,-18.7609,1121.127],[-63.8409,-18.7655,1062.693],[-63.8325,-18.7676,1049.8879],[-63.8313,-18.7701,1024.2583],[-63.8244,-18.768,1046.209],[-63.8173,-18.7753,999.1866],[-63.8091,-18.7805,946.6681],[-63.8025,-18.782,913.0285],[-63.8019,-18.7848,906.0637],[-63.7978,-18.7881,860.4643],[-63.7972,-18.7922,831.3633],[-63.7889,-18.7919,1123.7427],[-63.7775,-18.7981,983.068],[-63.755,-18.8032,1304.759],[-63.7354,-18.7974,1307.8884],[-63.7153,-18.7827,1652.6692],[-63.7004,-18.7823,1106.4945],[-63.6797,-18.793,754.7267],[-63.6716,-18.8043,692.0828],[-63.6618,-18.8056,667.6696],[-63.6555,-18.8147,642.469],[-63.6461,-18.8165,619.5377],[-63.6402,-18.8145,606.3144],[-63.6377,-18.8117,602.9577],[-63.6274,-18.812,586.5915],[-63.6226,-18.8099,574.6582],[-63.618899999999996,-18.8156,564.3251],[-63.6161,-18.8276,569.8751],[-63.6108,-18.8302,539.464],[-63.6091,-18.8334,539.0292],[-63.6052,-18.8345,526.644],[-63.6034,-18.833,524.4625],[-63.5983,-18.8345,523.2266],[-63.5911,-18.832,517.5528],[-63.5881,-18.8346,515.2789],[-63.587,-18.8387,504.1109],[-63.5849,-18.8367,508.5779],[-63.5829,-18.8386,493.8541],[-63.5822,-18.8342,533.9619],[-63.5768,-18.8305,493.9837],[-63.5818,-18.8277,511.4202],[-63.5813,-18.8247,522.1848],[-63.5662,-18.8187,506.2887],[-63.5622,-18.821,508.0864],[-63.557,-18.8127,560.3606],[-63.5491,-18.8147,511.5742],[-63.545,-18.8128,513.5997],[-63.5464,-18.7981,547.5508],[-63.531,-18.7806,517.417],[-63.5318,-18.7723,522.1993],[-63.5285,-18.7586,527.0093],[-63.5321,-18.7507,528.6936],[-63.5266,-18.7445,530.8035],[-63.5301,-18.7276,535.9423],[-63.5342,-18.7224,547.511],[-63.5415,-18.7198,538.428],[-63.5461,-18.7204,542.4305],[-63.5501,-18.7229,541.9213],[-63.5534,-18.73,587.9612],[-63.5555,-18.7315,577.7449],[-63.5692,-18.7295,567.6273],[-63.5693,-18.7264,568.4673],[-63.5758,-18.7236,604.0436],[-63.5801,-18.725,616.4414],[-63.5764,-18.7273,647.0919],[-63.576,-18.7293,662.0764],[-63.5827,-18.7338,602.3165],[-63.5844,-18.7304,654.9093],[-63.5859,-18.7304,644.1168],[-63.5885,-18.7347,594.3992],[-63.5884,-18.7381,643.291],[-63.5921,-18.7345,618.1286],[-63.5976,-18.7361,591.9972],[-63.6019,-18.7424,595.4433],[-63.604,-18.7405,603.4257],[-63.6063,-18.7411,595.1539],[-63.6085,-18.7397,603.0627],[-63.6081,-18.7357,598.4163],[-63.6125,-18.7337,599.5083],[-63.6202,-18.7243,616.9759],[-63.6237,-18.7226,612.6426],[-63.6216,-18.7153,623.8982],[-63.6285,-18.7114,616.2514],[-63.625,-18.7027,658.8126],[-63.6274,-18.7038,624.8727],[-63.63,-18.7025,634.7197],[-63.6343,-18.7068,644.1167],[-63.6344,-18.7028,667.5278],[-63.6381,-18.703,636.017],[-63.6388,-18.6968,651.3464],[-63.6345,-18.6978,653.1936],[-63.6335,-18.6947,647.0734],[-63.637,-18.6875,648.2782],[-63.6412,-18.6894,653.457],[-63.6441,-18.6874,661.5214],[-63.6365,-18.6795,696.3554],[-63.639,-18.6798,669.3036],[-63.6394,-18.6763,661.3979],[-63.6413,-18.6759,663.8285],[-63.6433,-18.6786,663.1736],[-63.6482,-18.6774,663.1683],[-63.6522,-18.6821,668.7327],[-63.6556,-18.6812,671.8284],[-63.6536,-18.6745,678.1295],[-63.6485,-18.671,670.8876],[-63.6468,-18.6667,704.8132],[-63.6478,-18.6645,702.4971],[-63.6666,-18.6514,692.1406],[-63.6699,-18.6512,698.8486],[-63.6738,-18.6485,701.733],[-63.6762,-18.6499,694.0966],[-63.6765,-18.6522,697.7231],[-63.6778,-18.6514,697.7231],[-63.6744,-18.6437,719.6905],[-63.6768,-18.6405,711.4507],[-63.6714,-18.6399,730.1224],[-63.6698,-18.6338,745.9555],[-63.6776,-18.6221,796.7047],[-63.6819,-18.623,785.0336],[-63.6811,-18.6272,762.77],[-63.6852,-18.6224,793.982],[-63.692,-18.6224,763.3789],[-63.6862,-18.6139,803.9378],[-63.6867,-18.6121,797.39],[-63.6888,-18.6117,811.1035],[-63.6881,-18.6093,874.2059],[-63.6916,-18.6092,807.8003],[-63.69,-18.6048,881.3814],[-63.6921,-18.6036,850.9283],[-63.6949,-18.5977,863.9901],[-63.6944,-18.5929,900.8489],[-63.6969,-18.5925,916.5109],[-63.6955,-18.5903,985.6854],[-63.6954,-18.5842,796.342],[-63.6934,-18.5819,804.885],[-63.698,-18.5781,810.6983],[-63.6941,-18.5765,1047.6943],[-63.6922,-18.5715,817.1218],[-63.6876,-18.5713,829.4756],[-63.6861,-18.5682,941.1379],[-63.6895,-18.5643,854.4462],[-63.6846,-18.566,837.1609],[-63.6813,-18.5649,846.8721],[-63.6883,-18.5599,917.8535],[-63.687,-18.5491,900.112],[-63.695,-18.5534,898.116],[-63.6895,-18.5387,965.7919],[-63.6938,-18.5348,987.3376],[-63.696,-18.5271,1093.3628],[-63.6937,-18.5235,1032.9982],[-63.6956,-18.5203,1031.9546],[-63.6951,-18.5158,1031.9061],[-63.6909,-18.5143,1031.2222],[-63.6935,-18.5115,1049.5419],[-63.6912,-18.5079,1080.8265],[-63.6909,-18.5009,1142.1501],[-63.6939,-18.4991,1148.3955],[-63.695,-18.4954,1136.1056],[-63.6936,-18.4936,1177.3278],[-63.6942,-18.4894,1218.2936],[-63.7006,-18.4814,1149.4812],[-63.6938,-18.4798,1276.7035],[-63.6885,-18.4804,1298.2],[-63.6768,-18.4746,1438.9576],[-63.6762,-18.4696,1374.895],[-63.6793,-18.4615,1254.5099],[-63.6761,-18.4539,1303.8405],[-63.6733,-18.4517,1359.926],[-63.6695,-18.4445,1468.0942],[-63.6656,-18.4422,1523.3997],[-63.6608,-18.4425,1692.7336],[-63.6581,-18.4411,1722.1436],[-63.6547,-18.4423,1776.2834],[-63.6484,-18.4405,1888.1475],[-63.651,-18.4345,1875.3749],[-63.6485,-18.4284,1911.7096],[-63.653,-18.422,1940.9165],[-63.6509,-18.4092,1900.4469]]]]}
,"properties": {"GID_3": "BOL.8.13.2_2","GID_0": "BOL","country": "Bolivia","GID_1": "BOL.8_1","province": "SantaCruz","NL_NAME_1": "NA","GID_2": "BOL.8.13_2","county": "Vallegrande","NL_NAME_2": "NA","city": "Postrervalle","VARNAME_3": "NA","NL_NAME_3": "NA","TYPE_3": "District","ENGTYPE_3": "Distrito","CC_3": "NA","HASC_3": "NA","name": "Postrervalle.city","area_km2": 1121.3628,"hist_schema_id": "Elevation0-9000","hist_area_km2": {"500": 1.2041,"525": 7.1663,"550": 7.9897,"575": 9.0727,"600": 13.2282,"625": 18.1668,"650": 20.8578,"675": 22.8458,"700": 22.9476,"725": 21.9653,"750": 16.6256,"775": 14.418,"800": 12.4911,"825": 10.5235,"850": 9.6804,"875": 9.9616,"900": 9.681,"925": 9.0181,"950": 9.5002,"975": 9.0991,"1000": 9.9227,"1025": 10.4249,"1050": 9.5206,"1075": 11.0071,"1100": 10.5658,"1125": 11.1487,"1150": 11.5713,"1175": 11.5512,"1200": 13.7828,"1225": 14.6673,"1250": 16.578,"1275": 17.2419,"1300": 18.6502,"1325": 18.5701,"1350": 18.8706,"1375": 18.2468,"1400": 15.4522,"1425": 14.5465,"1450": 13.9839,"1475": 13.0586,"1500": 13.8423,"1525": 13.6613,"1550": 14.3236,"1575": 14.2434,"1600": 14.9059,"1625": 13.882,"1650": 13.9424,"1675": 15.2288,"1700": 17.1981,"1725": 16.8976,"1750": 17.0385,"1775": 18.245,"1800": 16.4568,"1825": 21.3424,"1850": 23.0732,"1875": 20.4994,"1900": 20.5405,"1925": 21.2848,"1950": 22.2908,"1975": 22.814,"2000": 21.7493,"2025": 20.8245,"2050": 19.6588,"2075": 19.659,"2100": 17.8103,"2125": 16.4836,"2150": 14.9354,"2175": 14.112,"2200": 12.785,"2225": 10.7147,"2250": 10.0111,"2275": 7.6591,"2300": 6.3326,"2325": 6.1117,"2350": 5.5286,"2375": 4.8453,"2400": 3.3978,"2425": 3.659,"2450": 2.9554,"2475": 1.8497,"2500": 1.4877,"2525": 1.4071,"2550": 1.1458,"2575": 1.407,"2600": 1.4674,"2625": 1.0253,"2650": 0.9648,"2675": 1.1459,"2700": 0.9248,"2725": 0.9852,"2750": 0.4624,"2775": 0.1809,"2800": 0.0804,"2825": 0.0804}}}