{"type":"Feature","properties":{"GID_3":"BOL.4.3.2_2","GID_0":"BOL","country":"Bolivia","GID_1":"BOL.4_1","province":"LaPaz","NL_NAME_1":"NA","GID_2":"BOL.4.3_2","county":"Aroma","NL_NAME_2":"NA","city":"Calamarca","VARNAME_3":"NA","NL_NAME_3":"NA","TYPE_3":"District","ENGTYPE_3":"Distrito","CC_3":"NA","HASC_3":"NA","name":"Calamarca.city"},
"geometry":{"type": "MultiPolygon","coordinates": [[[[-68.0105,-16.9322,4359.6396],[-68.0187,-16.9238,4340.0352],[-68.0245,-16.9202,4286.8916],[-68.0288,-16.9124,4269.8262],[-68.035,-16.906,4249.9941],[-68.0229,-16.8982,4110.729],[-68.0384,-16.8832,4146.2656],[-68.0371,-16.8756,4130.2246],[-68.0312,-16.8705,3989.728],[-68.0243,-16.8662,3857.5024],[-68.0057,-16.8601,3312.7935],[-68.0031,-16.8575,3307.6584],[-67.9971,-16.8442,4021.7886],[-68.0014,-16.8443,4013.3926],[-68.0042,-16.8429,4032.9629],[-68.0046,-16.8401,4087.7354],[-68.017,-16.835,3957.6726],[-68.025,-16.8213,3778.7],[-68.0241,-16.8177,3799.7175],[-68.0372,-16.7999,3865.8611],[-68.046,-16.7908,3941.834],[-68.0523,-16.7875,4057.7539],[-68.0587,-16.7795,4026.2832],[-68.0663,-16.7779,4107.9673],[-68.0686,-16.7753,4125.769],[-68.07,-16.7668,4135.7847],[-68.0669,-16.7616,4133.3516],[-68.0786,-16.7604,4135.8804],[-68.0865,-16.7546,4127.1089],[-68.0933,-16.7643,4228.4126],[-68.0963,-16.7641,4238.3135],[-68.0964,-16.7684,4253.9658],[-68.1101,-16.7689,4134.5635],[-68.1301,-16.7601,4062.9468],[-68.1381,-16.7581,4033.3103],[-68.1462,-16.7575,4030.7563],[-68.1526,-16.7589,4011.2183],[-68.1579,-16.7644,3959.4268],[-68.1757,-16.7771,3929.0981],[-68.1767,-16.786,3938.0513],[-68.1867,-16.7908,3923.7612],[-68.1975,-16.802,3908.957],[-68.2195,-16.8187,3875.6685],[-68.1978,-16.8274,3915.2166],[-68.1973,-16.8301,3904.0959],[-68.1879,-16.8382,3929.1968],[-68.1932,-16.8394,3925.4739],[-68.1938,-16.842,3925.666],[-68.1896,-16.8524,3922.448],[-68.1912,-16.8601,3963.4304],[-68.1894,-16.8668,3922.0557],[-68.1899,-16.8707,3917.373],[-68.1923,-16.8765,3905.7812],[-68.2035,-16.8878,3894.085],[-68.1973,-16.8998,3905.1418],[-68.1979,-16.9042,3906.905],[-68.1882,-16.9199,3925.032],[-68.1838,-16.9186,3916.3503],[-68.1822,-16.9219,3920.3315],[-68.2022,-16.9345,3950.7954],[-68.2036,-16.9505,3990.6802],[-68.194,-16.9763,3997.9993],[-68.1893,-16.9823,3986.4966],[-68.1862,-16.9833,3983.002],[-68.187,-16.9928,3983.0522],[-68.1829,-17.0064,3964.9795],[-68.1638,-17.0223,3954.3472],[-68.1472,-17.0243,3936.4209],[-68.1441,-17.0283,3936.1152],[-68.1386,-17.0307,3930.6106],[-68.1098,-17.0196,3927.2581],[-68.1031,-17.0195,3923.8213],[-68.089,-17.0139,3932.2334],[-68.0587,-16.998,3987.2446],[-68.0621,-16.9924,3997.0605],[-68.0275,-16.9746,4261.6597],[-68.0281,-16.954,4237.7388],[-68.0202,-16.9479,4164.1572],[-68.0105,-16.9322,4359.6396]]]]}}