{"type": "Feature","bbox": [-67.9657,-16.4026,-67.3404,-15.9994],"geometry": {"type": "MultiPolygon","coordinates": [[[[-67.3404,-16.0105,2112.6631],[-67.5994,-16.0548,2140.0393],[-67.6148,-16.0602,1295.327],[-67.6194,-16.0601,988.3464],[-67.6243,-16.0548,931.8751],[-67.6241,-16.0489,944.8625],[-67.6275,-16.0464,957.2149],[-67.6292,-16.0384,877.2856],[-67.6327,-16.0326,805.1402],[-67.6374,-16.0312,837.3765],[-67.6427,-16.0326,831.7153],[-67.6488,-16.0235,1424.1738],[-67.6646,-16.0091,1773.611],[-67.6735,-16.0064,1780.4725],[-67.6775,-16.0137,1627.1554],[-67.6789,-16.0215,1583.033],[-67.6806,-16.0205,1599.0593],[-67.6819,-16.0235,1469.1234],[-67.6844,-16.0221,1432.5389],[-67.6868,-16.0237,1433.4341],[-67.6892,-16.0207,1446.1412],[-67.6927,-16.0196,1421.0383],[-67.6997,-16.0216,1455.2656],[-67.7019,-16.0166,1510.5596],[-67.7056,-16.0145,1501.7775],[-67.7093,-16.0166,1501.6067],[-67.7149,-16.0133,1513.9888],[-67.7179,-16.0148,1529.1719],[-67.722,-16.0118,1583.5452],[-67.7289,-16.0148,1675.8821],[-67.7291,-16.0113,1767.5927],[-67.7335,-16.0089,1811.8],[-67.7372,-16.0095,1951.7834],[-67.7788,-15.9994,1666.9409],[-67.8097,-16.0019,1830.9836],[-67.8333,-16.017,1310.2418],[-67.842,-16.0383,1828.0281],[-67.8513,-16.0472,2045.6172],[-67.859,-16.0507,2034.2151],[-67.8599,-16.0628,2100.4128],[-67.863,-16.0705,1989.6351],[-67.8617,-16.084,2110.5352],[-67.8626,-16.0968,2542.5244],[-67.867,-16.0939,2160.9309],[-67.8722,-16.0851,1567.3181],[-67.8751,-16.0868,1450.7103],[-67.8756,-16.0898,1497.4912],[-67.8879,-16.0893,2225.7529],[-67.8929,-16.0911,2743.2197],[-67.8962,-16.0868,2781.6455],[-67.9004,-16.0861,2333.062],[-67.9057,-16.0914,2022.2905],[-67.911,-16.0897,1784.4891],[-67.9133,-16.0905,1703.25],[-67.9183,-16.0852,1612.8896],[-67.9179,-16.0833,1495.7773],[-67.9217,-16.0784,1249.2494],[-67.9256,-16.0808,1358.228],[-67.9261,-16.086,1353.3906],[-67.9247,-16.0891,1366.4434],[-67.9266,-16.09,1385.6318],[-67.9249,-16.0924,1401.2563],[-67.9253,-16.0956,1500.8557],[-67.9237,-16.096,1381.4871],[-67.9222,-16.1,1468.8306],[-67.9248,-16.1004,1472.7853],[-67.926,-16.1031,1522.1375],[-67.9281,-16.101,1507.1844],[-67.9313,-16.1008,1692.406],[-67.9319,-16.1079,1701.5088],[-67.9342,-16.1096,1627.7195],[-67.9356,-16.1156,1668.98],[-67.94,-16.1153,1752.2673],[-67.9426,-16.117,1725.9586],[-67.9443,-16.1161,1822.588],[-67.9451,-16.1227,1855.3597],[-67.9526,-16.1259,1894.957],[-67.957,-16.1309,1937.2644],[-67.9602,-16.1299,2058.2451],[-67.9588,-16.1345,2003.3344],[-67.9611,-16.1368,2208.4836],[-67.9611,-16.1422,2374.8892],[-67.9578,-16.1442,2258.8162],[-67.9546,-16.1576,2632.7803],[-67.9571,-16.1622,2810.1753],[-67.9558,-16.1663,3057.1743],[-67.9581,-16.1679,3113.5542],[-67.9592,-16.1712,3166.0396],[-67.962,-16.1723,3249.593],[-67.9657,-16.1805,3604.4878],[-67.9626,-16.1832,3508.7705],[-67.9581,-16.1962,2959.7034],[-67.9514,-16.2029,2528.4902],[-67.943,-16.2272,2990.4702],[-67.944,-16.2426,3332.1997],[-67.9491,-16.2518,3747.0664],[-67.9439,-16.2611,4096.8184],[-67.9448,-16.2847,4438.458],[-67.9517,-16.293,4301.8794],[-67.9572,-16.3036,4579.752],[-67.9579,-16.3137,4154.5718],[-67.956,-16.3149,4114.0986],[-67.957,-16.3191,4014.4131],[-67.9546,-16.3303,3620.6138],[-67.9509,-16.3311,3586.7832],[-67.9429,-16.3293,3533.7686],[-67.9201,-16.3161,3287.2786],[-67.8908,-16.3098,2834.3442],[-67.8864,-16.3017,2714.8762],[-67.8809,-16.2991,2654.2725],[-67.8689,-16.3025,2536.0732],[-67.8617,-16.3014,2589.2532],[-67.8567,-16.304,2453.447],[-67.8473,-16.3,2392.6719],[-67.8391,-16.299,2342.5769],[-67.8334,-16.3011,2344.9863],[-67.8323,-16.3055,2285.9465],[-67.8262,-16.3128,2286.2788],[-67.8267,-16.3312,2166.0159],[-67.8199,-16.346,1956.6669],[-67.8127,-16.3506,1884.212],[-67.8061,-16.3602,1836.8718],[-67.803,-16.3623,1817.6067],[-67.7977,-16.3644,1792.6392],[-67.7894,-16.3648,1736.5808],[-67.7806,-16.3632,1675.5256],[-67.769,-16.3562,1676.5575],[-67.7611,-16.356,1617.0375],[-67.7572,-16.3613,1635.7312],[-67.7514,-16.3607,1586.9714],[-67.7481,-16.3626,1739.8573],[-67.7473,-16.3663,1545.1476],[-67.7485,-16.3684,1565.3374],[-67.7417,-16.3783,1513.23],[-67.7425,-16.3823,1513.6954],[-67.7369,-16.3888,1463.925],[-67.719,-16.3983,1404.3046],[-67.6897,-16.3896,1346.0018],[-67.679,-16.3915,1304.0361],[-67.6716,-16.3971,1263.2007],[-67.6568,-16.4014,1228.2305],[-67.6441,-16.4012,1222.7053],[-67.6416,-16.4026,1214.2023],[-67.6336,-16.3971,1208.5015],[-67.6228,-16.397,1178.8804],[-67.6043,-16.3806,1135.9021],[-67.5997,-16.3697,1133.8513],[-67.5928,-16.3601,1102.6497],[-67.5929,-16.3552,1108.5256],[-67.5892,-16.3491,1182.5474],[-67.5892,-16.3465,1137.5135],[-67.5836,-16.3428,1081.4263],[-67.5806,-16.3279,1094.9114],[-67.5723,-16.3125,1052.2319],[-67.5735,-16.3068,1181.4415],[-67.5694,-16.3004,1047.6471],[-67.5694,-16.2923,1083.946],[-67.5666,-16.2884,1107.3885],[-67.5663,-16.2821,1045.6497],[-67.5707,-16.274,1072.2374],[-67.5705,-16.2697,1114.1296],[-67.5667,-16.2653,1060.634],[-67.5639,-16.2651,1041.2391],[-67.5503,-16.2768,1022.2125],[-67.5458,-16.2664,1145.4907],[-67.5375,-16.2616,1250.4795],[-67.5365,-16.2552,1293.481],[-67.539,-16.2514,1337.2329],[-67.5237,-16.2395,1906.949],[-67.5136,-16.2225,2875.3367],[-67.4938,-16.2042,2875.9067],[-67.438,-16.1419,1968.4174],[-67.3946,-16.1077,1930.1078],[-67.3679,-16.0821,2050.9521],[-67.3404,-16.0105,2112.6631]]]]}
,"properties": {"GID_2": "BOL.4.18_2","GID_0": "BOL","country": "Bolivia","GID_1": "BOL.4_1","province": "LaPaz","NL_NAME_1": "NA","county": "NorYungas","VARNAME_2": "NA","NL_NAME_2": "NA","TYPE_2": "Provincia","ENGTYPE_2": "Province","CC_2": "NA","HASC_2": "NA","name": "Nor_Yungas.county","area_km2": 1789.502,"hist_schema_id": "Elevation0-9000","hist_area_km2": {"775": 0.02,"800": 0.183,"825": 0.326,"850": 0.672,"875": 0.591,"900": 1.222,"925": 1.589,"950": 1.956,"975": 2.791,"1000": 3.015,"1025": 3.524,"1050": 4.868,"1075": 5.804,"1100": 6.192,"1125": 8.493,"1150": 8.33,"1175": 8.798,"1200": 10.753,"1225": 11.527,"1250": 13.013,"1275": 13.074,"1300": 14.5,"1325": 15.783,"1350": 17.371,"1375": 17.657,"1400": 19.265,"1425": 20.792,"1450": 23.237,"1475": 22.788,"1500": 25.456,"1525": 27.147,"1550": 29.041,"1575": 31.73,"1600": 36.923,"1625": 36.7,"1650": 41.791,"1675": 40.468,"1700": 41.038,"1725": 40.772,"1750": 40.059,"1775": 39.142,"1800": 39.855,"1825": 38.653,"1850": 36.718,"1875": 35.985,"1900": 35.292,"1925": 33.642,"1950": 32.236,"1975": 32.053,"2000": 29.384,"2025": 29.547,"2050": 28.121,"2075": 28.711,"2100": 26.287,"2125": 25.716,"2150": 25.309,"2175": 23.516,"2200": 22.316,"2225": 22.416,"2250": 22.559,"2275": 22.62,"2300": 20.787,"2325": 20.746,"2350": 20.807,"2375": 18.669,"2400": 18.934,"2425": 18.099,"2450": 18.689,"2475": 17.488,"2500": 17.712,"2525": 17.488,"2550": 17.121,"2575": 16.225,"2600": 14.414,"2625": 15.594,"2650": 14.169,"2675": 12.805,"2700": 13.232,"2725": 12.947,"2750": 11.746,"2775": 11.726,"2800": 10.524,"2825": 10.219,"2850": 9.323,"2875": 8.672,"2900": 8.447,"2925": 7.226,"2950": 7.572,"2975": 7.023,"3000": 6.086,"3025": 6.391,"3050": 5.944,"3075": 6.106,"3100": 4.865,"3125": 5.231,"3150": 4.376,"3175": 4.905,"3200": 4.437,"3225": 3.887,"3250": 4.132,"3275": 3.643,"3300": 3.033,"3325": 2.829,"3350": 2.809,"3375": 2.28,"3400": 2.544,"3425": 1.995,"3450": 2.32,"3475": 2.076,"3500": 1.954,"3525": 2.015,"3550": 1.73,"3575": 1.404,"3600": 1.588,"3625": 1.282,"3650": 1.262,"3675": 1.058,"3700": 0.834,"3725": 0.651,"3750": 0.855,"3775": 0.794,"3800": 0.59,"3825": 0.794,"3850": 0.651,"3875": 0.733,"3900": 0.855,"3925": 0.855,"3950": 0.611,"3975": 0.651,"4000": 0.509,"4025": 0.794,"4050": 0.794,"4075": 0.672,"4100": 0.733,"4125": 0.529,"4150": 0.488,"4175": 0.549,"4200": 0.631,"4225": 0.427,"4250": 0.448,"4275": 0.509,"4300": 0.59,"4325": 0.285,"4350": 0.326,"4375": 0.387,"4400": 0.224,"4425": 0.448,"4450": 0.265,"4475": 0.244,"4500": 0.122,"4525": 0.203,"4550": 0.183,"4575": 0.081,"4600": 0.142,"4625": 0.081,"4650": 0.02,"4675": 0.02}}}