{"type":"Feature","properties":{"GID_3":"BOL.5.4.2_2","GID_0":"BOL","country":"Bolivia","GID_1":"BOL.5_1","province":"Oruro","NL_NAME_1":"NA","GID_2":"BOL.5.4_2","county":"LadislaoCabrera","NL_NAME_2":"NA","city":"SalinasdeGarcíMendoza","VARNAME_3":"NA","NL_NAME_3":"NA","TYPE_3":"District","ENGTYPE_3":"Distrito","CC_3":"NA","HASC_3":"NA","name":"Salinasde_Garcí_Mendoza.city"},
"geometry":{"type": "MultiPolygon","coordinates": [[[[-67.5291,-19.8602,3662.7734],[-67.5306,-19.8601,3653.5],[-67.5295,-19.8602,3662.7734],[-67.5318,-19.8651,3653.5],[-67.531,-19.8667,3653.5],[-67.5292,-19.8622,3680.8408],[-67.5253,-19.8614,3653.5],[-67.5291,-19.8602,3662.7734]]],
[[[-67.3343,-19.077,3682.6653],[-67.3459,-19.0722,3681.3447],[-67.3531,-19.066,3682.1843],[-67.3579,-19.0643,3681.0581],[-67.3755,-19.0633,3681.2188],[-67.3883,-19.0593,3681.6987],[-67.3961,-19.0609,3681.8184],[-67.401,-19.0602,3681.3179],[-67.409,-19.0568,3682.3613],[-67.4126,-19.0534,3680.4685],[-67.4211,-19.0561,3680.3472],[-67.427,-19.0555,3680.5483],[-67.433,-19.0578,3680.5547],[-67.4438,-19.0578,3678.25],[-67.4544,-19.0631,3681.4448],[-67.4622,-19.0619,3680.3691],[-67.4655,-19.0641,3680.9841],[-67.476,-19.0611,3679.437],[-67.4797,-19.058,3679.4995],[-67.4849,-19.0565,3679.53],[-67.4939,-19.0567,3678.6716],[-67.5094,-19.0632,3677.4199],[-67.5182,-19.0577,3677.113],[-67.5288,-19.0553,3677.1255],[-67.536,-19.0573,3677.0229],[-67.5402,-19.0546,3676.9341],[-67.5536,-19.0598,3676.8469],[-67.5615,-19.0661,3675.8962],[-67.5694,-19.068,3675.813],[-67.5744,-19.073,3675.8862],[-67.5788,-19.074,3675.2546],[-67.589,-19.09,3674.6299],[-67.5978,-19.0933,3675.2561],[-67.6186,-19.0956,3676.0708],[-67.6322,-19.0846,3674.187],[-67.6389,-19.0703,3673.5498],[-67.6414,-19.0695,3673.4678],[-67.6457,-19.0713,3675.9263],[-67.65,-19.0689,3672.9578],[-67.6592,-19.0714,3673.8545],[-67.666,-19.0842,3672.4778],[-67.6713,-19.0832,3673.0574],[-67.6745,-19.085,3672.707],[-67.6748,-19.091,3671.989],[-67.6773,-19.0934,3671.8394],[-67.6838,-19.0931,3672.9636],[-67.6961,-19.1031,3672.2683],[-67.7052,-19.1042,3672.5898],[-67.7307,-19.0968,3674.2639],[-67.7454,-19.0878,3671.5796],[-67.753,-19.0712,3671.6826],[-67.7716,-19.0721,3668.5256],[-67.7863,-19.0778,3667.5347],[-67.7961,-19.0778,3666.9548],[-67.8013,-19.0751,3666.5259],[-67.8065,-19.0697,3667.2856],[-67.8107,-19.0682,3665.314],[-67.813,-19.0679,3665.0779],[-67.8179,-19.0712,3665.2019],[-67.8222,-19.0698,3665.1357],[-67.8256,-19.0716,3665.4658],[-67.8391,-19.0694,3665.1567],[-67.8556,-19.0549,3666.2966],[-67.8653,-19.0537,3666.5317],[-67.8697,-19.0583,3666.2417],[-67.8722,-19.0587,3665.9224],[-67.8764,-19.0547,3666.3828],[-67.8741,-19.0515,3666.4551],[-67.8773,-19.0498,3666.9675],[-67.8935,-19.0573,3664.8237],[-67.9139,-19.0716,3664.9558],[-67.9226,-19.0935,3662.7051],[-67.9539,-19.1076,3661.5356],[-67.9602,-19.1076,3661.3076],[-67.9645,-19.1119,3661.082],[-67.97,-19.1106,3660.9871],[-67.9821,-19.119,3660.5352],[-67.9934,-19.1226,3660.2676],[-68.0,-19.1211,3660.0388],[-68.0096,-19.1265,3659.7283],[-68.0216,-19.1217,3659.45],[-68.0299,-19.1238,3659.3022],[-68.0343,-19.1345,3659.0479],[-68.0414,-19.1396,3659.0767],[-68.0422,-19.1418,3659.0078],[-68.0394,-19.1427,3658.9778],[-68.0384,-19.1471,3658.854],[-68.0317,-19.1496,3657.7959],[-68.0351,-19.1523,3658.9893],[-68.0347,-19.1538,3658.9387],[-68.0252,-19.1554,3659.1077],[-68.0241,-19.1603,3656.5],[-68.0214,-19.1629,3656.8782],[-68.0204,-19.1704,3656.5],[-68.0156,-19.1775,3656.5],[-68.0042,-19.1847,3656.5],[-68.0025,-19.19,3656.5],[-67.9994,-19.193,3656.5],[-67.994,-19.19,3656.5],[-67.9977,-19.1971,3656.5],[-67.993,-19.1957,3656.5],[-68.0011,-19.2148,3656.5],[-68.002,-19.2211,3656.5],[-68.0054,-19.2267,3656.5],[-68.0068,-19.2396,3656.5],[-68.0037,-19.2471,3656.5],[-68.0008,-19.2503,3656.5],[-68.0025,-19.2567,3656.5],[-68.0009,-19.2653,3656.5],[-68.002,-19.2709,3656.5],[-68.001,-19.2846,3656.5],[-68.0031,-19.2904,3656.5],[-68.008,-19.2955,3656.5],[-68.0016,-19.3002,3656.5],[-68.0036,-19.5229,3656.5],[-68.0057,-19.5225,3656.5],[-68.0201,-19.5278,3656.5],[-68.0258,-19.5279,3656.8037],[-68.0263,-19.5293,3656.9888],[-68.0216,-19.5307,3656.5],[-68.0241,-19.5342,3656.5],[-68.046,-19.5368,3656.9185],[-68.0568,-19.5402,3656.5],[-68.0637,-19.5483,3656.5],[-68.0668,-19.5547,3656.5],[-68.0724,-19.5599,3656.5],[-68.0749,-19.5599,3656.5],[-68.0758,-19.5628,3656.5],[-68.0881,-19.5764,3657.0059],[-68.0785,-19.5876,3700.4194],[-68.0602,-19.5958,3892.6421],[-68.0539,-19.61,4321.8711],[-68.0422,-19.6184,4784.0371],[-68.0319,-19.6223,4978.0234],[-67.9895,-19.687,3933.1313],[-67.9714,-19.7079,4346.4966],[-67.9597,-19.7262,4165.3418],[-67.9595,-19.7294,4197.665],[-67.9353,-19.7338,4191.5771],[-67.9144,-19.7431,3981.8623],[-67.8994,-19.7571,3787.0327],[-67.8764,-19.7619,3672.2219],[-67.8605,-19.7725,3896.0295],[-67.8456,-19.7965,3815.0933],[-67.8217,-19.8096,3814.5125],[-67.803,-19.8111,3778.2236],[-67.7859,-19.808,3790.4961],[-67.7586,-19.8059,3714.6599],[-67.7582,-19.8092,3714.519],[-67.7603,-19.8123,3680.9216],[-67.7519,-19.8132,3685.5161],[-67.7435,-19.8229,3740.7153],[-67.7384,-19.826,3733.9333],[-67.7382,-19.8303,3727.7422],[-67.7339,-19.8316,3726.2046],[-67.7299,-19.8284,3728.6616],[-67.7205,-19.8267,3747.3652],[-67.7145,-19.812,3783.8469],[-67.6775,-19.8305,4437.1958],[-67.6644,-19.8386,4692.5557],[-67.6462,-19.8421,5107.5322],[-67.6352,-19.8465,4785.458],[-67.6147,-19.8603,4197.208],[-67.6048,-19.8644,4109.9365],[-67.5991,-19.8716,3909.1155],[-67.5809,-19.8746,3683.3804],[-67.573,-19.8813,3656.635],[-67.5713,-19.8867,3653.7332],[-67.5672,-19.8853,3653.5],[-67.5632,-19.8717,3655.3845],[-67.5594,-19.8658,3654.8872],[-67.5567,-19.8646,3653.5],[-67.5445,-19.8648,3653.5],[-67.5403,-19.8552,3657.0896],[-67.5376,-19.8524,3664.4971],[-67.5333,-19.8484,3654.7566],[-67.5277,-19.8489,3653.5],[-67.5304,-19.8409,3657.1309],[-67.5287,-19.8371,3671.8479],[-67.5195,-19.8335,3653.5],[-67.5204,-19.8291,3655.3503],[-67.5234,-19.8336,3657.4722],[-67.529,-19.8336,3656.4297],[-67.5311,-19.8302,3657.6421],[-67.5296,-19.8286,3653.5],[-67.5363,-19.8255,3660.293],[-67.5437,-19.8184,3654.5364],[-67.5474,-19.8048,3654.9097],[-67.5356,-19.794,3653.5],[-67.5345,-19.7898,3654.5657],[-67.5375,-19.7872,3670.0029],[-67.5378,-19.782,3653.5],[-67.5399,-19.7851,3668.3281],[-67.5424,-19.7856,3659.0605],[-67.5467,-19.7811,3653.5],[-67.5496,-19.7807,3654.1072],[-67.5468,-19.7864,3653.5],[-67.5531,-19.7846,3654.6174],[-67.5554,-19.7824,3653.5],[-67.556,-19.7854,3655.0625],[-67.5596,-19.7788,3653.8667],[-67.5631,-19.7768,3655.7068],[-67.5609,-19.7772,3653.842],[-67.5573,-19.7742,3653.5],[-67.5594,-19.7734,3653.5],[-67.5569,-19.7715,3653.5],[-67.5677,-19.7643,3655.0105],[-67.5661,-19.7627,3654.9888],[-67.566,-19.7572,3654.8167],[-67.5685,-19.7524,3654.895],[-67.5678,-19.7468,3654.8423],[-67.5712,-19.7387,3654.9583],[-67.5717,-19.7279,3654.8735],[-67.5623,-19.7152,3654.9771],[-67.56,-19.7167,3654.8672],[-67.5474,-19.7135,3655.0459],[-67.5403,-19.7143,3654.9653],[-67.5398,-19.7127,3655.0371],[-67.5387,-19.7147,3654.96],[-67.5325,-19.7166,3654.9397],[-67.5217,-19.7166,3654.9756],[-67.5144,-19.7139,3654.9536],[-67.5018,-19.7121,3655.0425],[-67.4844,-19.705,3655.1458],[-67.4697,-19.7032,3655.1897],[-67.4486,-19.7068,3655.335],[-67.4348,-19.7121,3655.3691],[-67.4265,-19.7115,3655.3306],[-67.4175,-19.7143,3655.2158],[-67.3806,-19.713,3655.2847],[-67.3471,-19.7223,3655.3711],[-67.3356,-19.7307,3655.4421],[-67.3286,-19.7395,3655.3481],[-67.322,-19.7435,3655.3384],[-67.3151,-19.7442,3655.4709],[-67.3106,-19.7479,3655.5186],[-67.3016,-19.7498,3655.5527],[-67.2994,-19.7544,3655.5969],[-67.291,-19.7594,3655.459],[-67.291,-19.7652,3655.3481],[-67.2739,-19.7489,3656.0078],[-67.265,-19.7261,3657.1475],[-67.2574,-19.7159,3658.02],[-67.2581,-19.7066,3658.6255],[-67.2566,-19.6993,3658.9851],[-67.243,-19.6911,3659.9353],[-67.2319,-19.6914,3661.0728],[-67.2258,-19.6896,3661.9316],[-67.2139,-19.6818,3664.0496],[-67.2144,-19.6774,3664.9478],[-67.2132,-19.6779,3664.9478],[-67.2123,-19.6744,3667.5337],[-67.2101,-19.6749,3666.0876],[-67.2064,-19.6703,3667.0918],[-67.2072,-19.6581,3667.3718],[-67.2118,-19.6494,3667.2822],[-67.2126,-19.6426,3667.6836],[-67.2103,-19.6318,3667.7949],[-67.2071,-19.6292,3668.0171],[-67.2093,-19.6253,3668.1816],[-67.2081,-19.6171,3668.6284],[-67.2036,-19.6167,3668.7029],[-67.2029,-19.6153,3673.2466],[-67.2092,-19.6011,3669.9399],[-67.2318,-19.5836,3678.1433],[-67.2303,-19.5815,3682.0461],[-67.2321,-19.5784,3690.814],[-67.2305,-19.5734,3706.561],[-67.2309,-19.5672,3715.0649],[-67.2248,-19.5656,3694.395],[-67.2183,-19.5593,3680.9497],[-67.2187,-19.5543,3680.5981],[-67.2233,-19.5502,3682.4067],[-67.2298,-19.5362,3694.2056],[-67.2259,-19.5333,3690.4973],[-67.2307,-19.5245,3697.6152],[-67.2291,-19.514,3718.5312],[-67.2315,-19.5125,3713.2212],[-67.2326,-19.5088,3721.522],[-67.2369,-19.5071,3734.4619],[-67.2372,-19.5045,3776.1655],[-67.2349,-19.5039,3777.5906],[-67.2317,-19.498,3769.8823],[-67.2277,-19.4956,3755.7219],[-67.2254,-19.4911,3748.0735],[-67.2258,-19.4839,3742.4204],[-67.229,-19.4815,3740.333],[-67.2352,-19.4809,3737.4453],[-67.2437,-19.472,3734.1851],[-67.2563,-19.4638,3729.1482],[-67.2599,-19.455,3726.5083],[-67.2592,-19.4493,3725.1626],[-67.2622,-19.4486,3724.2368],[-67.2645,-19.4406,3723.6851],[-67.2699,-19.4347,3721.446],[-67.269,-19.4311,3720.6216],[-67.2677,-19.4286,3720.2925],[-67.2658,-19.4285,3721.6855],[-67.256,-19.4315,3744.9604],[-67.2506,-19.4315,3750.6628],[-67.2417,-19.4352,3797.1926],[-67.2344,-19.4363,3828.6143],[-67.2241,-19.4426,3864.3877],[-67.218,-19.4414,3872.5088],[-67.2094,-19.4463,3862.4639],[-67.2226,-19.4264,3804.3362],[-67.2223,-19.4226,3796.084],[-67.2268,-19.4161,3792.374],[-67.2171,-19.4059,3751.2136],[-67.2137,-19.4045,3786.9082],[-67.2185,-19.3822,3830.1523],[-67.2176,-19.3801,3813.97],[-67.2034,-19.3756,3825.6267],[-67.196,-19.3697,3745.3977],[-67.1748,-19.3634,3742.3398],[-67.1704,-19.3597,3721.9253],[-67.1713,-19.3513,3716.9897],[-67.1784,-19.3436,3715.8899],[-67.1851,-19.3397,3714.0571],[-67.1851,-19.3358,3710.9084],[-67.1899,-19.3335,3710.3926],[-67.1935,-19.3336,3710.0605],[-67.1952,-19.3306,3709.9688],[-67.2009,-19.3286,3711.1736],[-67.1997,-19.3242,3709.3555],[-67.202,-19.3214,3711.5298],[-67.2125,-19.3197,3709.4895],[-67.2224,-19.316,3709.7773],[-67.2291,-19.3077,3709.3296],[-67.2282,-19.2971,3708.5566],[-67.2323,-19.2985,3710.4014],[-67.235,-19.2963,3710.3462],[-67.2407,-19.2963,3712.1448],[-67.2429,-19.2856,3719.1843],[-67.2525,-19.2811,3732.748],[-67.2532,-19.2698,3743.561],[-67.2651,-19.2642,3796.8784],[-67.2798,-19.2477,3773.7842],[-67.2974,-19.2446,3792.1858],[-67.3041,-19.2453,3784.1189],[-67.3101,-19.2496,3811.2307],[-67.3167,-19.2492,3822.8835],[-67.3316,-19.2376,3791.2961],[-67.3516,-19.2368,3786.3076],[-67.3584,-19.2303,3792.3569],[-67.3578,-19.2262,3788.8005],[-67.3492,-19.22,3792.1987],[-67.3504,-19.2147,3803.7056],[-67.3516,-19.2133,3793.2925],[-67.3549,-19.2135,3785.4121],[-67.3639,-19.218,3802.8628],[-67.3703,-19.2119,3789.7412],[-67.3676,-19.205,3797.8955],[-67.3769,-19.1931,3790.6653],[-67.3771,-19.1907,3784.4104],[-67.373,-19.1863,3785.2991],[-67.3717,-19.1822,3782.2922],[-67.3704,-19.1644,3772.9907],[-67.3731,-19.1475,3761.8381],[-67.3627,-19.1344,3745.593],[-67.3575,-19.1203,3741.207],[-67.3444,-19.1038,3728.8613],[-67.3446,-19.1004,3727.4626],[-67.3404,-19.0993,3724.8496],[-67.337,-19.0946,3723.801],[-67.3345,-19.0853,3711.0942],[-67.3343,-19.077,3682.6653]]]]}}