{"type":"Feature","properties":{"GID_3":"BOL.2.11.3_2","GID_0":"BOL","country":"Bolivia","GID_1":"BOL.2_1","province":"Cochabamba","NL_NAME_1":"NA","GID_2":"BOL.2.11_2","county":"GermánJordán","NL_NAME_2":"NA","city":"Tolata","VARNAME_3":"NA","NL_NAME_3":"NA","TYPE_3":"District","ENGTYPE_3":"Distrito","CC_3":"NA","HASC_3":"NA","name":"Tolata.city"},
"geometry":{"type": "MultiPolygon","coordinates": [[[[-66.0424,-17.5002,3294.2234],[-66.0443,-17.5049,3172.0754],[-66.0466,-17.5066,3111.9451],[-66.0465,-17.5206,2962.8535],[-66.0493,-17.5216,2986.0105],[-66.0517,-17.5188,2988.7449],[-66.0577,-17.5164,2870.8342],[-66.0663,-17.5227,2811.5642],[-66.0649,-17.5267,2779.345],[-66.0657,-17.5298,2746.8435],[-66.0794,-17.5431,2690.0],[-66.0752,-17.5454,2690.0],[-66.0628,-17.558,2690.0],[-66.0566,-17.5578,2690.0],[-66.0479,-17.5545,2690.0],[-66.0305,-17.5511,2690.0],[-66.0214,-17.5507,2690.0],[-66.0163,-17.548,2690.0],[-66.0029,-17.5471,2691.4277],[-65.9872,-17.5651,2691.7751],[-65.9825,-17.5616,2693.2703],[-65.9807,-17.5577,2692.2095],[-65.9732,-17.5573,2692.7126],[-65.9725,-17.554,2692.9182],[-65.9638,-17.5547,2694.8347],[-65.9638,-17.5457,2694.7461],[-65.9567,-17.5474,2695.9448],[-65.9508,-17.5403,2692.7737],[-65.9478,-17.5406,2693.0952],[-65.9529,-17.5267,2733.1721],[-65.9522,-17.5198,2772.9312],[-65.9489,-17.5141,2824.0571],[-65.9493,-17.507,2944.3767],[-65.9441,-17.4951,3034.6782],[-65.941,-17.493,3105.8037],[-65.9461,-17.4858,3305.2896],[-65.9457,-17.4792,3571.2256],[-65.9533,-17.4774,3579.0022],[-65.96,-17.4855,3425.1196],[-65.9866,-17.4997,3532.0449],[-65.99,-17.5039,3602.813],[-66.0026,-17.5069,3504.0964],[-66.0176,-17.508,3457.6409],[-66.0394,-17.5063,3208.1169],[-66.0424,-17.5002,3294.2234]]]]}}