{"type":"Feature","properties":{"GID_3":"BOL.4.20.4_2","GID_0":"BOL","country":"Bolivia","GID_1":"BOL.4_1","province":"LaPaz","NL_NAME_1":"NA","GID_2":"BOL.4.20_2","county":"Pacajes","NL_NAME_2":"NA","city":"Comanche","VARNAME_3":"NA","NL_NAME_3":"NA","TYPE_3":"District","ENGTYPE_3":"Distrito","CC_3":"NA","HASC_3":"NA","name":"Comanche.city"},
"geometry":{"type": "MultiPolygon","coordinates": [[[[-68.3736,-16.9179,4192.4531],[-68.3756,-16.9084,4100.1953],[-68.3814,-16.9018,4145.3164],[-68.3879,-16.8988,4145.3965],[-68.3889,-16.8945,4156.9531],[-68.4018,-16.8884,4124.3057],[-68.4022,-16.8816,4077.7021],[-68.3975,-16.8731,4007.124],[-68.3969,-16.8689,4005.9951],[-68.4019,-16.8653,3987.998],[-68.4082,-16.8556,3971.7271],[-68.4109,-16.854,3966.6599],[-68.4129,-16.8457,3951.6611],[-68.4169,-16.8394,3938.1094],[-68.423,-16.8381,3937.6414],[-68.4297,-16.84,4016.9458],[-68.4332,-16.839,4052.3169],[-68.4398,-16.8446,4084.1218],[-68.4486,-16.8486,4243.3066],[-68.4612,-16.8428,4230.9634],[-68.462,-16.8404,4238.8804],[-68.4705,-16.8404,4285.6108],[-68.468,-16.835,4155.6992],[-68.4676,-16.8293,4094.7739],[-68.455,-16.8178,3964.2585],[-68.4483,-16.8158,3951.5645],[-68.4436,-16.8069,3970.7427],[-68.4383,-16.8012,3920.3525],[-68.4453,-16.7939,3973.491],[-68.4678,-16.7811,3982.9741],[-68.4775,-16.7899,4023.2756],[-68.5039,-16.8203,4076.6851],[-68.5084,-16.8344,4005.8611],[-68.5337,-16.8395,3998.5293],[-68.5521,-16.8519,3926.093],[-68.5456,-16.8643,3949.9478],[-68.5361,-16.8718,4010.1492],[-68.5305,-16.8836,4033.135],[-68.5239,-16.8877,4061.7124],[-68.5238,-16.8921,4105.1357],[-68.5182,-16.9,4247.0825],[-68.5197,-16.903,4186.9404],[-68.5244,-16.9048,4142.3223],[-68.5423,-16.8988,4050.3628],[-68.5624,-16.9202,4000.2236],[-68.5707,-16.9387,4059.5088],[-68.5715,-16.9476,4078.6567],[-68.5424,-16.9646,4215.6396],[-68.5384,-16.9714,4329.6353],[-68.5253,-16.9762,4355.541],[-68.5184,-16.977,4309.3594],[-68.5149,-16.9757,4352.1567],[-68.508,-16.9832,4323.5713],[-68.4949,-16.9896,4264.2314],[-68.4855,-16.9917,4287.1704],[-68.4814,-17.0013,4456.8047],[-68.4832,-17.0196,4525.9438],[-68.4807,-17.0265,4351.3403],[-68.4771,-17.03,4266.4219],[-68.4627,-17.034,4200.7593],[-68.4457,-17.0327,4114.9482],[-68.4419,-17.0359,4095.9011],[-68.4427,-17.0396,4091.0933],[-68.4487,-17.0447,4081.3035],[-68.4508,-17.0533,4071.4363],[-68.4598,-17.059,4051.6257],[-68.4704,-17.0629,4031.9753],[-68.4723,-17.0652,4027.314],[-68.4759,-17.0656,4022.3899],[-68.4814,-17.0703,4009.4395],[-68.483,-17.0735,4004.5115],[-68.4853,-17.0922,4055.0701],[-68.4557,-17.1014,4109.8652],[-68.4481,-17.0997,4123.002],[-68.4395,-17.1013,4134.7422],[-68.4299,-17.1005,4137.4268],[-68.4148,-17.0937,4225.7427],[-68.3828,-17.086,4653.4775],[-68.3805,-17.0792,4674.5942],[-68.3827,-17.0721,4656.2441],[-68.3784,-17.068,4668.002],[-68.3781,-17.0598,4749.6187],[-68.3754,-17.0593,4759.7354],[-68.3704,-17.0629,4715.312],[-68.3449,-17.0548,4378.4067],[-68.3466,-17.0404,4302.2339],[-68.3495,-17.0333,4258.3228],[-68.3479,-17.0312,4291.9702],[-68.3548,-16.9924,4149.3521],[-68.3581,-16.9842,4169.2236],[-68.3598,-16.9734,4246.0996],[-68.3646,-16.9655,4124.811],[-68.3714,-16.9645,4100.3633],[-68.3697,-16.9518,4066.9148],[-68.372,-16.9503,4061.8657],[-68.3741,-16.9455,4056.1296],[-68.3737,-16.9424,4046.3247],[-68.376,-16.9408,4041.3232],[-68.3758,-16.9368,4045.5178],[-68.379,-16.9333,4036.4756],[-68.3747,-16.9287,4066.8513],[-68.3759,-16.9225,4152.6738],[-68.3736,-16.9179,4192.4531]]]]}}