{"type":"Feature","properties":{"GID_3":"BOL.8.14.1_2","GID_0":"BOL","country":"Bolivia","GID_1":"BOL.8_1","province":"SantaCruz","NL_NAME_1":"NA","GID_2":"BOL.8.14_2","county":"Velasco","NL_NAME_2":"NA","city":"SanIgnacio","VARNAME_3":"NA","NL_NAME_3":"NA","TYPE_3":"District","ENGTYPE_3":"Distrito","CC_3":"NA","HASC_3":"NA","name":"San_Ignacio.city"},
"geometry":{"type": "MultiPolygon","coordinates": [[[[-62.1392,-13.7624,234.4599],[-62.1447,-14.007,188.1434],[-62.1424,-14.1419,212.4702],[-62.1409,-14.1984,235.5845],[-62.1368,-14.2157,212.0164],[-62.1289,-14.2332,217.1106],[-62.1222,-14.2427,208.7452],[-62.0917,-14.2679,206.5982],[-62.0665,-14.2863,235.386],[-62.0373,-14.3035,212.6818],[-61.9814,-14.3423,194.8406],[-61.9635,-14.3524,202.8561],[-61.9342,-14.3739,218.0281],[-61.8904,-14.395,201.6309],[-61.7725,-14.4792,239.0959],[-61.7442,-14.504,261.9415],[-61.7309,-14.5263,221.0393],[-61.7049,-14.5871,199.3258],[-61.7032,-14.587,200.229],[-61.6891,-14.5986,203.7922],[-61.6889,-14.6059,201.9426],[-61.6866,-14.6084,203.1472],[-61.6818,-14.6098,202.4268],[-61.6823,-14.6124,204.0251],[-61.6785,-14.6143,204.7821],[-61.6779,-14.623,205.6566],[-61.6748,-14.627,205.1931],[-61.6752,-14.6304,203.0663],[-61.6628,-14.6374,210.3273],[-61.6621,-14.6412,208.3483],[-61.6604,-14.6419,211.9931],[-61.661,-14.644,206.3553],[-61.6513,-14.6518,210.2542],[-61.6499,-14.6556,210.6247],[-61.651,-14.657,210.3583],[-61.6483,-14.6594,211.3367],[-61.6478,-14.6633,207.359],[-61.6443,-14.6658,212.7514],[-61.6454,-14.6773,206.5333],[-61.6442,-14.6841,209.826],[-61.6386,-14.6882,213.4457],[-61.6349,-14.689,215.8695],[-61.6334,-14.6916,215.5604],[-61.6321,-14.6909,223.042],[-61.6274,-14.6929,218.7535],[-61.6202,-14.6999,217.5368],[-61.6154,-14.7019,211.3533],[-61.6103,-14.701,222.3719],[-61.6071,-14.7036,216.7578],[-61.598,-14.7027,228.9319],[-61.5948,-14.6974,217.2454],[-61.5953,-14.6958,219.6629],[-61.5918,-14.6926,214.5593],[-61.5914,-14.7003,221.3965],[-61.5849,-14.7056,219.5727],[-61.5841,-14.7167,218.4926],[-61.5798,-14.718,221.2095],[-61.5792,-14.722,225.1078],[-61.5744,-14.7249,223.8582],[-61.575,-14.7273,222.5089],[-61.5719,-14.7265,227.4491],[-61.5648,-14.733,225.8496],[-61.5644,-14.7365,229.0726],[-61.5602,-14.7429,238.7603],[-61.5603,-14.7488,226.991],[-61.5577,-14.7543,228.1531],[-61.5579,-14.7628,230.7926],[-61.5505,-14.7695,232.3293],[-61.5484,-14.7784,234.5828],[-61.5505,-14.7911,241.5677],[-61.5492,-14.7963,237.0301],[-61.5451,-14.8034,233.9044],[-61.535,-14.8032,237.5263],[-61.5323,-14.8327,247.3802],[-61.5183,-14.8619,261.3311],[-61.5171,-14.8817,303.1074],[-61.5151,-14.8842,291.2948],[-61.5194,-14.8853,293.0595],[-61.5191,-14.8876,291.4695],[-61.5152,-14.8947,281.4224],[-61.5099,-14.8918,270.3343],[-61.5039,-14.8905,268.7551],[-61.503,-14.8916,267.915],[-61.508,-14.9009,277.0582],[-61.5077,-14.9062,271.4279],[-61.5049,-14.9159,272.8249],[-61.5025,-14.9171,278.4794],[-61.5029,-14.9212,286.0931],[-61.4955,-14.9372,278.0668],[-61.4966,-14.967,326.4579],[-61.4916,-14.9772,343.1342],[-61.4927,-15.0052,295.2082],[-61.4948,-15.0156,306.2331],[-61.4923,-15.0299,307.0962],[-61.4934,-15.0852,274.5984],[-61.4876,-15.0932,258.2569],[-61.4794,-15.1132,242.4507],[-61.4834,-15.1227,247.6981],[-61.4813,-15.1313,255.2862],[-61.4821,-15.1416,260.8679],[-61.4891,-15.1532,300.5312],[-61.4904,-15.1696,283.1371],[-61.494,-15.1832,254.6975],[-61.4926,-15.1886,258.9426],[-61.4945,-15.2151,277.3154],[-61.4978,-15.2183,280.8049],[-61.5013,-15.2257,298.8786],[-61.5094,-15.2324,308.0682],[-61.5018,-15.2521,279.0975],[-61.5081,-15.2656,260.003],[-61.5021,-15.2685,273.9446],[-61.4989,-15.2732,278.1142],[-61.496,-15.2941,233.3136],[-61.4974,-15.3023,239.453],[-61.4877,-15.3187,245.2021],[-61.5107,-15.5424,295.9368],[-61.5195,-15.6195,366.8119],[-61.5213,-15.6205,377.6014],[-61.5197,-15.6269,352.0731],[-61.5203,-15.6381,370.496],[-61.5232,-15.6407,365.8266],[-61.5218,-15.6437,375.3633],[-61.5229,-15.6525,398.5645],[-61.5284,-15.6632,413.3664],[-61.526,-15.6763,429.336],[-61.527,-15.6794,426.244],[-61.5303,-15.6821,412.446],[-61.5298,-15.6901,415.8152],[-61.5386,-15.7132,366.4182],[-61.5313,-15.7237,377.744],[-61.5302,-15.7324,364.2589],[-61.5314,-15.7403,358.0247],[-61.54,-15.7506,371.7071],[-61.5421,-15.7554,351.359],[-61.545,-15.7667,352.6931],[-61.5432,-15.7702,350.3726],[-61.5437,-15.7724,346.6398],[-61.5515,-15.7787,357.0553],[-61.5657,-15.7821,353.268],[-61.5709,-15.7772,353.2281],[-61.5737,-15.769,353.0321],[-61.5831,-15.7645,350.1153],[-61.5996,-15.7659,369.3262],[-61.6126,-15.7736,345.4193],[-61.6074,-15.7789,347.2034],[-61.6033,-15.7797,347.4132],[-61.5984,-15.784,349.0356],[-61.5928,-15.8008,348.4156],[-61.5943,-15.8101,353.9799],[-61.5873,-15.8183,352.5158],[-61.5835,-15.8256,350.8848],[-61.582,-15.835,350.409],[-61.5791,-15.8424,351.3817],[-61.5751,-15.8475,350.3574],[-61.5722,-15.8585,351.4767],[-61.574,-15.8608,364.4593],[-61.5739,-15.8663,352.1304],[-61.5762,-15.8687,352.4363],[-61.5771,-15.8734,353.2132],[-61.5814,-15.8788,353.4798],[-61.5787,-15.8877,353.7369],[-61.5812,-15.8947,358.0792],[-61.5883,-15.9047,359.9587],[-61.5969,-15.9138,366.2548],[-61.6091,-15.9212,379.8089],[-61.6185,-15.9236,386.3817],[-61.6355,-15.9332,399.425],[-61.644,-15.944,396.9516],[-61.6496,-15.9632,423.9554],[-61.6563,-15.9763,416.2978],[-61.6633,-15.9994,425.1114],[-61.6751,-16.0203,400.8682],[-61.6796,-16.0595,370.8406],[-61.68,-16.0844,354.9471],[-61.6783,-16.0862,358.3436],[-61.683,-16.0966,361.7831],[-61.681399999999996,-16.1031,362.1409],[-61.6837,-16.1044,363.5898],[-61.6817,-16.1069,363.4161],[-61.6838,-16.1125,364.5767],[-61.6803,-16.1331,368.863],[-61.6833,-16.1361,367.1982],[-61.6819,-16.1391,369.5128],[-61.6856,-16.1405,367.7511],[-61.6876,-16.1437,372.7095],[-61.6836,-16.1484,378.9675],[-61.6856,-16.1525,375.677],[-61.6839,-16.1549,387.465],[-61.6865,-16.156,374.9032],[-61.6796,-16.1643,379.5078],[-61.6793,-16.1692,374.7896],[-61.676,-16.1731,379.0983],[-61.677,-16.1814,377.7555],[-61.6757,-16.1829,386.6548],[-61.6765,-16.1889,384.5458],[-61.6752,-16.1921,399.5662],[-61.6769,-16.1986,379.7845],[-61.6798,-16.2004,390.3682],[-61.6813,-16.2053,385.0271],[-61.6851,-16.2093,383.2551],[-61.6865,-16.2174,386.4911],[-61.6849,-16.2212,391.0471],[-61.6865,-16.2256,385.3756],[-61.6835,-16.2313,393.086],[-61.6929,-16.243,396.435],[-61.6928,-16.2555,395.4952],[-61.6974,-16.2653,401.1684],[-61.2951,-16.203,374.6753],[-61.2954,-16.2073,377.2093],[-61.2921,-16.2166,388.1827],[-61.283,-16.2228,401.2314],[-61.2821,-16.2301,407.3896],[-61.2757,-16.2364,413.8874],[-61.2705,-16.2495,435.0035],[-61.2617,-16.2627,397.8842],[-61.265,-16.2702,401.174],[-61.2632,-16.2791,409.7153],[-61.2457,-16.3336,418.6671],[-61.2276,-16.3603,423.6802],[-61.1992,-16.4295,440.0149],[-61.1995,-16.4335,429.5934],[-61.1977,-16.4365,421.7932],[-61.1994,-16.4445,435.876],[-61.1975,-16.4463,435.4042],[-61.1722,-16.455,425.8197],[-61.1653,-16.4662,427.0582],[-61.1509,-16.4695,447.0431],[-61.148,-16.4722,441.3226],[-61.1207,-16.4824,471.1357],[-61.0933,-16.4906,467.0642],[-61.0698,-16.4953,439.7219],[-61.0281,-16.482,454.8125],[-60.9812,-16.4706,483.0078],[-60.9542,-16.472,476.3104],[-60.9343,-16.4704,446.0417],[-60.9341,-16.4824,484.3362],[-60.9223,-16.5134,528.9384],[-60.9046,-16.5504,482.8364],[-60.9012,-16.5774,458.8844],[-60.8502,-16.7352,455.1422],[-60.4619,-16.5796,370.2223],[-60.2731,-16.5019,271.559],[-60.2227,-16.488,243.3619],[-60.2205,-16.4917,241.4662],[-60.2149,-16.4934,238.153],[-60.2098,-16.4884,236.4687],[-60.203,-16.4879,233.08],[-60.1996,-16.4894,234.182],[-60.1925,-16.4873,232.5963],[-60.1883,-16.4802,241.1291],[-60.1811,-16.4802,231.3258],[-60.1759,-16.476,227.6292],[-60.1748,-16.4663,222.2539],[-60.1699,-16.4677,222.256],[-60.1589,-16.4657,218.3896],[-60.1495,-16.467,212.1925],[-60.1482,-16.4627,239.787],[-60.1398,-16.46,246.7664],[-60.0529,-16.4061,272.7064],[-60.0033,-16.3778,335.6606],[-59.8585,-16.4024,262.7916],[-59.7609,-16.4124,247.8284],[-59.709,-16.4322,248.1418],[-59.6217,-16.4382,204.6792],[-59.5011,-16.4434,190.3915],[-59.4956,-16.2793,217.0673],[-59.5371,-16.276,255.1853],[-59.8153,-16.2717,258.2542],[-60.1735,-16.263,303.853],[-60.1799,-15.9977,219.8477],[-60.2376,-15.4735,198.6459],[-60.5749,-15.096,192.2072],[-60.2444,-15.0953,225.923],[-60.25,-14.9983,255.8707],[-60.2516,-14.9944,277.0804],[-60.2564,-14.8799,614.7198],[-60.263,-14.772,471.486],[-60.2666,-14.7405,411.0087],[-60.2678,-14.6894,460.763],[-60.2722,-14.6228,636.6375],[-60.2732,-14.6204,624.5187],[-60.2834,-14.6229,534.173],[-60.2927,-14.6232,507.9108],[-60.3025,-14.6161,468.9147],[-60.3124,-14.6149,457.1367],[-60.3217,-14.6095,445.3195],[-60.3276,-14.596,436.9436],[-60.3289,-14.5882,433.1168],[-60.3274,-14.5811,431.256],[-60.3302,-14.5711,433.4784],[-60.3297,-14.562,425.1494],[-60.3355,-14.5481,423.0154],[-60.3377,-14.5347,400.941],[-60.3438,-14.5309,411.0779],[-60.343,-14.5292,419.4502],[-60.337,-14.5292,406.2154],[-60.3384,-14.526,411.9575],[-60.3434,-14.5218,396.2358],[-60.3421,-14.5147,411.0597],[-60.3393,-14.5123,402.6205],[-60.3395,-14.5095,402.1515],[-60.3467,-14.5042,396.1783],[-60.3475,-14.4986,375.923],[-60.3575,-14.4849,375.8335],[-60.3776,-14.4494,363.263],[-60.3861,-14.4395,351.2724],[-60.3995,-14.412,344.515],[-60.4005,-14.4048,341.4361],[-60.3963,-14.3968,368.5155],[-60.3936,-14.394,362.3062],[-60.3814,-14.3902,364.3205],[-60.3806,-14.3887,377.4034],[-60.3825,-14.3676,357.5405],[-60.3853,-14.3655,364.2289],[-60.3909,-14.3658,354.6559],[-60.3942,-14.3563,336.951],[-60.398,-14.3555,351.6373],[-60.4025,-14.3503,360.9813],[-60.4111,-14.3455,345.1307],[-60.4198,-14.3283,350.5836],[-60.4245,-14.3247,352.5539],[-60.4312,-14.3232,347.8795],[-60.4433,-14.3163,318.6649],[-60.4473,-14.3051,338.946],[-60.4489,-14.2908,340.2971],[-60.4533,-14.2811,343.6294],[-60.4546,-14.2738,326.7891],[-60.4604,-14.2637,322.5092],[-60.46,-14.2526,334.8716],[-60.4511,-14.2431,321.8456],[-60.4508,-14.2383,318.8171],[-60.4525,-14.2351,317.0462],[-60.4589,-14.2314,316.3667],[-60.4611,-14.2281,315.8006],[-60.4633,-14.2182,343.6837],[-60.4646,-14.1969,376.9782],[-60.467,-14.1875,391.6181],[-60.4722,-14.1846,354.8804],[-60.4813,-14.1845,324.1039],[-60.4821,-14.1824,332.7466],[-60.4821,-14.1742,347.3267],[-60.4745,-14.1569,326.3244],[-60.4718,-14.1458,363.96],[-60.4704,-14.1308,325.0753],[-60.4723,-14.1104,319.7289],[-60.4666,-14.0964,315.8362],[-60.4477,-14.0799,195.7408],[-60.4332,-14.063,198.3578],[-60.4266,-14.0474,205.4177],[-60.4115,-14.027,203.0333],[-60.4061,-14.0093,209.0613],[-60.4073,-13.9896,203.335],[-60.4109,-13.9836,182.2376],[-60.4277,-13.9673,195.4451],[-60.4421,-13.9343,185.8104],[-60.4448,-13.9154,190.6702],[-60.4423,-13.9048,185.9115],[-60.4438,-13.8898,180.5038],[-60.4467,-13.8847,179.1808],[-60.4517,-13.8847,186.9872],[-60.4535,-13.8824,181.899],[-60.4501,-13.8676,177.8158],[-60.4507,-13.857,187.4891],[-60.4586,-13.8544,179.1947],[-60.4696,-13.8541,185.3473],[-60.472,-13.8517,183.5433],[-60.4708,-13.8473,183.9159],[-60.4676,-13.8436,187.5556],[-60.467,-13.8378,186.3661],[-60.4678,-13.8361,182.3194],[-60.4723,-13.8351,177.2404],[-60.4737,-13.8328,182.2751],[-60.4699,-13.8302,185.6501],[-60.4666,-13.8302,181.3269],[-60.4622,-13.8237,187.6036],[-60.4624,-13.8119,184.0202],[-60.4593,-13.8041,187.7611],[-60.4606,-13.7993,184.8946],[-60.466,-13.7969,175.7838],[-60.4864,-13.7953,174.9412],[-60.5003,-13.7897,180.9291],[-60.5036,-13.7933,181.9345],[-60.5043,-13.7969,186.4658],[-60.5104,-13.7933,188.5575],[-60.5214,-13.7956,186.1966],[-60.5285,-13.7947,181.5609],[-60.528,-13.7913,175.8601],[-60.5212,-13.7854,176.1321],[-60.5185,-13.7798,181.6665],[-60.5183,-13.7737,172.5],[-60.521,-13.7709,175.5134],[-60.5255,-13.7703,177.3825],[-60.5323,-13.7726,176.7742],[-60.5464,-13.7693,177.421],[-60.5489,-13.7726,178.44],[-60.5463,-13.7823,173.8672],[-60.5514,-13.7817,182.8012],[-60.559,-13.7709,179.6549],[-60.5708,-13.7686,180.4181],[-60.567,-13.7624,172.0071],[-60.567,-13.7595,181.2072],[-60.5764,-13.7588,180.7708],[-60.5791,-13.7572,182.1246],[-60.5757,-13.7513,173.1125],[-60.5765,-13.7464,178.2014],[-60.5869,-13.7477,177.2788],[-60.5893,-13.743,176.2079],[-60.5916,-13.7428,173.9042],[-60.5982,-13.7474,174.5436],[-60.6063,-13.7476,173.0256],[-60.606,-13.7361,172.8993],[-60.6082,-13.7361,178.0607],[-60.6102,-13.7392,171.7175],[-60.6115,-13.7384,171.7175],[-60.6094,-13.7271,175.3261],[-60.6124,-13.7246,181.48],[-60.6191,-13.7244,174.0492],[-60.6209,-13.717,173.9106],[-60.6256,-13.7191,172.9237],[-60.6302,-13.725,171.5829],[-60.6396,-13.7255,175.8464],[-60.6429,-13.7334,173.5244],[-60.6458,-13.7357,176.5438],[-60.6498,-13.7338,169.0],[-60.6518,-13.7282,171.6606],[-60.6547,-13.7283,171.8324],[-60.6563,-13.7353,170.7835],[-60.6713,-13.7222,177.3844],[-60.6783,-13.7196,171.0192],[-60.6833,-13.7155,168.5],[-60.6864,-13.71,171.1347],[-60.6882,-13.6983,175.3345],[-60.6904,-13.6962,173.8189],[-60.6957,-13.6978,176.8185],[-60.6937,-13.7106,168.0],[-60.6944,-13.7134,168.0],[-60.6958,-13.7136,168.0],[-60.7049,-13.7013,175.2305],[-60.7069,-13.6913,173.1158],[-60.7087,-13.6899,168.0],[-60.7198,-13.6907,176.4814],[-60.7404,-13.6826,170.0636],[-60.7557,-13.6871,172.5947],[-60.7634,-13.6862,168.0],[-60.7714,-13.6795,169.1412],[-60.7696,-13.667,168.0],[-60.7735,-13.6605,172.0312],[-60.7822,-13.6582,170.1001],[-60.7878,-13.6548,172.0175],[-60.8019,-13.6563,168.0],[-60.8104,-13.6542,170.8241],[-60.8133,-13.6503,168.7214],[-60.8131,-13.646,170.4043],[-60.8161,-13.6414,172.0076],[-60.8165,-13.637,173.3173],[-60.8231,-13.6303,176.7138],[-60.838,-13.626,167.8893],[-60.8496,-13.6324,173.2086],[-60.8607,-13.6247,166.5],[-60.8778,-13.6192,167.9571],[-60.8803,-13.617,167.8672],[-60.8898,-13.5981,170.023],[-60.9029,-13.5904,166.5],[-60.9103,-13.5838,170.2013],[-60.9234,-13.5665,166.5],[-60.9251,-13.5555,175.515],[-60.9239,-13.5526,166.5],[-60.9178,-13.5475,168.8631],[-60.9187,-13.5425,168.7327],[-60.9296,-13.5383,170.5292],[-60.933,-13.5387,173.3723],[-60.9466,-13.5505,166.5],[-60.9568,-13.5512,171.511],[-60.9608,-13.5489,171.3258],[-60.9651,-13.5367,166.5],[-60.9722,-13.5348,166.9016],[-60.9787,-13.5394,171.6561],[-60.9867,-13.5366,173.9004],[-60.9881,-13.5392,167.7803],[-60.9858,-13.5441,166.6024],[-60.9876,-13.546,169.1659],[-60.9963,-13.5481,171.7828],[-61.0018,-13.5522,165.5584],[-61.0069,-13.5513,168.6272],[-61.0083,-13.549,170.0329],[-61.0075,-13.544,165.0],[-61.009,-13.5368,166.475],[-61.0125,-13.53,167.6461],[-61.0121,-13.5257,168.1895],[-61.0069,-13.5256,169.7235],[-61.0017,-13.5326,168.707],[-60.9997,-13.5309,166.1446],[-60.9997,-13.5274,169.8785],[-61.0097,-13.516,165.0],[-61.0107,-13.5092,165.6055],[-61.0063,-13.5023,167.1983],[-60.998,-13.5018,168.2123],[-60.9934,-13.505,166.3472],[-60.9907,-13.5041,167.579],[-60.9893,-13.5015,168.4251],[-60.9899,-13.4929,180.8327],[-60.9948,-13.4891,172.7384],[-61.0119,-13.4849,177.6942],[-61.0244,-13.4796,171.4963],[-61.0427,-13.4758,171.0767],[-61.0471,-13.4762,172.2069],[-61.0532,-13.4805,169.2818],[-61.0548,-13.4874,179.4442],[-61.0536,-13.4906,165.1834],[-61.0394,-13.4996,171.8961],[-61.039,-13.5049,167.7318],[-61.041,-13.507,165.7738],[-61.0545,-13.512,164.0],[-61.0581,-13.5118,164.0],[-61.0609,-13.5099,165.6843],[-61.0629,-13.503,163.5],[-61.0657,-13.5002,166.4164],[-61.0821,-13.4985,170.6944],[-61.0879,-13.5001,178.2402],[-61.0894,-13.4938,178.3282],[-61.0915,-13.4929,168.4807],[-61.0937,-13.495,175.9849],[-61.096,-13.5049,165.3463],[-61.0987,-13.5095,164.5746],[-61.106,-13.5155,172.4485],[-61.1057,-13.5215,163.5],[-61.1025,-13.5237,163.5],[-61.1058,-13.531,167.2587],[-61.1142,-13.528,171.365],[-61.1237,-13.5201,162.5],[-61.1305,-13.5214,162.0],[-61.1368,-13.5289,168.288],[-61.1399,-13.5283,162.9073],[-61.1413,-13.5227,170.1649],[-61.1393,-13.5136,167.8992],[-61.1427,-13.5118,162.408],[-61.1462,-13.5139,161.5],[-61.1474,-13.5175,166.7366],[-61.1452,-13.5298,167.7004],[-61.1501,-13.531,166.5343],[-61.1528,-13.5281,163.7324],[-61.1545,-13.5211,163.7633],[-61.1578,-13.5166,165.3026],[-61.1723,-13.5107,161.5],[-61.179,-13.5151,163.1107],[-61.1822,-13.5153,161.5],[-61.1835,-13.5134,162.4977],[-61.182,-13.5094,168.1001],[-61.1832,-13.506,165.9435],[-61.1858,-13.507,162.2662],[-61.1871,-13.5118,161.5],[-61.1907,-13.5159,174.4894],[-61.1899,-13.5196,166.1641],[-61.1843,-13.5237,165.3655],[-61.1843,-13.5267,169.6977],[-61.1935,-13.5355,163.2648],[-61.2002,-13.5329,163.3678],[-61.2091,-13.5246,161.5],[-61.2209,-13.5299,166.7256],[-61.2252,-13.5302,179.4222],[-61.2354,-13.5256,175.1255],[-61.2383,-13.5173,163.2266],[-61.2451,-13.5139,162.8171],[-61.2423,-13.5036,171.4395],[-61.2433,-13.4997,164.7716],[-61.2606,-13.4941,175.0844],[-61.2695,-13.4986,171.0535],[-61.2752,-13.505,164.0249],[-61.2793,-13.5048,165.7592],[-61.2854,-13.5018,162.2358],[-61.289,-13.4972,164.9903],[-61.2934,-13.4969,172.7884],[-61.2997,-13.4997,166.635],[-61.3001,-13.5044,170.2318],[-61.3021,-13.5066,167.0899],[-61.312,-13.503,160.0],[-61.3352,-13.5045,161.7697],[-61.3407,-13.5101,162.1206],[-61.3407,-13.5169,161.6653],[-61.353,-13.5212,167.5416],[-61.3812,-13.5192,162.6408],[-61.3913,-13.5199,159.5],[-61.3988,-13.5224,160.8933],[-61.404,-13.5261,159.5],[-61.4036,-13.538,159.5],[-61.4103,-13.5377,163.3481],[-61.4392,-13.5466,159.5],[-61.449,-13.5471,165.7716],[-61.4695,-13.5546,170.0594],[-61.4768,-13.5543,162.4774],[-61.4906,-13.5479,159.0],[-61.5069,-13.5489,159.0],[-61.5136,-13.5437,159.7291],[-61.518,-13.533,158.875],[-61.5279,-13.5298,158.5],[-62.1392,-13.7624,234.4599]]]]}}