{"type": "Feature","bbox": [-68.8412,-19.1702,-68.5674,-18.8292],"geometry": {"type": "MultiPolygon","coordinates": [[[[-68.5916,-18.9926,4166.209],[-68.5867,-18.9806,4105.5542],[-68.5822,-18.9766,4139.5161],[-68.5735,-18.9748,4183.7852],[-68.5714,-18.9719,4224.2559],[-68.5748,-18.962,4184.8125],[-68.5697,-18.9504,4126.6997],[-68.5769,-18.9421,4324.293],[-68.5677,-18.9321,4352.3506],[-68.5674,-18.9256,4330.6172],[-68.5689,-18.9191,4359.8164],[-68.568,-18.9165,4395.1572],[-68.5757,-18.9112,4403.4365],[-68.5837,-18.9017,4325.6885],[-68.5829,-18.8965,4414.3882],[-68.5781,-18.8929,4412.4023],[-68.5773,-18.8872,4364.1553],[-68.5808,-18.8732,4230.4551],[-68.5799,-18.8661,4187.8213],[-68.5905,-18.8556,4055.5669],[-68.5932,-18.8487,3837.1328],[-68.5991,-18.8476,3815.1941],[-68.6052,-18.8552,3825.0352],[-68.6078,-18.8628,3834.217],[-68.6206,-18.8537,3987.8647],[-68.6325,-18.8614,3896.865],[-68.6399,-18.8611,3933.9194],[-68.65,-18.8642,4135.6812],[-68.6539,-18.8622,4211.8555],[-68.6558,-18.8583,4222.8501],[-68.6543,-18.8495,4308.5469],[-68.6556,-18.8406,4293.6812],[-68.658,-18.8356,4302.25],[-68.6611,-18.8326,4414.3228],[-68.6799,-18.8323,4228.6831],[-68.684,-18.8292,4160.3657],[-68.7172,-18.8439,4264.8745],[-68.73,-18.8545,4348.8613],[-68.7406,-18.8608,4424.0273],[-68.7425,-18.8656,4343.9199],[-68.7505,-18.8723,4451.7949],[-68.7617,-18.8746,4657.8618],[-68.7641,-18.8731,4667.8623],[-68.7715,-18.873,4759.3555],[-68.7744,-18.8692,4782.4238],[-68.776,-18.8692,4800.7402],[-68.7819,-18.8735,4980.439],[-68.7902,-18.8717,4974.2534],[-68.797,-18.8743,4883.7334],[-68.805,-18.8719,4956.2251],[-68.8084,-18.874,4918.6543],[-68.8125,-18.8721,5015.5347],[-68.8143,-18.8743,5112.4512],[-68.8265,-18.8737,5189.3633],[-68.8316,-18.8757,5247.6177],[-68.8333,-18.8824,5146.5381],[-68.8224,-18.8945,5011.9336],[-68.8198,-18.9003,5259.2754],[-68.8161,-18.8939,5109.6377],[-68.8106,-18.889,5106.1797],[-68.788,-18.9004,4957.3389],[-68.7766,-18.8959,4728.4648],[-68.7718,-18.8958,4686.9512],[-68.7595,-18.9002,4644.2769],[-68.7325,-18.9028,4587.2959],[-68.7302,-18.9083,4489.8657],[-68.7188,-18.9212,4263.1079],[-68.7047,-18.9256,4180.8745],[-68.7026,-18.9299,4161.7969],[-68.7024,-18.9394,4183.4321],[-68.6995,-18.947,4340.4111],[-68.6876,-18.9561,4525.5449],[-68.687,-18.9742,4268.5454],[-68.6905,-18.9732,4251.5132],[-68.6934,-18.9694,4190.7754],[-68.6996,-18.9655,4102.3564],[-68.7031,-18.9653,4092.3657],[-68.7081,-18.9615,4047.9729],[-68.7164,-18.9587,4129.1777],[-68.735,-18.9636,4163.8467],[-68.7439,-18.9597,4269.3721],[-68.7529,-18.9508,4563.7212],[-68.7629,-18.9483,4470.0547],[-68.7651,-18.9439,4554.0464],[-68.7722,-18.9407,4572.6299],[-68.7896,-18.9459,4643.6914],[-68.79,-18.9585,4380.6191],[-68.7871,-18.9637,4258.0205],[-68.7982,-18.9682,4280.6406],[-68.7955,-18.9753,4260.7441],[-68.7897,-18.9782,4244.4771],[-68.7884,-18.981,4245.6865],[-68.7946,-19.008,4398.1484],[-68.7992,-19.0116,4472.4863],[-68.8038,-19.0089,4638.5151],[-68.8068,-19.0102,4677.1787],[-68.8136,-19.0073,4791.5615],[-68.7999,-18.9721,4290.2129],[-68.8008,-18.9687,4281.1909],[-68.816,-18.9633,4353.6729],[-68.8396,-18.9603,4427.7285],[-68.8412,-18.9857,4981.9492],[-68.8271,-19.0191,4715.6538],[-68.8221,-19.0357,4532.3818],[-68.8262,-19.0524,4181.3169],[-68.8246,-19.0542,4152.939],[-68.8165,-19.0549,4169.1221],[-68.806,-19.0836,4436.7891],[-68.7814,-19.1083,4682.6089],[-68.7509,-19.133,4476.1953],[-68.7364,-19.1556,4654.6982],[-68.7131,-19.1702,4755.8169],[-68.6981,-19.1461,5833.6802],[-68.6898,-19.1463,5550.3906],[-68.6689,-19.1404,5442.4629],[-68.6506,-19.1439,5450.894],[-68.6382,-19.1442,5429.7959],[-68.6348,-19.1374,5419.0605],[-68.6269,-19.1316,5263.147],[-68.6178,-19.1308,5457.0264],[-68.6197,-19.1216,5140.1709],[-68.6028,-19.0547,3939.6626],[-68.5957,-19.0553,3999.5234],[-68.5991,-19.0495,3831.8384],[-68.5973,-19.0298,3802.4409],[-68.5915,-19.0149,3894.3853],[-68.5975,-19.0039,4295.7822],[-68.5966,-18.9963,4286.2686],[-68.5916,-18.9926,4166.209]]]]}
,"properties": {"GID_2": "BOL.5.6_2","GID_0": "BOL","country": "Bolivia","GID_1": "BOL.5_1","province": "Oruro","NL_NAME_1": "NA","county": "Mejillones","VARNAME_2": "NA","NL_NAME_2": "NA","TYPE_2": "Provincia","ENGTYPE_2": "Province","CC_2": "NA","HASC_2": "NA","name": "Mejillones.county","area_km2": 667.4227,"hist_schema_id": "Elevation0-9000","hist_area_km2": {"3800": 2.6659,"3825": 10.4449,"3850": 16.6005,"3875": 21.4139,"3900": 23.3579,"3925": 19.5683,"3950": 19.0674,"3975": 18.1255,"4000": 15.5594,"4025": 17.0634,"4050": 18.6489,"4075": 23.4822,"4100": 24.4636,"4125": 26.2673,"4150": 29.8555,"4175": 28.6129,"4200": 29.0737,"4225": 25.2234,"4250": 22.9163,"4275": 18.7459,"4300": 15.8185,"4325": 13.1919,"4350": 12.0889,"4375": 10.6252,"4400": 9.6224,"4425": 8.8802,"4450": 10.6441,"4475": 12.8882,"4500": 11.9062,"4525": 10.4428,"4550": 8.8195,"4575": 8.4782,"4600": 8.7581,"4625": 8.4574,"4650": 7.9761,"4675": 7.4347,"4700": 7.5546,"4725": 7.6949,"4750": 7.6144,"4775": 7.3139,"4800": 6.3321,"4825": 6.4926,"4850": 5.4708,"4875": 4.5691,"4900": 4.3886,"4925": 3.5672,"4950": 3.6676,"4975": 3.3468,"5000": 2.7455,"5025": 2.2845,"5050": 1.9639,"5075": 1.7032,"5100": 1.6232,"5125": 1.4829,"5150": 1.3825,"5175": 1.122,"5200": 0.7815,"5225": 0.8815,"5250": 0.8214,"5275": 0.6811,"5300": 0.601,"5325": 0.4207,"5350": 0.4607,"5375": 0.5209,"5400": 0.3205,"5425": 0.4808,"5450": 0.2804,"5475": 0.2404,"5500": 0.3205,"5525": 0.2003,"5550": 0.2404,"5575": 0.0801,"5600": 0.0601,"5625": 0.1001,"5650": 0.0601,"5675": 0.1202,"5700": 0.0801,"5750": 0.0601,"5775": 0.0401,"5800": 0.0401,"5825": 0.02}}}