{"type":"Feature","properties":{"GID_2":"BOL.5.4_2","GID_0":"BOL","country":"Bolivia","GID_1":"BOL.5_1","province":"Oruro","NL_NAME_1":"NA","county":"LadislaoCabrera","VARNAME_2":"NA","NL_NAME_2":"NA","TYPE_2":"Provincia","ENGTYPE_2":"Province","CC_2":"NA","HASC_2":"NA","name":"Ladislao_Cabrera.county"},
"geometry":{"type": "MultiPolygon","coordinates": [[[[-67.5291,-19.8602,3662.7734],[-67.5306,-19.8601,3653.5],[-67.5295,-19.8602,3662.7734],[-67.5318,-19.8651,3653.5],[-67.531,-19.8667,3653.5],[-67.5292,-19.8622,3680.8408],[-67.5253,-19.8614,3653.5],[-67.5291,-19.8602,3662.7734]]],
[[[-67.213,-19.4445,3856.3269],[-67.2111,-19.4462,3847.2566],[-67.1923,-19.4496,3827.4937],[-67.1806,-19.4448,3794.7625],[-67.1727,-19.4435,3802.9673],[-67.162,-19.4386,3898.1399],[-67.1434,-19.4204,3837.8079],[-67.1097,-19.412,3741.8657],[-67.1058,-19.4064,3734.0588],[-67.1013,-19.3948,3724.3088],[-67.0892,-19.3756,3726.9185],[-67.0855,-19.3582,3725.334],[-67.0808,-19.356,3725.4141],[-67.0746,-19.3603,3724.074],[-67.0672,-19.3727,3725.7864],[-67.0637,-19.3744,3727.335],[-67.0595,-19.3741,3726.5615],[-67.0586,-19.3709,3726.5405],[-67.0551,-19.3697,3726.781],[-67.0506,-19.3778,3728.0112],[-67.0442,-19.3809,3729.0371],[-67.0416,-19.3808,3728.9419],[-67.0352,-19.3738,3738.2271],[-67.0261,-19.3698,3959.1963],[-67.0188,-19.3688,3755.3005],[-67.0131,-19.3708,3745.6729],[-67.0025,-19.3793,3726.5977],[-67.0012,-19.3681,3733.6431],[-66.9907,-19.3552,3723.2024],[-66.9874,-19.3442,3719.4878],[-66.9884,-19.3416,3718.8953],[-66.9943,-19.3372,3718.603],[-66.9931,-19.3314,3717.5923],[-66.9947,-19.3253,3715.5498],[-66.9925,-19.3196,3717.1746],[-66.9929,-19.3049,3714.3738],[-66.9894,-19.2947,3711.4238],[-66.989,-19.2871,3709.9514],[-66.9922,-19.2812,3708.8833],[-67.0016,-19.2759,3706.9629],[-67.0152,-19.263,3702.7266],[-67.0157,-19.2585,3701.8896],[-67.0086,-19.2527,3702.6177],[-67.0094,-19.2451,3700.6018],[-67.0143,-19.2365,3699.2048],[-67.0084,-19.2269,3695.7764],[-67.0139,-19.2168,3694.3127],[-67.0137,-19.1954,3690.8367],[-67.0161,-19.1963,3691.2188],[-67.0171,-19.1949,3690.7495],[-67.0153,-19.1842,3689.032],[-67.0197,-19.1862,3689.8896],[-67.0225,-19.1898,3690.7061],[-67.0249,-19.1903,3690.6787],[-67.0254,-19.1885,3690.5701],[-67.015,-19.1749,3687.8882],[-67.0149,-19.1725,3687.5874],[-67.0171,-19.172,3687.6123],[-66.9744,-19.0949,3685.5],[-66.9751,-19.0556,3685.5],[-67.0599,-19.0585,3685.5],[-67.0598,-19.0658,3685.5],[-67.053,-19.0738,3685.5],[-67.0504,-19.0796,3685.5],[-67.0531,-19.0903,3685.5],[-67.0727,-19.0903,3685.5],[-67.0975,-19.0735,3685.7939],[-67.1135,-19.0726,3685.5],[-67.1277,-19.0748,3690.1196],[-67.1394,-19.0832,3688.9568],[-67.1609,-19.0859,3699.9929],[-67.1632,-19.0846,3700.3491],[-67.1648,-19.0805,3699.2534],[-67.1842,-19.0945,3712.2222],[-67.1889,-19.0912,3715.7212],[-67.2187,-19.0862,3720.4143],[-67.2285,-19.0931,3724.4094],[-67.2651,-19.1011,3711.6707],[-67.276,-19.0999,3714.0024],[-67.2852,-19.1054,3685.5044],[-67.295,-19.0978,3683.9204],[-67.2973,-19.0976,3683.6367],[-67.3008,-19.0902,3682.6094],[-67.3086,-19.0818,3681.5],[-67.3362,-19.0765,3684.4058],[-67.3459,-19.0722,3681.3447],[-67.3531,-19.066,3682.1843],[-67.3579,-19.0643,3681.0581],[-67.3755,-19.0633,3681.2188],[-67.3883,-19.0593,3681.6987],[-67.3961,-19.0609,3681.8184],[-67.401,-19.0602,3681.3179],[-67.409,-19.0568,3682.3613],[-67.4126,-19.0534,3680.4685],[-67.4211,-19.0561,3680.3472],[-67.427,-19.0555,3680.5483],[-67.433,-19.0578,3680.5547],[-67.4438,-19.0578,3678.25],[-67.4544,-19.0631,3681.4448],[-67.4622,-19.0619,3680.3691],[-67.4655,-19.0641,3680.9841],[-67.476,-19.0611,3679.437],[-67.4797,-19.058,3679.4995],[-67.4849,-19.0565,3679.53],[-67.4939,-19.0567,3678.6716],[-67.5094,-19.0632,3677.4199],[-67.5182,-19.0577,3677.113],[-67.5288,-19.0553,3677.1255],[-67.536,-19.0573,3677.0229],[-67.5402,-19.0546,3676.9341],[-67.5536,-19.0598,3676.8469],[-67.5615,-19.0661,3675.8962],[-67.5694,-19.068,3675.813],[-67.5744,-19.073,3675.8862],[-67.5788,-19.074,3675.2546],[-67.589,-19.09,3674.6299],[-67.5978,-19.0933,3675.2561],[-67.6186,-19.0956,3676.0708],[-67.6322,-19.0846,3674.187],[-67.6389,-19.0703,3673.5498],[-67.6414,-19.0695,3673.4678],[-67.6457,-19.0713,3675.9263],[-67.65,-19.0689,3672.9578],[-67.6592,-19.0714,3673.8545],[-67.666,-19.0842,3672.4778],[-67.6713,-19.0832,3673.0574],[-67.6745,-19.085,3672.707],[-67.6748,-19.091,3671.989],[-67.6773,-19.0934,3671.8394],[-67.6838,-19.0931,3672.9636],[-67.6961,-19.1031,3672.2683],[-67.7052,-19.1042,3672.5898],[-67.7307,-19.0968,3674.2639],[-67.7454,-19.0878,3671.5796],[-67.753,-19.0712,3671.6826],[-67.7716,-19.0721,3668.5256],[-67.7863,-19.0778,3667.5347],[-67.7961,-19.0778,3666.9548],[-67.8013,-19.0751,3666.5259],[-67.8065,-19.0697,3667.2856],[-67.8107,-19.0682,3665.314],[-67.813,-19.0679,3665.0779],[-67.8179,-19.0712,3665.2019],[-67.8222,-19.0698,3665.1357],[-67.8256,-19.0716,3665.4658],[-67.8391,-19.0694,3665.1567],[-67.8556,-19.0549,3666.2966],[-67.8653,-19.0537,3666.5317],[-67.8697,-19.0583,3666.2417],[-67.8722,-19.0587,3665.9224],[-67.8764,-19.0547,3666.3828],[-67.8741,-19.0515,3666.4551],[-67.875,-19.0501,3666.9287],[-67.8801,-19.0501,3666.8037],[-67.8935,-19.0573,3664.8237],[-67.9139,-19.0716,3664.9558],[-67.9226,-19.0935,3662.7051],[-67.9539,-19.1076,3661.5356],[-67.9602,-19.1076,3661.3076],[-67.9645,-19.1119,3661.082],[-67.97,-19.1106,3660.9871],[-67.9821,-19.119,3660.5352],[-67.9934,-19.1226,3660.2676],[-68.0,-19.1211,3660.0388],[-68.0096,-19.1265,3659.7283],[-68.0216,-19.1217,3659.45],[-68.0286,-19.123,3659.3022],[-68.0308,-19.1246,3659.1377],[-68.031,-19.1281,3659.1396],[-68.0352,-19.1357,3659.1108],[-68.0422,-19.1406,3659.0767],[-68.0394,-19.1427,3658.9778],[-68.0384,-19.1471,3658.854],[-68.0317,-19.1496,3657.7959],[-68.0351,-19.1523,3658.9893],[-68.0347,-19.1538,3658.9387],[-68.0252,-19.1554,3659.1077],[-68.0241,-19.1603,3656.5],[-68.0214,-19.1629,3656.8782],[-68.0204,-19.1704,3656.5],[-68.0156,-19.1775,3656.5],[-68.0042,-19.1847,3656.5],[-68.0025,-19.19,3656.5],[-67.9994,-19.193,3656.5],[-67.994,-19.19,3656.5],[-67.9977,-19.1971,3656.5],[-67.993,-19.1957,3656.5],[-68.0011,-19.2148,3656.5],[-68.002,-19.2211,3656.5],[-68.0054,-19.2267,3656.5],[-68.0068,-19.2396,3656.5],[-68.0037,-19.2471,3656.5],[-68.0008,-19.2503,3656.5],[-68.0025,-19.2567,3656.5],[-68.0009,-19.2653,3656.5],[-68.002,-19.2709,3656.5],[-68.001,-19.2846,3656.5],[-68.0031,-19.2904,3656.5],[-68.008,-19.2955,3656.5],[-68.0016,-19.3002,3656.5],[-68.0036,-19.5229,3656.5],[-68.0057,-19.5225,3656.5],[-68.0201,-19.5278,3656.5],[-68.0258,-19.5279,3656.8037],[-68.0263,-19.5293,3656.9888],[-68.0216,-19.5307,3656.5],[-68.0241,-19.5342,3656.5],[-68.046,-19.5368,3656.9185],[-68.0568,-19.5402,3656.5],[-68.0637,-19.5483,3656.5],[-68.0668,-19.5547,3656.5],[-68.0724,-19.5599,3656.5],[-68.0749,-19.5599,3656.5],[-68.0758,-19.5628,3656.5],[-68.0881,-19.5764,3657.0059],[-68.0785,-19.5876,3700.4194],[-68.0602,-19.5958,3892.6421],[-68.0539,-19.61,4321.8711],[-68.0422,-19.6184,4784.0371],[-68.0319,-19.6223,4978.0234],[-67.9895,-19.687,3933.1313],[-67.9714,-19.7079,4346.4966],[-67.9597,-19.7262,4165.3418],[-67.9595,-19.7294,4197.665],[-67.9353,-19.7338,4191.5771],[-67.9144,-19.7431,3981.8623],[-67.8994,-19.7571,3787.0327],[-67.8764,-19.7619,3672.2219],[-67.8605,-19.7725,3896.0295],[-67.8456,-19.7965,3815.0933],[-67.8217,-19.8096,3814.5125],[-67.803,-19.8111,3778.2236],[-67.7859,-19.808,3790.4961],[-67.7586,-19.8059,3714.6599],[-67.7582,-19.8092,3714.519],[-67.7603,-19.8123,3680.9216],[-67.7519,-19.8132,3685.5161],[-67.7435,-19.8229,3740.7153],[-67.7384,-19.826,3733.9333],[-67.7382,-19.8303,3727.7422],[-67.7339,-19.8316,3726.2046],[-67.7299,-19.8284,3728.6616],[-67.7205,-19.8267,3747.3652],[-67.7145,-19.812,3783.8469],[-67.6775,-19.8305,4437.1958],[-67.6644,-19.8386,4692.5557],[-67.6462,-19.8421,5107.5322],[-67.6352,-19.8465,4785.458],[-67.6147,-19.8603,4197.208],[-67.6048,-19.8644,4109.9365],[-67.5991,-19.8716,3909.1155],[-67.5809,-19.8746,3683.3804],[-67.573,-19.8813,3656.635],[-67.5713,-19.8867,3653.7332],[-67.5672,-19.8853,3653.5],[-67.5632,-19.8717,3655.3845],[-67.5594,-19.8658,3654.8872],[-67.5567,-19.8646,3653.5],[-67.5445,-19.8648,3653.5],[-67.5403,-19.8552,3657.0896],[-67.5376,-19.8524,3664.4971],[-67.5333,-19.8484,3654.7566],[-67.5277,-19.8489,3653.5],[-67.5304,-19.8409,3657.1309],[-67.5287,-19.8371,3671.8479],[-67.5195,-19.8335,3653.5],[-67.5204,-19.8291,3655.3503],[-67.5234,-19.8336,3657.4722],[-67.529,-19.8336,3656.4297],[-67.5311,-19.8302,3657.6421],[-67.5296,-19.8286,3653.5],[-67.5363,-19.8255,3660.293],[-67.5437,-19.8184,3654.5364],[-67.5474,-19.8048,3654.9097],[-67.5356,-19.794,3653.5],[-67.5345,-19.7898,3654.5657],[-67.5375,-19.7872,3670.0029],[-67.5378,-19.782,3653.5],[-67.5399,-19.7851,3668.3281],[-67.5424,-19.7856,3659.0605],[-67.5467,-19.7811,3653.5],[-67.5496,-19.7807,3654.1072],[-67.5468,-19.7864,3653.5],[-67.5531,-19.7846,3654.6174],[-67.5554,-19.7824,3653.5],[-67.556,-19.7854,3655.0625],[-67.5596,-19.7788,3653.8667],[-67.5631,-19.7768,3655.7068],[-67.5609,-19.7772,3653.842],[-67.5573,-19.7742,3653.5],[-67.5594,-19.7734,3653.5],[-67.5569,-19.7715,3653.5],[-67.5677,-19.7643,3655.0105],[-67.5661,-19.7627,3654.9888],[-67.566,-19.7572,3654.8167],[-67.5685,-19.7524,3654.895],[-67.5678,-19.7468,3654.8423],[-67.5712,-19.7387,3654.9583],[-67.5717,-19.7279,3654.8735],[-67.5623,-19.7152,3654.9771],[-67.56,-19.7167,3654.8672],[-67.5474,-19.7135,3655.0459],[-67.5403,-19.7143,3654.9653],[-67.5398,-19.7127,3655.0371],[-67.5387,-19.7147,3654.96],[-67.5325,-19.7166,3654.9397],[-67.5217,-19.7166,3654.9756],[-67.5144,-19.7139,3654.9536],[-67.5018,-19.7121,3655.0425],[-67.4844,-19.705,3655.1458],[-67.4697,-19.7032,3655.1897],[-67.4486,-19.7068,3655.335],[-67.4348,-19.7121,3655.3691],[-67.4265,-19.7115,3655.3306],[-67.4175,-19.7143,3655.2158],[-67.3806,-19.713,3655.2847],[-67.3471,-19.7223,3655.3711],[-67.3356,-19.7307,3655.4421],[-67.3286,-19.7395,3655.3481],[-67.322,-19.7435,3655.3384],[-67.3151,-19.7442,3655.4709],[-67.3106,-19.7479,3655.5186],[-67.3016,-19.7498,3655.5527],[-67.2994,-19.7544,3655.5969],[-67.291,-19.7594,3655.459],[-67.291,-19.7652,3655.3481],[-67.2739,-19.7489,3656.0078],[-67.265,-19.7261,3657.1475],[-67.2574,-19.7159,3658.02],[-67.2581,-19.7066,3658.6255],[-67.2566,-19.6993,3658.9851],[-67.243,-19.6911,3659.9353],[-67.2319,-19.6914,3661.0728],[-67.2265,-19.69,3661.9316],[-67.2139,-19.6818,3664.0496],[-67.2144,-19.6774,3664.9478],[-67.2132,-19.6779,3664.9478],[-67.2123,-19.6744,3667.5337],[-67.2101,-19.6749,3666.0876],[-67.2064,-19.6703,3667.0918],[-67.2072,-19.6581,3667.3718],[-67.2118,-19.6494,3667.2822],[-67.2126,-19.6426,3667.6836],[-67.2103,-19.6318,3667.7949],[-67.2071,-19.6292,3668.0171],[-67.2093,-19.6253,3668.1816],[-67.2081,-19.6171,3668.6284],[-67.2036,-19.6167,3668.7029],[-67.2029,-19.6153,3673.2466],[-67.2092,-19.6011,3669.9399],[-67.2317,-19.5843,3678.1433],[-67.2303,-19.5815,3682.0461],[-67.2321,-19.5784,3690.814],[-67.2305,-19.5734,3706.561],[-67.2309,-19.5672,3715.0649],[-67.2248,-19.5656,3694.395],[-67.2183,-19.5593,3680.9497],[-67.2187,-19.5543,3680.5981],[-67.2233,-19.5502,3682.4067],[-67.2298,-19.5362,3694.2056],[-67.2259,-19.5333,3690.4973],[-67.2307,-19.5245,3697.6152],[-67.2291,-19.514,3718.5312],[-67.2315,-19.5125,3713.2212],[-67.2326,-19.5088,3721.522],[-67.2369,-19.5071,3734.4619],[-67.2372,-19.5045,3776.1655],[-67.2349,-19.5039,3777.5906],[-67.2317,-19.498,3769.8823],[-67.2277,-19.4956,3755.7219],[-67.2254,-19.4911,3748.0735],[-67.2258,-19.4839,3742.4204],[-67.229,-19.4815,3740.333],[-67.2352,-19.4809,3737.4453],[-67.2437,-19.472,3734.1851],[-67.2563,-19.4638,3729.1482],[-67.2599,-19.455,3726.5083],[-67.2592,-19.4493,3725.1626],[-67.2622,-19.4486,3724.2368],[-67.2645,-19.4406,3723.6851],[-67.2672,-19.4391,3722.0967],[-67.2698,-19.4339,3721.5752],[-67.2677,-19.4286,3720.2925],[-67.2641,-19.4287,3725.7649],[-67.2344,-19.4363,3828.6143],[-67.2241,-19.4426,3864.3877],[-67.218,-19.4414,3872.5088],[-67.213,-19.4445,3856.3269]]]]}}