{"type": "Feature","bbox": [-67.9963,-12.4699,-67.0003,-11.3338],"geometry": {"type": "MultiPolygon","coordinates": [[[[-67.0003,-12.4699,150.7008],[-67.0004,-12.401,148.8239],[-67.0016,-12.4003,148.7068],[-67.0016,-11.3359,135.3129],[-67.03,-11.3338,133.5],[-67.0633,-11.3427,134.5],[-67.0733,-11.3424,134.5],[-67.0927,-11.3451,135.0],[-67.1132,-11.3436,136.0],[-67.1399,-11.3466,136.5],[-67.1548,-11.3463,137.0],[-67.1612,-11.3487,137.25],[-67.174,-11.3599,137.875],[-67.1881,-11.3686,138.125],[-67.2106,-11.4011,139.9124],[-67.2171,-11.4141,138.5],[-67.218,-11.4354,138.5],[-67.22,-11.4431,138.5],[-67.2272,-11.4595,138.5],[-67.2321,-11.4647,138.5],[-67.2438,-11.4728,138.5],[-67.2824,-11.4793,139.0],[-67.2988,-11.4853,139.0],[-67.3134,-11.496,139.0],[-67.3284,-11.5242,139.5],[-67.3393,-11.5367,139.5],[-67.3452,-11.539,139.5],[-67.3601,-11.5403,139.5],[-67.3971,-11.5374,140.0],[-67.4019,-11.5356,140.0],[-67.4048,-11.5323,143.1595],[-67.4074,-11.517,140.0],[-67.4107,-11.5154,141.7677],[-67.4247,-11.5161,140.0],[-67.4417,-11.5115,140.0],[-67.4516,-11.5053,156.4732],[-67.4556,-11.5005,140.25],[-67.4689,-11.4963,140.5],[-67.4918,-11.4972,141.0],[-67.4979,-11.4957,141.0],[-67.5157,-11.4741,142.0],[-67.5392,-11.4663,142.5],[-67.553,-11.4669,166.9379],[-67.5667,-11.4719,163.5621],[-67.5991,-11.4713,143.5],[-67.6178,-11.4757,144.0],[-67.6274,-11.48,144.5],[-67.6584,-11.5005,158.917],[-67.6681,-11.5126,168.8957],[-67.6744,-11.5469,148.0],[-67.6826,-11.5656,148.0],[-67.6801,-11.574,148.0],[-67.6717,-11.5829,148.0],[-67.6704,-11.5863,148.0],[-67.6716,-11.5912,148.0],[-67.6799,-11.5991,148.0],[-67.7008,-11.6063,148.0],[-67.7073,-11.6115,148.0],[-67.7167,-11.6294,148.5],[-67.7318,-11.6666,148.5],[-67.7399,-11.6769,149.0],[-67.7468,-11.6816,149.0],[-67.7884,-11.6985,164.6704],[-67.7959,-11.6978,149.5],[-67.8093,-11.6901,149.5],[-67.8239,-11.6845,152.5415],[-67.868,-11.6865,150.0],[-67.8819,-11.6889,150.5],[-67.8952,-11.6951,150.5],[-67.9157,-11.7134,150.5],[-67.918,-11.717,151.0],[-67.9146,-11.7384,151.0],[-67.9144,-11.7426,151.0],[-67.9165,-11.7481,151.0],[-67.92,-11.7523,151.0],[-67.9479,-11.7642,151.5],[-67.9588,-11.777,151.5],[-67.9695,-11.7938,151.5],[-67.9726,-11.8013,152.0],[-67.9749,-11.8102,156.5185],[-67.9746,-11.8179,152.0],[-67.9682,-11.8299,152.0],[-67.9634,-11.8333,152.0],[-67.9607,-11.838,152.0],[-67.9609,-11.8422,152.0],[-67.9638,-11.8459,152.0],[-67.9686,-11.8482,152.5],[-67.9765,-11.8497,152.5],[-67.9905,-11.8476,152.5],[-67.9948,-11.8479,152.5],[-67.9963,-11.8497,152.5],[-67.0003,-12.4699,150.7008]]]]}
,"properties": {"GID_3": "BOL.6.3.3_2","GID_0": "BOL","country": "Bolivia","GID_1": "BOL.6_1","province": "Pando","NL_NAME_1": "NA","GID_2": "BOL.6.3_2","county": "MadredeDios","NL_NAME_2": "NA","city": "Sena","VARNAME_3": "NA","NL_NAME_3": "NA","TYPE_3": "District","ENGTYPE_3": "Distrito","CC_3": "NA","HASC_3": "NA","name": "Sena.city","area_km2": 7573.765,"hist_schema_id": "Elevation0-9000","hist_area_km2": {"125": 9.874,"150": 995.083,"175": 2312.783,"200": 3616.328,"225": 639.697}}}