{"type": "Feature","bbox": [-66.2977,-18.6162,-65.3457,-17.9708],"geometry": {"type": "MultiPolygon","coordinates": [[[[-65.6941,-18.3527,1876.2859],[-65.6793,-18.3473,1865.9178],[-65.674,-18.3474,1861.8728],[-65.6663,-18.3609,1848.9136],[-65.6582,-18.366,1841.1074],[-65.6457,-18.3671,1832.8097],[-65.6384,-18.3697,1828.2726],[-65.6343,-18.3739,1823.8198],[-65.6256,-18.3753,1817.8438],[-65.5908,-18.3748,1792.6907],[-65.5831,-18.3787,1786.6925],[-65.5782,-18.3851,1781.3303],[-65.5648,-18.3916,1772.0913],[-65.5559,-18.4005,1770.1282],[-65.549,-18.4008,1784.5863],[-65.5465,-18.4046,1803.4011],[-65.5419,-18.4009,1781.771],[-65.5368,-18.3993,1785.2249],[-65.5348,-18.3921,1820.9993],[-65.5293,-18.3916,1814.7253],[-65.5238,-18.3948,1866.5345],[-65.5188,-18.3929,1834.2195],[-65.5128,-18.3875,1770.8781],[-65.507,-18.3867,1763.5132],[-65.4976,-18.3919,1740.0111],[-65.4893,-18.4,1756.2048],[-65.4784,-18.4007,1725.6926],[-65.4647,-18.3987,1715.8174],[-65.4623,-18.4004,1716.2626],[-65.4602,-18.4058,1722.7964],[-65.4547,-18.4104,1707.6897],[-65.4481,-18.4053,1757.4253],[-65.4412,-18.4038,1761.8611],[-65.4328,-18.4096,1813.7432],[-65.4245,-18.4103,1729.9344],[-65.4203,-18.4151,1703.6501],[-65.4106,-18.4199,1719.618],[-65.4039,-18.4201,1699.3375],[-65.3996,-18.4256,1677.8394],[-65.3859,-18.423,1711.8181],[-65.3804,-18.4279,1668.3032],[-65.3722,-18.4303,1671.2372],[-65.3661,-18.4356,1718.9506],[-65.3572,-18.4366,1726.9258],[-65.3548,-18.4339,1666.5388],[-65.3511,-18.4329,1670.8207],[-65.3493,-18.421,1673.272],[-65.3457,-18.4179,1647.2909],[-65.3512,-18.408,1659.9154],[-65.3736,-18.394,1684.6005],[-65.3789,-18.3877,1704.0751],[-65.4044,-18.3673,1693.5273],[-65.4201,-18.3625,1705.6411],[-65.4293,-18.3686,1696.4351],[-65.4394,-18.3651,1722.4659],[-65.4412,-18.3604,1768.9717],[-65.447,-18.3575,1703.0167],[-65.4486,-18.3539,1718.8066],[-65.4555,-18.3497,1717.7968],[-65.4575,-18.3453,1728.1353],[-65.4635,-18.3411,1710.02],[-65.4634,-18.3341,1714.0693],[-65.4713,-18.3253,1719.8892],[-65.475,-18.3147,1725.2544],[-65.4756,-18.3102,1733.2495],[-65.4729,-18.3047,1731.5],[-65.4792,-18.3019,1742.6536],[-65.4796,-18.2977,1756.9258],[-65.4771,-18.2944,1739.026],[-65.4785,-18.2932,1749.8292],[-65.4839,-18.2961,1759.8746],[-65.4883,-18.2916,1779.0781],[-65.4931,-18.2783,1832.5299],[-65.5012,-18.2689,1769.3945],[-65.5023,-18.2573,1768.9542],[-65.5154,-18.2522,1793.4277],[-65.5223,-18.2533,1824.6453],[-65.5268,-18.2454,1837.7555],[-65.5338,-18.2423,1823.3098],[-65.5355,-18.2467,1874.0958],[-65.5389,-18.2453,1819.754],[-65.5441,-18.2464,1798.1808],[-65.5495,-18.2376,1830.2416],[-65.5543,-18.2382,1896.2004],[-65.5613,-18.2342,1914.7911],[-65.5648,-18.2342,1924.8199],[-65.5716,-18.2225,1889.6047],[-65.5748,-18.2213,1879.1328],[-65.5789,-18.2156,1888.4664],[-65.5839,-18.2143,1870.7859],[-65.5846,-18.2079,1824.2145],[-65.5916,-18.2072,1821.4663],[-65.5937,-18.2058,1823.8125],[-65.594,-18.2036,1824.3665],[-65.5967,-18.2036,1824.3284],[-65.6001,-18.1879,1841.0876],[-65.6031,-18.185,1852.2755],[-65.6042,-18.1759,1891.7991],[-65.6126,-18.1696,1872.199],[-65.6142,-18.1657,2008.147],[-65.6226,-18.157,1904.1222],[-65.6322,-18.1521,1897.2158],[-65.6336,-18.1463,1871.5035],[-65.6392,-18.1422,1869.1184],[-65.638,-18.1374,1865.1315],[-65.6409,-18.1366,1867.458],[-65.6455,-18.1389,1880.9197],[-65.6506,-18.1391,1947.2206],[-65.6542,-18.1335,1898.0625],[-65.6612,-18.1316,1891.6643],[-65.6652,-18.1264,1889.385],[-65.6685,-18.1257,1891.979],[-65.6707,-18.1204,1891.8164],[-65.6763,-18.1201,1901.9227],[-65.6809,-18.1166,1906.0496],[-65.6841,-18.1126,1900.0573],[-65.6842,-18.1076,1901.295],[-65.6882,-18.0992,1905.3738],[-65.6934,-18.0942,1908.4607],[-65.6976,-18.0943,1911.1653],[-65.7042,-18.0887,1913.7141],[-65.7089,-18.0783,1913.8713],[-65.7151,-18.0755,1919.1627],[-65.724,-18.0681,1923.0206],[-65.728,-18.0675,1923.4707],[-65.7296,-18.0606,1926.4839],[-65.7332,-18.0612,1927.9329],[-65.7413,-18.0588,1934.375],[-65.7408,-18.0543,1933.3865],[-65.7441,-18.0497,1935.8832],[-65.752,-18.0487,1940.7924],[-65.7557,-18.0434,1942.5681],[-65.7644,-18.0413,1951.2451],[-65.7679,-18.0361,1967.9653],[-65.7722,-18.037,1952.4036],[-65.7834,-18.0319,2013.7516],[-65.7814,-18.0225,1964.0508],[-65.7869,-18.0199,2006.7192],[-65.7898,-18.0145,1969.5074],[-65.7963,-18.0138,1996.5332],[-65.8016,-18.0087,1976.4749],[-65.8065,-18.0105,1978.5853],[-65.8125,-18.0084,1990.9117],[-65.8159,-18.0022,1984.5845],[-65.8271,-17.9969,1992.2609],[-65.8303,-17.9877,2002.0541],[-65.8357,-17.9869,2005.7828],[-65.8366,-17.9846,2001.4932],[-65.8433,-17.9796,2007.1005],[-65.8451,-17.9742,2010.9956],[-65.8488,-17.974,2012.3884],[-65.8512,-17.9763,2034.8923],[-65.8528,-17.9744,2015.0649],[-65.8577,-17.975,2045.5967],[-65.8666,-17.9708,2043.25],[-65.8752,-17.9776,2038.002],[-65.8877,-17.9799,2044.1433],[-65.8879,-17.9831,2065.8711],[-65.8924,-17.9837,2047.8492],[-65.895,-17.9873,2079.978],[-65.9066,-17.9869,2068.0212],[-65.9125,-17.991,2063.384],[-65.9229,-17.994,2074.8027],[-65.9312,-18.0089,2624.9417],[-65.9352,-18.0246,2955.3975],[-65.9426,-18.0264,3219.0007],[-65.9446,-18.0287,3244.2236],[-65.9458,-18.0357,3298.0886],[-65.9521,-18.0419,3163.6108],[-65.9551,-18.0556,3387.0647],[-65.9512,-18.06,3313.196],[-65.9469,-18.0621,3403.1843],[-65.9415,-18.0724,3381.9541],[-65.9392,-18.092,3302.0168],[-65.9305,-18.0977,3588.9189],[-65.9301,-18.1015,3729.3511],[-65.926,-18.1049,3838.4966],[-65.907,-18.118,3710.5198],[-65.897,-18.1222,3499.4287],[-65.8986,-18.1318,3695.5146],[-65.9064,-18.1385,3860.2473],[-65.9153,-18.1543,3241.9934],[-65.9153,-18.1678,3189.8843],[-65.921,-18.1753,3113.6226],[-65.9311,-18.1723,3208.8682],[-65.9463,-18.1734,3384.7573],[-65.9516,-18.1696,3506.7388],[-65.9551,-18.1642,3756.9729],[-65.9802,-18.1579,3925.3613],[-65.9837,-18.1506,3982.3635],[-65.9915,-18.1453,3889.4597],[-65.9955,-18.1383,3849.4338],[-65.9949,-18.1317,3967.0562],[-66.0041,-18.1326,3922.9963],[-66.0106,-18.1281,3803.9985],[-66.0132,-18.1211,3801.5708],[-66.0221,-18.1085,3761.5933],[-66.0259,-18.1078,3675.2612],[-66.0288,-18.1041,3666.8887],[-66.0357,-18.1068,3433.6646],[-66.0407,-18.1051,3292.77],[-66.0433,-18.1023,3261.9536],[-66.0452,-18.0962,3210.7898],[-66.0469,-18.1022,3256.2122],[-66.0561,-18.0996,3242.687],[-66.0643,-18.1017,3466.5994],[-66.0657,-18.1002,3429.5107],[-66.079,-18.0981,3316.5288],[-66.0892,-18.0936,3387.3625],[-66.0945,-18.0932,3340.3477],[-66.0975,-18.0957,3368.252],[-66.1008,-18.1032,3424.2229],[-66.1052,-18.1043,3489.2881],[-66.1117,-18.1009,3600.3992],[-66.1144,-18.0934,3679.4585],[-66.122,-18.093,3743.3611],[-66.1268,-18.0885,3768.9941],[-66.1308,-18.0875,3841.7917],[-66.1392,-18.0743,3649.8899],[-66.1506,-18.0695,3327.7292],[-66.1503,-18.0713,3389.9021],[-66.1529,-18.0729,3391.6245],[-66.154,-18.0758,3422.9314],[-66.1628,-18.0764,3539.49],[-66.1677,-18.0807,3634.8447],[-66.1697,-18.0809,3639.9504],[-66.1713,-18.0775,3725.708],[-66.1792,-18.0787,3678.9226],[-66.1804,-18.0774,3708.7354],[-66.1843,-18.0808,3656.5251],[-66.1912,-18.0815,3788.2041],[-66.192,-18.0823,3788.2041],[-66.1887,-18.0901,3737.9536],[-66.1884,-18.1021,3429.7507],[-66.1819,-18.1065,3330.7896],[-66.1914,-18.1145,3500.1882],[-66.2021,-18.1165,3659.8259],[-66.213,-18.1228,3863.6597],[-66.2139,-18.1342,4401.3574],[-66.2093,-18.1394,4399.8115],[-66.2083,-18.1494,4299.7891],[-66.1996,-18.1598,4146.3955],[-66.1997,-18.1709,4177.5562],[-66.2024,-18.176,4131.9438],[-66.2195,-18.1892,4127.0308],[-66.2259,-18.201,3688.6772],[-66.2291,-18.1992,3698.1797],[-66.2295,-18.2085,3718.2415],[-66.2318,-18.2103,3736.2744],[-66.2322,-18.2134,3758.146],[-66.2568,-18.2257,3958.96],[-66.2673,-18.2379,4053.3162],[-66.2751,-18.2404,4252.771],[-66.2797,-18.253,4092.0364],[-66.2885,-18.2698,4107.0889],[-66.285,-18.2759,4152.5361],[-66.2642,-18.2977,4274.644],[-66.2558,-18.3156,4211.4609],[-66.2519,-18.3203,4218.8037],[-66.2491,-18.3299,4012.1685],[-66.2444,-18.3345,4045.7178],[-66.2473,-18.3419,4117.6006],[-66.2459,-18.347,4203.4209],[-66.2466,-18.3538,4290.3105],[-66.2553,-18.3587,4168.3833],[-66.2588,-18.3584,4024.1343],[-66.2787,-18.3653,3921.521],[-66.2976,-18.3813,3163.1736],[-66.2977,-18.3828,3163.1736],[-66.2964,-18.3844,3158.0942],[-66.2917,-18.3848,3165.3816],[-66.2885,-18.3884,3162.8118],[-66.2796,-18.3897,3144.1201],[-66.2768,-18.3933,3141.4155],[-66.2644,-18.3976,3191.6157],[-66.2517,-18.4068,3149.001],[-66.2427,-18.4204,3108.7124],[-66.2417,-18.4253,3078.8586],[-66.2392,-18.4262,3158.4685],[-66.2359,-18.4333,3081.8757],[-66.2293,-18.4384,3109.4302],[-66.2258,-18.4465,3043.4897],[-66.2173,-18.4515,3032.7275],[-66.2126,-18.4578,2995.8337],[-66.2101,-18.457,3003.8018],[-66.207,-18.4598,2993.1133],[-66.2019,-18.46,3135.1902],[-66.1918,-18.4523,3258.2837],[-66.186,-18.4505,3505.8179],[-66.1876,-18.4453,3640.6396],[-66.1858,-18.4384,3888.7866],[-66.1793,-18.4277,4057.9253],[-66.1745,-18.4257,4038.6191],[-66.1679,-18.418,4213.1406],[-66.1627,-18.4083,4375.0215],[-66.1516,-18.4063,4132.7407],[-66.1315,-18.4077,4157.2383],[-66.1154,-18.4169,4206.9102],[-66.1122,-18.421,4144.3984],[-66.1071,-18.4363,4127.2119],[-66.0993,-18.442,4303.7065],[-66.0953,-18.4474,4334.2266],[-66.0922,-18.4484,4308.7554],[-66.0887,-18.4546,4274.5376],[-66.0826,-18.4542,4173.9629],[-66.0753,-18.4579,4191.6094],[-66.0689,-18.458,4128.5693],[-66.0639,-18.4611,4087.429],[-66.0531,-18.4631,4137.5015],[-66.0411,-18.4711,4063.7915],[-66.0398,-18.4766,4083.9441],[-66.0356,-18.4806,4107.9004],[-66.0326,-18.4873,4161.5688],[-66.0285,-18.4903,4106.0586],[-66.0261,-18.4955,4142.8379],[-66.0186,-18.4986,3953.1157],[-66.0131,-18.5044,3892.5261],[-66.0086,-18.5064,3949.627],[-65.9959,-18.5198,3769.7715],[-65.9847,-18.5219,3522.8345],[-65.9659,-18.5215,2856.3533],[-65.9615,-18.5241,2698.6885],[-65.9585,-18.5289,2661.02],[-65.9488,-18.5332,2638.9448],[-65.9465,-18.5366,2641.3237],[-65.9426,-18.5384,2657.6226],[-65.9344,-18.5352,2622.7764],[-65.928,-18.5387,2621.7339],[-65.923,-18.539,2611.3062],[-65.9205,-18.5431,2611.5688],[-65.9099,-18.5399,2637.1074],[-65.9066,-18.5348,2580.9744],[-65.9004,-18.5336,2565.0942],[-65.8983,-18.5312,2652.2798],[-65.8932,-18.5322,2552.0991],[-65.8867,-18.5306,2543.479],[-65.8865,-18.5248,2548.2261],[-65.8809,-18.5135,2523.5798],[-65.8856,-18.4954,2513.7664],[-65.8827,-18.4771,2480.1807],[-65.8806,-18.4755,2488.6436],[-65.8764,-18.4781,2506.8271],[-65.8707,-18.4787,2527.1768],[-65.8693,-18.4816,2451.4116],[-65.8641,-18.4827,2483.8982],[-65.86,-18.4808,2439.6577],[-65.8578,-18.4769,2435.439],[-65.8551,-18.4768,2433.3291],[-65.8408,-18.4882,2430.1575],[-65.8157,-18.5009,2370.8569],[-65.8048,-18.5128,2352.1064],[-65.7907,-18.5179,2347.8984],[-65.789,-18.5152,2330.5793],[-65.7861,-18.5149,2328.6965],[-65.77,-18.525,2326.0105],[-65.7639,-18.5358,2365.5264],[-65.7631,-18.5402,2291.3093],[-65.7592,-18.5448,2285.6318],[-65.7594,-18.5514,2289.3755],[-65.7576,-18.5541,2277.4724],[-65.7548,-18.5563,2286.4644],[-65.7508,-18.5566,2270.6973],[-65.7495,-18.5622,2267.2983],[-65.7426,-18.5653,2259.7307],[-65.7394,-18.57,2252.1318],[-65.7363,-18.5708,2251.4932],[-65.7339,-18.5773,2265.2686],[-65.7284,-18.5793,2241.532],[-65.7269,-18.5827,2235.4443],[-65.7207,-18.5854,2306.2686],[-65.7167,-18.5913,2223.5791],[-65.716,-18.5965,2246.894],[-65.7096,-18.5978,2265.5562],[-65.7045,-18.603,2243.6025],[-65.7025,-18.6085,2214.3408],[-65.6989,-18.6081,2209.0688],[-65.6957,-18.6121,2200.4932],[-65.6883,-18.6162,2189.0935],[-65.6824,-18.6159,2183.3655],[-65.6788,-18.6132,2179.613],[-65.6742,-18.6149,2172.74],[-65.6666,-18.6141,2162.5359],[-65.6612,-18.6152,2202.4868],[-65.6563,-18.6127,2152.0317],[-65.6533,-18.6081,2207.4041],[-65.6548,-18.6038,2143.5234],[-65.6538,-18.5968,2155.6191],[-65.6497,-18.5918,2129.7688],[-65.6434,-18.5887,2121.5667],[-65.6418,-18.5782,2109.7512],[-65.6255,-18.5717,2091.8057],[-65.6267,-18.5617,2088.0095],[-65.6234,-18.5503,2068.9248],[-65.6192,-18.5471,2064.137],[-65.6187,-18.5447,2062.5686],[-65.6256,-18.5345,2065.8191],[-65.6271,-18.5276,2053.2578],[-65.6254,-18.5228,2038.5398],[-65.626,-18.5193,2036.5543],[-65.6229,-18.5123,2028.7131],[-65.623,-18.4949,2012.9077],[-65.6191,-18.4821,2000.2257],[-65.6216,-18.4771,1995.8816],[-65.6233,-18.4637,1983.8389],[-65.6252,-18.4605,1980.728],[-65.6314,-18.4571,1974.9663],[-65.6447,-18.4454,1960.6649],[-65.6555,-18.4462,1952.5919],[-65.6773,-18.4293,1960.3517],[-65.6791,-18.4236,1935.824],[-65.6843,-18.4167,1932.6417],[-65.6818,-18.4114,1937.9431],[-65.6845,-18.4025,1915.7542],[-65.6837,-18.3866,1909.1609],[-65.6868,-18.3777,1895.6455],[-65.6955,-18.3663,1886.8212],[-65.6951,-18.3627,1936.2864],[-65.6926,-18.3599,1884.9517],[-65.6941,-18.3527,1876.2859]]]]}
,"properties": {"GID_2": "BOL.7.3_2","GID_0": "BOL","country": "Bolivia","GID_1": "BOL.7_1","province": "Potosí","NL_NAME_1": "NA","county": "Chárcas","VARNAME_2": "NA","NL_NAME_2": "NA","TYPE_2": "Provincia","ENGTYPE_2": "Province","CC_2": "NA","HASC_2": "NA","name": "Chárcas.county","area_km2": 3405.025,"hist_schema_id": "Elevation0-9000","hist_area_km2": {"1650": 0.161,"1675": 1.106,"1700": 1.569,"1725": 2.535,"1750": 2.294,"1775": 3.723,"1800": 4.447,"1825": 5.776,"1850": 7.507,"1875": 8.957,"1900": 11.615,"1925": 14.254,"1950": 17.538,"1975": 23.238,"2000": 24.751,"2025": 23.279,"2050": 22.873,"2075": 22.63,"2100": 23.01,"2125": 23.714,"2150": 24.337,"2175": 23.39,"2200": 24.235,"2225": 26.267,"2250": 27.755,"2275": 28.601,"2300": 28.701,"2325": 27.937,"2350": 32.265,"2375": 34.92,"2400": 33.754,"2425": 34.136,"2450": 36.793,"2475": 39.167,"2500": 40.698,"2525": 42.791,"2550": 43.879,"2575": 44.161,"2600": 45.349,"2625": 47.381,"2650": 47.444,"2675": 49.457,"2700": 49.841,"2725": 54.433,"2750": 57.655,"2775": 58.26,"2800": 57.695,"2825": 59.387,"2850": 62.812,"2875": 64.04,"2900": 60.998,"2925": 66.035,"2950": 67.385,"2975": 65.152,"3000": 66.666,"3025": 63.258,"3050": 61.186,"3075": 58.848,"3100": 56.07,"3125": 55.526,"3150": 53.128,"3175": 49.947,"3200": 49.807,"3225": 49.605,"3250": 46.745,"3275": 45.477,"3300": 42.418,"3325": 39.94,"3350": 39.276,"3375": 38.631,"3400": 36.195,"3425": 35.689,"3450": 33.94,"3475": 28.765,"3500": 30.093,"3525": 28.544,"3550": 27.376,"3575": 25.948,"3600": 24.498,"3625": 24.578,"3650": 24.115,"3675": 23.531,"3700": 21.882,"3725": 22.203,"3750": 20.168,"3775": 20.591,"3800": 20.147,"3825": 21.919,"3850": 21.455,"3875": 20.75,"3900": 21.375,"3925": 21.495,"3950": 23.146,"3975": 22.261,"4000": 21.819,"4025": 20.813,"4050": 19.384,"4075": 18.841,"4100": 18.641,"4125": 18.057,"4150": 17.554,"4175": 16.749,"4200": 15.421,"4225": 15.038,"4250": 12.662,"4275": 11.152,"4300": 10.609,"4325": 6.784,"4350": 5.093,"4375": 3.201,"4400": 2.074,"4425": 1.188,"4450": 0.483,"4475": 0.161}}}