{"type":"Feature","properties":{"GID_3":"BOL.7.4.1_2","GID_0":"BOL","country":"Bolivia","GID_1":"BOL.7_1","province":"Potosí","NL_NAME_1":"NA","GID_2":"BOL.7.4_2","county":"Chayanta","NL_NAME_2":"NA","city":"Colquechaca","VARNAME_3":"NA","NL_NAME_3":"NA","TYPE_3":"District","ENGTYPE_3":"Distrito","CC_3":"NA","HASC_3":"NA","name":"Colquechaca.city"},
"geometry":{"type": "MultiPolygon","coordinates": [[[[-66.093,-19.0851,4475.5161],[-66.0883,-19.0835,4364.4297],[-66.0793,-19.0856,4294.3149],[-66.0771,-19.0737,4235.085],[-66.0674,-19.0571,4008.4517],[-66.0689,-19.0517,3975.2297],[-66.0623,-19.0486,3947.5474],[-66.0573,-19.0515,3887.9192],[-66.0493,-19.0474,4120.6875],[-66.0457,-19.0492,4114.499],[-66.0364,-19.0275,4169.2051],[-66.0288,-19.0229,4229.7632],[-66.0242,-19.014,4099.9678],[-66.0123,-19.0091,3937.3594],[-66.0007,-18.9939,3794.3062],[-65.9963,-18.9904,3820.8081],[-65.9757,-18.9841,4068.7583],[-65.9673,-18.9898,4070.8398],[-65.9609,-18.9805,4094.0337],[-65.934,-18.9728,4419.9985],[-65.92,-18.9733,4434.5938],[-65.8864,-18.9689,4518.1289],[-65.8731,-18.9714,4440.8623],[-65.8638,-18.9797,4605.3887],[-65.8529,-18.9825,4498.437],[-65.8576,-18.9757,4492.6562],[-65.8543,-18.9667,4471.1035],[-65.8588,-18.9508,4427.4404],[-65.8522,-18.9467,4461.979],[-65.8537,-18.9381,4474.4463],[-65.8604,-18.929,4441.8691],[-65.8604,-18.9111,4422.041],[-65.8553,-18.9076,4420.2334],[-65.8614,-18.9039,4456.3584],[-65.8685,-18.8842,4455.6875],[-65.8688,-18.8684,4326.1182],[-65.8757,-18.8599,4276.5024],[-65.9043,-18.8507,4131.2998],[-65.9066,-18.8514,4076.6824],[-65.8993,-18.8428,4304.1646],[-65.9024,-18.8364,4331.1631],[-65.9016,-18.8326,4317.4043],[-65.9045,-18.8309,4350.1729],[-65.9061,-18.8263,4343.0605],[-65.9115,-18.8255,4340.4424],[-65.8918,-18.8131,4051.7151],[-65.8991,-18.8038,4349.2632],[-65.8924,-18.7923,4100.2861],[-65.9252,-18.7729,4179.6152],[-65.9293,-18.7651,4035.1367],[-65.9418,-18.7711,3834.7483],[-65.9424,-18.7616,4186.1333],[-65.9383,-18.7597,4198.3877],[-65.9361,-18.7536,3993.0999],[-65.9265,-18.749,3719.8689],[-65.9249,-18.7403,4124.2104],[-65.926,-18.7353,4183.2793],[-65.9166,-18.7351,3862.7561],[-65.9096,-18.7322,3674.6758],[-65.9034,-18.7275,3730.6846],[-65.902,-18.7237,3877.5166],[-65.8916,-18.7204,3375.6746],[-65.8851,-18.7211,3289.9399],[-65.8759,-18.7333,3228.2183],[-65.8698,-18.7384,3323.3806],[-65.8668,-18.7399,3184.6516],[-65.8604,-18.7397,3161.7349],[-65.8565,-18.7341,3030.0288],[-65.8506,-18.7341,3011.9409],[-65.8467,-18.7299,3002.4355],[-65.8404,-18.7266,2988.1758],[-65.8379,-18.7238,2962.4866],[-65.8376,-18.7188,2945.2715],[-65.8358,-18.7162,2969.9272],[-65.8242,-18.7184,2936.4099],[-65.8099,-18.7124,2836.9644],[-65.8021,-18.7023,2699.4587],[-65.798,-18.6992,2672.3625],[-65.7936,-18.6899,2655.2153],[-65.7872,-18.6853,2641.9629],[-65.7859,-18.6777,2625.3374],[-65.7811,-18.6676,2570.6003],[-65.7747,-18.6639,2568.9509],[-65.7643,-18.6512,2496.3713],[-65.7589,-18.6507,2487.3022],[-65.7452,-18.6414,2446.6777],[-65.7404,-18.6415,2438.3032],[-65.7367,-18.639,2410.4792],[-65.7308,-18.6387,2386.6384],[-65.7256,-18.636,2361.0479],[-65.722,-18.6302,2355.3076],[-65.7136,-18.6222,2294.7185],[-65.7099,-18.6126,2245.2278],[-65.7028,-18.6096,2221.8662],[-65.7059,-18.6014,2213.3281],[-65.7096,-18.5978,2265.5562],[-65.716,-18.5965,2246.894],[-65.7167,-18.5913,2223.5791],[-65.7207,-18.5854,2306.2686],[-65.7269,-18.5827,2235.4443],[-65.7284,-18.5793,2241.532],[-65.7339,-18.5773,2265.2686],[-65.7363,-18.5708,2251.4932],[-65.7394,-18.57,2252.1318],[-65.7426,-18.5653,2259.7307],[-65.7495,-18.5622,2267.2983],[-65.7508,-18.5566,2270.6973],[-65.7548,-18.5563,2286.4644],[-65.7576,-18.5541,2277.4724],[-65.7594,-18.5514,2289.3755],[-65.7592,-18.5448,2285.6318],[-65.7631,-18.5402,2291.3093],[-65.7639,-18.5358,2365.5264],[-65.77,-18.525,2326.0105],[-65.7861,-18.5149,2328.6965],[-65.789,-18.5152,2330.5793],[-65.7907,-18.5179,2347.8984],[-65.8048,-18.5128,2352.1064],[-65.8157,-18.5009,2370.8569],[-65.8408,-18.4882,2430.1575],[-65.8542,-18.4771,2432.0996],[-65.8578,-18.4769,2435.439],[-65.86,-18.4808,2439.6577],[-65.8641,-18.4827,2483.8982],[-65.8693,-18.4816,2451.4116],[-65.8707,-18.4787,2527.1768],[-65.8764,-18.4781,2506.8271],[-65.8806,-18.4755,2488.6436],[-65.8827,-18.4771,2480.1807],[-65.8856,-18.4954,2513.7664],[-65.8809,-18.5135,2523.5798],[-65.8865,-18.5248,2548.2261],[-65.8863,-18.5301,2543.479],[-65.8932,-18.5322,2552.0991],[-65.8983,-18.5312,2652.2798],[-65.9004,-18.5336,2565.0942],[-65.9056,-18.5341,2569.6973],[-65.9093,-18.5395,2584.4932],[-65.9127,-18.5407,2590.3145],[-65.9116,-18.5467,3155.6084],[-65.9042,-18.5496,3439.572],[-65.9025,-18.5551,3649.5813],[-65.8967,-18.5598,3754.9648],[-65.8917,-18.5744,3949.0911],[-65.8945,-18.5781,3873.0293],[-65.8977,-18.5793,3833.1519],[-65.9021,-18.5857,3504.7822],[-65.907,-18.5873,3163.6394],[-65.9192,-18.6027,3981.3252],[-65.9286,-18.6055,4186.6973],[-65.9323,-18.6099,3990.4333],[-65.9415,-18.6099,3655.3489],[-65.9461,-18.615,3951.6069],[-65.9586,-18.6209,4301.3037],[-65.9652,-18.6284,4287.252],[-65.985,-18.6238,4127.1782],[-65.9918,-18.6132,3919.9773],[-65.9921,-18.6099,3919.0342],[-65.9967,-18.6087,4050.0845],[-66.0109,-18.6117,4369.9404],[-66.0121,-18.6155,4515.04],[-66.0136,-18.6155,4470.0278],[-66.0146,-18.6134,4450.8496],[-66.0236,-18.608,4446.7876],[-66.0285,-18.6105,4504.1875],[-66.0339,-18.608,4446.687],[-66.0395,-18.6089,4483.0674],[-66.0552,-18.6047,4266.5298],[-66.074,-18.6144,3984.4016],[-66.0824,-18.615,3896.0811],[-66.0823,-18.6181,3889.4478],[-66.0787,-18.6216,3909.5344],[-66.0731,-18.6364,3931.2871],[-66.0654,-18.642,3945.6001],[-66.0642,-18.6458,3956.2993],[-66.0558,-18.6465,4001.885],[-66.0423,-18.6509,4110.9312],[-66.0321,-18.6627,4409.2822],[-66.0318,-18.6655,4464.0435],[-66.0227,-18.6751,4659.5117],[-66.0215,-18.6864,4665.7764],[-66.0199,-18.6876,4665.7764],[-66.0247,-18.7046,4300.2891],[-66.0205,-18.7148,3937.8027],[-66.0249,-18.7175,3892.3813],[-66.0277,-18.7233,3918.3462],[-66.0604,-18.741,4095.345],[-66.0955,-18.7636,3541.0886],[-66.0898,-18.7776,3490.3711],[-66.1032,-18.7939,3481.5205],[-66.1085,-18.79,3620.6423],[-66.1139,-18.8118,3657.3247],[-66.1724,-18.7825,3628.1113],[-66.2357,-18.8096,4115.3574],[-66.2459,-18.8203,4075.125],[-66.2581,-18.8428,4085.7056],[-66.2866,-18.8613,4380.667],[-66.3098,-18.866,4427.9072],[-66.3268,-18.8738,4456.1611],[-66.3221,-18.8848,4435.3218],[-66.3201,-18.8959,4453.0981],[-66.3158,-18.8991,4505.7051],[-66.3113,-18.9096,4635.6919],[-66.3132,-18.9217,4619.1621],[-66.3018,-18.9333,4680.2373],[-66.3017,-18.9478,4685.5591],[-66.2985,-18.9707,4794.8896],[-66.3017,-18.9906,4741.4399],[-66.2951,-18.9961,4714.6074],[-66.2817,-19.0148,4744.6738],[-66.2689,-19.0089,4650.1245],[-66.2485,-19.0082,4478.229],[-66.2415,-19.0052,4568.0444],[-66.2281,-18.9949,4511.0254],[-66.2252,-18.9942,4473.8281],[-66.2214,-18.996,4407.1777],[-66.2152,-18.9938,4326.8965],[-66.2123,-18.9946,4263.9487],[-66.2034,-18.9909,4100.8535],[-66.1983,-18.987,4063.3665],[-66.1934,-18.9867,4011.5898],[-66.1882,-18.9827,3949.7876],[-66.1839,-18.9822,3935.7366],[-66.1839,-18.9849,3916.7087],[-66.1811,-18.9866,3918.2729],[-66.1791,-18.9906,3947.666],[-66.1762,-19.0207,4041.8696],[-66.1719,-19.0199,4043.5815],[-66.1529,-19.0307,4063.0029],[-66.1353,-19.0541,3865.0273],[-66.13,-19.0536,4066.6831],[-66.125,-19.0593,4167.9087],[-66.1204,-19.0618,4236.5659],[-66.1148,-19.0703,4437.6611],[-66.1063,-19.0765,4502.6211],[-66.106,-19.0847,4612.3916],[-66.102,-19.0859,4576.8496],[-66.093,-19.0851,4475.5161]]]]}}