{"type":"Feature","properties":{"GID_3":"BOL.8.14.2_2","GID_0":"BOL","country":"Bolivia","GID_1":"BOL.8_1","province":"SantaCruz","NL_NAME_1":"NA","GID_2":"BOL.8.14_2","county":"Velasco","NL_NAME_2":"NA","city":"SanMiguel","VARNAME_3":"NA","NL_NAME_3":"NA","TYPE_3":"District","ENGTYPE_3":"Distrito","CC_3":"NA","HASC_3":"NA","name":"San_Miguel.city"},
"geometry":{"type": "MultiPolygon","coordinates": [[[[-61.2543,-17.4025,250.2293],[-61.2461,-17.4014,250.2587],[-61.241,-17.3958,252.669],[-61.2347,-17.3938,252.9831],[-61.231,-17.388,250.8389],[-61.22,-17.3887,252.9739],[-61.2156,-17.3867,254.4146],[-61.2147,-17.3795,265.1687],[-61.2178,-17.3729,251.3447],[-61.2134,-17.3689,252.0169],[-61.1956,-17.3684,257.7341],[-61.1901,-17.3648,250.5963],[-61.1863,-17.3664,251.9432],[-61.1764,-17.3646,253.6048],[-61.1662,-17.3666,253.7899],[-61.1525,-17.364,250.8963],[-61.1404,-17.3664,260.0392],[-61.1358,-17.3579,251.1516],[-61.1274,-17.358,250.7236],[-61.1228,-17.356,250.6426],[-61.1249,-17.3515,251.5017],[-61.1239,-17.3495,250.8951],[-61.1164,-17.3514,252.7198],[-61.1141,-17.3495,253.0571],[-61.1108,-17.3498,252.8153],[-61.1056,-17.3553,253.7871],[-61.1029,-17.3538,251.7529],[-61.0987,-17.3552,251.8542],[-61.095,-17.3542,251.9448],[-61.0905,-17.3489,254.7848],[-61.0813,-17.3504,253.81],[-61.0775,-17.3469,256.119],[-61.0767,-17.3374,254.4276],[-61.0719,-17.3417,254.0694],[-61.0637,-17.3439,256.308],[-61.0574,-17.3398,253.873],[-61.05,-17.3399,253.7487],[-61.0459,-17.3382,254.637],[-61.0328,-17.3413,259.7951],[-61.0288,-17.3369,254.9512],[-61.0208,-17.3349,257.9165],[-61.0141,-17.33,255.3178],[-61.0053,-17.3158,256.2138],[-60.9955,-17.3049,256.8216],[-60.9957,-17.303,257.2883],[-60.9907,-17.2961,259.5912],[-60.9835,-17.298,258.434],[-60.9714,-17.2941,257.3513],[-60.9628,-17.2947,257.8073],[-60.9531,-17.2977,258.1241],[-60.9439,-17.2954,258.7407],[-60.94,-17.2975,259.2074],[-60.9362,-17.2965,262.0447],[-60.9325,-17.2867,261.305],[-60.9348,-17.2825,259.7884],[-60.9343,-17.2763,260.3204],[-60.9363,-17.2721,261.263],[-60.9353,-17.2676,263.7317],[-60.933,-17.2657,260.6233],[-60.9336,-17.2596,260.1715],[-60.9322,-17.2577,260.1042],[-60.9256,-17.255,262.3723],[-60.922,-17.2499,265.7783],[-60.9176,-17.2507,261.5658],[-60.913,-17.2458,261.6327],[-60.9092,-17.2457,261.3235],[-60.9076,-17.2421,263.9003],[-60.9044,-17.2424,262.3513],[-60.8966,-17.2394,262.496],[-60.8836,-17.2398,264.537],[-60.8749,-17.2352,262.6695],[-60.8637,-17.2192,267.4448],[-60.857,-17.2157,264.1345],[-60.8563,-17.1958,266.3864],[-60.8423,-17.19,265.3898],[-60.8417,-17.185,265.4493],[-60.8452,-17.1799,265.9261],[-60.8439,-17.1776,265.6186],[-60.8402,-17.1764,266.5414],[-60.8347,-17.1785,268.3986],[-60.8263,-17.1773,268.6945],[-60.822,-17.1806,268.2113],[-60.8177,-17.1774,267.2621],[-60.8146,-17.1723,272.4611],[-60.8086,-17.1684,267.9534],[-60.8011,-17.17,269.4232],[-60.7924,-17.166,268.3868],[-60.7893,-17.1626,268.1958],[-60.7835,-17.1638,268.8087],[-60.7842,-17.1528,271.1519],[-60.7855,-17.1511,267.8883],[-60.7845,-17.1494,268.3665],[-60.7763,-17.147,281.9155],[-60.7724,-17.1404,268.4523],[-60.758,-17.1317,268.6409],[-60.7556,-17.1256,270.1185],[-60.7477,-17.1206,270.6056],[-60.7447,-17.1166,274.3506],[-60.7378,-17.1018,272.2565],[-60.7368,-17.0914,281.683],[-60.7303,-17.0917,291.0729],[-60.7223,-17.085,288.0009],[-60.7213,-17.0774,285.7929],[-60.7158,-17.0735,295.6723],[-60.7205,-17.065,284.983],[-60.716,-17.0606,284.409],[-60.7154,-17.0578,288.9791],[-60.7173,-17.0568,297.0462],[-60.7168,-17.0495,288.5412],[-60.7186,-17.0476,296.2324],[-60.7149,-17.0407,285.0472],[-60.7145,-17.0358,299.2169],[-60.7206,-17.03,286.9702],[-60.7219,-17.0277,290.4757],[-60.7215,-17.0236,291.5629],[-60.7252,-17.0196,303.1016],[-60.7256,-17.0169,300.505],[-60.7239,-17.0149,291.4367],[-60.719,-17.0139,295.9491],[-60.7189,-17.0124,307.1839],[-60.7205,-17.0087,299.231],[-60.7241,-17.0065,313.3948],[-60.7227,-16.9932,302.2825],[-60.7247,-16.9919,315.4231],[-60.7242,-16.9867,296.6878],[-60.7179,-16.9788,303.1146],[-60.717,-16.9753,309.4397],[-60.7204,-16.9758,313.7228],[-60.7223,-16.9733,303.1288],[-60.726,-16.9601,308.9127],[-60.725,-16.952,303.6321],[-60.7212,-16.9481,306.7242],[-60.7185,-16.9373,307.1157],[-60.7257,-16.9304,314.2303],[-60.7252,-16.927,305.5208],[-60.7289,-16.9233,311.7103],[-60.7382,-16.9222,320.9607],[-60.7519,-16.9121,380.1248],[-60.7684,-16.9054,366.481],[-60.8118,-16.8931,329.6428],[-60.8135,-16.8887,343.5319],[-60.8173,-16.8853,332.0542],[-60.8227,-16.8833,340.2633],[-60.8286,-16.8746,351.4549],[-60.8355,-16.8718,354.6609],[-60.8581,-16.8569,377.263],[-60.8691,-16.8538,345.8564],[-60.8793,-16.8473,366.3577],[-60.887,-16.8153,377.4443],[-60.8877,-16.8043,377.9531],[-60.8746,-16.7847,443.7986],[-60.8695,-16.7647,577.1993],[-60.862,-16.7552,514.3776],[-60.8573,-16.743,477.5715],[-60.8501,-16.7351,455.1422],[-60.9012,-16.5774,458.8844],[-60.9046,-16.5504,482.8364],[-60.9223,-16.5134,528.9384],[-60.9341,-16.4824,484.3362],[-60.9343,-16.4704,446.0417],[-60.9542,-16.472,476.3104],[-60.9812,-16.4706,483.0078],[-61.0281,-16.482,454.8125],[-61.0698,-16.4953,439.7219],[-61.0933,-16.4906,467.0642],[-61.1207,-16.4824,471.1357],[-61.148,-16.4722,441.3226],[-61.1509,-16.4695,447.0431],[-61.1653,-16.4662,427.0582],[-61.1722,-16.455,425.8197],[-61.1975,-16.4463,435.4042],[-61.1994,-16.4445,435.876],[-61.1977,-16.4365,421.7932],[-61.1995,-16.4335,429.5934],[-61.1992,-16.4295,440.0149],[-61.2276,-16.3603,423.6802],[-61.2457,-16.3336,418.6671],[-61.2632,-16.2791,409.7153],[-61.265,-16.2702,401.174],[-61.2617,-16.2627,397.8842],[-61.2705,-16.2495,435.0035],[-61.2757,-16.2364,413.8874],[-61.2821,-16.2301,407.3896],[-61.283,-16.2228,401.2314],[-61.2921,-16.2166,388.1827],[-61.2954,-16.2073,377.2093],[-61.2951,-16.203,374.6753],[-61.6974,-16.2653,401.1684],[-61.6884,-16.2739,422.3236],[-61.6867,-16.2885,450.3102],[-61.6837,-16.2933,457.8537],[-61.6791,-16.2969,463.9922],[-61.6735,-16.2984,456.0872],[-61.6709,-16.3025,467.6205],[-61.6712,-16.3152,454.2801],[-61.6695,-16.3192,467.1693],[-61.6717,-16.335,438.9344],[-61.6748,-16.3414,429.3049],[-61.6752,-16.3469,421.3078],[-61.6714,-16.3522,419.5762],[-61.671,-16.3564,419.6838],[-61.6659,-16.3625,416.4004],[-61.6653,-16.3723,416.4743],[-61.6575,-16.3802,414.5951],[-61.6592,-16.3853,414.1536],[-61.6567,-16.3918,406.9513],[-61.6576,-16.3996,408.4647],[-61.6513,-16.4045,404.9099],[-61.6523,-16.4088,407.2233],[-61.6553,-16.4107,404.053],[-61.658,-16.419,402.0007],[-61.6593,-16.4331,396.2834],[-61.6573,-16.4375,399.2596],[-61.6539,-16.4394,393.4303],[-61.6531,-16.4441,398.2661],[-61.6499,-16.4455,389.9685],[-61.652,-16.4571,394.9952],[-61.6496,-16.4734,381.5041],[-61.6457,-16.4744,380.8922],[-61.6435,-16.4787,380.9607],[-61.6408,-16.4804,381.9406],[-61.6389,-16.4895,382.4211],[-61.6407,-16.4976,378.1285],[-61.6393,-16.5023,375.6557],[-61.6404,-16.5362,432.7546],[-61.661,-16.9827,321.3943],[-61.6567,-16.9866,295.5367],[-61.6555,-16.9902,296.4543],[-61.6622,-17.0015,289.5332],[-61.6613,-17.0135,299.7344],[-61.6708,-17.0272,288.5865],[-61.6744,-17.0281,285.0732],[-61.6841,-17.0157,285.4255],[-61.6868,-17.0148,283.0962],[-61.6907,-17.0168,277.252],[-61.6922,-17.0206,275.7752],[-61.697,-17.022,275.9661],[-61.7007,-17.0251,274.9633],[-61.7069,-17.0269,270.2051],[-61.7126,-17.0252,267.9418],[-61.716,-17.0264,273.6637],[-61.719,-17.0314,272.5831],[-61.7206,-17.0304,270.2183],[-61.7233,-17.0323,272.5331],[-61.7261,-17.0316,269.0142],[-61.7311,-17.0375,265.166],[-61.7422,-17.0448,261.8188],[-61.7482,-17.0452,258.8458],[-61.7511,-17.0419,259.3506],[-61.7583,-17.043,262.9712],[-61.7634,-17.0414,260.001],[-61.7708,-17.0435,262.8025],[-61.7715,-17.0406,260.0879],[-61.7682,-17.0354,257.2164],[-61.7701,-17.034,260.9266],[-61.7781,-17.0349,258.2561],[-61.7829,-17.0387,254.9145],[-61.7862,-17.039,252.3088],[-61.7916,-17.0363,252.6864],[-61.7969,-17.0363,253.5788],[-61.7986,-17.0349,253.1173],[-61.7982,-17.033,253.2904],[-61.8084,-17.0315,250.8979],[-61.8117,-17.0329,251.2355],[-61.8132,-17.0275,250.643],[-61.8155,-17.0299,248.8737],[-61.8171,-17.0292,249.5874],[-61.8168,-17.031,249.0742],[-61.8243,-17.0342,248.6363],[-61.8275,-17.0341,248.9014],[-61.8273,-17.0324,248.7487],[-61.8319,-17.0298,248.7823],[-61.8335,-17.0265,247.1441],[-61.8364,-17.0267,248.4515],[-61.8358,-17.0302,248.6479],[-61.8391,-17.0296,246.2688],[-61.839,-17.0311,246.2688],[-61.8416,-17.0305,249.7277],[-61.8409,-17.0288,246.8381],[-61.8431,-17.0302,252.8932],[-61.8444,-17.029,247.8838],[-61.8452,-17.0318,247.1283],[-61.8509,-17.0339,247.4514],[-61.8457,-17.0434,247.6054],[-61.8494,-17.0503,246.6911],[-61.8476,-17.0552,247.6062],[-61.8511,-17.0586,247.9055],[-61.8544,-17.0574,247.7577],[-61.8557,-17.0618,249.6297],[-61.854,-17.0643,252.3548],[-61.8497,-17.0628,253.4801],[-61.8443,-17.0656,252.5754],[-61.8448,-17.0709,258.1486],[-61.8419,-17.0671,252.8527],[-61.8386,-17.069,252.7655],[-61.8397,-17.0755,252.797],[-61.8358,-17.0807,254.1985],[-61.8304,-17.0778,254.6441],[-61.8308,-17.0706,253.0063],[-61.8284,-17.0717,254.6505],[-61.8249,-17.0702,250.9709],[-61.8208,-17.0732,254.1806],[-61.8239,-17.0736,252.9412],[-61.8217,-17.0769,251.4051],[-61.8249,-17.0796,254.0998],[-61.8236,-17.0825,255.8753],[-61.827,-17.0819,253.7897],[-61.8257,-17.0844,256.574],[-61.8289,-17.0847,255.224],[-61.8275,-17.0875,256.1636],[-61.8349,-17.0863,253.0599],[-61.8347,-17.092,254.224],[-61.8374,-17.0912,253.9558],[-61.8403,-17.0944,253.2148],[-61.8377,-17.0976,251.3719],[-61.8455,-17.0989,254.1835],[-61.8458,-17.1022,252.7058],[-61.8399,-17.102,255.0739],[-61.8355,-17.0998,255.448],[-61.8338,-17.0972,255.3384],[-61.8317,-17.0988,254.7754],[-61.8301,-17.0956,257.1029],[-61.8276,-17.0966,255.7217],[-61.824,-17.0895,254.0351],[-61.8191,-17.0948,254.6159],[-61.8164,-17.0903,257.0934],[-61.8107,-17.0932,255.1174],[-61.8053,-17.0929,254.0461],[-61.8048,-17.0917,254.0461],[-61.8072,-17.0915,253.7441],[-61.8083,-17.0876,254.323],[-61.8066,-17.0866,253.5736],[-61.8062,-17.0885,255.0585],[-61.8046,-17.0888,253.3818],[-61.8011,-17.0862,281.4082],[-61.8,-17.088,253.3534],[-61.7966,-17.0883,254.7037],[-61.7954,-17.0928,254.5943],[-61.7928,-17.0906,260.1245],[-61.7856,-17.0937,256.4885],[-61.7861,-17.0995,254.5893],[-61.783,-17.0969,252.0257],[-61.7776,-17.1023,251.1555],[-61.7723,-17.102,257.2143],[-61.7737,-17.1042,251.062],[-61.7715,-17.1044,255.374],[-61.7715,-17.1083,251.7154],[-61.7689,-17.1076,254.5486],[-61.7688,-17.1105,254.2979],[-61.7634,-17.1123,252.7865],[-61.7683,-17.1138,250.6027],[-61.7688,-17.1165,249.7513],[-61.7669,-17.116,251.017],[-61.7668,-17.1178,250.4899],[-61.762,-17.1194,251.6307],[-61.757,-17.1179,253.3192],[-61.7554,-17.1242,249.4904],[-61.7499,-17.1242,249.1844],[-61.7438,-17.1196,249.102],[-61.7403,-17.1216,249.003],[-61.7403,-17.1247,249.2536],[-61.7332,-17.1259,245.8467],[-61.7303,-17.1299,245.6358],[-61.7228,-17.1282,246.0745],[-61.7174,-17.1394,248.5009],[-61.7167,-17.1364,248.7338],[-61.7117,-17.1364,249.7862],[-61.7139,-17.1347,250.7641],[-61.7131,-17.1314,251.9622],[-61.7065,-17.1296,246.354],[-61.7054,-17.1368,245.9362],[-61.6791,-17.1492,244.5],[-61.6752,-17.1564,245.9586],[-61.6779,-17.1653,245.8695],[-61.676,-17.1675,246.1859],[-61.6763,-17.1701,246.5519],[-61.6733,-17.1686,246.79],[-61.6719,-17.1706,246.5353],[-61.665,-17.1715,248.1992],[-61.6657,-17.1771,246.4817],[-61.6619,-17.1809,246.3321],[-61.6552,-17.1802,244.5],[-61.6406,-17.17,246.7437],[-61.6372,-17.1755,248.314],[-61.634,-17.1746,246.3113],[-61.6303,-17.1768,246.4047],[-61.6293,-17.1842,247.571],[-61.6155,-17.1912,247.1936],[-61.6129,-17.1891,247.4512],[-61.6141,-17.1835,249.5913],[-61.6078,-17.179,247.1951],[-61.6034,-17.179,248.9945],[-61.6032,-17.1753,250.1322],[-61.601,-17.1741,250.398],[-61.6001,-17.1713,250.2136],[-61.5971,-17.1698,249.3712],[-61.5958,-17.1742,250.3261],[-61.5924,-17.173,249.9175],[-61.5899,-17.1751,250.1344],[-61.589,-17.1808,247.2024],[-61.5939,-17.1831,247.5215],[-61.5954,-17.1889,255.3163],[-61.5982,-17.191,248.3622],[-61.5992,-17.1889,247.896],[-61.6046,-17.1878,251.9402],[-61.6031,-17.1974,247.1105],[-61.6047,-17.2037,247.3489],[-61.6097,-17.208,247.0618],[-61.6108,-17.2134,248.2268],[-61.6095,-17.2234,250.0808],[-61.6063,-17.2205,250.4189],[-61.6027,-17.2212,251.9409],[-61.6014,-17.2259,251.7753],[-61.5968,-17.2273,252.4338],[-61.5916,-17.2267,252.1135],[-61.5894,-17.2295,252.5934],[-61.5828,-17.2281,253.2559],[-61.5798,-17.2298,253.0862],[-61.5841,-17.2378,252.729],[-61.5841,-17.245,251.6245],[-61.5802,-17.2451,252.1769],[-61.5786,-17.2471,252.5468],[-61.5802,-17.2513,251.3561],[-61.5715,-17.253,252.8427],[-61.5708,-17.2562,252.7435],[-61.5494,-17.2658,252.3564],[-61.5508,-17.2691,253.9035],[-61.5499,-17.2706,251.5394],[-61.5454,-17.2675,252.5355],[-61.5442,-17.27,251.9313],[-61.5364,-17.2755,251.5831],[-61.5376,-17.278,251.3635],[-61.5352,-17.2871,250.2014],[-61.5326,-17.2832,252.0845],[-61.5308,-17.2843,251.3868],[-61.5266,-17.2827,252.0594],[-61.526,-17.2855,252.6925],[-61.5224,-17.2847,253.3778],[-61.5189,-17.2885,252.7782],[-61.5158,-17.2852,253.6464],[-61.5134,-17.2876,252.961],[-61.5103,-17.2859,251.6986],[-61.5052,-17.2892,253.1557],[-61.4999,-17.2901,252.639],[-61.4988,-17.2941,254.0863],[-61.4949,-17.2959,253.6526],[-61.4972,-17.2981,254.1512],[-61.4971,-17.3008,255.1776],[-61.5071,-17.3033,252.9262],[-61.5066,-17.3085,254.8922],[-61.5104,-17.3145,255.8165],[-61.5096,-17.3261,255.8828],[-61.5008,-17.3272,255.0943],[-61.4958,-17.3238,252.5558],[-61.4957,-17.3208,253.8502],[-61.4918,-17.3221,251.4193],[-61.4929,-17.3379,252.7342],[-61.4889,-17.3467,252.3307],[-61.4803,-17.3465,253.6449],[-61.4809,-17.3422,255.8027],[-61.479,-17.3402,255.7782],[-61.4749,-17.34,258.7851],[-61.4742,-17.3418,257.394],[-61.4724,-17.3405,256.9213],[-61.4718,-17.3425,255.819],[-61.4681,-17.3411,256.1411],[-61.4716,-17.3354,260.1391],[-61.4717,-17.3339,258.098],[-61.4686,-17.3334,257.1509],[-61.4701,-17.3302,256.1023],[-61.4558,-17.3303,257.4041],[-61.4535,-17.3321,255.8193],[-61.4484,-17.326,256.5521],[-61.4447,-17.3251,257.8993],[-61.4412,-17.3268,260.7281],[-61.4389,-17.3308,262.65],[-61.4416,-17.336,259.6417],[-61.4375,-17.3374,258.2178],[-61.4416,-17.3443,255.3504],[-61.4481,-17.3499,252.0946],[-61.4461,-17.3544,256.0977],[-61.4418,-17.3565,253.4142],[-61.4395,-17.3601,253.7674],[-61.4298,-17.3589,254.0657],[-61.4259,-17.3562,254.9487],[-61.4254,-17.3538,255.9135],[-61.4222,-17.3542,255.5698],[-61.4211,-17.3519,254.8937],[-61.4255,-17.3464,255.6991],[-61.4242,-17.3431,258.2509],[-61.4209,-17.3441,256.3179],[-61.4121,-17.3416,257.1972],[-61.4107,-17.3399,254.3768],[-61.4027,-17.3405,255.1291],[-61.3996,-17.3421,253.772],[-61.3992,-17.3489,257.6174],[-61.3966,-17.3483,261.4708],[-61.3949,-17.3432,254.4008],[-61.3907,-17.3447,256.7697],[-61.3838,-17.3412,256.0655],[-61.3784,-17.3447,257.0716],[-61.368,-17.3456,254.6351],[-61.3662,-17.3498,253.3635],[-61.3574,-17.3561,252.7979],[-61.3545,-17.3544,254.6896],[-61.352,-17.3555,253.5336],[-61.3533,-17.3578,252.0612],[-61.3516,-17.3624,250.2201],[-61.3525,-17.3647,249.9734],[-61.3492,-17.372,250.8745],[-61.3471,-17.3716,250.9641],[-61.3447,-17.368,249.1209],[-61.3406,-17.3682,249.3186],[-61.3399,-17.3711,249.2991],[-61.3323,-17.3749,253.1248],[-61.327,-17.3731,253.8148],[-61.328,-17.3708,249.827],[-61.3255,-17.3694,250.9859],[-61.3173,-17.3689,249.5304],[-61.3107,-17.3706,251.4001],[-61.3073,-17.3728,248.9622],[-61.3083,-17.3759,249.2102],[-61.3069,-17.3797,249.5159],[-61.3026,-17.3801,249.9638],[-61.3005,-17.3853,250.3576],[-61.2979,-17.3835,251.0872],[-61.2971,-17.386,251.3344],[-61.2925,-17.3865,253.0293],[-61.2913,-17.3881,250.7955],[-61.2922,-17.3891,250.7955],[-61.2882,-17.393,250.0485],[-61.2861,-17.3942,249.947],[-61.2847,-17.3924,251.8034],[-61.2813,-17.3974,250.0141],[-61.2745,-17.398,250.0735],[-61.2679,-17.3931,250.1845],[-61.2665,-17.3945,250.1845],[-61.2672,-17.398,250.8474],[-61.2648,-17.4002,250.1086],[-61.2631,-17.4008,250.1714],[-61.2566,-17.397,250.2162],[-61.2543,-17.4025,250.2293]]]]}}