{"type": "Feature","bbox": [-66.1897,-17.508,-65.7929,-17.1329],"geometry": {"type": "MultiPolygon","coordinates": [[[[-66.0701,-17.4689,3067.2568],[-66.0646,-17.4825,2961.6917],[-66.0654,-17.4873,3054.3508],[-66.0566,-17.4945,3113.8237],[-66.0526,-17.4927,3151.0955],[-66.0493,-17.4952,3192.7529],[-66.0451,-17.4933,3328.1589],[-66.0394,-17.5063,3208.1169],[-66.0176,-17.508,3457.6409],[-66.0026,-17.5069,3504.0964],[-65.99,-17.5039,3602.813],[-65.9866,-17.4997,3532.0449],[-65.96,-17.4855,3425.1196],[-65.9533,-17.4774,3579.0022],[-65.9457,-17.4792,3571.2256],[-65.9372,-17.4713,3686.6636],[-65.9308,-17.4743,3694.0029],[-65.9182,-17.465699999999998,3824.6729],[-65.9093,-17.4628,3851.8428],[-65.8879,-17.449,3660.1511],[-65.8831,-17.4396,3724.9932],[-65.8654,-17.4383,3775.1777],[-65.8517,-17.4396,3931.1094],[-65.8455,-17.4318,3928.7947],[-65.8504,-17.4101,3846.5811],[-65.8657,-17.4046,3736.2983],[-65.8722,-17.3915,3926.0273],[-65.8546,-17.3849,3942.5254],[-65.8436,-17.3859,3633.0708],[-65.8374,-17.3848,3451.0708],[-65.8302,-17.381,3461.3694],[-65.8251,-17.3851,3437.7144],[-65.8197,-17.3868,3501.5889],[-65.8097,-17.381,3569.7832],[-65.8069,-17.3751,3442.8794],[-65.8062,-17.3664,3497.0989],[-65.8037,-17.3595,3593.7075],[-65.7929,-17.3469,3750.6138],[-65.8098,-17.3453,3708.3691],[-65.8171,-17.3461,3649.9927],[-65.834,-17.3517,3443.2556],[-65.8391,-17.3591,3334.74],[-65.8392,-17.3637,3328.6672],[-65.8407,-17.3646,3342.3462],[-65.8485,-17.3563,3307.5894],[-65.8606,-17.3738,3865.8022],[-65.8717,-17.3808,4119.4014],[-65.8785,-17.3807,4102.5654],[-65.8842,-17.385,4005.5332],[-65.8942,-17.3757,4180.7031],[-65.9037,-17.375,4107.1309],[-65.9107,-17.3699,4045.0759],[-65.9171,-17.3643,4011.2192],[-65.9252,-17.3501,4035.6201],[-65.9386,-17.3505,4091.2449],[-65.9416,-17.3497,4011.2991],[-65.9444,-17.346,4106.2266],[-65.9594,-17.3461,4085.8237],[-65.9647,-17.3546,3739.7114],[-65.9697,-17.3579,3638.0815],[-65.9698,-17.368,3381.5017],[-65.9756,-17.3703,3387.991],[-65.9814,-17.3671,3444.2686],[-65.9888,-17.3676,3408.2366],[-65.9943,-17.3658,3576.9521],[-65.9961,-17.36,3597.8882],[-65.9955,-17.3482,3542.0352],[-65.9996,-17.3451,3602.3735],[-65.9995,-17.342,3689.6753],[-65.9935,-17.3374,3982.1069],[-65.9885,-17.3401,3788.3647],[-65.9749,-17.3366,3716.0862],[-65.9722,-17.3339,3830.1289],[-65.9715,-17.3264,4054.5063],[-65.9815,-17.2935,4265.4507],[-65.982,-17.2762,4248.3369],[-65.9866,-17.2606,4218.9644],[-65.9966,-17.2398,4184.502],[-66.0038,-17.2166,4015.897],[-66.0049,-17.2014,3808.0156],[-66.0024,-17.1982,3725.1482],[-66.0031,-17.1952,3667.0933],[-66.0016,-17.1917,3641.3655],[-66.0041,-17.1824,3560.5911],[-66.0126,-17.1751,3596.9727],[-66.0231,-17.1721,3631.9607],[-66.022,-17.1581,3594.6636],[-66.0311,-17.1473,3546.0752],[-66.0564,-17.1329,3427.6753],[-66.0619,-17.1368,3754.3806],[-66.0741,-17.1385,3783.6187],[-66.1092,-17.1531,4061.5903],[-66.131,-17.1578,4054.1313],[-66.1338,-17.1659,4016.9897],[-66.1384,-17.17,4056.8328],[-66.1413,-17.1711,4103.8647],[-66.1488,-17.1678,4081.6345],[-66.1566,-17.1758,4093.7136],[-66.1565,-17.18,4125.5845],[-66.1691,-17.1887,4313.2852],[-66.1865,-17.2051,4271.2158],[-66.187,-17.2206,4485.9082],[-66.1897,-17.2261,4485.1533],[-66.186,-17.2329,4414.749],[-66.1866,-17.239,4440.772],[-66.1847,-17.2466,4411.5625],[-66.1787,-17.2508,4379.6123],[-66.1698,-17.255,4415.1807],[-66.1507,-17.2513,4425.6245],[-66.1416,-17.2568,4475.5708],[-66.1562,-17.2781,4489.2031],[-66.1373,-17.2837,4487.0312],[-66.1299,-17.2829,4224.4785],[-66.1243,-17.2938,4075.2539],[-66.1241,-17.3087,4033.8601],[-66.1198,-17.3156,3935.7368],[-66.1181,-17.325,3680.9175],[-66.1164,-17.3268,3681.8081],[-66.1188,-17.335,3539.3804],[-66.1219,-17.3352,3614.6704],[-66.1295,-17.3465,3209.3394],[-66.1287,-17.3503,3091.9297],[-66.1331,-17.3754,2610.0208],[-66.1319,-17.3793,2677.02],[-66.1348,-17.3841,2809.5903],[-66.1318,-17.3843,2736.1204],[-66.1288,-17.3894,2746.5781],[-66.126,-17.3905,2751.4775],[-66.1176,-17.4077,2705.9685],[-66.1181,-17.4108,2802.6294],[-66.113,-17.4132,2760.0896],[-66.1064,-17.4192,2868.929],[-66.1038,-17.4252,2972.7664],[-66.1016,-17.4264,2975.4971],[-66.1019,-17.4295,3000.9321],[-66.0997,-17.4329,3108.4744],[-66.0933,-17.4335,3022.0767],[-66.0911,-17.4362,3028.2766],[-66.091,-17.4391,3083.8062],[-66.0871,-17.4426,3087.603],[-66.0854,-17.4489,3090.5181],[-66.0783,-17.4561,3107.4282],[-66.0779,-17.4586,3072.874],[-66.0736,-17.4604,3070.8589],[-66.0701,-17.4689,3067.2568]]]]}
,"properties": {"GID_3": "BOL.2.9.2_2","GID_0": "BOL","country": "Bolivia","GID_1": "BOL.2_1","province": "Cochabamba","NL_NAME_1": "NA","GID_2": "BOL.2.9_2","county": "Chapare","NL_NAME_2": "NA","city": "Sacaba","VARNAME_3": "NA","NL_NAME_3": "NA","TYPE_3": "District","ENGTYPE_3": "Distrito","CC_3": "NA","HASC_3": "NA","name": "Sacaba.city","area_km2": 753.1937,"hist_schema_id": "Elevation0-9000","hist_area_km2": {"2600": 0.7487,"2625": 7.3647,"2650": 9.9545,"2675": 11.8966,"2700": 14.1016,"2725": 14.0809,"2750": 13.7773,"2775": 12.6238,"2800": 11.794,"2825": 9.9126,"2850": 9.3056,"2875": 7.9502,"2900": 7.1006,"2925": 7.8695,"2950": 7.1615,"2975": 7.8694,"3000": 7.2625,"3025": 6.7973,"3050": 6.17,"3075": 6.2311,"3100": 5.5636,"3125": 5.5027,"3150": 5.7454,"3175": 5.7857,"3200": 6.0287,"3225": 6.8578,"3250": 6.8782,"3275": 7.4443,"3300": 6.433,"3325": 7.2226,"3350": 8.7196,"3375": 7.89,"3400": 8.8813,"3425": 8.335,"3450": 8.8408,"3475": 8.0121,"3500": 8.9433,"3525": 8.9245,"3550": 12.3455,"3575": 13.4393,"3600": 14.0075,"3625": 13.3608,"3650": 11.7009,"3675": 11.4783,"3700": 14.8587,"3725": 13.6446,"3750": 13.6858,"3775": 13.8882,"3800": 11.8444,"3825": 10.873,"3850": 9.9211,"3875": 10.7108,"3900": 11.257,"3925": 12.9166,"3950": 13.1799,"3975": 12.6134,"4000": 11.824,"4025": 12.9787,"4050": 12.0068,"4075": 12.5335,"4100": 14.2343,"4125": 12.4927,"4150": 12.6747,"4175": 14.8406,"4200": 15.8932,"4225": 18.7479,"4250": 17.3104,"4275": 16.5005,"4300": 13.0182,"4325": 8.7263,"4350": 6.6612,"4375": 6.1754,"4400": 4.2317,"4425": 2.3082,"4450": 1.1744,"4475": 0.648,"4500": 0.324,"4525": 0.162,"4550": 0.0202}}}