{"type": "Feature","bbox": [-69.2556,-12.4984,-67.9746,-11.2295],"geometry": {"type": "MultiPolygon","coordinates": [[[[-67.9963,-11.8497,152.5],[-68.0016,-11.2654,188.6847],[-68.006,-11.2684,182.3269],[-68.0024,-11.2728,182.9534],[-68.0028,-11.276,186.6695],[-68.0076,-11.2712,181.1823],[-68.0096,-11.2754,185.005],[-68.0116,-11.276,184.0988],[-68.0131,-11.2704,184.2346],[-68.0153,-11.2702,192.4703],[-68.0161,-11.2759,186.4296],[-68.0267,-11.2763,191.2939],[-68.0264,-11.2784,195.9857],[-68.0214,-11.2783,195.0026],[-68.0197,-11.2801,192.7576],[-68.0271,-11.2851,198.0793],[-68.0291,-11.2847,189.8947],[-68.0306,-11.2798,198.1631],[-68.0366,-11.2776,194.6469],[-68.0315,-11.2862,185.2413],[-68.0371,-11.2852,191.5195],[-68.0434,-11.2863,202.4357],[-68.044,-11.2888,201.5418],[-68.0414,-11.2955,184.4617],[-68.0436,-11.2975,182.8511],[-68.0469,-11.2929,186.6246],[-68.0509,-11.2972,189.95],[-68.0519,-11.293,182.9678],[-68.0561,-11.292,185.9108],[-68.0582,-11.2867,191.3145],[-68.0625,-11.2957,198.9052],[-68.0673,-11.2997,199.5457],[-68.0685,-11.2986,184.4577],[-68.0661,-11.2944,184.1189],[-68.0679,-11.2919,192.2466],[-68.0705,-11.2924,193.1253],[-68.074,-11.2962,192.364],[-68.0779,-11.2968,192.1886],[-68.0807,-11.2914,202.5601],[-68.0873,-11.2909,185.3827],[-68.0878,-11.2946,199.75],[-68.092,-11.2925,194.8852],[-68.0988,-11.292,199.0582],[-68.1031,-11.2868,188.6056],[-68.1076,-11.2843,191.2239],[-68.1097,-11.2871,186.5819],[-68.1067,-11.2905,197.2043],[-68.1106,-11.2936,193.22],[-68.1122,-11.291,205.9407],[-68.1101,-11.2786,193.4084],[-68.1112,-11.2779,189.5872],[-68.1152,-11.2818,198.1216],[-68.114,-11.288,192.4672],[-68.1177,-11.2904,191.1755],[-68.12,-11.2882,193.2377],[-68.1178,-11.2819,190.6866],[-68.1266,-11.2877,193.9673],[-68.1332,-11.2863,198.4379],[-68.131,-11.2816,189.9861],[-68.132,-11.2804,190.5806],[-68.1388,-11.2802,201.8331],[-68.1394,-11.2824,194.7199],[-68.1365,-11.2846,187.7177],[-68.1363,-11.2868,194.8579],[-68.1414,-11.2913,200.1197],[-68.1425,-11.2873,191.4918],[-68.1547,-11.2863,201.0292],[-68.1564,-11.2791,188.6647],[-68.159,-11.2781,201.7512],[-68.1612,-11.2791,192.4004],[-68.1599,-11.2829,201.7862],[-68.1611,-11.2847,197.1253],[-68.1665,-11.2821,191.6164],[-68.1714,-11.2821,189.8992],[-68.1684,-11.2872,206.9596],[-68.171,-11.2924,194.4342],[-68.1742,-11.2884,202.9968],[-68.179,-11.286,190.7993],[-68.181,-11.2872,193.575],[-68.1793,-11.29,192.0677],[-68.1807,-11.2928,194.7147],[-68.1849,-11.2924,191.1688],[-68.1887,-11.2884,198.0182],[-68.1934,-11.2933,196.4842],[-68.1954,-11.2888,203.0422],[-68.2018,-11.2854,196.1339],[-68.2028,-11.2871,194.3873],[-68.199,-11.2897,198.4354],[-68.1994,-11.2919,195.6357],[-68.2097,-11.2959,192.9695],[-68.2115,-11.2947,199.3409],[-68.2113,-11.2898,210.9958],[-68.2183,-11.2902,198.3058],[-68.2203,-11.2887,194.7459],[-68.2201,-11.2845,190.3714],[-68.2168,-11.2818,197.42],[-68.2206,-11.2763,189.3235],[-68.2273,-11.2756,197.5657],[-68.2317,-11.2788,203.9149],[-68.2351,-11.2765,201.943],[-68.2407,-11.2757,193.55],[-68.238,-11.2679,214.722],[-68.2396,-11.2646,209.5128],[-68.2418,-11.264,196.7862],[-68.2443,-11.2685,197.8739],[-68.2503,-11.271,195.7233],[-68.2486,-11.2644,200.6729],[-68.2491,-11.259,198.5517],[-68.2506,-11.2576,198.0102],[-68.2551,-11.2591,196.0055],[-68.2546,-11.2517,198.7755],[-68.2596,-11.2554,192.3895],[-68.2639,-11.2491,195.604],[-68.2683,-11.2504,203.5058],[-68.2766,-11.2495,195.7428],[-68.2865,-11.2551,197.9256],[-68.2875,-11.2493,195.0279],[-68.2856,-11.2482,211.9566],[-68.2809,-11.2499,193.2759],[-68.2788,-11.2466,201.1477],[-68.2852,-11.2446,208.8525],[-68.2888,-11.2454,193.8485],[-68.2905,-11.2417,193.0995],[-68.2954,-11.2411,205.5664],[-68.3024,-11.236,201.7372],[-68.3056,-11.2375,205.7077],[-68.306,-11.2415,211.2205],[-68.3103,-11.2409,201.9246],[-68.3161,-11.2482,203.3846],[-68.3182,-11.2486,204.8499],[-68.319,-11.2465,197.9713],[-68.3157,-11.2454,190.625],[-68.3153,-11.2429,204.8749],[-68.3246,-11.2424,202.6513],[-68.3284,-11.2405,203.6499],[-68.3259,-11.2362,222.1355],[-68.3278,-11.2322,197.8695],[-68.3342,-11.2338,203.1356],[-68.3398,-11.2319,203.9107],[-68.3443,-11.2325,197.8992],[-68.3459,-11.235,201.1331],[-68.3449,-11.2404,216.2424],[-68.3467,-11.2423,199.8692],[-68.3506,-11.234,197.4583],[-68.3542,-11.2393,201.7207],[-68.3574,-11.2399,198.8577],[-68.3588,-11.2391,199.0496],[-68.3579,-11.234,200.5789],[-68.3637,-11.2311,201.5577],[-68.3698,-11.2311,221.5735],[-68.3705,-11.2323,211.884],[-68.366,-11.235,208.4499],[-68.3644,-11.239,198.4082],[-68.3655,-11.2416,208.5031],[-68.3684,-11.242,205.6354],[-68.3729,-11.2399,208.1177],[-68.3788,-11.2326,204.4301],[-68.3816,-11.2332,223.3061],[-68.383,-11.2351,202.8624],[-68.379,-11.2393,203.6658],[-68.3785,-11.2421,209.614],[-68.3811,-11.2438,204.1217],[-68.3844,-11.2413,219.0898],[-68.3859,-11.2434,222.6265],[-68.3857,-11.2472,208.8243],[-68.3825,-11.2509,203.2769],[-68.3829,-11.2577,200.9653],[-68.3847,-11.257,202.4187],[-68.3858,-11.2531,197.4015],[-68.3889,-11.2554,205.844],[-68.3973,-11.2575,200.4426],[-68.3945,-11.2628,197.973],[-68.3999,-11.2668,202.2902],[-68.4017,-11.2654,197.4651],[-68.4005,-11.2614,211.9383],[-68.4052,-11.2575,204.4501],[-68.4086,-11.2584,205.3594],[-68.4072,-11.2629,203.0055],[-68.4087,-11.2701,203.257],[-68.4116,-11.2712,205.35],[-68.4149,-11.2689,202.4081],[-68.4217,-11.2753,203.6446],[-68.4236,-11.2692,205.1563],[-68.4305,-11.2685,213.0986],[-68.4349,-11.2717,207.398],[-68.4342,-11.2667,203.1137],[-68.4355,-11.2643,203.174],[-68.4431,-11.2657,204.0972],[-68.4439,-11.2563,224.4689],[-68.4463,-11.257,209.9147],[-68.4477,-11.262,222.1235],[-68.4507,-11.2649,208.4443],[-68.4534,-11.2627,211.2073],[-68.4518,-11.2572,207.2061],[-68.4538,-11.2538,203.2509],[-68.4559,-11.2545,212.0732],[-68.4539,-11.2574,200.0938],[-68.4547,-11.2598,209.1569],[-68.4617,-11.2619,205.4207],[-68.4649,-11.2611,209.8619],[-68.4648,-11.2586,212.5681],[-68.4591,-11.2576,205.9297],[-68.4581,-11.2561,223.4102],[-68.4593,-11.2513,213.631],[-68.4609,-11.2504,205.5233],[-68.4622,-11.2513,215.0197],[-68.4624,-11.2557,203.7487],[-68.4705,-11.2555,201.0953],[-68.4721,-11.2581,215.378],[-68.4716,-11.2628,200.9516],[-68.4729,-11.2637,199.6782],[-68.478,-11.2605,209.6445],[-68.4839,-11.2614,206.4782],[-68.4841,-11.2599,219.2342],[-68.4795,-11.2578,198.5],[-68.4845,-11.2469,209.1206],[-68.4863,-11.2483,210.1714],[-68.4851,-11.2537,221.7274],[-68.4873,-11.2581,202.6135],[-68.4907,-11.2586,205.407],[-68.4926,-11.2533,217.4053],[-68.4954,-11.251,204.3654],[-68.4968,-11.2537,206.8813],[-68.4958,-11.2586,204.8081],[-68.4986,-11.2602,206.2762],[-68.5016,-11.2526,213.9828],[-68.5088,-11.2479,224.0155],[-68.5257,-11.23,209.2971],[-68.5302,-11.2321,213.3999],[-68.5265,-11.232,204.0179],[-68.5257,-11.2337,216.5486],[-68.5296,-11.2362,206.6136],[-68.5299,-11.2407,211.3582],[-68.5328,-11.2427,208.1258],[-68.5352,-11.2411,209.5339],[-68.5361,-11.2346,227.9433],[-68.5385,-11.2318,225.8074],[-68.5438,-11.2298,219.191],[-68.5528,-11.2295,210.7101],[-68.5553,-11.2344,213.0818],[-68.5605,-11.2363,230.0828],[-68.5643,-11.2494,210.2704],[-68.5662,-11.2506,210.1964],[-68.5677,-11.25,216.6753],[-68.5687,-11.2449,205.6486],[-68.5722,-11.2455,219.1984],[-68.582,-11.2396,224.8873],[-68.5876,-11.2394,210.1302],[-68.5904,-11.2376,209.1602],[-68.5966,-11.2397,222.4789],[-68.6001,-11.236,210.571],[-68.6069,-11.2383,212.6676],[-68.6069,-11.2397,223.8904],[-68.6032,-11.2386,203.5],[-68.6029,-11.2403,209.2673],[-68.6056,-11.2444,205.791],[-68.6092,-11.2447,226.6913],[-68.6148,-11.2403,226.7143],[-68.6175,-11.2356,210.6218],[-68.6224,-11.2402,223.8563],[-68.63,-11.238,223.6381],[-68.633,-11.2386,227.1715],[-68.6334,-11.2434,215.2277],[-68.6363,-11.2462,211.8961],[-68.6419,-11.2431,213.5855],[-68.6495,-11.2461,213.9993],[-68.6591,-11.2418,217.7632],[-68.6604,-11.2442,213.6068],[-68.6588,-11.2492,212.5416],[-68.6636,-11.2519,212.7659],[-68.6658,-11.2507,217.6271],[-68.6639,-11.2456,214.0954],[-68.6648,-11.2441,211.0142],[-68.6687,-11.2425,217.2098],[-68.6713,-11.2453,216.165],[-68.6762,-11.2467,221.8044],[-68.6787,-11.2389,220.1238],[-68.6833,-11.238,215.792],[-68.6881,-11.2402,212.1165],[-68.6898,-11.245,218.1507],[-68.6955,-11.2472,214.7392],[-68.7067,-11.2585,220.3955],[-68.7096,-11.2577,213.0693],[-68.7096,-11.251,210.8292],[-68.7114,-11.251,224.3641],[-68.7167,-11.262,221.2887],[-68.724,-11.266,216.3082],[-68.7255,-11.2732,228.0223],[-68.7274,-11.2751,227.3671],[-68.7301,-11.2759,216.2895],[-68.7332,-11.271,216.5632],[-68.737,-11.2719,217.6926],[-68.7387,-11.2848,219.6285],[-68.7368,-11.2911,215.4225],[-68.7399,-11.2941,218.7475],[-68.7437,-11.2947,218.4353],[-68.741,-11.2987,216.1222],[-68.7418,-11.3061,218.6284],[-68.7462,-11.3118,221.6102],[-68.7409,-11.3175,212.5],[-68.7422,-11.3182,225.8761],[-68.7461,-11.3159,219.1813],[-68.7503,-11.3167,219.5658],[-68.7479,-11.3237,219.7602],[-68.7494,-11.3312,219.5888],[-68.7529,-11.33,217.6288],[-68.7509,-11.3248,218.6346],[-68.7531,-11.3221,220.7787],[-68.7636,-11.3276,220.334],[-68.761,-11.3309,217.5532],[-68.7607,-11.3368,217.0577],[-68.7668,-11.3434,224.0447],[-68.7681,-11.3418,218.2458],[-68.7666,-11.3302,216.4852],[-68.7748,-11.3343,220.703],[-68.7783,-11.327,217.7408],[-68.7822,-11.33,223.6407],[-68.7892,-11.3293,226.933],[-68.7896,-11.3314,220.3681],[-68.784,-11.3347,221.1232],[-68.784,-11.3366,216.2297],[-68.7886,-11.3392,218.3234],[-68.7934,-11.3364,226.8516],[-68.8028,-11.3409,219.7664],[-68.8018,-11.3442,218.0685],[-68.7989,-11.3414,234.4066],[-68.7963,-11.3415,219.607],[-68.7953,-11.3465,224.9548],[-68.7923,-11.3489,225.5515],[-68.7948,-11.3539,224.1471],[-68.7951,-11.3494,227.9668],[-68.8023,-11.3456,227.7599],[-68.8041,-11.3465,221.1601],[-68.7984,-11.3623,226.254],[-68.7988,-11.3647,231.8587],[-68.8016,-11.3647,229.9272],[-68.8008,-11.3605,223.359],[-68.803,-11.3578,218.6099],[-68.8056,-11.3591,234.6758],[-68.8076,-11.3684,235.6475],[-68.8124,-11.3668,224.215],[-68.8152,-11.361,229.6148],[-68.819,-11.3612,227.3991],[-68.8196,-11.3636,224.6467],[-68.8151,-11.3648,226.1014],[-68.8138,-11.3667,224.215],[-68.8143,-11.369,225.946],[-68.8168,-11.3702,228.5959],[-68.8188,-11.369,231.158],[-68.8218,-11.3622,219.1345],[-68.8236,-11.3625,226.9447],[-68.8225,-11.3676,218.2156],[-68.8237,-11.3683,232.4776],[-68.83,-11.3677,223.6349],[-68.833,-11.3632,231.2547],[-68.838,-11.3625,225.3937],[-68.8404,-11.3651,240.3268],[-68.8392,-11.3724,226.1361],[-68.8415,-11.3736,222.5495],[-68.8413,-11.369,221.0879],[-68.846,-11.3662,221.8739],[-68.8479,-11.3582,227.0732],[-68.8505,-11.3575,230.9561],[-68.8539,-11.3626,221.47559999999999],[-68.849,-11.3651,226.2694],[-68.8491,-11.3675,227.5415],[-68.8539,-11.3696,238.8853],[-68.8587,-11.3645,223.5934],[-68.861,-11.3644,227.8438],[-68.8619,-11.375,228.2086],[-68.8682,-11.3796,229.8247],[-68.8685,-11.3866,233.0724],[-68.8706,-11.386,228.0929],[-68.8714,-11.3805,223.7585],[-68.8761,-11.3754,230.1082],[-68.879,-11.3765,226.0992],[-68.8813,-11.3807,226.0387],[-68.8803,-11.3826,224.2643],[-68.8741,-11.3845,228.4028],[-68.8753,-11.3874,227.7868],[-68.8779,-11.3885,233.2303],[-68.882,-11.3879,226.0535],[-68.8848,-11.385,224.358],[-68.8846,-11.3762,224.6594],[-68.887,-11.3741,229.087],[-68.8895,-11.3752,233.2071],[-68.8892,-11.3803,229.3958],[-68.8938,-11.3837,231.4884],[-68.9009,-11.3807,228.5278],[-68.9061,-11.3715,237.1198],[-68.911,-11.3771,228.0821],[-68.9179,-11.3756,231.002],[-68.9257,-11.3779,229.3664],[-68.9274,-11.3808,229.9395],[-68.925,-11.3831,229.0984],[-68.9193,-11.3796,229.4722],[-68.9176,-11.3814,240.1016],[-68.9229,-11.3865,235.9814],[-68.9273,-11.3849,223.0],[-68.9289,-11.3896,244.9806],[-68.9328,-11.3932,232.246],[-68.9341,-11.401,230.6996],[-68.9405,-11.4021,230.8599],[-68.9402,-11.4042,236.6962],[-68.9372,-11.406,231.9733],[-68.9299,-11.4053,227.2596],[-68.93,-11.4095,229.2703],[-68.9371,-11.4102,235.8347],[-68.9403,-11.409,227.1721],[-68.9461,-11.414,225.823],[-68.9497,-11.4082,236.9964],[-68.9527,-11.4076,226.0807],[-68.9526,-11.415,241.5627],[-68.9477,-11.4182,242.6427],[-68.9541,-11.4266,226.5858],[-68.9571,-11.4269,227.8974],[-68.9581,-11.4227,239.0244],[-68.9598,-11.4218,239.0244],[-68.9693,-11.426,231.05],[-68.972,-11.4321,231.6705],[-68.9785,-11.4291,232.9815],[-68.9819,-11.4292,231.4383],[-68.982,-11.432,233.1498],[-68.9775,-11.432,238.3147],[-68.9762,-11.4338,229.5753],[-68.981,-11.4375,228.3826],[-68.9819,-11.4428,232.9024],[-68.9837,-11.4444,234.5018],[-68.9871,-11.4444,231.1316],[-68.9889,-11.4425,245.7115],[-68.9854,-11.4393,230.9951],[-68.9841,-11.4342,232.8116],[-68.997,-11.4402,234.7327],[-68.9984,-11.4391,233.018],[-68.9982,-11.4363,238.8212],[-68.9901,-11.4329,239.1881],[-68.9993,-11.4308,227.0],[-69.0017,-11.4314,243.2522],[-69.0023,-11.4366,238.7253],[-69.007,-11.4384,246.4928],[-69.0064,-11.4435,231.7261],[-69.0079,-11.4464,241.7889],[-69.011,-11.445,235.6402],[-69.0128,-11.4393,232.1754],[-69.0143,-11.4399,229.7084],[-69.0152,-11.4465,238.5177],[-69.0244,-11.4474,231.231],[-69.0266,-11.4394,233.0151],[-69.0289,-11.4374,232.9018],[-69.0305,-11.4382,236.0317],[-69.0319,-11.4448,246.9835],[-69.036,-11.4463,244.9586],[-69.0382,-11.4447,233.9087],[-69.0352,-11.4409,231.4314],[-69.036,-11.4381,232.6632],[-69.0441,-11.4359,235.5433],[-69.0461,-11.4379,234.3958],[-69.0461,-11.4436,245.8178],[-69.0528,-11.45,242.3445],[-69.0582,-11.439,233.6451],[-69.0649,-11.4408,239.6759],[-69.0713,-11.4376,246.4003],[-69.0716,-11.4349,242.9726],[-69.07,-11.4333,238.1724],[-69.0668,-11.4361,239.3642],[-69.0644,-11.435,237.7528],[-69.0654,-11.4276,239.5385],[-69.0708,-11.4274,233.6483],[-69.0771,-11.4248,250.9127],[-69.0864,-11.4275,238.2673],[-69.0841,-11.4296,258.5652],[-69.0744,-11.4298,241.2517],[-69.0745,-11.4371,241.8456],[-69.0789,-11.4315,243.5014],[-69.0897,-11.4365,248.3967],[-69.0913,-11.436,233.0],[-69.0906,-11.4315,245.9744],[-69.0918,-11.4305,238.7227],[-69.101,-11.432,242.8896],[-69.1078,-11.4313,255.3375],[-69.1115,-11.4354,241.1831],[-69.1063,-11.4372,251.5963],[-69.1047,-11.4416,245.8029],[-69.1117,-11.4389,243.8978],[-69.1168,-11.4446,243.0961],[-69.1159,-11.4483,250.8251],[-69.1112,-11.4495,237.9356],[-69.1113,-11.4524,236.4322],[-69.1182,-11.4513,252.1635],[-69.1238,-11.4539,237.9894],[-69.1249,-11.4511,250.141],[-69.1232,-11.4446,237.208],[-69.1248,-11.4431,257.6053],[-69.1309,-11.4471,243.5831],[-69.1358,-11.4453,239.5629],[-69.1423,-11.4524,240.9033],[-69.1425,-11.4581,235.0],[-69.1449,-11.4614,253.8856],[-69.1495,-11.4595,254.039],[-69.1502,-11.4528,243.5577],[-69.1552,-11.4523,238.8256],[-69.159,-11.4476,241.1626],[-69.1652,-11.447,249.0274],[-69.1719,-11.4523,241.2973],[-69.1777,-11.4463,254.4847],[-69.1799,-11.4459,242.2404],[-69.182,-11.4467,255.2135],[-69.1848,-11.4535,250.166],[-69.1885,-11.4566,255.1822],[-69.1913,-11.4559,242.0682],[-69.1916,-11.4542,244.6554],[-69.1866,-11.4501,248.0443],[-69.1883,-11.4468,244.5787],[-69.1917,-11.4475,246.9331],[-69.1964,-11.4517,247.8177],[-69.2034,-11.4492,246.3207],[-69.2068,-11.4538,247.4609],[-69.218,-11.4518,237.03],[-69.2183,-11.4534,252.9006],[-69.2152,-11.4563,252.4185],[-69.2162,-11.4582,246.9358],[-69.2214,-11.4602,248.5355],[-69.2292,-11.459,248.0869],[-69.2312,-11.4618,250.3423],[-69.2281,-11.4634,248.2962],[-69.2278,-11.466,241.7591],[-69.2373,-11.4685,257.8551],[-69.2404,-11.4674,248.5721],[-69.2375,-11.4626,257.9138],[-69.238,-11.4611,243.7367],[-69.2401,-11.4608,253.946],[-69.2433,-11.4651,248.0806],[-69.2463,-11.4596,258.9863],[-69.2556,-11.4575,256.8242],[-69.1485,-11.6364,257.2394],[-68.97,-11.9125,248.9105],[-68.6522,-12.4977,160.0],[-68.6375,-12.4984,160.0],[-68.6183,-12.4954,160.0],[-68.5626,-12.4591,160.0],[-68.5586,-12.4543,160.0],[-68.5581,-12.4478,160.0],[-68.5597,-12.4443,160.0],[-68.5826,-12.4182,160.0],[-68.5911,-12.4036,160.0],[-68.5882,-12.3969,160.0],[-68.5837,-12.3936,160.0],[-68.5724,-12.3899,160.0],[-68.5639,-12.3897,165.2153],[-68.5196,-12.3952,160.0],[-68.5082,-12.3993,160.0],[-68.5022,-12.4033,160.0],[-68.4922,-12.4168,160.0],[-68.4856,-12.4203,160.0],[-68.472,-12.4232,159.5],[-68.4609,-12.4203,159.5],[-68.4502,-12.4109,159.0],[-68.4385,-12.3975,159.0],[-68.4193,-12.382,158.5],[-68.4046,-12.3636,158.0],[-68.4017,-12.3498,187.4219],[-68.4002,-12.3323,157.5],[-68.4029,-12.3027,157.0],[-68.4144,-12.2812,157.0],[-68.415,-12.2746,157.0],[-68.4117,-12.264099999999999,157.0],[-68.4041,-12.2542,157.0],[-68.3782,-12.2312,157.0],[-68.3582,-12.2225,157.0],[-68.339,-12.22,157.0],[-68.3106,-12.2289,157.0],[-68.3015,-12.2281,157.0],[-68.2929,-12.2246,157.0],[-68.2829,-12.2172,157.0],[-68.2712,-12.2048,157.0],[-68.2498,-12.1923,157.0],[-68.2443,-12.1874,157.0],[-68.2342,-12.1693,157.0],[-68.2253,-12.1383,157.0],[-68.2253,-12.1271,157.0],[-68.2311,-12.1048,157.0],[-68.2306,-12.0983,157.0],[-68.2264,-12.0842,157.0],[-68.2311,-12.0563,156.5],[-68.2317,-12.041,156.5],[-68.2386,-12.0211,156.5],[-68.2366,-12.0128,156.5],[-68.2334,-12.0108,156.5],[-68.2086,-12.0098,156.5],[-68.1842,-12.0111,156.5],[-68.1564,-12.0221,156.5],[-68.1333,-12.0219,156.5],[-68.1281,-12.0244,156.5],[-68.1171,-12.0343,156.5],[-68.1107,-12.0367,156.5],[-68.1036,-12.0373,156.5],[-68.0983,-12.0348,156.5],[-68.0614,-11.9982,156.5],[-68.0464,-11.9885,156.5],[-68.0178,-11.9767,156.5],[-68.0126,-11.9726,156.5],[-67.9871,-11.9483,156.0],[-67.9776,-11.9359,155.5],[-67.9746,-11.9193,155.0],[-67.9776,-11.8995,154.5],[-67.9881,-11.8728,153.5],[-67.997,-11.8588,153.0],[-67.9963,-11.8497,152.5]]]]}
,"properties": {"GID_3": "BOL.6.4.1_2","GID_0": "BOL","country": "Bolivia","GID_1": "BOL.6_1","province": "Pando","NL_NAME_1": "NA","GID_2": "BOL.6.4_2","county": "Manuripi","NL_NAME_2": "NA","city": "Filadelfia","VARNAME_3": "NA","NL_NAME_3": "NA","TYPE_3": "District","ENGTYPE_3": "Distrito","CC_3": "NA","HASC_3": "NA","name": "Filadelfia.city","area_km2": 11804.081,"hist_schema_id": "Elevation0-9000","hist_area_km2": {"150": 67.259,"175": 781.02,"200": 1547.271,"225": 2972.53,"250": 4010.706,"275": 1741.623,"300": 634.844,"325": 48.767}}}