{"type":"Feature","properties":{"GID_3":"BOL.2.14.3_2","GID_0":"BOL","country":"Bolivia","GID_1":"BOL.2_1","province":"Cochabamba","NL_NAME_1":"NA","GID_2":"BOL.2.14_2","county":"Quillacollo","NL_NAME_2":"NA","city":"Sipesipe","VARNAME_3":"NA","NL_NAME_3":"NA","TYPE_3":"District","ENGTYPE_3":"Distrito","CC_3":"NA","HASC_3":"NA","name":"Sipesipe.city"},
"geometry":{"type": "MultiPolygon","coordinates": [[[[-66.3907,-17.6986,2986.6201],[-66.3828,-17.7019,2893.4729],[-66.3809,-17.7071,2857.6782],[-66.3729,-17.7104,2756.9414],[-66.3724,-17.7139,2738.8325],[-66.3693,-17.7163,2737.2766],[-66.3657,-17.7239,2659.0842],[-66.3641,-17.7317,2623.3354],[-66.3563,-17.7414,2543.5669],[-66.3496,-17.7422,2516.5068],[-66.3336,-17.7343,2493.5869],[-66.3346,-17.7283,2607.0176],[-66.3336,-17.7234,2615.1016],[-66.337,-17.7181,2772.3076],[-66.3377,-17.71,3026.75],[-66.3335,-17.6982,2996.699],[-66.339,-17.6887,3316.4968],[-66.341,-17.6887,3316.2729],[-66.3464,-17.6838,3318.0376],[-66.3395,-17.6725,3344.1079],[-66.3482,-17.6582,3249.5681],[-66.3468,-17.6532,3081.2754],[-66.3337,-17.6485,2827.9143],[-66.3282,-17.6488,2849.6289],[-66.3226,-17.6421,2702.835],[-66.321,-17.6353,2674.6191],[-66.3223,-17.6325,2656.3154],[-66.3218,-17.6262,2580.9907],[-66.3145,-17.6198,2530.2732],[-66.3057,-17.6166,2480.6262],[-66.3017,-17.6134,2472.928],[-66.3008,-17.61,2472.1995],[-66.2925,-17.6053,2438.8208],[-66.2818,-17.5944,2585.8323],[-66.2817,-17.5915,2615.5386],[-66.2899,-17.5798,2725.0381],[-66.3086,-17.5596,2847.9893],[-66.3032,-17.5253,2670.0281],[-66.3066,-17.5228,2743.4766],[-66.3113,-17.5153,2773.5186],[-66.3111,-17.5096,2810.1526],[-66.3146,-17.5001,2830.5818],[-66.3255,-17.4839,2707.645],[-66.3214,-17.4791,2673.321],[-66.2983,-17.477,2730.6443],[-66.2906,-17.4745,2709.1377],[-66.2737,-17.4726,2958.4487],[-66.2829,-17.4548,2678.5522],[-66.3018,-17.4412,2599.6235],[-66.3025,-17.4284,2715.8882],[-66.3137,-17.4173,2681.241],[-66.3194,-17.4087,2578.7451],[-66.3216,-17.4084,2550.0654],[-66.3236,-17.4117,2523.6338],[-66.3266,-17.4105,2533.3987],[-66.3276,-17.4079,2537.3623],[-66.3345,-17.4052,2552.5015],[-66.3468,-17.4075,2577.8157],[-66.3678,-17.4156,2596.9937],[-66.373,-17.4202,2601.4509],[-66.3871,-17.4161,2650.5608],[-66.389,-17.4137,2665.1453],[-66.3919,-17.4146,2689.1997],[-66.3948,-17.4132,2690.8513],[-66.3989,-17.4148,2737.5269],[-66.4074,-17.4107,2792.4148],[-66.4114,-17.4069,2801.5752],[-66.4135,-17.4022,2823.8235],[-66.4242,-17.3926,2915.4385],[-66.4244,-17.39,2915.8926],[-66.4283,-17.3886,2943.5908],[-66.4327,-17.3831,3001.0737],[-66.4363,-17.3728,3081.7939],[-66.4494,-17.3554,3304.6182],[-66.4502,-17.3471,3402.876],[-66.4526,-17.3426,3501.1064],[-66.4523,-17.3408,3535.0884],[-66.4438,-17.3365,3747.5083],[-66.4383,-17.33,3994.2993],[-66.436,-17.3298,4036.8027],[-66.4328,-17.3268,4166.7119],[-66.4301,-17.3151,4357.7432],[-66.4389,-17.3036,4146.5083],[-66.4452,-17.3023,4203.5669],[-66.4503,-17.2968,3968.2566],[-66.4552,-17.2941,3874.9272],[-66.4592,-17.2838,4136.8853],[-66.4656,-17.2909,4191.2754],[-66.4807,-17.2876,4170.3799],[-66.484,-17.2935,4248.9614],[-66.4844,-17.3041,4277.0464],[-66.4889,-17.3156,4249.2983],[-66.4893,-17.3321,4151.6851],[-66.4926,-17.343,4142.5835],[-66.5009,-17.3603,4174.79],[-66.522,-17.3649,4329.5078],[-66.5269,-17.3763,4351.4668],[-66.5351,-17.3872,4507.1494],[-66.5388,-17.3873,4458.4683],[-66.5343,-17.3922,4502.0063],[-66.5174,-17.4003,4510.7554],[-66.5113,-17.4098,4485.0269],[-66.5085,-17.4102,4453.4971],[-66.5004,-17.4042,4485.7798],[-66.4957,-17.4109,4503.2212],[-66.4903,-17.4119,4497.1646],[-66.4974,-17.4319,4159.3101],[-66.4953,-17.4544,3960.6626],[-66.4916,-17.4585,3929.6614],[-66.4877,-17.459,3909.812],[-66.4816,-17.457,3966.0994],[-66.4717,-17.4656,3862.8215],[-66.464,-17.4696,3745.9236],[-66.4611,-17.4688,3764.7317],[-66.4533,-17.4716,3700.2168],[-66.4377,-17.4824,3667.842],[-66.4334,-17.483,3668.7791],[-66.4296,-17.4866,3617.5325],[-66.428,-17.4861,3647.325],[-66.4234,-17.4893,3643.0752],[-66.4191,-17.4867,3626.9109],[-66.416,-17.4818,3614.5864],[-66.4119,-17.4813,3545.3499],[-66.4092,-17.4872,3440.5991],[-66.3965,-17.4876,3253.085],[-66.3945,-17.4899,3211.5825],[-66.394,-17.4954,3061.8831],[-66.3884,-17.5019,2910.2402],[-66.391,-17.5127,3014.6272],[-66.3877,-17.5265,2939.6438],[-66.3884,-17.5299,2950.584],[-66.3854,-17.5343,2866.1543],[-66.3803,-17.5543,2622.3315],[-66.3811,-17.5571,2513.6914],[-66.3849,-17.5583,2511.7212],[-66.3892,-17.5534,2515.8396],[-66.401,-17.5485,2530.2036],[-66.4127,-17.5479,2542.915],[-66.4215,-17.5442,2552.9766],[-66.4272,-17.5445,2559.0723],[-66.4387,-17.5495,2572.9104],[-66.4466,-17.5611,2593.812],[-66.452,-17.5609,2604.6836],[-66.4548,-17.5637,2620.5205],[-66.4624,-17.5574,2611.7383],[-66.4685,-17.5579,2615.8623],[-66.4715,-17.5546,2618.6877],[-66.4749,-17.5576,2629.1182],[-66.4392,-17.5845,3126.3147],[-66.4351,-17.5923,3150.457],[-66.429,-17.5928,3266.968],[-66.4277,-17.6068,3305.1697],[-66.4307,-17.6105,3321.0525],[-66.4278,-17.6159,3128.1902],[-66.4228,-17.6195,2919.394],[-66.4175,-17.6137,2862.2964],[-66.4139,-17.6124,2850.2158],[-66.4046,-17.6145,2804.3665],[-66.4015,-17.6197,2776.6733],[-66.4019,-17.6238,2798.1965],[-66.3968,-17.6334,2836.8003],[-66.3952,-17.6401,2928.4126],[-66.3873,-17.6483,2940.0933],[-66.3798,-17.6512,2955.3093],[-66.3808,-17.6577,3083.7959],[-66.3893,-17.6649,2981.4702],[-66.393,-17.6652,2986.0825],[-66.3938,-17.6708,3045.4082],[-66.3959,-17.672,3036.7173],[-66.3972,-17.6773,3056.6384],[-66.3998,-17.679,3078.6382],[-66.4,-17.6846,3136.0449],[-66.3907,-17.6986,2986.6201]]]]}}