{"type": "Feature","bbox": [-64.7297,-16.513,-62.6387,-15.802],"geometry": {"type": "MultiPolygon","coordinates": [[[[-64.7297,-15.802,165.4082],[-64.7262,-15.8039,164.756],[-64.7206,-15.8035,161.5],[-64.7189,-15.8053,175.0846],[-64.7239,-15.82,163.2455],[-64.7222,-15.8232,169.1465],[-64.7188,-15.8232,169.1089],[-64.7169,-15.8177,162.7493],[-64.7095,-15.817,164.1997],[-64.7079,-15.8199,172.7122],[-64.7139,-15.8241,162.6797],[-64.7117,-15.8271,163.0496],[-64.6997,-15.824,165.4586],[-64.6926,-15.826,168.3206],[-64.6973,-15.8298,173.7189],[-64.6948,-15.8369,163.5913],[-64.6858,-15.8374,166.0195],[-64.6828,-15.8403,162.0],[-64.6893,-15.8451,164.3852],[-64.6931,-15.8521,164.1723],[-64.6936,-15.8553,166.8367],[-64.69,-15.8582,167.4795],[-64.6904,-15.865,169.6376],[-64.6759,-15.8738,164.7848],[-64.6654,-15.8901,163.3045],[-64.6588,-15.8896,169.7544],[-64.6535,-15.8812,177.922],[-64.6518,-15.8818,168.6826],[-64.6501,-15.887,167.5148],[-64.6473,-15.8882,175.9707],[-64.6392,-15.8844,164.1158],[-64.6368,-15.8776,163.9655],[-64.624,-15.8773,170.4101],[-64.6227,-15.8803,164.9633],[-64.6237,-15.8844,170.6066],[-64.6317,-15.8976,162.5],[-64.6192,-15.9027,165.2961],[-64.6182,-15.9097,164.7379],[-64.6157,-15.9135,167.6619],[-64.5924,-15.9141,166.791],[-64.5934,-15.9232,162.5],[-64.6016,-15.9216,171.4055],[-64.6028,-15.924,162.5],[-64.5991,-15.9311,166.026],[-64.59,-15.9396,187.6903],[-64.5874,-15.9393,181.5575],[-64.587,-15.9367,176.6074],[-64.5928,-15.9305,166.3475],[-64.5905,-15.9269,168.2686],[-64.5729,-15.9348,172.324],[-64.57,-15.9339,166.2769],[-64.5708,-15.9313,166.0243],[-64.578,-15.9248,166.1595],[-64.5791,-15.9212,179.9223],[-64.5773,-15.9169,165.8055],[-64.5717,-15.9195,174.6011],[-64.5698,-15.9254,163.0],[-64.5633,-15.9281,171.1627],[-64.5592,-15.9349,178.3547],[-64.5535,-15.9289,183.9359],[-64.5532,-15.9263,176.7752],[-64.5572,-15.925,172.9502],[-64.5624,-15.9269,175.3231],[-64.5635,-15.9252,170.3978],[-64.56,-15.9168,172.6421],[-64.555,-15.9145,171.6127],[-64.5474,-15.9388,166.836],[-64.5398,-15.9366,168.0212],[-64.5421,-15.9299,178.1446],[-64.5403,-15.9279,171.9989],[-64.5362,-15.9277,172.6571],[-64.531,-15.9306,167.366],[-64.528,-15.9376,174.6122],[-64.5286,-15.9394,169.9238],[-64.5342,-15.9481,182.1019],[-64.543,-15.9454,166.7399],[-64.5447,-15.95,174.3475],[-64.5503,-15.955,172.6917],[-64.5526,-15.9664,172.0255],[-64.5515,-15.968,176.6035],[-64.5399,-15.9622,168.3048],[-64.5338,-15.962,168.7918],[-64.521,-15.965,173.6024],[-64.5182,-15.9671,175.9452],[-64.5177,-15.9726,168.6773],[-64.51,-15.973,169.7976],[-64.5061,-15.9764,171.9594],[-64.5045,-15.9797,175.6115],[-64.5064,-15.9843,168.6586],[-64.4985,-15.9873,173.1534],[-64.4965,-15.9842,175.7264],[-64.502,-15.9766,172.6489],[-64.5005,-15.9762,187.6902],[-64.4945,-15.9802,173.4286],[-64.4919,-15.979,179.524],[-64.4932,-15.975,173.7785],[-64.4897,-15.9737,169.2714],[-64.4797,-15.9787,169.6496],[-64.4787,-15.9767,173.6423],[-64.4821,-15.9699,173.996],[-64.4792,-15.9679,167.0],[-64.4778,-15.9614,170.3604],[-64.4666,-15.9497,171.7315],[-64.4658,-15.9546,171.187],[-64.4601,-15.9585,176.7059],[-64.4651,-15.9675,176.7221],[-64.4612,-15.9736,169.6623],[-64.4595,-15.974,169.576],[-64.458,-15.9689,171.8176],[-64.4397,-15.9708,175.0811],[-64.4384,-15.9728,176.8773],[-64.4396,-15.9846,182.2939],[-64.4347,-15.9845,177.4133],[-64.4251,-15.9775,176.5348],[-64.4192,-15.9867,173.1462],[-64.408,-15.9932,177.6405],[-64.4063,-15.9928,189.9339],[-64.4055,-15.9857,184.2749],[-64.4033,-15.9836,171.5521],[-64.402,-15.9851,183.9296],[-64.4022,-15.9939,176.6781],[-64.401,-15.9948,180.4703],[-64.3946,-15.992,173.1712],[-64.3896,-16.0029,181.2236],[-64.3858,-16.0014,174.4454],[-64.3842,-15.9962,180.009],[-64.3791,-15.9961,189.0173],[-64.3781,-16.0074,174.2076],[-64.3742,-16.0152,175.7265],[-64.3691,-16.0112,175.6466],[-64.3655,-16.0124,171.4503],[-64.3621,-16.005,173.7343],[-64.357,-16.0024,174.1104],[-64.3509,-16.0057,175.0553],[-64.3505,-16.0153,185.8436],[-64.3484,-16.0189,176.7081],[-64.3386,-16.0161,182.8451],[-64.3327,-16.0185,179.6509],[-64.3267,-16.0129,192.2823],[-64.323,-16.0122,183.4999],[-64.3207,-16.0138,180.8504],[-64.3172,-16.0209,178.9824],[-64.313,-16.0148,175.7009],[-64.311,-16.0172,179.2723],[-64.2996,-16.0217,182.8347],[-64.2952,-16.0188,188.5534],[-64.3,-16.014,181.6301],[-64.2979,-16.0115,182.374],[-64.2931,-16.0182,181.6554],[-64.2891,-16.0151,178.8845],[-64.2824,-16.0187,178.3604],[-64.2815,-16.0171,180.6622],[-64.284,-16.0116,179.8418],[-64.2829,-16.0102,184.1172],[-64.2777,-16.0106,176.7097],[-64.2785,-16.0055,187.9368],[-64.2758,-16.0009,185.3303],[-64.2744,-16.0007,191.4799],[-64.2731,-16.0044,182.7192],[-64.2713,-16.0052,184.3875],[-64.2642,-16.0034,194.8319],[-64.2631,-16.0125,177.6202],[-64.2584,-16.0133,186.1374],[-64.2588,-16.019,181.5709],[-64.2556,-16.0194,183.2961],[-64.2526,-16.0172,180.4118],[-64.2529,-16.0219,175.3305],[-64.2473,-16.0247,194.3062],[-64.2481,-16.028,192.0516],[-64.2456,-16.0349,179.5881],[-64.2429,-16.037,183.3934],[-64.2385,-16.0368,181.8199],[-64.2412,-16.0511,181.7104],[-64.2358,-16.0575,181.8106],[-64.2342,-16.0621,176.0378],[-64.2375,-16.0682,183.0015],[-64.2292,-16.0724,195.3269],[-64.2349,-16.0735,189.5798],[-64.2392,-16.0796,197.3712],[-64.2392,-16.0818,190.4951],[-64.2371,-16.0841,197.0971],[-64.2352,-16.0925,189.8744],[-64.2306,-16.095,192.7705],[-64.2348,-16.1001,182.9418],[-64.2302,-16.1022,183.6162],[-64.2253,-16.1017,183.0581],[-64.2235,-16.1053,191.3816],[-64.2184,-16.1038,185.0755],[-64.2141,-16.1047,186.8777],[-64.2137,-16.0997,177.1243],[-64.209,-16.1023,178.6049],[-64.2087,-16.0971,186.7752],[-64.2039,-16.0913,183.2749],[-64.1929,-16.0956,185.8435],[-64.1859,-16.0888,190.66],[-64.1847,-16.0902,190.1264],[-64.1881,-16.094,185.3446],[-64.1857,-16.0959,184.0007],[-64.1782,-16.0921,182.4299],[-64.1767,-16.0988,185.1964],[-64.1739,-16.0982,181.1304],[-64.1733,-16.0943,190.2275],[-64.1665,-16.0971,182.0467],[-64.1652,-16.0945,195.0659],[-64.1685,-16.0927,196.2945],[-64.1693,-16.0902,187.4737],[-64.1562,-16.0881,180.9361],[-64.1569,-16.0855,177.5297],[-64.1608,-16.0862,183.5844],[-64.1559,-16.0762,193.1881],[-64.1523,-16.0788,182.6933],[-64.1521,-16.0828,177.8066],[-64.1469,-16.0776,184.2855],[-64.1443,-16.0773,184.9555],[-64.1432,-16.0801,191.5363],[-64.1397,-16.0802,183.4566],[-64.1348,-16.0838,184.6747],[-64.1293,-16.0758,180.98],[-64.1263,-16.0787,181.0725],[-64.1199,-16.0758,183.4532],[-64.121,-16.073,182.1166],[-64.1252,-16.0738,184.2164],[-64.1282,-16.0713,181.254],[-64.123,-16.0682,187.8507],[-64.122,-16.0639,188.5909],[-64.1204,-16.0667,186.7525],[-64.1207,-16.0715,185.3127],[-64.1135,-16.0658,184.7489],[-64.1122,-16.0684,181.7765],[-64.1151,-16.0727,179.9263],[-64.1047,-16.0717,178.9422],[-64.1085,-16.076,184.0244],[-64.1045,-16.0783,178.6086],[-64.1025,-16.082,180.6066],[-64.1006,-16.0816,180.1256],[-64.0966,-16.0764,180.3224],[-64.0967,-16.0729,178.9752],[-64.0952,-16.0718,178.4399],[-64.0914,-16.0776,179.4865],[-64.0873,-16.0739,180.5938],[-64.0801,-16.0792,178.6104],[-64.08,-16.0746,180.0632],[-64.0769,-16.076,179.7411],[-64.0698,-16.0691,179.6911],[-64.0709,-16.0648,181.8749],[-64.066,-16.0643,180.0313],[-64.0662,-16.0599,180.93],[-64.0699,-16.0598,180.7235],[-64.069,-16.0562,180.6056],[-64.0705,-16.0523,181.3254],[-64.0645,-16.0536,182.9688],[-64.0636,-16.0578,179.7461],[-64.061,-16.0569,181.2989],[-64.0571,-16.0637,181.9908],[-64.0527,-16.0615,180.6497],[-64.0509,-16.0631,183.0174],[-64.0485,-16.0627,183.3771],[-64.0437,-16.0598,182.1367],[-64.0394,-16.065,181.3465],[-64.0395,-16.0619,180.8926],[-64.037,-16.06,183.6644],[-64.0371,-16.0574,182.5893],[-64.0346,-16.0568,182.1913],[-64.0317,-16.0594,181.1364],[-64.0282,-16.0564,183.2672],[-64.0282,-16.0518,183.3583],[-64.0242,-16.0466,181.6815],[-64.0185,-16.0447,183.9148],[-64.0172,-16.0418,183.7965],[-64.0118,-16.0415,182.4599],[-64.0029,-16.0532,184.4342],[-63.9973,-16.0574,184.8527],[-63.9965,-16.0619,183.856],[-63.9916,-16.0669,184.8738],[-63.9932,-16.0712,184.9996],[-63.9961,-16.0738,183.8395],[-63.9867,-16.0863,185.515],[-63.9774,-16.0897,184.3082],[-63.9729,-16.0876,185.1954],[-63.9612,-16.1034,184.1465],[-63.9582,-16.1031,185.7031],[-63.9553,-16.1056,185.6801],[-63.9506,-16.1049,186.7831],[-63.946,-16.1079,189.7278],[-63.9417,-16.1046,184.5618],[-63.9337,-16.1032,186.1313],[-63.9323,-16.1074,186.914],[-63.928,-16.1097,184.7029],[-63.928,-16.1129,184.7406],[-63.9252,-16.1144,185.9976],[-63.9245,-16.1185,186.1705],[-63.92,-16.1235,185.6203],[-63.9199,-16.1264,186.086],[-63.923,-16.13,187.0579],[-63.9224,-16.1322,185.4807],[-63.915,-16.134,186.1459],[-63.9119,-16.1308,186.5542],[-63.9074,-16.1332,186.2899],[-63.9044,-16.1314,190.5185],[-63.8972,-16.1307,189.8893],[-63.8939,-16.1375,194.4926],[-63.8937,-16.1428,193.5346],[-63.8891,-16.143,189.7032],[-63.8842,-16.1461,191.0217],[-63.8811,-16.1452,189.8395],[-63.8666,-16.1528,189.1976],[-63.8595,-16.1601,190.4986],[-63.8475,-16.1688,190.0439],[-63.8341,-16.171,189.2268],[-63.8322,-16.1767,190.2234],[-63.8331,-16.1803,190.5889],[-63.8312,-16.1837,190.1411],[-63.8326,-16.1856,189.9501],[-63.8318,-16.1868,190.3738],[-63.8252,-16.1829,190.6582],[-63.8264,-16.185,191.325],[-63.8223,-16.1872,190.7798],[-63.8234,-16.1841,190.6865],[-63.818,-16.181,191.4464],[-63.8182,-16.1784,191.0992],[-63.8169,-16.1776,191.3954],[-63.8135,-16.1826,191.1071],[-63.8104,-16.1826,191.0499],[-63.8089,-16.1844,191.2012],[-63.8106,-16.1873,191.0174],[-63.8045,-16.1901,191.6495],[-63.803,-16.1899,191.4319],[-63.8048,-16.1883,191.5897],[-63.8039,-16.186,192.1534],[-63.7937,-16.1833,191.1308],[-63.7866,-16.1838,191.4501],[-63.7791,-16.1915,191.8119],[-63.7728,-16.1855,191.495],[-63.7678,-16.1843,191.4638],[-63.7598,-16.1855,191.8371],[-63.7494,-16.1914,192.3769],[-63.7428,-16.1885,193.3237],[-63.7348,-16.1977,193.0606],[-63.7333,-16.2028,194.4052],[-63.7296,-16.2056,194.1099],[-63.7304,-16.2108,194.2221],[-63.7217,-16.2145,195.0767],[-63.7152,-16.2214,195.4803],[-63.7137,-16.2258,194.4283],[-63.7022,-16.2378,196.6696],[-63.6899,-16.2363,197.6469],[-63.6842,-16.2387,196.6638],[-63.6794,-16.2489,197.4256],[-63.6706,-16.2473,197.5959],[-63.6668,-16.2514,196.4043],[-63.665,-16.2583,197.2231],[-63.6603,-16.2641,195.928],[-63.6559,-16.2656,196.1244],[-63.6483,-16.2634,197.5554],[-63.6476,-16.2655,198.2673],[-63.6499,-16.2693,196.9135],[-63.6462,-16.2747,197.155],[-63.6438,-16.2728,196.7553],[-63.6424,-16.2644,197.6434],[-63.6397,-16.2641,197.3635],[-63.6338,-16.2714,197.9441],[-63.6327,-16.2795,197.5083],[-63.6271,-16.2846,197.8006],[-63.6136,-16.3076,202.1091],[-63.5977,-16.3153,200.8099],[-63.592,-16.3122,201.4577],[-63.5833,-16.3157,201.4361],[-63.577,-16.3129,202.2469],[-63.5717,-16.3151,202.0877],[-63.5612,-16.3102,203.5551],[-63.5551,-16.3149,202.8025],[-63.5444,-16.3194,203.7408],[-63.545,-16.3282,204.2282],[-63.5396,-16.3299,204.2112],[-63.5401,-16.3395,204.3071],[-63.5351,-16.3444,204.9999],[-63.5365,-16.35,203.6444],[-63.5278,-16.3539,204.2074],[-63.5327,-16.3576,205.2378],[-63.5324,-16.3605,205.1987],[-63.5259,-16.362,204.744],[-63.5269,-16.367,206.9686],[-63.5238,-16.3735,205.9332],[-63.5209,-16.3736,206.3501],[-63.5203,-16.3681,205.1281],[-63.5167,-16.3692,205.2583],[-63.5175,-16.3754,205.6991],[-63.5123,-16.3778,206.5374],[-63.5106,-16.3838,207.6953],[-63.5005,-16.3835,207.0874],[-63.5002,-16.3853,207.5167],[-63.504,-16.3855,207.6953],[-63.5074,-16.388,207.8663],[-63.5065,-16.3904,207.5209],[-63.5031,-16.3913,207.5943],[-63.4979,-16.3895,207.5584],[-63.4955,-16.3845,207.2252],[-63.4916,-16.3878,207.0988],[-63.4843,-16.386,208.0196],[-63.4809,-16.3921,208.2659],[-63.4745,-16.3891,208.8615],[-63.4737,-16.3952,208.659],[-63.4702,-16.3959,207.6794],[-63.4661,-16.3941,208.1169],[-63.4615,-16.4041,209.2625],[-63.4543,-16.4061,208.6986],[-63.4561,-16.4086,208.6527],[-63.4574,-16.4067,208.2073],[-63.459,-16.407,208.9623],[-63.4615,-16.4103,211.2144],[-63.462,-16.4149,209.9314],[-63.4593,-16.4198,209.9704],[-63.4572,-16.4181,210.0438],[-63.4563,-16.4122,209.9957],[-63.4507,-16.4087,209.6279],[-63.4485,-16.4089,208.9731],[-63.4496,-16.4137,209.6286],[-63.4559,-16.4233,211.2245],[-63.4551,-16.4278,210.7691],[-63.4499,-16.4357,210.653],[-63.4502,-16.4409,210.2718],[-63.4475,-16.4437,212.1195],[-63.4542,-16.4456,209.8239],[-63.4533,-16.4547,210.5407],[-63.4508,-16.4611,210.1179],[-63.4561,-16.4736,211.9292],[-63.4522,-16.477,212.1342],[-63.4521,-16.4849,212.0429],[-63.4482,-16.4894,212.5352],[-63.452,-16.4973,211.3579],[-63.4549,-16.499,211.9781],[-63.4535,-16.5027,212.1991],[-63.451,-16.5042,211.7925],[-62.7763,-16.5027,231.4637],[-62.7695,-16.5066,226.2782],[-62.7595,-16.5061,223.4286],[-62.7586,-16.5041,224.6301],[-62.753,-16.5012,228.4088],[-62.749,-16.5019,230.1546],[-62.7495,-16.504,228.8185],[-62.7479,-16.5056,230.4721],[-62.7415,-16.505,229.8159],[-62.7406,-16.5036,230.272],[-62.7383,-16.5058,225.5963],[-62.7376,-16.5041,232.2001],[-62.7327,-16.5034,228.0847],[-62.7331,-16.5059,232.7073],[-62.7309,-16.5074,227.1196],[-62.7313,-16.5036,229.6592],[-62.7288,-16.503,230.4571],[-62.7278,-16.5054,229.354],[-62.7275,-16.5034,230.4571],[-62.7237,-16.5038,230.9484],[-62.7268,-16.499,225.0528],[-62.7245,-16.4982,226.0366],[-62.7235,-16.5009,229.5463],[-62.7193,-16.5021,228.7262],[-62.7168,-16.5107,231.4698],[-62.7137,-16.513,227.8189],[-62.7129,-16.5117,231.4851],[-62.7158,-16.5078,224.8582],[-62.7128,-16.5092,231.4303],[-62.7111,-16.5067,229.1288],[-62.7139,-16.5055,224.6805],[-62.7136,-16.5038,223.6831],[-62.7125,-16.5048,232.8783],[-62.7103,-16.5028,232.8292],[-62.7088,-16.5071,228.461],[-62.7043,-16.5065,237.7234],[-62.7016,-16.5089,231.9407],[-62.7002,-16.5039,227.6616],[-62.7017,-16.498,234.6981],[-62.6966,-16.4976,235.7258],[-62.6959,-16.4928,226.5953],[-62.6892,-16.4868,238.3907],[-62.6852,-16.4871,240.3068],[-62.6821,-16.4855,240.3805],[-62.6766,-16.478,239.8674],[-62.6769,-16.4756,239.5775],[-62.6738,-16.4727,240.0912],[-62.6751,-16.4709,239.413],[-62.6732,-16.4671,238.046],[-62.6731,-16.4594,247.2389],[-62.669,-16.4551,263.0982],[-62.6697,-16.4513,263.2119],[-62.6673,-16.4491,275.7995],[-62.6695,-16.4436,284.8735],[-62.669,-16.4405,294.0701],[-62.673,-16.4364,293.4774],[-62.6718,-16.4309,293.0579],[-62.6741,-16.4256,300.7444],[-62.673,-16.4244,310.4418],[-62.6702,-16.4259,306.9794],[-62.6678,-16.4243,308.8337],[-62.6666,-16.418,317.1734],[-62.6716,-16.4149,320.7514],[-62.673,-16.4115,323.8301],[-62.6767,-16.4128,332.5656],[-62.677,-16.4082,334.6509],[-62.6797,-16.4069,333.4562],[-62.6764,-16.4039,336.9659],[-62.6761,-16.4009,348.0243],[-62.6733,-16.4012,337.5155],[-62.6714,-16.3964,333.9617],[-62.6387,-16.1856,734.5159],[-62.6437,-16.1756,789.0051],[-62.6774,-16.1545,688.6389],[-62.693,-16.147,631.4096],[-62.7201,-16.1384,578.5363],[-62.7256,-16.1292,508.3908],[-62.7296,-16.1281,492.5228],[-62.7315,-16.1238,482.4594],[-62.7417,-16.1245,492.9099],[-62.7442,-16.1202,484.7836],[-62.7467,-16.1194,480.0172],[-62.7468,-16.1222,494.1725],[-62.7483,-16.1226,479.8366],[-62.757,-16.1162,477.3054],[-62.759,-16.1131,468.8724],[-62.7675,-16.1108,482.563],[-62.7737,-16.1069,494.9483],[-62.7803,-16.1083,467.7817],[-62.7814,-16.1104,466.8012],[-62.791,-16.1111,449.9026],[-62.7985,-16.1148,421.771],[-62.8009,-16.121,422.7889],[-62.8053,-16.1258,443.6214],[-62.8099,-16.1299,412.3892],[-62.8158,-16.132,435.9774],[-62.821,-16.1285,411.6859],[-62.8243,-16.1228,427.7407],[-62.8314,-16.1223,410.6393],[-62.834,-16.1196,370.6982],[-62.834,-16.1152,400.8907],[-62.8395,-16.1129,382.491],[-62.8462,-16.1175,346.3762],[-62.8509,-16.1153,363.473],[-62.8538,-16.1157,342.2992],[-62.8558,-16.1169,321.3654],[-62.856,-16.1199,318.058],[-62.8597,-16.1205,328.536],[-62.8632,-16.1173,334.6008],[-62.8648,-16.1194,315.907],[-62.8681,-16.1199,315.3035],[-62.8679,-16.1164,330.2711],[-62.8698,-16.1153,329.4268],[-62.8734,-16.1179,323.4936],[-62.8869,-16.116,316.5419],[-62.8893,-16.1103,291.5428],[-62.9014,-16.1078,298.0461],[-62.9277,-16.115,361.3954],[-62.9776,-16.1152,302.5905],[-62.9931,-16.112,258.4165],[-62.9993,-16.1124,254.5935],[-63.0078,-16.1159,251.5791],[-63.0108,-16.1141,252.2876],[-63.0138,-16.1089,247.3048],[-63.0173,-16.1079,245.254],[-63.022,-16.1013,247.4647],[-63.0234,-16.1006,241.9034],[-63.0251,-16.1023,241.0442],[-63.0277,-16.0989,239.6505],[-63.0308,-16.1088,234.0131],[-63.0414,-16.1145,230.03],[-63.0487,-16.1067,220.8551],[-63.0647,-16.0999,218.6844],[-63.0759,-16.1025,216.52],[-63.0793,-16.1111,216.61],[-63.0828,-16.1102,216.5785],[-63.0948,-16.1005,213.053],[-63.1031,-16.0966,213.3267],[-63.1077,-16.0991,210.3743],[-63.1095,-16.1024,207.9283],[-63.1136,-16.1032,205.5077],[-63.1209,-16.0932,204.7645],[-63.1232,-16.093,204.2867],[-63.1236,-16.0903,203.8805],[-63.1319,-16.089,203.0014],[-63.1306,-16.0846,202.8764],[-63.134,-16.0771,202.8085],[-63.1637,-16.0612,214.8451],[-63.2358,-16.0474,202.2818],[-63.2375,-16.044,204.7985],[-63.252,-16.0393,201.3289],[-63.2519,-16.0353,209.3174],[-63.2469,-16.0361,205.9648],[-63.2453,-16.0336,200.9693],[-63.2523,-16.0318,203.95],[-63.2527,-16.0282,201.7998],[-63.2506,-16.0288,203.8062],[-63.2505,-16.0268,204.3878],[-63.2554,-16.0228,200.2921],[-63.2621,-16.0231,204.6084],[-63.2708,-16.0304,203.7609],[-63.2762,-16.0291,204.2689],[-63.2751,-16.0221,203.8821],[-63.2801,-16.0212,203.753],[-63.2782,-16.0143,202.0533],[-63.2834,-16.0105,204.6017],[-63.2854,-16.0124,206.2422],[-63.2918,-16.0104,206.5153],[-63.2887,-16.0078,207.3511],[-63.2882,-16.0054,201.5316],[-63.2829,-16.0024,205.7862],[-63.2838,-15.999,203.1077],[-63.2941,-15.9988,203.7986],[-63.2956,-15.9975,198.6873],[-63.2959,-15.9931,202.6141],[-63.2979,-15.9943,200.3266],[-63.3006,-15.9926,202.2829],[-63.2964,-15.9864,201.6577],[-63.3069,-15.9853,203.3587],[-63.309,-15.9828,205.1908],[-63.3083,-15.9806,205.2188],[-63.305,-15.9813,204.7502],[-63.3008,-15.979,207.8622],[-63.3015,-15.9762,204.987],[-63.2971,-15.9736,204.5479],[-63.2997,-15.9644,204.6491],[-63.3046,-15.9593,201.2155],[-63.2966,-15.9581,202.585],[-63.2965,-15.9606,204.9148],[-63.2917,-15.9623,204.1856],[-63.2877,-15.9603,203.7157],[-63.2908,-15.953,199.063],[-63.2875,-15.9477,200.5244],[-63.2955,-15.9446,199.8704],[-63.2976,-15.9452,199.1674],[-63.3037,-15.9416,198.9918],[-63.3018,-15.9387,204.3882],[-63.2931,-15.9339,200.7433],[-63.3009,-15.9311,202.3002],[-63.3022,-15.9285,198.9426],[-63.3035,-15.9292,201.4541],[-63.3032,-15.934,202.0358],[-63.3089,-15.9355,202.1962],[-63.3105,-15.9377,199.4635],[-63.3143,-15.9218,199.6196],[-63.3065,-15.9239,202.6398],[-63.3054,-15.9251,201.7779],[-63.3076,-15.926,201.3684],[-63.3071,-15.927,201.696],[-63.304,-15.9256,201.7779],[-63.3025,-15.9226,200.2142],[-63.3071,-15.9194,200.8508],[-63.3116,-15.9201,201.4776],[-63.3163,-15.9163,197.494],[-63.3113,-15.9119,199.1068],[-63.3123,-15.908,199.2408],[-63.3095,-15.91,198.5826],[-63.304,-15.9098,195.7317],[-63.3016,-15.9064,198.775],[-63.3058,-15.8993,196.0701],[-63.3133,-15.8942,199.209],[-63.3206,-15.8947,199.9577],[-63.3214,-15.8973,203.1176],[-63.3196,-15.8985,203.0685],[-63.3212,-15.901,201.2349],[-63.3227,-15.8981,200.0874],[-63.3253,-15.9003,201.1059],[-63.3285,-15.8997,200.2791],[-63.3311,-15.8968,199.251],[-63.332,-15.8991,203.2261],[-63.3348,-15.8986,197.3164],[-63.3362,-15.8952,202.7026],[-63.3386,-15.8965,201.4637],[-63.3412,-15.8912,203.2897],[-63.3413,-15.8952,202.352],[-63.3467,-15.8969,199.4904],[-63.3379,-15.9013,197.5176],[-63.3419,-15.9046,197.6173],[-63.3486,-15.9026,201.1597],[-63.3516,-15.8971,198.8252],[-63.3524,-15.8895,200.0908],[-63.3552,-15.8863,199.0309],[-63.3598,-15.8896,196.9999],[-63.3589,-15.8922,199.4696],[-63.3622,-15.8988,199.7402],[-63.3614,-15.8916,200.8159],[-63.3586,-15.885,204.0939],[-63.3603,-15.8825,199.331],[-63.3707,-15.8866,201.5877],[-63.3721,-15.8929,197.7318],[-63.3755,-15.8914,199.1297],[-63.3806,-15.8839,196.9783],[-64.487,-15.8251,182.2975],[-64.7297,-15.802,165.4082]]]]}
,"properties": {"GID_3": "BOL.8.7.2_2","GID_0": "BOL","country": "Bolivia","GID_1": "BOL.8_1","province": "SantaCruz","NL_NAME_1": "NA","GID_2": "BOL.8.7_2","county": "Guarayos","NL_NAME_2": "NA","city": "ElPuente","VARNAME_3": "NA","NL_NAME_3": "NA","TYPE_3": "District","ENGTYPE_3": "Distrito","CC_3": "NA","HASC_3": "NA","name": "El_Puente.city","area_km2": 7975.413,"hist_schema_id": "Elevation0-9000","hist_area_km2": {"150": 1.672,"175": 1400.124,"200": 4091.097,"225": 1181.11,"250": 175.096,"275": 145.899,"300": 118.187,"325": 110.851,"350": 112.704,"375": 109.609,"400": 93.934,"425": 77.913,"450": 76.225,"475": 65.748,"500": 50.895,"525": 41.716,"550": 35.977,"575": 29.482,"600": 20.076,"625": 15.23,"650": 10.303,"675": 6.902,"700": 3.034,"725": 1.038,"750": 0.448,"775": 0.102}}}