{"type": "Feature","bbox": [-66.8089,-16.4917,-64.9269,-14.154],"geometry": {"type": "MultiPolygon","coordinates": [[[[-65.0471,-14.1576,146.2485],[-65.3831,-14.154,154.7537],[-65.3785,-14.1634,149.2229],[-65.3746,-14.1662,142.5865],[-65.3769,-14.1696,147.1523],[-65.3793,-14.1703,143.957],[-65.3906,-14.1664,143.4748],[-65.3886,-14.1768,159.5693],[-65.3896,-14.1786,149.4472],[-65.4004,-14.1799,157.2093],[-65.4072,-14.1783,153.7461],[-65.4139,-14.1746,149.7062],[-65.4179,-14.176,146.8641],[-65.4182,-14.1775,149.5936],[-65.4122,-14.1781,150.5496],[-65.4104,-14.182,154.9062],[-65.4245,-14.1974,143.5429],[-65.4347,-14.2011,145.0533],[-65.43,-14.2052,147.2276],[-65.4324,-14.2132,151.7183],[-65.4267,-14.2157,145.1784],[-65.4328,-14.2251,149.2309],[-65.4293,-14.2345,145.6214],[-65.4299,-14.2375,148.3054],[-65.4316,-14.2375,153.2109],[-65.4338,-14.2334,157.1431],[-65.4383,-14.2305,151.295],[-65.4508,-14.2402,145.8165],[-65.4393,-14.2491,153.9573],[-65.4341,-14.2625,143.9526],[-65.4413,-14.263,157.2911],[-65.4437,-14.267,143.8244],[-65.4528,-14.2714,154.6061],[-65.4589,-14.2806,150.3929],[-65.458,-14.2877,146.0886],[-65.4524,-14.2793,145.3071],[-65.4528,-14.2742,148.4292],[-65.4491,-14.2748,147.9941],[-65.4463,-14.2769,146.7845],[-65.4458,-14.2794,145.6819],[-65.4501,-14.2893,148.8708],[-65.4387,-14.2881,157.7617],[-65.4335,-14.2917,157.0531],[-65.4343,-14.2938,148.3223],[-65.4462,-14.2916,158.4791],[-65.4502,-14.2929,149.5269],[-65.4486,-14.3008,156.771],[-65.4452,-14.3039,153.2757],[-65.4401,-14.3057,148.5816],[-65.4381,-14.3098,149.0647],[-65.4412,-14.3103,148.2272],[-65.445,-14.3075,154.2173],[-65.4537,-14.3078,148.204],[-65.4567,-14.3108,152.9466],[-65.4564,-14.3135,157.2575],[-65.4465,-14.3126,150.6257],[-65.4432,-14.3147,151.0],[-65.4426,-14.318,153.7384],[-65.459,-14.3188,152.5196],[-65.4642,-14.3219,148.8581],[-65.4641,-14.3245,149.4734],[-65.4611,-14.3255,153.4482],[-65.4507,-14.325,149.6965],[-65.4524,-14.3351,148.659],[-65.459,-14.3339,152.237],[-65.4658,-14.3347,156.8306],[-65.4724,-14.3326,154.3398],[-65.4757,-14.3336,164.7753],[-65.4762,-14.3401,154.5522],[-65.4742,-14.3409,153.9658],[-65.4678,-14.3395,150.5604],[-65.4664,-14.3409,159.6012],[-65.4688,-14.3447,149.931],[-65.4804,-14.35,157.83],[-65.4742,-14.3544,151.4105],[-65.4731,-14.3581,150.8232],[-65.4843,-14.3596,162.2692],[-65.4852,-14.361,150.3121],[-65.4825,-14.3666,151.3239],[-65.4972,-14.3722,149.333],[-65.4967,-14.3761,165.7433],[-65.4894,-14.3822,148.234],[-65.4948,-14.3819,154.7117],[-65.4989,-14.3939,155.6649],[-65.498,-14.401,153.3455],[-65.4933,-14.4041,159.9445],[-65.4946,-14.4068,155.5647],[-65.5041,-14.4058,156.2864],[-65.5092,-14.4082,163.7078],[-65.5091,-14.4103,156.1758],[-65.5046,-14.4121,153.3569],[-65.5021,-14.416,151.1315],[-65.5144,-14.4183,154.5459],[-65.514,-14.4218,148.9999],[-65.5094,-14.4288,151.9335],[-65.5083,-14.4334,155.8661],[-65.5124,-14.4379,150.0688],[-65.5131,-14.441,152.1523],[-65.5069,-14.45,156.9148],[-65.5181,-14.4533,154.2755],[-65.5272,-14.4532,164.8622],[-65.5311,-14.4552,150.136],[-65.5267,-14.4694,157.6085],[-65.5192,-14.4698,152.397],[-65.521,-14.4734,159.1746],[-65.525,-14.4744,157.4197],[-65.5179,-14.4791,152.367],[-65.5142,-14.4846,151.3195],[-65.5179,-14.4901,152.1801],[-65.5229,-14.4846,157.2685],[-65.529,-14.485,153.6496],[-65.5308,-14.4874,148.3888],[-65.5251,-14.4898,150.278],[-65.5246,-14.492,158.705],[-65.5349,-14.4939,149.5187],[-65.5203,-14.5042,152.0793],[-65.5226,-14.5069,149.6952],[-65.5284,-14.5014,161.6349],[-65.5363,-14.501,155.4391],[-65.5381,-14.5027,163.1749],[-65.5381,-14.5058,154.287],[-65.5301,-14.5177,153.0913],[-65.5298,-14.5229,156.741],[-65.5316,-14.5236,156.5022],[-65.5341,-14.5219,151.6437],[-65.5392,-14.5152,150.7325],[-65.5474,-14.5154,149.105],[-65.5423,-14.5194,150.4355],[-65.5419,-14.5221,154.8699],[-65.5482,-14.5298,166.3871],[-65.5518,-14.5303,156.7968],[-65.5528,-14.5366,152.9074],[-65.5558,-14.536,152.7644],[-65.5577,-14.5315,154.3644],[-65.5647,-14.5306,153.8642],[-65.5668,-14.5318,160.9345],[-65.5671,-14.5366,156.6619],[-65.5609,-14.5379,154.1443],[-65.5627,-14.5444,164.529],[-65.562,-14.5501,165.4325],[-65.5662,-14.5529,152.4539],[-65.5667,-14.5458,157.5418],[-65.5697,-14.5447,158.2817],[-65.5725,-14.5468,162.0881],[-65.5763,-14.5548,158.0432],[-65.5761,-14.5624,154.5392],[-65.5746,-14.5652,156.555],[-65.5755,-14.5668,154.4645],[-65.579,-14.5669,153.0152],[-65.582,-14.5589,156.1992],[-65.5856,-14.5574,152.9842],[-65.5878,-14.5586,154.9377],[-65.5863,-14.5626,153.5226],[-65.5883,-14.5659,155.2709],[-65.5999,-14.5657,156.8865],[-65.6042,-14.5687,149.8305],[-65.6037,-14.5706,153.8595],[-65.5962,-14.5728,156.4653],[-65.5961,-14.5763,158.1187],[-65.6074,-14.5869,161.3417],[-65.6112,-14.5866,156.4778],[-65.6136,-14.5884,162.2425],[-65.6126,-14.5925,151.8709],[-65.6138,-14.6044,162.7032],[-65.6172,-14.603,164.3337],[-65.6245,-14.6034,156.1212],[-65.6273,-14.6059,151.4982],[-65.6237,-14.613,156.4884],[-65.6251,-14.6165,154.5706],[-65.6381,-14.6167,154.6436],[-65.6371,-14.6234,159.8053],[-65.6345,-14.6255,152.1693],[-65.64,-14.6361,157.4584],[-65.6406,-14.6422,165.438],[-65.6559,-14.645,160.7268],[-65.6683,-14.6432,158.6881],[-65.6656,-14.6556,161.633],[-65.6566,-14.6641,155.183],[-65.6579,-14.6664,165.9368],[-65.6634,-14.6653,154.6169],[-65.6642,-14.6727,151.5431],[-65.6666,-14.6727,158.1141],[-65.6703,-14.6654,158.5865],[-65.676,-14.6602,163.2169],[-65.6785,-14.6618,157.0905],[-65.6727,-14.6719,153.1081],[-65.6729,-14.6748,160.2652],[-65.6747,-14.676,154.8281],[-65.6784,-14.6682,166.2429],[-65.688,-14.6684,161.3147],[-65.6912,-14.6657,155.7489],[-65.6931,-14.6668,155.045],[-65.6917,-14.6744,159.1512],[-65.6927,-14.6774,155.1914],[-65.7025,-14.6683,156.8824],[-65.7062,-14.68,155.4091],[-65.7096,-14.6817,162.171],[-65.7118,-14.6814,158.9199],[-65.7121,-14.679,164.8609],[-65.707,-14.6707,151.4124],[-65.7078,-14.6679,158.5346],[-65.7174,-14.673,161.1083],[-65.7251,-14.6817,163.4433],[-65.7292,-14.6804,159.9424],[-65.7322,-14.6742,157.5032],[-65.7337,-14.6744,162.1555],[-65.7381,-14.6803,155.6084],[-65.7297,-14.685,164.5759],[-65.729,-14.6887,159.4083],[-65.7374,-14.6884,156.5845],[-65.7466,-14.6796,162.4488],[-65.7519,-14.6899,155.5575],[-65.7447,-14.6975,158.7393],[-65.7437,-14.7034,164.3122],[-65.7505,-14.7006,163.2047],[-65.7565,-14.7005,160.5616],[-65.7581,-14.7033,154.931],[-65.7559,-14.7091,170.0289],[-65.7671,-14.7129,163.7713],[-65.7664,-14.7156,159.2794],[-65.7593,-14.7206,151.4846],[-65.7669,-14.7209,161.4491],[-65.7653,-14.7347,166.8446],[-65.7549,-14.7328,158.9863],[-65.7503,-14.7353,158.3878],[-65.7518,-14.7464,164.477],[-65.7585,-14.7518,162.2393],[-65.7535,-14.7546,157.3079],[-65.7532,-14.7576,159.5392],[-65.7553,-14.7665,167.9072],[-65.7612,-14.7785,155.3246],[-65.7581,-14.7812,157.5451],[-65.7529,-14.7776,160.5854],[-65.751,-14.779,157.4491],[-65.7499,-14.7855,164.8535],[-65.76,-14.7919,154.5944],[-65.7507,-14.7997,158.8792],[-65.7506,-14.8086,155.6439],[-65.752,-14.8105,165.6766],[-65.7555,-14.8113,169.5078],[-65.764,-14.8082,157.337],[-65.7682,-14.8089,154.832],[-65.7628,-14.8196,156.4595],[-65.7632,-14.8214,163.3918],[-65.7669,-14.8254,160.381],[-65.7797,-14.8253,157.7503],[-65.7799,-14.8276,160.226],[-65.773,-14.8365,164.1508],[-65.7809,-14.8358,161.7601],[-65.7833,-14.8383,163.5327],[-65.7826,-14.8401,160.3377],[-65.7712,-14.8468,163.6547],[-65.7812,-14.848,169.194],[-65.7842,-14.8494,161.4915],[-65.7845,-14.8514,157.9107],[-65.7824,-14.8542,159.562],[-65.7766,-14.8522,162.7616],[-65.7737,-14.8491,162.1516],[-65.7704,-14.8495,169.7161],[-65.77,-14.8513,167.696],[-65.7732,-14.8562,159.528],[-65.7729,-14.8599,163.6548],[-65.7806,-14.8653,160.7957],[-65.781,-14.8672,160.9373],[-65.7778,-14.8655,162.3532],[-65.7756,-14.867,163.1618],[-65.7727,-14.8645,165.8576],[-65.7701,-14.8652,164.4007],[-65.7624,-14.8752,158.8445],[-65.7651,-14.8807,165.9678],[-65.764,-14.8838,158.5145],[-65.7625,-14.8837,158.5145],[-65.7597,-14.8784,161.3246],[-65.7578,-14.8784,159.5288],[-65.7567,-14.8882,170.5237],[-65.752,-14.889099999999999,169.2182],[-65.7522,-14.8912,160.6301],[-65.7574,-14.8931,161.6143],[-65.7558,-14.8997,170.6047],[-65.7618,-14.8998,166.2447],[-65.7643,-14.9018,171.1947],[-65.7589,-14.9056,163.782],[-65.7563,-14.9104,170.8513],[-65.7616,-14.9176,155.6611],[-65.756,-14.918,173.6582],[-65.7546,-14.9247,166.7032],[-65.7647,-14.9257,173.0432],[-65.7654,-14.9288,168.1813],[-65.7637,-14.9342,168.173],[-65.7738,-14.9338,164.9208],[-65.7778,-14.9362,163.8379],[-65.7779,-14.9381,171.659],[-65.7719,-14.9402,171.5887],[-65.7837,-14.9432,162.061],[-65.7835,-14.9484,171.3307],[-65.7881,-14.9477,166.587],[-65.7904,-14.9453,165.9948],[-65.7987,-14.9517,170.8378],[-65.7985,-14.9558,164.1019],[-65.7921,-14.9529,167.8912],[-65.7898,-14.9542,166.0048],[-65.7896,-14.9558,162.7146],[-65.7929,-14.9572,161.4093],[-65.7912,-14.9589,166.8315],[-65.793,-14.9618,159.4497],[-65.7949,-14.9733,158.8839],[-65.7934,-14.9752,164.7321],[-65.791,-14.9739,160.0242],[-65.787,-14.9756,162.0618],[-65.7858,-14.98,159.0362],[-65.7874,-14.9823,159.159],[-65.7902,-14.9814,159.0803],[-65.7892,-14.9783,157.3012],[-65.7983,-14.9778,164.4147],[-65.7983,-14.9811,161.1655],[-65.7952,-14.986,161.7936],[-65.7978,-14.9869,161.5862],[-65.7998,-14.9847,164.0761],[-65.8047,-14.9837,165.1143],[-65.8096,-14.9913,161.6563],[-65.8167,-14.9895,169.0315],[-65.8167,-14.9842,171.2102],[-65.8178,-14.9825,171.8367],[-65.8194,-14.9833,171.3584],[-65.8222,-14.9866,165.2142],[-65.8235,-14.9922,168.9452],[-65.8208,-14.9954,167.1313],[-65.8154,-14.9965,165.9277],[-65.8169,-15.0003,167.4309],[-65.816,-15.0043,168.8867],[-65.8208,-15.0035,169.9289],[-65.8228,-14.9968,165.9485],[-65.8274,-14.9977,171.6755],[-65.8228,-15.0067,167.8546],[-65.8247,-15.0093,167.2942],[-65.8244,-15.0169,169.7762],[-65.8293,-15.0142,168.4564],[-65.831,-15.0113,167.0477],[-65.8283,-15.009,167.3002],[-65.8322,-15.0071,172.0332],[-65.8342,-15.0084,182.183],[-65.8345,-15.0122,163.938],[-65.8383,-15.0115,170.5018],[-65.8453,-15.0171,164.8228],[-65.8449,-15.0184,173.8644],[-65.8312,-15.0181,166.6426],[-65.8312,-15.021,163.0495],[-65.8335,-15.0236,169.8875],[-65.833,-15.029,163.7012],[-65.8375,-15.0323,167.8289],[-65.8294,-15.0322,170.345],[-65.8277,-15.034,168.9168],[-65.8282,-15.0391,174.3495],[-65.8226,-15.041,170.0878],[-65.8205,-15.0433,167.8152],[-65.8244,-15.0461,169.3446],[-65.8301,-15.0472,165.8125],[-65.8318,-15.0516,171.0384],[-65.829,-15.0608,171.6157],[-65.823,-15.0693,167.5121],[-65.827,-15.0695,172.896],[-65.8338,-15.0667,166.7416],[-65.8379,-15.0701,166.7788],[-65.8368,-15.0808,177.9622],[-65.835,-15.0803,166.3865],[-65.8357,-15.0771,158.5891],[-65.8338,-15.0768,170.0072],[-65.8267,-15.0802,174.6477],[-65.8248,-15.0832,168.7856],[-65.8279,-15.0851,174.7213],[-65.8299,-15.0835,167.3779],[-65.8316,-15.0843,166.3228],[-65.8363,-15.0955,169.3027],[-65.8344,-15.0959,178.414],[-65.8331,-15.0927,172.0252],[-65.8298,-15.0926,163.2446],[-65.8293,-15.0902,163.3158],[-65.8269,-15.0907,166.2518],[-65.8197,-15.1012,172.6746],[-65.8142,-15.1046,170.7056],[-65.8137,-15.1093,175.3429],[-65.8182,-15.1065,164.7842],[-65.8272,-15.1176,168.1243],[-65.8338,-15.122,175.2801],[-65.8312,-15.127,167.7569],[-65.8323,-15.1309,175.6814],[-65.8337,-15.1307,164.6771],[-65.8368,-15.1252,167.794],[-65.839,-15.1262,177.8531],[-65.8394,-15.1305,172.2063],[-65.8414,-15.1291,167.9355],[-65.8409,-15.1265,166.2973],[-65.8441,-15.1266,170.7275],[-65.8456,-15.1238,164.6744],[-65.8442,-15.1189,177.2227],[-65.8457,-15.117,164.972],[-65.8474,-15.1229,168.8913],[-65.8466,-15.1253,169.6666],[-65.8565,-15.1261,168.2624],[-65.8608,-15.1283,180.7647],[-65.8613,-15.1302,177.7121],[-65.8562,-15.1318,165.2985],[-65.8572,-15.1347,176.8224],[-65.8595,-15.1339,167.3807],[-65.8665,-15.136,171.6241],[-65.8708,-15.1336,177.6085],[-65.8738,-15.1346,165.1444],[-65.8773,-15.1453,171.5904],[-65.8818,-15.1466,176.8829],[-65.8846,-15.1507,171.4536],[-65.8835,-15.1587,175.875],[-65.879,-15.1628,182.7183],[-65.8836,-15.1673,175.5665],[-65.8844,-15.1702,172.1681],[-65.8824,-15.1715,169.1659],[-65.8841,-15.1737,171.2862],[-65.887,-15.1711,174.0621],[-65.8879,-15.1736,175.9311],[-65.8892,-15.1733,171.9095],[-65.8911,-15.1689,170.5956],[-65.8931,-15.1721,170.6828],[-65.8942,-15.168,167.1947],[-65.8982,-15.1715,169.806],[-65.897,-15.167,171.2695],[-65.9011,-15.1668,172.0909],[-65.906,-15.1685,176.8068],[-65.9054,-15.1734,179.062],[-65.9078,-15.1748,169.3146],[-65.9142,-15.173,168.8624],[-65.9152,-15.1766,169.2831],[-65.9171,-15.1741,173.8972],[-65.9212,-15.1757,169.7609],[-65.9218,-15.1745,170.2153],[-65.9197,-15.1726,170.9087],[-65.9209,-15.1696,167.5863],[-65.9231,-15.1686,173.3359],[-65.9229,-15.1722,173.4824],[-65.927,-15.1709,170.6015],[-65.9284,-15.1721,167.8032],[-65.9256,-15.1738,171.3439],[-65.9285,-15.177,175.4899],[-65.9327,-15.1751,170.3985],[-65.9354,-15.1757,172.934],[-65.9339,-15.1823,169.4453],[-65.9383,-15.181,169.9907],[-65.9395,-15.1834,170.5658],[-65.938,-15.1845,169.6002],[-65.9358,-15.1835,172.4258],[-65.9369,-15.1882,178.1176],[-65.9393,-15.1893,179.2628],[-65.9364,-15.1918,171.3792],[-65.9376,-15.1941,170.6746],[-65.9362,-15.1966,171.2638],[-65.9375,-15.1974,172.8453],[-65.9406,-15.1958,169.9431],[-65.9392,-15.2014,176.7223],[-65.9424,-15.1978,170.2272],[-65.9441,-15.198,171.6179],[-65.9421,-15.2024,172.433],[-65.9439,-15.2035,174.2926],[-65.9451,-15.2014,170.2322],[-65.9477,-15.202,172.8134],[-65.9474,-15.2087,174.578],[-65.9516,-15.2091,168.7167],[-65.9509,-15.2141,172.0356],[-65.9493,-15.2143,174.8375],[-65.9508,-15.2158,172.944],[-65.9482,-15.2157,172.0363],[-65.949,-15.2168,172.9093],[-65.947,-15.2174,175.5555],[-65.9463,-15.2223,172.3071],[-65.9439,-15.2231,173.1826],[-65.9466,-15.2246,173.1359],[-65.9438,-15.2256,172.5542],[-65.9459,-15.2262,173.1359],[-65.9461,-15.2301,176.0913],[-65.9483,-15.2317,174.5503],[-65.9493,-15.2311,171.06],[-65.9502,-15.2328,174.4356],[-65.951,-15.231,174.4384],[-65.953,-15.2311,172.3952],[-65.9522,-15.2335,175.6823],[-65.9589,-15.2397,177.6971],[-65.9603,-15.2392,174.6248],[-65.962,-15.2419,177.5775],[-65.958,-15.242,178.8722],[-65.9594,-15.2434,180.0697],[-65.9587,-15.2451,181.6322],[-65.9618,-15.2474,179.9404],[-65.9606,-15.2476,179.9404],[-65.9606,-15.2515,180.1481],[-65.9574,-15.252,181.0649],[-65.9599,-15.2535,177.4991],[-65.958,-15.2564,174.5901],[-65.9604,-15.2557,179.1313],[-65.9623,-15.2583,171.6696],[-65.9622,-15.2565,174.2688],[-65.9655,-15.2558,177.7655],[-65.9687,-15.259,168.8418],[-65.9686,-15.2574,168.8973],[-65.9706,-15.2565,169.0339],[-65.9721,-15.2591,168.8123],[-65.975,-15.2586,169.5618],[-65.9745,-15.2611,172.7565],[-65.9766,-15.262,171.8471],[-65.9759,-15.2637,170.7718],[-65.9775,-15.2637,176.7171],[-65.9776,-15.2657,174.4815],[-65.98,-15.263,174.2658],[-65.9818,-15.2657,178.7383],[-65.9829,-15.2643,171.8733],[-65.9848,-15.2649,176.6883],[-65.9867,-15.2622,172.4309],[-65.9876,-15.2644,172.8021],[-65.995,-15.2619,177.7902],[-66.0039,-15.2688,174.6324],[-66.0103,-15.2653,174.7365],[-66.0124,-15.2684,180.6865],[-66.0184,-15.2704,179.806],[-66.0205,-15.2756,182.2241],[-66.0284,-15.2818,181.4592],[-66.045,-15.2813,189.7234],[-66.0486,-15.2831,191.9531],[-66.0566,-15.2833,192.3722],[-66.0607,-15.2859,191.1784],[-66.068,-15.2853,193.5535],[-66.0775,-15.2916,194.6981],[-66.0785,-15.2948,190.8967],[-66.0908,-15.3056,193.5952],[-66.0986,-15.3078,181.9756],[-66.1014,-15.3115,187.8847],[-66.1093,-15.3134,188.1646],[-66.1106,-15.3182,196.9012],[-66.1168,-15.3267,200.7653],[-66.1223,-15.3304,200.0319],[-66.1238,-15.3364,204.4944],[-66.1273,-15.3392,202.7033],[-66.1266,-15.3428,203.608],[-66.128,-15.3457,202.2296],[-66.1375,-15.3419,205.2257],[-66.1416,-15.3429,205.9952],[-66.1434,-15.3458,209.1679],[-66.1505,-15.342,209.6333],[-66.1546,-15.3485,210.9878],[-66.1629,-15.3563,208.8755],[-66.191,-15.3724,218.1474],[-66.1961,-15.3733,218.7699],[-66.2018,-15.3705,213.9978],[-66.2071,-15.3782,214.7517],[-66.2116,-15.3789,211.3434],[-66.214,-15.3841,215.4366],[-66.218,-15.3852,216.7157],[-66.2203,-15.3889,219.5648],[-66.2243,-15.3907,221.2408],[-66.2249,-15.3955,221.5557],[-66.2277,-15.3972,223.8536],[-66.2265,-15.3992,226.073],[-66.2271,-15.404,227.8058],[-66.2293,-15.4036,226.3273],[-66.2294,-15.4059,226.3431],[-66.2343,-15.4082,222.6895],[-66.2368,-15.4116,225.0158],[-66.2394,-15.41,229.6348],[-66.2397,-15.408,225.7201],[-66.252,-15.4107,234.0439],[-66.2616,-15.4073,233.5163],[-66.2627,-15.4106,233.5331],[-66.2667,-15.4101,239.1569],[-66.2652,-15.4123,231.3267],[-66.2739,-15.4174,236.5453],[-66.276,-15.417,231.0623],[-66.6503,-15.6344,291.0448],[-66.6553,-15.6341,294.9098],[-66.6595,-15.6365,297.9958],[-66.661,-15.64,289.4457],[-66.6577,-15.6425,303.3876],[-66.6575,-15.6444,316.7376],[-66.6599,-15.6471,293.7796],[-66.6622,-15.6463,304.3221],[-66.6636,-15.6424,337.449],[-66.6664,-15.6448,300.8621],[-66.6628,-15.6504,303.5745],[-66.6669,-15.662,333.4761],[-66.6704,-15.6608,317.5599],[-66.6734,-15.6645,324.2205],[-66.6762,-15.6613,306.7211],[-66.6788,-15.6612,318.6574],[-66.679,-15.6649,343.5926],[-66.6826,-15.6655,309.4244],[-66.6824,-15.6688,319.4406],[-66.6862,-15.6738,433.4136],[-66.6905,-15.6783,328.579],[-66.693,-15.679,313.0078],[-66.6915,-15.6845,341.9352],[-66.6973,-15.6825,318.6574],[-66.701,-15.6852,321.2727],[-66.7008,-15.6877,321.1559],[-66.6963,-15.6893,348.9091],[-66.6948,-15.6953,327.3619],[-66.7069,-15.6953,342.0582],[-66.7101,-15.7033,449.9991],[-66.7128,-15.7036,402.6082],[-66.7131,-15.7003,408.9212],[-66.7158,-15.7002,442.0407],[-66.7218,-15.7056,393.0086],[-66.7211,-15.709,425.9864],[-66.719,-15.7104,441.202],[-66.7204,-15.7127,408.7032],[-66.7144,-15.7191,412.3763],[-66.7103,-15.7208,453.1755],[-66.7062,-15.7255,417.8242],[-66.7012,-15.7267,442.9993],[-66.702,-15.7301,448.5482],[-66.6988,-15.7329,472.6449],[-66.7024,-15.7346,446.3817],[-66.7023,-15.7366,448.735],[-66.6967,-15.7368,446.692],[-66.6952,-15.7396,455.3848],[-66.6999,-15.7419,472.7661],[-66.6968,-15.7469,489.5581],[-66.6972,-15.7497,643.4166],[-66.705,-15.75,521.4701],[-66.7057,-15.7554,501.6036],[-66.71,-15.7537,506.1144],[-66.7115,-15.7587,576.7442],[-66.715,-15.7624,541.6166],[-66.7131,-15.7657,533.5163],[-66.7229,-15.7659,604.7297],[-66.7214,-15.77,620.6628],[-66.7167,-15.7731,625.2681],[-66.7167,-15.7756,636.969],[-66.7191,-15.7759,599.0501],[-66.7209,-15.7735,635.0512],[-66.7226,-15.7757,617.2084],[-66.7266,-15.7751,662.338],[-66.7278,-15.7775,659.1957],[-66.7279,-15.7793,643.5521],[-66.7254,-15.7812,761.3938],[-66.7283,-15.7815,685.0662],[-66.7295,-15.7832,719.802],[-66.7275,-15.786,682.1831],[-66.728,-15.7892,674.8095],[-66.7257,-15.7902,688.0651],[-66.7263,-15.793,699.4083],[-66.7216,-15.7956,709.9117],[-66.7201,-15.7991,706.2142],[-66.7157,-15.7979,723.7836],[-66.715,-15.8037,778.967],[-66.719,-15.806,744.1058],[-66.7193,-15.8077,749.7609],[-66.7206,-15.8074,749.7609],[-66.7199,-15.8037,815.2051],[-66.7215,-15.801,808.5394],[-66.7231,-15.8047,836.4796],[-66.7273,-15.8043,833.132],[-66.7278,-15.8069,833.5453],[-66.7292,-15.8072,833.5453],[-66.736,-15.804,854.0441],[-66.7439,-15.7971,927.249],[-66.7498,-15.8014,924.6442],[-66.753,-15.8007,924.3468],[-66.7543,-15.797,937.3424],[-66.7567,-15.7967,958.2386],[-66.7587,-15.7942,941.0184],[-66.7609,-15.795,938.6746],[-66.7616,-15.7925,963.2059],[-66.765,-15.7932,971.34],[-66.7714,-15.7852,950.061],[-66.7812,-15.7785,971.142],[-66.784,-15.7816,1003.793],[-66.7892,-15.7786,990.1601],[-66.7921,-15.7833,1051.6444],[-66.7945,-15.7821,1032.0762],[-66.7926,-15.7804,1039.4011],[-66.7964,-15.7804,1051.9928],[-66.7944,-15.7878,1179.4954],[-66.7972,-15.7953,1145.7502],[-66.8015,-15.7995,1180.2786],[-66.8028,-15.8045,1338.8179],[-66.8058,-15.8083,1331.0939],[-66.8089,-15.8234,1419.8077],[-66.8075,-15.828,1525.3596],[-66.7908,-15.8338,1609.4016],[-66.7663,-15.8464,1753.8839],[-66.7476,-15.8603,1590.3751],[-66.7295,-15.8786,1614.6637],[-66.7071,-15.8939,1571.9539],[-66.6817,-15.9029,1465.6118],[-66.6762,-15.911,1445.5706],[-66.6689,-15.9061,1366.5416],[-66.6587,-15.9054,1459.283],[-66.6468,-15.9169,1427.4312],[-66.6388,-15.916,1417.3684],[-66.6347,-15.927,1296.1047],[-66.6352,-15.9335,1244.4656],[-66.6156,-15.9517,1161.3781],[-66.5697,-15.9606,1251.6289],[-66.5063,-15.9852,695.4521],[-66.4769,-16.0044,1106.6057],[-66.4016,-16.0745,952.2649],[-66.3832,-16.0861,651.9261],[-66.3783,-16.0928,710.9547],[-66.3722,-16.0956,570.2062],[-66.3674,-16.104,467.9567],[-66.361,-16.1075,423.9351],[-66.3561,-16.108,399.3926],[-66.3552,-16.111,418.5772],[-66.3497,-16.1146,378.1414],[-66.3393,-16.1172,342.186],[-66.3104,-16.159,1079.1006],[-66.2311,-16.2857,925.9248],[-66.1697,-16.3628,987.6312],[-66.1098,-16.3966,813.7796],[-66.0563,-16.4171,719.7173],[-66.0089,-16.4492,658.1254],[-65.9712,-16.467,520.6696],[-65.9141,-16.4814,485.3248],[-65.8617,-16.4917,281.8451],[-65.8353,-16.4904,288.1794],[-65.5947,-16.4602,206.0745],[-65.3534,-16.4006,197.1851],[-65.2995,-16.2991,180.0437],[-65.2912,-16.1958,178.9097],[-65.3283,-16.0194,187.6439],[-65.3315,-16.0139,174.6512],[-65.3278,-16.0115,177.3591],[-65.3298,-16.01,186.9528],[-65.3317,-16.0123,177.6992],[-65.3353,-16.0079,179.663],[-65.3222,-16.0024,180.8552],[-65.3259,-15.9973,183.6381],[-65.331,-15.9952,183.739],[-65.3245,-15.9905,180.6383],[-65.3251,-15.9894,179.8453],[-65.3295,-15.9908,179.694],[-65.3287,-15.9867,179.6581],[-65.3232,-15.9876,181.2255],[-65.3228,-15.985,178.9598],[-65.3207,-15.9851,179.861],[-65.3211,-15.9835,178.8937],[-65.3253,-15.9835,184.9664],[-65.3266,-15.9819,182.2076],[-65.3193,-15.9824,182.8212],[-65.3152,-15.9793,185.071],[-65.3236,-15.9774,176.7701],[-65.3219,-15.9752,179.0518],[-65.3225,-15.9717,177.7801],[-65.3187,-15.969,181.1822],[-65.3214,-15.9676,179.1006],[-65.3227,-15.9628,176.5822],[-65.3205,-15.9607,175.2856],[-65.3169,-15.9618,178.3179],[-65.3083,-15.9595,175.947],[-65.3126,-15.9509,177.4648],[-65.3185,-15.9517,177.4279],[-65.3163,-15.9483,177.6174],[-65.3115,-15.9493,180.0151],[-65.3087,-15.9462,180.2425],[-65.3056,-15.9465,175.3301],[-65.3045,-15.9448,178.0452],[-65.3058,-15.9421,178.3075],[-65.3022,-15.9431,180.0804],[-65.3013,-15.9419,174.6716],[-65.3039,-15.9315,183.8922],[-65.3127,-15.9303,175.9059],[-65.3176,-15.928,177.4622],[-65.3198,-15.9245,178.4589],[-65.3202,-15.9215,177.1453],[-65.3179,-15.9188,179.2016],[-65.3119,-15.9197,178.8869],[-65.3181,-15.9144,177.3083],[-65.3219,-15.914,174.6985],[-65.3223,-15.9071,171.3962],[-65.3248,-15.9021,171.0234],[-65.3245,-15.8892,171.0569],[-65.3257,-15.8884,171.0569],[-65.3233,-15.8787,170.5138],[-65.3253,-15.8785,170.4657],[-65.3241,-15.8751,170.4412],[-65.3218,-15.8767,170.4418],[-65.3179,-15.874,170.3115],[-65.3204,-15.8709,170.3129],[-65.3182,-15.8615,171.5702],[-65.3156,-15.8613,172.4906],[-65.3123,-15.8643,171.5967],[-65.3064,-15.86,170.6739],[-65.3073,-15.8565,174.8767],[-65.3051,-15.8532,170.3939],[-65.3085,-15.8524,172.2348],[-65.3102,-15.8493,172.8137],[-65.3082,-15.8498,171.0898],[-65.306,-15.8472,171.2319],[-65.3006,-15.8492,171.1774],[-65.2996,-15.8469,170.6723],[-65.2956,-15.8458,173.4912],[-65.2956,-15.8424,171.7666],[-65.2927,-15.8426,169.4227],[-65.2887,-15.8384,169.3714],[-65.2878,-15.8401,169.2647],[-65.286,-15.8398,170.1799],[-65.2831,-15.8363,170.2847],[-65.2825,-15.8382,169.8035],[-65.2784,-15.8395,168.9845],[-65.277,-15.8362,169.0314],[-65.2753,-15.8383,168.6226],[-65.2691,-15.8375,169.528],[-65.2696,-15.8327,168.8636],[-65.2721,-15.8307,168.8961],[-65.2682,-15.8274,173.374],[-65.2722,-15.8241,173.3387],[-65.2703,-15.8226,169.2501],[-65.2669,-15.8245,168.7427],[-65.2593,-15.8187,168.625],[-65.2592,-15.8056,178.1351],[-65.2422,-15.8063,167.1902],[-65.2419,-15.8051,166.527],[-65.2444,-15.8046,167.8265],[-65.2417,-15.8012,168.8292],[-65.2437,-15.7997,166.8847],[-65.2433,-15.7977,167.6604],[-65.2419,-15.7985,168.0529],[-65.2415,-15.7964,167.1762],[-65.2376,-15.7957,168.9781],[-65.2374,-15.7938,168.0212],[-65.2335,-15.7943,166.9616],[-65.2324,-15.7896,166.2492],[-65.2287,-15.7911,167.165],[-65.2262,-15.7866,167.5789],[-65.2194,-15.7857,169.5609],[-65.2158,-15.7804,169.9339],[-65.2088,-15.7798,165.6536],[-65.2042,-15.7737,168.0172],[-65.1957,-15.7738,168.5989],[-65.1902,-15.7757,167.2131],[-65.1883,-15.7791,178.6563],[-65.1922,-15.7853,174.5115],[-65.1837,-15.7917,168.0071],[-65.1823,-15.7761,166.8414],[-65.1844,-15.773,175.6996],[-65.1902,-15.7707,172.053],[-65.1921,-15.7681,172.7111],[-65.1863,-15.7627,179.2069],[-65.1816,-15.768,165.3676],[-65.173,-15.7684,168.5777],[-65.1703,-15.7722,170.3753],[-65.1641,-15.7719,168.8273],[-65.1702,-15.7685,167.5279],[-65.1717,-15.7661,164.1209],[-65.1716,-15.7618,175.4651],[-65.1681,-15.7567,164.5273],[-65.1737,-15.757,163.5],[-65.1767,-15.7546,164.5909],[-65.1788,-15.7466,170.2881],[-65.1762,-15.7423,166.3409],[-65.1737,-15.7421,166.4112],[-65.1713,-15.7427,167.4634],[-65.1668,-15.7481,165.6635],[-65.1646,-15.7478,165.2504],[-65.1612,-15.7379,168.9669],[-65.1731,-15.7322,167.0906],[-65.1669,-15.7277,164.9683],[-65.1662,-15.7255,164.5999],[-65.1747,-15.7281,168.3055],[-65.1752,-15.7264,168.5639],[-65.171,-15.7211,165.4046],[-65.1629,-15.7197,166.86],[-65.1489,-15.713,175.395],[-65.145,-15.7054,165.7462],[-65.1511,-15.704,163.947],[-65.155,-15.7007,166.0005],[-65.1583,-15.6912,172.6744],[-65.1537,-15.6841,170.4822],[-65.1387,-15.6797,166.7928],[-65.1422,-15.6766,169.8167],[-65.1473,-15.6768,164.8578],[-65.1501,-15.6702,165.2874],[-65.1537,-15.6707,163.6844],[-65.1593,-15.6687,165.5085],[-65.142,-15.6587,168.7827],[-65.1421,-15.6541,162.3219],[-65.1499,-15.6546,163.7926],[-65.148,-15.65,166.9443],[-65.1452,-15.6483,165.7442],[-65.1381,-15.6479,162.1038],[-65.1412,-15.6422,164.6028],[-65.1404,-15.6397,174.4672],[-65.1308,-15.6444,162.7727],[-65.1309,-15.6465,162.9871],[-65.1349,-15.65,165.0726],[-65.133,-15.6527,166.2004],[-65.1298,-15.6517,173.0594],[-65.1243,-15.6301,175.6127],[-65.1243,-15.6225,174.5527],[-65.1265,-15.6201,168.47],[-65.1304,-15.62,175.1637],[-65.1341,-15.624,168.6155],[-65.1357,-15.623,161.0993],[-65.1338,-15.6177,165.7621],[-65.1254,-15.6151,164.4066],[-65.1241,-15.6122,161.4171],[-65.1375,-15.6068,172.4005],[-65.1403,-15.5976,163.9701],[-65.135,-15.5918,161.0071],[-65.1248,-15.5878,160.0],[-65.1239,-15.5859,167.6995],[-65.1401,-15.5839,161.4052],[-65.1435,-15.5805,164.7473],[-65.1392,-15.5732,161.8858],[-65.1242,-15.568,168.2524],[-65.1163,-15.5615,165.8447],[-65.1141,-15.5564,163.8024],[-65.1155,-15.5544,160.2042],[-65.1181,-15.5545,160.2496],[-65.1279,-15.561,160.1653],[-65.1376,-15.5616,169.6503],[-65.1354,-15.5457,162.2304],[-65.117,-15.5439,163.0611],[-65.1206,-15.5359,160.3561],[-65.1286,-15.5309,162.6627],[-65.121,-15.5272,158.0],[-65.2487,-15.3438,161.8935],[-65.2452,-15.3399,167.6617],[-65.2314,-15.3366,161.5861],[-65.2268,-15.3324,160.9376],[-65.2218,-15.3336,160.7909],[-65.212,-15.3306,160.826],[-65.2133,-15.3237,168.4284],[-65.2026,-15.3124,164.7421],[-65.2051,-15.3037,168.0786],[-65.2035,-15.2845,164.7269],[-65.1967,-15.2761,164.6322],[-65.1922,-15.2609,167.8147],[-65.1883,-15.2564,169.2714],[-65.1842,-15.2554,162.9075],[-65.1805,-15.2493,168.0296],[-65.1755,-15.2459,162.9255],[-65.1741,-15.2372,164.464],[-65.1775,-15.2341,167.7447],[-65.1756,-15.2284,160.7738],[-65.1702,-15.2248,167.0484],[-65.1652,-15.2251,167.0869],[-65.1624,-15.2194,167.4408],[-65.1576,-15.2185,167.1391],[-65.1577,-15.2135,166.94],[-65.1553,-15.2126,165.8466],[-65.1531,-15.208,166.0613],[-65.1488,-15.2078,159.8804],[-65.1448,-15.2098,161.6491],[-65.1434,-15.2069,164.7277],[-65.1408,-15.208,158.3225],[-65.131,-15.2049,161.8595],[-65.127,-15.1962,166.614],[-65.1242,-15.1975,164.5961],[-65.1208,-15.1963,159.5494],[-65.1238,-15.1905,160.9228],[-65.1229,-15.1856,162.6185],[-65.1198,-15.1841,162.8107],[-65.1179,-15.1808,166.1608],[-65.118,-15.179,165.7024],[-65.1199,-15.1785,163.682],[-65.1188,-15.1755,166.0713],[-65.1206,-15.1729,163.3846],[-65.1181,-15.1724,164.5271],[-65.1195,-15.1696,167.1841],[-65.1186,-15.1664,165.6518],[-65.1114,-15.1643,162.4809],[-65.1072,-15.1653,156.972],[-65.1058,-15.163,159.5878],[-65.1024,-15.1619,161.7891],[-65.1016,-15.1596,162.6298],[-65.1029,-15.1577,164.1158],[-65.0927,-15.1496,157.8339],[-65.0929,-15.1437,161.1371],[-65.0887,-15.1462,156.2289],[-65.087,-15.1438,155.3862],[-65.0832,-15.146,155.9527],[-65.0817,-15.1449,155.9527],[-65.0818,-15.143,156.0842],[-65.0762,-15.1366,157.1832],[-65.0781,-15.1338,158.5162],[-65.0761,-15.1329,158.838],[-65.0781,-15.1286,158.7028],[-65.0767,-15.1249,159.3424],[-65.0741,-15.1266,160.2947],[-65.0675,-15.1197,158.4175],[-65.0583,-15.1192,158.0411],[-65.0548,-15.1149,159.0548],[-65.0566,-15.1116,161.0258],[-65.0533,-15.1118,159.9922],[-65.0494,-15.1095,158.4379],[-65.0497,-15.1064,159.3652],[-65.0519,-15.1061,158.4856],[-65.0523,-15.1043,160.7853],[-65.0485,-15.1009,146.5],[-65.0501,-15.0953,146.5],[-65.0487,-15.0924,146.5],[-65.0424,-15.0913,153.0027],[-65.028,-15.0947,146.0],[-65.0184,-15.0921,155.3593],[-64.9856,-15.0758,145.0],[-64.9825,-15.069,152.3719],[-64.9837,-15.0654,146.329],[-64.9863,-15.0635,153.7514],[-64.9969,-15.0601,145.0],[-65.005,-15.0551,145.0],[-65.0102,-15.0457,154.188],[-65.0156,-15.0279,146.4119],[-65.0244,-15.0179,154.7942],[-65.0267,-15.0124,146.5866],[-65.0254,-15.0063,159.4665],[-65.019,-15.0041,154.7053],[-65.015,-15.0057,151.3453],[-65.0029,-15.0153,149.708],[-64.9941,-15.0243,145.0],[-64.9885,-15.0273,151.7508],[-64.9829,-15.0275,153.872],[-64.9789,-15.0235,144.0],[-64.9787,-15.0162,147.995],[-64.9879,-15.003,143.0],[-64.99,-14.994,152.6081],[-64.9848,-14.9758,143.0],[-64.9857,-14.9727,150.3048],[-64.9898,-14.9675,154.4001],[-64.9948,-14.967,156.215],[-65.0087,-14.9787,143.0],[-65.0135,-14.98,143.0],[-65.0193,-14.9783,153.5366],[-65.0223,-14.9738,151.094],[-65.0238,-14.9611,148.2769],[-65.035,-14.9457,148.2191],[-65.0352,-14.9411,151.4781],[-65.0339,-14.9379,156.5492],[-65.0315,-14.9366,157.4838],[-65.0247,-14.9373,150.0439],[-65.0162,-14.9432,143.0],[-64.9934,-14.9507,146.2452],[-64.9848,-14.95,143.0],[-64.9834,-14.946,145.1604],[-64.988,-14.9217,151.4207],[-65.0046,-14.9192,152.0088],[-65.0307,-14.9109,152.5734],[-65.0297,-14.9066,156.4066],[-65.022,-14.9006,151.9559],[-65.0101,-14.8962,150.5498],[-64.9902,-14.8932,152.5424],[-64.9845,-14.8898,154.6566],[-64.9886,-14.8803,148.547],[-65.0066,-14.8809,148.086],[-65.0187,-14.876,149.4389],[-65.0235,-14.863,146.5],[-65.0317,-14.8508,146.5],[-65.031,-14.8467,147.1238],[-65.0278,-14.8469,148.912],[-65.0166,-14.8532,151.0815],[-65.0099,-14.8525,147.637],[-65.0065,-14.8505,148.0856],[-65.0023,-14.8381,150.0534],[-65.0021,-14.83,150.1085],[-65.0075,-14.8289,145.5],[-65.015,-14.8325,147.9222],[-65.0345,-14.8333,145.3488],[-65.0404,-14.8356,146.5027],[-65.0548,-14.8476,148.7188],[-65.0589,-14.847,150.2562],[-65.0607,-14.8432,151.9768],[-65.061,-14.8372,149.1307],[-65.0594,-14.832,141.5],[-65.0567,-14.8295,141.5],[-65.0391,-14.8248,151.8345],[-65.0284,-14.8177,150.2934],[-65.0179,-14.808,141.5],[-65.0156,-14.8035,141.5],[-65.0129,-14.7881,151.1464],[-65.0121,-14.7812,143.5093],[-65.0133,-14.7759,141.5],[-65.015,-14.7716,141.5],[-65.018,-14.7693,143.3368],[-65.0243,-14.77,150.6017],[-65.0288,-14.7779,141.0],[-65.0369,-14.8022,141.0],[-65.0406,-14.8066,141.0],[-65.0571,-14.7967,144.1045],[-65.0614,-14.7927,141.0],[-65.062,-14.79,141.766],[-65.0608,-14.7859,142.3794],[-65.054,-14.7792,141.0],[-65.048,-14.7691,145.3554],[-65.0438,-14.7527,141.0],[-65.0432,-14.7441,141.0],[-65.0367,-14.7247,141.0],[-65.0402,-14.7197,150.4209],[-65.0471,-14.7196,147.7973],[-65.0519,-14.7225,147.5],[-65.055,-14.7209,147.5],[-65.0549,-14.7187,147.5],[-65.0457,-14.7108,150.6212],[-65.0226,-14.6997,141.0],[-65.0188,-14.6917,142.7496],[-65.0235,-14.6798,144.1773],[-65.0405,-14.6631,142.3234],[-65.0405,-14.6601,141.0],[-65.0215,-14.6496,141.0],[-65.0136,-14.6394,150.719],[-65.0054,-14.622,150.627],[-65.0038,-14.6144,143.6752],[-65.0038,-14.6099,142.1393],[-65.0093,-14.5986,146.4132],[-65.0081,-14.5953,147.7068],[-64.9994,-14.5874,147.7674],[-64.9883,-14.5705,146.0813],[-64.9768,-14.5604,141.2041],[-64.9526,-14.5515,144.3902],[-64.9478,-14.5452,149.3537],[-64.9509,-14.5368,148.5073],[-64.9653,-14.5288,149.6259],[-64.9803,-14.5168,140.0],[-64.9813,-14.5135,139.5],[-64.9801,-14.5104,150.4016],[-64.9725,-14.5081,151.5443],[-64.959,-14.5116,140.2056],[-64.9497,-14.5098,149.5676],[-64.931,-14.4905,149.1289],[-64.928,-14.4859,139.0],[-64.9269,-14.4761,140.9372],[-64.9314,-14.4616,140.1038],[-64.9416,-14.4529,139.0],[-64.9482,-14.4524,144.7798],[-64.964,-14.4571,139.0],[-64.9747,-14.4575,145.2594],[-64.9927,-14.4495,139.0],[-65.0098,-14.4475,139.0],[-65.0132,-14.4441,141.3014],[-65.0135,-14.4412,139.0],[-65.0093,-14.4353,139.0],[-65.006,-14.4329,139.0],[-64.9997,-14.4315,142.5475],[-64.9955,-14.4323,149.5815],[-64.9832,-14.444,143.7392],[-64.9777,-14.445,145.1539],[-64.9651,-14.443,152.019],[-64.9489,-14.4346,140.0854],[-64.9415,-14.4267,144.8703],[-64.94,-14.4226,139.0],[-64.9423,-14.416,141.0863],[-64.945,-14.4139,140.6318],[-64.961,-14.4089,141.122],[-64.9636,-14.4053,139.6831],[-64.9637,-14.3979,144.5672],[-64.955,-14.3814,138.5],[-64.955,-14.3783,138.5],[-64.9568,-14.3763,143.8037],[-64.9624,-14.3755,150.0126],[-64.9758,-14.3818,138.5],[-64.9823,-14.3821,144.8326],[-64.9881,-14.3777,149.7596],[-64.9933,-14.3669,139.4131],[-64.9969,-14.3643,137.5],[-65.0142,-14.3604,147.6343],[-65.0169,-14.3567,143.1432],[-65.0161,-14.3489,147.995],[-65.0129,-14.3461,139.6032],[-65.0083,-14.3457,137.0],[-64.9766,-14.3605,137.4288],[-64.9673,-14.3621,138.7408],[-64.9657,-14.3552,137.0],[-64.9674,-14.3509,137.0],[-64.9796,-14.3359,137.3179],[-64.9867,-14.3217,139.8117],[-64.9864,-14.3185,148.1118],[-64.9825,-14.3125,147.3085],[-64.971,-14.3042,139.5808],[-64.9692,-14.2996,140.4961],[-64.9717,-14.2959,137.0],[-64.9815,-14.2923,137.0],[-64.996,-14.2914,137.0],[-65.0063,-14.2928,137.0949],[-65.0094,-14.2921,137.0],[-65.0112,-14.2896,137.0],[-65.0143,-14.2734,137.6896],[-65.0127,-14.2611,136.5],[-65.0079,-14.2525,140.378],[-65.0018,-14.2486,147.0773],[-64.9979,-14.2431,143.1193],[-64.9984,-14.2403,136.0],[-65.0031,-14.2365,148.0306],[-65.0098,-14.2369,143.286],[-65.0155,-14.2397,140.4358],[-65.0219,-14.2608,141.1986],[-65.0262,-14.2656,136.984],[-65.0325,-14.2666,135.5],[-65.0375,-14.2638,140.0984],[-65.0386,-14.2582,135.5],[-65.0261,-14.2373,136.4537],[-65.0242,-14.2244,137.2144],[-65.0251,-14.2204,135.0],[-65.0449,-14.1859,136.718],[-65.0454,-14.18,144.0083],[-65.0421,-14.1693,135.0],[-65.0447,-14.1598,146.0327],[-65.0471,-14.1576,146.2485]]]]}
,"properties": {"GID_2": "BOL.3.6_2","GID_0": "BOL","country": "Bolivia","GID_1": "BOL.3_1","province": "Beni","NL_NAME_1": "NA","county": "Moxos","VARNAME_2": "Mojos","NL_NAME_2": "NA","TYPE_2": "Provincia","ENGTYPE_2": "Province","CC_2": "NA","HASC_2": "NA","name": "Moxos.county","area_km2": 25205.42,"hist_schema_id": "Elevation0-9000","hist_area_km2": {"125": 12.86,"150": 7445.71,"175": 7206.29,"200": 3714.02,"225": 2141.31,"250": 1062.41,"275": 556.19,"300": 386.64,"325": 421.88,"350": 375.04,"375": 289.05,"400": 220.95,"425": 171.31,"450": 137.15,"475": 106.35,"500": 87.56,"525": 72.86,"550": 65.42,"575": 59.62,"600": 55.69,"625": 49.56,"650": 44.8,"675": 42.74,"700": 38.16,"725": 33.86,"750": 32.28,"775": 28.29,"800": 26.78,"825": 25.68,"850": 22.49,"875": 21.39,"900": 20.55,"925": 18.45,"950": 18.62,"975": 16.92,"1000": 15.58,"1025": 15.03,"1050": 12.81,"1075": 12.3,"1100": 11.34,"1125": 10.54,"1150": 9.48,"1175": 9.69,"1200": 8.67,"1225": 8.06,"1250": 7.59,"1275": 7.36,"1300": 6.55,"1325": 6.0,"1350": 6.47,"1375": 5.24,"1400": 4.67,"1425": 4.14,"1450": 3.18,"1475": 2.12,"1500": 1.59,"1525": 1.92,"1550": 2.04,"1575": 1.33,"1600": 1.26,"1625": 0.71,"1650": 0.39,"1675": 0.31}}}