{"type": "Feature","bbox": [-64.4278,-19.8749,-64.1437,-19.5048],"geometry": {"type": "MultiPolygon","coordinates": [[[[-64.3103,-19.8603,3354.2256],[-64.2985,-19.8618,3240.5574],[-64.2937,-19.8597,3147.7629],[-64.287,-19.8612,2917.8743],[-64.2786,-19.8585,2729.1677],[-64.2647,-19.8619,2481.7642],[-64.2579,-19.8661,2347.7114],[-64.247,-19.8671,2432.3857],[-64.2415,-19.8569,2609.6133],[-64.233,-19.855,2739.603],[-64.2184,-19.8628,1993.199],[-64.2026,-19.8685,1551.8345],[-64.1941,-19.8746,1387.583],[-64.1882,-19.8733,1372.7423],[-64.1877,-19.8697,1316.2823],[-64.1861,-19.871,1311.7306],[-64.1833,-19.8702,1368.5094],[-64.1817,-19.8749,1321.6305],[-64.1766,-19.8739,1304.2694],[-64.1747,-19.8706,1332.933],[-64.1766,-19.8653,1421.8245],[-64.1749,-19.8628,1515.3977],[-64.1674,-19.86,1696.7585],[-64.1661,-19.8508,2080.9224],[-64.1626,-19.8483,2082.5784],[-64.1605,-19.8434,2028.771],[-64.1622,-19.8372,2103.9487],[-64.1608,-19.8329,2142.2122],[-64.1617,-19.8255,2027.9625],[-64.1603,-19.8229,2038.0662],[-64.1641,-19.7923,2228.092],[-64.1619,-19.7641,2248.8591],[-64.1582,-19.7568,2217.241],[-64.165,-19.7488,2184.1221],[-64.1688,-19.7388,2207.7632],[-64.1638,-19.7259,2174.1013],[-64.1599,-19.7226,2228.7986],[-64.168,-19.712,2298.1533],[-64.1653,-19.7016,2395.7786],[-64.1602,-19.6968,2410.144],[-64.165,-19.6879,2350.7578],[-64.1656,-19.6797,2170.751],[-64.1631,-19.6738,2392.7004],[-64.166,-19.6639,2197.2651],[-64.1651,-19.662,2271.8677],[-64.1587,-19.6597,2261.5874],[-64.1549,-19.6542,2428.9346],[-64.1545,-19.6493,2377.5918],[-64.1567,-19.6483,2401.3496],[-64.1594,-19.6407,2407.6333],[-64.1584,-19.6381,2465.6545],[-64.1527,-19.6366,2420.1616],[-64.1518,-19.6341,2380.9355],[-64.1519,-19.6222,2309.7913],[-64.1474,-19.6115,2291.106],[-64.1483,-19.6023,2508.1514],[-64.1441,-19.5945,2425.7427],[-64.1437,-19.5866,2447.5581],[-64.1481,-19.5781,2492.7695],[-64.1597,-19.5732,2389.7551],[-64.1625,-19.5563,2381.416],[-64.1738,-19.5449,2214.679],[-64.1785,-19.5373,1585.0869],[-64.1783,-19.5312,1436.5999],[-64.1834,-19.5297,1401.0354],[-64.1832,-19.5267,1409.201],[-64.1875,-19.5261,1398.3552],[-64.1867,-19.5221,1453.2191],[-64.1899,-19.5225,1466.7302],[-64.1929,-19.5204,1418.3445],[-64.1934,-19.5229,1441.3181],[-64.1957,-19.5228,1450.8873],[-64.1964,-19.5246,1584.4211],[-64.1987,-19.5225,1536.3832],[-64.2037,-19.5235,1482.4785],[-64.2058,-19.5273,1491.8506],[-64.2137,-19.5303,1596.6121],[-64.2143,-19.5321,1544.8315],[-64.228,-19.53,1593.3389],[-64.2296,-19.5314,1605.8326],[-64.2347,-19.53,1599.9617],[-64.2391,-19.526,1686.1089],[-64.2421,-19.518,1621.3588],[-64.2461,-19.5177,1643.5959],[-64.2447,-19.5142,1672.2075],[-64.2484,-19.5102,1655.8433],[-64.2533,-19.509,1672.5906],[-64.2539,-19.5053,1719.3259],[-64.2576,-19.5048,1667.1812],[-64.2597,-19.508,1697.1775],[-64.262,-19.5084,1703.5251],[-64.2658,-19.5081,1702.7971],[-64.2666,-19.506,1750.1218],[-64.2714,-19.5061,1775.7677],[-64.2724,-19.5085,1743.6534],[-64.2777,-19.5092,1803.0962],[-64.2814,-19.512,1823.79],[-64.2885,-19.5086,1913.6633],[-64.2941,-19.5102,1943.8213],[-64.2965,-19.5199,2113.6929],[-64.2996,-19.5221,2204.8743],[-64.3071,-19.5218,2401.3706],[-64.3166,-19.5242,2736.083],[-64.3271,-19.5321,2482.9709],[-64.3304,-19.5391,2344.4602],[-64.3307,-19.5455,2371.3528],[-64.3448,-19.551,3077.6006],[-64.3622,-19.5514,3115.7896],[-64.3653,-19.5558,3069.7595],[-64.3707,-19.559,3026.6208],[-64.3734,-19.5621,2990.9834],[-64.3742,-19.5705,2859.5303],[-64.3798,-19.5771,2680.5918],[-64.3857,-19.5971,2512.2153],[-64.4035,-19.6051,2248.1218],[-64.4132,-19.605,2472.1768],[-64.4177,-19.6025,2465.0574],[-64.4268,-19.604,2707.6938],[-64.4278,-19.6122,2668.6777],[-64.417,-19.651,2517.6597],[-64.4177,-19.6598,2352.2295],[-64.4065,-19.699,2112.7041],[-64.3982,-19.7045,1932.1807],[-64.3766,-19.708,2158.3003],[-64.3691,-19.7118,2424.0391],[-64.3736,-19.7158,2444.3679],[-64.3711,-19.7262,2385.0027],[-64.3752,-19.7312,2467.2266],[-64.3764,-19.7371,2533.0442],[-64.3705,-19.7462,2549.9507],[-64.3757,-19.7487,2601.21],[-64.3749,-19.7543,2524.8003],[-64.3708,-19.7605,2531.9639],[-64.3786,-19.7651,2405.2402],[-64.383,-19.7653,2533.7832],[-64.389,-19.7705,2554.583],[-64.3911,-19.7749,2565.1948],[-64.4017,-19.776,2747.6458],[-64.404,-19.7795,2678.9421],[-64.4051,-19.7861,2544.9365],[-64.4095,-19.7905,2590.7529],[-64.4089,-19.7933,2581.2729],[-64.4031,-19.8,2645.4702],[-64.4036,-19.8024,2593.2224],[-64.4089,-19.8077,2550.2754],[-64.4143,-19.8093,2666.6165],[-64.4139,-19.8224,2724.8696],[-64.4028,-19.8269,2634.2788],[-64.3617,-19.8297,2033.3363],[-64.3368,-19.8394,1900.2048],[-64.3309,-19.8476,2058.7688],[-64.3112,-19.8525,3143.2307],[-64.3132,-19.8576,3289.1514],[-64.3103,-19.8603,3354.2256]]]]}
,"properties": {"GID_3": "BOL.1.8.2_2","GID_0": "BOL","country": "Bolivia","GID_1": "BOL.1_1","province": "Chuquisaca","NL_NAME_1": "NA","GID_2": "BOL.1.8_2","county": "Tomina","NL_NAME_2": "NA","city": "ElVillar","VARNAME_3": "NA","NL_NAME_3": "NA","TYPE_3": "District","ENGTYPE_3": "Distrito","CC_3": "NA","HASC_3": "NA","name": "El_Villar.city","area_km2": 892.4556,"hist_schema_id": "Elevation0-9000","hist_area_km2": {"1300": 0.8774,"1325": 2.1937,"1350": 5.226,"1375": 5.4857,"1400": 4.6881,"1425": 6.0846,"1450": 6.4442,"1475": 8.0409,"1500": 8.7192,"1525": 10.3754,"1550": 10.6151,"1575": 12.1119,"1600": 12.2522,"1625": 12.9109,"1650": 13.0512,"1675": 15.6463,"1700": 15.9868,"1725": 19.2201,"1750": 19.1216,"1775": 19.7811,"1800": 21.4186,"1825": 22.9966,"1850": 23.0776,"1875": 23.8563,"1900": 23.5967,"1925": 24.0767,"1950": 26.3323,"1975": 25.8531,"2000": 24.376,"2025": 25.8738,"2050": 27.9503,"2075": 27.1714,"2100": 23.9575,"2125": 22.4795,"2150": 22.2614,"2175": 22.1423,"2200": 20.6851,"2225": 20.8643,"2250": 18.8088,"2275": 18.0089,"2300": 17.9089,"2325": 17.769,"2350": 17.0706,"2375": 15.5731,"2400": 15.7931,"2425": 14.2354,"2450": 13.1572,"2475": 13.0178,"2500": 11.2204,"2525": 11.0004,"2550": 8.8048,"2575": 8.2054,"2600": 7.1473,"2625": 6.5477,"2650": 5.3302,"2675": 5.1704,"2700": 4.1922,"2725": 3.9527,"2750": 3.6733,"2775": 3.1341,"2800": 2.4156,"2825": 1.9364,"2850": 1.3375,"2875": 1.1978,"2900": 0.9982,"2925": 1.1379,"2950": 0.9781,"2975": 0.679,"3000": 0.659,"3025": 0.6589,"3050": 0.4993,"3075": 0.4793,"3100": 0.3793,"3125": 0.3992,"3150": 0.2195,"3175": 0.1595,"3200": 0.1595,"3225": 0.1595,"3250": 0.0798,"3275": 0.0798,"3300": 0.0798,"3325": 0.1795,"3350": 0.0199,"3375": 0.0399}}}