{"type":"Feature","properties":{"GID_3":"BOL.6.2.1_2","GID_0":"BOL","country":"Bolivia","GID_1":"BOL.6_1","province":"Pando","NL_NAME_1":"NA","GID_2":"BOL.6.2_2","county":"FedericoRomán","NL_NAME_2":"NA","city":"NuevaEsperanza","VARNAME_3":"NA","NL_NAME_3":"NA","TYPE_3":"District","ENGTYPE_3":"Distrito","CC_3":"NA","HASC_3":"NA","name":"Nueva_Esperanza.city"},
"geometry":{"type": "MultiPolygon","coordinates": [[[[-65.391,-10.3812,104.0],[-65.3919,-10.3743,104.0],[-65.3855,-10.3629,104.2432],[-65.3744,-10.3565,103.5],[-65.3618,-10.3424,103.0],[-65.3498,-10.3215,102.0],[-65.3267,-10.3048,101.0],[-65.3213,-10.2947,100.5],[-65.3126,-10.2634,99.5],[-65.3125,-10.2548,99.0],[-65.3069,-10.2513,98.5],[-65.3005,-10.242,98.5],[-65.2918,-10.2237,97.5],[-65.2936,-10.2146,97.0],[-65.2923,-10.2104,97.0],[-65.2975,-10.2001,96.5],[-65.2996,-10.1915,96.0],[-65.3062,-10.1803,96.0],[-65.3078,-10.1733,96.0],[-65.308,-10.1645,96.0],[-65.302,-10.145,96.0],[-65.3044,-10.1325,95.5],[-65.3027,-10.1064,95.5],[-65.3045,-10.0986,95.5],[-65.3076,-10.0942,95.5],[-65.3165,-10.0877,95.5],[-65.3233,-10.0783,95.5],[-65.3304,-10.0637,95.5],[-65.3312,-10.0497,95.5],[-65.3207,-10.0037,95.0],[-65.3248,-9.9871,95.0],[-65.3336,-9.9727,94.5],[-65.3351,-9.9359,94.0],[-65.3292,-9.9187,93.5],[-65.3203,-9.9043,93.5],[-65.2913,-9.8716,92.5],[-65.2875,-9.8527,92.0],[-65.2916,-9.8405,117.5123],[-65.2957,-9.8359,107.4697],[-65.3178,-9.8224,105.2739],[-65.3229,-9.8157,93.9611],[-65.3255,-9.798,91.0],[-65.332,-9.7771,90.5],[-65.3364,-9.771,90.5],[-65.3509,-9.7332,90.0],[-65.3562,-9.7225,89.5],[-65.3623,-9.7145,89.5],[-65.3841,-9.6948,89.0],[-65.395,-9.6882,89.0],[-65.425,-9.6785,88.0],[-65.4388,-9.6709,88.0],[-65.4396,-9.6774,115.9386],[-65.4364,-9.6805,118.2366],[-65.4353,-9.6842,109.6411],[-65.4356,-9.6897,109.5115],[-65.4388,-9.6963,114.7083],[-65.4675,-9.7151,115.9856],[-65.4867,-9.7177,105.9777],[-65.4833,-9.7241,111.746],[-65.4785,-9.727,115.6067],[-65.4789,-9.7294,115.6957],[-65.4901,-9.7318,119.94],[-65.4996,-9.7382,101.0543],[-65.5026,-9.7475,114.5821],[-65.5043,-9.7677,95.7284],[-65.498,-9.7791,93.2768],[-65.5073,-9.794,125.8298],[-65.5131,-9.7973,101.2896],[-65.5376,-9.7999,108.6016],[-65.5417,-9.8042,88.0],[-65.5548,-9.8061,113.5784],[-65.5574,-9.8108,96.2747],[-65.5627,-9.8123,102.7219],[-65.5611,-9.8246,97.9697],[-65.553,-9.8354,92.509],[-65.5548,-9.8419,101.1752],[-65.5595,-9.8458,88.5],[-65.5615,-9.8457,96.2985],[-65.5701,-9.838,113.7513],[-65.5957,-9.8444,103.7714],[-65.5984,-9.8438,125.8616],[-65.5996,-9.8385,101.6125],[-65.5978,-9.83,106.1291],[-65.599,-9.8265999999999991,119.1645],[-65.6008,-9.8261,102.6645],[-65.6053,-9.8261,98.4671],[-65.6153,-9.8313,111.4751],[-65.6252,-9.8389,105.8618],[-65.6287,-9.839,127.9313],[-65.6326,-9.8324,89.0],[-65.6354,-9.809,120.7924],[-65.6371,-9.8065,111.5918],[-65.6415,-9.8084,92.2037],[-65.6481,-9.8175,91.6822],[-65.6508,-9.8189,97.2858],[-65.6537,-9.8157,113.6564],[-65.6555,-9.81,126.6257],[-65.6483,-9.7997,109.5428],[-65.6501,-9.7935,120.169],[-65.6631,-9.7951,131.4864],[-65.6666,-9.7863,123.2561],[-65.6709,-9.7829,94.9599],[-65.6895,-9.8013,97.0754],[-65.6897,-9.8127,110.1932],[-65.6912,-9.8149,120.4442],[-65.6969,-9.815,122.7201],[-65.7056,-9.8102,121.7542],[-65.7126,-9.8103,128.3759],[-65.712,-9.8056,104.8689],[-65.7024,-9.7924,108.4838],[-65.704,-9.7834,122.7279],[-65.7125,-9.7746,132.2634],[-65.7116,-9.7709,132.2873],[-65.7086,-9.7662,113.2204],[-65.7048,-9.7638,112.9251],[-65.6887,-9.7587,119.8247],[-65.6886,-9.7509,97.5975],[-65.6909,-9.752,115.07],[-65.6974,-9.7508,94.2952],[-65.708,-9.7584,110.4656],[-65.719,-9.7573,109.4272],[-65.7293,-9.7601,106.6468],[-65.7361,-9.7667,91.5],[-65.7374,-9.7798,93.4987],[-65.739,-9.7819,98.1789],[-65.7445,-9.7842,109.7715],[-65.7515,-9.7815,106.9677],[-65.7515,-10.5036,147.8931],[-65.5351,-10.5036,105.0],[-65.5099,-10.4967,104.5],[-65.5021,-10.4916,104.5],[-65.4939,-10.4785,104.5],[-65.4878,-10.4624,104.5],[-65.4864,-10.4463,104.5],[-65.4838,-10.4381,104.5],[-65.4721,-10.4292,104.5],[-65.4482,-10.4147,104.5],[-65.4382,-10.4131,104.0],[-65.425,-10.4169,104.0],[-65.4082,-10.414,104.0],[-65.4006,-10.4073,104.0],[-65.3977,-10.3985,104.0],[-65.3978,-10.3926,104.0],[-65.391,-10.3812,104.0]]]]}}