{"type": "Feature","bbox": [-65.1037,-19.4023,-64.719,-18.8563],"geometry": {"type": "MultiPolygon","coordinates": [[[[-65.0754,-19.0583,2894.1074],[-65.0682,-19.0644,2951.1162],[-65.0585,-19.0866,2952.9663],[-65.0546,-19.0888,2944.3337],[-65.0534,-19.0931,2960.8333],[-65.0506,-19.0942,2958.3411],[-65.043,-19.1149,3038.999],[-65.0228,-19.1176,2942.4805],[-65.0205,-19.1203,2942.9949],[-65.0104,-19.1454,3138.1736],[-65.0078,-19.1604,3135.4036],[-65.0084,-19.1804,3094.8708],[-65.0105,-19.1892,3028.8604],[-65.0078,-19.2048,3104.3176],[-65.0002,-19.2103,3110.4087],[-64.9952,-19.2076,3155.2102],[-64.9888,-19.1971,3187.4009],[-64.9838,-19.1941,3201.0977],[-64.9774,-19.2,2836.0334],[-64.9756,-19.2045,2781.7385],[-64.9795,-19.2151,2686.4634],[-64.9803,-19.232,2942.812],[-64.9786,-19.243,2791.8562],[-64.9804,-19.2604,2775.1604],[-64.9574,-19.2703,2443.9985],[-64.9309,-19.2695,3042.0476],[-64.9272,-19.275,2936.344],[-64.9268,-19.2883,2523.2188],[-64.9374,-19.2889,2450.0884],[-64.9388,-19.2983,2447.2859],[-64.9365,-19.298,2498.5449],[-64.9202,-19.3094,2655.4199],[-64.9188,-19.318,2766.0398],[-64.9136,-19.3272,2440.2756],[-64.9039,-19.3364,2579.5254],[-64.9,-19.3435,2615.0559],[-64.8909,-19.3514,2322.9705],[-64.8908,-19.3613,2516.1516],[-64.8928,-19.3666,2260.509],[-64.9002,-19.3741,2044.3727],[-64.8933,-19.3809,2042.0404],[-64.8942,-19.3865,2035.6118],[-64.8976,-19.3921,2033.8276],[-64.8945,-19.4004,2029.8103],[-64.8903,-19.4023,2028.2812],[-64.8853,-19.4009,2025.1729],[-64.8793,-19.3973,2036.8706],[-64.8799,-19.3925,2154.8516],[-64.8752,-19.3889,2470.1543],[-64.8765,-19.3826,2550.6272],[-64.8795,-19.38,2629.3894],[-64.8795,-19.3747,2579.4604],[-64.878,-19.3726,2617.7251],[-64.8794,-19.3689,2674.5532],[-64.8772,-19.3611,2893.2471],[-64.8721,-19.3611,3073.4692],[-64.8636,-19.3579,3216.7017],[-64.8655,-19.3537,3186.3569],[-64.8604,-19.3541,3221.313],[-64.8543,-19.351,3478.1418],[-64.8607,-19.3344,3375.748],[-64.8628,-19.3325,3359.8289],[-64.8636,-19.3273,3377.3831],[-64.8602,-19.3231,3356.4814],[-64.8557,-19.3211,3433.5896],[-64.8579,-19.3085,3487.4019],[-64.8551,-19.2937,3551.1367],[-64.8435,-19.2858,3191.5068],[-64.8338,-19.2848,3077.7832],[-64.829,-19.2816,3022.2844],[-64.8218,-19.2806,3008.7778],[-64.8056,-19.293,3085.8198],[-64.7755,-19.2942,3202.3962],[-64.7671,-19.2959,3221.6133],[-64.7606,-19.2949,3205.7153],[-64.7521,-19.2904,3285.0073],[-64.7396,-19.2899,3473.7695],[-64.7267,-19.2858,3521.2517],[-64.719,-19.2766,3507.6304],[-64.729,-19.2425,3417.6062],[-64.7263,-19.2347,3515.7869],[-64.7284,-19.2224,3519.467],[-64.7374,-19.1993,3442.6143],[-64.745,-19.1846,3350.5408],[-64.7448,-19.1805,3324.5242],[-64.7488,-19.1737,3311.1697],[-64.7499,-19.1602,3289.6738],[-64.7473,-19.1496,3285.6133],[-64.7502,-19.1462,3306.5615],[-64.7514,-19.1317,3342.7976],[-64.7606,-19.114,3131.103],[-64.7643,-19.1119,3062.8315],[-64.7718,-19.1031,2939.0117],[-64.7764,-19.0936,2806.0623],[-64.7784,-19.0923,2886.4116],[-64.7779,-19.0891,2909.8867],[-64.7663,-19.0778,2712.3125],[-64.7694,-19.0679,2631.6184],[-64.7882,-19.0491,2722.6248],[-64.806,-19.0405,2838.1624],[-64.8197,-19.0419,3026.9468],[-64.8245,-19.04,3063.9939],[-64.8308,-19.0429,3164.6338],[-64.8333,-19.036,3162.2764],[-64.8357,-19.0121,3170.9717],[-64.8575,-18.9898,2943.0298],[-64.8669,-18.9828,2821.105],[-64.8846,-18.9739,2668.1079],[-64.8907,-18.9783,2698.77],[-64.8931,-18.9827,2729.4795],[-64.8904,-18.9861,2814.249],[-64.8864,-18.9878,2697.8584],[-64.885,-18.9936,2751.8062],[-64.8951,-19.0051,2914.4658],[-64.8983,-19.0067,2950.7534],[-64.9053,-19.0042,2831.4229],[-64.9112,-18.9985,2887.157],[-64.9176,-18.9864,2887.0017],[-64.9338,-18.9903,2987.2915],[-64.9495,-19.0073,2749.7676],[-64.9605,-19.012,3053.0437],[-64.9654,-19.0007,2968.1218],[-64.9795,-18.9843,2860.7773],[-64.9803,-18.9813,2865.2659],[-64.9745,-18.9763,2984.9475],[-64.9682,-18.9532,3184.8899],[-64.9703,-18.9344,3127.1958],[-64.9803,-18.9174,3080.8733],[-64.9836,-18.8982,2996.9104],[-64.986,-18.893,2986.9395],[-64.9839,-18.8851,2709.4043],[-64.9907,-18.875,2562.6904],[-64.9959,-18.8719,2384.0757],[-65.0005,-18.8729,2474.2322],[-65.0098,-18.8703,2648.8225],[-65.019,-18.8625,2856.1135],[-65.0318,-18.8618,2573.9492],[-65.0385,-18.8577,2434.2075],[-65.0446,-18.8563,2343.6243],[-65.059,-18.8592,2203.5449],[-65.0621,-18.8713,2185.4238],[-65.071,-18.8793,2314.7461],[-65.0721,-18.8849,2438.0837],[-65.0702,-18.8893,2491.0168],[-65.074,-18.8934,2598.6001],[-65.0676,-18.9016,2687.5825],[-65.062,-18.9023,2788.0828],[-65.0564,-18.9066,2817.5588],[-65.0481,-18.9198,2754.6621],[-65.0493,-18.9313,2684.8521],[-65.0531,-18.9359,2629.6794],[-65.0553,-18.9346,2509.3025],[-65.0666,-18.9382,2166.8528],[-65.0711,-18.9382,2084.5972],[-65.0758,-18.9283,2049.1111],[-65.089,-18.9149,1995.5653],[-65.0981,-18.9129,1973.4849],[-65.1013,-18.9143,2059.5696],[-65.1037,-18.9184,2336.395],[-65.0982,-18.9243,2493.5273],[-65.0969,-18.9286,2457.0952],[-65.0915,-18.933,2559.498],[-65.082,-18.9555,2818.6401],[-65.0768,-18.9585,2756.5149],[-65.0727,-18.9641,2668.0686],[-65.0714,-18.9759,2712.4736],[-65.0655,-18.9837,2838.7065],[-65.0711,-18.9911,2569.0698],[-65.0812,-18.9938,2390.4248],[-65.0845,-18.9929,2290.5178],[-65.0844,-18.9963,2352.7126],[-65.0862,-18.9972,2346.3569],[-65.0846,-19.0046,2423.6272],[-65.0787,-19.0143,2543.7085],[-65.0787,-19.0233,2314.1914],[-65.0708,-19.0268,2348.6885],[-65.069,-19.0468,2715.3054],[-65.0753,-19.0497,2858.7292],[-65.0764,-19.0557,2952.4492],[-65.0754,-19.0583,2894.1074]]]]}
,"properties": {"GID_3": "BOL.1.9.1_2","GID_0": "BOL","country": "Bolivia","GID_1": "BOL.1_1","province": "Chuquisaca","NL_NAME_1": "NA","GID_2": "BOL.1.9_2","county": "Yamparáez","NL_NAME_2": "NA","city": "Tarabuco","VARNAME_3": "NA","NL_NAME_3": "NA","TYPE_3": "District","ENGTYPE_3": "Distrito","CC_3": "NA","HASC_3": "NA","name": "Tarabuco.city","area_km2": 1085.8339,"hist_schema_id": "Elevation0-9000","hist_area_km2": {"1975": 0.1404,"2000": 0.2206,"2025": 0.8209,"2050": 0.921,"2075": 0.8014,"2100": 0.882,"2125": 1.182,"2150": 1.1821,"2175": 1.6835,"2200": 2.3258,"2225": 2.426,"2250": 3.4288,"2275": 3.3484,"2300": 3.7692,"2325": 4.0695,"2350": 5.3328,"2375": 5.914,"2400": 7.7381,"2425": 7.838,"2450": 9.762,"2475": 10.7233,"2500": 11.7857,"2525": 13.2478,"2550": 14.7511,"2575": 15.7128,"2600": 15.3312,"2625": 15.09,"2650": 17.1735,"2675": 18.0956,"2700": 19.278,"2725": 20.4398,"2750": 22.8639,"2775": 23.9462,"2800": 24.5863,"2825": 26.9701,"2850": 28.5513,"2875": 31.0352,"2900": 33.8805,"2925": 37.2867,"2950": 38.2665,"2975": 40.7085,"3000": 40.8272,"3025": 37.9005,"3050": 35.1143,"3075": 36.5958,"3100": 33.1482,"3125": 32.646,"3150": 30.4616,"3175": 27.8562,"3200": 31.2584,"3225": 37.5447,"3250": 34.9405,"3275": 26.4702,"3300": 20.9834,"3325": 17.9194,"3350": 15.817,"3375": 14.1543,"3400": 13.433,"3425": 10.4502,"3450": 10.7304,"3475": 8.4481,"3500": 8.0877,"3525": 6.0458,"3550": 3.7435,"3575": 2.8826,"3600": 1.7616,"3625": 1.2212,"3650": 0.7007,"3675": 0.6006,"3700": 0.3804,"3725": 0.1201,"3750": 0.0801}}}