{"type":"Feature","properties":{"GID_3":"BOL.9.4.3_2","GID_0":"BOL","country":"Bolivia","GID_1":"BOL.9_1","province":"Tarija","NL_NAME_1":"NA","GID_2":"BOL.9.4_2","county":"GranChaco","NL_NAME_2":"NA","city":"Yacuiba","VARNAME_3":"NA","NL_NAME_3":"NA","TYPE_3":"District","ENGTYPE_3":"Distrito","CC_3":"NA","HASC_3":"NA","name":"Yacuiba.city"},
"geometry":{"type": "MultiPolygon","coordinates": [[[[-63.1336,-22.0037,332.7719],[-62.8076,-22.0036,278.0],[-62.8075,-21.9989,278.0],[-62.809,-21.9968,278.0],[-62.8174,-21.9897,278.0],[-62.8266,-21.9846,281.0036],[-62.8305,-21.9781,280.0839],[-62.8332,-21.9651,282.4706],[-62.8414,-21.9494,283.5197],[-62.8456,-21.9458,281.5],[-62.8475,-21.939,283.8656],[-62.8504,-21.9221,285.3199],[-62.8423,-21.8977,286.98],[-62.8376,-21.8887,286.4252],[-62.8373,-21.8813,287.8532],[-62.8436,-21.8702,288.6369],[-62.8588,-21.8565,290.2223],[-62.867,-21.8425,289.0],[-62.8761,-21.8319,292.1419],[-62.8805,-21.8269,292.6503],[-62.8929,-21.8189,293.8296],[-62.8941,-21.8082,293.8186],[-62.8886,-21.7941,295.5752],[-62.9002,-21.7816,295.6937],[-62.9111,-21.7769,296.3664],[-62.9139,-21.7739,296.0668],[-62.9333,-21.7445,300.8945],[-62.9435,-21.6973,302.0],[-62.9544,-21.6715,304.0],[-62.9649,-21.6525,307.2826],[-62.976,-21.6243,309.2713],[-62.9903,-21.5959,312.5944],[-63.0002,-21.5828,313.0746],[-63.0048,-21.5641,314.317],[-63.0118,-21.5521,314.2311],[-63.0323,-21.5421,317.1051],[-63.0621,-21.5455,325.3422],[-63.1136,-21.5303,402.6896],[-63.1197,-21.5255,399.0759],[-63.1696,-21.5354,488.301],[-63.1973,-21.5474,480.2104],[-63.2011,-21.5474,490.2322],[-63.2102,-21.5539,476.1589],[-63.2323,-21.5623,435.6999],[-63.2533,-21.5637,405.2166],[-63.2658,-21.5611,393.1701],[-63.2762,-21.5609,385.6698],[-63.3579,-21.546,413.3313],[-63.3615,-21.5485,416.6757],[-63.3826,-21.5542,427.213],[-63.4,-21.5552,443.9197],[-63.4432,-21.5776,517.4456],[-63.4482,-21.5829,500.9294],[-63.5139,-21.5782,649.3928],[-63.6073,-21.5659,1118.0474],[-63.613,-21.5612,1409.5876],[-63.6195,-21.5593,1845.3345],[-63.621,-21.5606,1808.8542],[-63.6219,-21.5765,1710.8191],[-63.6273,-21.5959,1785.2021],[-63.6304,-21.6172,1851.5194],[-63.6367,-21.6342,1634.5536],[-63.6409,-21.6763,1675.9004],[-63.6489,-21.7286,1498.3572],[-63.6587,-21.7617,1447.6656],[-63.6754,-21.8059,1400.8611],[-63.6805,-21.8289,1326.6093],[-63.6882,-21.8467,1283.6827],[-63.6867,-21.8595,1309.5544],[-63.6932,-21.8662,1279.3087],[-63.702,-21.865,1342.3234],[-63.7056,-21.8735,1257.8279],[-63.7056,-21.8788,1331.371],[-63.7142,-21.8938,1112.6559],[-63.7138,-21.9161,1396.6592],[-63.7204,-21.9323,1117.353],[-63.721,-21.9432,1061.9639],[-63.7191,-21.9577,1290.8854],[-63.7217,-21.9598,1228.7605],[-63.7233,-21.9811,1200.2537],[-63.7213,-21.9977,1197.8851],[-63.7207,-21.9994,1243.5405],[-63.7157,-22.0,998.1347],[-63.7099,-22.0037,874.2163],[-63.7063,-22.0095,771.4573],[-63.707,-22.0122,797.3784],[-63.7025,-22.0159,710.3632],[-63.6982,-22.0135,693.2148],[-63.6968,-22.0152,733.6952],[-63.6889,-22.0117,663.0178],[-63.6877,-22.0259,618.8316],[-63.6824,-22.0293,606.9736],[-63.6831,-22.0307,605.6281],[-63.6817,-22.0315,604.0434],[-63.6846,-22.033,599.7562],[-63.6868,-22.0394,598.3128],[-63.6847,-22.0408,590.5634],[-63.6866,-22.0404,596.0856],[-63.6837,-22.0471,581.2946],[-63.6836,-22.0548,568.9359],[-63.6784,-22.0511,571.0468],[-63.68,-22.0485,581.2416],[-63.6766,-22.0453,580.4681],[-63.6786,-22.0429,589.4739],[-63.6744,-22.0405,582.906],[-63.6741,-22.0386,585.8844],[-63.6763,-22.0367,593.103],[-63.675,-22.0364,586.8213],[-63.6735,-22.0304,597.0306],[-63.6698,-22.0277,606.4329],[-63.6712,-22.0229,608.7008],[-63.6678,-22.0185,607.0214],[-63.6674,-22.0151,614.3433],[-63.6703,-22.0132,615.6295],[-63.6671,-22.0035,625.0364],[-63.1336,-22.0037,332.7719]]]]}}