{"type":"Feature","properties":{"GID_3":"BOL.1.5.1_2","GID_0":"BOL","country":"Bolivia","GID_1":"BOL.1_1","province":"Chuquisaca","NL_NAME_1":"NA","GID_2":"BOL.1.5_2","county":"NorCinti","NL_NAME_2":"NA","city":"Camargo","VARNAME_3":"NA","NL_NAME_3":"NA","TYPE_3":"District","ENGTYPE_3":"Distrito","CC_3":"NA","HASC_3":"NA","name":"Camargo.city"},
"geometry":{"type": "MultiPolygon","coordinates": [[[[-64.8647,-20.4913,4198.5957],[-64.8734,-20.4833,4002.5347],[-64.8763,-20.4829,3921.3101],[-64.8803,-20.4772,3793.2617],[-64.8798,-20.4727,3777.8083],[-64.8876,-20.4706,3767.4021],[-64.9023,-20.4625,3494.1665],[-64.916,-20.4639,3456.9216],[-64.927,-20.4585,3364.6116],[-64.9336,-20.4635,3477.8115],[-64.9402,-20.4637,3618.0723],[-64.9467,-20.4614,3582.0898],[-64.948,-20.4541,3528.5535],[-64.956,-20.4509,3456.269],[-64.9637,-20.4448,3412.7532],[-64.9721,-20.4426,3416.1218],[-64.9804,-20.4352,3287.8098],[-64.9845,-20.4275,3189.1035],[-64.9847,-20.4209,3356.592],[-64.9892,-20.4158,3421.6436],[-64.9958,-20.4132,3417.3804],[-65.0077,-20.4035,3305.6794],[-65.0175,-20.3986,3076.6897],[-65.0211,-20.4027,3083.6318],[-65.0263,-20.4034,3023.1179],[-65.0292,-20.4031,3036.0688],[-65.0362,-20.3976,2975.4888],[-65.0393,-20.3975,3084.7781],[-65.0492,-20.388,3507.4868],[-65.0478,-20.3831,3394.5471],[-65.0481,-20.3707,3406.5454],[-65.0516,-20.3564,3388.8623],[-65.0516,-20.3473,3405.7817],[-65.0495,-20.3401,3417.1514],[-65.0539,-20.3378,3324.2163],[-65.0656,-20.3361,3322.811],[-65.0702,-20.3335,3357.4102],[-65.0711,-20.3278,3421.0171],[-65.0861,-20.3214,3548.8706],[-65.1292,-20.3098,3569.8337],[-65.1315,-20.3061,3504.4509],[-65.142,-20.3065,3419.9131],[-65.1465,-20.3107,3452.0354],[-65.1495,-20.306,3536.3931],[-65.163,-20.3157,3490.7544],[-65.1665,-20.3149,3515.21],[-65.1675,-20.3166,3560.8799],[-65.1693,-20.3146,3538.1072],[-65.1732,-20.315,3557.3564],[-65.1754,-20.3118,3573.9116],[-65.1804,-20.3104,3611.2422],[-65.1846,-20.3122,3616.1907],[-65.186,-20.311,3692.564],[-65.1881,-20.3136,3644.9338],[-65.1916,-20.3124,3661.4766],[-65.1934,-20.3147,3685.0027],[-65.1955,-20.3113,3725.7986],[-65.1996,-20.3145,3824.5964],[-65.2079,-20.3167,3895.876],[-65.2218,-20.3138,4298.3262],[-65.2218,-20.3212,4465.0723],[-65.2308,-20.3316,4583.4419],[-65.2331,-20.3422,4761.7676],[-65.2285,-20.3516,4649.5479],[-65.238,-20.3582,4594.6147],[-65.2408,-20.3626,4684.5605],[-65.2393,-20.3658,4662.626],[-65.2443,-20.3675,4638.4326],[-65.2465,-20.3712,4625.2837],[-65.2463,-20.3752,4551.3438],[-65.2515,-20.3796,4595.0566],[-65.2507,-20.3829,4553.2896],[-65.2526,-20.3868,4712.9678],[-65.2491,-20.3903,4605.5859],[-65.2476,-20.3965,4417.9951],[-65.248,-20.4056,4544.6025],[-65.2456,-20.4079,4597.9146],[-65.2459,-20.4106,4563.8315],[-65.2435,-20.4151,4551.5391],[-65.2463,-20.4186,4604.5391],[-65.2486,-20.4183,4508.877],[-65.2555,-20.4235,4371.4453],[-65.2624,-20.4238,4469.749],[-65.2634,-20.4301,4518.5283],[-65.2612,-20.4368,4481.7686],[-65.2564,-20.4425,4455.2231],[-65.2573,-20.4471,4534.043],[-65.2591,-20.4504,4627.522],[-65.2645,-20.4511,4512.6152],[-65.2714,-20.4577,4600.0879],[-65.2692,-20.463,4499.2988],[-65.2728,-20.4716,4423.3979],[-65.2681,-20.4797,4369.5986],[-65.2699,-20.4888,4304.6987],[-65.2682,-20.4926,4264.1421],[-65.2686,-20.5047,4258.6191],[-65.3276,-20.5119,4125.4688],[-65.3501,-20.5484,3703.0786],[-65.3799,-20.5589,3401.7292],[-65.3878,-20.5576,3480.2957],[-65.3819,-20.5753,3435.7969],[-65.3824,-20.5817,3437.7498],[-65.3683,-20.5974,3449.7068],[-65.3642,-20.5989,3407.1902],[-65.3601,-20.5977,3383.7927],[-65.3546,-20.6023,3392.1157],[-65.3556,-20.6061,3354.4036],[-65.3497,-20.6145,3292.3145],[-65.3472,-20.6226,3270.6101],[-65.356,-20.6398,3234.1887],[-65.3564,-20.6451,3179.2402],[-65.358,-20.6466,3162.4509],[-65.3556,-20.6545,3025.4031],[-65.3575,-20.6579,2983.1628],[-65.3584,-20.6674,2922.593],[-65.3632,-20.672,2935.7437],[-65.3645,-20.6772,2929.1584],[-65.3644,-20.6881,2887.8032],[-65.3617,-20.6976,2817.0679],[-65.3638,-20.701,2701.106],[-65.3636,-20.7081,2675.8569],[-65.358,-20.7146,2620.1113],[-65.3572,-20.7271,2464.522],[-65.3607,-20.7299,2587.6116],[-65.3614,-20.7328,2628.8213],[-65.3688,-20.7365,2909.5471],[-65.3697,-20.7398,2984.5447],[-65.3753,-20.7467,3043.1899],[-65.3745,-20.7495,3071.4043],[-65.3763,-20.7512,3085.7471],[-65.3716,-20.7555,2883.8169],[-65.3723,-20.7586,2866.0586],[-65.3695,-20.7636,2900.0671],[-65.3715,-20.7722,3026.6504],[-65.3664,-20.7795,3058.2839],[-65.3644,-20.7918,3164.8086],[-65.3577,-20.8002,3209.9375],[-65.3586,-20.8052,3246.5415],[-65.3524,-20.8109,3378.9954],[-65.3492,-20.8213,3366.3145],[-65.3491,-20.8267,3446.6353],[-65.3468,-20.8324,3455.7747],[-65.3488,-20.8343,3501.6655],[-65.3485,-20.839,3474.5984],[-65.3508,-20.8437,3592.3984],[-65.3497,-20.8475,3645.3247],[-65.3506,-20.8518,3800.061],[-65.3478,-20.8542,3819.5054],[-65.3483,-20.8572,3802.7402],[-65.3452,-20.8572,3780.7451],[-65.3402,-20.8543,3637.2549],[-65.3322,-20.8556,3576.8232],[-65.3289,-20.8582,3527.9707],[-65.32,-20.8576,3520.8103],[-65.3184,-20.8597,3413.9866],[-65.3128,-20.8588,3387.9087],[-65.3115,-20.8571,3448.5317],[-65.305,-20.8616,3367.6929],[-65.2974,-20.8591,3572.7388],[-65.273,-20.866,3285.082],[-65.2594,-20.8768,3257.228],[-65.2504,-20.8755,3072.3459],[-65.2379,-20.8806,2379.9719],[-65.2215,-20.8836,2261.4717],[-65.2117,-20.8877,2533.8804],[-65.1999,-20.8962,2675.9463],[-65.1912,-20.9002,2495.8674],[-65.1865,-20.8987,2526.6504],[-65.18,-20.893,2538.8003],[-65.1714,-20.8909,2571.0623],[-65.1687,-20.8878,2594.4563],[-65.1525,-20.8797,2649.7505],[-65.1511,-20.8774,2709.8525],[-65.1514,-20.8712,2732.5085],[-65.1438,-20.8677,2743.0068],[-65.1417,-20.8619,2753.2004],[-65.1256,-20.8662,3004.0581],[-65.1153,-20.8625,3161.7373],[-65.1089,-20.8623,3235.657],[-65.1037,-20.8573,3322.4099],[-65.0993,-20.8589,3324.3323],[-65.0993,-20.8622,3270.707],[-65.0959,-20.8652,3291.5881],[-65.0841,-20.8607,3409.6719],[-65.0811,-20.8567,3363.176],[-65.083,-20.8536,3326.4578],[-65.0836,-20.8434,3197.3167],[-65.0809,-20.8428,3088.8989],[-65.0758,-20.8373,3118.887],[-65.0795,-20.8247,3168.991],[-65.0859,-20.8203,3137.8564],[-65.087,-20.8145,3223.2612],[-65.085,-20.8121,3176.3203],[-65.0856,-20.8058,3227.4053],[-65.0757,-20.8073,3299.5967],[-65.0699,-20.8052,3257.8271],[-65.069,-20.8033,3234.8516],[-65.0721,-20.7951,3108.2236],[-65.0707,-20.7941,3086.854],[-65.0639,-20.7947,3063.6123],[-65.053,-20.7918,3025.0691],[-65.0441,-20.7974,3009.6602],[-65.0486,-20.7895,3031.593],[-65.0491,-20.7851,3037.8186],[-65.0523,-20.7838,3043.1577],[-65.0543,-20.7796,3052.7231],[-65.0527,-20.768,3091.7534],[-65.0493,-20.7601,3129.5732],[-65.0512,-20.7476,3276.272],[-65.044,-20.7307,3633.2913],[-65.0386,-20.7257,3950.0796],[-65.038,-20.7223,4007.5994],[-65.0426,-20.7197,4105.8672],[-65.0459,-20.7149,4060.0352],[-65.0456,-20.7073,3938.8745],[-65.0474,-20.7009,3937.249],[-65.044,-20.6969,3824.718],[-65.0342,-20.6913,3554.8914],[-65.0281,-20.6911,3487.2542],[-65.0208,-20.696,3779.4814],[-65.0116,-20.6945,3828.5576],[-65.008,-20.6923,4011.3911],[-65.0071,-20.6864,3876.106],[-65.0147,-20.6727,4140.8179],[-65.0042,-20.6637,3925.2441],[-65.0083,-20.6499,4007.0344],[-64.9943,-20.6426,3870.8843],[-64.9921,-20.6334,3988.0386],[-64.9901,-20.6314,3943.2964],[-64.9787,-20.6341,3765.4863],[-64.9743,-20.6322,3868.5986],[-64.9704,-20.635,3830.0142],[-64.9662,-20.635,3792.063],[-64.9628,-20.6297,3888.5085],[-64.961,-20.6214,3713.0791],[-64.948,-20.6009,3742.623],[-64.9338,-20.6074,3806.3057],[-64.9284,-20.5941,3748.1431],[-64.9273,-20.585,3714.6785],[-64.9174,-20.5654,4048.5022],[-64.9022,-20.5621,3961.0796],[-64.8872,-20.547,4176.2446],[-64.8883,-20.5312,4051.1333],[-64.8842,-20.5255,4075.5442],[-64.8813,-20.5098,4106.3872],[-64.8756,-20.5013,4054.2422],[-64.8687,-20.5009,4121.0908],[-64.8647,-20.4913,4198.5957]]]]}}