{"type": "Feature","bbox": [-64.9281,-21.5849,-64.391,-20.931],"geometry": {"type": "MultiPolygon","coordinates": [[[[-64.8358,-21.1048,1617.2332],[-64.8316,-21.1127,1754.8188],[-64.8287,-21.1144,1833.8627],[-64.8335,-21.1176,1859.2631],[-64.8345,-21.12,1879.4093],[-64.8314,-21.1243,2027.3007],[-64.833,-21.1307,2044.0038],[-64.8323,-21.138,2147.9053],[-64.8305,-21.139,2177.1221],[-64.8269,-21.1499,2259.4082],[-64.8339,-21.1595,2546.0095],[-64.8328,-21.1632,2565.8167],[-64.829,-21.1655,2573.7358],[-64.8305,-21.1656,2555.6348],[-64.8309,-21.1674,2589.1282],[-64.8539,-21.1745,3083.6079],[-64.8589,-21.1872,2962.5635],[-64.8672,-21.1964,2951.0725],[-64.8734,-21.2007,3097.6709],[-64.8796,-21.2089,3168.3884],[-64.8839,-21.2118,3155.7427],[-64.9027,-21.2325,3292.3613],[-64.9181,-21.2409,3585.781],[-64.9219,-21.2511,3632.728],[-64.9195,-21.2604,3668.9971],[-64.9205,-21.2668,3625.8503],[-64.9241,-21.2744,3647.6099],[-64.9212,-21.2863,3648.8394],[-64.9281,-21.3225,3414.2153],[-64.9237,-21.3702,3566.2876],[-64.9242,-21.3823,3565.9331],[-64.9222,-21.3906,3568.7554],[-64.9242,-21.396,3572.2627],[-64.9253,-21.429,3674.1804],[-64.9198,-21.4286,3429.3303],[-64.9109,-21.4312,3184.5552],[-64.9028,-21.43,3046.8333],[-64.898,-21.431,2995.3767],[-64.8947,-21.4259,2865.2722],[-64.8896,-21.4241,2767.543],[-64.8887,-21.433,2847.9678],[-64.8907,-21.4365,2806.4902],[-64.8871,-21.4453,2953.0923],[-64.8924,-21.4542,2986.863],[-64.8847,-21.458,3130.7932],[-64.882,-21.4642,3190.4937],[-64.8827,-21.4665,3282.0684],[-64.8867,-21.465699999999998,3333.1394],[-64.8903,-21.4681,3378.4116],[-64.8915,-21.4816,3526.4619],[-64.8803,-21.4942,3012.1152],[-64.8707,-21.4918,2951.3906],[-64.866,-21.5018,3177.519],[-64.8637,-21.5199,3389.4666],[-64.8635,-21.5229,3403.3848],[-64.8668,-21.5257,3443.3477],[-64.8749,-21.5388,3544.5107],[-64.8868,-21.5415,3873.1929],[-64.8986,-21.5497,4195.0],[-64.9052,-21.5592,4196.8018],[-64.9101,-21.5607,4179.8247],[-64.9148,-21.5678,4159.1157],[-64.9143,-21.5793,4046.1089],[-64.9108,-21.5824,3987.8286],[-64.8967,-21.5846,3794.8789],[-64.8859,-21.5849,3553.8716],[-64.8783,-21.5815,3428.1216],[-64.8763,-21.5743,3501.7983],[-64.8638,-21.5713,3160.7832],[-64.8529,-21.5727,2995.8438],[-64.8505,-21.569,3019.9089],[-64.8358,-21.5624,2790.8335],[-64.8265,-21.5669,2728.7854],[-64.8116,-21.5578,2524.3384],[-64.8101,-21.5533,2519.4768],[-64.804,-21.5502,2546.2607],[-64.8027,-21.5461,2401.4336],[-64.7983,-21.5443,2367.9199],[-64.7961,-21.5404,2354.1577],[-64.7904,-21.5383,2400.1199],[-64.7906,-21.5395,2400.1199],[-64.7868,-21.5305,2299.563],[-64.7795,-21.5253,2228.5706],[-64.7798,-21.5161,2062.2969],[-64.7821,-21.5086,1992.9438],[-64.7728,-21.5008,1972.1454],[-64.7602,-21.5001,1934.6774],[-64.7552,-21.4779,1933.2571],[-64.7518,-21.4697,1939.4253],[-64.7448,-21.4671,1947.9475],[-64.7399,-21.4605,1969.5758],[-64.7329,-21.4553,1968.5334],[-64.7317,-21.4518,1972.7405],[-64.7283,-21.4499,1978.5216],[-64.7264,-21.4436,1986.1741],[-64.7176,-21.432,2006.318],[-64.7169,-21.4283,2012.5902],[-64.7116,-21.4209,2028.09],[-64.7108,-21.4164,2037.0701],[-64.7131,-21.4037,2058.9492],[-64.7115,-21.3981,2063.5735],[-64.6986,-21.3898,2089.7397],[-64.6847,-21.3854,2135.293],[-64.6772,-21.3883,2131.7534],[-64.6657,-21.3837,2203.9363],[-64.6564,-21.3847,2180.7637],[-64.652,-21.3756,2226.2559],[-64.6496,-21.3746,2237.5715],[-64.6502,-21.3677,2408.4333],[-64.6467,-21.3466,2485.8616],[-64.6408,-21.3438,2491.5344],[-64.639,-21.3298,2685.335],[-64.6411,-21.3257,2739.3052],[-64.6363,-21.3232,2905.8398],[-64.6248,-21.3212,3137.4968],[-64.6234,-21.3025,2961.0879],[-64.6307,-21.2873,2960.6804],[-64.6324,-21.2746,3120.2046],[-64.6225,-21.2663,2859.6121],[-64.6211,-21.2549,2542.6638],[-64.6128,-21.2468,2163.1042],[-64.6108,-21.2423,2129.603],[-64.6118,-21.2369,2109.1304],[-64.6087,-21.2366,2207.1787],[-64.6006,-21.2402,2553.3875],[-64.5871,-21.2395,3182.6665],[-64.5814,-21.2477,3034.0376],[-64.5856,-21.2592,3279.2468],[-64.5893,-21.2824,3244.7048],[-64.5878,-21.2864,3248.6924],[-64.566,-21.286,2953.1953],[-64.5553,-21.2812,2876.1987],[-64.546,-21.2825,2897.4038],[-64.5413,-21.2966,2931.532],[-64.5442,-21.3059,2889.05],[-64.5429,-21.3118,2970.7227],[-64.535,-21.3271,2763.8354],[-64.5204,-21.327,2519.0664],[-64.5034,-21.3324,2575.3303],[-64.4927,-21.3414,2644.3257],[-64.4844,-21.3405,2462.957],[-64.4772,-21.3461,2429.1013],[-64.4686,-21.3459,2274.363],[-64.4663,-21.3375,2183.3154],[-64.4644,-21.3356,2121.6191],[-64.4634,-21.3271,2058.5537],[-64.4539,-21.3261,1972.9612],[-64.4498,-21.3205,2007.7517],[-64.4462,-21.3203,1885.8365],[-64.4406,-21.3156,1836.9331],[-64.4371,-21.3089,1799.5996],[-64.4354,-21.2949,1715.418],[-64.4403,-21.2828,1661.0046],[-64.4345,-21.2748,1619.4806],[-64.4295,-21.2625,1554.7777],[-64.432,-21.2419,1474.4348],[-64.4304,-21.2394,1469.1129],[-64.4248,-21.2369,1433.1954],[-64.4236,-21.2342,1421.5483],[-64.425,-21.2244,1455.4828],[-64.4215,-21.2167,1362.4169],[-64.4244,-21.2088,1319.6018],[-64.4233,-21.2011,1359.7285],[-64.4203,-21.1989,1271.5792],[-64.4196,-21.1957,1258.3462],[-64.4209,-21.1879,1224.9172],[-64.4196,-21.1809,1249.8],[-64.4213,-21.1772,1210.094],[-64.4187,-21.174,1260.5045],[-64.4091,-21.1707,1145.708],[-64.4057,-21.1661,1105.4694],[-64.4038,-21.1573,1071.8319],[-64.4002,-21.1546,1073.6488],[-64.3981,-21.1486,1065.8636],[-64.393,-21.1459,1011.5884],[-64.391,-21.1414,996.0266],[-64.3919,-21.1221,1018.3805],[-64.3986,-21.1186,950.3795],[-64.3998,-21.1142,1010.0161],[-64.4066,-21.11,943.7172],[-64.413,-21.1095,948.642],[-64.414,-21.1001,1092.0139],[-64.4187,-21.0989,987.6693],[-64.4299,-21.1033,959.9789],[-64.4337,-21.1003,962.241],[-64.4352,-21.0967,967.9702],[-64.4417,-21.0933,971.1766],[-64.4444,-21.088,976.1756],[-64.4507,-21.0847,989.8625],[-64.455,-21.0851,988.9054],[-64.4571,-21.0831,1040.4136],[-64.4676,-21.0866,985.9694],[-64.4739,-21.0853,1025.3032],[-64.4803,-21.0861,1111.1366],[-64.4805,-21.0913,999.8343],[-64.4818,-21.092,999.8343],[-64.4916,-21.0919,1009.5781],[-64.4961,-21.0961,1012.6973],[-64.5054,-21.0954,1064.6064],[-64.5117,-21.0995,1024.3247],[-64.5174,-21.0992,1088.1572],[-64.5215,-21.0968,1084.3799],[-64.5272,-21.0976,1033.1218],[-64.5308,-21.0919,1069.6121],[-64.5374,-21.0899,1039.2054],[-64.5359,-21.0835,1148.3901],[-64.5385,-21.0819,1044.3793],[-64.5445,-21.0825,1050.4137],[-64.5464,-21.0812,1046.876],[-64.5485,-21.0681,1049.5931],[-64.5551,-21.0626,1056.3762],[-64.5571,-21.056,1064.8015],[-64.5624,-21.0526,1062.1202],[-64.5681,-21.0426,1067.1846],[-64.5676,-21.0342,1074.866],[-64.5717,-21.0314,1076.2795],[-64.5774,-21.0326,1080.0439],[-64.5805,-21.025,1131.4487],[-64.5793,-21.0186,1125.7556],[-64.5847,-21.0164,1085.6376],[-64.5848,-21.0074,1178.1523],[-64.5884,-21.0052,1177.9924],[-64.5923,-21.0076,1114.8643],[-64.5989,-21.0024,1099.9663],[-64.6016,-20.9955,1102.3169],[-64.6013,-20.991,1104.778],[-64.6051,-20.9819,1112.0991],[-64.615,-20.9782,1159.1829],[-64.62,-20.9815,1122.2959],[-64.624,-20.9801,1121.21],[-64.6272,-20.9756,1143.8479],[-64.6384,-20.9712,1170.7665],[-64.6426,-20.9672,1134.9359],[-64.6452,-20.9547,1150.8771],[-64.6509,-20.9553,1147.5155],[-64.6541,-20.9538,1152.1528],[-64.6546,-20.9494,1219.4368],[-64.6595,-20.9443,1167.1284],[-64.6668,-20.9405,1172.5715],[-64.6781,-20.9428,1163.6799],[-64.6866,-20.9411,1174.8809],[-64.6989,-20.931,1192.2928],[-64.7125,-20.9346,1182.4512],[-64.7147,-20.937,1184.7136],[-64.7197,-20.9365,1192.4977],[-64.7276,-20.9414,1192.104],[-64.7336,-20.9531,1202.0162],[-64.7351,-20.9621,1207.8446],[-64.734,-20.9673,1211.9934],[-64.7399,-20.973,1218.2255],[-64.761,-20.9802,1253.05],[-64.7623,-20.9834,1246.0981],[-64.7574,-20.9852,1292.4248],[-64.7566,-20.9877,1242.616],[-64.7572,-20.9942,1248.3298],[-64.7686,-21.0145,1312.1488],[-64.7712,-21.016,1315.2246],[-64.7679,-21.0212,1414.3069],[-64.7696,-21.0256,1292.3906],[-64.7709,-21.0274,1319.6718],[-64.7793,-21.0302,1327.052],[-64.7821,-21.0376,1352.4473],[-64.7818,-21.0425,1359.7076],[-64.7789,-21.0438,1412.2108],[-64.7782,-21.0472,1352.3417],[-64.7759,-21.0481,1358.4271],[-64.7744,-21.055,1457.4937],[-64.7782,-21.0606,1381.2002],[-64.7878,-21.062,1456.1766],[-64.792,-21.0678,1458.1338],[-64.7904,-21.0758,1584.1857],[-64.7968,-21.0862,1480.0645],[-64.7978,-21.0947,1577.7676],[-64.8041,-21.0968,1500.8374],[-64.8098,-21.0942,1553.5823],[-64.8178,-21.0932,1530.9495],[-64.8367,-21.093,1554.6458],[-64.8393,-21.0961,1529.0966],[-64.8358,-21.1048,1617.2332]]]]}
,"properties": {"GID_3": "BOL.9.5.2_2","GID_0": "BOL","country": "Bolivia","GID_1": "BOL.9_1","province": "Tarija","NL_NAME_1": "NA","GID_2": "BOL.9.5_2","county": "Méndez","NL_NAME_2": "NA","city": "SanLorenzo","VARNAME_3": "NA","NL_NAME_3": "NA","TYPE_3": "District","ENGTYPE_3": "Distrito","CC_3": "NA","HASC_3": "NA","name": "San_Lorenzo.city","area_km2": 1983.68,"hist_schema_id": "Elevation0-9000","hist_area_km2": {"925": 0.297,"950": 1.108,"975": 1.879,"1000": 1.879,"1025": 2.255,"1050": 3.323,"1075": 4.253,"1100": 5.461,"1125": 5.362,"1150": 6.273,"1175": 6.471,"1200": 6.53,"1225": 6.728,"1250": 6.945,"1275": 6.985,"1300": 7.677,"1325": 8.408,"1350": 7.696,"1375": 8.191,"1400": 9.14,"1425": 8.843,"1450": 8.329,"1475": 9.258,"1500": 9.634,"1525": 10.109,"1550": 9.693,"1575": 9.337,"1600": 10.009,"1625": 10.682,"1650": 10.029,"1675": 10.543,"1700": 10.602,"1725": 10.998,"1750": 10.463,"1775": 11.749,"1800": 11.056,"1825": 11.966,"1850": 11.848,"1875": 11.313,"1900": 11.609,"1925": 13.308,"1950": 17.926,"1975": 21.949,"2000": 27.556,"2025": 33.121,"2050": 38.711,"2075": 34.311,"2100": 33.801,"2125": 31.235,"2150": 29.341,"2175": 28.471,"2200": 27.207,"2225": 28.632,"2250": 27.762,"2275": 29.244,"2300": 30.113,"2325": 30.113,"2350": 33.649,"2375": 35.132,"2400": 34.223,"2425": 36.0,"2450": 36.377,"2475": 36.535,"2500": 36.555,"2525": 39.559,"2550": 39.775,"2575": 39.38,"2600": 38.078,"2625": 35.373,"2650": 36.896,"2675": 38.931,"2700": 40.098,"2725": 41.876,"2750": 40.925,"2775": 42.566,"2800": 48.176,"2825": 44.501,"2850": 38.002,"2875": 34.682,"2900": 33.278,"2925": 31.855,"2950": 30.532,"2975": 26.698,"3000": 23.041,"3025": 20.927,"3050": 18.99,"3075": 17.786,"3100": 14.603,"3125": 13.16,"3150": 11.46,"3175": 11.401,"3200": 9.958,"3225": 8.258,"3250": 7.428,"3275": 6.835,"3300": 7.211,"3325": 5.828,"3350": 5.255,"3375": 4.642,"3400": 3.555,"3425": 3.575,"3450": 3.219,"3475": 2.804,"3500": 2.448,"3525": 2.133,"3550": 1.6,"3575": 1.185,"3600": 1.165,"3625": 0.691,"3650": 0.572,"3675": 0.493,"3700": 0.532,"3725": 0.197,"3750": 0.454,"3775": 0.335,"3800": 0.335,"3825": 0.375,"3850": 0.237,"3875": 0.414,"3900": 0.335,"3925": 0.276,"3950": 0.138,"3975": 0.276,"4000": 0.296,"4025": 0.237,"4050": 0.276,"4075": 0.276,"4100": 0.177,"4125": 0.335,"4150": 0.217,"4175": 0.177,"4200": 0.138,"4225": 0.039}}}