{"type":"Feature","properties":{"GID_3":"BOL.2.7.4_2","GID_0":"BOL","country":"Bolivia","GID_1":"BOL.2_1","province":"Cochabamba","NL_NAME_1":"NA","GID_2":"BOL.2.7_2","county":"Carrasco","NL_NAME_2":"NA","city":"Pojo","VARNAME_3":"NA","NL_NAME_3":"NA","TYPE_3":"District","ENGTYPE_3":"Distrito","CC_3":"NA","HASC_3":"NA","name":"Pojo.city"},
"geometry":{"type": "MultiPolygon","coordinates": [[[[-64.7663,-17.9849,1556.3317],[-64.7707,-17.9821,1657.4956],[-64.7744,-17.9772,1773.4048],[-64.7772,-17.9813,1536.7177],[-64.78,-17.9789,1538.4025],[-64.7833,-17.9818,1593.7009],[-64.7826,-17.9796,1557.9469],[-64.7851,-17.979,1562.1429],[-64.7864,-17.9747,1561.3562],[-64.7961,-17.9681,1592.1627],[-64.7988,-17.9637,1575.0265],[-64.7995,-17.9578,1580.7468],[-64.8041,-17.9532,1615.2626],[-64.8074,-17.9469,1615.4041],[-64.8106,-17.9447,1612.413],[-64.7866,-17.9333,2323.3784],[-64.7954,-17.916,2305.6934],[-64.8024,-17.8975,2274.1519],[-64.8064,-17.8931,2318.1851],[-64.7915,-17.8445,3178.4656],[-64.7776,-17.8298,2977.21],[-64.7773,-17.8262,2943.3872],[-64.774,-17.8211,2876.4402],[-64.7743,-17.8156,2849.6807],[-64.7777,-17.8116,2718.855],[-64.7747,-17.8075,2901.5439],[-64.7633,-17.7749,2362.4104],[-64.7565,-17.7509,1958.3331],[-64.7463,-17.736,1847.4269],[-64.74,-17.7374,1817.1426],[-64.7324,-17.7357,1793.9192],[-64.7294,-17.7335,1800.8831],[-64.7153,-17.7327,1847.0348],[-64.7054,-17.7227,1655.0361],[-64.7051,-17.718,1593.9739],[-64.7019,-17.7161,1440.5885],[-64.699,-17.7154,1437.4814],[-64.6878,-17.7187,1406.5476],[-64.6822,-17.7162,1396.0419],[-64.6744,-17.7162,1370.2744],[-64.6705,-17.714,1361.6659],[-64.6589,-17.7166,1332.696],[-64.652,-17.7144,1358.7811],[-64.6485,-17.7089,1341.3069],[-64.6398,-17.7082,1332.3408],[-64.6393,-17.705,1329.7382],[-64.6419,-17.7036,1292.4863],[-64.6402,-17.7009,1308.8656],[-64.6398,-17.6953,1278.3516],[-64.6423,-17.6807,1249.259],[-64.6403,-17.6791,1316.5331],[-64.6409,-17.6758,1242.4083],[-64.6387,-17.6752,1263.2791],[-64.6356,-17.6698,1225.7321],[-64.6333,-17.6698,1279.6542],[-64.6295,-17.6663,1254.288],[-64.6275,-17.659,1150.5657],[-64.6246,-17.6589,1118.2585],[-64.6211,-17.6629,1080.8114],[-64.6165,-17.664,1056.2384],[-64.6143,-17.6587,1033.6718],[-64.6141,-17.651,1008.6315],[-64.6016,-17.6408,978.4959],[-64.6019,-17.6362,971.2608],[-64.5974,-17.6347,991.1862],[-64.5921,-17.619,989.4247],[-64.5911,-17.6135,985.5629],[-64.5922,-17.6069,993.7703],[-64.5884,-17.6006,905.4613],[-64.592,-17.5977,882.5176],[-64.5941,-17.593,859.7329],[-64.5986,-17.5902,841.675],[-64.5997,-17.5727,1031.2429],[-64.603,-17.5648,834.091],[-64.6025,-17.5574,832.9915],[-64.6081,-17.5499,716.6372],[-64.6105,-17.5505,749.8647],[-64.6137,-17.5543,722.6242],[-64.6245,-17.5533,697.2806],[-64.6268,-17.5499,691.5305],[-64.6399,-17.5424,669.725],[-64.6404,-17.5378,732.4075],[-64.6446,-17.5353,676.395],[-64.6474,-17.5354,677.7549],[-64.6482,-17.5256,660.2174],[-64.65,-17.5246,649.3171],[-64.6541,-17.5254,662.9584],[-64.6568,-17.5212,655.0612],[-64.655,-17.5156,663.0711],[-64.6593,-17.5147,639.3355],[-64.6561,-17.5079,639.0522],[-64.6594,-17.5031,639.6375],[-64.6608,-17.4938,622.3117],[-64.6586,-17.4924,631.1682],[-64.6545,-17.4935,623.8358],[-64.6539,-17.4918,612.538],[-64.6575,-17.4854,600.0258],[-64.6582,-17.4792,596.918],[-64.6618,-17.4742,624.4615],[-64.6631,-17.4679,573.0579],[-64.6732,-17.4626,586.7827],[-64.6815,-17.462,552.9017],[-64.6878,-17.4552,542.8375],[-64.6905,-17.4464,540.2859],[-64.698,-17.4419,520.3336],[-64.7051,-17.4276,509.2171],[-64.7112,-17.4196,498.8441],[-64.7202,-17.4188,495.368],[-64.7249,-17.4135,484.4092],[-64.7347,-17.4098,474.0802],[-64.7386,-17.4039,465.0067],[-64.7388,-17.3975,528.6042],[-64.7533,-17.3852,450.7204],[-64.7649,-17.3799,446.858],[-64.7677,-17.3765,435.7357],[-64.7731,-17.3751,431.688],[-64.7796,-17.3695,460.7592],[-64.791,-17.3693,417.2109],[-64.7958,-17.3602,410.6573],[-64.8019,-17.3601,547.2408],[-64.8035,-17.3568,447.0827],[-64.8091,-17.3556,424.4407],[-64.8119,-17.3519,430.3972],[-64.824,-17.3519,418.2553],[-64.8328,-17.3428,398.0691],[-64.8406,-17.3429,381.6639],[-64.843,-17.3411,423.4696],[-64.8502,-17.3401,408.4477],[-64.8564,-17.3311,378.804],[-64.8511,-17.3225,367.3821],[-64.8517,-17.3198,362.6351],[-64.8556,-17.3187,361.1201],[-64.8627,-17.322,371.6526],[-64.8721,-17.32,359.045],[-64.8844,-17.3149,354.6279],[-64.8875,-17.3112,409.591],[-64.8936,-17.3093,348.4998],[-64.8968,-17.3057,336.2473],[-64.9038,-17.3045,339.9773],[-64.9057,-17.2961,344.6428],[-64.9018,-17.292,320.9252],[-64.9024,-17.2907,370.653],[-64.9077,-17.2891,514.3632],[-64.9149,-17.2833,1103.4139],[-64.9315,-17.2782,1344.0061],[-64.9328,-17.2762,1221.6211],[-64.9318,-17.2695,1225.281],[-64.9377,-17.2735,1282.0483],[-64.9416,-17.2705,1180.9249],[-64.9446,-17.2727,1279.5331],[-64.9474,-17.2702,1294.4443],[-64.9525,-17.269,1412.9349],[-64.9563,-17.27,1483.942],[-64.958,-17.2679,1397.5105],[-64.9667,-17.2682,1488.7845],[-64.9682,-17.2669,1510.5454],[-64.9706,-17.2679,1550.7195],[-64.9742,-17.2652,1554.7083],[-64.9833,-17.2647,1470.7777],[-64.9946,-17.2609,1509.9681],[-64.9956,-17.2593,1540.2794],[-65.0012,-17.2575,1589.2448],[-65.0033,-17.2521,1453.2295],[-65.0152,-17.2502,1421.0618],[-65.0175,-17.2454,1194.127],[-65.0241,-17.2394,1224.8237],[-65.0327,-17.2347,1367.3958],[-65.0314,-17.2272,1316.629],[-65.0382,-17.2206,1070.7496],[-65.0414,-17.215,1099.6002],[-65.0492,-17.2093,1101.6086],[-65.0507,-17.2038,1085.7367],[-65.0596,-17.1984,843.0894],[-65.0702,-17.2188,391.5105],[-65.0646,-17.2295,397.7317],[-65.0626,-17.2373,401.0605],[-65.0578,-17.2413,407.6765],[-65.0566,-17.2456,413.1702],[-65.0625,-17.2672,477.7231],[-65.0622,-17.2712,489.1514],[-65.0687,-17.2802,461.4876],[-65.0626,-17.2838,487.0458],[-65.0623,-17.2897,457.7817],[-65.0564,-17.2953,468.6996],[-65.069,-17.3037,526.9855],[-65.0696,-17.3107,564.7134],[-65.072,-17.3132,524.1758],[-65.071,-17.3206,524.6142],[-65.0497,-17.3375,543.8357],[-65.0497,-17.3412,554.2791],[-65.0459,-17.3424,584.8128],[-65.0436,-17.3456,538.7495],[-65.0414,-17.3442,541.5397],[-65.0382,-17.3507,615.7015],[-65.0342,-17.3511,578.8905],[-65.0266,-17.3575,569.072],[-65.0194,-17.358,577.235],[-65.0219,-17.3627,661.5381],[-65.0168,-17.367,621.0387],[-65.0211,-17.3721,665.7932],[-65.0214,-17.3769,624.3589],[-65.0266,-17.3803,581.0555],[-65.0256,-17.3856,634.4237],[-65.0297,-17.3851,593.1255],[-65.032,-17.3866,595.8719],[-65.0338,-17.3977,616.6002],[-65.0288,-17.401,613.942],[-65.0302,-17.4046,730.8625],[-65.0249,-17.4055,661.2372],[-65.0235,-17.4088,643.6329],[-65.0166,-17.4117,669.5732],[-65.0041,-17.4109,680.0568],[-65.0036,-17.4142,722.3876],[-64.999,-17.4135,692.0526],[-64.9964,-17.4197,701.4244],[-65.0004,-17.4303,694.1367],[-65.0115,-17.437,786.6432],[-65.0109,-17.4513,800.1758],[-65.009,-17.4575,823.9004],[-65.0036,-17.4653,803.0908],[-65.0037,-17.4735,844.1204],[-65.0077,-17.4784,866.3226],[-65.0128,-17.4808,876.0343],[-65.0127,-17.4839,923.8665],[-65.0162,-17.4854,921.1488],[-65.0216,-17.4954,1130.2188],[-65.0218,-17.4991,1055.7622],[-65.0253,-17.5048,1118.1179],[-65.0237,-17.5109,1154.4092],[-65.0293,-17.5154,1172.1263],[-65.0342,-17.5169,1215.662],[-65.0385,-17.5154,1261.4241],[-65.0435,-17.5194,1307.6577],[-65.049,-17.5211,1473.7332],[-65.0541,-17.5282,1551.1041],[-65.0606,-17.5293,1484.5853],[-65.0629,-17.5311,1489.3909],[-65.0664,-17.5295,1579.7732],[-65.068,-17.5349,1595.4336],[-65.071,-17.5374,1607.2809],[-65.0703,-17.5421,1627.2158],[-65.0633,-17.5447,1743.9843],[-65.0622,-17.5487,1964.7544],[-65.0559,-17.5538,2140.1177],[-65.0543,-17.5586,2267.8083],[-65.0505,-17.5609,2275.6528],[-65.0396,-17.5797,3058.5942],[-65.0326,-17.5825,3255.8271],[-65.0248,-17.5893,3599.3284],[-65.0115,-17.5898,3768.1868],[-65.0172,-17.6085,3914.8315],[-65.0146,-17.6297,3952.4167],[-65.0265,-17.6673,3748.4597],[-65.0273,-17.6769,3714.4163],[-65.0343,-17.7021,3529.7761],[-65.0365,-17.7268,3532.4099],[-65.0428,-17.7427,3321.9155],[-65.026,-17.7719,2849.2354],[-65.0577,-17.7875,3004.4492],[-65.052,-17.7921,2900.1636],[-65.0511,-17.7951,2997.5842],[-65.0307,-17.8088,2850.3152],[-65.0312,-17.8186,2969.4673],[-65.009,-17.8412,2886.8784],[-65.0035,-17.8561,2619.8198],[-65.0002,-17.8607,2659.3],[-64.9323,-17.8951,2609.2451],[-64.9198,-17.923,2591.7654],[-64.8987,-17.9499,2514.9514],[-64.896,-17.9573,2440.8833],[-64.8906,-17.9626,2497.2354],[-64.8947,-17.9695,2531.3279],[-64.892,-17.977,2580.8821],[-64.8873,-17.9824,2554.7024],[-64.8581,-17.9838,2186.7371],[-64.822,-17.9801,2287.5298],[-64.8069,-17.987,2137.7981],[-64.7663,-17.9849,1556.3317]]]]}}