{"type": "Feature","bbox": [-66.2977,-18.6162,-65.6187,-18.0695],"geometry": {"type": "MultiPolygon","coordinates": [[[[-65.6939,-18.3519,1876.2859],[-65.6983,-18.3511,1884.2908],[-65.7028,-18.3479,1893.5153],[-65.7065,-18.3486,1905.307],[-65.7107,-18.345,1901.7852],[-65.717,-18.3435,1920.662],[-65.7278,-18.3303,1936.3953],[-65.7331,-18.3294,1954.2826],[-65.7455,-18.3185,1980.4128],[-65.7494,-18.3186,1986.7072],[-65.7571,-18.315,2029.3119],[-65.7587,-18.3106,1988.5137],[-65.7633,-18.3081,2000.7837],[-65.7695,-18.2994,2039.6067],[-65.7829,-18.2997,2112.6162],[-65.787,-18.2961,2096.3264],[-65.79,-18.2903,2161.8118],[-65.7903,-18.2832,2251.2461],[-65.7963,-18.2649,2336.9971],[-65.7994,-18.2632,2359.1643],[-65.805,-18.2545,2448.8003],[-65.8221,-18.2436,2491.3794],[-65.8261,-18.2432,2498.8582],[-65.8297,-18.2382,2507.4414],[-65.8312,-18.2279,2760.5625],[-65.8283,-18.2164,3085.2378],[-65.8333,-18.2082,3386.792],[-65.8402,-18.2009,3421.2539],[-65.8398,-18.1977,3436.1895],[-65.8439,-18.193,3434.9048],[-65.8503,-18.192,3479.6929],[-65.8629,-18.185,3227.9902],[-65.8762,-18.1855,2932.511],[-65.8934,-18.1837,3576.1753],[-65.8992,-18.1801,3633.439],[-65.8999,-18.1775,3635.7842],[-65.9156,-18.1683,3135.5801],[-65.921,-18.1753,3113.6226],[-65.9311,-18.1723,3208.8682],[-65.9463,-18.1734,3384.7573],[-65.9516,-18.1696,3506.7388],[-65.9551,-18.1642,3756.9729],[-65.9802,-18.1579,3925.3613],[-65.9837,-18.1506,3982.3635],[-65.9915,-18.1453,3889.4597],[-65.9955,-18.1383,3849.4338],[-65.9949,-18.1317,3967.0562],[-66.0041,-18.1326,3922.9963],[-66.0106,-18.1281,3803.9985],[-66.0198,-18.1106,3775.8667],[-66.0259,-18.1078,3675.2612],[-66.0288,-18.1041,3666.8887],[-66.0357,-18.1068,3433.6646],[-66.0407,-18.1051,3292.77],[-66.0433,-18.1023,3261.9536],[-66.0452,-18.0962,3210.7898],[-66.0469,-18.1022,3256.2122],[-66.0561,-18.0996,3242.687],[-66.0643,-18.1017,3466.5994],[-66.0657,-18.1002,3429.5107],[-66.079,-18.0981,3316.5288],[-66.0892,-18.0936,3387.3625],[-66.0945,-18.0932,3340.3477],[-66.0975,-18.0957,3368.252],[-66.1008,-18.1032,3424.2229],[-66.1052,-18.1043,3489.2881],[-66.1117,-18.1009,3600.3992],[-66.1144,-18.0934,3679.4585],[-66.122,-18.093,3743.3611],[-66.1268,-18.0885,3768.9941],[-66.1308,-18.0875,3841.7917],[-66.1392,-18.0743,3649.8899],[-66.1506,-18.0695,3327.7292],[-66.1503,-18.0713,3389.9021],[-66.1529,-18.0729,3391.6245],[-66.154,-18.0758,3422.9314],[-66.1628,-18.0764,3539.49],[-66.1677,-18.0807,3634.8447],[-66.1697,-18.0809,3639.9504],[-66.1713,-18.0775,3725.708],[-66.1792,-18.0787,3678.9226],[-66.1804,-18.0774,3708.7354],[-66.1843,-18.0808,3656.5251],[-66.192,-18.0823,3788.2041],[-66.1887,-18.0901,3737.9536],[-66.1884,-18.1021,3429.7507],[-66.1819,-18.1065,3330.7896],[-66.1914,-18.1145,3500.1882],[-66.2021,-18.1165,3659.8259],[-66.213,-18.1228,3863.6597],[-66.2139,-18.1342,4401.3574],[-66.2093,-18.1394,4399.8115],[-66.2083,-18.1494,4299.7891],[-66.1996,-18.1598,4146.3955],[-66.1997,-18.1709,4177.5562],[-66.2024,-18.176,4131.9438],[-66.2174,-18.1868,4159.3193],[-66.2259,-18.201,3688.6772],[-66.2291,-18.1992,3698.1797],[-66.2295,-18.2085,3718.2415],[-66.2346,-18.2155,3811.5972],[-66.2427,-18.2177,3958.8635],[-66.2568,-18.2257,3958.96],[-66.2673,-18.2379,4053.3162],[-66.2751,-18.2404,4252.771],[-66.2797,-18.253,4092.0364],[-66.2885,-18.2698,4107.0889],[-66.285,-18.2759,4152.5361],[-66.2642,-18.2977,4274.644],[-66.2558,-18.3156,4211.4609],[-66.2519,-18.3203,4218.8037],[-66.2491,-18.3299,4012.1685],[-66.2444,-18.3345,4045.7178],[-66.2473,-18.3419,4117.6006],[-66.2459,-18.347,4203.4209],[-66.2466,-18.3538,4290.3105],[-66.2553,-18.3587,4168.3833],[-66.2588,-18.3584,4024.1343],[-66.2787,-18.3653,3921.521],[-66.2976,-18.3813,3163.1736],[-66.2977,-18.3828,3163.1736],[-66.2964,-18.3844,3158.0942],[-66.2917,-18.3848,3165.3816],[-66.2885,-18.3884,3162.8118],[-66.2796,-18.3897,3144.1201],[-66.2768,-18.3933,3141.4155],[-66.2644,-18.3976,3191.6157],[-66.2517,-18.4068,3149.001],[-66.2427,-18.4204,3108.7124],[-66.2417,-18.4253,3078.8586],[-66.2392,-18.4262,3158.4685],[-66.2359,-18.4333,3081.8757],[-66.2293,-18.4384,3109.4302],[-66.2258,-18.4465,3043.4897],[-66.2173,-18.4515,3032.7275],[-66.2126,-18.4578,2995.8337],[-66.2101,-18.457,3003.8018],[-66.207,-18.4598,2993.1133],[-66.2019,-18.46,3135.1902],[-66.1918,-18.4523,3258.2837],[-66.186,-18.4505,3505.8179],[-66.1876,-18.4453,3640.6396],[-66.1858,-18.4384,3888.7866],[-66.1793,-18.4277,4057.9253],[-66.1745,-18.4257,4038.6191],[-66.1679,-18.418,4213.1406],[-66.1627,-18.4083,4375.0215],[-66.1516,-18.4063,4132.7407],[-66.1315,-18.4077,4157.2383],[-66.1154,-18.4169,4206.9102],[-66.1122,-18.421,4144.3984],[-66.1071,-18.4363,4127.2119],[-66.0993,-18.442,4303.7065],[-66.0953,-18.4474,4334.2266],[-66.0922,-18.4484,4308.7554],[-66.0887,-18.4546,4274.5376],[-66.0826,-18.4542,4173.9629],[-66.0753,-18.4579,4191.6094],[-66.0689,-18.458,4128.5693],[-66.0639,-18.4611,4087.429],[-66.0531,-18.4631,4137.5015],[-66.0411,-18.4711,4063.7915],[-66.0398,-18.4766,4083.9441],[-66.0356,-18.4806,4107.9004],[-66.0326,-18.4873,4161.5688],[-66.0285,-18.4903,4106.0586],[-66.0261,-18.4955,4142.8379],[-66.0186,-18.4986,3953.1157],[-66.0131,-18.5044,3892.5261],[-66.0086,-18.5064,3949.627],[-65.9959,-18.5198,3769.7715],[-65.9847,-18.5219,3522.8345],[-65.9659,-18.5215,2856.3533],[-65.9615,-18.5241,2698.6885],[-65.9585,-18.5289,2661.02],[-65.9488,-18.5332,2638.9448],[-65.9465,-18.5366,2641.3237],[-65.9426,-18.5384,2657.6226],[-65.9344,-18.5352,2622.7764],[-65.928,-18.5387,2621.7339],[-65.923,-18.539,2611.3062],[-65.9205,-18.5431,2611.5688],[-65.9099,-18.5399,2637.1074],[-65.9066,-18.5348,2580.9744],[-65.9004,-18.5336,2565.0942],[-65.8983,-18.5312,2652.2798],[-65.8932,-18.5322,2552.0991],[-65.8867,-18.5306,2543.479],[-65.8865,-18.5248,2548.2261],[-65.8809,-18.5135,2523.5798],[-65.8856,-18.4954,2513.7664],[-65.8827,-18.4771,2480.1807],[-65.8806,-18.4755,2488.6436],[-65.8764,-18.4781,2506.8271],[-65.8707,-18.4787,2527.1768],[-65.8693,-18.4816,2451.4116],[-65.8641,-18.4827,2483.8982],[-65.86,-18.4808,2439.6577],[-65.8578,-18.4769,2435.439],[-65.8551,-18.4768,2433.3291],[-65.8408,-18.4882,2430.1575],[-65.8157,-18.5009,2370.8569],[-65.8048,-18.5128,2352.1064],[-65.7907,-18.5179,2347.8984],[-65.789,-18.5152,2330.5793],[-65.7861,-18.5149,2328.6965],[-65.77,-18.525,2326.0105],[-65.7639,-18.5358,2365.5264],[-65.7631,-18.5402,2291.3093],[-65.7592,-18.5448,2285.6318],[-65.7594,-18.5514,2289.3755],[-65.7576,-18.5541,2277.4724],[-65.7548,-18.5563,2286.4644],[-65.7508,-18.5566,2270.6973],[-65.7495,-18.5622,2267.2983],[-65.7426,-18.5653,2259.7307],[-65.7394,-18.57,2252.1318],[-65.7363,-18.5708,2251.4932],[-65.7339,-18.5773,2265.2686],[-65.7284,-18.5793,2241.532],[-65.7269,-18.5827,2235.4443],[-65.7207,-18.5854,2306.2686],[-65.7167,-18.5913,2223.5791],[-65.716,-18.5965,2246.894],[-65.7096,-18.5978,2265.5562],[-65.7045,-18.603,2243.6025],[-65.7025,-18.6085,2214.3408],[-65.6989,-18.6081,2209.0688],[-65.6957,-18.6121,2200.4932],[-65.6883,-18.6162,2189.0935],[-65.6824,-18.6159,2183.3655],[-65.6788,-18.6132,2179.613],[-65.6742,-18.6149,2172.74],[-65.6666,-18.6141,2162.5359],[-65.6612,-18.6152,2202.4868],[-65.6563,-18.6127,2152.0317],[-65.6533,-18.6081,2207.4041],[-65.6548,-18.6038,2143.5234],[-65.6538,-18.5968,2155.6191],[-65.6497,-18.5918,2129.7688],[-65.6434,-18.5887,2121.5667],[-65.6418,-18.5782,2109.7512],[-65.6255,-18.5717,2091.8057],[-65.6267,-18.5617,2088.0095],[-65.6234,-18.5503,2068.9248],[-65.6192,-18.5471,2064.137],[-65.6187,-18.5447,2062.5686],[-65.6256,-18.5345,2065.8191],[-65.6271,-18.5276,2053.2578],[-65.6254,-18.5228,2038.5398],[-65.626,-18.5193,2036.5543],[-65.6229,-18.5123,2028.7131],[-65.623,-18.4949,2012.9077],[-65.6191,-18.4821,2000.2257],[-65.6216,-18.4771,1995.8816],[-65.6233,-18.4637,1983.8389],[-65.6252,-18.4605,1980.728],[-65.6314,-18.4571,1974.9663],[-65.6447,-18.4454,1960.6649],[-65.6555,-18.4462,1952.5919],[-65.6773,-18.4293,1960.3517],[-65.6791,-18.4236,1935.824],[-65.6843,-18.4167,1932.6417],[-65.6818,-18.4114,1937.9431],[-65.6845,-18.4025,1915.7542],[-65.6837,-18.3866,1909.1609],[-65.6868,-18.3777,1895.6455],[-65.6955,-18.3663,1886.8212],[-65.6951,-18.3627,1936.2864],[-65.6926,-18.3599,1884.9517],[-65.6939,-18.3519,1876.2859]]]]}
,"properties": {"GID_3": "BOL.7.3.1_2","GID_0": "BOL","country": "Bolivia","GID_1": "BOL.7_1","province": "Potosí","NL_NAME_1": "NA","GID_2": "BOL.7.3_2","county": "Chárcas","NL_NAME_2": "NA","city": "SanPedro","VARNAME_3": "NA","NL_NAME_3": "NA","TYPE_3": "District","ENGTYPE_3": "Distrito","CC_3": "NA","HASC_3": "NA","name": "San_Pedro.city","area_km2": 2219.382,"hist_schema_id": "Elevation0-9000","hist_area_km2": {"1875": 0.463,"1900": 1.65,"1925": 1.449,"1950": 2.495,"1975": 3.701,"2000": 3.822,"2025": 3.279,"2050": 4.666,"2075": 4.828,"2100": 6.155,"2125": 6.497,"2150": 7.885,"2175": 7.241,"2200": 8.549,"2225": 10.319,"2250": 11.043,"2275": 11.647,"2300": 12.07,"2325": 11.849,"2350": 14.343,"2375": 16.959,"2400": 16.497,"2425": 16.135,"2450": 18.77,"2475": 20.36,"2500": 21.327,"2525": 22.816,"2550": 23.399,"2575": 24.164,"2600": 25.533,"2625": 26.941,"2650": 25.936,"2675": 27.385,"2700": 28.009,"2725": 30.103,"2750": 31.934,"2775": 32.72,"2800": 34.453,"2825": 37.132,"2850": 39.407,"2875": 40.051,"2900": 39.326,"2925": 41.803,"2950": 42.388,"2975": 40.737,"3000": 40.497,"3025": 41.823,"3050": 40.637,"3075": 40.959,"3100": 39.612,"3125": 39.713,"3150": 38.201,"3175": 36.591,"3200": 36.732,"3225": 37.316,"3250": 35.343,"3275": 34.86,"3300": 32.828,"3325": 32.565,"3350": 32.445,"3375": 32.424,"3400": 30.411,"3425": 30.571,"3450": 28.257,"3475": 24.11,"3500": 25.559,"3525": 24.01,"3550": 22.701,"3575": 22.079,"3600": 20.448,"3625": 20.729,"3650": 20.226,"3675": 19.803,"3700": 18.033,"3725": 19.503,"3750": 18.677,"3775": 19.322,"3800": 19.119,"3825": 20.649,"3850": 20.669,"3875": 20.247,"3900": 20.993,"3925": 21.415,"3950": 22.985,"3975": 22.241,"4000": 21.819,"4025": 20.813,"4050": 19.405,"4075": 18.841,"4100": 18.641,"4125": 18.057,"4150": 17.574,"4175": 16.769,"4200": 15.441,"4225": 15.038,"4250": 12.662,"4275": 11.152,"4300": 10.609,"4325": 6.804,"4350": 5.093,"4375": 3.201,"4400": 2.074,"4425": 1.188,"4450": 0.483,"4475": 0.161,"4500": 0.02}}}