{"type":"Feature","properties":{"GID_3":"BOL.5.3.1_2","GID_0":"BOL","country":"Bolivia","GID_1":"BOL.5_1","province":"Oruro","NL_NAME_1":"NA","GID_2":"BOL.5.3_2","county":"Cercado","NL_NAME_2":"NA","city":"Caracollo","VARNAME_3":"NA","NL_NAME_3":"NA","TYPE_3":"District","ENGTYPE_3":"Distrito","CC_3":"NA","HASC_3":"NA","name":"Caracollo.city"},
"geometry":{"type": "MultiPolygon","coordinates": [[[[-67.3938,-17.5606,4067.8613],[-67.3858,-17.5676,4022.2549],[-67.3832,-17.5835,4190.1089],[-67.3717,-17.5945,4157.7363],[-67.3582,-17.6004,4132.8286],[-67.3529,-17.6114,4255.7583],[-67.3494,-17.6126,4261.8389],[-67.3326,-17.6102,4127.1294],[-67.3295,-17.6116,4156.668],[-67.3301,-17.6191,4163.0527],[-67.3241,-17.624,4146.7783],[-67.324,-17.633,4056.9988],[-67.35,-17.6636,3751.5898],[-67.364,-17.6852,3710.3936],[-67.3375,-17.6973,3713.7065],[-67.4164,-17.7467,3711.0552],[-67.4284,-17.7491,3711.811],[-67.4499,-17.7366,3712.5439],[-67.4843,-17.7337,3715.0],[-67.4851,-17.724,3715.0],[-67.4914,-17.7149,3717.4434],[-67.4932,-17.7072,3716.9321],[-67.496,-17.7034,3716.2595],[-67.5042,-17.6988,3716.5234],[-67.5105,-17.6909,3717.1479],[-67.512,-17.6852,3716.0],[-67.5174,-17.6805,3718.0076],[-67.5161,-17.6717,3717.0093],[-67.5313,-17.6738,3718.5081],[-67.5582,-17.7035,3719.5164],[-67.5863,-17.7119,3721.23],[-67.5858,-17.7682,3718.5564],[-67.6325,-17.7649,3745.311],[-67.6445,-17.758,3717.9634],[-67.677,-17.7639,3720.55],[-67.6798,-17.7781,3719.8975],[-67.7016,-17.8022,3719.8105],[-67.7076,-17.848,3716.3191],[-67.7315,-17.8593,3717.4451],[-67.7275,-17.8635,3717.0312],[-67.7242,-17.8647,3716.9155],[-67.7224,-17.8709,3716.6548],[-67.716,-17.8745,3716.3799],[-67.7164,-17.8814,3716.2314],[-67.7129,-17.8891,3715.7168],[-67.7137,-17.8936,3715.2622],[-67.7093,-17.8916,3715.4844],[-67.7098,-17.8934,3715.4517],[-67.7078,-17.895,3715.2471],[-67.7058,-17.8944,3715.2644],[-67.7029,-17.896,3715.1379],[-67.6987,-17.9022,3714.73],[-67.7006,-17.9058,3714.5894],[-67.6969,-17.9092,3714.5347],[-67.6966,-17.9116,3714.4604],[-67.6721,-17.91,3712.2935],[-67.6655,-17.9134,3712.0159],[-67.6649,-17.915,3711.948],[-67.6567,-17.9157,3712.0996],[-67.6514,-17.9124,3712.6709],[-67.6334,-17.9123,3714.0527],[-67.6172,-17.9006,3714.1099],[-67.5707,-17.8755,3713.1841],[-67.5527,-17.8585,3713.8904],[-67.5359,-17.8307,3714.0601],[-67.4959,-17.811,3713.1863],[-67.4589,-17.7784,3712.0],[-67.4509,-17.7762,3713.4507],[-67.4458,-17.7801,3714.4526],[-67.4476,-17.7821,3714.8096],[-67.4462,-17.7849,3714.6819],[-67.4371,-17.7915,3713.7676],[-67.439,-17.803,3713.8003],[-67.4306,-17.8129,3713.3364],[-67.4258,-17.8236,3712.502],[-67.4145,-17.8349,3713.6426],[-67.4127,-17.8399,3711.4097],[-67.4143,-17.8425,3712.2192],[-67.4112,-17.845,3710.866],[-67.4115,-17.8491,3710.9614],[-67.4088,-17.8548,3711.4463],[-67.4042,-17.8625,3711.1863],[-67.4,-17.8639,3710.4421],[-67.3982,-17.8669,3710.281],[-67.3999,-17.8785,3709.7683],[-67.402,-17.8825,3710.1519],[-67.3982,-17.8924,3709.6333],[-67.402,-17.9,3710.043],[-67.4035,-17.9099,3709.1807],[-67.3867,-17.9184,3708.5249],[-67.3813,-17.9355,3707.5281],[-67.3759,-17.9373,3707.8464],[-67.368,-17.9454,3707.9192],[-67.3584,-17.9665,3707.0596],[-67.3477,-17.9739,3707.1123],[-67.3437,-17.9825,3707.0193],[-67.3447,-17.9888,3706.8616],[-67.3396,-17.9902,3706.6875],[-67.3395,-17.9945,3706.6382],[-67.3357,-17.9978,3706.3328],[-67.3353,-18.0021,3706.1636],[-67.2754,-17.9846,3703.469],[-67.2117,-17.9741,3700.0225],[-67.1799,-17.9723,3697.2871],[-67.1707,-17.9208,3714.4058],[-67.1466,-17.8983,3702.0652],[-67.2056,-17.8438,3703.1548],[-67.1529,-17.8185,3710.3003],[-67.1578,-17.8055,3711.6912],[-67.1759,-17.8025,3740.8115],[-67.1906,-17.778199999999998,3727.0474],[-67.1959,-17.7725,3717.8135],[-67.1755,-17.7478,3719.1191],[-67.144,-17.7164,3739.0674],[-67.1412,-17.6972,3741.2781],[-67.1203,-17.7143,3754.6001],[-67.1202,-17.7338,3738.1406],[-67.1238,-17.7619,3719.1304],[-67.1278,-17.7773,3715.4209],[-67.1107,-17.798,3716.1868],[-67.0639,-17.7898,3729.4736],[-67.0496,-17.7354,3755.1025],[-67.05,-17.7267,3771.9395],[-67.0398,-17.7277,3863.2336],[-67.041,-17.7257,3864.3228],[-67.0339,-17.7241,3833.1226],[-67.0333,-17.7167,3815.9512],[-67.0302,-17.7104,3816.9753],[-67.0146,-17.7012,3882.7617],[-67.0003,-17.6823,3955.6709],[-67.0093,-17.6682,3893.1296],[-67.0183,-17.6608,3919.6577],[-67.0068,-17.6319,4296.7876],[-67.0104,-17.6294,4315.5996],[-67.014,-17.6182,4510.1475],[-67.0358,-17.6069,4366.8789],[-67.0414,-17.6023,4394.8516],[-67.051,-17.5877,4384.3311],[-67.0213,-17.539,4504.335],[-67.0198,-17.5281,4428.4678],[-67.0261,-17.5119,4416.5591],[-67.036,-17.5002,4509.915],[-67.0498,-17.4957,4559.7881],[-67.0599,-17.4791,4482.2466],[-67.059,-17.476,4456.6758],[-67.0674,-17.4701,4424.1426],[-67.0774,-17.47,4534.8906],[-67.0842,-17.4647,4470.6128],[-67.0877,-17.466,4404.6836],[-67.1245,-17.4654,4639.4077],[-67.1359,-17.4543,4671.646],[-67.1421,-17.4534,4650.4531],[-67.1509,-17.4494,4647.749],[-67.1566,-17.4413,4635.9253],[-67.1712,-17.4327,4603.2393],[-67.1839,-17.4228,4567.8545],[-67.1903,-17.4167,4553.6084],[-67.1913,-17.4139,4476.0254],[-67.1869,-17.4074,4355.5957],[-67.1886,-17.3864,4328.6157],[-67.1875,-17.3786,4283.3433],[-67.1915,-17.3749,4256.7715],[-67.1937,-17.3695,4219.8574],[-67.1996,-17.3655,4257.6729],[-67.1982,-17.3573,4209.6914],[-67.1962,-17.3559,4203.9272],[-67.1968,-17.3516,4211.7129],[-67.194,-17.3486,4211.5884],[-67.1982,-17.3464,4253.1904],[-67.2033,-17.3363,4159.0566],[-67.2155,-17.3351,4141.8193],[-67.2181,-17.3373,4134.603],[-67.223,-17.3322,4134.3745],[-67.2273,-17.3342,4122.3994],[-67.2285,-17.3367,4120.7046],[-67.2328,-17.3353,4114.6582],[-67.2344,-17.3326,4109.626],[-67.2433,-17.3283,4107.4326],[-67.2482,-17.324,4093.4446],[-67.2535,-17.324,4089.4583],[-67.2535,-17.3282,4117.9155],[-67.2567,-17.3325,4181.7578],[-67.2775,-17.3448,4110.1631],[-67.2851,-17.357,4034.8499],[-67.2858,-17.3683,3987.436],[-67.2937,-17.3755,3975.8586],[-67.2943,-17.3805,3961.0391],[-67.2969,-17.3837,3955.5347],[-67.3098,-17.3807,3961.9355],[-67.3134,-17.3838,3983.0273],[-67.3149,-17.3922,4136.125],[-67.3192,-17.395,4357.1621],[-67.3138,-17.4135,4041.2307],[-67.3198,-17.4208,4133.3633],[-67.3216,-17.4252,4297.3989],[-67.3325,-17.4273,4136.0122],[-67.3373,-17.4305,4112.6035],[-67.3401,-17.449,4054.4614],[-67.3417,-17.4504,4050.2803],[-67.3447,-17.4489,4063.5713],[-67.3495,-17.4519,4041.8792],[-67.3666,-17.453,4104.874],[-67.3745,-17.4618,4126.2363],[-67.3771,-17.477,4075.6582],[-67.3758,-17.4906,3988.4888],[-67.3821,-17.5009,4154.1963],[-67.3819,-17.5093,4011.7683],[-67.3876,-17.5166,4107.6348],[-67.3866,-17.52,4170.3208],[-67.3803,-17.5257,4196.2754],[-67.3797,-17.5284,4145.2734],[-67.3816,-17.5312,4185.5317],[-67.3797,-17.5393,4007.1162],[-67.3813,-17.5393,4030.2053],[-67.3908,-17.5488,3969.3267],[-67.3938,-17.5606,4067.8613]]]]}}