{"type": "Feature","bbox": [-65.344,-18.0416,-64.9759,-17.1393],"geometry": {"type": "MultiPolygon","coordinates": [[[[-65.0285,-18.035,1665.5239],[-65.0267,-18.0357,1665.4875],[-65.0208,-18.033,1658.824],[-65.0184,-18.028,1655.3577],[-65.0141,-18.0275,1655.0366],[-65.0142,-18.0236,1665.2775],[-65.0174,-18.0203,1669.9928],[-65.0168,-18.0154,1680.7365],[-65.0195,-18.012,1712.7295],[-65.0193,-18.0053,1798.4227],[-65.0233,-18.0047,1717.0854],[-65.026,-18.0018,1720.1812],[-65.0237,-17.9979,1779.6981],[-65.0164,-17.9936,1807.1993],[-65.0104,-17.9838,1868.1917],[-65.0077,-17.9834,1890.5115],[-65.0082,-17.9814,1886.1456],[-65.0058,-17.9773,1917.8479],[-65.0143,-17.9687,2037.8998],[-65.0145,-17.9639,2085.1245],[-65.0174,-17.9612,2145.9563],[-65.0179,-17.953,2360.4517],[-65.016,-17.9501,2575.2698],[-65.0207,-17.9324,2699.7427],[-65.0133,-17.929,2752.0754],[-65.0118,-17.9158,2638.6902],[-65.0044,-17.9122,2609.5847],[-65.0047,-17.9048,2617.6675],[-65.003,-17.9025,2601.543],[-64.9969,-17.8993,2452.8184],[-64.9936,-17.8934,2389.1377],[-64.9882,-17.8907,2698.3318],[-64.9759,-17.8734,2638.8682],[-65.0002,-17.8607,2659.3],[-65.0035,-17.8561,2619.8198],[-65.009,-17.8412,2886.8784],[-65.0312,-17.8186,2969.4673],[-65.0307,-17.8088,2850.3152],[-65.0511,-17.7951,2997.5842],[-65.052,-17.7921,2900.1636],[-65.0577,-17.7875,3004.4492],[-65.026,-17.7719,2849.2354],[-65.0428,-17.7427,3321.9155],[-65.0365,-17.7268,3532.4099],[-65.0343,-17.7021,3529.7761],[-65.0273,-17.6769,3714.4163],[-65.0265,-17.6673,3748.4597],[-65.0146,-17.6297,3952.4167],[-65.0172,-17.6085,3914.8315],[-65.0115,-17.5898,3768.1868],[-65.0248,-17.5893,3599.3284],[-65.0326,-17.5825,3255.8271],[-65.0396,-17.5797,3058.5942],[-65.0505,-17.5609,2275.6528],[-65.0543,-17.5586,2267.8083],[-65.0559,-17.5538,2140.1177],[-65.0622,-17.5487,1964.7544],[-65.0633,-17.5447,1743.9843],[-65.0703,-17.5421,1627.2158],[-65.071,-17.5374,1607.2809],[-65.068,-17.5349,1595.4336],[-65.0664,-17.5295,1579.7732],[-65.0629,-17.5311,1489.3909],[-65.0606,-17.5293,1484.5853],[-65.0541,-17.5282,1551.1041],[-65.049,-17.5211,1473.7332],[-65.0435,-17.5194,1307.6577],[-65.0385,-17.5154,1261.4241],[-65.0342,-17.5169,1215.662],[-65.0293,-17.5154,1172.1263],[-65.0237,-17.5109,1154.4092],[-65.0253,-17.5048,1118.1179],[-65.0218,-17.4991,1055.7622],[-65.0216,-17.4954,1130.2188],[-65.0162,-17.4854,921.1488],[-65.0127,-17.4839,923.8665],[-65.0128,-17.4808,876.0343],[-65.0077,-17.4784,866.3226],[-65.0037,-17.4735,844.1204],[-65.0036,-17.4653,803.0908],[-65.009,-17.4575,823.9004],[-65.0109,-17.4513,800.1758],[-65.0115,-17.437,786.6432],[-65.0004,-17.4303,694.1367],[-64.9964,-17.4197,701.4244],[-64.999,-17.4135,692.0526],[-65.0036,-17.4142,722.3876],[-65.0041,-17.4109,680.0568],[-65.0166,-17.4117,669.5732],[-65.0235,-17.4088,643.6329],[-65.0249,-17.4055,661.2372],[-65.0302,-17.4046,730.8625],[-65.0288,-17.401,613.942],[-65.0338,-17.3977,616.6002],[-65.032,-17.3866,595.8719],[-65.0297,-17.3851,593.1255],[-65.0256,-17.3856,634.4237],[-65.0266,-17.3803,581.0555],[-65.0214,-17.3769,624.3589],[-65.0211,-17.3721,665.7932],[-65.0168,-17.367,621.0387],[-65.0219,-17.3627,661.5381],[-65.0194,-17.358,577.235],[-65.0266,-17.3575,569.072],[-65.0342,-17.3511,578.8905],[-65.0382,-17.3507,615.7015],[-65.0414,-17.3442,541.5397],[-65.0436,-17.3456,538.7495],[-65.0459,-17.3424,584.8128],[-65.0497,-17.3412,554.2791],[-65.0497,-17.3375,543.8357],[-65.071,-17.3206,524.6142],[-65.072,-17.3132,524.1758],[-65.0696,-17.3107,564.7134],[-65.069,-17.3037,526.9855],[-65.0564,-17.2953,468.6996],[-65.0623,-17.2897,457.7817],[-65.0626,-17.2838,487.0458],[-65.0687,-17.2802,461.4876],[-65.0622,-17.2712,489.1514],[-65.0625,-17.2672,477.7231],[-65.0566,-17.2456,413.1702],[-65.0578,-17.2413,407.6765],[-65.0632,-17.2361,424.0989],[-65.0646,-17.2295,397.7317],[-65.0718,-17.2155,391.7628],[-65.0723,-17.2086,382.3821],[-65.0784,-17.2048,378.1617],[-65.0867,-17.1961,379.4701],[-65.0909,-17.1965,366.3153],[-65.0964,-17.1998,384.7047],[-65.113,-17.1957,362.1472],[-65.1177,-17.1905,358.1419],[-65.1157,-17.1829,349.7932],[-65.1234,-17.1785,344.7523],[-65.1357,-17.1825,336.6223],[-65.1383,-17.1786,332.2824],[-65.1355,-17.1669,331.6201],[-65.1379,-17.1625,320.7499],[-65.1449,-17.1611,320.0054],[-65.1532,-17.1617,322.7777],[-65.1582,-17.1551,307.125],[-65.1739,-17.1489,310.847],[-65.1824,-17.1393,296.1016],[-65.209,-17.2087,1172.194],[-65.2376,-17.2292,1193.2271],[-65.239,-17.233,998.6672],[-65.2452,-17.2383,724.2654],[-65.2428,-17.2442,757.5638],[-65.244,-17.247,768.4143],[-65.2423,-17.2512,750.7568],[-65.2432,-17.2533,764.2137],[-65.24,-17.2599,754.0835],[-65.2432,-17.2656,745.121],[-65.2383,-17.2697,763.9061],[-65.237,-17.2759,775.7164],[-65.2391,-17.2889,801.8922],[-65.236,-17.2917,787.6914],[-65.2355,-17.2988,802.8563],[-65.2324,-17.3018,811.697],[-65.2319,-17.3058,875.7157],[-65.227,-17.3122,839.5431],[-65.2283,-17.3156,840.5369],[-65.2326,-17.317,843.4947],[-65.2332,-17.3192,850.7239],[-65.2283,-17.3217,874.3857],[-65.2282,-17.3248,870.2894],[-65.2323,-17.333,871.14],[-65.2321,-17.3369,875.8271],[-65.2316,-17.3406,916.9969],[-65.2282,-17.343,880.9706],[-65.2249,-17.3525,915.4426],[-65.2268,-17.3557,914.2115],[-65.2252,-17.3583,923.1135],[-65.2356,-17.3692,940.8119],[-65.245,-17.3718,947.2917],[-65.2522,-17.3785,961.7711],[-65.2571,-17.3771,977.202],[-65.2582,-17.383,990.6448],[-65.2652,-17.3832,992.8196],[-65.2665,-17.3873,1033.7163],[-65.2704,-17.3891,1100.824],[-65.2718,-17.3935,1420.4241],[-65.2741,-17.3942,1284.1843],[-65.2838,-17.3871,1246.0157],[-65.2883,-17.3886,1243.5779],[-65.2926,-17.3923,1260.2875],[-65.2943,-17.3964,1281.6587],[-65.3037,-17.4027,1381.344],[-65.3047,-17.407,1410.8511],[-65.3084,-17.4073,1480.0696],[-65.312,-17.4139,1862.2731],[-65.3098,-17.4218,1959.1223],[-65.3058,-17.4269,2069.7593],[-65.3128,-17.4316,2214.1206],[-65.3136,-17.4355,2260.5774],[-65.3117,-17.4388,2298.4761],[-65.3141,-17.4418,2267.4563],[-65.3142,-17.4455,2306.7314],[-65.3217,-17.4498,2446.2158],[-65.3235,-17.4544,2497.4517],[-65.3278,-17.4574,2721.4951],[-65.3287,-17.4612,2804.6484],[-65.3385,-17.4686,3183.928],[-65.3397,-17.4711,3186.6768],[-65.3379,-17.4773,3332.239],[-65.3382,-17.4921,2950.9744],[-65.344,-17.5148,3559.1841],[-65.3426,-17.5192,3415.1152],[-65.3434,-17.5248,3125.5798],[-65.3357,-17.5317,2998.8892],[-65.2998,-17.5519,3705.2976],[-65.2988,-17.5557,3662.7966],[-65.314,-17.5624,3140.6914],[-65.3164,-17.5691,3030.3208],[-65.3154,-17.5767,2924.1526],[-65.31,-17.5837,2871.4407],[-65.3055,-17.5991,3033.4922],[-65.3064,-17.6066,2857.5471],[-65.2933,-17.611,2957.6758],[-65.2877,-17.6068,2770.6089],[-65.2859,-17.6077,2785.4104],[-65.2849,-17.6142,2746.4993],[-65.2809,-17.6236,2701.6621],[-65.2824,-17.6277,2693.5],[-65.2824,-17.6299,2698.0823],[-65.281,-17.6302,2698.0823],[-65.2839,-17.6359,2631.8975],[-65.2836,-17.6388,2571.5381],[-65.2767,-17.6408,2683.334],[-65.2691,-17.6378,2826.0327],[-65.2556,-17.6408,3230.54],[-65.2548,-17.6438,3249.7856],[-65.2492,-17.6479,3264.5498],[-65.2456,-17.656,3243.0237],[-65.2465,-17.6589,3217.686],[-65.2349,-17.6753,3205.9465],[-65.2349,-17.6795,3145.6006],[-65.2371,-17.6834,3163.845],[-65.236,-17.6875,3240.4958],[-65.2419,-17.6884,3180.0427],[-65.2409,-17.6939,3159.8848],[-65.2356,-17.7009,3149.5466],[-65.2378,-17.7086,3105.175],[-65.2336,-17.7135,3070.843],[-65.2337,-17.7158,3095.9617],[-65.2462,-17.7195,2682.5383],[-65.2533,-17.7269,2585.2327],[-65.2597,-17.7305,2541.8254],[-65.2619,-17.737,2528.1768],[-65.2549,-17.7472,2517.0864],[-65.2502,-17.7502,2542.4951],[-65.2481,-17.7561,2537.9932],[-65.2411,-17.7592,2577.0483],[-65.2374,-17.7661,2634.5127],[-65.2429,-17.77,2569.2117],[-65.2429,-17.7719,2565.2068],[-65.224,-17.7928,2429.7144],[-65.2305,-17.8012,2615.97],[-65.2304,-17.804,2715.5264],[-65.2339,-17.8065,2841.6643],[-65.2387,-17.8047,2827.2878],[-65.2405,-17.81,2728.675],[-65.245,-17.8117,2799.7207],[-65.2436,-17.815,2650.2046],[-65.246,-17.8158,2724.6641],[-65.2473,-17.8192,2506.9229],[-65.2456,-17.8269,2247.0879],[-65.2418,-17.8299,2147.396],[-65.238,-17.8295,2159.6365],[-65.2368,-17.8276,2178.0308],[-65.2309,-17.8279,2224.0547],[-65.225,-17.8311,2211.1348],[-65.212,-17.8289,2296.6555],[-65.2116,-17.8275,2299.5278],[-65.2082,-17.8286,2285.6758],[-65.2071,-17.8307,2314.0015],[-65.2039,-17.825,2291.3711],[-65.193,-17.8258,2372.2793],[-65.1896,-17.8307,2421.6597],[-65.188,-17.8394,2466.2856],[-65.1789,-17.8414,2608.6477],[-65.1803,-17.8488,2707.7183],[-65.1897,-17.8636,2378.5186],[-65.1901,-17.8676,2358.1621],[-65.2007,-17.8792,2273.4272],[-65.2032,-17.8789,2279.2598],[-65.2022,-17.8816,2355.3376],[-65.2039,-17.8824,2299.9907],[-65.2037,-17.8854,2314.6006],[-65.2057,-17.8856,2282.8252],[-65.2047,-17.8892,2296.4697],[-65.2063,-17.8903,2218.0178],[-65.2049,-17.8944,2228.0625],[-65.2089,-17.9034,2151.0164],[-65.2087,-17.9095,2103.8926],[-65.2067,-17.9098,2106.2864],[-65.2079,-17.9112,2082.0664],[-65.2053,-17.9145,2068.1646],[-65.1961,-17.9154,2167.0918],[-65.1919,-17.9186,2016.7483],[-65.1934,-17.9216,1982.5172],[-65.1911,-17.9264,1997.5958],[-65.1884,-17.9283,1964.3035],[-65.1898,-17.9323,1929.3555],[-65.196,-17.9363,1855.4268],[-65.1953,-17.9383,1850.2102],[-65.198,-17.942,1844.8601],[-65.1974,-17.9435,1841.7854],[-65.1943,-17.9454,1912.7811],[-65.1935,-17.9484,1868.9491],[-65.1899,-17.9482,1844.2324],[-65.1828,-17.9541,1836.7394],[-65.1803,-17.9513,1828.3047],[-65.1766,-17.9533,1831.8387],[-65.1767,-17.9559,1823.181],[-65.1708,-17.9551,1814.3661],[-65.1671,-17.9588,1881.3557],[-65.167,-17.9622,1809.215],[-65.1548,-17.9641,1795.4445],[-65.1479,-17.9758,1788.5431],[-65.1422,-17.9773,1777.4026],[-65.1353,-17.9823,1772.1632],[-65.1335,-17.9968,1762.1228],[-65.1159,-18.0014,1757.7511],[-65.1141,-18.0028,1904.6575],[-65.1161,-18.0065,1753.3807],[-65.115,-18.0081,1771.5343],[-65.0919,-18.0119,1739.3984],[-65.0892,-18.0167,1724.9183],[-65.0856,-18.0179,1722.3438],[-65.0842,-18.0213,1720.7113],[-65.0819,-18.0221,1718.6136],[-65.0812,-18.0257,1714.9453],[-65.0745,-18.0279,1732.5703],[-65.0695,-18.0334,1706.0122],[-65.0676,-18.0337,1717.7114],[-65.0672,-18.0299,1739.4497],[-65.064,-18.0279,1707.5071],[-65.0644,-18.0263,1707.5071],[-65.0674,-18.0252,1731.4493],[-65.0651,-18.0221,1713.2051],[-65.0604,-18.025,1713.7205],[-65.0588,-18.032,1714.8457],[-65.0478,-18.0343,1683.2069],[-65.044,-18.0325,1686.9191],[-65.0385,-18.0328,1702.5968],[-65.035,-18.036,1705.4783],[-65.0327,-18.0415,1670.8604],[-65.0288,-18.0416,1678.3621],[-65.0282,-18.0375,1666.1743],[-65.0304,-18.0359,1676.5884],[-65.0285,-18.035,1665.5239]]]]}
,"properties": {"GID_3": "BOL.2.7.6_2","GID_0": "BOL","country": "Bolivia","GID_1": "BOL.2_1","province": "Cochabamba","NL_NAME_1": "NA","GID_2": "BOL.2.7_2","county": "Carrasco","NL_NAME_2": "NA","city": "Totora","VARNAME_3": "NA","NL_NAME_3": "NA","TYPE_3": "District","ENGTYPE_3": "Distrito","CC_3": "NA","HASC_3": "NA","name": "Totora.city","area_km2": 2142.501,"hist_schema_id": "Elevation0-9000","hist_area_km2": {"300": 0.608,"325": 1.681,"350": 2.694,"375": 3.2,"400": 2.998,"425": 3.767,"450": 4.132,"475": 4.233,"500": 4.679,"525": 5.893,"550": 5.832,"575": 5.852,"600": 6.52,"625": 6.297,"650": 6.398,"675": 7.652,"700": 9.655,"725": 11.376,"750": 11.578,"775": 13.237,"800": 13.298,"825": 12.771,"850": 13.763,"875": 14.876,"900": 15.504,"925": 14.431,"950": 15.402,"975": 15.605,"1000": 16.313,"1025": 16.11,"1050": 15.159,"1075": 15.604,"1100": 16.575,"1125": 16.352,"1150": 15.502,"1175": 16.21,"1200": 15.826,"1225": 14.956,"1250": 13.68,"1275": 13.417,"1300": 13.174,"1325": 13.984,"1350": 11.778,"1375": 12.324,"1400": 11.555,"1425": 11.434,"1450": 11.596,"1475": 10.887,"1500": 9.794,"1525": 10.624,"1550": 9.713,"1575": 8.681,"1600": 7.851,"1625": 7.083,"1650": 7.162,"1675": 7.605,"1700": 8.069,"1725": 8.833,"1750": 9.116,"1775": 9.397,"1800": 10.387,"1825": 9.9,"1850": 11.433,"1875": 11.289,"1900": 12.197,"1925": 12.722,"1950": 12.724,"1975": 13.307,"2000": 13.187,"2025": 15.326,"2050": 15.526,"2075": 16.598,"2100": 16.193,"2125": 17.161,"2150": 17.523,"2175": 18.957,"2200": 19.765,"2225": 19.986,"2250": 20.109,"2275": 20.713,"2300": 21.037,"2325": 22.471,"2350": 21.683,"2375": 22.311,"2400": 22.11,"2425": 22.817,"2450": 22.596,"2475": 24.009,"2500": 23.544,"2525": 24.755,"2550": 26.251,"2575": 27.847,"2600": 28.191,"2625": 31.321,"2650": 29.142,"2675": 25.328,"2700": 24.722,"2725": 23.653,"2750": 24.886,"2775": 24.988,"2800": 26.667,"2825": 24.951,"2850": 25.679,"2875": 25.84,"2900": 27.861,"2925": 28.225,"2950": 25.983,"2975": 24.954,"3000": 23.56,"3025": 21.702,"3050": 22.612,"3075": 23.642,"3100": 26.127,"3125": 24.127,"3150": 23.239,"3175": 20.996,"3200": 18.268,"3225": 17.763,"3250": 17.279,"3275": 16.126,"3300": 15.843,"3325": 14.893,"3350": 13.237,"3375": 12.025,"3400": 11.197,"3425": 11.863,"3450": 11.075,"3475": 11.844,"3500": 10.975,"3525": 10.631,"3550": 11.662,"3575": 11.339,"3600": 10.773,"3625": 10.107,"3650": 10.046,"3675": 9.298,"3700": 8.975,"3725": 8.955,"3750": 7.984,"3775": 6.529,"3800": 4.831,"3825": 5.033,"3850": 4.972,"3875": 4.568,"3900": 4.689,"3925": 4.184,"3950": 3.376,"3975": 2.89,"4000": 2.041,"4025": 1.091,"4050": 0.485,"4075": 0.344,"4100": 0.141,"4125": 0.04}}}