{"type": "Feature","bbox": [-69.1423,-18.6189,-68.017,-17.5908],"geometry": {"type": "MultiPolygon","coordinates": [[[[-68.1533,-18.0395,4364.6802],[-68.1595,-18.0257,4248.6382],[-68.163,-18.0216,4237.7432],[-68.1769,-18.0174,4105.5605],[-68.1789,-18.0195,4172.7446],[-68.1827,-18.0194,4293.4961],[-68.2058,-18.01,4397.541],[-68.2102,-18.0165,4226.873],[-68.2133,-18.0162,4277.8203],[-68.237,-18.0282,4447.5103],[-68.2539,-18.0259,4257.4287],[-68.2602,-18.0238,4245.7798],[-68.2625,-18.021,4226.5054],[-68.2708,-18.0291,4255.6543],[-68.326,-18.07,4822.2969],[-68.329,-18.0583,4774.376],[-68.3234,-18.056,4735.375],[-68.3116,-18.0286,4157.5161],[-68.3153,-18.0084,4127.2041],[-68.3122,-17.9847,4070.3125],[-68.3149,-17.9774,4066.646],[-68.3233,-17.976,4089.3992],[-68.3262,-17.9725,4148.6831],[-68.3344,-17.9708,4122.2637],[-68.3441,-17.9737,4087.5847],[-68.3496,-17.9722,4080.0337],[-68.3493,-17.9671,4070.6699],[-68.3528,-17.9583,4093.1934],[-68.3493,-17.9471,4041.9248],[-68.3541,-17.9374,4033.9189],[-68.3532,-17.9315,4018.0791],[-68.351,-17.9298,4040.1433],[-68.3519,-17.9215,4009.5928],[-68.3494,-17.9188,4008.9009],[-68.3483,-17.9136,4005.1606],[-68.3439,-17.9132,4012.3354],[-68.3422,-17.9109,4002.0547],[-68.341,-17.9055,4012.8013],[-68.347,-17.8809,4078.2412],[-68.341,-17.8688,3942.9602],[-68.3381,-17.8588,4127.1396],[-68.3472,-17.8463,4009.9668],[-68.3457,-17.8373,3949.0825],[-68.3394,-17.8297,3893.5938],[-68.3378,-17.8222,3884.7161],[-68.3335,-17.8138,3885.9348],[-68.3347,-17.8091,3883.4148],[-68.3387,-17.8084,3882.5691],[-68.3409,-17.8044,3880.7144],[-68.3382,-17.8022,3891.6479],[-68.3387,-17.798,3888.2988],[-68.337,-17.7944,3890.1584],[-68.3414,-17.792,3882.7253],[-68.339,-17.7898,3887.9844],[-68.3298,-17.7869,3906.7129],[-68.3332,-17.7809,3935.4534],[-68.3332,-17.7758,3917.916],[-68.3209,-17.7651,3867.9609],[-68.3263,-17.7582,3877.5786],[-68.3324,-17.7567,3863.085],[-68.335,-17.752,3861.5107],[-68.3439,-17.7475,3859.3989],[-68.3475,-17.6974,3922.501],[-68.3423,-17.6743,4003.5564],[-68.319,-17.6535,3885.6392],[-68.3066,-17.6482,3860.3674],[-68.2995,-17.6478,3858.7468],[-68.2983,-17.6408,3842.4844],[-68.2945,-17.6386,3839.9648],[-68.2938,-17.633,3836.7329],[-68.2955,-17.6323,3834.262],[-68.2952,-17.6293,3833.5039],[-68.294,-17.6264,3831.0364],[-68.2906,-17.6252,3832.9976],[-68.2917,-17.6203,3825.2964],[-68.2894,-17.6152,3819.875],[-68.3,-17.6022,3814.533],[-68.3071,-17.599,3812.7383],[-68.3097,-17.5939,3810.8789],[-68.316,-17.5987,3820.9209],[-68.322,-17.5968,3827.2378],[-68.3219,-17.5984,3831.7456],[-68.3243,-17.5993,3837.4067],[-68.3327,-17.6084,3861.8862],[-68.3481,-17.5935,3897.4868],[-68.3606,-17.5908,3876.5547],[-68.3759,-17.5943,3842.8032],[-68.3841,-17.5996,3856.2317],[-68.3857,-17.6026,3863.6145],[-68.3845,-17.6124,3880.2773],[-68.3858,-17.6166,3890.8298],[-68.3887,-17.6183,3899.6892],[-68.3998,-17.6196,3879.3262],[-68.4062,-17.6244,3855.1714],[-68.4106,-17.6233,3851.9224],[-68.4149,-17.6257,3850.6946],[-68.4154,-17.6292,3851.8608],[-68.4142,-17.6306,3853.5283],[-68.4175,-17.6394,3859.0281],[-68.4356,-17.6601,3877.3586],[-68.436,-17.6676,3832.3196],[-68.4422,-17.6672,3824.3862],[-68.4491,-17.6628,3833.6616],[-68.4526,-17.6626,3858.0015],[-68.458,-17.6684,3843.0371],[-68.4632,-17.6683,3879.1357],[-68.4725,-17.688,3877.4602],[-68.4747,-17.6884,3864.3762],[-68.4782,-17.6846,3880.2595],[-68.4811,-17.684,3884.3677],[-68.4975,-17.6906,3835.1558],[-68.4994,-17.696,3837.0605],[-68.4981,-17.7004,3838.4111],[-68.5047,-17.706,3843.8335],[-68.5097,-17.705,3854.7712],[-68.5134,-17.706,3859.8445],[-68.5216,-17.7015,3865.2104],[-68.5329,-17.7028,3897.1299],[-68.5395,-17.7148,4035.4341],[-68.5385,-17.732,4045.5708],[-68.5436,-17.7595,4053.6899],[-68.5436,-17.7705,4054.0564],[-68.5412,-17.7844,4049.4434],[-68.5438,-17.7891,3967.7183],[-68.5444,-17.7955,4060.4204],[-68.5375,-17.8003,4042.905],[-68.5365,-17.8097,3929.7173],[-68.543,-17.811,3924.0513],[-68.5479,-17.8148,3952.8232],[-68.5594,-17.8196,3969.397],[-68.5683,-17.8157,3950.1548],[-68.5866,-17.8199,3963.4321],[-68.6086,-17.8362,3981.3848],[-68.6151,-17.8369,4012.0117],[-68.6202,-17.8417,4031.5303],[-68.6224,-17.8487,4090.3635],[-68.6337,-17.8535,4128.1475],[-68.6394,-17.8633,4113.4224],[-68.6445,-17.8634,4101.5791],[-68.6489,-17.8675,4092.4751],[-68.662,-17.8693,4092.8081],[-68.669,-17.878,4091.3354],[-68.6811,-17.8777,4070.0889],[-68.6908,-17.88,4060.6777],[-68.6958,-17.8891,4058.4014],[-68.7114,-17.8874,4055.2102],[-68.7211,-17.8901,4054.3225],[-68.7278,-17.8846,4053.7942],[-68.74,-17.8869,4054.1672],[-68.7419,-17.8914,4054.894],[-68.7544,-17.8983,4059.8542],[-68.7583,-17.9029,4062.23],[-68.7594,-17.9056,4064.9897],[-68.7579,-17.9082,4069.8152],[-68.7597,-17.9142,4075.3516],[-68.778,-17.9235,4098.9951],[-68.7846,-17.93,4112.7588],[-68.8065,-17.9271,4224.2607],[-68.8126,-17.9314,4223.6602],[-68.8185,-17.9308,4246.5938],[-68.8299,-17.9347,4356.5957],[-68.8382,-17.9419,4414.0571],[-68.8504,-17.9383,4519.5859],[-68.8702,-17.9434,4746.6821],[-68.9104,-17.9496,4837.1206],[-68.9327,-17.9667,4707.084],[-68.992,-17.9949,5038.8296],[-69.0057,-17.9977,5351.8418],[-69.0141,-18.0071,5038.3237],[-69.0235,-18.0099,5096.2979],[-69.0342,-18.0171,5105.1162],[-69.0462,-18.029,5229.8896],[-69.0572,-18.0343,5217.1011],[-69.0725,-18.0382,5664.2051],[-69.0795,-18.0469,5577.0889],[-69.0713,-18.0749,4868.7832],[-69.0812,-18.0914,5290.8354],[-69.1269,-18.1273,6206.0107],[-69.1423,-18.1632,6180.8711],[-69.1025,-18.2103,4623.0615],[-69.0653,-18.2399,5416.6348],[-69.0702,-18.2522,5082.5361],[-69.0749,-18.2917,4681.5371],[-69.0709,-18.2975,4699.5825],[-69.0637,-18.3023,4732.8604],[-69.0592,-18.3076,4792.9834],[-69.0522,-18.3116,4893.2896],[-69.0447,-18.3135,5063.2207],[-69.038,-18.3227,5452.1714],[-69.0462,-18.335,5328.458],[-69.0522,-18.3397,5457.7178],[-69.0535,-18.347,5496.9805],[-69.05,-18.3547,5715.2725],[-69.0505,-18.3607,5569.8677],[-69.0469,-18.3666,5613.9575],[-69.055,-18.3756,5774.8052],[-69.0523,-18.381,5818.7754],[-69.0478,-18.3829,5985.6729],[-69.0465,-18.4095,5795.5986],[-69.0383,-18.4424,5114.8135],[-69.0252,-18.4612,5091.77],[-69.0284,-18.4646,4918.5615],[-69.0291,-18.4698,4804.3623],[-69.0216,-18.5037,4605.6055],[-69.0116,-18.5372,4418.7515],[-69.0169,-18.5724,4561.8799],[-69.0087,-18.5795,4372.2842],[-69.0022,-18.5884,4322.0303],[-69.0074,-18.6012,3897.7158],[-68.9952,-18.5995,3885.7422],[-68.9876,-18.5955,3880.6289],[-68.9764,-18.5939,3875.5254],[-68.9734,-18.5949,3875.9014],[-68.9597,-18.592,3870.3506],[-68.9511,-18.5913,3867.9883],[-68.9368,-18.5937,3863.3701],[-68.9102,-18.5858,3858.3542],[-68.8715,-18.5632,3849.5493],[-68.7831,-18.5373,3828.9153],[-68.7617,-18.5359,3874.7739],[-68.7389,-18.5255,3813.3489],[-68.7312,-18.5254,3811.3752],[-68.7066,-18.5318,3806.3481],[-68.7019,-18.5355,3804.98],[-68.6979,-18.5484,3802.1155],[-68.6927,-18.5537,3800.7122],[-68.6906,-18.5641,3798.7888],[-68.6847,-18.5668,3798.2527],[-68.6827,-18.5709,3798.645],[-68.6728,-18.5719,3795.0762],[-68.6723,-18.5751,3796.9382],[-68.6665,-18.5782,3793.6421],[-68.6648,-18.5832,3794.1094],[-68.6607,-18.5818,3792.7832],[-68.65,-18.5857,3790.3154],[-68.6432,-18.5848,3789.2134],[-68.635,-18.5924,3787.3274],[-68.6174,-18.597,3784.1833],[-68.6077,-18.5971,3782.4229],[-68.606,-18.5996,3783.1704],[-68.6005,-18.6013,3782.5991],[-68.5901,-18.5982,3780.2585],[-68.5884,-18.5988,3782.3826],[-68.5847,-18.6057,3777.8135],[-68.5796,-18.6078,3777.1633],[-68.5658,-18.6103,3773.8301],[-68.56,-18.6094,3772.2771],[-68.5454,-18.6134,3769.4534],[-68.5357,-18.6117,3768.0125],[-68.531,-18.6081,3768.2012],[-68.5058,-18.6182,3762.5371],[-68.4817,-18.6189,3759.4946],[-68.4324,-18.5716,3761.5823],[-68.4037,-18.5628,3755.0779],[-68.3924,-18.5455,3765.5417],[-68.3614,-18.5393,3745.377],[-68.3395,-18.5279,3742.3047],[-68.3325,-18.5256,3741.7546],[-68.3215,-18.5247,3740.75],[-68.2999,-18.5079,3743.3486],[-68.2675,-18.4905,3744.0273],[-68.2587,-18.4879,3745.4805],[-68.2378,-18.4751,3750.1387],[-68.218,-18.4807,3756.3848],[-68.1915,-18.4743,3752.0962],[-68.1734,-18.4812,3762.7803],[-68.1682,-18.4802,3761.9138],[-68.1507,-18.4845,3762.7898],[-68.1256,-18.4876,3758.666],[-68.1171,-18.4649,3764.116],[-68.0917,-18.4435,3764.0779],[-68.077,-18.4243,3770.7659],[-68.0686,-18.4187,3772.0164],[-68.0664,-18.4147,3773.7627],[-68.0673,-18.4089,3776.0789],[-68.0444,-18.3859,3858.8484],[-68.0488,-18.379,3902.4319],[-68.047,-18.3689,3812.2859],[-68.0435,-18.3648,3816.3081],[-68.0356,-18.3609,3829.1675],[-68.032,-18.3551,3837.0042],[-68.0284,-18.354,3848.1338],[-68.0251,-18.3453,3926.3406],[-68.0274,-18.3409,3919.0774],[-68.017,-18.3295,4119.019],[-68.0202,-18.3177,4111.1567],[-68.0207,-18.3068,4075.5071],[-68.0265,-18.2955,4072.6206],[-68.0382,-18.2984,3928.3389],[-68.0471,-18.2959,3938.9775],[-68.0704,-18.2679,3860.292],[-68.0761,-18.2463,3826.1885],[-68.0804,-18.243,3815.8516],[-68.075,-18.2336,3819.1382],[-68.0726,-18.2224,3823.2812],[-68.0807,-18.2029,3838.426],[-68.0958,-18.2016,3846.2417],[-68.0997,-18.1966,3833.8904],[-68.1059,-18.1978,3826.3088],[-68.113,-18.1966,3818.9619],[-68.12,-18.1921,3819.189],[-68.123,-18.1816,3824.8623],[-68.1204,-18.1728,3835.6968],[-68.1091,-18.1663,3858.9956],[-68.1055,-18.1563,3912.9277],[-68.1122,-18.1232,4016.9822],[-68.1125,-18.1181,4004.6174],[-68.1109,-18.1149,3937.8032],[-68.1132,-18.1084,3972.5354],[-68.1091,-18.0917,4323.3184],[-68.1097,-18.0888,4389.3525],[-68.1246,-18.0855,4164.2417],[-68.1313,-18.0764,4133.6743],[-68.1311,-18.0691,4143.1846],[-68.1397,-18.0637,4186.9663],[-68.141,-18.0595,4127.0225],[-68.1535,-18.0493,4450.3794],[-68.1533,-18.0395,4364.6802]]]]}
,"properties": {"GID_2": "BOL.5.11_2","GID_0": "BOL","country": "Bolivia","GID_1": "BOL.5_1","province": "Oruro","NL_NAME_1": "NA","county": "Sajama","VARNAME_2": "NA","NL_NAME_2": "NA","TYPE_2": "Provincia","ENGTYPE_2": "Province","CC_2": "NA","HASC_2": "NA","name": "Sajama.county","area_km2": 7613.35,"hist_schema_id": "Elevation0-9000","hist_area_km2": {"3750": 237.351,"3775": 587.501,"3800": 682.72,"3825": 466.858,"3850": 385.577,"3875": 369.47,"3900": 324.383,"3925": 216.22,"3950": 191.41,"3975": 183.369,"4000": 185.541,"4025": 190.553,"4050": 220.996,"4075": 236.105,"4100": 240.347,"4125": 250.667,"4150": 217.626,"4175": 182.328,"4200": 168.712,"4225": 159.416,"4250": 135.102,"4275": 118.451,"4300": 107.569,"4325": 97.617,"4350": 96.027,"4375": 82.746,"4400": 75.691,"4425": 68.232,"4450": 62.508,"4475": 58.763,"4500": 58.157,"4525": 56.625,"4550": 57.755,"4575": 59.728,"4600": 60.693,"4625": 59.382,"4650": 58.597,"4675": 58.132,"4700": 52.656,"4725": 51.045,"4750": 50.321,"4775": 45.809,"4800": 39.705,"4825": 34.164,"4850": 29.834,"4875": 25.441,"4900": 23.125,"4925": 19.681,"4950": 16.699,"4975": 14.867,"5000": 13.859,"5025": 11.906,"5050": 10.596,"5075": 8.562,"5100": 8.541,"5125": 8.581,"5150": 7.434,"5175": 7.131,"5200": 4.995,"5225": 4.814,"5250": 4.814,"5275": 3.947,"5300": 3.686,"5325": 3.847,"5350": 3.182,"5375": 3.061,"5400": 2.759,"5425": 2.336,"5450": 2.376,"5475": 2.135,"5500": 1.732,"5525": 1.752,"5550": 1.51,"5575": 1.35,"5600": 1.511,"5625": 1.309,"5650": 1.088,"5675": 1.389,"5700": 0.987,"5725": 1.047,"5750": 0.644,"5775": 0.624,"5800": 0.685,"5825": 0.624,"5850": 0.584,"5875": 0.504,"5900": 0.544,"5925": 0.544,"5950": 0.363,"5975": 0.322,"6000": 0.262,"6025": 0.443,"6050": 0.282,"6075": 0.161,"6100": 0.222,"6125": 0.202,"6150": 0.222,"6175": 0.101,"6200": 0.302,"6225": 0.081,"6250": 0.101,"6275": 0.141,"6300": 0.141,"6325": 0.141,"6350": 0.101,"6375": 0.101,"6400": 0.06,"6425": 0.081,"6450": 0.06,"6475": 0.101}}}