{"type":"Feature","properties":{"GID_3":"BOL.8.13.1_2","GID_0":"BOL","country":"Bolivia","GID_1":"BOL.8_1","province":"SantaCruz","NL_NAME_1":"NA","GID_2":"BOL.8.13_2","county":"Vallegrande","NL_NAME_2":"NA","city":"Moromoro","VARNAME_3":"NA","NL_NAME_3":"NA","TYPE_3":"District","ENGTYPE_3":"Distrito","CC_3":"NA","HASC_3":"NA","name":"Moromoro.city"},
"geometry":{"type": "MultiPolygon","coordinates": [[[[-64.2848,-18.554,1015.8483],[-64.2782,-18.5508,1110.7368],[-64.2755,-18.5437,1374.3136],[-64.2697,-18.5273,1277.0046],[-64.2725,-18.5139,1090.3544],[-64.2707,-18.5129,1089.2408],[-64.2703,-18.5095,1108.3962],[-64.2671,-18.5051,1121.3275],[-64.2716,-18.4937,1144.4351],[-64.2759,-18.4973,1223.948],[-64.274,-18.4988,1180.7675],[-64.2746,-18.4998,1172.3851],[-64.2825,-18.498,1206.506],[-64.2865,-18.4671,1659.9402],[-64.2837,-18.4559,1976.6581],[-64.2797,-18.4523,2107.8325],[-64.2772,-18.4369,2193.2253],[-64.2714,-18.4283,2426.2297],[-64.2671,-18.4158,2745.1123],[-64.268,-18.4099,2875.2358],[-64.2609,-18.401,2823.2209],[-64.2604,-18.3953,2774.342],[-64.2623,-18.3867,2816.3208],[-64.2523,-18.3651,2822.3311],[-64.2528,-18.3506,2786.0762],[-64.256,-18.3432,2628.1201],[-64.2492,-18.3334,2310.8037],[-64.2449,-18.3221,2102.3982],[-64.2423,-18.3202,2047.2581],[-64.2242,-18.3177,2279.0168],[-64.2237,-18.3109,2372.644],[-64.2274,-18.2925,2539.7927],[-64.2396,-18.2765,2348.1853],[-64.2445,-18.2618,2344.9397],[-64.2489,-18.2356,2341.3535],[-64.2286,-18.2236,2272.9143],[-64.2254,-18.2086,2170.7788],[-64.2208,-18.2037,2273.0315],[-64.2232,-18.1981,2110.1863],[-64.2222,-18.1918,2168.7666],[-64.2493,-18.1812,1718.7357],[-64.2859,-18.1745,1678.0018],[-64.2905,-18.1673,1640.2969],[-64.2894,-18.1659,1639.979],[-64.2928,-18.163,1656.6909],[-64.3108,-18.1625,1788.5094],[-64.3142,-18.1597,1862.6587],[-64.329,-18.1749,2170.6255],[-64.3634,-18.2013,1988.2776],[-64.3726,-18.2014,2138.6562],[-64.3929,-18.1931,1689.0327],[-64.3965,-18.1886,1611.6812],[-64.4095,-18.186,1461.5239],[-64.4154,-18.1889,1418.0813],[-64.4153,-18.1928,1411.8019],[-64.418,-18.1922,1416.1166],[-64.4203,-18.1959,1410.4578],[-64.4174,-18.1971,1409.1561],[-64.415,-18.1954,1405.3259],[-64.4145,-18.2015,1430.9243],[-64.4161,-18.2026,1407.0544],[-64.4126,-18.2035,1398.3434],[-64.4143,-18.2069,1398.3513],[-64.4138,-18.2096,1393.2496],[-64.4114,-18.2092,1419.2814],[-64.4102,-18.211,1401.6759],[-64.4105,-18.2136,1385.5486],[-64.4145,-18.2147,1383.4019],[-64.4153,-18.2196,1392.6652],[-64.418,-18.2163,1371.3652],[-64.4257,-18.2231,1388.5779],[-64.4302,-18.2218,1362.9077],[-64.4405,-18.2229,1356.9788],[-64.4522,-18.2212,1360.2847],[-64.4547,-18.2228,1327.615],[-64.4549,-18.2191,1373.8872],[-64.4606,-18.219,1340.285],[-64.4642,-18.2241,1313.3459],[-64.4645,-18.2274,1318.6183],[-64.4694,-18.2258,1305.0177],[-64.4683,-18.2286,1300.7834],[-64.4712,-18.2315,1310.6891],[-64.4697,-18.2334,1314.4586],[-64.474,-18.2343,1318.5513],[-64.4807,-18.2331,1303.7252],[-64.4852,-18.2348,1305.2886],[-64.4862,-18.232,1287.9047],[-64.4872,-18.2352,1294.4233],[-64.4937,-18.2324,1307.705],[-64.4942,-18.2345,1272.9379],[-64.4921,-18.2347,1328.5662],[-64.4943,-18.2371,1272.0184],[-64.4906,-18.2396,1317.6964],[-64.4884,-18.2562,1302.1769],[-64.4848,-18.261,1282.4806],[-64.4816,-18.2612,1299.1467],[-64.4862,-18.2695,1264.2035],[-64.489,-18.27,1292.135],[-64.4889,-18.273,1313.531],[-64.4826,-18.272,1274.8521],[-64.4805,-18.2792,1264.7783],[-64.4835,-18.2841,1261.7443],[-64.4854,-18.2936,1282.6104],[-64.4835,-18.2952,1263.7961],[-64.4729,-18.2955,1290.125],[-64.4732,-18.3008,1257.2538],[-64.4714,-18.3042,1246.9243],[-64.4641,-18.3047,1251.6622],[-64.4637,-18.3061,1306.136],[-64.4665,-18.3096,1272.0431],[-64.4712,-18.3123,1244.9346],[-64.4626,-18.3244,1238.8551],[-64.4615,-18.3233,1256.3552],[-64.4626,-18.321,1256.8416],[-64.461,-18.3195,1303.907],[-64.459,-18.3245,1238.0674],[-64.4526,-18.3231,1234.9769],[-64.4515,-18.3273,1233.2695],[-64.4459,-18.3251,1242.2466],[-64.445,-18.3276,1229.8744],[-64.4392,-18.3291,1250.5264],[-64.4337,-18.3363,1231.2366],[-64.4414,-18.3533,1225.8656],[-64.4454,-18.3559,1220.9817],[-64.4443,-18.3578,1224.0931],[-64.44,-18.3589,1245.3773],[-64.44,-18.3647,1240.5913],[-64.4453,-18.3663,1214.6783],[-64.4484,-18.3735,1213.3914],[-64.4461,-18.3747,1239.0725],[-64.4402,-18.3689,1257.2056],[-64.4362,-18.3722,1206.4441],[-64.4317,-18.373,1214.0269],[-64.4297,-18.3764,1207.9135],[-64.4311,-18.3852,1200.3911],[-64.4293,-18.3922,1203.0039],[-64.4343,-18.4003,1178.9114],[-64.4329,-18.4038,1180.1979],[-64.4296,-18.4053,1201.0516],[-64.4274,-18.4089,1176.2098],[-64.4276,-18.4181,1194.6235],[-64.4214,-18.4233,1183.27],[-64.419,-18.4298,1174.3942],[-64.4166,-18.4306,1232.5071],[-64.4174,-18.4332,1171.7024],[-64.4119,-18.4374,1191.9899],[-64.4105,-18.4427,1158.0715],[-64.4061,-18.4451,1248.3108],[-64.4054,-18.4484,1162.6985],[-64.4026,-18.4507,1142.637],[-64.392,-18.45,1126.6541],[-64.3821,-18.4533,1118.9918],[-64.3811,-18.4572,1117.0586],[-64.3731,-18.4602,1132.1189],[-64.3702,-18.4634,1098.5101],[-64.3642,-18.4641,1104.3434],[-64.3622,-18.4696,1127.6011],[-64.3577,-18.4681,1086.9718],[-64.3499,-18.4747,1092.1597],[-64.344,-18.4741,1076.3394],[-64.3355,-18.476,1156.8921],[-64.3338,-18.4783,1098.4479],[-64.3354,-18.4847,1069.8562],[-64.3281,-18.489,1057.6975],[-64.3251,-18.4974,1050.7209],[-64.3227,-18.4988,1050.0553],[-64.3177,-18.4948,1045.3109],[-64.3102,-18.4972,1040.949],[-64.3072,-18.4946,1051.6565],[-64.3056,-18.4957,1051.6565],[-64.3028,-18.5005,1047.9985],[-64.306,-18.5046,1039.4834],[-64.3042,-18.5099,1030.3865],[-64.3043,-18.5183,1039.9498],[-64.3,-18.5181,1026.4668],[-64.2981,-18.52,1036.9336],[-64.3005,-18.5332,1018.6011],[-64.2917,-18.5337,1018.6748],[-64.2894,-18.5361,1018.8583],[-64.2882,-18.5403,1029.8313],[-64.2908,-18.544,1015.1746],[-64.2885,-18.5499,1011.232],[-64.2848,-18.554,1015.8483]]]]}}