{"type": "Feature","bbox": [-69.4018,-16.0043,-69.0159,-15.5366],"geometry": {"type": "MultiPolygon","coordinates": [[[[-69.1841,-15.6597,3810.7383],[-69.1882,-15.6564,3810.4958],[-69.1938,-15.667,3810.4358],[-69.1995,-15.6676,3811.0508],[-69.2113,-15.6773,3809.5339],[-69.2219,-15.6769,3808.5],[-69.2262,-15.6711,3824.2407],[-69.2314,-15.6728,3809.4155],[-69.2331,-15.6771,3809.7654],[-69.2428,-15.6803,3811.1013],[-69.2564,-15.6756,3885.6545],[-69.2578,-15.6715,3814.5903],[-69.2621,-15.669,3831.8442],[-69.2621,-15.6611,3947.5479],[-69.2644,-15.6538,3885.8733],[-69.2569,-15.6468,3859.5439],[-69.2591,-15.6461,3808.5],[-69.2585,-15.6413,3808.5],[-69.2633,-15.6368,3850.0994],[-69.2665,-15.6379,3810.6484],[-69.2657,-15.6407,3808.5],[-69.2687,-15.6412,3812.72],[-69.2706,-15.6372,3821.6714],[-69.2666,-15.6372,3810.6484],[-69.266,-15.6337,3813.6316],[-69.27,-15.6334,3811.5752],[-69.2695,-15.6294,3811.8013],[-69.2747,-15.627,3814.8584],[-69.278,-15.6278,3811.2517],[-69.2779,-15.6307,3808.5],[-69.28,-15.6322,3808.5],[-69.2838,-15.6325,3832.5012],[-69.286,-15.629,3916.3752],[-69.2906,-15.6266,3842.1221],[-69.2978,-15.6137,3836.4438],[-69.299,-15.607,3937.1882],[-69.301,-15.6057,3892.0605],[-69.3041,-15.6067,3808.5],[-69.305,-15.6053,3836.2986],[-69.3042,-15.6019,3818.8979],[-69.299,-15.6003,3826.1365],[-69.2949,-15.6008,3809.5],[-69.2916,-15.6038,3811.0974],[-69.2888,-15.6015,3821.9124],[-69.2875,-15.5917,3818.9604],[-69.2938,-15.5823,3819.8662],[-69.2949,-15.5776,3848.3906],[-69.2928,-15.5757,3813.2451],[-69.2911,-15.5772,3870.0625],[-69.2804,-15.5753,3812.7993],[-69.2785,-15.5689,3818.1118],[-69.2815,-15.563,3808.5],[-69.2927,-15.5537,3811.2915],[-69.2998,-15.5506,3913.3384],[-69.3088,-15.5516,3808.5],[-69.3129,-15.5501,3808.5],[-69.3138,-15.5463,3934.2622],[-69.3206,-15.5468,3814.8376],[-69.3211,-15.543,3893.8186],[-69.3254,-15.5438,3818.9814],[-69.3265,-15.5386,3808.5],[-69.3307,-15.5366,3820.9565],[-69.4018,-15.6061,3808.5],[-69.2563,-16.0043,3808.5],[-69.0159,-15.8439,3810.7896],[-69.0195,-15.8388,3810.0698],[-69.02,-15.8334,3808.5],[-69.0244,-15.8216,3811.3848],[-69.0278,-15.8195,3815.6636],[-69.0289,-15.8133,3809.2971],[-69.032,-15.8079,3841.5154],[-69.0391,-15.8024,3811.1638],[-69.054,-15.7956,3812.5127],[-69.0619,-15.7824,3812.8616],[-69.0652,-15.7751,3808.5],[-69.0664,-15.7679,3812.3862],[-69.0708,-15.7617,3811.6106],[-69.0689,-15.7584,3811.7129],[-69.0706,-15.7584,3811.3013],[-69.0731,-15.7546,3810.2883],[-69.0859,-15.7453,3809.5837],[-69.0877,-15.7353,3812.8984],[-69.0978,-15.723,3812.5752],[-69.1017,-15.72,3810.936],[-69.1056,-15.723,3810.0891],[-69.1056,-15.7216,3810.4377],[-69.1082,-15.722,3810.1909],[-69.1073,-15.7199,3811.8706],[-69.1057,-15.7214,3810.4377],[-69.1043,-15.7203,3811.0581],[-69.1039,-15.7171,3811.5967],[-69.1147,-15.7142,3813.8745],[-69.1138,-15.7186,3809.2595],[-69.1094,-15.7227,3810.271],[-69.1094,-15.7264,3811.8782],[-69.104,-15.7261,3810.0291],[-69.105,-15.7278,3810.6709],[-69.1112,-15.7284,3809.4949],[-69.1304,-15.722,3810.8293],[-69.1507,-15.72,3808.5],[-69.1706,-15.7155,3809.8655],[-69.1836,-15.7082,3811.3062],[-69.1895,-15.6964,3808.5],[-69.1858,-15.6984,3814.9004],[-69.1772,-15.6943,3809.4622],[-69.1668,-15.6973,3813.6868],[-69.1624,-15.6946,3814.4666],[-69.1581,-15.698,3819.4148],[-69.1535,-15.6976,3811.4307],[-69.1527,-15.6962,3810.6335],[-69.1569,-15.6963,3810.4709],[-69.1566,-15.6936,3809.4373],[-69.1489,-15.6945,3810.887],[-69.1494,-15.6926,3810.1426],[-69.1466,-15.6922,3810.7751],[-69.1477,-15.6909,3809.7112],[-69.1461,-15.6889,3810.863],[-69.1481,-15.6855,3813.5459],[-69.1523,-15.6877,3810.6848],[-69.1567,-15.6869,3810.6431],[-69.1572,-15.6843,3810.9155],[-69.154,-15.6803,3810.6313],[-69.1631,-15.6723,3823.853],[-69.1657,-15.6714,3810.6221],[-69.1708,-15.6745,3811.1208],[-69.1747,-15.6731,3810.4431],[-69.1739,-15.6695,3813.5073],[-69.1774,-15.6698,3810.1506],[-69.1749,-15.6681,3811.4519],[-69.1751,-15.6661,3811.7939],[-69.1841,-15.6597,3810.7383]],
[[-69.2902,-15.7431,3808.5],[-69.2891,-15.7444,3808.5],[-69.2894,-15.7465,3808.5],[-69.2905,-15.7435,3808.5],[-69.2902,-15.7431,3808.5]],
[[-69.212,-15.7135,3808.5],[-69.2118,-15.7135,3808.5],[-69.2119,-15.7139,3808.5],[-69.2121,-15.7138,3808.5],[-69.212,-15.7135,3808.5]],
[[-69.2116,-15.712,3808.5],[-69.2114,-15.7121,3808.5],[-69.2116,-15.7126,3808.5],[-69.2117,-15.7125,3808.5],[-69.2116,-15.712,3808.5]],
[[-69.2115,-15.709,3808.5],[-69.211,-15.7097,3808.5],[-69.2113,-15.7116,3808.5],[-69.2118,-15.7111,3808.5],[-69.2115,-15.709,3808.5]],
[[-69.3202,-15.6941,3808.5],[-69.3219,-15.6941,3811.6038],[-69.3243,-15.6891,3808.5],[-69.3388,-15.6776,3810.9226],[-69.3407,-15.6749,3810.8679],[-69.3407,-15.6713,3808.5],[-69.3376,-15.6778,3809.4326],[-69.3293,-15.6811,3814.5649],[-69.3202,-15.6941,3808.5]],
[[-69.2164,-15.9583,3808.5],[-69.2182,-15.9563,3809.4216],[-69.2177,-15.9547,3809.3328],[-69.2154,-15.9579,3810.6445],[-69.2164,-15.9583,3808.5]],
[[-69.231,-15.9673,3816.4036],[-69.2288,-15.9685,3808.5],[-69.2296,-15.9686,3808.5],[-69.2308,-15.9677,3816.4036],[-69.231,-15.9673,3816.4036]],
[[-69.2078,-15.9686,3812.9512],[-69.2063,-15.9698,3808.5],[-69.2075,-15.9711,3812.8691],[-69.208,-15.9702,3812.8691],[-69.2078,-15.9686,3812.9512]]]]}
,"properties": {"GID_3": "BOL.4.5.3_2","GID_0": "BOL","country": "Bolivia","GID_1": "BOL.4_1","province": "LaPaz","NL_NAME_1": "NA","GID_2": "BOL.4.5_2","county": "Camacho","NL_NAME_2": "NA","city": "LagoTiticaca","VARNAME_3": "NA","NL_NAME_3": "NA","TYPE_3": "Lago","ENGTYPE_3": "Waterbody","CC_3": "NA","HASC_3": "NA","name": "Lago_Titicaca.city","area_km2": 961.9626,"hist_schema_id": "Elevation0-9000","hist_area_km2": {"3800": 960.1046,"3825": 1.0208,"3850": 0.4901,"3875": 0.2246,"3900": 0.1021,"3925": 0.0204}}}