{"type":"Feature","properties":{"GID_3":"BOL.9.4.2_2","GID_0":"BOL","country":"Bolivia","GID_1":"BOL.9_1","province":"Tarija","NL_NAME_1":"NA","GID_2":"BOL.9.4_2","county":"GranChaco","NL_NAME_2":"NA","city":"VillaMontes","VARNAME_3":"NA","NL_NAME_3":"NA","TYPE_3":"District","ENGTYPE_3":"Distrito","CC_3":"NA","HASC_3":"NA","name":"Villa_Montes.city"},
"geometry":{"type": "MultiPolygon","coordinates": [[[[-62.6424,-22.2429,261.8493],[-62.2607,-21.0585,329.0172],[-62.2613,-20.9925,335.7168],[-63.0015,-21.0037,555.7373],[-63.5954,-21.0037,1253.8358],[-63.6015,-21.0255,1404.8291],[-63.6018,-21.0388,1434.0491],[-63.6097,-21.0749,1422.3057],[-63.6213,-21.1051,1418.781],[-63.6227,-21.1162,1320.5823],[-63.6209,-21.1213,1286.7147],[-63.6214,-21.1255,1310.8042],[-63.6245,-21.1286,1314.301],[-63.6249,-21.1331,1310.6619],[-63.6273,-21.1357,1287.141],[-63.6338,-21.1701,1230.4597],[-63.6356,-21.1721,1161.3901],[-63.6369,-21.1867,1049.6521],[-63.6419,-21.1987,1094.934],[-63.6484,-21.221,507.175],[-63.6494,-21.2297,888.316],[-63.6512,-21.2335,1025.2511],[-63.6535,-21.2346,1012.4744],[-63.6546,-21.2414,1098.8143],[-63.6567,-21.2434,1139.9098],[-63.6552,-21.2479,1176.4587],[-63.6564,-21.258,1275.8102],[-63.6599,-21.271,1362.197],[-63.6625,-21.274,1422.7526],[-63.6628,-21.2911,1502.5305],[-63.6631,-21.2923,1510.6166],[-63.6663,-21.2919,1461.8818],[-63.6692,-21.3037,1195.4271],[-63.6745,-21.3161,1405.7385],[-63.6733,-21.3243,1373.9302],[-63.6772,-21.3248,1416.4392],[-63.6803,-21.3301,1333.6627],[-63.6813,-21.3369,1409.1333],[-63.6888,-21.3552,1528.2009],[-63.6914,-21.374,1327.8981],[-63.6967,-21.3851,1320.4961],[-63.6985,-21.3957,1237.0211],[-63.6892,-21.3992,932.5059],[-63.6836,-21.3949,867.035],[-63.6815,-21.3957,882.5444],[-63.6775,-21.3942,934.1295],[-63.6689,-21.3963,769.8779],[-63.6627,-21.3952,741.3677],[-63.6607,-21.3928,810.5315],[-63.659,-21.3937,724.711],[-63.6522,-21.3759,739.1592],[-63.6459,-21.3738,716.7761],[-63.6411,-21.3694,686.069],[-63.6342,-21.3662,625.4614],[-63.6336,-21.3556,610.5378],[-63.6292,-21.3502,599.9811],[-63.6316,-21.3478,647.5347],[-63.629,-21.345,612.407],[-63.6304,-21.3432,599.1959],[-63.6267,-21.3415,605.8629],[-63.6267,-21.332,628.8347],[-63.6234,-21.3301,592.6232],[-63.6258,-21.3285,569.1482],[-63.6231,-21.3261,565.5726],[-63.6233,-21.3237,563.5423],[-63.6201,-21.3185,561.2868],[-63.6211,-21.3143,569.0311],[-63.6174,-21.3114,543.7681],[-63.6196,-21.3092,603.7961],[-63.6165,-21.3101,549.2963],[-63.6032,-21.307,689.1454],[-63.5932,-21.3071,844.7829],[-63.5829,-21.3132,1271.126],[-63.5881,-21.3234,1465.4307],[-63.5879,-21.3359,1590.1019],[-63.5904,-21.347,1526.8646],[-63.5871,-21.3605,1521.6121],[-63.5943,-21.3715,1591.2966],[-63.5912,-21.3821,1509.9028],[-63.5929,-21.3872,1413.3915],[-63.5905,-21.3953,1450.6458],[-63.591,-21.4004,1519.0717],[-63.5934,-21.4082,1581.0005],[-63.5984,-21.4118,1649.5054],[-63.6004,-21.4159,1552.0132],[-63.6005,-21.4224,1574.3148],[-63.6037,-21.4317,1508.2655],[-63.5918,-21.4399,1429.9497],[-63.5901,-21.4453,1398.142],[-63.5932,-21.4504,1384.7766],[-63.5962,-21.4504,1419.9441],[-63.6022,-21.4542,1410.5378],[-63.608,-21.4545,1464.725],[-63.6082,-21.4634,1472.1992],[-63.6107,-21.4679,1542.3616],[-63.6078,-21.4856,1592.4193],[-63.611,-21.4965,1630.3145],[-63.6138,-21.4997,1628.5894],[-63.6122,-21.5106,1602.5479],[-63.6134,-21.5163,1616.4092],[-63.6216,-21.5316,1751.947],[-63.6197,-21.5375,1812.6646],[-63.6214,-21.5481,1740.5753],[-63.6194,-21.5503,1783.5361],[-63.6195,-21.5593,1845.3345],[-63.613,-21.5612,1409.5876],[-63.6073,-21.5659,1118.0474],[-63.5139,-21.5782,649.3928],[-63.4482,-21.5829,500.9294],[-63.4432,-21.5776,517.4456],[-63.4,-21.5552,443.9197],[-63.3826,-21.5542,427.213],[-63.3615,-21.5485,416.6757],[-63.3579,-21.546,413.3313],[-63.2762,-21.5609,385.6698],[-63.2658,-21.5611,393.1701],[-63.2533,-21.5637,405.2166],[-63.2323,-21.5623,435.6999],[-63.2102,-21.5539,476.1589],[-63.2011,-21.5474,490.2322],[-63.1973,-21.5474,480.2104],[-63.1696,-21.5354,488.301],[-63.1197,-21.5255,399.0759],[-63.1136,-21.5303,402.6896],[-63.0621,-21.5455,325.3422],[-63.0323,-21.5421,317.1051],[-63.0118,-21.5521,314.2311],[-63.0048,-21.5641,314.317],[-63.0002,-21.5828,313.0746],[-62.9903,-21.5959,312.5944],[-62.976,-21.6243,309.2713],[-62.9649,-21.6525,307.2826],[-62.9544,-21.6715,304.0],[-62.9435,-21.6973,302.0],[-62.9333,-21.7445,300.8945],[-62.9139,-21.7739,296.0668],[-62.9111,-21.7769,296.3664],[-62.9002,-21.7816,295.6937],[-62.8886,-21.7941,295.5752],[-62.8941,-21.8082,293.8186],[-62.8929,-21.8189,293.8296],[-62.8805,-21.8269,292.6503],[-62.8761,-21.8319,292.1419],[-62.867,-21.8425,289.0],[-62.8588,-21.8565,290.2223],[-62.8436,-21.8702,288.6369],[-62.8373,-21.8813,287.8532],[-62.8376,-21.8887,286.4252],[-62.8423,-21.8977,286.98],[-62.8504,-21.9221,285.3199],[-62.8475,-21.939,283.8656],[-62.8456,-21.9458,281.5],[-62.8414,-21.9494,283.5197],[-62.8332,-21.9651,282.4706],[-62.8305,-21.9781,280.0839],[-62.8266,-21.9846,281.0036],[-62.8174,-21.9897,278.0],[-62.809,-21.9968,278.0],[-62.8075,-21.9989,278.0],[-62.8077,-22.0039,278.0],[-62.8048,-22.0022,279.587],[-62.8015,-22.0068,279.1924],[-62.8012,-22.0161,282.5931],[-62.8087,-22.0275,277.4777],[-62.817,-22.0335,278.4385],[-62.8167,-22.0361,278.3183],[-62.8142,-22.0415,276.9565],[-62.8147,-22.0471,276.8506],[-62.8126,-22.0531,274.5],[-62.7963,-22.059,275.3994],[-62.7931,-22.064,273.7668],[-62.7998,-22.0707,275.8094],[-62.8109,-22.0908,274.0781],[-62.8116,-22.0988,272.0],[-62.8065,-22.1095,273.5707],[-62.8107,-22.1155,273.7874],[-62.8136,-22.1299,271.8847],[-62.8121,-22.1338,272.0068],[-62.7903,-22.1593,268.0911],[-62.7853,-22.1713,267.5],[-62.7822,-22.1745,267.9805],[-62.7761,-22.173,268.4984],[-62.7705,-22.161,269.6281],[-62.7656,-22.1549,269.3733],[-62.7594,-22.1519,267.3996],[-62.7555,-22.1527,268.4274],[-62.7363,-22.17,266.205],[-62.7327,-22.1755,266.3322],[-62.7272,-22.1861,266.4487],[-62.7229,-22.2069,262.0],[-62.7204,-22.2108,263.2643],[-62.7094,-22.2112,261.5],[-62.6969,-22.1954,262.7851],[-62.691,-22.1911,261.6718],[-62.6897,-22.1922,260.7158],[-62.6878,-22.2044,262.8614],[-62.6838,-22.2169,262.9353],[-62.6794,-22.2269,263.1779],[-62.6655,-22.2447,260.9922],[-62.6576,-22.2502,260.7908],[-62.6514,-22.2524,260.6885],[-62.6439,-22.2466,260.0768],[-62.6424,-22.2429,261.8493]]]]}}