{"type": "Feature","bbox": [-66.4592,-17.426,-66.2872,-17.2572],"geometry": {"type": "MultiPolygon","coordinates": [[[[-66.4592,-17.2838,4136.8853],[-66.4552,-17.2941,3874.9272],[-66.4503,-17.2968,3968.2566],[-66.4452,-17.3023,4203.5669],[-66.4389,-17.3036,4146.5083],[-66.4301,-17.3151,4357.7432],[-66.4328,-17.3268,4166.7119],[-66.436,-17.3298,4036.8027],[-66.4383,-17.33,3994.2993],[-66.4438,-17.3365,3747.5083],[-66.4523,-17.3408,3535.0884],[-66.4494,-17.3554,3304.6182],[-66.4363,-17.3728,3081.7939],[-66.4327,-17.3831,3001.0737],[-66.4283,-17.3886,2943.5908],[-66.4244,-17.39,2915.8926],[-66.4242,-17.3926,2915.4385],[-66.4135,-17.4022,2823.8235],[-66.4114,-17.4069,2801.5752],[-66.4074,-17.4107,2792.4148],[-66.3989,-17.4148,2737.5269],[-66.3948,-17.4132,2690.8513],[-66.3919,-17.4146,2689.1997],[-66.389,-17.4137,2665.1453],[-66.3871,-17.4161,2650.5608],[-66.373,-17.4202,2601.4509],[-66.3678,-17.4156,2596.9937],[-66.3517,-17.4086,2582.9333],[-66.3345,-17.4052,2552.5015],[-66.3276,-17.4079,2537.3623],[-66.3266,-17.4105,2533.3987],[-66.324,-17.4116,2523.6338],[-66.3216,-17.4084,2550.0654],[-66.3194,-17.4087,2578.7451],[-66.3137,-17.4173,2681.241],[-66.3053,-17.426,2761.7212],[-66.3037,-17.3845,2549.6841],[-66.3092,-17.3828,2554.397],[-66.3107,-17.3638,2605.7581],[-66.2936,-17.3469,2663.0789],[-66.2872,-17.3345,2719.2354],[-66.2875,-17.3254,2745.9009],[-66.2923,-17.3138,2823.9739],[-66.2994,-17.3096,3074.0454],[-66.3151,-17.2947,3629.1672],[-66.3259,-17.2905,4107.4346],[-66.3356,-17.2906,4458.8003],[-66.3561,-17.2865,4580.5898],[-66.3669,-17.2887,4738.1372],[-66.3883,-17.2851,4977.5127],[-66.3933,-17.2868,4837.4683],[-66.3931,-17.2835,4883.457],[-66.3979,-17.279,4775.8994],[-66.4007,-17.2704,4782.7368],[-66.4072,-17.2595,4670.6045],[-66.4123,-17.2572,4648.3062],[-66.4175,-17.2633,4506.5649],[-66.4413,-17.2608,4581.4902],[-66.4538,-17.2654,4483.1826],[-66.453,-17.2808,4348.4556],[-66.4592,-17.2838,4136.8853]]]]}
,"properties": {"GID_3": "BOL.2.14.5_2","GID_0": "BOL","country": "Bolivia","GID_1": "BOL.2_1","province": "Cochabamba","NL_NAME_1": "NA","GID_2": "BOL.2.14_2","county": "Quillacollo","NL_NAME_2": "NA","city": "Vinto","VARNAME_3": "NA","NL_NAME_3": "NA","TYPE_3": "District","ENGTYPE_3": "Distrito","CC_3": "NA","HASC_3": "NA","name": "Vinto.city","area_km2": 215.6805,"hist_schema_id": "Elevation0-9000","hist_area_km2": {"2525": 2.9943,"2550": 6.5959,"2575": 5.9689,"2600": 6.4746,"2625": 6.3128,"2650": 5.5239,"2675": 5.0182,"2700": 4.6339,"2725": 4.2495,"2750": 3.9461,"2775": 3.9259,"2800": 3.6225,"2825": 3.3593,"2850": 2.8736,"2875": 2.2868,"2900": 2.226,"2925": 2.0641,"2950": 1.6391,"2975": 1.7605,"3000": 1.7605,"3025": 1.9022,"3050": 1.9427,"3075": 1.8212,"3100": 1.7808,"3125": 2.0236,"3150": 2.307,"3175": 2.1654,"3200": 2.1451,"3225": 2.0237,"3250": 2.4083,"3275": 1.963,"3300": 2.0237,"3325": 2.4488,"3350": 2.0845,"3375": 2.469,"3400": 2.2464,"3425": 2.3678,"3450": 2.206,"3475": 2.125,"3500": 2.3274,"3525": 2.3274,"3550": 2.1048,"3575": 2.0441,"3600": 2.4286,"3625": 2.2667,"3650": 1.9429,"3675": 1.9834,"3700": 1.9227,"3725": 2.287,"3750": 2.2466,"3775": 1.9025,"3800": 1.9632,"3825": 1.8013,"3850": 1.6192,"3875": 1.3763,"3900": 1.9228,"3925": 2.0645,"3950": 1.6192,"3975": 2.1455,"4000": 1.8217,"4025": 2.4289,"4050": 2.3075,"4075": 1.9837,"4100": 2.1052,"4125": 2.6315,"4150": 2.2874,"4175": 2.7125,"4200": 3.0567,"4225": 2.5506,"4250": 3.1782,"4275": 2.6721,"4300": 2.8948,"4325": 2.7532,"4350": 2.6317,"4375": 2.0042,"4400": 2.1864,"4425": 1.9435,"4450": 1.8018,"4475": 1.3969,"4500": 1.5386,"4525": 1.3159,"4550": 1.0325,"4575": 1.0325,"4600": 1.1337,"4625": 0.9718,"4650": 0.7693,"4675": 0.6883,"4700": 0.3239,"4725": 0.4859,"4750": 0.2632,"4775": 0.2632,"4800": 0.2632,"4825": 0.0202,"4850": 0.0607,"4875": 0.1215,"4925": 0.0202,"4950": 0.0202,"5000": 0.0202}}}