{"type": "Feature","bbox": [-67.2169,-18.7909,-66.6958,-18.2094],"geometry": {"type": "MultiPolygon","coordinates": [[[[-66.7147,-18.6583,4430.2896],[-66.7175,-18.6539,4408.7617],[-66.7183,-18.6428,4358.1543],[-66.7219,-18.6382,4395.4541],[-66.7212,-18.6272,4320.6387],[-66.7248,-18.6225,4394.3032],[-66.7254,-18.6176,4430.5928],[-66.7198,-18.6041,4562.1191],[-66.7141,-18.5976,4656.0986],[-66.6997,-18.5911,4577.4395],[-66.6958,-18.5871,4575.9209],[-66.6962,-18.5835,4589.1533],[-66.6993,-18.5792,4586.1943],[-66.6976,-18.5741,4570.3999],[-66.6994,-18.5627,4540.2871],[-66.7028,-18.5587,4512.7109],[-66.706,-18.5462,4612.1895],[-66.7163,-18.5235,4774.9961],[-66.7016,-18.5128,4649.46],[-66.7016,-18.5082,4679.8418],[-66.708,-18.5003,4617.0186],[-66.72,-18.471,4651.834],[-66.7329,-18.4536,4603.4893],[-66.7355,-18.443,4546.3008],[-66.7385,-18.4397,4564.7422],[-66.7394,-18.4265,4636.8828],[-66.7584,-18.398,4473.022],[-66.7829,-18.3734,4507.1265],[-66.7891,-18.3631,4515.9111],[-66.7949,-18.3583,4553.2144],[-66.8049,-18.3401,4628.9844],[-66.8107,-18.3469,4606.5527],[-66.8233,-18.3423,4483.9058],[-66.8329,-18.3435,4258.0288],[-66.8445,-18.338,3990.8774],[-66.8497,-18.3277,3957.7566],[-66.847,-18.3029,3926.7522],[-66.8535,-18.2877,3988.8833],[-66.8531,-18.2844,3971.8447],[-66.8557,-18.2817,3944.999],[-66.8572,-18.2768,3902.3252],[-66.8624,-18.2733,3888.791],[-66.8723,-18.271,3872.3682],[-66.8745,-18.2667,3868.845],[-66.8829,-18.2594,3857.6445],[-66.8828,-18.2541,3853.7478],[-66.8868,-18.2524,3850.1167],[-66.8907,-18.2477,3843.8384],[-66.8984,-18.2324,3824.8508],[-66.9159,-18.2219,3806.9531],[-66.9199,-18.2273,3833.283],[-66.9208,-18.2354,3859.7485],[-66.9172,-18.24,3989.8577],[-66.9144,-18.2398,3987.4631],[-66.9116,-18.2495,4256.8779],[-66.9201,-18.2469,4016.9885],[-66.9224,-18.2435,3923.1672],[-66.9304,-18.2418,3841.8501],[-66.9457,-18.2416,3841.0522],[-66.9472,-18.2382,3837.1772],[-66.9597,-18.2365,3871.4375],[-66.9642,-18.2381,3997.8042],[-66.9695,-18.2291,3941.2092],[-66.9724,-18.2296,3911.0396],[-66.9848,-18.2112,4152.8174],[-67.0781,-18.2094,3696.4556],[-67.0741,-18.2211,3696.0044],[-67.0574,-18.2345,3695.4248],[-67.0484,-18.25,3694.0398],[-67.0486,-18.2552,3693.7874],[-67.0514,-18.2621,3693.4683],[-67.0494,-18.2674,3693.4229],[-67.0495,-18.2797,3693.1287],[-67.0526,-18.2937,3693.1067],[-67.0509,-18.3013,3692.8162],[-67.046,-18.3072,3692.4783],[-67.0432,-18.3147,3691.9297],[-67.045,-18.3246,3692.04],[-67.0428,-18.3457,3691.6116],[-67.0516,-18.3708,3691.1479],[-67.048,-18.3929,3690.7034],[-67.0514,-18.4176,3690.0857],[-67.0501,-18.4308,3689.823],[-67.0509,-18.4353,3689.7229],[-67.0549,-18.4386,3689.751],[-67.0562,-18.4476,3688.946],[-67.0595,-18.4508,3688.3547],[-67.0516,-18.453,3689.3191],[-67.0492,-18.4648,3689.2224],[-67.0525,-18.4718,3689.0],[-67.0586,-18.4788,3688.7832],[-67.0596,-18.4831,3688.3987],[-67.0685,-18.489,3688.1621],[-67.1101,-18.5342,3685.5],[-67.1485,-18.5309,3685.5],[-67.1578,-18.5396,3685.5],[-67.1604,-18.5447,3685.5],[-67.1717,-18.5502,3685.5],[-67.1977,-18.5513,3685.5],[-67.2102,-18.5611,3685.5],[-67.2169,-18.5623,3685.5],[-67.1796,-18.5996,3685.5],[-67.0839,-18.7426,3685.5],[-67.0047,-18.7134,3685.5],[-67.0041,-18.7155,3685.5],[-66.9249,-18.6678,3690.3547],[-66.9137,-18.6666,3812.563],[-66.9039,-18.6633,3745.5247],[-66.8982,-18.6689,3714.6504],[-66.8772,-18.6675,3720.6997],[-66.8695,-18.6717,3772.0938],[-66.8661,-18.6757,3818.428],[-66.8604,-18.6764,3982.7844],[-66.8578,-18.6826,3924.9055],[-66.8564,-18.683,3871.3145],[-66.8439,-18.6842,3748.0737],[-66.8287,-18.6832,3815.6157],[-66.8173,-18.6866,4001.6433],[-66.8172,-18.6939,4282.6509],[-66.8125,-18.7033,4371.0439],[-66.8154,-18.7094,4381.498],[-66.8159,-18.7162,4347.2852],[-66.8082,-18.7321,4296.6431],[-66.807,-18.7395,4259.7905],[-66.8098,-18.7484,4184.041],[-66.8092,-18.7574,3757.4563],[-66.8174,-18.7673,3713.3298],[-66.8079,-18.7816,3714.188],[-66.79,-18.7909,3714.4302],[-66.7688,-18.7904,3720.2935],[-66.7683,-18.7892,3720.8555],[-66.7659,-18.7898,3723.6372],[-66.7631,-18.7861,3724.4937],[-66.7547,-18.7888,3728.4688],[-66.7504,-18.7816,3729.5869],[-66.7493,-18.7737,3733.9028],[-66.7378,-18.7587,3753.6113],[-66.7293,-18.753,3777.4031],[-66.7229,-18.752,3789.2456],[-66.73,-18.7275,4107.7876],[-66.7271,-18.7053,4032.5303],[-66.7277,-18.6994,4095.7561],[-66.727,-18.6922,4161.2397],[-66.7227,-18.682,4276.377],[-66.7143,-18.681,4394.9229],[-66.7117,-18.6788,4382.0176],[-66.7147,-18.6583,4430.2896]]]]}
,"properties": {"GID_2": "BOL.5.9_2","GID_0": "BOL","country": "Bolivia","GID_1": "BOL.5_1","province": "Oruro","NL_NAME_1": "NA","county": "Poopó","VARNAME_2": "NA","NL_NAME_2": "NA","TYPE_2": "Provincia","ENGTYPE_2": "Province","CC_2": "NA","HASC_2": "NA","name": "Poopó.county","area_km2": 1922.967,"hist_schema_id": "Elevation0-9000","hist_area_km2": {"3675": 325.26,"3700": 458.582,"3725": 51.81,"3750": 40.222,"3775": 31.196,"3800": 32.101,"3825": 36.467,"3850": 40.372,"3875": 46.307,"3900": 48.861,"3925": 48.961,"3950": 48.578,"3975": 45.583,"4000": 40.074,"4025": 39.692,"4050": 41.381,"4075": 41.037,"4100": 37.137,"4125": 35.289,"4150": 34.787,"4175": 33.782,"4200": 33.642,"4225": 32.215,"4250": 28.856,"4275": 27.549,"4300": 25.679,"4325": 25.016,"4350": 23.608,"4375": 23.205,"4400": 21.919,"4425": 21.357,"4450": 20.151,"4475": 17.697,"4500": 16.934,"4525": 14.52,"4550": 11.825,"4575": 8.084,"4600": 5.952,"4625": 3.66,"4650": 1.749,"4675": 0.985,"4700": 0.563,"4725": 0.181,"4750": 0.101,"4775": 0.04}}}