{"type": "Feature","bbox": [-66.2784,-17.5258,-66.0702,-17.2781],"geometry": {"type": "MultiPolygon","coordinates": [[[[-66.1282,-17.5122,3108.5972],[-66.1286,-17.505,3076.4485],[-66.1215,-17.5037,2944.499],[-66.1168,-17.4983,2936.1021],[-66.105,-17.4942,2734.6455],[-66.1003,-17.4886,2664.2559],[-66.091,-17.4882,2691.3496],[-66.0846,-17.4784,2742.6399],[-66.0702,-17.4679,3064.2427],[-66.0736,-17.4604,3070.8589],[-66.0779,-17.4586,3072.874],[-66.0783,-17.4561,3107.4282],[-66.0854,-17.4489,3090.5181],[-66.0871,-17.4426,3087.603],[-66.0906,-17.4397,3068.8811],[-66.0933,-17.4335,3022.0767],[-66.0997,-17.4329,3108.4744],[-66.1019,-17.4295,3000.9321],[-66.1016,-17.4264,2975.4971],[-66.1038,-17.4252,2972.7664],[-66.1064,-17.4192,2868.929],[-66.113,-17.4132,2760.0896],[-66.1181,-17.4108,2802.6294],[-66.1176,-17.4077,2705.9685],[-66.126,-17.3905,2751.4775],[-66.1288,-17.3894,2746.5781],[-66.1318,-17.3843,2736.1204],[-66.1348,-17.3841,2809.5903],[-66.1319,-17.3793,2677.02],[-66.1331,-17.3754,2610.0208],[-66.1287,-17.3503,3091.9297],[-66.1295,-17.3465,3209.3394],[-66.1219,-17.3352,3614.6704],[-66.1188,-17.335,3539.3804],[-66.1164,-17.3264,3681.8081],[-66.1181,-17.325,3680.9175],[-66.1198,-17.3156,3935.7368],[-66.1237,-17.3102,3986.0923],[-66.125,-17.3037,4064.2886],[-66.1243,-17.2938,4075.2539],[-66.1299,-17.2829,4224.4785],[-66.1373,-17.2837,4487.0312],[-66.1562,-17.2781,4489.2031],[-66.1601,-17.2789,4340.0312],[-66.1653,-17.2859,4128.4956],[-66.166,-17.2894,4026.8657],[-66.1735,-17.3007,3526.6987],[-66.1753,-17.3115,3333.2166],[-66.1794,-17.3159,3114.0208],[-66.187,-17.3293,2830.4419],[-66.1871,-17.3432,2673.9775],[-66.1983,-17.3745,2554.6147],[-66.207,-17.3704,2562.4504],[-66.2082,-17.3959,2541.4185],[-66.2144,-17.3972,2540.6311],[-66.2179,-17.425,2539.292],[-66.223,-17.4252,2541.4695],[-66.226,-17.4172,2544.5769],[-66.2312,-17.4168,2543.4238],[-66.2376,-17.4235,2653.5225],[-66.2402,-17.4236,2667.989],[-66.2456,-17.4274,2639.1211],[-66.2525,-17.4431,2693.2715],[-66.2706,-17.4554,2704.6592],[-66.2784,-17.4634,2815.4114],[-66.273,-17.474,2964.5691],[-66.2566,-17.4896,3136.7239],[-66.2531,-17.4975,3192.7954],[-66.2402,-17.5045,3103.1899],[-66.2112,-17.5027,3194.7656],[-66.2002,-17.5056,3291.4358],[-66.1623,-17.5258,3077.356],[-66.1485,-17.5197,3159.2891],[-66.1421,-17.5141,3016.6663],[-66.1335,-17.5148,2957.2996],[-66.1282,-17.5122,3108.5972]]]]}
,"properties": {"GID_2": "BOL.2.8_2","GID_0": "BOL","country": "Bolivia","GID_1": "BOL.2_1","province": "Cochabamba","NL_NAME_1": "NA","county": "Cercado","VARNAME_2": "NA","NL_NAME_2": "NA","TYPE_2": "Provincia","ENGTYPE_2": "Province","CC_2": "NA","HASC_2": "NA","name": "Cercado.county","area_km2": 288.0639,"hist_schema_id": "Elevation0-9000","hist_area_km2": {"2525": 0.0405,"2550": 67.8505,"2575": 30.5874,"2600": 16.446,"2625": 13.1887,"2650": 12.5813,"2675": 12.5003,"2700": 10.3359,"2725": 9.4662,"2750": 7.9289,"2775": 7.4029,"2800": 6.7555,"2825": 6.0678,"2850": 5.5217,"2875": 5.0969,"2900": 4.9145,"2925": 4.5708,"2950": 4.793,"2975": 4.4089,"3000": 4.6715,"3025": 4.5504,"3050": 4.429,"3075": 4.6917,"3100": 2.5484,"3125": 1.5171,"3150": 1.2746,"3175": 0.8698,"3200": 0.9105,"3225": 0.7081,"3250": 0.8903,"3275": 0.7081,"3300": 0.6678,"3325": 0.506,"3350": 0.5465,"3375": 0.425,"3400": 0.7084,"3425": 0.587,"3450": 0.4858,"3475": 0.5263,"3500": 0.7489,"3525": 0.7287,"3550": 0.587,"3575": 0.7894,"3600": 0.9108,"3625": 0.4655,"3650": 0.668,"3675": 0.6882,"3700": 0.6072,"3725": 0.8704,"3750": 0.6882,"3775": 0.7692,"3800": 0.587,"3825": 0.668,"3850": 0.6477,"3875": 0.587,"3900": 0.5465,"3925": 0.7894,"3950": 0.5668,"3975": 0.8502,"4000": 0.4656,"4025": 0.4656,"4050": 0.8502,"4075": 1.0324,"4100": 0.9717,"4125": 0.749,"4150": 0.8502,"4175": 0.6478,"4200": 0.83,"4225": 0.911,"4250": 0.7895,"4275": 0.5871,"4300": 0.5466,"4325": 0.3644,"4350": 0.4049,"4375": 0.4859,"4400": 0.3442,"4425": 0.081,"4450": 0.1417,"4475": 0.0405,"4500": 0.0607}}}