{"type": "Feature","bbox": [-67.5596,-15.0462,-67.0737,-14.3433],"geometry": {"type": "MultiPolygon","coordinates": [[[[-67.4285,-14.9222,263.4996],[-67.4277,-14.9259,260.0482],[-67.425,-14.9268,268.6281],[-67.4243,-14.9226,261.0112],[-67.4226,-14.9222,266.7071],[-67.4215,-14.9265,269.418],[-67.4174,-14.929,257.0297],[-67.4176,-14.931,263.059],[-67.4224,-14.9338,261.412],[-67.4205,-14.9401,271.3281],[-67.4229,-14.9447,263.9493],[-67.4127,-14.9505,257.2974],[-67.4182,-14.9554,257.8965],[-67.4167,-14.9605,268.3672],[-67.4207,-14.9642,273.8289],[-67.4192,-14.9708,262.008],[-67.4165,-14.9711,264.5936],[-67.4104,-14.9682,271.1919],[-67.4079,-14.969,269.0862],[-67.4066,-14.9718,268.2896],[-67.41,-14.9753,270.4304],[-67.4116,-14.9823,266.9605],[-67.4166,-14.9873,265.5729],[-67.4147,-14.9916,269.2084],[-67.4127,-14.9932,269.4622],[-67.409,-14.9924,272.3359],[-67.4057,-14.9948,269.8955],[-67.4033,-14.994,273.0233],[-67.3997,-14.9881,279.7829],[-67.3938,-14.9884,279.7224],[-67.3942,-14.9922,277.6826],[-67.4001,-14.9936,280.8091],[-67.4008,-14.9989,272.0541],[-67.3961,-15.0093,272.1027],[-67.3864,-15.0128,272.544],[-67.3861,-15.0198,280.9182],[-67.3815,-15.0196,282.356],[-67.3806,-15.0155,278.2657],[-67.3782,-15.0148,274.113],[-67.3767,-15.0218,274.364],[-67.3734,-15.0271,274.5942],[-67.3676,-15.0282,279.0656],[-67.3623,-15.0331,291.7395],[-67.3604,-15.0315,299.7139],[-67.359,-15.0227,287.4641],[-67.356,-15.0209,276.8955],[-67.3545,-15.0228,286.9968],[-67.3545,-15.0287,283.8951],[-67.3518,-15.0338,280.7403],[-67.3521,-15.0368,288.5003],[-67.3494,-15.0381,283.2803],[-67.3475,-15.0335,277.1835],[-67.3425,-15.0296,290.1116],[-67.3432,-15.0367,292.6467],[-67.3366,-15.0391,280.6983],[-67.335,-15.0448,312.0687],[-67.3294,-15.0377,297.6188],[-67.3216,-15.0455,289.9676],[-67.319,-15.0462,290.0375],[-67.3181,-15.0391,313.0118],[-67.3153,-15.037,287.7946],[-67.3088,-15.0396,299.2162],[-67.3038,-15.0441,317.1813],[-67.3008,-15.0434,300.8777],[-67.3002,-15.0418,293.7045],[-67.3025,-15.0396,298.1065],[-67.3026,-15.0367,287.1732],[-67.2979,-15.0285,293.2873],[-67.2916,-15.027,303.6312],[-67.2883,-15.0299,301.8818],[-67.2872,-15.0282,299.2991],[-67.2857,-15.0288,311.1697],[-67.2827,-15.026,328.6812],[-67.2842,-15.0241,327.5008],[-67.2826,-15.0193,332.1494],[-67.2786,-15.0159,325.6429],[-67.2773,-15.0175,330.4175],[-67.2747,-15.0145,348.6669],[-67.2739,-15.0163,330.1656],[-67.2722,-15.0161,340.6389],[-67.2701,-15.0119,348.0569],[-67.265,-15.01,380.6106],[-67.2614,-15.0062,408.6023],[-67.2567,-15.0058,432.7453],[-67.252,-15.0024,516.8807],[-67.2458,-15.0034,585.7168],[-67.2407,-14.9985,662.8741],[-67.2282,-14.9974,836.7502],[-67.2235,-14.9984,892.0819],[-67.2229,-15.0011,871.9937],[-67.2113,-15.0024,880.3017],[-67.2025,-15.0157,955.6539],[-67.1905,-15.0184,787.473],[-67.1794,-15.0141,679.1038],[-67.1614,-15.0132,322.6613],[-67.1525,-15.0069,311.3451],[-67.152,-15.0032,310.6048],[-67.1465,-15.0031,300.6636],[-67.1448,-15.0001,292.6591],[-67.1463,-14.9983,291.5175],[-67.144,-14.9978,287.2194],[-67.1432,-14.9938,296.3473],[-67.1435,-14.9892,281.99],[-67.1454,-14.9861,281.7992],[-67.1402,-14.9832,280.8391],[-67.1372,-14.9736,270.8736],[-67.1329,-14.9715,267.29],[-67.1337,-14.9668,271.3936],[-67.1282,-14.9553,254.0173],[-67.1231,-14.956,251.5157],[-67.121,-14.9546,252.4229],[-67.1219,-14.9531,252.6036],[-67.1179,-14.9532,257.9035],[-67.1125,-14.9481,258.42],[-67.1024,-14.9556,247.0362],[-67.1008,-14.9543,245.2599],[-67.0958,-14.9551,243.5004],[-67.1148,-14.8954,254.6858],[-67.1155,-14.8772,250.0685],[-67.1182,-14.8688,245.7639],[-67.1163,-14.8589,254.4863],[-67.118,-14.8274,239.0139],[-67.1271,-14.8137,239.7653],[-67.1453,-14.7983,250.7235],[-67.1529,-14.7874,248.1129],[-67.1502,-14.7845,256.0142],[-67.1462,-14.7852,250.4577],[-67.1444,-14.7833,247.6398],[-67.1429,-14.7839,247.5628],[-67.1429,-14.7825,248.8049],[-67.1403,-14.7821,242.7852],[-67.1404,-14.7805,246.0797],[-67.1339,-14.7806,243.1092],[-67.1319,-14.7825,244.683],[-67.1307,-14.7805,252.3896],[-67.124,-14.7852,247.6304],[-67.1158,-14.7821,243.8665],[-67.1135,-14.7828,242.9571],[-67.1125,-14.7792,243.3675],[-67.1107,-14.7783,239.4413],[-67.1066,-14.7796,237.9026],[-67.1042,-14.7787,238.5957],[-67.1036,-14.7726,240.3894],[-67.0996,-14.7728,234.3755],[-67.0998,-14.7616,233.2776],[-67.0952,-14.7543,235.9096],[-67.0963,-14.7517,222.7786],[-67.0942,-14.7498,220.1115],[-67.0978,-14.7475,225.3079],[-67.0985,-14.7414,225.6881],[-67.0965,-14.7355,218.2517],[-67.0928,-14.7354,217.2789],[-67.0881,-14.7315,218.288],[-67.087,-14.7271,221.3841],[-67.0884,-14.7238,216.7025],[-67.0859,-14.7209,214.6056],[-67.0876,-14.7173,220.7994],[-67.0855,-14.7163,225.8612],[-67.0865,-14.7135,221.6518],[-67.0846,-14.7085,217.0444],[-67.0867,-14.7035,218.3658],[-67.0863,-14.6974,218.0887],[-67.0885,-14.6953,218.2908],[-67.0866,-14.6908,218.0204],[-67.0882,-14.6858,214.5778],[-67.0863,-14.6804,216.3989],[-67.0798,-14.6731,211.8393],[-67.0789,-14.6645,205.2926],[-67.0753,-14.6613,212.6594],[-67.0757,-14.6421,202.012],[-67.0737,-14.6361,200.9069],[-67.0936,-14.6059,197.0443],[-67.1458,-14.5501,195.2402],[-67.2282,-14.4567,191.0881],[-67.2662,-14.4097,175.3856],[-67.2695,-14.408,175.6192],[-67.274,-14.4022,175.7516],[-67.2795,-14.4012,175.6507],[-67.2822,-14.3952,175.865],[-67.2809,-14.3896,176.4579],[-67.2871,-14.3875,177.3764],[-67.3007,-14.3883,177.3391],[-67.3038,-14.3851,177.7615],[-67.3092,-14.3832,179.9741],[-67.3209,-14.3895,185.0778],[-67.3245,-14.3933,187.4231],[-67.3391,-14.3982,191.6584],[-67.3429,-14.3913,192.9227],[-67.3481,-14.3859,192.3351],[-67.3528,-14.3847,187.7998],[-67.3542,-14.3797,188.0584],[-67.4256,-14.3781,188.3989],[-67.4918,-14.3578,198.0153],[-67.5009,-14.3507,201.3252],[-67.5138,-14.347,199.8641],[-67.5403,-14.3433,196.8932],[-67.5363,-14.3488,188.0563],[-67.538,-14.3602,183.0],[-67.542,-14.364,194.6924],[-67.5546,-14.3668,193.5335],[-67.5581,-14.3695,189.9533],[-67.5575,-14.3729,183.0],[-67.5436,-14.3811,186.2927],[-67.5417,-14.3861,188.3765],[-67.5426,-14.3905,186.7368],[-67.558,-14.3993,194.6196],[-67.5596,-14.4028,187.2706],[-67.5586,-14.4089,187.0],[-67.5497,-14.4147,194.0714],[-67.5329,-14.4171,197.3716],[-67.5312,-14.4306,199.9983],[-67.5339,-14.4501,209.3851],[-67.5309,-14.4551,191.0],[-67.531,-14.4587,191.0],[-67.5276,-14.4671,191.5],[-67.5224,-14.4688,192.0],[-67.5168,-14.4732,192.5],[-67.5092,-14.493,194.0],[-67.5008,-14.4954,195.0],[-67.4912,-14.4927,197.5],[-67.4851,-14.4942,198.5],[-67.4823,-14.4987,199.0],[-67.4816,-14.5036,199.0],[-67.4833,-14.5082,199.7774],[-67.492,-14.5129,199.5],[-67.4943,-14.5157,199.5],[-67.4967,-14.5223,200.0],[-67.4991,-14.5399,250.2986],[-67.4986,-14.5483,247.803],[-67.5001,-14.5511,202.5],[-67.4994,-14.5609,203.0],[-67.5041,-14.5644,203.5],[-67.5201,-14.5709,214.4608],[-67.5219,-14.5735,213.8688],[-67.5205,-14.5824,217.4011],[-67.5233,-14.5863,209.115],[-67.5276,-14.5897,206.0],[-67.5376,-14.5931,209.8891],[-67.5384,-14.5962,208.0259],[-67.5368,-14.6022,209.4828],[-67.529,-14.6096,226.3819],[-67.5261,-14.615,210.4352],[-67.5257,-14.6274,222.2662],[-67.5294,-14.6326,215.8916],[-67.5294,-14.6372,220.0028],[-67.5216,-14.6392,223.2908],[-67.5198,-14.642,216.2487],[-67.5207,-14.6439,222.6268],[-67.5249,-14.6435,226.5093],[-67.5284,-14.6451,226.7182],[-67.5288,-14.6517,220.7567],[-67.5275,-14.6537,228.5888],[-67.5237,-14.6544,217.9898],[-67.5181,-14.6447,229.5375],[-67.5146,-14.6433,222.8186],[-67.5104,-14.6449,230.0352],[-67.5093,-14.6482,256.8329],[-67.5141,-14.655,213.5],[-67.5131,-14.6593,217.179],[-67.5032,-14.671,224.1139],[-67.4939,-14.6748,229.045],[-67.4896,-14.6786,217.0588],[-67.4979,-14.6836,225.3371],[-67.4972,-14.6863,291.1573],[-67.4861,-14.6888,227.5875],[-67.4757,-14.6866,231.1188],[-67.475,-14.6883,226.685],[-67.4794,-14.6949,231.3628],[-67.4795,-14.6976,229.5831],[-67.4699,-14.7002,234.1841],[-67.4606,-14.7138,234.5434],[-67.442,-14.7263,224.5247],[-67.442,-14.7314,249.8132],[-67.4389,-14.7328,240.8358],[-67.437,-14.736,240.0299],[-67.4339,-14.7372,227.2704],[-67.4295,-14.7355,241.1665],[-67.4262,-14.7364,231.508],[-67.4249,-14.7396,231.5643],[-67.4287,-14.7453,245.2994],[-67.4276,-14.7478,243.9061],[-67.4229,-14.7485,247.4135],[-67.4197,-14.744,241.1846],[-67.4164,-14.7448,230.5731],[-67.4157,-14.7472,231.0115],[-67.4202,-14.7519,229.7369],[-67.4244,-14.7598,231.4311],[-67.4242,-14.7623,239.9535],[-67.4192,-14.766,229.0],[-67.4168,-14.7621,238.0905],[-67.4143,-14.7624,253.0642],[-67.4116,-14.7711,238.0294],[-67.4157,-14.7744,245.1263],[-67.4164,-14.7772,233.7801],[-67.4134,-14.7819,247.9742],[-67.4094,-14.7794,244.2997],[-67.4065,-14.7805,240.076],[-67.4041,-14.7949,240.3793],[-67.4002,-14.7954,246.8869],[-67.3966,-14.7928,242.2863],[-67.393,-14.7941,236.6365],[-67.3942,-14.8014,249.4952],[-67.3968,-14.8041,254.7612],[-67.3995,-14.8133,243.4303],[-67.399,-14.8173,239.5563],[-67.3887,-14.8163,258.3996],[-67.3866,-14.8179,254.2887],[-67.3872,-14.8202,257.9747],[-67.3931,-14.8202,238.0],[-67.3958,-14.8262,241.4684],[-67.4019,-14.8259,240.7236],[-67.4082,-14.8278,247.6996],[-67.4075,-14.8304,242.2569],[-67.3999,-14.8309,259.2081],[-67.3983,-14.8342,260.9527],[-67.4004,-14.8366,260.5699],[-67.4074,-14.8342,250.84],[-67.4098,-14.8352,243.0744],[-67.4094,-14.8371,260.2245],[-67.4046,-14.8389,259.0374],[-67.4027,-14.8414,243.0535],[-67.4044,-14.8444,252.6686],[-67.4086,-14.8408,252.5627],[-67.4108,-14.8426,260.5489],[-67.4105,-14.845,254.944],[-67.4059,-14.8463,256.1527],[-67.4035,-14.8505,245.7622],[-67.4059,-14.8572,246.6646],[-67.41,-14.8611,242.75],[-67.4027,-14.8621,250.4803],[-67.4001,-14.865,246.9479],[-67.402,-14.8672,250.6743],[-67.4081,-14.8657,251.5874],[-67.4119,-14.8666,253.204],[-67.4151,-14.8727,252.724],[-67.4201,-14.8765,254.4458],[-67.4225,-14.8809,252.0485],[-67.4293,-14.8836,260.7835],[-67.4309,-14.8971,255.2447],[-67.4294,-14.8984,271.4967],[-67.4246,-14.8979,259.0057],[-67.4225,-14.9052,260.3503],[-67.4174,-14.9046,265.3003],[-67.4155,-14.9074,253.2032],[-67.4171,-14.9095,261.2324],[-67.4244,-14.9119,257.6243],[-67.4253,-14.9173,263.2224],[-67.4285,-14.9222,263.4996]]]]}
,"properties": {"GID_3": "BOL.3.2.1_2","GID_0": "BOL","country": "Bolivia","GID_1": "BOL.3_1","province": "Beni","NL_NAME_1": "NA","GID_2": "BOL.3.2_2","county": "GeneralJoséBallivián","NL_NAME_2": "NA","city": "PuertoMenordeRurrenabaque","VARNAME_3": "NA","NL_NAME_3": "NA","TYPE_3": "District","ENGTYPE_3": "Distrito","CC_3": "NA","HASC_3": "NA","name": "Puerto_Menorde_Rurrenabaque.city","area_km2": 2529.581,"hist_schema_id": "Elevation0-9000","hist_area_km2": {"175": 69.366,"200": 410.857,"225": 307.785,"250": 223.171,"275": 249.72,"300": 183.769,"325": 170.125,"350": 185.446,"375": 167.165,"400": 112.588,"425": 77.696,"450": 56.073,"475": 42.792,"500": 36.477,"525": 34.736,"550": 31.127,"575": 28.01,"600": 24.504,"625": 21.736,"650": 18.496,"675": 16.24,"700": 13.102,"725": 11.729,"750": 10.293,"775": 7.218,"800": 5.291,"825": 3.753,"850": 3.014,"875": 2.543,"900": 1.579,"925": 1.128,"950": 0.615,"975": 0.533,"1000": 0.41,"1025": 0.246,"1050": 0.226,"1075": 0.021}}}