{"type": "Feature","bbox": [-64.3521,-20.5336,-63.8165,-19.4675],"geometry": {"type": "MultiPolygon","coordinates": [[[[-64.2914,-20.4571,914.3146],[-64.2829,-20.4637,914.3267],[-64.2884,-20.4767,930.1406],[-64.2872,-20.4873,920.0587],[-64.2883,-20.4921,938.2367],[-64.287,-20.4953,894.0862],[-64.2827,-20.4973,920.2714],[-64.275,-20.4974,903.2621],[-64.2729,-20.5034,865.694],[-64.2735,-20.5079,864.7255],[-64.2677,-20.5225,867.4587],[-64.2607,-20.5259,860.8651],[-64.2584,-20.5229,979.3744],[-64.2549,-20.5225,877.1942],[-64.2475,-20.525,844.9674],[-64.2457,-20.5264,842.5785],[-64.2439,-20.5329,840.8354],[-64.2423,-20.5336,838.1928],[-64.2367,-20.5313,871.1163],[-64.2342,-20.5323,867.0532],[-64.2271,-20.5153,990.0473],[-64.2189,-20.5048,1247.2817],[-64.2129,-20.5004,1425.0204],[-64.2123,-20.4965,1439.391],[-64.2141,-20.4946,1408.4004],[-64.2154,-20.4843,1431.0505],[-64.2129,-20.481,1519.084],[-64.2136,-20.4781,1484.9602],[-64.2222,-20.4704,1567.4585],[-64.2207,-20.4623,1474.3751],[-64.2229,-20.4567,1362.1957],[-64.2241,-20.4348,1421.3378],[-64.2226,-20.4337,1416.8745],[-64.2215,-20.4275,1412.2249],[-64.2251,-20.4147,1578.7867],[-64.2239,-20.4122,1550.8024],[-64.2247,-20.4097,1534.0956],[-64.222,-20.4063,1495.7422],[-64.2216,-20.3968,1547.9641],[-64.2175,-20.3963,1445.6376],[-64.2122,-20.3904,1390.0852],[-64.1951,-20.3875,1380.5249],[-64.1906,-20.3886,1333.5739],[-64.1849,-20.3834,1309.0295],[-64.183,-20.3875,1301.1992],[-64.1803,-20.3858,1335.6078],[-64.1745,-20.3859,1270.7869],[-64.1721,-20.3828,1261.1382],[-64.1655,-20.3797,1309.7976],[-64.1551,-20.3811,1373.8906],[-64.1515,-20.3834,1353.6334],[-64.1338,-20.3808,1324.676],[-64.13,-20.3819,1326.0117],[-64.1258,-20.3861,1465.2369],[-64.1197,-20.3845,1503.0713],[-64.1108,-20.3848,1333.0157],[-64.1027,-20.3901,1353.0636],[-64.0909,-20.3922,1311.474],[-64.0871,-20.3953,1304.4484],[-64.0782,-20.4088,1262.0178],[-64.0699,-20.4109,1249.1055],[-64.0538,-20.4234,1683.3087],[-64.0498,-20.424,1831.2935],[-64.0503,-20.4133,1784.2546],[-64.0528,-20.4126,1617.2902],[-64.0532,-20.4097,1575.2329],[-64.0478,-20.3986,1302.9435],[-64.0482,-20.3846,1271.2275],[-64.0443,-20.3812,1398.8831],[-64.0451,-20.3781,1479.5446],[-64.0439,-20.3765,1604.7883],[-64.0469,-20.3704,1706.5396],[-64.0472,-20.3608,1807.0183],[-64.0497,-20.3585,1788.9797],[-64.0509,-20.3519,1724.4773],[-64.0486,-20.3457,1802.0154],[-64.054,-20.3371,1863.1801],[-64.0514,-20.332,1854.088],[-64.0458,-20.3265,1870.4851],[-64.0499,-20.3132,1910.5581],[-64.0537,-20.3122,1937.3621],[-64.0524,-20.2942,1912.8312],[-64.0459,-20.2834,2057.0063],[-64.0494,-20.276,1967.6005],[-64.0494,-20.2695,1954.6877],[-64.0463,-20.2651,1959.4718],[-64.0446,-20.2581,2051.8562],[-64.0416,-20.2556,2108.0833],[-64.0391,-20.2386,2092.446],[-64.0445,-20.2121,2055.0684],[-64.0421,-20.2095,2129.3013],[-64.0384,-20.2094,2134.4741],[-64.0346,-20.2064,2153.5146],[-64.0392,-20.1832,2160.1538],[-64.048,-20.1557,2082.8901],[-64.0451,-20.1415,2107.5332],[-64.0517,-20.1263,1981.8596],[-64.047,-20.1071,2175.2961],[-64.053,-20.098,2078.2627],[-64.0521,-20.0925,2123.4341],[-64.0537,-20.08,2151.8564],[-64.0529,-20.0757,2140.5999],[-64.0481,-20.0697,2261.509],[-64.0425,-20.0688,1978.1494],[-64.0363,-20.0713,1730.1951],[-64.0264,-20.0807,1598.7599],[-64.0152,-20.0834,1401.4882],[-63.9905,-20.0795,1241.2208],[-63.9767,-20.0823,1229.0164],[-63.9596,-20.0903,1220.3604],[-63.957,-20.0975,1280.9139],[-63.9441,-20.1074,1306.5643],[-63.94,-20.1083,1280.7451],[-63.9354,-20.1282,1345.71],[-63.9333,-20.1322,1304.1421],[-63.9341,-20.138,1294.0398],[-63.9275,-20.143,1339.7988],[-63.9261,-20.1489,1371.9968],[-63.9289,-20.1512,1415.5276],[-63.9181,-20.1685,1347.7861],[-63.9184,-20.1784,1325.7161],[-63.9209,-20.1822,1328.1263],[-63.9204,-20.1899,1292.7355],[-63.9227,-20.1912,1327.6025],[-63.9226,-20.1978,1201.2119],[-63.9257,-20.2009,1078.9191],[-63.9262,-20.2045,1073.9449],[-63.9229,-20.2195,1121.4448],[-63.9233,-20.2239,1212.6216],[-63.9207,-20.2275,1248.3105],[-63.9206,-20.2325,1286.6257],[-63.9246,-20.2359,1298.3635],[-63.9233,-20.2447,1139.5687],[-63.9206,-20.2511,1220.9729],[-63.9201,-20.2573,1365.8938],[-63.9145,-20.2701,1396.0803],[-63.9035,-20.3177,1611.8777],[-63.9066,-20.3482,1677.5763],[-63.9052,-20.3578,1723.5428],[-63.9093,-20.3696,1743.5574],[-63.9087,-20.3731,1777.9414],[-63.905,-20.3751,1627.4927],[-63.8981,-20.3726,1382.3525],[-63.8926,-20.3735,1330.2822],[-63.8893,-20.3719,1324.6398],[-63.8799,-20.372,1270.6814],[-63.8755,-20.3682,1209.176],[-63.8642,-20.3648,1151.7756],[-63.8599,-20.3582,1121.1211],[-63.8576,-20.3666,1134.1879],[-63.8553,-20.3693,1137.6421],[-63.8507,-20.3704,1182.0481],[-63.8501,-20.3746,1150.8738],[-63.846,-20.3733,1181.1666],[-63.8417,-20.3756,1173.4641],[-63.839,-20.3748,1178.8379],[-63.835,-20.3766,1189.4266],[-63.8337,-20.3748,1201.1877],[-63.8304,-20.3761,1183.1869],[-63.8319,-20.3781,1195.4564],[-63.8308,-20.382,1213.1267],[-63.826,-20.3821,1244.0903],[-63.8221,-20.385,1238.0787],[-63.8201,-20.3827,1317.3889],[-63.8183,-20.3448,1370.1718],[-63.8166,-20.3413,1305.6763],[-63.8179,-20.3338,1281.4518],[-63.8165,-20.3176,1199.6816],[-63.8202,-20.3129,1199.927],[-63.8244,-20.3129,1193.4954],[-63.8257,-20.3136,1140.8932],[-63.8252,-20.3149,1149.2017],[-63.8312,-20.3173,1130.7115],[-63.8347,-20.3228,1103.676],[-63.8362,-20.2969,1209.0339],[-63.8324,-20.2767,1258.3756],[-63.8362,-20.2273,1180.1606],[-63.8371,-20.1689,1055.9199],[-63.8354,-20.1609,1045.1333],[-63.8395,-20.1467,1221.7698],[-63.8383,-20.1288,1295.6115],[-63.8448,-20.1134,1293.061],[-63.8423,-20.049,1740.0173],[-63.8393,-20.0375,1783.8452],[-63.8406,-19.9936,1633.0693],[-63.8449,-19.9876,1639.6257],[-63.8437,-19.9785,1667.1814],[-63.84,-19.9717,1737.0245],[-63.839,-19.9361,1703.1174],[-63.84,-19.9057,1703.1896],[-63.8381,-19.9016,1733.3422],[-63.8408,-19.8902,1719.6365],[-63.8462,-19.8851,1667.137],[-63.8474,-19.8563,1627.8433],[-63.8643,-19.8371,1392.5734],[-63.8746,-19.8195,1467.9482],[-63.887,-19.7929,1373.0449],[-63.8896,-19.7783,1632.9551],[-63.9029,-19.732,1748.322],[-63.9011,-19.7141,2003.3387],[-63.9049,-19.6605,2146.8164],[-63.9048,-19.6481,2007.314],[-63.9024,-19.635,1953.5105],[-63.9101,-19.6135,2051.8804],[-63.908,-19.6079,1978.6022],[-63.9078,-19.5721,1954.8049],[-63.9108,-19.5525,2006.632],[-63.9103,-19.5414,1888.108],[-63.9155,-19.5216,2129.8091],[-63.913,-19.5063,1788.6807],[-63.9153,-19.4928,1688.9865],[-63.9205,-19.4855,1882.5179],[-63.9225,-19.4772,1827.608],[-63.9272,-19.4764,1792.5311],[-63.9324,-19.4712,1433.8402],[-63.9457,-19.4675,1153.6675],[-63.9548,-19.4675,1014.5762],[-63.9625,-19.4729,995.8442],[-63.9688,-19.4729,895.2837],[-63.9722,-19.4711,887.4755],[-63.9775,-19.4759,921.3842],[-63.9771,-19.477,886.8738],[-63.9723,-19.477,891.1074],[-63.9705,-19.4805,890.7685],[-63.9786,-19.4859,974.6284],[-63.9783,-19.4879,892.8285],[-63.9734,-19.4878,954.7125],[-63.9724,-19.4895,887.5955],[-63.9735,-19.4925,889.7675],[-63.9771,-19.4933,901.9363],[-63.9759,-19.4954,908.6434],[-63.9783,-19.4997,897.3439],[-63.9761,-19.5042,1031.2927],[-63.9795,-19.508,914.5659],[-63.9735,-19.5109,921.3225],[-63.9721,-19.5143,960.0488],[-63.9745,-19.5204,915.4816],[-63.9738,-19.5257,1005.8624],[-63.9785,-19.5274,926.4117],[-63.9784,-19.5358,917.5126],[-63.9815,-19.541,923.0519],[-63.9847,-19.5407,980.1638],[-63.9862,-19.5424,930.4198],[-63.9846,-19.5449,947.0988],[-63.9815,-19.5431,929.4563],[-63.9793,-19.5452,932.9291],[-63.9826,-19.5506,926.4312],[-63.9797,-19.5552,946.4512],[-63.9825,-19.5578,975.1796],[-63.9848,-19.5641,936.2309],[-63.9889,-19.5649,936.2076],[-63.9914,-19.5628,994.6218],[-63.994,-19.5629,1036.2218],[-64.0036,-19.5749,946.7974],[-64.011,-19.581,963.7595],[-64.0298,-19.5852,1016.9477],[-64.0378,-19.5847,1003.163],[-64.0403,-19.5828,1085.1925],[-64.0516,-19.5846,984.2629],[-64.0528,-19.5884,995.579],[-64.0502,-19.5902,1030.5361],[-64.05,-19.5926,1005.53],[-64.0585,-19.5957,991.2612],[-64.0592,-19.592,1005.9771],[-64.0612,-19.591,1013.9646],[-64.062,-19.5996,997.9072],[-64.0582,-19.602,1021.4864],[-64.0692,-19.605,1068.3519],[-64.0682,-19.6068,1024.0352],[-64.064,-19.6057,1085.1438],[-64.0651,-19.614,1059.3514],[-64.0685,-19.6132,1020.9081],[-64.0709,-19.6098,1035.1577],[-64.0695,-19.6078,1033.3076],[-64.0726,-19.606,1148.1572],[-64.0731,-19.6086,1060.9261],[-64.0762,-19.6113,1031.0253],[-64.0832,-19.611,1132.5699],[-64.079,-19.6291,1506.6986],[-64.0804,-19.6541,1578.8865],[-64.083,-19.6674,1828.8817],[-64.0806,-19.6704,1712.5024],[-64.0809,-19.6789,1772.8177],[-64.0785,-19.683,1718.4792],[-64.0799,-19.6888,1835.8461],[-64.0941,-19.69,1330.149],[-64.1091,-19.6884,1132.0276],[-64.1175,-19.69,1162.8335],[-64.1222,-19.6882,1186.9197],[-64.1261,-19.6899,1254.3582],[-64.1273,-19.6849,1507.5841],[-64.1342,-19.6865,1413.9565],[-64.1413,-19.6905,1524.4194],[-64.1477,-19.6911,1649.9412],[-64.1549,-19.6879,1875.0767],[-64.1651,-19.6765,2298.2312],[-64.165,-19.6879,2350.7578],[-64.1602,-19.6968,2410.144],[-64.1653,-19.7016,2395.7786],[-64.168,-19.712,2298.1533],[-64.1599,-19.7226,2228.7986],[-64.1638,-19.7259,2174.1013],[-64.1688,-19.7388,2207.7632],[-64.165,-19.7488,2184.1221],[-64.1582,-19.7568,2217.241],[-64.1619,-19.7641,2248.8591],[-64.1641,-19.7923,2228.092],[-64.1603,-19.8229,2038.0662],[-64.1617,-19.8255,2027.9625],[-64.1608,-19.8329,2142.2122],[-64.1622,-19.8372,2103.9487],[-64.1605,-19.8434,2028.771],[-64.1626,-19.8483,2082.5784],[-64.1661,-19.8508,2080.9224],[-64.1674,-19.86,1696.7585],[-64.1749,-19.8628,1515.3977],[-64.1766,-19.8653,1421.8245],[-64.1747,-19.8706,1332.933],[-64.1766,-19.8739,1304.2694],[-64.1817,-19.8749,1321.6305],[-64.1833,-19.8702,1368.5094],[-64.1861,-19.871,1311.7306],[-64.1877,-19.8697,1316.2823],[-64.1882,-19.8733,1372.7423],[-64.1941,-19.8746,1387.583],[-64.2026,-19.8685,1551.8345],[-64.2184,-19.8628,1993.199],[-64.233,-19.855,2739.603],[-64.2415,-19.8569,2609.6133],[-64.247,-19.8671,2432.3857],[-64.2579,-19.8661,2347.7114],[-64.2647,-19.8619,2481.7642],[-64.2786,-19.8585,2729.1677],[-64.287,-19.8612,2917.8743],[-64.2937,-19.8597,3147.7629],[-64.2985,-19.8618,3240.5574],[-64.3103,-19.8603,3354.2256],[-64.3167,-19.8707,3176.1204],[-64.3164,-19.8756,3194.6565],[-64.3186,-19.8815,3045.2886],[-64.3168,-19.8907,3042.259],[-64.3208,-19.91,2976.8574],[-64.3263,-19.9183,3013.228],[-64.3267,-19.9213,2969.7388],[-64.3201,-19.9588,2549.0269],[-64.3208,-19.9754,2883.0776],[-64.3298,-19.9856,2872.1587],[-64.3326,-19.9859,2786.9834],[-64.3352,-19.982,2693.4734],[-64.3503,-19.9861,3050.6902],[-64.3521,-20.0049,3193.9556],[-64.3448,-20.0145,3170.7002],[-64.3427,-20.0241,2985.7151],[-64.3364,-20.0275,2932.9944],[-64.3314,-20.0418,2908.5935],[-64.3177,-20.0454,2798.1255],[-64.3118,-20.0662,2590.0684],[-64.3029,-20.0729,2741.6228],[-64.2984,-20.0802,2685.5049],[-64.2922,-20.1034,2489.0378],[-64.2913,-20.1123,2184.4148],[-64.2994,-20.1301,2256.6367],[-64.3004,-20.141,2358.78],[-64.3148,-20.1508,2611.0044],[-64.3131,-20.1595,2644.8694],[-64.3159,-20.1684,2664.4028],[-64.3148,-20.177,2760.6514],[-64.3162,-20.1834,2761.1511],[-64.3107,-20.1916,2790.1545],[-64.3018,-20.1935,2576.5303],[-64.2979,-20.2142,2431.9165],[-64.2942,-20.221,2476.2646],[-64.296,-20.2295,2345.3909],[-64.2963,-20.2515,1753.2616],[-64.2895,-20.2548,1743.3585],[-64.2853,-20.2588,1686.1245],[-64.2871,-20.2622,1711.1287],[-64.2924,-20.2593,1935.4042],[-64.301,-20.2603,2005.3785],[-64.3134,-20.2778,2574.4634],[-64.3001,-20.2985,1920.2758],[-64.2991,-20.306,1894.6584],[-64.2909,-20.3232,1592.7632],[-64.2897,-20.3286,1552.7789],[-64.2915,-20.3296,1620.0891],[-64.2885,-20.3344,1584.9565],[-64.2902,-20.3374,1479.5059],[-64.2897,-20.3422,1448.0063],[-64.2875,-20.3442,1460.7261],[-64.2897,-20.3479,1437.5699],[-64.2896,-20.3522,1362.3662],[-64.287,-20.3624,1310.3293],[-64.2891,-20.3648,1343.5134],[-64.2899,-20.3699,1309.7773],[-64.2887,-20.3699,1343.1201],[-64.2895,-20.3737,1301.2927],[-64.2877,-20.3754,1298.9927],[-64.2907,-20.3773,1270.386],[-64.2839,-20.3796,1206.9062],[-64.2803,-20.3913,1200.2991],[-64.2828,-20.3921,1177.272],[-64.2829,-20.3946,1167.1599],[-64.2865,-20.3973,1178.5552],[-64.288,-20.3968,1184.5358],[-64.2865,-20.3996,1144.754],[-64.2898,-20.4037,1131.5811],[-64.2911,-20.4098,1168.8428],[-64.2893,-20.4142,1102.9741],[-64.2915,-20.4182,1127.0841],[-64.2917,-20.4296,1099.6069],[-64.2886,-20.4332,1046.4803],[-64.2906,-20.4356,995.9826],[-64.2914,-20.4411,1065.7417],[-64.2881,-20.4462,995.0527],[-64.29,-20.4489,940.188],[-64.2887,-20.4537,999.2158],[-64.2914,-20.4571,914.3146]]]]}
,"properties": {"GID_3": "BOL.1.3.2_2","GID_0": "BOL","country": "Bolivia","GID_1": "BOL.1_1","province": "Chuquisaca","NL_NAME_1": "NA","GID_2": "BOL.1.3_2","county": "HernandoSiles","NL_NAME_2": "NA","city": "Monteagudo","VARNAME_3": "NA","NL_NAME_3": "NA","TYPE_3": "District","ENGTYPE_3": "Distrito","CC_3": "NA","HASC_3": "NA","name": "Monteagudo.city","area_km2": 3390.388,"hist_schema_id": "Elevation0-9000","hist_area_km2": {"850": 0.477,"875": 0.775,"900": 2.768,"925": 8.244,"950": 14.877,"975": 21.303,"1000": 28.912,"1025": 38.732,"1050": 47.317,"1075": 58.826,"1100": 73.462,"1125": 97.071,"1150": 118.256,"1175": 127.332,"1200": 124.935,"1225": 120.612,"1250": 111.739,"1275": 108.75,"1300": 101.832,"1325": 97.59,"1350": 92.21,"1375": 92.809,"1400": 88.768,"1425": 85.002,"1450": 83.688,"1475": 81.076,"1500": 80.861,"1525": 81.019,"1550": 79.069,"1575": 78.752,"1600": 79.445,"1625": 74.664,"1650": 71.8,"1675": 68.489,"1700": 65.362,"1725": 63.35,"1750": 59.861,"1775": 56.515,"1800": 56.236,"1825": 54.324,"1850": 50.303,"1875": 46.018,"1900": 44.266,"1925": 42.253,"1950": 36.295,"1975": 35.558,"2000": 30.736,"2025": 27.987,"2050": 25.716,"2075": 22.608,"2100": 20.537,"2125": 18.247,"2150": 16.454,"2175": 14.762,"2200": 12.91,"2225": 11.177,"2250": 9.463,"2275": 9.344,"2300": 8.626,"2325": 7.431,"2350": 7.471,"2375": 6.376,"2400": 6.396,"2425": 6.197,"2450": 5.838,"2475": 4.941,"2500": 5.4,"2525": 5.34,"2550": 4.862,"2575": 5.041,"2600": 4.224,"2625": 4.005,"2650": 3.706,"2675": 3.308,"2700": 3.228,"2725": 2.909,"2750": 2.77,"2775": 2.312,"2800": 1.794,"2825": 1.933,"2850": 1.435,"2875": 1.495,"2900": 1.375,"2925": 1.355,"2950": 1.276,"2975": 1.256,"3000": 1.236,"3025": 0.897,"3050": 0.897,"3075": 0.578,"3100": 0.578,"3125": 0.578,"3150": 0.498,"3175": 0.239,"3200": 0.319,"3225": 0.14,"3250": 0.159,"3275": 0.06,"3300": 0.06,"3325": 0.06,"3350": 0.04}}}