{"type": "Feature","bbox": [-69.3407,-15.7465,-69.0712,-15.437],"geometry": {"type": "MultiPolygon","coordinates": [[[[-69.2899,-15.743,3808.5],[-69.2905,-15.7435,3808.5],[-69.2894,-15.7465,3808.5],[-69.2888,-15.7457,3808.5],[-69.2899,-15.743,3808.5]]],
[[[-69.2119,-15.7135,3808.5],[-69.2121,-15.7137,3808.5],[-69.2119,-15.7139,3808.5],[-69.2117,-15.7137,3808.5],[-69.2119,-15.7135,3808.5]]],
[[[-69.3207,-15.6944,3811.6038],[-69.3293,-15.6811,3814.5649],[-69.3376,-15.6778,3809.4326],[-69.3407,-15.6713,3808.5],[-69.3407,-15.6749,3810.8679],[-69.3388,-15.6776,3810.9226],[-69.3243,-15.6891,3808.5],[-69.3232,-15.6927,3816.7366],[-69.3207,-15.6944,3811.6038]]],
[[[-69.2115,-15.712,3808.5],[-69.2117,-15.7124,3808.5],[-69.2116,-15.7126,3808.5],[-69.2114,-15.7122,3808.5],[-69.2115,-15.712,3808.5]]],
[[[-69.2113,-15.709,3808.5],[-69.2118,-15.7111,3808.5],[-69.2113,-15.7116,3808.5],[-69.211,-15.7099,3808.5],[-69.2113,-15.709,3808.5]]],
[[[-69.1178,-15.6117,3916.927],[-69.1151,-15.6125,3957.001],[-69.1071,-15.6098,3909.4417],[-69.0958,-15.6095,4090.7197],[-69.092,-15.5947,4140.9072],[-69.1115,-15.5821,4187.4629],[-69.1017,-15.5633,3988.3408],[-69.1048,-15.5587,4020.9194],[-69.0933,-15.5472,3955.0134],[-69.088,-15.5466,3843.0742],[-69.0877,-15.5428,3844.5059],[-69.091,-15.5427,3843.7607],[-69.0915,-15.5391,3844.5029],[-69.0944,-15.5395,3844.7534],[-69.0942,-15.5373,3844.9583],[-69.0984,-15.5359,3854.9395],[-69.0979,-15.534,3846.948],[-69.1034,-15.5315,3848.6489],[-69.0736,-15.4872,4090.0701],[-69.0712,-15.481,3888.7534],[-69.0766,-15.4758,4113.7095],[-69.0796,-15.4699,4143.8652],[-69.088,-15.4736,4159.7988],[-69.1073,-15.4778,3923.9858],[-69.1232,-15.485,3891.2041],[-69.1194,-15.4954,3925.1267],[-69.1104,-15.4955,4054.7202],[-69.098,-15.502,4034.9026],[-69.0985,-15.5045,4032.8992],[-69.1056,-15.5088,4027.3818],[-69.116,-15.5094,4071.8198],[-69.1195,-15.5069,4102.5894],[-69.1243,-15.5146,3859.4536],[-69.1309,-15.5063,3865.3088],[-69.1341,-15.5069,3866.0347],[-69.1337,-15.5049,3866.1609],[-69.142,-15.5059,3870.4229],[-69.1451,-15.5002,3875.2476],[-69.1385,-15.4971,3885.3384],[-69.132,-15.49,3886.1646],[-69.1455,-15.4935,3883.5083],[-69.1616,-15.5028,4151.8242],[-69.1678,-15.5081,4230.7173],[-69.1694,-15.507,4231.2651],[-69.171,-15.5146,4178.9854],[-69.1749,-15.5182,4081.3701],[-69.1898,-15.5241,4035.3003],[-69.2003,-15.525,4052.252],[-69.1974,-15.5162,4051.9414],[-69.201,-15.4933,3981.9568],[-69.2124,-15.4772,3999.7563],[-69.2406,-15.4606,4089.8616],[-69.2534,-15.4696,4144.1089],[-69.2905,-15.437,3958.4346],[-69.3025,-15.4599,3913.9941],[-69.3159,-15.4695,4151.5508],[-69.3049,-15.4802,4156.731],[-69.3088,-15.4884,4005.5459],[-69.3125,-15.4908,4004.1165],[-69.3136,-15.4935,4002.428],[-69.309,-15.4979,4001.5918],[-69.3085,-15.5031,3985.3083],[-69.3143,-15.5131,4049.1333],[-69.3143,-15.5183,4046.8999],[-69.3309,-15.537,3820.9565],[-69.3265,-15.5386,3808.5],[-69.3254,-15.5438,3818.9814],[-69.3211,-15.543,3893.8186],[-69.3206,-15.5468,3814.8376],[-69.3138,-15.5463,3934.2622],[-69.3129,-15.5501,3808.5],[-69.3088,-15.5516,3808.5],[-69.2998,-15.5506,3913.3384],[-69.2927,-15.5537,3811.2915],[-69.2815,-15.563,3808.5],[-69.2785,-15.5689,3818.1118],[-69.2804,-15.5753,3812.7993],[-69.2911,-15.5772,3870.0625],[-69.2928,-15.5757,3813.2451],[-69.2949,-15.5776,3848.3906],[-69.2938,-15.5823,3819.8662],[-69.2875,-15.5917,3818.9604],[-69.2888,-15.6015,3821.9124],[-69.2916,-15.6038,3811.0974],[-69.2949,-15.6008,3809.5],[-69.299,-15.6003,3826.1365],[-69.3042,-15.6019,3818.8979],[-69.305,-15.6053,3836.2986],[-69.3041,-15.6067,3808.5],[-69.301,-15.6057,3892.0605],[-69.299,-15.607,3937.1882],[-69.2978,-15.6137,3836.4438],[-69.2906,-15.6266,3842.1221],[-69.286,-15.629,3916.3752],[-69.2838,-15.6325,3832.5012],[-69.28,-15.6322,3808.5],[-69.2779,-15.6307,3808.5],[-69.278,-15.6278,3811.2517],[-69.2747,-15.627,3814.8584],[-69.2695,-15.6294,3811.8013],[-69.27,-15.6334,3811.5752],[-69.266,-15.6337,3813.6316],[-69.2666,-15.6372,3810.6484],[-69.2706,-15.6372,3821.6714],[-69.2687,-15.6412,3812.72],[-69.2657,-15.6407,3808.5],[-69.2665,-15.6379,3810.6484],[-69.2633,-15.6368,3850.0994],[-69.2585,-15.6413,3808.5],[-69.2591,-15.6461,3808.5],[-69.2569,-15.6468,3859.5439],[-69.2644,-15.6538,3885.8733],[-69.2621,-15.6611,3947.5479],[-69.2621,-15.669,3831.8442],[-69.2578,-15.6715,3814.5903],[-69.2568,-15.6752,3814.2415],[-69.2428,-15.6803,3811.1013],[-69.2331,-15.6771,3809.7654],[-69.2314,-15.6728,3809.4155],[-69.2262,-15.6711,3824.2407],[-69.2219,-15.6769,3808.5],[-69.2113,-15.6773,3809.5339],[-69.1995,-15.6676,3811.0508],[-69.1938,-15.667,3810.4358],[-69.1882,-15.6564,3810.4958],[-69.1841,-15.6597,3810.7383],[-69.1808,-15.6549,3921.3372],[-69.1838,-15.6515,3972.9292],[-69.1823,-15.6472,4046.1255],[-69.1831,-15.6453,4047.7695],[-69.176,-15.6409,4143.3896],[-69.1807,-15.6305,4151.4053],[-69.1791,-15.6279,4064.7234],[-69.18,-15.6255,4033.2327],[-69.1873,-15.612,4081.9204],[-69.194,-15.6055,4032.5046],[-69.1979,-15.6,4045.2556],[-69.1971,-15.598,4027.2407],[-69.2054,-15.5884,4063.1582],[-69.205,-15.573,4255.7236],[-69.2021,-15.5714,4247.7681],[-69.1972,-15.553,4204.1084],[-69.1948,-15.5553,4147.6621],[-69.1851,-15.5576,4104.354],[-69.1725,-15.5631,4128.5439],[-69.1516,-15.5802,4307.9507],[-69.1339,-15.5903,4238.9209],[-69.125,-15.599,4138.9824],[-69.1252,-15.6054,3981.064],[-69.1178,-15.6117,3916.927]]]]}
,"properties": {"GID_3": "BOL.4.5.5_2","GID_0": "BOL","country": "Bolivia","GID_1": "BOL.4_1","province": "LaPaz","NL_NAME_1": "NA","GID_2": "BOL.4.5_2","county": "Camacho","NL_NAME_2": "NA","city": "PuertoAcosta","VARNAME_3": "NA","NL_NAME_3": "NA","TYPE_3": "District","ENGTYPE_3": "Distrito","CC_3": "NA","HASC_3": "NA","name": "Puerto_Acosta.city","area_km2": 353.7106,"hist_schema_id": "Elevation0-9000","hist_area_km2": {"3800": 4.9612,"3825": 38.5329,"3850": 21.9341,"3875": 17.7899,"3900": 15.9524,"3925": 16.3607,"3950": 16.4839,"3975": 19.5897,"4000": 23.2262,"4025": 25.0241,"4050": 27.4138,"4075": 24.0432,"4100": 24.3487,"4125": 20.4272,"4150": 15.8105,"4175": 12.256,"4200": 9.437,"4225": 8.2929,"4250": 4.8817,"4275": 3.3907,"4300": 1.7565,"4325": 0.7761,"4350": 0.674,"4375": 0.3063,"4400": 0.0408}}}