{"type": "Feature","id": "1293","bbox": [-67.56817,-16.46856,-61.59306,-10.39207],"geometry": {"type": "Polygon","coordinates": [[[-65.29247,-11.50472,121.5],[-65.31955,-11.4764,142.7317],[-65.35301,-11.39062,153.6474],[-65.35477,-11.38235,154.9862],[-65.35373,-11.37243,155.2357],[-65.34751,-11.36075,153.9178],[-65.33006,-11.3405,137.1431],[-65.32645,-11.32778,138.6679],[-65.33482,-11.32117,144.6354],[-65.35391,-11.31063,147.3643],[-65.37448,-11.29585,134.4403],[-65.38727,-11.27755,146.1205],[-65.38861,-11.25316,127.4352],[-65.37861,-11.242,134.1646],[-65.36606,-11.23404,130.7299],[-65.36001,-11.21885,121.5],[-65.36833,-11.20541,133.9494],[-65.3852,-11.19363,134.1659],[-65.39815,-11.17802,135.4081],[-65.39474,-11.15343,126.0409],[-65.37967,-11.13637,127.4176],[-65.34105,-11.10661,138.1212],[-65.33329,-11.08852,142.415],[-65.33704,-11.06775,151.1296],[-65.3427,-11.05059,149.2069],[-65.34198,-11.03281,138.8393],[-65.32645,-11.00935,150.6703],[-65.31784,-11.00201,143.683],[-65.30965,-10.99664,139.7213],[-65.30299,-10.99075,139.4171],[-65.29911,-10.98207,140.8912],[-65.2996,-10.96967,126.1032],[-65.30451,-10.96202,137.3437],[-65.31012,-10.95654,139.2321],[-65.31278,-10.95096,127.9056],[-65.31898,-10.86538,132.199],[-65.32712,-10.8505,134.7083],[-65.34218,-10.83489,130.1201],[-65.3603,-10.82259,135.7391],[-65.3997,-10.81226,145.3078],[-65.40474,-10.79924,156.7029],[-65.38978,-10.75376,136.4256],[-65.38226,-10.71562,131.3174],[-65.38107,-10.69805,134.3752],[-65.38675,-10.66953,149.1658],[-65.40078,-10.65547,131.4365],[-65.41861,-10.64452,127.977],[-65.43569,-10.62581,141.6519],[-65.43564,-10.61082,143.2048],[-65.42923,-10.56142,149.1463],[-65.432,-10.55067,132.4962],[-65.4359,-10.54695,167.1646],[-65.43931,-10.53817,149.4742],[-65.44163,-10.52783,144.0271],[-65.44249,-10.51936,139.7061],[-65.44148,-10.51336,138.22],[-65.43672,-10.50406,127.9477],[-65.43569,-10.4992,128.7373],[-65.43791,-10.49259,132.7365],[-65.44998,-10.47492,152.5837],[-65.44998,-10.46809,161.0634],[-65.42538,-10.46313,105.375],[-65.41094,-10.44918,139.6967],[-65.38727,-10.4067,129.0476],[-65.39143,-10.4035,133.3661],[-65.39308,-10.40019,118.0913],[-65.39474,-10.39244,104.0],[-65.39465,-10.39207,104.0],[-65.39533,-10.39218,104.0],[-65.44786,-10.40076,136.2386],[-65.46424,-10.40644,152.6767],[-65.4785,-10.41724,165.8819],[-65.49667,-10.43616,127.8785],[-65.51222,-10.45817,161.3692],[-65.51886,-10.47812,151.6513],[-65.52625,-10.48659,150.0207],[-65.61304,-10.5284,124.315],[-65.63232,-10.5423,135.009],[-65.65229,-10.56039,129.0833],[-65.67392,-10.57155,121.1459],[-65.6957,-10.56861,116.6608],[-65.71725,-10.5606,148.7357],[-65.73797,-10.55667,148.7406],[-65.76143,-10.56411,152.7578],[-65.76399,-10.58003,154.3847],[-65.75709,-10.60049,142.7828],[-65.75223,-10.62214,144.2953],[-65.75151,-10.64736,131.4673],[-65.75311,-10.667,126.5371],[-65.76267,-10.6839,132.7682],[-65.78575,-10.70126,140.6842],[-65.82923,-10.71712,127.7117],[-65.85623,-10.72301,131.0461],[-65.8683,-10.71836,128.5939],[-65.87311,-10.70818,132.556],[-65.88453,-10.6933,110.4289],[-65.89807,-10.67976,153.7617],[-65.90928,-10.67397,151.502],[-65.92178,-10.6824,152.168],[-65.93576,-10.70095,148.1926],[-65.94243,-10.7195,153.6349],[-65.93315,-10.72798,149.855],[-65.91424,-10.7334,147.048],[-65.89809,-10.74689,107.0],[-65.88672,-10.76482,131.9164],[-65.88197,-10.78322,129.5004],[-65.89504,-10.81174,133.187],[-65.93016,-10.80973,127.7881],[-65.97359,-10.79598,108.0],[-66.01168,-10.78942,138.5464],[-66.03462,-10.79841,134.3843],[-66.07578,-10.83076,122.9165],[-66.10792,-10.84068,127.1366],[-66.10777,-10.84714,140.7649],[-66.10195,-10.85407,124.0155],[-66.09485,-10.8583,119.2106],[-66.08438,-10.85779,119.34],[-66.06356,-10.84952,135.6678],[-66.05328,-10.85148,138.202],[-66.04534,-10.86755,121.3213],[-66.05343,-10.88848,135.3441],[-66.06635,-10.9107,119.1348],[-66.07805,-10.95111,134.846],[-66.09035,-10.96998,116.0],[-66.10611,-10.9785,128.8558],[-66.12154,-10.96817,130.6707],[-66.13061,-10.98181,138.7418],[-66.14136,-11.01178,129.0104],[-66.14211,-11.04775,127.394],[-66.14722,-11.08062,122.568],[-66.17118,-11.10082,120.7372],[-66.18776,-11.09927,137.3855],[-66.2051,-11.09431,133.2317],[-66.21784,-11.09772,125.0643],[-66.22066,-11.12118,140.4152],[-66.21231,-11.15746,126.292],[-66.21153,-11.17461,135.4825],[-66.21885,-11.19311,123.174],[-66.25541,-11.23771,136.853],[-66.26412,-11.25394,120.5],[-66.26776,-11.2773,127.8054],[-66.26058,-11.28959,137.4708],[-66.24996,-11.29884,121.5],[-66.24316,-11.31295,136.8775],[-66.25463,-11.33166,122.0],[-66.30892,-11.34448,136.4694],[-66.31173,-11.3654,136.0913],[-66.31688,-11.38592,136.418],[-66.34791,-11.39352,136.453],[-66.41672,-11.4008,126.0],[-66.47139,-11.43362,139.2647],[-66.49702,-11.4423,127.4847],[-66.56479,-11.4346,143.8259],[-66.65608,-11.44018,131.8662],[-66.679,-11.44938,134.8432],[-66.68908,-11.46876,142.4967],[-66.6906,-11.49351,148.1265],[-66.68768,-11.51873,149.2115],[-66.69083,-11.53759,132.6303],[-66.71502,-11.56482,128.0],[-66.72086,-11.58353,145.5934],[-66.71383,-11.63262,143.2471],[-66.71528,-11.65557,137.0433],[-66.72902,-11.67474,150.2628],[-66.74546,-11.68156,148.2016],[-66.77974,-11.68135,149.195],[-66.79677,-11.68575,132.5167],[-66.81077,-11.69872,145.6802],[-66.82235,-11.71525,157.04],[-66.8356,-11.72781,157.784],[-66.8547,-11.72915,167.9164],[-66.87222,-11.72611,169.722],[-66.8917,-11.72704,136.0],[-66.90529,-11.73541,152.9635],[-66.90514,-11.75453,140.516],[-66.89403,-11.77034,143.8637],[-66.88165,-11.78181,157.8811],[-66.87684,-11.79556,134.0],[-66.88837,-11.81814,140.8249],[-66.90129,-11.83132,147.3085],[-66.91762,-11.84181,159.752],[-66.93573,-11.84724,139.7666],[-66.95418,-11.84527,190.8351],[-66.97061,-11.84899,187.3731],[-66.97456,-11.8692,180.3391],[-66.97014,-11.89369,143.7839],[-66.96133,-11.91054,147.0618],[-66.95474,-11.91286,158.3628],[-66.94826,-11.91059,140.0547],[-66.94276,-11.90728,153.8409],[-66.93914,-11.90656,150.6722],[-66.93307,-11.91178,153.7612],[-66.91847,-11.92868,149.1514],[-66.89697,-11.96599,149.2968],[-66.88286,-12.01482,140.6278],[-66.87744,-12.065,146.3414],[-66.88201,-12.10619,142.7163],[-66.89723,-12.15223,141.6147],[-66.89873,-12.17378,150.3279],[-66.89162,-12.19926,145.975],[-66.88935,-12.22318,147.6995],[-66.89904,-12.24525,149.7589],[-66.91191,-12.26674,149.3678],[-66.91929,-12.28876,140.5],[-66.91619,-12.30814,153.1766],[-66.90888,-12.32498,152.5638],[-66.90524,-12.34168,140.5],[-66.91299,-12.36085,143.5166],[-66.92782,-12.38224,153.6514],[-66.9357,-12.40033,150.3978],[-66.93829,-12.42002,157.5897],[-66.93702,-12.48105,157.3621],[-66.93488,-12.49391,158.3858],[-66.92699,-12.50937,150.2535],[-66.92767,-12.52533,141.0],[-66.93986,-12.5459,158.1716],[-66.96666,-12.58151,166.8197],[-66.95097,-12.6245,142.4909],[-66.94648,-12.64533,162.7492],[-66.94857,-12.6708,141.5],[-67.0041,-12.90107,167.043],[-67.05226,-13.0159,169.1502],[-67.06611,-13.02003,173.3037],[-67.08295,-13.01802,170.7904],[-67.10313,-13.02163,164.1126],[-67.11993,-13.03724,175.1945],[-67.15907,-13.10747,171.5707],[-67.16713,-13.11367,166.9413],[-67.18564,-13.12307,166.8603],[-67.19318,-13.12964,171.2518],[-67.19778,-13.13878,173.9668],[-67.20204,-13.15868,179.6196],[-67.20594,-13.16783,161.8625],[-67.28744,-13.26152,176.7289],[-67.32211,-13.28808,179.683],[-67.33666,-13.30446,164.3457],[-67.37978,-13.36916,166.0707],[-67.3956,-13.40249,176.5527],[-67.39477,-13.43722,163.0],[-67.37805,-13.52853,166.5],[-67.36077,-13.55442,175.3939],[-67.36108,-13.5739,168.7712],[-67.36955,-13.5909,178.703],[-67.4111,-13.64273,181.5325],[-67.43068,-13.67482,185.2359],[-67.44252,-13.6879,185.5292],[-67.459,-13.69813,186.9899],[-67.47166,-13.71053,181.6435],[-67.48089,-13.73079,189.9801],[-67.49264,-13.77136,177.1633],[-67.49355,-13.79068,177.9173],[-67.4798,-13.81673,186.2971],[-67.48272,-13.83667,191.2311],[-67.49156,-13.85254,182.2438],[-67.50102,-13.86525,184.5842],[-67.50921,-13.87998,191.8291],[-67.53598,-13.99837,187.3422],[-67.53543,-14.01434,189.5512],[-67.52295,-14.05899,204.5332],[-67.52179,-14.07129,188.9769],[-67.51135,-14.1488,201.4383],[-67.51528,-14.2088,180.0],[-67.50549,-14.24151,189.2967],[-67.5036,-14.25866,186.6022],[-67.50794,-14.27474,199.179],[-67.52063,-14.28869,196.6021],[-67.55262,-14.30269,205.3322],[-67.56442,-14.31205,208.7828],[-67.56817,-14.33029,209.8887],[-67.56561,-14.3492,215.04],[-67.56065,-14.3691,184.0051],[-67.54613,-14.40553,196.2568],[-67.54355,-14.40894,198.3949],[-67.53683,-14.41493,190.6933],[-67.53432,-14.41845,196.6521],[-67.53275,-14.42449,197.9326],[-67.53303,-14.43679,189.5],[-67.53238,-14.44305,190.0],[-67.52784,-14.45312,458.9476],[-67.50603,-14.47421,285.7103],[-67.49394,-14.4925,196.5],[-67.48794,-14.51162,199.0],[-67.489,-14.53131,280.6378],[-67.49784,-14.55131,251.7665],[-67.50463,-14.55947,219.8826],[-67.52047,-14.57312,212.0619],[-67.5276,-14.58087,220.477],[-67.53337,-14.5912,206.5],[-67.53598,-14.59859,214.1847],[-67.53063,-14.60696,220.6176],[-67.50412,-14.66887,222.0591],[-67.48484,-14.69528,260.0031],[-67.43632,-14.73807,234.6084],[-67.42751,-14.75414,257.7563],[-67.42267,-14.77595,256.3608],[-67.42193,-14.81723,305.6451],[-67.42609,-14.85506,321.0718],[-67.43105,-14.87485,294.5474],[-67.43425,-14.89635,291.088],[-67.43327,-14.9118,301.3674],[-67.43001,-14.93221,288.8406],[-67.41756,-14.96849,270.9987],[-67.40283,-14.98673,276.5449],[-67.38795,-14.99552,321.711],[-67.37356,-15.00653,299.0193],[-67.36389,-15.01205,314.1065],[-67.35291,-15.01531,304.6524],[-67.34035,-15.01624,368.2258],[-67.31653,-15.01335,354.372],[-67.30462,-15.01314,379.9843],[-67.29271,-15.01536,396.5783],[-67.28129,-15.02358,329.5533],[-67.27051,-15.03639,373.778],[-67.25178,-15.07319,376.4496],[-67.2431,-15.08709,350.2706],[-67.22987,-15.09934,407.0535],[-67.206,-15.12641,365.4979],[-67.17907,-15.16517,422.7095],[-67.11551,-15.28982,594.707],[-67.11231,-15.30351,597.6266],[-67.11213,-15.31565,611.7833],[-67.11962,-15.35767,790.3663],[-67.12001,-15.36795,1037.98],[-67.11861,-15.37849,698.26],[-67.11461,-15.38909,711.2617],[-67.1075,-15.40014,656.8698],[-67.09727,-15.41084,705.2238],[-67.08288,-15.41875,773.0516],[-67.06208,-15.42728,935.8763],[-67.05588,-15.43177,1015.83],[-67.04712,-15.44045,907.9634],[-67.02564,-15.47678,934.3535],[-66.82579,-15.65904,761.8496],[-66.78442,-15.6993,1162.0476],[-66.50353,-15.97194,709.6941],[-66.49299,-15.99081,750.2881],[-66.4779,-16.03401,911.0369],[-66.46645,-16.06377,826.0145],[-66.4608,-16.07421,961.7752],[-66.403,-16.1478,806.5],[-66.23923,-16.31694,755.1267],[-66.21768,-16.3342,845.233],[-66.11958,-16.39693,575.3474],[-66.06958,-16.42008,361.3099],[-65.99163,-16.44499,480.2379],[-65.88615,-16.46633,251.1962],[-65.83652,-16.46856,297.9878],[-65.80438,-16.46571,256.7145],[-65.45556,-16.36887,205.4454],[-65.35957,-16.32417,197.2458],[-65.34588,-16.3067,201.0872],[-65.33086,-16.27911,196.6087],[-65.2764,-16.11716,177.1366],[-65.27676,-16.0862,175.6335],[-65.27325,-16.07189,175.0794],[-65.24198,-16.00708,171.9389],[-65.19392,-15.92714,174.4427],[-65.1639,-15.90714,170.8585],[-64.78273,-15.86348,183.7007],[-64.68411,-15.84291,174.238],[-64.67044,-15.84973,181.5461],[-64.65752,-15.85045,167.5515],[-63.34091,-15.91763,194.3059],[-63.3206,-15.9166,196.2333],[-63.3174,-15.91407,195.7202],[-63.32711,-15.909,199.2281],[-63.3377,-15.90477,196.3506],[-63.37334,-15.89634,199.9088],[-63.38481,-15.89133,196.4418],[-63.3946,-15.88471,198.9901],[-63.4207,-15.85655,194.9405],[-63.42982,-15.84353,195.9277],[-63.43573,-15.82384,195.6784],[-63.4378,-15.80885,191.8654],[-63.43881,-15.78426,193.8001],[-63.44088,-15.77423,199.6526],[-63.44617,-15.76472,190.5474],[-63.46726,-15.73857,190.7359],[-63.47974,-15.71413,209.9066],[-63.49,-15.70085,187.9576],[-63.49868,-15.69207,188.6478],[-63.50581,-15.68814,187.3239],[-63.53831,-15.67382,199.5539],[-63.54922,-15.66731,192.1099],[-63.57914,-15.64256,187.3958],[-63.5896,-15.63775,186.2505],[-63.60123,-15.63713,190.3164],[-63.61236,-15.6345,191.7139],[-63.62381,-15.62737,184.3215],[-63.67016,-15.58019,188.2573],[-63.67719,-15.56711,183.0346],[-63.68231,-15.51843,186.5008],[-63.68812,-15.50494,189.9655],[-63.70068,-15.48944,184.5204],[-63.71375,-15.48128,187.5992],[-63.73856,-15.47213,182.7006],[-63.74876,-15.46567,183.6921],[-63.75799,-15.45606,183.1689],[-63.86318,-15.29808,174.8193],[-63.90015,-15.19819,175.5381],[-63.93214,-15.14931,173.5347],[-63.9388,-15.13355,177.4794],[-63.94979,-15.08564,173.6714],[-63.94485,-15.06156,170.3146],[-63.93891,-15.04704,178.6083],[-63.93475,-15.02792,181.7861],[-63.93408,-15.00022,182.7329],[-63.93955,-14.94834,169.9519],[-63.9402,-14.83232,179.226],[-63.96302,-14.73739,179.9225],[-63.91571,-14.71605,183.4589],[-63.5704,-14.61854,165.5149],[-63.01287,-14.30548,163.1064],[-62.12866,-13.80892,233.6491],[-61.59363,-13.50719,167.337],[-61.59306,-13.50679,170.8409],[-61.59711,-13.5061,159.673],[-61.66809,-13.51251,161.5674],[-61.6929,-13.51799,167.8618],[-61.71574,-13.52656,162.6889],[-61.73512,-13.53804,166.8814],[-61.75434,-13.53028,155.5],[-61.77423,-13.53338,167.7703],[-61.79429,-13.54031,168.8831],[-61.81397,-13.54424,157.6569],[-61.83635,-13.54062,157.3434],[-61.84798,-13.5308,154.3662],[-61.8686,-13.46393,161.4572],[-61.87232,-13.45608,162.9525],[-61.87991,-13.44915,157.2238],[-61.8995,-13.43923,155.3643],[-61.90983,-13.43189,159.4131],[-61.95836,-13.38549,154.7862],[-61.97536,-13.37412,158.4115],[-61.99779,-13.36409,154.3752],[-62.00326,-13.36048,156.2651],[-62.01866,-13.33681,161.6237],[-62.0197,-13.33257,157.0304],[-62.0336,-13.32554,156.3405],[-62.07773,-13.2779,159.6507],[-62.09923,-13.2626,158.7054],[-62.10941,-13.24896,152.5703],[-62.11246,-13.2318,172.2861],[-62.11251,-13.16478,150.3017],[-62.11468,-13.1502,151.8699],[-62.12047,-13.14876,153.4019],[-62.12915,-13.15093,162.1851],[-62.13985,-13.147,162.1216],[-62.16238,-13.12075,150.8432],[-62.17245,-13.11785,162.949],[-62.17395,-13.1408,165.3758],[-62.20093,-13.12271,151.2731],[-62.21152,-13.12033,161.4501],[-62.22165,-13.12127,159.74],[-62.25917,-13.13077,162.2479],[-62.27364,-13.13842,161.0758],[-62.29033,-13.14204,162.2992],[-62.31053,-13.13398,158.328],[-62.32159,-13.14369,160.8373],[-62.33503,-13.14514,147.6797],[-62.38185,-13.13987,160.889],[-62.3897,-13.13708,161.4332],[-62.4067,-13.12654,155.6303],[-62.41027,-13.12571,143.4191],[-62.42412,-13.12654,157.4373],[-62.42748,-13.12457,155.3562],[-62.42872,-13.11455,160.7058],[-62.43094,-13.10979,159.7941],[-62.45848,-13.07796,147.6459],[-62.47213,-13.06845,145.2101],[-62.49269,-13.06504,210.0747],[-62.5546,-13.0668,141.5],[-62.64168,-13.03,155.1967],[-62.64519,-13.02535,154.5837],[-62.64752,-13.00158,159.2025],[-62.65134,-12.99249,150.2146],[-62.6579,-12.98463,143.9718],[-62.66746,-12.97636,146.1511],[-62.68663,-12.965,158.8107],[-62.69898,-12.96665,153.4952],[-62.70916,-12.97461,153.5089],[-62.72203,-12.98257,151.0045],[-62.74131,-12.98536,157.0566],[-62.7579,-12.98515,155.4817],[-62.76864,-12.99063,156.055],[-62.77045,-13.01047,139.0],[-62.78983,-13.00065,139.0],[-62.8074,-12.98887,156.8201],[-62.82017,-12.97492,160.6552],[-62.82508,-12.95869,153.7365],[-62.82668,-12.95001,152.6734],[-62.83143,-12.94495,153.3004],[-62.83892,-12.94277,150.6728],[-62.849,-12.94215,142.8405],[-62.86011,-12.94029,154.6538],[-62.86507,-12.93554,151.4304],[-62.86791,-12.92903,146.9128],[-62.92047,-12.86226,149.2569],[-62.92378,-12.85286,149.2911],[-62.92889,-12.84604,149.3948],[-62.93804,-12.84945,144.4949],[-62.94651,-12.85523,144.4802],[-62.95514,-12.85751,149.865],[-62.9645,-12.85658,147.5968],[-62.9753,-12.85286,150.1145],[-62.98801,-12.84387,149.3418],[-62.99917,-12.82909,155.9191],[-63.00708,-12.80997,149.0769],[-63.01003,-12.78795,148.3634],[-63.01473,-12.77772,155.7136],[-63.02568,-12.76573,151.2502],[-63.0479,-12.74671,167.3067],[-63.05111,-12.74217,151.1904],[-63.05219,-12.73648,146.5355],[-63.05111,-12.7308,153.1102],[-63.04346,-12.71912,138.9906],[-63.04708,-12.71354,139.4388],[-63.05359,-12.70837,139.6157],[-63.05783,-12.70196,141.569],[-63.06475,-12.6662,148.8877],[-63.07503,-12.65266,138.3138],[-63.10521,-12.64522,148.7288],[-63.12506,-12.63592,147.8833],[-63.13668,-12.63375,148.0783],[-63.13947,-12.63561,151.369],[-63.16707,-12.64739,154.2039],[-63.17167,-12.65235,142.3054],[-63.17611,-12.66362,157.5098],[-63.18071,-12.66786,156.6455],[-63.18557,-12.66848,154.6851],[-63.1973,-12.66682,153.3624],[-63.20185,-12.66786,152.7966],[-63.22267,-12.68253,148.7465],[-63.23203,-12.69111,141.5556],[-63.23595,-12.69855,147.5538],[-63.24732,-12.70134,136.6272],[-63.31791,-12.70196,170.2365],[-63.33042,-12.697,166.5462],[-63.35946,-12.67468,157.4317],[-63.37109,-12.66992,158.1859],[-63.39331,-12.66455,157.7767],[-63.43145,-12.63695,147.0582],[-63.43522,-12.63034,144.5597],[-63.43816,-12.61918,141.424],[-63.44535,-12.61484,133.3148],[-63.45424,-12.61205,145.4371],[-63.4625,-12.60512,145.9048],[-63.46638,-12.5953,147.9949],[-63.467,-12.58579,149.2166],[-63.46876,-12.57577,136.766],[-63.4762,-12.56481,144.0175],[-63.48576,-12.55748,145.3375],[-63.49615,-12.55334,156.3854],[-63.50751,-12.55158,148.5203],[-63.52023,-12.55117,133.0],[-63.54219,-12.54797,137.5326],[-63.55873,-12.53991,145.7137],[-63.60043,-12.50611,141.8033],[-63.65484,-12.47831,143.3675],[-63.65774,-12.47541,143.1488],[-63.8014,-12.45495,138.4881],[-63.81499,-12.45722,143.4404],[-63.84558,-12.46694,143.8429],[-63.86289,-12.46921,142.834],[-63.8632,-12.47479,142.4581],[-63.8969,-12.51572,136.1998],[-63.90248,-12.52544,146.5869],[-63.90914,-12.53432,147.207],[-63.92124,-12.54435,142.8148],[-63.93906,-12.54414,138.4361],[-63.95002,-12.5368,135.4444],[-63.95932,-12.52802,129.5],[-63.97245,-12.52389,136.1131],[-64.00418,-12.53546,133.2708],[-64.02283,-12.53784,133.6768],[-64.04446,-12.50911,133.8544],[-64.10445,-12.50714,140.4621],[-64.11983,-12.48968,135.5294],[-64.13476,-12.51086,132.1622],[-64.14479,-12.52037,132.1931],[-64.15525,-12.51696,131.9178],[-64.18311,-12.48792,146.1039],[-64.19755,-12.47872,141.8461],[-64.21522,-12.47376,143.1248],[-64.23657,-12.47541,140.5922],[-64.24571,-12.47944,136.2038],[-64.25682,-12.49081,135.2184],[-64.26385,-12.49526,132.4762],[-64.26871,-12.49722,133.2997],[-64.27824,-12.49929,128.0],[-64.28754,-12.49712,133.7564],[-64.2977,-12.4657,131.1755],[-64.31266,-12.46187,127.5804],[-64.3532,-12.46921,148.4791],[-64.37676,-12.4659,131.234],[-64.39573,-12.45733,129.406],[-64.41134,-12.44513,123.5],[-64.42487,-12.43138,122.0],[-64.43237,-12.42095,122.6108],[-64.44407,-12.39976,135.3727],[-64.45252,-12.39035,123.1659],[-64.46164,-12.38529,122.0],[-64.48363,-12.37764,122.0],[-64.48978,-12.37361,142.4894],[-64.49244,-12.35656,146.1465],[-64.47443,-12.31646,154.2374],[-64.46932,-12.29486,135.7644],[-64.46815,-12.27263,137.5061],[-64.46906,-12.26106,152.7376],[-64.47304,-12.2532,140.6625],[-64.48939,-12.23946,130.6025],[-64.49425,-12.23801,127.8389],[-64.50885,-12.23605,122.0],[-64.51024,-12.23729,135.7174],[-64.51035,-12.23956,135.7924],[-64.51148,-12.24266,134.7783],[-64.5321,-12.23222,125.1179],[-64.54843,-12.2191,127.4379],[-64.55489,-12.21775,128.2625],[-64.58104,-12.21744,143.556],[-64.59342,-12.216,122.0],[-64.64057,-12.19512,129.388],[-64.66486,-12.18096,128.1366],[-64.67535,-12.17104,131.6332],[-64.67718,-12.16763,129.5685],[-64.68594,-12.15915,126.0],[-64.68899,-12.15388,130.7032],[-64.68858,-12.14716,126.0],[-64.68158,-12.13487,131.8577],[-64.68158,-12.1266,132.361],[-64.68646,-12.10996,132.3369],[-64.68992,-12.10438,130.4366],[-64.70638,-12.10613,139.564],[-64.71028,-12.11192,122.0],[-64.71364,-12.13848,137.5764],[-64.71628,-12.14654,122.0],[-64.7284,-12.14985,143.4603],[-64.73953,-12.14458,125.205],[-64.74418,-12.13363,132.1961],[-64.73679,-12.11978,122.0],[-64.76857,-12.0865,132.4916],[-64.78049,-12.06769,134.1689],[-64.78519,-12.04743,122.0],[-64.7925,-12.03255,160.9435],[-64.8093,-12.02583,134.3186],[-64.82761,-12.02231,122.0],[-64.83984,-12.01673,130.2239],[-64.86208,-12.02479,131.2008],[-64.8835,-12.02138,132.2637],[-64.90448,-12.01405,128.0786],[-64.92515,-12.00991,128.9843],[-64.96761,-12.00795,130.1425],[-64.98344,-12.00392,128.9438],[-64.99745,-11.99627,122.0],[-65.00944,-11.98428,126.9808],[-65.01634,-11.96847,128.6938],[-65.01463,-11.95028,127.0961],[-65.00086,-11.93105,124.8692],[-64.99649,-11.92124,127.8389],[-64.99812,-11.90894,140.6204],[-65.00458,-11.89839,138.5651],[-65.01453,-11.89385,122.6857],[-65.01794,-11.89364,122.0],[-65.02809,-11.88889,122.0],[-65.03367,-11.87979,140.6785],[-65.03845,-11.8585,132.0176],[-65.0392,-11.84868,138.0785],[-65.03745,-11.82842,157.5405],[-65.03845,-11.81871,149.0412],[-65.04331,-11.80765,139.2394],[-65.05631,-11.78564,138.6716],[-65.06556,-11.75308,138.1217],[-65.08106,-11.74347,122.0],[-65.0992,-11.73623,136.5861],[-65.11357,-11.72259,142.4055],[-65.11047,-11.69996,137.3899],[-65.11341,-11.69055,134.6334],[-65.12785,-11.69458,133.0491],[-65.13398,-11.70264,132.0836],[-65.13801,-11.71525,143.5041],[-65.14354,-11.76383,140.0538],[-65.1515,-11.77313,125.0],[-65.16447,-11.76982,147.3263],[-65.18245,-11.7567,122.0],[-65.1962,-11.74181,142.2589],[-65.20186,-11.72797,137.2593],[-65.20232,-11.69148,142.5791],[-65.20025,-11.68197,141.6155],[-65.19134,-11.66688,140.5594],[-65.18927,-11.65707,140.2049],[-65.19335,-11.63236,124.5],[-65.19093,-11.62317,132.1368],[-65.16744,-11.61552,138.9212],[-65.17398,-11.60653,140.3055],[-65.19545,-11.59216,125.5733],[-65.20736,-11.58761,137.3934],[-65.21454,-11.58751,141.9678],[-65.21924,-11.58451,137.4397],[-65.2234,-11.57108,133.027],[-65.22361,-11.55795,133.6479],[-65.21599,-11.53997,127.9401],[-65.21599,-11.53015,137.976],[-65.22265,-11.51744,121.5],[-65.23304,-11.50834,140.9318],[-65.25756,-11.49532,132.03],[-65.29247,-11.50472,121.5]]]}
,"properties": {"ISO3166-1-Alpha-3": "BOL","country": "Bolivia","fill": "#F0F","name": "El Beni","area_km2": 210990.63,"hist_schema_id": "Elevation0-9000","hist_area_km2": {"100": 141.75,"125": 14532.73,"150": 101831.41,"175": 64705.16,"200": 13096.38,"225": 5407.9,"250": 2682.32,"275": 1502.93,"300": 1031.43,"325": 932.73,"350": 838.28,"375": 641.13,"400": 462.41,"425": 356.7,"450": 290.56,"475": 241.67,"500": 218.43,"525": 195.9,"550": 179.25,"575": 163.37,"600": 153.05,"625": 136.68,"650": 117.9,"675": 110.11,"700": 98.5,"725": 92.46,"750": 87.56,"775": 77.16,"800": 73.85,"825": 70.66,"850": 66.48,"875": 59.8,"900": 55.06,"925": 47.18,"950": 45.87,"975": 40.86,"1000": 37.17,"1025": 32.23,"1050": 26.0,"1075": 21.67,"1100": 18.12,"1125": 15.71,"1150": 13.0,"1175": 9.79,"1200": 8.28,"1225": 6.65,"1250": 5.18,"1275": 3.71,"1300": 2.59,"1325": 2.06}}}