{"type":"Feature","properties":{"GID_3":"BOL.4.15.4_2","GID_0":"BOL","country":"Bolivia","GID_1":"BOL.4_1","province":"LaPaz","NL_NAME_1":"NA","GID_2":"BOL.4.15_2","county":"MancoKapac","NL_NAME_2":"NA","city":"TitoYupanqui","VARNAME_3":"NA","NL_NAME_3":"NA","TYPE_3":"District","ENGTYPE_3":"Distrito","CC_3":"NA","HASC_3":"NA","name":"Tito_Yupanqui.city"},
"geometry":{"type": "MultiPolygon","coordinates": [[[[-68.9759,-16.1925,4012.04],[-68.963,-16.1922,3917.5444],[-68.9592,-16.1965,3818.3181],[-68.9423,-16.1939,3811.7913],[-68.9335,-16.1977,3811.8843],[-68.9249,-16.1864,3857.2808],[-68.9306,-16.1841,3808.5],[-68.9374,-16.1837,3848.9663],[-68.942,-16.1794,3808.5],[-68.946,-16.1812,3810.6924],[-68.9483,-16.178,3830.4746],[-68.9504,-16.1801,3830.2598],[-68.9516,-16.179,3809.3252],[-68.9503,-16.1759,3814.1272],[-68.9523,-16.1742,3808.5],[-68.9549,-16.1768,3816.0513],[-68.9602,-16.1744,3813.0522],[-68.9612,-16.1683,3808.5],[-68.9687,-16.1549,3864.2913],[-68.9759,-16.1589,4043.5078],[-68.9852,-16.16,4222.374],[-68.9856,-16.1618,4242.147],[-68.9757,-16.179,4243.0537],[-68.9745,-16.1867,4104.1729],[-68.9759,-16.1925,4012.04]]]]}}