{"type":"Feature","properties":{"GID_3":"BOL.8.4.3_2","GID_0":"BOL","country":"Bolivia","GID_1":"BOL.8_1","province":"SantaCruz","NL_NAME_1":"NA","GID_2":"BOL.8.4_2","county":"Cordillera","NL_NAME_2":"NA","city":"Camiri","VARNAME_3":"NA","NL_NAME_3":"NA","TYPE_3":"District","ENGTYPE_3":"Distrito","CC_3":"NA","HASC_3":"NA","name":"Camiri.city"},
"geometry":{"type": "MultiPolygon","coordinates": [[[[-63.6875,-20.1891,911.1762],[-63.6856,-20.1918,914.3934],[-63.6802,-20.1913,920.2048],[-63.6749,-20.1977,936.4724],[-63.6677,-20.1984,945.3356],[-63.6608,-20.2021,948.9823],[-63.6544,-20.2002,964.6293],[-63.6507,-20.205,973.9821],[-63.6296,-20.2072,1128.0198],[-63.6141,-20.2135,1413.3901],[-63.5756,-20.2243,1822.6149],[-63.5343,-20.2308,1106.7305],[-63.4807,-20.1976,840.3151],[-63.4792,-20.1933,838.2222],[-63.4818,-20.1853,834.3279],[-63.4801,-20.1827,832.001],[-63.4796,-20.1752,827.0591],[-63.4771,-20.1748,827.4899],[-63.4748,-20.1687,822.4031],[-63.4768,-20.1633,824.8338],[-63.4747,-20.1577,811.4329],[-63.476,-20.155,810.3492],[-63.4743,-20.151,805.8206],[-63.4764,-20.1493,804.5255],[-63.4757,-20.1443,800.2424],[-63.4768,-20.1437,827.1147],[-63.4749,-20.1393,796.5191],[-63.4768,-20.1388,815.5864],[-63.4776,-20.1341,807.655],[-63.4759,-20.1293,788.4778],[-63.4758,-20.1209,808.7288],[-63.4727,-20.117,805.349],[-63.4708,-20.1172,771.6927],[-63.4666,-20.1133,761.2223],[-63.463,-20.1004,760.4144],[-63.4632,-20.0947,738.1442],[-63.4587,-20.0912,728.1883],[-63.4558,-20.0859,818.7755],[-63.4478,-20.0837,724.7986],[-63.4319,-20.0891,722.275],[-63.4253,-20.0895,719.7843],[-63.4227,-20.0888,719.828],[-63.4199,-20.0855,717.569],[-63.4132,-20.089,714.8739],[-63.4084,-20.0893,716.3967],[-63.4004,-20.0978,709.9755],[-63.3916,-20.1011,708.9285],[-63.3815,-20.0915,706.325],[-63.3623,-20.0838,715.6923],[-63.3607,-20.0805,714.3005],[-63.3609,-20.0749,706.5962],[-63.352,-20.0756,712.8856],[-63.3506,-20.0669,703.7416],[-63.3465,-20.0665,712.0536],[-63.3404,-20.0688,736.8143],[-63.3407,-20.0666,704.8781],[-63.3459,-20.0616,695.1392],[-63.3423,-20.0614,757.0325],[-63.3376,-20.0537,729.8869],[-63.3321,-20.0538,745.5276],[-63.3323,-20.0519,700.6321],[-63.3365,-20.0483,775.591],[-63.3336,-20.0412,744.8791],[-63.3313,-20.0425,724.3564],[-63.3294,-20.0511,697.5604],[-63.3247,-20.0572,693.8145],[-63.3224,-20.0569,686.3339],[-63.3205,-20.0481,687.5215],[-63.326,-20.0459,692.8746],[-63.3228,-20.0406,693.7456],[-63.3252,-20.034,715.6974],[-63.3186,-20.0343,694.0219],[-63.313,-20.0311,718.2285],[-63.3068,-20.0349,691.4219],[-63.3062,-20.0393,678.4135],[-63.3047,-20.0401,678.7502],[-63.3025,-20.0373,677.0475],[-63.3019,-20.0272,712.4462],[-63.2994,-20.0268,690.8116],[-63.297,-20.0313,699.5859],[-63.295,-20.0302,685.1907],[-63.298,-20.0227,691.5518],[-63.2959,-20.0157,682.1312],[-63.298,-20.0137,673.191],[-63.2933,-20.0132,683.8691],[-63.2929,-20.0097,745.6699],[-63.2945,-19.98,1141.7507],[-63.2965,-19.9731,1205.8188],[-63.2985,-19.9457,1032.9642],[-63.2978,-19.9395,1161.9246],[-63.3007,-19.928,1232.0945],[-63.3015,-19.9132,1384.428],[-63.3058,-19.8964,1517.7922],[-63.312,-19.8915,1367.5425],[-63.3132,-19.8866,1373.9827],[-63.3116,-19.8772,1401.9982],[-63.3144,-19.8743,1456.165],[-63.3144,-19.8653,1498.0469],[-63.3433,-19.8645,993.8989],[-63.3481,-19.8672,957.2023],[-63.3521,-19.8657,945.5619],[-63.3589,-19.8658,933.6312],[-63.3646,-19.8696,930.1067],[-63.3704,-19.869,896.4999],[-63.375,-19.8716,879.4069],[-63.3765,-19.8689,872.9327],[-63.3881,-19.866,929.1125],[-63.3917,-19.8672,927.6359],[-63.397,-19.8723,956.2741],[-63.4026,-19.8673,919.8519],[-63.4067,-19.8684,949.1475],[-63.4147,-19.8607,955.9755],[-63.4181,-19.8615,962.6321],[-63.4205,-19.86,950.0171],[-63.4221,-19.8628,963.689],[-63.4235,-19.8615,970.9023],[-63.4351,-19.866,976.6188],[-63.4457,-19.8665,1002.3524],[-63.456,-19.8756,1021.7268],[-63.463,-19.8709,1019.0536],[-63.475,-19.8815,1102.7642],[-63.4834,-19.8827,1308.9155],[-63.4904,-19.8802,1193.3862],[-63.499,-19.8795,993.5909],[-63.5217,-19.8952,979.4133],[-63.5622,-19.9018,1138.9851],[-63.5712,-19.9059,1254.0769],[-63.5772,-19.9182,1417.8705],[-63.5844,-19.945,1305.0109],[-63.5939,-20.0111,989.5161],[-63.5995,-20.0191,860.1771],[-63.6034,-20.0215,848.4526],[-63.6028,-20.0299,854.907],[-63.5994,-20.0344,919.9375],[-63.6068,-20.0382,855.5857],[-63.6102,-20.0328,897.6094],[-63.611,-20.0347,870.6714],[-63.6185,-20.0378,841.0691],[-63.6212,-20.0312,868.264],[-63.6232,-20.03,862.7672],[-63.6251,-20.0358,853.4022],[-63.6277,-20.0356,854.8925],[-63.6267,-20.0425,850.5072],[-63.6413,-20.045,843.8113],[-63.6423,-20.0491,848.1698],[-63.6341,-20.0617,859.8383],[-63.6346,-20.0668,850.1294],[-63.6306,-20.0796,852.4927],[-63.6315,-20.0891,858.7515],[-63.6377,-20.0882,854.2112],[-63.6408,-20.0834,907.8657],[-63.6447,-20.0821,876.4066],[-63.6493,-20.0892,857.069],[-63.6509,-20.0978,870.662],[-63.6532,-20.0999,866.7072],[-63.6556,-20.1067,861.9784],[-63.6611,-20.1099,860.2651],[-63.6666,-20.1085,860.7318],[-63.6679,-20.1059,886.1475],[-63.6695,-20.1064,868.4521],[-63.6705,-20.11,878.1157],[-63.6669,-20.1212,881.9778],[-63.6684,-20.1258,864.0461],[-63.6728,-20.1268,865.8228],[-63.6778,-20.1229,887.9729],[-63.684,-20.1242,880.9364],[-63.6851,-20.1271,869.959],[-63.6804,-20.1304,869.2638],[-63.6801,-20.1345,872.7397],[-63.6861,-20.1388,870.5474],[-63.6938,-20.1394,983.0634],[-63.6955,-20.1415,959.7892],[-63.6955,-20.1449,968.8284],[-63.6918,-20.1474,998.9309],[-63.692,-20.1566,1152.1329],[-63.6969,-20.1623,1308.6555],[-63.6963,-20.1728,1076.0918],[-63.6981,-20.187,1096.7593],[-63.692,-20.1902,927.1947],[-63.6875,-20.1891,911.1762]]]]}}