{"type":"Feature","properties":{"GID_3":"BOL.7.4.4_2","GID_0":"BOL","country":"Bolivia","GID_1":"BOL.7_1","province":"Potosí","NL_NAME_1":"NA","GID_2":"BOL.7.4_2","county":"Chayanta","NL_NAME_2":"NA","city":"Ravelo","VARNAME_3":"NA","NL_NAME_3":"NA","TYPE_3":"District","ENGTYPE_3":"Distrito","CC_3":"NA","HASC_3":"NA","name":"Ravelo.city"},
"geometry":{"type": "MultiPolygon","coordinates": [[[[-65.6238,-18.5011,2019.4591],[-65.6229,-18.5123,2028.7131],[-65.626,-18.5193,2036.5543],[-65.627,-18.5285,2078.0154],[-65.6256,-18.5345,2065.8191],[-65.6187,-18.5447,2062.5686],[-65.6192,-18.5471,2064.137],[-65.6234,-18.5503,2068.9248],[-65.6267,-18.5617,2088.0095],[-65.6255,-18.5717,2091.8057],[-65.6418,-18.5782,2109.7512],[-65.6434,-18.5887,2121.5667],[-65.6497,-18.5918,2129.7688],[-65.6538,-18.5968,2155.6191],[-65.6548,-18.6038,2143.5234],[-65.6531,-18.6077,2230.9912],[-65.6558,-18.6123,2152.0317],[-65.6612,-18.6152,2202.4868],[-65.6666,-18.6141,2162.5359],[-65.6742,-18.6149,2172.74],[-65.6788,-18.6132,2179.613],[-65.6824,-18.6159,2183.3655],[-65.6883,-18.6162,2189.0935],[-65.6957,-18.6121,2200.4932],[-65.6989,-18.6081,2209.0688],[-65.7025,-18.6085,2214.3408],[-65.7099,-18.6126,2245.2278],[-65.7136,-18.6222,2294.7185],[-65.722,-18.6302,2355.3076],[-65.7256,-18.636,2361.0479],[-65.742,-18.6414,2443.1089],[-65.7432,-18.6454,2468.4824],[-65.7449,-18.6462,2463.9578],[-65.7443,-18.6513,2499.3115],[-65.7387,-18.6621,2573.6226],[-65.7382,-18.6662,2598.2153],[-65.7338,-18.6697,2650.5139],[-65.7321,-18.6772,2696.0303],[-65.7296,-18.6805,2734.5251],[-65.7346,-18.686,3072.0012],[-65.7357,-18.6943,3625.8896],[-65.7418,-18.7102,3823.853],[-65.7398,-18.7155,3873.9661],[-65.7445,-18.7178,4031.48],[-65.7472,-18.7238,4094.8098],[-65.7421,-18.7368,4131.0444],[-65.7332,-18.7502,4127.5962],[-65.724,-18.7499,4191.6621],[-65.7137,-18.7599,4033.2041],[-65.7014,-18.7652,3748.0845],[-65.7,-18.7699,3711.5967],[-65.6936,-18.7773,3671.064],[-65.687,-18.7787,3635.7749],[-65.6862,-18.7938,3626.2529],[-65.6894,-18.8153,3730.6948],[-65.6852,-18.8212,3719.0879],[-65.6864,-18.8299,3651.3633],[-65.6919,-18.8399,3489.1714],[-65.6942,-18.8402,3455.0513],[-65.6927,-18.8461,3456.1785],[-65.6997,-18.8583,3597.7515],[-65.6989,-18.8625,3626.6506],[-65.6971,-18.8634,3639.0227],[-65.6974,-18.8664,3599.1936],[-65.6943,-18.8666,3596.5959],[-65.6916,-18.869,3597.1731],[-65.6921,-18.8708,3629.2502],[-65.6903,-18.8725,3626.0371],[-65.6909,-18.8766,3653.7261],[-65.6864,-18.8785,3624.4558],[-65.6878,-18.8818,3662.3682],[-65.6822,-18.8884,3673.6265],[-65.6786,-18.8901,3660.7446],[-65.6795,-18.8951,3653.4512],[-65.6754,-18.8959,3648.8926],[-65.677,-18.9015,3689.1621],[-65.6752,-18.9052,3645.8398],[-65.6692,-18.9057,3802.6006],[-65.6666,-18.9196,3749.0173],[-65.6517,-18.9367,3653.5488],[-65.6483,-18.9367,3654.2954],[-65.6405,-18.9464,3362.6421],[-65.6393,-18.9513,3234.9497],[-65.6442,-18.9709,3320.2664],[-65.638,-18.9866,3457.5991],[-65.6393,-18.9925,3484.7239],[-65.6369,-19.0023,3582.3906],[-65.6328,-19.0112,3763.498],[-65.6289,-19.0109,3862.7163],[-65.6213,-19.0147,3720.3169],[-65.6138,-19.0117,3673.395],[-65.612799999999993,-19.0085,3670.4434],[-65.6084,-19.0043,3663.2205],[-65.6054,-19.0061,3623.6938],[-65.6041,-19.0053,3623.6938],[-65.6023,-18.9953,3688.6877],[-65.6003,-18.9942,3764.4363],[-65.5915,-18.9938,4057.0615],[-65.5881,-18.9955,4028.3008],[-65.5873,-18.9978,3985.3894],[-65.5839,-18.9984,3962.1929],[-65.5779,-18.994,3538.8799],[-65.57,-18.9924,3265.6494],[-65.5598,-18.9871,3119.1101],[-65.5535,-18.9887,3146.6873],[-65.5524,-18.9863,3120.5837],[-65.5495,-18.9863,3137.1555],[-65.5459,-18.982,3042.4617],[-65.5324,-18.9765,3327.6309],[-65.5271,-18.9678,3428.0303],[-65.5245,-18.9579,3765.6387],[-65.5218,-18.9538,3781.0491],[-65.5192,-18.9513,3855.4001],[-65.5097,-18.9483,3919.3403],[-65.5082,-18.9453,3969.0781],[-65.5025,-18.9436,4024.6587],[-65.5015,-18.9424,3986.0576],[-65.5055,-18.9412,3966.4863],[-65.4994,-18.9378,3890.9668],[-65.4962,-18.9378,3810.1384],[-65.4889,-18.9311,3740.6489],[-65.4861,-18.9317,3690.9888],[-65.4849,-18.9277,3642.8804],[-65.4809,-18.9259,3613.3809],[-65.4681,-18.9233,3167.6887],[-65.4655,-18.9246,3137.9648],[-65.463,-18.9295,3093.9163],[-65.4603,-18.9304,3100.7603],[-65.4531,-18.9275,3391.186],[-65.4535,-18.925,3423.4414],[-65.4495,-18.921,3485.8193],[-65.441,-18.9185,3450.394],[-65.4366,-18.92,3466.2371],[-65.4287,-18.9293,3424.4543],[-65.4255,-18.9274,3270.0122],[-65.4245,-18.9303,3348.0122],[-65.4217,-18.9305,3470.8628],[-65.4138,-18.9454,3569.4976],[-65.4092,-18.9438,3394.4922],[-65.4036,-18.9326,3336.0479],[-65.403,-18.9281,3365.7393],[-65.4047,-18.9257,3345.3523],[-65.3981,-18.92,3268.7573],[-65.3977,-18.9174,3271.7722],[-65.3999,-18.9139,3210.1719],[-65.4017,-18.9038,3071.3687],[-65.4049,-18.8994,3075.3],[-65.4069,-18.8995,3065.0845],[-65.4093,-18.8949,3081.1919],[-65.4092,-18.8895,3062.9846],[-65.4117,-18.8888,3062.3101],[-65.4122,-18.8854,3111.5479],[-65.4146,-18.8862,3114.6113],[-65.4191,-18.8802,3110.6895],[-65.4242,-18.8789,3167.978],[-65.4206,-18.8767,3054.8047],[-65.4165,-18.865,2810.1558],[-65.4197,-18.8589,2908.616],[-65.421,-18.8522,3138.5305],[-65.4239,-18.8527,3169.7239],[-65.4287,-18.8372,3118.335],[-65.4378,-18.8344,3110.342],[-65.4437,-18.8349,3199.4502],[-65.4433,-18.8306,3203.4165],[-65.4374,-18.827,3147.3135],[-65.4343,-18.822,3179.2688],[-65.4384,-18.8143,3209.7202],[-65.4382,-18.8113,3214.0271],[-65.4318,-18.8094,3160.5637],[-65.4306,-18.8073,3148.4072],[-65.4314,-18.8041,3092.3359],[-65.4268,-18.7996,3108.9248],[-65.4278,-18.7957,3140.3052],[-65.4198,-18.7875,2845.2021],[-65.4171,-18.7808,2756.1287],[-65.418,-18.7792,2742.5383],[-65.4135,-18.7789,2736.1326],[-65.4076,-18.7749,3061.0818],[-65.4023,-18.7779,3063.2861],[-65.3903,-18.7955,2924.9033],[-65.3866,-18.7954,2993.0728],[-65.3867,-18.7878,2629.8718],[-65.3825,-18.7864,2625.1023],[-65.3835,-18.7849,2609.021],[-65.3807,-18.7826,2628.9883],[-65.3793,-18.7851,2611.8328],[-65.3749,-18.7839,2610.8281],[-65.3714,-18.7788,2625.0669],[-65.3673,-18.7813,2570.3308],[-65.3687,-18.785,2529.7356],[-65.3666,-18.7867,2544.5588],[-65.3663,-18.7903,2524.6719],[-65.363,-18.7886,2677.292],[-65.3597,-18.7892,2768.9541],[-65.3564,-18.7864,2936.6785],[-65.3601,-18.7827,2829.365],[-65.3594,-18.7803,2808.9114],[-65.3647,-18.7744,2782.3762],[-65.3675,-18.7749,2774.7642],[-65.3702,-18.7733,2798.4775],[-65.3749,-18.7748,2807.5999],[-65.3772,-18.7727,2852.3486],[-65.3829,-18.7718,2884.7769],[-65.3868,-18.7759,2958.3579],[-65.3898,-18.775,2962.8269],[-65.3956,-18.7777,2984.7825],[-65.4033,-18.7707,3133.4426],[-65.4074,-18.773,3103.4624],[-65.4226,-18.7611,3051.4189],[-65.4239,-18.7596,3025.9961],[-65.4226,-18.7569,3011.9446],[-65.4272,-18.7542,3062.1865],[-65.4269,-18.7511,3158.04],[-65.4292,-18.748,3143.7495],[-65.4255,-18.7445,3001.7109],[-65.4242,-18.738,3015.6565],[-65.4174,-18.7338,3150.2002],[-65.4188,-18.7291,3110.4304],[-65.4145,-18.7233,2916.0176],[-65.4138,-18.7186,2848.2913],[-65.4105,-18.7175,2854.2256],[-65.4114,-18.713,2797.2178],[-65.4064,-18.7103,2877.2373],[-65.4006,-18.702,3214.4971],[-65.4085,-18.6975,3133.179],[-65.4145,-18.6897,2967.7866],[-65.4145,-18.6812,2823.3855],[-65.4168,-18.6783,2772.3044],[-65.4163,-18.6747,2708.3074],[-65.4181,-18.6701,2819.0242],[-65.417,-18.6661,2944.2705],[-65.4191,-18.6632,2961.2759],[-65.4143,-18.6598,3078.6536],[-65.411,-18.6518,3430.4346],[-65.4074,-18.6526,3417.9937],[-65.4039,-18.6559,3501.9175],[-65.4028,-18.654,3508.468],[-65.4001,-18.6539,3541.2729],[-65.3933,-18.6562,3420.4197],[-65.3894,-18.6532,3312.062],[-65.3839,-18.6419,2968.9944],[-65.3813,-18.641,3079.9919],[-65.3844,-18.6375,3039.687],[-65.3902,-18.6355,3111.2722],[-65.3906,-18.6308,3174.2432],[-65.3934,-18.6268,3202.1206],[-65.4048,-18.6153,3315.0752],[-65.4092,-18.6127,3376.9045],[-65.4124,-18.613,3366.6899],[-65.4216,-18.605,3463.8945],[-65.4277,-18.6034,3419.6694],[-65.4339,-18.6063,3239.8442],[-65.4357,-18.6099,3326.2544],[-65.434,-18.6131,3400.3181],[-65.4367,-18.616,3402.0913],[-65.4376,-18.6137,3413.2075],[-65.4476,-18.6064,3367.1211],[-65.4621,-18.606,3393.4568],[-65.4668,-18.5977,3254.9751],[-65.4751,-18.5967,3291.8386],[-65.4756,-18.5927,3188.4233],[-65.4811,-18.5928,3214.1667],[-65.486,-18.5908,3323.2373],[-65.4889,-18.5824,3240.8745],[-65.491,-18.5817,3260.5693],[-65.4912,-18.5792,3240.9565],[-65.4951,-18.5758,3168.6445],[-65.4945,-18.5692,3111.5698],[-65.5013,-18.564,3121.1328],[-65.5013,-18.5597,2900.9785],[-65.4965,-18.5495,2508.2432],[-65.4968,-18.5452,2471.9985],[-65.493,-18.5385,2403.7422],[-65.496,-18.5358,2370.0945],[-65.504,-18.5438,2754.7],[-65.5143,-18.5475,3106.551],[-65.516,-18.5393,3078.3982],[-65.5261,-18.5265,3173.7129],[-65.5299,-18.5274,3125.0896],[-65.5343,-18.5258,3112.9849],[-65.5558,-18.514,3194.489],[-65.5639,-18.5118,3169.2798],[-65.5757,-18.5018,3013.1187],[-65.5839,-18.4983,3059.1689],[-65.6115,-18.4966,2559.3684],[-65.6187,-18.5003,2173.3857],[-65.6238,-18.5011,2019.4591]]]]}}