{"type":"Feature","properties":{"GID_3":"BOL.4.15.2_2","GID_0":"BOL","country":"Bolivia","GID_1":"BOL.4_1","province":"LaPaz","NL_NAME_1":"NA","GID_2":"BOL.4.15_2","county":"MancoKapac","NL_NAME_2":"NA","city":"LagoTiticaca","VARNAME_3":"NA","NL_NAME_3":"NA","TYPE_3":"Lago","ENGTYPE_3":"Waterbody","CC_3":"NA","HASC_3":"NA","name":"Lago_Titicaca.city"},
"geometry":{"type": "MultiPolygon","coordinates": [[[[-68.9333,-16.1979,3827.1143],[-68.9423,-16.1939,3811.7913],[-68.9592,-16.1965,3818.3181],[-68.8952,-16.2555,3817.8452],[-68.8975,-16.2449,3810.4468],[-68.8905,-16.2378,3808.5],[-68.8889,-16.234,3809.5024],[-68.903,-16.2257,3818.519],[-68.9093,-16.2187,3810.0684],[-68.912,-16.2189,3809.9429],[-68.9132,-16.2212,3808.5],[-68.9139,-16.2173,3809.9998],[-68.9173,-16.2163,3808.5],[-68.9191,-16.2138,3808.5],[-68.9195,-16.2104,3810.3494],[-68.916,-16.2099,3811.8926],[-68.9166,-16.2058,3817.5925],[-68.9237,-16.201,3810.9507],[-68.9307,-16.2004,3812.6924],[-68.9333,-16.1979,3827.1143]]],
[[[-69.1456,-15.9305,3808.5],[-69.2563,-16.0043,3808.5],[-69.1977,-16.1645,3808.5],[-69.1021,-16.2272,3808.5],[-69.1016,-16.2291,3815.1006],[-69.0927,-16.2246,3863.9675],[-69.1024,-16.2256,3808.5],[-69.0952,-16.2198,3811.9817],[-69.0946,-16.2156,3809.9561],[-69.0932,-16.2148,3811.1553],[-69.0967,-16.2116,3808.5],[-69.0984,-16.2072,3809.8789],[-69.1068,-16.2067,3808.5],[-69.1053,-16.2033,3825.6035],[-69.1073,-16.1984,3809.8533],[-69.1119,-16.1966,3811.2646],[-69.116,-16.1969,3810.2488],[-69.1198,-16.1946,3809.6721],[-69.1218,-16.1954,3808.9731],[-69.1241,-16.2009,3808.5],[-69.1268,-16.1984,3808.5],[-69.1218,-16.1829,3821.5117],[-69.0989,-16.1785,3818.4102],[-69.09,-16.1672,3808.5],[-69.0935,-16.1629,3880.5659],[-69.093,-16.1598,3852.3247],[-69.0871,-16.1579,3808.5],[-69.0832,-16.1591,3810.3054],[-69.0777,-16.1545,3811.249],[-69.0749,-16.1487,3812.7439],[-69.0789,-16.1399,3814.2512],[-69.0824,-16.1397,3808.5],[-69.0896,-16.1314,3846.0645],[-69.0924,-16.1316,3808.5],[-69.0938,-16.13,3852.5903],[-69.091,-16.1267,3838.3704],[-69.0855,-16.129,3812.5132],[-69.0826,-16.1249,3812.3147],[-69.0849,-16.1174,3863.6812],[-69.0906,-16.1142,3828.8665],[-69.0956,-16.1084,3896.8003],[-69.0955,-16.1061,3808.5],[-69.0936,-16.1068,3828.9199],[-69.0919,-16.1054,3809.7646],[-69.0929,-16.1023,3811.9297],[-69.0973,-16.1007,3810.3101],[-69.098,-16.1042,3810.8015],[-69.1012,-16.1031,3808.5],[-69.0986,-16.1007,3810.1838],[-69.1,-16.0993,3813.271],[-69.1026,-16.1016,3808.5],[-69.1055,-16.1016,3808.5],[-69.1151,-16.0973,3812.6694],[-69.1359,-16.0771,3808.5],[-69.1359,-16.0767,3808.5],[-69.1196,-16.0907,3813.627],[-69.1118,-16.0947,3811.6938],[-69.1118,-16.0903,3819.7104],[-69.1171,-16.081,3818.4197],[-69.1208,-16.0781,3808.5],[-69.1216,-16.0733,3833.9937],[-69.125,-16.0733,3808.5],[-69.1251,-16.0706,3814.0068],[-69.1296,-16.0664,3808.5],[-69.1285,-16.0638,3835.9514],[-69.1328,-16.0563,3887.0095],[-69.1312,-16.0556,3820.8223],[-69.1242,-16.0594,3808.5],[-69.114,-16.0609,3808.5],[-69.1129,-16.0643,3809.3223],[-69.1095,-16.0646,3808.5],[-69.1096,-16.0674,3810.6018],[-69.1057,-16.0661,3808.5],[-69.0982,-16.0708,3831.6453],[-69.0969,-16.0737,3823.8831],[-69.0933,-16.0739,3808.5],[-69.0919,-16.0766,3828.4285],[-69.0882,-16.0773,3808.5],[-69.0852,-16.0818,3815.9614],[-69.0827,-16.0824,3814.8621],[-69.0759,-16.0898,3850.5044],[-69.0573,-16.0933,3836.8948],[-69.0553,-16.0966,3818.3845],[-69.0503,-16.0954,3808.5],[-69.0463,-16.0982,3813.865],[-69.0454,-16.1007,3818.1104],[-69.0391,-16.1008,3817.0854],[-69.0115,-16.1132,3815.0747],[-69.0075,-16.1166,3828.6475],[-69.0066,-16.1202,3810.981],[-68.9961,-16.1276,3809.4812],[-68.9911,-16.1284,3818.5303],[-68.9835,-16.136,3825.8171],[-68.9761,-16.1407,3808.5],[-68.9744,-16.1497,3808.5],[-68.9672,-16.1566,3824.6724],[-68.9612,-16.1683,3808.5],[-68.9602,-16.1744,3813.0522],[-68.9549,-16.1768,3816.0513],[-68.9523,-16.1742,3808.5],[-68.9503,-16.1759,3814.1272],[-68.9516,-16.179,3809.3252],[-68.9504,-16.1801,3830.2598],[-68.9483,-16.178,3830.4746],[-68.9465,-16.1811,3810.6924],[-68.942,-16.1794,3808.5],[-68.9374,-16.1837,3848.9663],[-68.9306,-16.1841,3808.5],[-68.9175,-16.1892,3824.927],[-68.9068,-16.1893,3815.6116],[-68.9001,-16.194,3817.2351],[-68.8978,-16.194,3813.4512],[-68.8967,-16.1973,3863.2014],[-68.8932,-16.1965,3820.488],[-68.8918,-16.2004,3823.7095],[-68.8871,-16.2021,3825.9478],[-68.8822,-16.2007,3812.9021],[-68.8806,-16.2049,3826.7288],[-68.8755,-16.2058,3808.5],[-68.8722,-16.2112,3821.5925],[-68.8678,-16.2106,3817.6321],[-68.8623,-16.2166,3851.6753],[-68.8579,-16.2157,3815.8308],[-68.8498,-16.2246,3851.7097],[-68.8405,-16.2292,3808.5],[-68.8365,-16.2341,3814.563],[-68.8311,-16.2363,3811.6934],[-68.8303,-16.2466,3808.5],[-68.8332,-16.249,3816.6567],[-68.8344,-16.2531,3808.5],[-68.8369,-16.2517,3809.8745],[-68.8394,-16.2527,3812.4983],[-68.8329,-16.2641,3811.0615],[-68.8385,-16.2624,3809.9448],[-68.8368,-16.2728,3816.137],[-68.8439,-16.2695,3809.2632],[-68.8454,-16.2642,3812.2625],[-68.8476,-16.2672,3811.1843],[-68.8536,-16.2676,3810.3811],[-68.8591,-16.2655,3812.625],[-68.8616,-16.2667,3808.5],[-68.8658,-16.2657,3811.5244],[-68.8661,-16.2633,3811.8352],[-68.8756,-16.2667,3808.5],[-68.8742,-16.2645,3812.1609],[-68.8792,-16.2643,3815.2146],[-68.8807,-16.2661,3814.313],[-68.8869,-16.2632,3808.5],[-68.8189,-16.3219,3808.5],[-68.8189,-16.3371,3808.5],[-68.8031,-16.3394,3808.5],[-68.7969,-16.3236,3808.5],[-68.7882,-16.3214,3808.5],[-68.7894,-16.2908,3808.5],[-68.7789,-16.2794,3808.5],[-68.8195,-16.2408,3808.5],[-68.8042,-16.2171,3808.5],[-68.8156,-16.2076,3809.7227],[-68.8215,-16.2066,3809.4626],[-68.8247,-16.2082,3811.6372],[-68.8244,-16.2112,3816.176],[-68.8276,-16.2132,3810.6025],[-68.8287,-16.216,3812.8552],[-68.8262,-16.2231,3808.5],[-68.8322,-16.2227,3811.229],[-68.8316,-16.2257,3810.0815],[-68.8325,-16.2233,3809.979],[-68.8357,-16.2242,3808.5],[-68.8493,-16.2158,3810.0039],[-68.8523,-16.21,3808.5],[-68.8543,-16.2094,3808.5],[-68.8536,-16.2081,3808.5],[-68.8562,-16.204,3816.4685],[-68.8501,-16.203,3817.5276],[-68.8485,-16.2013,3846.0637],[-68.8489,-16.1993,3826.0793],[-68.8444,-16.1963,3832.0664],[-68.842,-16.1924,3817.8442],[-68.8507,-16.1784,3842.5176],[-68.8681,-16.1946,3808.5],[-69.1456,-15.9305,3808.5]],
[[-69.1379,-16.0496,3808.5005],[-69.1374,-16.0506,3808.5005],[-69.1376,-16.0514,3808.5],[-69.1388,-16.0505,3808.5005],[-69.1379,-16.0496,3808.5005]],
[[-69.0708,-16.0378,3808.5],[-69.0658,-16.0405,3819.4529],[-69.0613,-16.048,3808.5],[-69.0651,-16.0455,3814.6396],[-69.071,-16.0448,3808.5],[-69.081,-16.0348,3808.5],[-69.0818,-16.0317,3808.5],[-69.0708,-16.0378,3808.5]],
[[-69.2243,-15.9939,3809.8613],[-69.2204,-15.9949,3818.3391],[-69.2143,-15.9978,3809.9272],[-69.2161,-15.9985,3808.5],[-69.2243,-15.9939,3809.8613]],
[[-69.1767,-15.9861,3809.7791],[-69.1761,-15.9874,3808.5],[-69.1785,-15.9852,3808.5],[-69.1778,-15.9848,3809.7791],[-69.1767,-15.9861,3809.7791]],
[[-69.1929,-15.9815,3826.0811],[-69.1911,-15.986,3815.4036],[-69.1863,-15.9886,3808.5],[-69.1891,-15.9927,3817.8167],[-69.1857,-15.9967,3839.0002],[-69.1831,-15.9971,3813.0693],[-69.1814,-15.9956,3815.5894],[-69.1796,-15.9897,3822.5833],[-69.1783,-15.9907,3822.5833],[-69.1757,-15.9893,3808.5],[-69.1739,-15.9921,3815.3206],[-69.1691,-15.9945,3811.2451],[-69.1683,-15.9968,3813.437],[-69.1707,-15.9976,3818.2734],[-69.176,-15.9969,3809.8682],[-69.1775,-15.9953,3810.7046],[-69.1815,-15.9972,3808.5],[-69.1809,-16.0014,3856.3457],[-69.1737,-16.0088,3808.5],[-69.1741,-16.0105,3808.5],[-69.1687,-16.0129,3809.1682],[-69.1663,-16.0094,3818.5774],[-69.1625,-16.0079,3816.3752],[-69.162,-16.0045,3808.5],[-69.1569,-16.0093,3808.5],[-69.1549,-16.0137,3808.5],[-69.1576,-16.017,3808.5],[-69.1569,-16.0192,3808.5],[-69.1509,-16.02,3857.1978],[-69.1442,-16.0236,3810.165],[-69.1453,-16.0257,3808.5],[-69.1431,-16.0288,3808.5],[-69.1447,-16.0338,3808.5],[-69.1418,-16.0435,3847.6553],[-69.1436,-16.0482,3851.7642],[-69.141,-16.0526,3808.5],[-69.1451,-16.0529,3878.2798],[-69.1479,-16.0462,3854.4456],[-69.1531,-16.0434,3811.3887],[-69.1532,-16.0397,3826.8376],[-69.1578,-16.0399,3808.5],[-69.1583,-16.0375,3846.9553],[-69.1615,-16.0385,3808.5],[-69.162,-16.036,3814.9265],[-69.1638,-16.036,3814.9265],[-69.1655,-16.033,3828.0737],[-69.1727,-16.0291,3819.3662],[-69.1756,-16.0317,3808.5],[-69.1715,-16.0371,3808.5],[-69.1692,-16.0451,3836.4463],[-69.1627,-16.0564,3808.5],[-69.171,-16.0498,3808.5],[-69.1741,-16.04,3869.9434],[-69.1867,-16.0328,3810.146],[-69.2018,-16.0085,3847.5896],[-69.2013,-16.0065,3835.178],[-69.1925,-16.0124,3813.5315],[-69.1899,-16.0094,3823.0776],[-69.1898,-16.0071,3836.4155],[-69.197,-15.9996,3808.5],[-69.1974,-15.9965,3810.0002],[-69.2021,-15.9939,3832.2041],[-69.2031,-15.9914,3808.5],[-69.2056,-15.9908,3827.968],[-69.2107,-15.9929,3821.3962],[-69.2143,-15.9882,3808.5],[-69.2107,-15.9848,3819.0989],[-69.2041,-15.987,3833.4985],[-69.2023,-15.9858,3808.5],[-69.2005,-15.9869,3808.5],[-69.2005,-15.989,3817.7588],[-69.1937,-15.9906,3824.4111],[-69.1923,-15.9892,3899.3792],[-69.1922,-15.9854,3815.4036],[-69.1939,-15.9807,3808.5],[-69.1929,-15.9815,3826.0811]],
[[-69.1897,-15.9773,3808.5],[-69.1909,-15.9785,3808.5],[-69.1922,-15.9758,3808.5],[-69.1906,-15.9769,3824.0459],[-69.1897,-15.9773,3808.5]],
[[-68.8472,-16.2702,3810.0225],[-68.8507,-16.275,3808.5],[-68.8492,-16.2781,3810.9751],[-68.8507,-16.2797,3808.5],[-68.8512,-16.2743,3808.5],[-68.8472,-16.2702,3810.0225]],
[[-68.8289,-16.2761,3809.3428],[-68.8234,-16.2761,3808.5],[-68.8224,-16.2782,3836.8193],[-68.8178,-16.2806,3811.9373],[-68.8178,-16.2827,3812.5381],[-68.812,-16.2813,3827.3931],[-68.8046,-16.2853,3812.8647],[-68.8015,-16.2916,3809.042],[-68.804,-16.2961,3812.9075],[-68.8024,-16.2998,3812.0647],[-68.804,-16.3024,3816.657],[-68.8066,-16.301,3816.1069],[-68.8046,-16.2966,3810.1204],[-68.8099,-16.2984,3831.6953],[-68.8145,-16.3027,3816.0767],[-68.8231,-16.2961,3821.981],[-68.8242,-16.2919,3840.7021],[-68.8204,-16.2872,3809.0286],[-68.8256,-16.2842,3832.8032],[-68.8261,-16.2804,3835.2114],[-68.8296,-16.2769,3809.2144],[-68.8289,-16.2761,3809.3428]],
[[-68.8663,-16.2698,3810.9124],[-68.8673,-16.2735,3808.5],[-68.8711,-16.2747,3808.5],[-68.8724,-16.2713,3808.5],[-68.8711,-16.2688,3810.458],[-68.8687,-16.2671,3809.6565],[-68.8663,-16.2698,3810.9124]]]]}}