{"type": "Feature","bbox": [-66.3604,-19.7069,-66.0144,-19.2337],"geometry": {"type": "MultiPolygon","coordinates": [[[[-66.1889,-19.2421,4009.5112],[-66.2018,-19.2528,4099.668],[-66.2171,-19.2565,4084.6792],[-66.2213,-19.2621,3897.0625],[-66.2228,-19.2743,4049.8394],[-66.2291,-19.2862,4289.2261],[-66.2574,-19.3003,4611.4004],[-66.2624,-19.3015,4551.6172],[-66.27,-19.2986,4525.1763],[-66.2721,-19.3032,4420.1533],[-66.2711,-19.3141,4343.6543],[-66.2766,-19.3171,4350.8276],[-66.2843,-19.3286,4394.2095],[-66.304,-19.3706,4552.2876],[-66.3358,-19.4154,4542.4893],[-66.3569,-19.4537,4624.125],[-66.3604,-19.49,4652.6807],[-66.3342,-19.5557,4786.3564],[-66.3088,-19.5937,4575.0381],[-66.2598,-19.6443,4651.0103],[-66.2292,-19.6589,4783.625],[-66.194,-19.7069,4560.957],[-66.1729,-19.6931,4640.1235],[-66.1308,-19.6889,4517.5742],[-66.0791,-19.6776,4683.4409],[-66.1079,-19.6433,4464.5767],[-66.0964,-19.6359,4451.4424],[-66.0878,-19.6338,4429.1885],[-66.0817,-19.6117,4486.0176],[-66.0518,-19.5724,4450.3232],[-66.037,-19.5612,4382.5205],[-66.0308,-19.5396,4400.7188],[-66.0144,-19.5187,4301.2578],[-66.0168,-19.4978,4252.7476],[-66.0188,-19.4906,4236.5967],[-66.0223,-19.4865,4201.2412],[-66.0241,-19.4782,4177.2588],[-66.0204,-19.4705,4040.6631],[-66.0222,-19.4636,4044.375],[-66.0215,-19.4547,4015.678],[-66.0171,-19.4474,3969.7102],[-66.021,-19.4418,3916.0928],[-66.0159,-19.4258,3835.3447],[-66.015,-19.4155,3872.1304],[-66.0164,-19.4016,3832.5071],[-66.0231,-19.383,3500.4409],[-66.0294,-19.38,3631.7344],[-66.0318,-19.3771,3569.0015],[-66.0353,-19.3771,3573.7625],[-66.0375,-19.374,3591.2346],[-66.0387,-19.3667,3569.1025],[-66.041,-19.3648,3558.2349],[-66.045,-19.3652,3574.855],[-66.0518,-19.3613,3618.6199],[-66.0522,-19.3563,3612.105],[-66.0561,-19.3544,3616.0266],[-66.0566,-19.3515,3655.8911],[-66.0599,-19.3478,3631.1558],[-66.0623,-19.3453,3627.0901],[-66.0667,-19.345,3643.103],[-66.0716,-19.3397,3644.0708],[-66.0715,-19.3368,3642.8074],[-66.0694,-19.3354,3649.4209],[-66.0713,-19.3333,3632.3772],[-66.0698,-19.3325,3651.9922],[-66.073,-19.3307,3640.0107],[-66.0708,-19.3293,3684.405],[-66.0724,-19.3254,3682.061],[-66.0753,-19.3249,3651.5615],[-66.0748,-19.3215,3666.7122],[-66.0902,-19.3151,3665.4238],[-66.0901,-19.3113,3668.6177],[-66.0936,-19.3046,3664.7856],[-66.1074,-19.3015,3685.6895],[-66.1085,-19.2912,3683.7756],[-66.1167,-19.2949,3745.1509],[-66.1183,-19.2921,3725.1958],[-66.123,-19.2971,3710.9417],[-66.1259,-19.2948,3705.1123],[-66.1223,-19.2817,3905.5967],[-66.125,-19.2741,4023.5435],[-66.1262,-19.2535,4177.4619],[-66.1301,-19.2456,4130.127],[-66.1391,-19.2453,4014.0442],[-66.146,-19.2394,3920.2598],[-66.1507,-19.2389,3881.4436],[-66.153,-19.2341,3828.386],[-66.1614,-19.2337,3792.6433],[-66.1645,-19.2364,3773.9136],[-66.1718,-19.2377,3832.689],[-66.1788,-19.2418,3858.9014],[-66.1889,-19.2421,4009.5112]]]]}
,"properties": {"GID_3": "BOL.7.16.3_2","GID_0": "BOL","country": "Bolivia","GID_1": "BOL.7_1","province": "Potosí","NL_NAME_1": "NA","GID_2": "BOL.7.16_2","county": "TomásFrías","NL_NAME_2": "NA","city": "Urmiri","VARNAME_3": "NA","NL_NAME_3": "NA","TYPE_3": "District","ENGTYPE_3": "Distrito","CC_3": "NA","HASC_3": "NA","name": "Urmiri.city","area_km2": 1249.6174,"hist_schema_id": "Elevation0-9000","hist_area_km2": {"3500": 0.02,"3525": 0.06,"3550": 0.06,"3575": 0.28,"3600": 0.5,"3625": 0.5801,"3650": 1.4404,"3675": 1.8806,"3700": 2.5207,"3725": 3.481,"3750": 4.8619,"3775": 7.3833,"3800": 8.023,"3825": 9.6835,"3850": 13.304,"3875": 18.1654,"3900": 24.2874,"3925": 22.6668,"3950": 20.0655,"3975": 20.1637,"4000": 23.0634,"4025": 28.5032,"4050": 26.1221,"4075": 24.8205,"4100": 21.9184,"4125": 20.178,"4150": 27.2574,"4175": 27.595,"4200": 27.7725,"4225": 25.5712,"4250": 21.372,"4275": 26.5092,"4300": 24.3895,"4325": 22.4904,"4350": 25.4877,"4375": 25.3862,"4400": 30.1046,"4425": 34.3843,"4450": 32.7435,"4475": 29.1,"4500": 31.0775,"4525": 34.8138,"4550": 54.1762,"4575": 58.4413,"4600": 65.8069,"4625": 58.4942,"4650": 47.6292,"4675": 36.2209,"4700": 38.1776,"4725": 34.6799,"4750": 26.848,"4775": 17.9007,"4800": 9.4722,"4825": 9.0929,"4850": 11.3517,"4875": 11.6321,"4900": 8.1744,"4925": 4.3568,"4950": 2.3382,"4975": 1.4988,"5000": 0.8593,"5025": 0.7993,"5050": 0.7794,"5075": 0.6594,"5100": 0.1199,"5125": 0.02}}}