{"type":"Feature","properties":{"GID_3":"BOL.6.5.3_2","GID_0":"BOL","country":"Bolivia","GID_1":"BOL.6_1","province":"Pando","NL_NAME_1":"NA","GID_2":"BOL.6.5_2","county":"NicolásSuárez","NL_NAME_2":"NA","city":"Cobija","VARNAME_3":"NA","NL_NAME_3":"NA","TYPE_3":"District","ENGTYPE_3":"Distrito","CC_3":"NA","HASC_3":"NA","name":"Cobija.city"},
"geometry":{"type": "MultiPolygon","coordinates": [[[[-69.0017,-11.0103,211.1866],[-69.0017,-11.1502,284.1618],[-68.7156,-11.1475,258.9113],[-68.7151,-11.1448,265.8919],[-68.7168,-11.1452,258.5322],[-68.713,-11.1331,244.0412],[-68.7158,-11.1245,244.9168],[-68.7232,-11.1146,228.9619],[-68.7223,-11.1063,238.5139],[-68.735,-11.096,217.0111],[-68.741,-11.0973,214.9822],[-68.7493,-11.0956,211.3958],[-68.7512,-11.0909,216.4607],[-68.757,-11.0878,213.5462],[-68.7596,-11.0825,219.3907],[-68.7588,-11.0781,218.1591],[-68.7647,-11.074,216.468],[-68.7661,-11.0665,204.0179],[-68.7628,-11.0608,203.6329],[-68.765,-11.0581,204.1658],[-68.7649,-11.0518,201.6805],[-68.7672,-11.0494,209.4947],[-68.7602,-11.0394,194.6647],[-68.752,-11.0373,192.5044],[-68.7529,-11.0335,192.9229],[-68.7517,-11.0309,195.7191],[-68.7534,-11.0291,191.1322],[-68.7516,-11.0286,189.9586],[-68.7515,-11.024,198.3343],[-68.7547,-11.023,193.9021],[-68.7505,-11.0209,189.9851],[-68.7514,-11.0171,183.2911],[-68.7489,-11.0109,189.6682],[-68.7556,-11.0119,190.1828],[-68.76,-11.0183,200.742],[-68.7631,-11.0195,190.5344],[-68.7638,-11.0131,185.6775],[-68.7624,-11.0111,183.368],[-68.7578,-11.0099,181.1734],[-68.7593,-11.0036,183.2671],[-68.763,-11.0036,192.8047],[-68.771,-11.0083,197.1405],[-68.7803,-11.0055,197.3865],[-68.7793,-11.0004,191.8623],[-68.782,-10.9998,186.6706],[-68.7825,-11.002,188.1437],[-68.7873,-11.0059,186.3515],[-68.7859,-11.0129,186.5693],[-68.7883,-11.0153,196.6438],[-68.7907,-11.0123,191.6613],[-68.7903,-11.0011,188.7449],[-68.7969,-11.0008,190.6566],[-68.7993,-10.9989,193.7729],[-68.7983,-10.9963,196.206],[-68.7926,-10.9913,187.6747],[-68.7983,-10.9918,202.6829],[-68.8027,-11.0016,201.1732],[-68.8067,-11.0036,199.0611],[-68.8127,-11.0033,195.2113],[-68.817,-11.0062,194.9464],[-68.8235,-11.0042,193.0387],[-68.8248,-11.0065,204.2047],[-68.8295,-11.0085,200.0422],[-68.8317,-11.003,194.3077],[-68.8361,-10.9984,190.298],[-68.8385,-11.0025,195.2039],[-68.8418,-11.0033,206.1462],[-68.8438,-11.0013,204.5212],[-68.8468,-11.0171,207.113],[-68.8633,-11.0177,199.088],[-68.8674,-11.0237,219.0795],[-68.8707,-11.0234,213.0673],[-68.8759,-11.018,195.1317],[-68.8773,-11.0214,199.7726],[-68.8823,-11.0226,206.6097],[-68.8884,-11.0189,212.2612],[-68.8898,-11.0136,205.8217],[-68.8954,-11.0167,206.2991],[-68.9049,-11.0156,194.8604],[-68.9092,-11.0227,197.4039],[-68.9221,-11.0149,216.3237],[-68.9246,-11.0192,195.564],[-68.9296,-11.0132,203.7631],[-68.9311,-11.0136,203.7631],[-68.9351,-11.0059,201.3066],[-68.9449,-11.0127,199.8178],[-68.9483,-11.0129,203.7943],[-68.9484,-11.0053,218.7382],[-68.9546,-11.0045,201.2312],[-68.9574,-11.0019,198.5202],[-68.955,-10.9956,197.3251],[-68.9569,-10.9949,220.1753],[-68.9637,-10.995,218.7488],[-68.9746,-11.004,217.2708],[-68.9797,-11.0046,215.3192],[-68.9876,-10.9995,197.6306],[-68.9836,-11.0083,200.8275],[-68.9846,-11.0099,213.4877],[-68.9918,-11.0121,215.2695],[-68.9956,-11.0111,214.2218],[-68.9957,-11.004,216.47],[-68.9994,-11.0064,209.942],[-69.0017,-11.0103,211.1866]]],
[[[-68.88,-11.0126,207.4302],[-68.8832,-11.0107,213.8414],[-68.8851,-11.0146,198.5541],[-68.8843,-11.0169,194.6485],[-68.8814,-11.0176,193.9408],[-68.88,-11.0126,207.4302]]]]}}