{"type": "Feature","bbox": [-68.1179,-22.0144,-66.2692,-19.7032],"geometry": {"type": "MultiPolygon","coordinates": [[[[-67.5713,-19.8867,3653.7332],[-67.5766,-19.8884,3653.8323],[-67.5831,-19.8946,3653.7515],[-67.8644,-20.5102,3654.1958],[-67.8625,-20.514,3654.25],[-67.8581,-20.5153,3654.2793],[-67.9888,-20.7201,3670.8357],[-67.9591,-20.7779,3662.3806],[-67.8798,-20.8706,3671.4573],[-67.8695,-21.0136,3761.8401],[-67.8706,-21.0231,4002.6353],[-67.8689,-21.034,4203.2979],[-67.8704,-21.043,4605.2939],[-67.8673,-21.0621,4251.9048],[-67.8649,-21.0618,4241.2598],[-67.8679,-21.0688,4289.8745],[-67.8605,-21.0866,4789.6733],[-67.8598,-21.093,5108.2866],[-67.8645,-21.1047,5235.1274],[-67.9345,-21.1224,3739.4236],[-67.9639,-21.1395,3701.0381],[-68.0013,-21.1786,3711.1562],[-68.0114,-21.1865,3751.7871],[-68.0191,-21.2001,3835.3726],[-68.0197,-21.2138,3923.418],[-68.0162,-21.2367,4050.5374],[-67.9715,-21.2759,4991.1343],[-67.9672,-21.3091,5169.5459],[-67.9705,-21.3645,4883.9424],[-67.967,-21.4025,4187.2173],[-67.9777,-21.426,4180.8208],[-67.9899,-21.4394,4245.7241],[-67.9925,-21.445,4232.2988],[-67.9914,-21.4506,4224.2769],[-67.9934,-21.4615,4235.6772],[-67.9999,-21.4756,4179.5776],[-68.0022,-21.4861,4209.6792],[-68.0011,-21.5128,4145.9316],[-68.0077,-21.5214,4149.8081],[-68.011,-21.5316,4160.5952],[-68.0103,-21.5389,4166.4912],[-68.0168,-21.5481,4216.145],[-68.0193,-21.555,4247.8623],[-68.018,-21.5626,4220.4375],[-68.0203,-21.5701,4224.1602],[-68.0239,-21.5747,4244.9229],[-68.0529,-21.5856,4150.7681],[-68.054,-21.5887,4140.2271],[-68.051,-21.604,4147.6582],[-68.0519,-21.6105,4141.6631],[-68.0555,-21.6189,4119.4224],[-68.0583,-21.6225,4123.709],[-68.0636,-21.6243,4129.7886],[-68.0689,-21.6346,4128.2729],[-68.0679,-21.6386,4127.4717],[-68.0727,-21.6507,4119.8945],[-68.0896,-21.6628,4330.7651],[-68.1179,-21.6786,5480.4463],[-68.1002,-21.7165,4568.6572],[-68.0599,-21.7779,5489.9136],[-68.0631,-21.8528,4458.6104],[-68.0706,-21.962,5318.2236],[-67.9244,-21.959,4974.7036],[-67.8163,-21.9636,5018.1201],[-67.7736,-21.9487,5467.29],[-67.6251,-21.9525,4716.4453],[-67.5634,-21.9819,4442.5747],[-67.4376,-21.9828,4301.6958],[-67.3406,-22.0144,4177.9551],[-67.2434,-22.0045,5259.8193],[-67.2197,-22.0092,5866.3784],[-67.1544,-22.0059,5170.4785],[-67.0513,-21.9762,4838.6958],[-67.0321,-21.9656,4807.4375],[-67.0274,-21.9253,4406.6626],[-67.0371,-21.9108,4326.2842],[-67.0386,-21.893,4314.6318],[-67.045,-21.8784,4286.3999],[-67.061,-21.8641,4286.2832],[-67.0831,-21.8588,4325.2866],[-67.0985,-21.8506,4387.4766],[-67.1556,-21.8335,4267.3447],[-67.1882,-21.8268,4408.228],[-67.279,-21.7864,4119.1807],[-67.3693,-21.7255,3909.458],[-67.3919,-21.694,4048.3774],[-67.4244,-21.686,4336.7319],[-67.445,-21.6691,4184.8037],[-67.5669,-21.5382,4064.7407],[-67.611,-21.518,4142.8164],[-67.6957,-21.3533,3903.2854],[-67.7164,-21.2705,4631.9448],[-67.7412,-21.1404,3899.3491],[-67.7147,-21.1008,3854.585],[-67.6881,-21.082,4040.231],[-67.6274,-21.1116,3793.9124],[-67.5815,-21.0861,4003.9431],[-67.5627,-21.0987,3927.2744],[-67.5321,-21.1554,3993.2278],[-67.5328,-21.1892,4065.5288],[-67.5221,-21.2144,4212.7524],[-67.4827,-21.2671,3889.9241],[-67.4641,-21.3388,3779.6396],[-67.3802,-21.434,3945.4763],[-67.3654,-21.4605,4344.1074],[-67.3468,-21.4752,3846.2671],[-67.2454,-21.5156,3797.1392],[-67.1255,-21.5978,3903.2246],[-67.0244,-21.7023,3969.3977],[-66.9458,-21.6203,4007.9543],[-66.918,-21.6035,3968.8848],[-66.9095,-21.5683,3908.3474],[-66.8752,-21.5326,3933.7876],[-66.8468,-21.5197,3931.6702],[-66.8449,-21.5112,3892.7852],[-66.835,-21.5069,3940.0837],[-66.8105,-21.4315,3933.7129],[-66.7885,-21.3843,3878.7202],[-66.761,-21.3486,3871.2432],[-66.7584,-21.349,3873.1377],[-66.7451,-21.3443,3882.3616],[-66.735,-21.3461,3882.3247],[-66.7304,-21.3417,3886.6885],[-66.7219,-21.3402,3888.2651],[-66.7167,-21.3422,3891.6992],[-66.7137,-21.3479,3896.1282],[-66.7105,-21.3502,3896.5044],[-66.7005,-21.3527,3900.9949],[-66.6917,-21.3512,3908.688],[-66.6886,-21.3537,3905.6816],[-66.6834,-21.3538,3908.2061],[-66.6731,-21.3481,3913.0876],[-66.6698,-21.3411,3917.4702],[-66.6673,-21.3391,3918.3589],[-66.6597,-21.3373,3920.3562],[-66.6543,-21.3308,3927.4851],[-66.6457,-21.3275,3930.2346],[-66.642,-21.3281,3934.1643],[-66.6399,-21.3251,3934.6711],[-66.634,-21.3253,3936.9463],[-66.6312,-21.3231,3938.5928],[-66.6244,-21.3216,3942.4614],[-66.6189,-21.3222,3944.6799],[-66.6103,-21.3148,3952.1255],[-66.6091,-21.3076,3957.8745],[-66.6069,-21.3049,3958.9062],[-66.5986,-21.3032,3964.8511],[-66.5944,-21.2981,3968.5625],[-66.5874,-21.2966,3974.5845],[-66.5803,-21.2972,3978.4146],[-66.57,-21.3007,3985.0115],[-66.563,-21.3065,3992.3203],[-66.5486,-21.3057,4001.8433],[-66.5473,-21.3072,4000.7419],[-66.5425,-21.3077,4010.4434],[-66.5344,-21.3135,4010.3972],[-66.5257,-21.3156,4024.0811],[-66.5236,-21.3183,4020.5659],[-66.5197,-21.3199,4027.1543],[-66.5183,-21.3237,4024.8875],[-66.5069,-21.3301,4033.365],[-66.4998,-21.337,4039.8645],[-66.4969,-21.3409,4052.1733],[-66.4953,-21.3474,4052.3962],[-66.4902,-21.3476,4054.2114],[-66.4857,-21.3534,4070.2656],[-66.4798,-21.3562,4056.7705],[-66.4797,-21.3603,4057.4592],[-66.4709,-21.3611,4068.9385],[-66.4629,-21.3641,4081.3613],[-66.4526,-21.3721,4112.2178],[-66.4483,-21.3778,4091.479],[-66.4428,-21.38,4088.1445],[-66.4319,-21.3787,4096.2759],[-66.4249,-21.382,4102.1426],[-66.4178,-21.3786,4106.3062],[-66.4081,-21.3774,4123.8901],[-66.3987,-21.3814,4119.2778],[-66.3935,-21.3811,4139.6035],[-66.3882,-21.3832,4127.6777],[-66.3819,-21.3822,4142.2695],[-66.3782,-21.3856,4141.3311],[-66.3606,-21.3809,4162.4272],[-66.3558,-21.3832,4161.1953],[-66.3493,-21.3835,4164.0122],[-66.3227,-21.3943,4200.6201],[-66.3086,-21.4071,4209.4824],[-66.3055,-21.4085,4214.0513],[-66.3028,-21.4078,4216.5303],[-66.2692,-21.4262,4422.4136],[-66.2706,-21.4172,4330.5952],[-66.2761,-21.406,4408.0049],[-66.2772,-21.3929,4427.0376],[-66.2723,-21.3764,4415.5474],[-66.2799,-21.3622,4404.4365],[-66.2752,-21.3495,4445.1514],[-66.2776,-21.311,4705.2896],[-66.3145,-21.2931,4495.3408],[-66.3437,-21.2725,4374.1934],[-66.3506,-21.2633,4495.3179],[-66.3573,-21.2411,4369.3721],[-66.3557,-21.2311,4297.2085],[-66.36,-21.225,4279.9351],[-66.3547,-21.2192,4297.1045],[-66.348,-21.2176,4308.3574],[-66.3461,-21.215699999999998,4313.4883],[-66.3458,-21.2102,4340.0928],[-66.343,-21.2056,4375.6279],[-66.3368,-21.2038,4434.291],[-66.3351,-21.188,4479.9888],[-66.3382,-21.1858,4430.2334],[-66.3414,-21.18,4375.5576],[-66.3498,-21.175,4386.4678],[-66.3554,-21.1684,4369.8584],[-66.3681,-21.1408,4302.1357],[-66.3694,-21.1361,4255.9434],[-66.3678,-21.1322,4267.3379],[-66.37,-21.1258,4268.3682],[-66.4029,-21.0607,4125.2881],[-66.4045,-21.0536,4077.5571],[-66.4409,-21.0189,4146.3872],[-66.4428,-21.0081,4147.1401],[-66.4525,-21.0044,4034.4641],[-66.4866,-20.9967,3997.5239],[-66.4843,-20.9531,3903.3699],[-66.5687,-20.9613,4059.5205],[-66.6149,-20.9084,4012.2498],[-66.6579,-20.8935,3855.8081],[-66.6891,-20.866,3794.3411],[-66.7257,-20.7892,3718.2529],[-66.7509,-20.762,3666.395],[-66.8031,-20.5766,3696.3787],[-66.8207,-20.5529,3659.4951],[-66.8294,-20.5445,3659.8579],[-66.8414,-20.5289,3659.4685],[-66.846,-20.5258,3659.1882],[-66.8581,-20.506,3658.803],[-66.8623,-20.5021,3658.2173],[-66.8677,-20.4871,3658.3433],[-66.871,-20.4638,3658.7637],[-66.9244,-20.418,3653.5],[-66.9393,-20.4031,3653.5],[-66.9384,-20.4019,3653.5],[-66.9303,-20.4018,3653.5],[-66.9281,-20.3981,3653.5],[-66.9258,-20.3973,3653.5],[-66.9201,-20.3982,3653.5],[-66.9135,-20.3963,3653.5],[-66.9129,-20.3942,3653.5],[-66.9096,-20.3933,3653.5],[-66.9236,-20.3605,3653.5],[-66.9617,-20.3308,3653.5],[-66.9672,-20.328,3653.5],[-66.981,-20.3126,3653.5],[-66.9913,-20.2935,3655.26],[-66.9991,-20.2873,3655.062],[-67.0107,-20.2666,3655.3518],[-67.0105,-20.2526,3655.9468],[-67.0135,-20.2451,3655.1604],[-67.0185,-20.2382,3655.5081],[-67.0269,-20.2312,3655.5269],[-67.0346,-20.2278,3655.4397],[-67.0661,-20.2253,3655.0669],[-67.0854,-20.2185,3655.1953],[-67.0989,-20.2088,3655.166],[-67.1062,-20.1986,3655.1719],[-67.1123,-20.1937,3655.1108],[-67.1153,-20.1873,3655.2031],[-67.1247,-20.1797,3655.0703],[-67.1353,-20.1749,3655.0439],[-67.1427,-20.1649,3655.115],[-67.1551,-20.1563,3655.0837],[-67.1599,-20.1483,3655.0305],[-67.162,-20.1406,3654.9526],[-67.1676,-20.1336,3655.0996],[-67.1678,-20.13,3655.1135],[-67.1619,-20.1099,3655.165],[-67.1578,-20.1029,3655.3264],[-67.1601,-20.0961,3655.23],[-67.1532,-20.0795,3655.3535],[-67.1535,-20.0733,3655.3416],[-67.1504,-20.0693,3655.3213],[-67.1508,-20.0667,3655.343],[-67.1389,-20.0526,3655.47],[-67.1414,-20.0504,3655.3213],[-67.1404,-20.0464,3655.3833],[-67.1507,-20.0367,3655.5649],[-67.1525,-20.0258,3655.4531],[-67.1548,-20.0237,3655.448],[-67.1528,-20.0215,3655.396],[-67.1521,-20.0147,3655.3296],[-67.1576,-20.01,3655.4758],[-67.1577,-20.0027,3655.6179],[-67.1603,-19.9983,3655.4185],[-67.1654,-19.9969,3655.4819],[-67.1752,-20.0028,3655.3887],[-67.1789,-20.0027,3655.3491],[-67.1832,-20.0064,3655.2266],[-67.1855,-20.0054,3655.4165],[-67.1856,-20.0022,3655.571],[-67.1893,-20.0018,3655.2466],[-67.1884,-19.999,3655.3564],[-67.1906,-19.9972,3655.3071],[-67.1842,-19.9944,3655.6948],[-67.1796,-19.9891,3655.9124],[-67.1797,-19.9866,3655.8535],[-67.1763,-19.9844,3656.115],[-67.1794,-19.9851,3655.8779],[-67.1843,-19.9903,3655.6804],[-67.1868,-19.9898,3655.4631],[-67.183,-19.9842,3655.8721],[-67.1769,-19.9791,3656.0432],[-67.1803,-19.9783,3655.8013],[-67.1811,-19.9754,3655.812],[-67.1851,-19.9757,3655.7407],[-67.1845,-19.9738,3655.6445],[-67.1802,-19.9728,3655.9629],[-67.1864,-19.9718,3655.4575],[-67.1823,-19.9672,3655.6045],[-67.1799,-19.9672,3655.7949],[-67.1762,-19.9639,3655.8311],[-67.176,-19.9592,3655.8967],[-67.1791,-19.9556,3655.5071],[-67.1777,-19.952,3655.5596],[-67.1751,-19.9508,3655.6392],[-67.1742,-19.9321,3655.6299],[-67.1788,-19.9248,3655.3359],[-67.1783,-19.9207,3655.418],[-67.1822,-19.9165,3655.3765],[-67.1822,-19.9068,3655.4182],[-67.1885,-19.897,3655.2166],[-67.1886,-19.8929,3655.3477],[-67.1912,-19.8903,3655.3311],[-67.1918,-19.885,3655.3711],[-67.1942,-19.8817,3655.3994],[-67.193,-19.8785,3655.4092],[-67.1947,-19.8698,3655.387],[-67.2004,-19.8622,3655.5027],[-67.204,-19.8614,3655.2161],[-67.2053,-19.8591,3655.3164],[-67.2114,-19.8586,3655.2754],[-67.2143,-19.8559,3655.2346],[-67.2154,-19.8523,3655.3311],[-67.2203,-19.851,3655.2109],[-67.2221,-19.8437,3655.1094],[-67.2193,-19.8328,3655.2859],[-67.2241,-19.8235,3655.2068],[-67.2237,-19.8159,3655.2432],[-67.2299,-19.8029,3655.3667],[-67.2367,-19.7951,3655.3701],[-67.2443,-19.7889,3655.3645],[-67.2583,-19.7833,3655.3027],[-67.2641,-19.7788,3655.281],[-67.2748,-19.7792,3655.2886],[-67.2775,-19.7757,3655.2939],[-67.2774,-19.7694,3655.4255],[-67.2846,-19.7642,3655.3682],[-67.291,-19.7652,3655.3481],[-67.291,-19.7594,3655.459],[-67.2994,-19.7544,3655.5969],[-67.3016,-19.7498,3655.5527],[-67.3106,-19.7479,3655.5186],[-67.3151,-19.7442,3655.4709],[-67.322,-19.7435,3655.3384],[-67.3286,-19.7395,3655.3481],[-67.3356,-19.7307,3655.4421],[-67.3471,-19.7223,3655.3711],[-67.3707,-19.715,3655.3965],[-67.3868,-19.7128,3655.3057],[-67.3974,-19.7144,3655.1897],[-67.4175,-19.7143,3655.2158],[-67.4265,-19.7115,3655.3306],[-67.4348,-19.7121,3655.3691],[-67.4486,-19.7068,3655.335],[-67.4697,-19.7032,3655.1897],[-67.4844,-19.705,3655.1458],[-67.5018,-19.7121,3655.0425],[-67.5144,-19.7139,3654.9536],[-67.5217,-19.7166,3654.9756],[-67.5325,-19.7166,3654.9397],[-67.5387,-19.7147,3654.96],[-67.5398,-19.7127,3655.0371],[-67.5403,-19.7143,3654.9653],[-67.5474,-19.7135,3655.0459],[-67.56,-19.7167,3654.8672],[-67.5623,-19.7152,3654.9771],[-67.5717,-19.7279,3654.8735],[-67.5712,-19.7387,3654.9583],[-67.5678,-19.7468,3654.8423],[-67.5685,-19.7524,3654.895],[-67.566,-19.7572,3654.8167],[-67.5661,-19.7627,3654.9888],[-67.5677,-19.7643,3655.0105],[-67.5569,-19.7715,3653.5],[-67.5594,-19.7734,3653.5],[-67.5573,-19.7742,3653.5],[-67.5609,-19.7772,3653.842],[-67.5631,-19.7768,3655.7068],[-67.5596,-19.7788,3653.8667],[-67.556,-19.7854,3655.0625],[-67.5554,-19.7824,3653.5],[-67.5531,-19.7846,3654.6174],[-67.5468,-19.7864,3653.5],[-67.5475,-19.7839,3654.6985],[-67.5496,-19.7807,3654.1072],[-67.5467,-19.7811,3653.5],[-67.5424,-19.7856,3659.0605],[-67.5399,-19.7851,3668.3281],[-67.5378,-19.782,3653.5],[-67.5375,-19.7872,3670.0029],[-67.5345,-19.7898,3654.5657],[-67.5356,-19.794,3653.5],[-67.5474,-19.8048,3654.9097],[-67.5437,-19.8184,3654.5364],[-67.5363,-19.8255,3660.293],[-67.5296,-19.8286,3653.5],[-67.5311,-19.8302,3657.6421],[-67.529,-19.8336,3656.4297],[-67.5234,-19.8336,3657.4722],[-67.5204,-19.8291,3655.3503],[-67.5195,-19.8335,3653.5],[-67.5287,-19.8371,3671.8479],[-67.5304,-19.8409,3657.1309],[-67.5277,-19.8489,3653.5],[-67.5333,-19.8484,3654.7566],[-67.5376,-19.8524,3664.4971],[-67.5403,-19.8552,3657.0896],[-67.5445,-19.8648,3653.5],[-67.5567,-19.8646,3653.5],[-67.5594,-19.8658,3654.8872],[-67.5632,-19.8717,3655.3845],[-67.5672,-19.8853,3653.5],[-67.5713,-19.8867,3653.7332]],
[[-67.5293,-19.8601,3662.7734],[-67.5253,-19.8614,3653.5],[-67.526,-19.8622,3653.5],[-67.5292,-19.8622,3680.8408],[-67.531,-19.8667,3653.5],[-67.5318,-19.8651,3653.5],[-67.5295,-19.8602,3662.7734],[-67.5306,-19.8601,3653.5],[-67.5293,-19.8601,3662.7734]]]]}
,"properties": {"GID_3": "BOL.7.12.1_2","GID_0": "BOL","country": "Bolivia","GID_1": "BOL.7_1","province": "Potosí","NL_NAME_1": "NA","GID_2": "BOL.7.12_2","county": "NorLipez","NL_NAME_2": "NA","city": "Colcha\"K\"","VARNAME_3": "NA","NL_NAME_3": "NA","TYPE_3": "District","ENGTYPE_3": "Distrito","CC_3": "NA","HASC_3": "NA","name": "Colcha_K_.city","area_km2": 24138.28,"hist_schema_id": "Elevation0-9000","hist_area_km2": {"3650": 8408.55,"3675": 1553.25,"3700": 803.76,"3725": 749.11,"3750": 930.08,"3775": 1018.61,"3800": 838.99,"3825": 703.39,"3850": 587.07,"3875": 487.67,"3900": 446.2,"3925": 393.44,"3950": 378.43,"3975": 341.32,"4000": 335.04,"4025": 325.84,"4050": 263.54,"4075": 248.91,"4100": 241.55,"4125": 229.15,"4150": 225.04,"4175": 213.32,"4200": 212.15,"4225": 204.01,"4250": 187.55,"4275": 170.98,"4300": 151.14,"4325": 129.32,"4350": 120.73,"4375": 110.21,"4400": 103.74,"4425": 215.01,"4450": 180.98,"4475": 127.62,"4500": 140.8,"4525": 163.85,"4550": 161.27,"4575": 161.0,"4600": 151.85,"4625": 137.9,"4650": 133.63,"4675": 128.51,"4700": 132.52,"4725": 130.57,"4750": 118.52,"4775": 119.64,"4800": 108.82,"4825": 104.57,"4850": 93.05,"4875": 74.34,"4900": 58.55,"4925": 45.54,"4950": 39.16,"4975": 32.36,"5000": 30.16,"5025": 27.16,"5050": 24.39,"5075": 20.76,"5100": 18.38,"5125": 17.4,"5150": 16.02,"5175": 12.75,"5200": 12.02,"5225": 9.6,"5250": 8.31,"5275": 7.55,"5300": 7.03,"5325": 6.62,"5350": 5.22,"5375": 4.91,"5400": 4.3,"5425": 4.06,"5450": 3.49,"5475": 3.25,"5500": 2.7,"5525": 2.56,"5550": 2.78,"5575": 2.23,"5600": 1.85,"5625": 1.52,"5650": 1.42,"5675": 1.62,"5700": 1.48,"5725": 1.02,"5750": 0.93,"5775": 0.67,"5800": 0.57,"5825": 0.3,"5850": 0.3,"5875": 0.28,"5900": 0.36}}}