{"type": "Feature","bbox": [-63.4564,-17.1715,-62.3236,-16.4965],"geometry": {"type": "MultiPolygon","coordinates": [[[[-63.451,-16.5042,211.7925],[-63.4487,-16.5071,212.3304],[-63.452,-16.5073,212.6573],[-63.4564,-16.5102,211.911],[-63.4461,-16.5112,213.1025],[-63.4443,-16.5131,213.0855],[-63.4392,-16.5116,212.6859],[-63.4394,-16.5152,212.6162],[-63.4137,-16.5201,213.9494],[-63.4123,-16.5252,212.9918],[-63.4198,-16.5269,214.9599],[-63.4217,-16.5302,215.8814],[-63.4197,-16.5321,214.5902],[-63.416,-16.5314,214.2646],[-63.4098,-16.538,214.5651],[-63.4026,-16.5401,214.855],[-63.3952,-16.5399,214.1142],[-63.3985,-16.5499,214.2397],[-63.3906,-16.5509,214.7269],[-63.3886,-16.5533,214.871],[-63.3891,-16.5633,215.426],[-63.392,-16.5661,214.9874],[-63.388,-16.5666,215.2714],[-63.3858,-16.5693,216.3799],[-63.3845,-16.5724,215.285],[-63.3859,-16.5767,215.4585],[-63.385,-16.579,216.4618],[-63.377,-16.5815,216.2778],[-63.3773,-16.588,216.1266],[-63.3745,-16.5898,216.9178],[-63.3707,-16.5876,216.9828],[-63.3674,-16.5879,216.5323],[-63.3651,-16.59,216.8006],[-63.3675,-16.5935,217.0125],[-63.3658,-16.5959,216.9625],[-63.3627,-16.5972,217.7687],[-63.3577,-16.5956,217.0293],[-63.3498,-16.6021,218.2227],[-63.3474,-16.6022,217.7118],[-63.3438,-16.5996,217.2824],[-63.3297,-16.6183,218.2415],[-63.3255,-16.6179,218.2639],[-63.3253,-16.6248,218.6028],[-63.3304,-16.6284,218.4989],[-63.323,-16.6339,219.4437],[-63.3227,-16.636,219.8576],[-63.3285,-16.6369,220.0648],[-63.3306,-16.639,221.173],[-63.3383,-16.6413,218.2365],[-63.3386,-16.6429,218.9162],[-63.3308,-16.6441,219.1399],[-63.321,-16.6404,220.0226],[-63.3134,-16.6413,219.8661],[-63.3124,-16.6377,219.9578],[-63.3109,-16.6375,221.3631],[-63.3065,-16.643,220.0954],[-63.3011,-16.6379,219.9265],[-63.2982,-16.644,219.5369],[-63.2914,-16.6473,220.562],[-63.2941,-16.6493,220.9345],[-63.2997,-16.6492,220.1738],[-63.3001,-16.6504,220.608],[-63.2967,-16.6549,220.673],[-63.2916,-16.6518,221.3606],[-63.2906,-16.6564,220.6485],[-63.2887,-16.6578,220.6569],[-63.2871,-16.6572,220.6569],[-63.2832,-16.6505,220.638],[-63.2798,-16.6491,220.4571],[-63.2774,-16.6502,220.3683],[-63.2732,-16.647,220.9497],[-63.2701,-16.6543,221.5526],[-63.2622,-16.6558,220.8847],[-63.2494,-16.6733,222.2472],[-63.2477,-16.6737,221.7023],[-63.2462,-16.6715,222.4379],[-63.2494,-16.665,223.1876],[-63.2428,-16.6656,222.203],[-63.2397,-16.6681,222.0353],[-63.2369,-16.6761,222.1519],[-63.2325,-16.6805,223.1712],[-63.2283,-16.682,222.6996],[-63.2228,-16.6807,222.823],[-63.2261,-16.689,223.0026],[-63.2208,-16.6956,223.8647],[-63.2095,-16.6893,222.935],[-63.2071,-16.6914,224.7704],[-63.2071,-16.7001,223.9425],[-63.1968,-16.6973,223.9988],[-63.1925,-16.6982,224.4611],[-63.1895,-16.6953,223.7998],[-63.185,-16.6949,224.2405],[-63.1775,-16.6984,224.9492],[-63.1764,-16.7001,225.5284],[-63.1792,-16.7031,223.7973],[-63.1736,-16.7069,224.1638],[-63.1639,-16.7079,224.8574],[-63.1624,-16.713,225.3357],[-63.1576,-16.7153,225.8766],[-63.1617,-16.72,228.4801],[-63.1616,-16.7228,229.357],[-63.1549,-16.7258,227.0411],[-63.1475,-16.7334,227.5323],[-63.1493,-16.7359,228.2396],[-63.1579,-16.7372,226.9726],[-63.1588,-16.7398,228.3863],[-63.1495,-16.7436,226.2036],[-63.1426,-16.7429,226.3634],[-63.1407,-16.7441,226.3271],[-63.1453,-16.7496,229.0001],[-63.153,-16.7538,228.6065],[-63.1487,-16.7601,229.4883],[-63.1409,-16.7573,227.9553],[-63.1384,-16.7585,227.2459],[-63.1405,-16.7697,228.3339],[-63.1391,-16.7761,228.6486],[-63.1363,-16.7776,228.7787],[-63.1236,-16.7778,228.7168],[-63.1225,-16.7799,228.6674],[-63.1261,-16.7853,228.9053],[-63.1262,-16.788,229.0764],[-63.1211,-16.7935,230.422],[-63.1183,-16.7917,231.8277],[-63.1188,-16.7892,230.7795],[-63.1223,-16.7863,230.11],[-63.1198,-16.7835,231.4237],[-63.1172,-16.7836,231.3569],[-63.1132,-16.7901,231.2063],[-63.1088,-16.7892,230.2914],[-63.108,-16.7934,229.7864],[-63.1116,-16.7996,231.6202],[-63.1097,-16.8027,231.5255],[-63.1072,-16.8023,232.4737],[-63.1047,-16.7985,232.7372],[-63.0978,-16.8033,235.0317],[-63.0973,-16.8091,235.2463],[-63.0935,-16.8061,235.3358],[-63.0807,-16.8081,235.4856],[-63.0724,-16.8249,232.3905],[-63.0729,-16.8281,236.5708],[-63.0781,-16.8343,233.5645],[-63.0843,-16.8353,232.3563],[-63.0861,-16.8375,232.499],[-63.0843,-16.845,232.3255],[-63.0869,-16.8506,232.6261],[-63.0872,-16.8553,233.7566],[-63.0848,-16.8612,238.2157],[-63.0885,-16.8653,233.3934],[-63.0877,-16.8791,234.9813],[-63.093,-16.8846,234.5561],[-63.0973,-16.8924,235.4395],[-63.0972,-16.8957,235.066],[-63.096,-16.8996,236.3253],[-63.0894,-16.9048,236.3143],[-63.0826,-16.8994,236.4758],[-63.0786,-16.8993,236.0388],[-63.076,-16.9079,236.1905],[-63.0776,-16.912,236.1531],[-63.0768,-16.9148,236.3174],[-63.0717,-16.9144,236.1334],[-63.0682,-16.9184,238.2794],[-63.0653,-16.9189,236.464],[-63.0643,-16.9175,237.8359],[-63.0624,-16.9191,237.1546],[-63.0618,-16.9216,237.6592],[-63.0642,-16.9269,238.0122],[-63.0699,-16.9296,237.1238],[-63.0792,-16.9239,236.9812],[-63.0869,-16.9219,237.0317],[-63.0836,-16.9325,237.2288],[-63.0747,-16.936,237.9441],[-63.0747,-16.9405,238.4177],[-63.0681,-16.9416,237.5286],[-63.0643,-16.9394,242.7511],[-63.0636,-16.9451,237.5297],[-63.0621,-16.9462,239.834],[-63.0668,-16.9485,238.1295],[-63.0632,-16.9532,238.5464],[-63.0744,-16.9562,238.9515],[-63.0788,-16.9605,238.5511],[-63.0725,-16.9602,239.4389],[-63.0675,-16.9566,239.1374],[-63.0586,-16.9559,239.0069],[-63.055,-16.9514,239.4815],[-63.0457,-16.9596,239.6207],[-63.0453,-16.9624,239.8505],[-63.0488,-16.9647,240.0191],[-63.0413,-16.9714,241.3296],[-63.0419,-16.9818,240.822],[-63.0438,-16.9857,240.7068],[-63.0506,-16.9919,241.6739],[-63.0443,-16.9934,241.851],[-63.0405,-16.9986,241.7698],[-63.0405,-17.0116,241.9652],[-63.0451,-17.0165,241.4563],[-63.0451,-17.0187,240.946],[-63.0414,-17.0208,241.7706],[-63.0342,-17.0203,241.281],[-63.0251,-17.0233,242.1455],[-63.0199,-17.0274,242.2279],[-63.0178,-17.0319,242.1499],[-63.0341,-17.0324,244.8763],[-63.0352,-17.0346,245.1335],[-63.0327,-17.0419,243.2855],[-63.0295,-17.0421,244.3744],[-63.0282,-17.046,244.0345],[-63.0237,-17.0433,243.7965],[-63.0217,-17.0393,245.1082],[-63.0177,-17.0399,244.4048],[-63.017,-17.0471,244.1311],[-63.0081,-17.0547,245.4576],[-62.9996,-17.0524,247.553],[-62.9966,-17.0532,244.1327],[-62.9924,-17.0513,246.1028],[-62.9855,-17.0527,247.785],[-62.984,-17.0561,243.4277],[-62.9871,-17.0579,243.1968],[-62.9871,-17.0678,248.0999],[-62.9928,-17.0754,249.0724],[-62.9914,-17.0808,248.808],[-62.9833,-17.0823,246.944],[-62.979,-17.0892,246.6093],[-62.9742,-17.0924,246.433],[-62.9492,-17.092,250.6933],[-62.9384,-17.0896,246.0],[-62.9323,-17.0914,250.0303],[-62.9225,-17.1057,247.4213],[-62.9211,-17.1182,252.5722],[-62.9116,-17.1183,249.5269],[-62.9072,-17.1201,249.9768],[-62.8996,-17.1277,250.0772],[-62.8981,-17.1271,250.0772],[-62.8927,-17.1174,251.6602],[-62.8884,-17.116,253.0263],[-62.8833,-17.1189,247.0],[-62.8789,-17.1238,252.9865],[-62.8674,-17.1282,248.3103],[-62.8623,-17.1327,253.4171],[-62.8175,-17.1417,254.0648],[-62.8118,-17.1448,257.3932],[-62.8044,-17.1523,256.0505],[-62.7969,-17.1664,260.27],[-62.7856,-17.1682,258.5883],[-62.7849,-17.1715,260.1674],[-62.7239,-17.1334,253.666],[-62.7082,-17.1113,250.2005],[-62.6842,-17.1019,251.3186],[-62.6685,-17.0861,248.8103],[-62.6508,-17.0786,247.338],[-62.6478,-17.0761,247.3629],[-62.6487,-17.0749,247.3629],[-62.6445,-17.0598,247.8704],[-62.6198,-17.0642,250.6106],[-62.6224,-17.0701,251.4745],[-62.6214,-17.0715,250.7542],[-62.6228,-17.0785,251.2386],[-62.6195,-17.0792,251.0701],[-62.6134,-17.0878,252.1927],[-62.6184,-17.091,250.7122],[-62.6028,-17.1003,252.1349],[-62.5547,-17.0796,252.0983],[-62.42,-17.049,251.5821],[-62.3272,-17.0412,245.5692],[-62.3275,-17.0364,245.3156],[-62.3237,-17.0324,245.1217],[-62.3236,-17.0284,244.834],[-62.3257,-17.0252,244.4808],[-62.3239,-17.0189,244.1871],[-62.3292,-17.0135,243.8903],[-62.3292,-17.007,243.6214],[-62.3317,-17.0008,243.4813],[-62.3338,-16.9994,242.9863],[-62.3303,-16.9885,242.7849],[-62.3353,-16.9853,242.3188],[-62.3408,-16.975,243.0811],[-62.3353,-16.9653,242.0919],[-62.3343,-16.9578,242.0466],[-62.336,-16.9526,247.8007],[-62.3349,-16.9504,249.6536],[-62.3382,-16.9457,252.6052],[-62.3419,-16.9454,248.0584],[-62.3444,-16.9423,245.9704],[-62.348,-16.9329,241.5861],[-62.3465,-16.931,241.3316],[-62.3504,-16.9294,241.1574],[-62.348,-16.9242,240.3762],[-62.3512,-16.922,240.8587],[-62.3547,-16.9161,240.6184],[-62.3657,-16.9145,240.0386],[-62.3628,-16.9057,239.6037],[-62.3607,-16.904,239.0609],[-62.364,-16.9016,239.5951],[-62.3627,-16.8984,238.841],[-62.3664,-16.8947,239.1082],[-62.369,-16.8957,239.8781],[-62.3711,-16.8944,240.0168],[-62.3751,-16.8727,237.4704],[-62.3833,-16.866,236.8779],[-62.3888,-16.8582,238.6379],[-62.3915,-16.8491,236.5699],[-62.3923,-16.8343,242.2942],[-62.3884,-16.8295,242.8822],[-62.3888,-16.8279,241.5481],[-62.3842,-16.8251,243.1657],[-62.3855,-16.8206,241.8329],[-62.3892,-16.8165,247.3002],[-62.3933,-16.8196,240.0411],[-62.3987,-16.8195,245.6091],[-62.3973,-16.8169,245.7625],[-62.4028,-16.8171,240.8798],[-62.4036,-16.815,240.7568],[-62.4064,-16.8164,242.1465],[-62.4074,-16.8125,248.7742],[-62.4084,-16.8167,243.6258],[-62.4109,-16.8169,239.0431],[-62.4107,-16.8111,244.6706],[-62.414,-16.8104,244.8603],[-62.4179,-16.812,239.7691],[-62.4215,-16.8083,240.2306],[-62.4196,-16.8063,244.9752],[-62.4219,-16.8023,242.6275],[-62.4179,-16.7998,243.6618],[-62.4171,-16.7954,249.2212],[-62.424,-16.7986,244.328],[-62.4268,-16.7935,238.1376],[-62.4254,-16.7918,242.2262],[-62.4262,-16.7897,242.1594],[-62.4244,-16.7886,249.6056],[-62.4276,-16.7873,242.8084],[-62.4284,-16.7845,241.3333],[-62.4227,-16.783,245.1028],[-62.4235,-16.7802,243.2331],[-62.4213,-16.7791,238.9935],[-62.4254,-16.7768,237.8684],[-62.4277,-16.7782,237.6599],[-62.4275,-16.7733,238.3178],[-62.4301,-16.7708,237.8412],[-62.426,-16.7707,240.8149],[-62.4247,-16.7677,243.3909],[-62.4259,-16.7657,245.1572],[-62.4203,-16.7676,242.0007],[-62.4209,-16.7634,241.8301],[-62.4279,-16.7629,238.935],[-62.4259,-16.761,241.7263],[-62.42,-16.7611,243.8011],[-62.4206,-16.7582,244.6216],[-62.4256,-16.7601,241.7263],[-62.4267,-16.7583,243.9921],[-62.4222,-16.755,247.5143],[-62.4227,-16.7523,244.8967],[-62.4198,-16.7535,239.4387],[-62.4187,-16.7509,240.7494],[-62.4202,-16.75,240.7494],[-62.4242,-16.7515,244.8967],[-62.4266,-16.7466,243.2467],[-62.4306,-16.7455,243.0008],[-62.4305,-16.7423,246.0209],[-62.4336,-16.7453,238.6148],[-62.4342,-16.7436,238.9144],[-62.4302,-16.7411,242.0615],[-62.427,-16.7369,241.9891],[-62.428,-16.7354,241.787],[-62.426,-16.734,240.1261],[-62.4337,-16.7348,246.1327],[-62.4352,-16.7335,247.9343],[-62.4298,-16.7306,241.6072],[-62.4298,-16.7236,241.7587],[-62.4259,-16.7172,242.3154],[-62.4266,-16.7155,241.7472],[-62.423,-16.713,240.2612],[-62.4274,-16.713,240.7522],[-62.4282,-16.7171,245.2653],[-62.4297,-16.718,245.8596],[-62.4313,-16.7119,240.2232],[-62.4337,-16.7094,245.0549],[-62.4286,-16.7105,236.6183],[-62.4278,-16.7083,240.2491],[-62.4308,-16.7069,239.6339],[-62.4349,-16.7077,241.0224],[-62.4362,-16.7061,240.7675],[-62.4345,-16.703,238.5671],[-62.4355,-16.7021,240.4712],[-62.4389,-16.704,242.784],[-62.4392,-16.7018,234.8683],[-62.4403,-16.7026,234.8683],[-62.439,-16.7064,239.7018],[-62.4368,-16.7064,241.893],[-62.438,-16.7075,239.7018],[-62.4444,-16.7053,243.4235],[-62.4466,-16.7031,242.3277],[-62.4409,-16.7008,234.0821],[-62.4451,-16.6976,234.8271],[-62.4463,-16.7012,241.8103],[-62.448,-16.7009,242.6128],[-62.4482,-16.6979,244.7462],[-62.4463,-16.6959,235.6626],[-62.4495,-16.6942,247.9455],[-62.4527,-16.689,234.6697],[-62.453,-16.6961,238.364],[-62.4512,-16.6979,246.9811],[-62.4545,-16.6996,244.1811],[-62.4582,-16.6952,239.1033],[-62.4574,-16.7001,245.6654],[-62.4586,-16.7007,243.2802],[-62.4628,-16.696,236.3435],[-62.4638,-16.7046,243.2443],[-62.4687,-16.7041,231.8799],[-62.4691,-16.6957,237.6884],[-62.4723,-16.6908,237.5911],[-62.4752,-16.694,238.5532],[-62.4758,-16.6926,241.2172],[-62.4689,-16.6858,248.5536],[-62.4676,-16.6894,240.3796],[-62.4663,-16.6894,240.3796],[-62.4658,-16.686,233.5788],[-62.4687,-16.6825,234.8254],[-62.4717,-16.6838,237.8288],[-62.4722,-16.6796,235.7316],[-62.4794,-16.6823,233.5627],[-62.4799,-16.6758,241.1369],[-62.4848,-16.6699,235.8223],[-62.4838,-16.6671,234.5762],[-62.4878,-16.6702,236.4409],[-62.4893,-16.6695,232.7414],[-62.4858,-16.6601,237.2451],[-62.4905,-16.6581,235.0472],[-62.4898,-16.6558,233.6491],[-62.4912,-16.6538,235.7408],[-62.4864,-16.6526,232.8266],[-62.487,-16.6493,232.427],[-62.4923,-16.6497,236.5647],[-62.4903,-16.6458,232.1834],[-62.4937,-16.6451,235.1247],[-62.4907,-16.642,234.5524],[-62.4922,-16.6382,233.3078],[-62.4946,-16.6381,235.7813],[-62.4968,-16.642,231.8249],[-62.4981,-16.6389,230.927],[-62.4962,-16.6359,231.8513],[-62.4979,-16.635,233.7536],[-62.502,-16.6416,233.4739],[-62.5063,-16.6421,233.9646],[-62.5069,-16.6457,230.1651],[-62.5148,-16.6437,233.1501],[-62.5152,-16.6396,241.2315],[-62.518,-16.6382,233.4496],[-62.5225,-16.6293,231.2734],[-62.5203,-16.6226,230.0696],[-62.5272,-16.6169,231.0367],[-62.5324,-16.6158,234.3166],[-62.5335,-16.6115,234.304],[-62.5417,-16.6087,233.2324],[-62.5416,-16.6022,236.1945],[-62.545,-16.6006,238.1177],[-62.5451,-16.5978,239.3594],[-62.5505,-16.5885,233.9977],[-62.5533,-16.5925,236.4952],[-62.5562,-16.592,234.6965],[-62.5613,-16.5941,236.1907],[-62.5639,-16.5913,232.84],[-62.5672,-16.5909,231.6023],[-62.5697,-16.5916,235.8192],[-62.5722,-16.5952,240.1596],[-62.5835,-16.5936,234.498],[-62.5873,-16.5876,234.1756],[-62.595,-16.5829,231.7807],[-62.5926,-16.5794,238.244],[-62.5927,-16.5741,243.1842],[-62.5903,-16.5722,233.1122],[-62.5908,-16.5703,231.8972],[-62.5967,-16.5685,238.7345],[-62.6008,-16.575,235.8781],[-62.6024,-16.5758,238.9896],[-62.6041,-16.5743,234.2748],[-62.6033,-16.5648,237.9971],[-62.6102,-16.5611,232.5244],[-62.6034,-16.5523,232.621],[-62.6065,-16.5453,235.8444],[-62.6095,-16.5478,242.1762],[-62.6071,-16.5501,235.5404],[-62.6097,-16.5507,238.5806],[-62.6099,-16.5529,235.0628],[-62.6138,-16.551,241.6732],[-62.6149,-16.5472,238.4056],[-62.6205,-16.5522,239.1971],[-62.6135,-16.5552,237.623],[-62.6145,-16.5587,235.716],[-62.6198,-16.559,236.9304],[-62.6209,-16.5567,236.0246],[-62.6232,-16.5613,237.5867],[-62.627,-16.5583,237.7472],[-62.6315,-16.5609,237.9085],[-62.6344,-16.5605,239.2522],[-62.6349,-16.5632,237.1106],[-62.6373,-16.5631,236.4534],[-62.6385,-16.5667,234.8958],[-62.6412,-16.5658,240.0273],[-62.6417,-16.5685,232.7025],[-62.6435,-16.5665,244.2854],[-62.6434,-16.5708,235.3748],[-62.647,-16.5694,235.7998],[-62.6493,-16.5712,229.4358],[-62.6497,-16.5683,232.1904],[-62.6468,-16.5666,238.8934],[-62.6471,-16.5654,236.0477],[-62.6498,-16.5668,233.0576],[-62.6506,-16.5653,240.5672],[-62.653,-16.5655,232.5711],[-62.6536,-16.5639,235.257],[-62.6512,-16.5625,236.5084],[-62.6543,-16.5598,237.7923],[-62.6574,-16.5603,232.9003],[-62.6591,-16.5579,228.9424],[-62.6593,-16.563,231.4795],[-62.6569,-16.5644,234.9001],[-62.6622,-16.5641,226.5367],[-62.6624,-16.5624,233.5299],[-62.6637,-16.5645,234.0904],[-62.6626,-16.5658,229.3544],[-62.6671,-16.5672,233.9258],[-62.6704,-16.5662,229.7883],[-62.6698,-16.5617,232.3941],[-62.6654,-16.5616,231.3938],[-62.6663,-16.5594,235.4298],[-62.6642,-16.5588,232.6574],[-62.6667,-16.5543,232.886],[-62.6739,-16.5542,230.6979],[-62.6745,-16.5497,230.562],[-62.673,-16.5482,232.4671],[-62.6709,-16.5498,235.9048],[-62.6641,-16.5428,232.9395],[-62.6633,-16.5393,233.5987],[-62.6652,-16.5372,233.678],[-62.6746,-16.5349,226.6963],[-62.6751,-16.5324,226.0754],[-62.6712,-16.5283,228.1516],[-62.6754,-16.5258,230.9573],[-62.6797,-16.5261,230.0018],[-62.6831,-16.5244,230.9167],[-62.6834,-16.517,231.4884],[-62.6819,-16.5128,233.6727],[-62.6782,-16.5101,235.655],[-62.6792,-16.5045,229.4855],[-62.6821,-16.5063,229.9323],[-62.6817,-16.5041,233.314],[-62.685,-16.5023,225.2231],[-62.6843,-16.5069,230.5068],[-62.6885,-16.507,230.7947],[-62.6916,-16.5003,227.3291],[-62.6938,-16.4995,231.6062],[-62.6953,-16.4965,233.862],[-62.7017,-16.498,234.6981],[-62.7002,-16.5039,227.6616],[-62.702,-16.5092,231.9407],[-62.7043,-16.5065,237.7234],[-62.7088,-16.5071,228.461],[-62.7103,-16.5028,232.8292],[-62.7125,-16.5048,232.8783],[-62.7136,-16.5038,223.6831],[-62.7139,-16.5055,224.6805],[-62.7111,-16.5067,229.1288],[-62.7128,-16.5092,231.4303],[-62.7158,-16.5078,224.8582],[-62.7129,-16.5117,231.4851],[-62.7137,-16.513,227.8189],[-62.7168,-16.5107,231.4698],[-62.7193,-16.5021,228.7262],[-62.7235,-16.5009,229.5463],[-62.7245,-16.4982,226.0366],[-62.7268,-16.499,225.0528],[-62.7237,-16.5038,230.9484],[-62.7275,-16.5034,230.4571],[-62.7278,-16.5054,229.354],[-62.7288,-16.503,230.4571],[-62.7313,-16.5036,229.6592],[-62.7309,-16.5074,227.1196],[-62.7331,-16.5059,232.7073],[-62.7327,-16.5034,228.0847],[-62.7376,-16.5041,232.2001],[-62.7383,-16.5058,225.5963],[-62.7406,-16.5036,230.272],[-62.7415,-16.505,229.8159],[-62.7479,-16.5056,230.4721],[-62.7495,-16.504,228.8185],[-62.749,-16.5019,230.1546],[-62.753,-16.5012,228.4088],[-62.7586,-16.5041,224.6301],[-62.7595,-16.5061,223.4286],[-62.7695,-16.5066,226.2782],[-62.7763,-16.5027,231.4637],[-63.451,-16.5042,211.7925]]]]}
,"properties": {"GID_3": "BOL.8.10.5_2","GID_0": "BOL","country": "Bolivia","GID_1": "BOL.8_1","province": "SantaCruz","NL_NAME_1": "NA","GID_2": "BOL.8.10_2","county": "ÑufloDeChávez","NL_NAME_2": "NA","city": "SanJulián","VARNAME_3": "NA","NL_NAME_3": "NA","TYPE_3": "District","ENGTYPE_3": "Distrito","CC_3": "NA","HASC_3": "NA","name": "San_Julián.city","area_km2": 5079.014,"hist_schema_id": "Elevation0-9000","hist_area_km2": {"200": 66.305,"225": 2925.679,"250": 2086.097,"275": 0.873,"300": 0.061}}}