{"type": "Feature","bbox": [-69.3245,-17.1018,-68.149,-16.3214],"geometry": {"type": "MultiPolygon","coordinates": [[[[-69.1321,-17.0387,3854.6326],[-69.0576,-17.0797,3857.1204],[-69.0192,-17.068,3847.6646],[-69.0174,-17.0701,3847.876],[-69.0164,-17.0774,3848.085],[-69.0139,-17.0783,3848.2097],[-69.0117,-17.0831,3848.573],[-69.0092,-17.0839,3848.9407],[-69.0071,-17.082,3848.6545],[-69.0037,-17.0831,3848.6321],[-68.9957,-17.0955,3849.7266],[-68.9845,-17.1018,3850.8018],[-68.9825,-17.0999,3851.4492],[-68.981,-17.1012,3851.4492],[-68.9737,-17.1016,3853.1616],[-68.9637,-17.1006,3855.7791],[-68.9556,-17.0702,3874.8735],[-68.9511,-17.0693,3882.2319],[-68.9454,-17.0636,3904.2832],[-68.9406,-17.0635,3920.2273],[-68.9337,-17.0669,4011.7263],[-68.9059,-17.0497,3925.6353],[-68.8512,-17.0492,3806.1025],[-68.8533,-17.0465,3806.8857],[-68.8529,-17.0415,3806.5801],[-68.8586,-17.0382,3806.4785],[-68.8558,-17.0293,3806.9167],[-68.8526,-17.0272,3809.1565],[-68.8519,-17.0239,3807.0801],[-68.858,-17.0174,3806.8687],[-68.8584,-17.0092,3806.9985],[-68.848,-16.9935,3807.0928],[-68.8396,-16.9889,3808.9507],[-68.8369,-16.9916,3808.675],[-68.8332,-16.9914,3809.9292],[-68.8205,-16.9839,3807.9048],[-68.8066,-16.9839,3808.9067],[-68.7963,-16.9802,3807.7046],[-68.7912,-16.9754,3808.1318],[-68.7889,-16.9705,3808.3071],[-68.7926,-16.96,3810.1326],[-68.7886,-16.9545,3808.321],[-68.783,-16.9546,3808.7405],[-68.778,-16.952,3808.5337],[-68.7742,-16.9575,3808.9404],[-68.7644,-16.9584,3808.7317],[-68.7652,-16.9556,3809.0925],[-68.7718,-16.9512,3808.9121],[-68.7707,-16.9452,3809.6069],[-68.7665,-16.9383,3808.8396],[-68.7673,-16.9352,3810.0991],[-68.7695,-16.9332,3811.4431],[-68.7776,-16.9334,3808.0],[-68.7841,-16.9307,3808.1777],[-68.7896,-16.916,3809.1799],[-68.7835,-16.9113,3809.686],[-68.7806,-16.9112,3809.5061],[-68.7803,-16.9088,3810.2175],[-68.7764,-16.907,3811.0435],[-68.7721,-16.9064,3811.4524],[-68.7642,-16.9091,3812.9832],[-68.7576,-16.9078,3814.5168],[-68.7437,-16.8721,3858.833],[-68.7436,-16.8268,3833.0029],[-68.7417,-16.8273,3833.3767],[-68.7412,-16.8307,3833.657],[-68.7397,-16.8309,3833.4358],[-68.7388,-16.8281,3833.616],[-68.7318,-16.825,3834.7725],[-68.7301,-16.8289,3836.4658],[-68.7289,-16.8265,3836.1333],[-68.7255,-16.8264,3837.073],[-68.7243,-16.822,3836.9951],[-68.7141,-16.8233,3839.3169],[-68.713,-16.8248,3840.2622],[-68.7109,-16.8234,3840.2439],[-68.7078,-16.8238,3841.1138],[-68.7029,-16.8188,3841.8074],[-68.7002,-16.8189,3843.9548],[-68.6988,-16.815,3843.6577],[-68.6958,-16.8158,3843.4746],[-68.694,-16.8133,3844.5308],[-68.6911,-16.8155,3845.3179],[-68.6882,-16.8134,3846.1333],[-68.6818,-16.8169,3849.5789],[-68.6803,-16.8151,3847.832],[-68.675,-16.8147,3849.3076],[-68.673,-16.8182,3850.8667],[-68.6749,-16.8206,3850.5498],[-68.6738,-16.8232,3858.9731],[-68.6724,-16.8229,3851.3271],[-68.6721,-16.819,3850.8667],[-68.6691,-16.8213,3854.7327],[-68.6675,-16.8202,3852.7822],[-68.6604,-16.8213,3855.8892],[-68.6551,-16.8208,3856.2354],[-68.6528,-16.8165,3856.9124],[-68.6486,-16.8174,3859.3804],[-68.6424,-16.8151,3860.9331],[-68.641,-16.8177,3862.0762],[-68.6383,-16.818,3863.7483],[-68.637,-16.8165,3864.7805],[-68.6379,-16.8147,3863.0522],[-68.6358,-16.8136,3864.158],[-68.6285,-16.8158,3867.9087],[-68.6258,-16.8126,3868.8882],[-68.625,-16.8074,3872.6763],[-68.6222,-16.8067,3873.1719],[-68.6381,-16.8376,3892.9001],[-68.6389,-16.8477,3924.3242],[-68.6493,-16.8495,3918.1382],[-68.6431,-16.8584,3973.7822],[-68.6445,-16.8694,4106.4902],[-68.639,-16.885,4155.0322],[-68.6308,-16.9015,4249.2715],[-68.6162,-16.8829,3976.5347],[-68.6023,-16.8791,3960.3906],[-68.5923,-16.8696,3926.5923],[-68.5577,-16.8531,3922.7261],[-68.5521,-16.8519,3926.093],[-68.5337,-16.8395,3998.5293],[-68.5084,-16.8344,4005.8611],[-68.5039,-16.8203,4076.6851],[-68.4775,-16.7899,4023.2756],[-68.4678,-16.7811,3982.9741],[-68.4453,-16.7939,3973.491],[-68.4383,-16.8012,3920.3525],[-68.4436,-16.8069,3970.7427],[-68.4483,-16.8158,3951.5645],[-68.455,-16.8178,3964.2585],[-68.4676,-16.8293,4094.7739],[-68.468,-16.835,4155.6992],[-68.4705,-16.8404,4285.6108],[-68.462,-16.8404,4238.8804],[-68.4612,-16.8428,4230.9634],[-68.4486,-16.8486,4243.3066],[-68.4398,-16.8446,4084.1218],[-68.4332,-16.839,4052.3169],[-68.4297,-16.84,4016.9458],[-68.423,-16.8381,3937.6414],[-68.4169,-16.8394,3938.1094],[-68.4129,-16.8457,3951.6611],[-68.4109,-16.854,3966.6599],[-68.4082,-16.8556,3971.7271],[-68.4019,-16.8653,3987.998],[-68.3969,-16.8689,4005.9951],[-68.3975,-16.8731,4007.124],[-68.4022,-16.8816,4077.7021],[-68.4018,-16.8884,4124.3057],[-68.3889,-16.8945,4156.9531],[-68.3879,-16.8988,4145.3965],[-68.3814,-16.9018,4145.3164],[-68.3756,-16.9084,4100.1953],[-68.3736,-16.9179,4192.4531],[-68.3704,-16.913,4148.1387],[-68.3438,-16.8933,4188.7754],[-68.3395,-16.8914,4356.7104],[-68.33,-16.8906,4149.291],[-68.3238,-16.8872,4298.9443],[-68.3147,-16.8864,4246.9736],[-68.3098,-16.884,4144.7861],[-68.2912,-16.8803,3903.9111],[-68.2885,-16.8744,3889.1875],[-68.2673,-16.8625,3868.425],[-68.2473,-16.8456,3877.9517],[-68.2444,-16.8305,4002.4604],[-68.2288,-16.8264,3874.0354],[-68.2268,-16.8209,3872.3533],[-68.2195,-16.8187,3875.6685],[-68.1975,-16.802,3908.957],[-68.1867,-16.7908,3923.7612],[-68.1767,-16.786,3938.0513],[-68.1757,-16.7771,3929.0981],[-68.1579,-16.7644,3959.4268],[-68.1526,-16.7589,4011.2183],[-68.1525,-16.7515,3993.2876],[-68.1563,-16.741,3992.9551],[-68.1577,-16.7288,3974.3416],[-68.1604,-16.7261,3973.1587],[-68.1515,-16.7261,4000.9385],[-68.149,-16.724,4028.9287],[-68.1513,-16.6943,4019.2964],[-68.1603,-16.6794,4019.0364],[-68.163,-16.6717,4005.084],[-68.175,-16.6626,3983.6472],[-68.1796,-16.6558,3974.6902],[-68.1811,-16.6332,3938.1331],[-68.2373,-16.6128,3899.6477],[-68.2161,-16.5942,3929.3723],[-68.2197,-16.5894,3929.5315],[-68.2057,-16.5734,3951.6611],[-68.2203,-16.5708,3943.6279],[-68.2212,-16.5722,3942.0229],[-68.2238,-16.5709,3938.5188],[-68.2263,-16.5733,3934.4973],[-68.2608,-16.5627,3913.9006],[-68.2575,-16.5591,3917.3936],[-68.2622,-16.5592,3912.5],[-68.2679,-16.5496,3910.8301],[-68.2751,-16.5467,3904.3975],[-68.279,-16.5468,3902.9009],[-68.2849,-16.5483,3895.6711],[-68.2906,-16.5528,3892.636],[-68.296,-16.5613,3878.6646],[-68.2982,-16.5697,3873.1011],[-68.3162,-16.5854,3862.1404],[-68.32,-16.594,3858.9609],[-68.3239,-16.596,3858.6248],[-68.3248,-16.5921,3859.3267],[-68.3271,-16.5903,3859.634],[-68.3392,-16.6004,3885.761],[-68.3556,-16.611,3845.9512],[-68.384,-16.6226,3851.4858],[-68.392,-16.6511,3847.5544],[-68.4272,-16.6799,3933.4624],[-68.4295,-16.6848,3938.1497],[-68.4375,-16.686,3959.6172],[-68.4495,-16.7078,3953.8782],[-68.4623,-16.7256,3960.8406],[-68.4837,-16.77,4184.7573],[-68.4946,-16.7727,4190.4102],[-68.519,-16.7419,4310.5225],[-68.5428,-16.7081,4635.0933],[-68.5934,-16.6761,4592.0898],[-68.5928,-16.6664,4433.6763],[-68.5956,-16.6625,4347.3438],[-68.5963,-16.6574,4382.7607],[-68.6054,-16.643,4300.7207],[-68.608,-16.6423,4383.5063],[-68.6048,-16.6206,3962.614],[-68.5886,-16.5811,3845.1448],[-68.5953,-16.5752,3843.5181],[-68.5933,-16.5726,3844.8599],[-68.5955,-16.5707,3850.9075],[-68.5958,-16.5651,3862.5051],[-68.5935,-16.5632,3865.5022],[-68.5932,-16.5573,3873.9714],[-68.5882,-16.5486,3900.135],[-68.5905,-16.5432,3915.6472],[-68.5956,-16.5382,3928.8782],[-68.6003,-16.53,3982.3767],[-68.6129,-16.5171,4014.7739],[-68.6199,-16.5201,4153.9746],[-68.6186,-16.5252,4158.6265],[-68.6151,-16.5297,4168.6206],[-68.6177,-16.5304,4156.5063],[-68.6291,-16.5257,4151.0479],[-68.6312,-16.5273,4123.416],[-68.6382,-16.5229,4160.8271],[-68.6527,-16.5209,4132.8828],[-68.6556,-16.5225,4130.1528],[-68.675,-16.5225,4148.502],[-68.6808,-16.5239,4110.355],[-68.6991,-16.519,4097.5132],[-68.7024,-16.5165,4116.6914],[-68.7074,-16.5033,4060.7905],[-68.7039,-16.4978,4030.7988],[-68.7053,-16.4909,3972.626],[-68.7048,-16.4744,4013.1426],[-68.7126,-16.461,3934.5723],[-68.7166,-16.446,3878.092],[-68.7284,-16.4219,3811.0981],[-68.7251,-16.4153,3811.4109],[-68.715,-16.4042,3811.3208],[-68.7141,-16.4011,3811.4111],[-68.7215,-16.398,3811.0618],[-68.7198,-16.3957,3811.4409],[-68.7254,-16.378,3808.5],[-68.756,-16.3604,3808.5],[-68.7882,-16.3214,3808.5],[-68.7969,-16.3236,3808.5],[-68.8031,-16.3394,3808.5],[-68.8189,-16.3371,3808.5],[-68.8188,-16.3515,3808.5],[-68.9997,-16.4481,3808.5],[-69.0326,-16.5389,3808.5],[-69.0276,-16.5573,3825.7236],[-69.0299,-16.5609,3809.5833],[-69.036,-16.5629,3808.5],[-69.0402,-16.5726,3810.853],[-69.0348,-16.5836,3808.877],[-69.0358,-16.587,3810.8066],[-69.0339,-16.606,3809.9746],[-69.0224,-16.616,3808.5],[-69.0102,-16.6333,3808.5],[-68.9985,-16.6395,3808.5],[-68.9973,-16.6419,3809.906],[-68.9989,-16.6515,3810.0989],[-69.0103,-16.6679,3808.5],[-69.0227,-16.6714,3812.2693],[-69.0251,-16.6731,3812.5435],[-69.0264,-16.6769,3812.4421],[-69.032,-16.6782,3812.5557],[-69.039,-16.6824,3813.2104],[-69.0438,-16.6885,3813.3555],[-69.0485,-16.6864,3813.7383],[-69.0541,-16.6868,3813.8833],[-69.0576,-16.6916,3815.1025],[-69.0878,-16.7024,3817.0471],[-69.1007,-16.7111,3827.1951],[-69.1108,-16.7141,3845.2783],[-69.1245,-16.7159,3819.7854],[-69.1333,-16.7098,3820.0139],[-69.1469,-16.7183,3820.6262],[-69.1698,-16.7273,3821.2827],[-69.1818,-16.7571,3825.7156],[-69.1877,-16.7966,3836.4341],[-69.1992,-16.7977,3850.1768],[-69.2121,-16.8206,3932.1648],[-69.2191,-16.8368,3854.8828],[-69.2533,-16.8605,3887.1919],[-69.2861,-16.8956,3964.4629],[-69.3044,-16.9166,4293.9888],[-69.3245,-16.952,4307.605],[-69.3127,-16.9733,4217.749],[-69.3071,-16.9767,4360.8799],[-69.2874,-16.9754,4159.0371],[-69.1707,-17.0117,3856.9895],[-69.1501,-17.0217,3856.4458],[-69.1321,-17.0387,3854.6326]]]]}
,"properties": {"GID_2": "BOL.4.10_2","GID_0": "BOL","country": "Bolivia","GID_1": "BOL.4_1","province": "LaPaz","NL_NAME_1": "NA","county": "Ingavi","VARNAME_2": "NA","NL_NAME_2": "NA","TYPE_2": "Provincia","ENGTYPE_2": "Province","CC_2": "NA","HASC_2": "NA","name": "Ingavi.county","area_km2": 4570.561,"hist_schema_id": "Elevation0-9000","hist_area_km2": {"3800": 578.86,"3825": 1063.166,"3850": 1041.041,"3875": 446.856,"3900": 267.364,"3925": 184.009,"3950": 128.093,"3975": 93.715,"4000": 79.966,"4025": 62.972,"4050": 50.384,"4075": 43.868,"4100": 39.383,"4125": 34.409,"4150": 29.843,"4175": 26.535,"4200": 25.725,"4225": 26.943,"4250": 26.944,"4275": 26.153,"4300": 25.727,"4325": 25.443,"4350": 24.246,"4375": 23.678,"4400": 22.074,"4425": 21.811,"4450": 21.669,"4475": 19.902,"4500": 21.628,"4525": 18.439,"4550": 16.226,"4575": 14.886,"4600": 12.245,"4625": 9.829,"4650": 8.204,"4675": 4.65,"4700": 2.214,"4725": 0.751,"4750": 0.366,"4775": 0.284,"4800": 0.061}}}