{"type": "Feature","bbox": [-66.7293,-18.4825,-66.4036,-18.2564],"geometry": {"type": "MultiPolygon","coordinates": [[[[-66.6831,-18.4825,4428.959],[-66.6765,-18.4778,4527.7661],[-66.6123,-18.4646,4637.7104],[-66.5972,-18.4555,4563.332],[-66.5848,-18.454,4375.3535],[-66.5805,-18.4502,4307.7603],[-66.5551,-18.4387,3840.7476],[-66.5475,-18.4497,3750.4297],[-66.5289,-18.4519,3704.1812],[-66.5025,-18.4398,3979.0718],[-66.4865,-18.4353,4080.9844],[-66.4812,-18.4305,3885.6885],[-66.4762,-18.4215,3738.8618],[-66.459,-18.4125,3847.6409],[-66.4485,-18.4051,3738.0039],[-66.4426,-18.3938,3728.7822],[-66.449,-18.3756,3767.606],[-66.4556,-18.3698,3820.3289],[-66.4563,-18.3612,3900.4399],[-66.4449,-18.3539,3557.5522],[-66.4405,-18.3551,3520.8848],[-66.4385,-18.3522,3482.1301],[-66.4414,-18.3418,3536.9946],[-66.4472,-18.3332,3449.6108],[-66.4484,-18.3187,3736.0408],[-66.4095,-18.2928,3497.5879],[-66.4042,-18.2889,3315.0266],[-66.4036,-18.2868,3321.4624],[-66.4037,-18.2801,3317.8271],[-66.409,-18.2766,3317.272],[-66.4115,-18.2695,3292.7407],[-66.4164,-18.2664,3302.1765],[-66.4154,-18.2625,3293.7646],[-66.4165,-18.259,3298.9971],[-66.4213,-18.2599,3305.8354],[-66.4252,-18.2569,3309.1094],[-66.4314,-18.2564,3301.3674],[-66.4347,-18.2663,3333.4106],[-66.4379,-18.2673,3316.666],[-66.4419,-18.2656,3310.6956],[-66.4452,-18.2699,3317.6931],[-66.4584,-18.2738,3383.2559],[-66.4649,-18.2708,3528.9438],[-66.4692,-18.2713,3599.4573],[-66.4763,-18.2655,3652.6392],[-66.4952,-18.2601,3530.9653],[-66.4986,-18.2613,3469.698],[-66.5014,-18.2694,3529.2734],[-66.5066,-18.2708,3556.0911],[-66.513,-18.2685,3669.6328],[-66.5148,-18.2696,3685.7603],[-66.5159,-18.2753,3740.7021],[-66.5194,-18.2748,3775.6897],[-66.5214,-18.2766,3805.7346],[-66.5249,-18.2724,3676.228],[-66.5317,-18.2735,3740.9775],[-66.5343,-18.2754,3758.438],[-66.5439,-18.2711,3871.5562],[-66.5465,-18.2724,3851.7266],[-66.5475,-18.2707,3840.8083],[-66.5497,-18.2744,3869.6895],[-66.5541,-18.2767,3875.2776],[-66.5586,-18.2751,3876.1492],[-66.5624,-18.2772,3891.791],[-66.5657,-18.2768,3902.6177],[-66.5685,-18.2793,3917.6067],[-66.5807,-18.2792,4035.1187],[-66.5867,-18.282,4107.1655],[-66.6144,-18.2793,4101.9414],[-66.6273,-18.2873,4112.0327],[-66.6353,-18.2869,4117.8486],[-66.6386,-18.2884,4125.2324],[-66.644,-18.2935,4136.5308],[-66.6614,-18.2956,4165.0225],[-66.6661,-18.3072,4203.7539],[-66.6786,-18.3164,4316.6914],[-66.7029,-18.3235,4398.9536],[-66.7081,-18.3288,4438.9536],[-66.7293,-18.3404,4592.939],[-66.7149,-18.362,4523.9834],[-66.7142,-18.378,4410.1309],[-66.6986,-18.4032,4311.8442],[-66.6972,-18.4084,4288.7935],[-66.7,-18.419,4255.7515],[-66.6976,-18.4356,4376.7388],[-66.6871,-18.4624,4665.6675],[-66.6822,-18.4688,4621.7563],[-66.6815,-18.4717,4592.6719],[-66.6841,-18.4743,4563.8486],[-66.6831,-18.4825,4428.959]]]]}
,"properties": {"GID_3": "BOL.7.13.3_2","GID_0": "BOL","country": "Bolivia","GID_1": "BOL.7_1","province": "Potosí","NL_NAME_1": "NA","GID_2": "BOL.7.13_2","county": "RafaelBustillo","NL_NAME_2": "NA","city": "Llallagua","VARNAME_3": "NA","NL_NAME_3": "NA","TYPE_3": "District","ENGTYPE_3": "Distrito","CC_3": "NA","HASC_3": "NA","name": "Llallagua.city","area_km2": 529.0616,"hist_schema_id": "Elevation0-9000","hist_area_km2": {"3300": 0.7449,"3325": 1.7314,"3350": 2.0131,"3375": 2.7176,"3400": 2.8384,"3425": 3.8245,"3450": 3.9049,"3475": 4.5893,"3500": 4.9517,"3525": 5.656,"3550": 5.7567,"3575": 6.1389,"3600": 6.3,"3625": 7.2055,"3650": 8.6739,"3675": 11.148,"3700": 17.7061,"3725": 21.3476,"3750": 18.7729,"3775": 19.055,"3800": 15.2118,"3825": 14.1656,"3850": 13.2804,"3875": 11.9524,"3900": 13.1398,"3925": 14.1867,"3950": 14.1056,"3975": 12.4962,"4000": 13.2209,"4025": 16.8833,"4050": 18.514,"4075": 16.2602,"4100": 13.4225,"4125": 21.613,"4150": 21.332,"4175": 18.3532,"4200": 16.8031,"4225": 13.9048,"4250": 8.9142,"4275": 6.3177,"4300": 6.0158,"4325": 7.1024,"4350": 6.8408,"4375": 6.8006,"4400": 7.1022,"4425": 6.9007,"4450": 6.6188,"4475": 6.9201,"4500": 6.5979,"4525": 5.6927,"4550": 5.2901,"4575": 3.7612,"4600": 2.4338,"4625": 1.0258,"4650": 0.5631,"4675": 0.2413}}}