{"type": "Feature","bbox": [-67.813,-16.4026,-67.3404,-16.0105],"geometry": {"type": "MultiPolygon","coordinates": [[[[-67.549,-16.0457,1347.9967],[-67.5557,-16.0746,1798.8228],[-67.5556,-16.0876,2309.0105],[-67.5595,-16.0956,1790.1385],[-67.5638,-16.1115,1633.925],[-67.5661,-16.1286,1427.8217],[-67.5762,-16.1443,1630.3195],[-67.5764,-16.147,1573.6293],[-67.581,-16.1506,1562.6174],[-67.58,-16.1538,1607.7655],[-67.5831,-16.1583,1684.5107],[-67.5832,-16.161,1698.5298],[-67.603,-16.1758,2406.5708],[-67.6024,-16.1813,2966.8208],[-67.6059,-16.1875,2703.0928],[-67.6119,-16.1904,2406.1848],[-67.6127,-16.1926,2300.0742],[-67.6158,-16.1931,2261.2656],[-67.6217,-16.1999,1944.0688],[-67.6321,-16.2019,1699.286],[-67.6365,-16.2013,1658.7819],[-67.6439,-16.2046,1574.4789],[-67.6487,-16.2048,1574.6776],[-67.6551,-16.2087,1444.5063],[-67.6574,-16.2081,1390.4175],[-67.6585,-16.2118,1559.5221],[-67.6561,-16.2115,1603.8063],[-67.6537,-16.2237,1866.0911],[-67.6511,-16.2272,1861.0642],[-67.6524,-16.2346,2017.7468],[-67.6571,-16.2416,1986.9158],[-67.6804,-16.2476,2665.675],[-67.6788,-16.255,2442.2234],[-67.7059,-16.2982,2606.1094],[-67.7149,-16.299,2857.1855],[-67.7209,-16.3013,2732.4839],[-67.7335,-16.3109,3109.425],[-67.7342,-16.314,2825.1028],[-67.7446,-16.3195,2343.8545],[-67.7526,-16.3159,2132.9138],[-67.7589,-16.3073,1964.7589],[-67.7673,-16.3145,2251.1926],[-67.7803,-16.3177,3071.355],[-67.7883,-16.3253,3320.2915],[-67.7917,-16.3244,3421.8296],[-67.7952,-16.3261,3495.2046],[-67.7972,-16.3283,3625.7834],[-67.7952,-16.334,3540.7871],[-67.7985,-16.3426,3013.3091],[-67.8069,-16.346,2428.6807],[-67.813,-16.3505,1884.212],[-67.8048,-16.3614,1830.9727],[-67.7977,-16.3644,1792.6392],[-67.7894,-16.3648,1736.5808],[-67.7806,-16.3632,1675.5256],[-67.769,-16.3562,1676.5575],[-67.7611,-16.356,1617.0375],[-67.7572,-16.3613,1635.7312],[-67.7514,-16.3607,1586.9714],[-67.7481,-16.3626,1739.8573],[-67.7473,-16.3663,1545.1476],[-67.7485,-16.3684,1565.3374],[-67.7417,-16.3783,1513.23],[-67.7425,-16.3823,1513.6954],[-67.7369,-16.3888,1463.925],[-67.719,-16.3983,1404.3046],[-67.6897,-16.3896,1346.0018],[-67.679,-16.3915,1304.0361],[-67.6716,-16.3971,1263.2007],[-67.6568,-16.4014,1228.2305],[-67.6441,-16.4012,1222.7053],[-67.6415,-16.4026,1214.2023],[-67.6336,-16.3971,1208.5015],[-67.6259,-16.3978,1186.4016],[-67.6202,-16.3954,1207.7728],[-67.6126,-16.3868,1188.1682],[-67.6043,-16.3806,1135.9021],[-67.5997,-16.3697,1133.8513],[-67.5928,-16.3601,1102.6497],[-67.5929,-16.3552,1108.5256],[-67.5892,-16.3491,1182.5474],[-67.5892,-16.3465,1137.5135],[-67.5836,-16.3428,1081.4263],[-67.5806,-16.3279,1094.9114],[-67.5723,-16.3125,1052.2319],[-67.5735,-16.3068,1181.4415],[-67.5694,-16.3004,1047.6471],[-67.5694,-16.2923,1083.946],[-67.5666,-16.2884,1107.3885],[-67.5663,-16.2821,1045.6497],[-67.5707,-16.274,1072.2374],[-67.5705,-16.2697,1114.1296],[-67.5667,-16.2653,1060.634],[-67.5639,-16.2651,1041.2391],[-67.5503,-16.2768,1022.2125],[-67.5458,-16.2664,1145.4907],[-67.5375,-16.2616,1250.4795],[-67.5365,-16.2552,1293.481],[-67.539,-16.2514,1337.2329],[-67.5237,-16.2395,1906.949],[-67.5136,-16.2225,2875.3367],[-67.4938,-16.2042,2875.9067],[-67.438,-16.1419,1968.4174],[-67.3946,-16.1077,1930.1078],[-67.3679,-16.0821,2050.9521],[-67.3404,-16.0105,2112.6631],[-67.549,-16.0457,1347.9967]]]]}
,"properties": {"GID_3": "BOL.4.18.1_2","GID_0": "BOL","country": "Bolivia","GID_1": "BOL.4_1","province": "LaPaz","NL_NAME_1": "NA","GID_2": "BOL.4.18_2","county": "NorYungas","NL_NAME_2": "NA","city": "Coripata","VARNAME_3": "NA","NL_NAME_3": "NA","TYPE_3": "District","ENGTYPE_3": "Distrito","CC_3": "NA","HASC_3": "NA","name": "Coripata.city","area_km2": 695.1504,"hist_schema_id": "Elevation0-9000","hist_area_km2": {"1000": 0.1018,"1025": 0.224,"1050": 0.8144,"1075": 1.6082,"1100": 1.3236,"1125": 1.9954,"1150": 2.1176,"1175": 2.4434,"1200": 3.0132,"1225": 3.1964,"1250": 3.4403,"1275": 3.7865,"1300": 3.807,"1325": 5.0488,"1350": 5.2318,"1375": 5.232,"1400": 6.0463,"1425": 6.7384,"1450": 7.2275,"1475": 7.5122,"1500": 8.347,"1525": 9.4468,"1550": 11.0557,"1575": 12.9099,"1600": 17.0853,"1625": 17.4318,"1650": 19.8757,"1675": 20.3241,"1700": 21.0166,"1725": 21.3011,"1750": 21.3214,"1775": 20.2618,"1800": 19.2439,"1825": 19.2847,"1850": 17.7163,"1875": 17.1463,"1900": 17.2065,"1925": 15.5771,"1950": 15.1291,"1975": 14.2126,"2000": 13.0107,"2025": 12.3787,"2050": 12.5416,"2075": 12.3787,"2100": 11.3395,"2125": 9.8326,"2150": 10.4024,"2175": 9.1605,"2200": 8.7331,"2225": 8.8952,"2250": 8.8138,"2275": 8.5697,"2300": 7.6738,"2325": 7.8771,"2350": 7.755,"2375": 7.4496,"2400": 6.5746,"2425": 6.2895,"2450": 6.3708,"2475": 6.208,"2500": 6.0043,"2525": 6.045,"2550": 5.6786,"2575": 5.475,"2600": 4.8847,"2625": 5.5768,"2650": 5.1086,"2675": 4.8849,"2700": 4.844,"2725": 4.6403,"2750": 3.8872,"2775": 3.9076,"2800": 3.3988,"2825": 3.5616,"2850": 3.1341,"2875": 2.8899,"2900": 3.073,"2925": 2.6047,"2950": 2.381,"2975": 2.4218,"3000": 2.035,"3025": 2.0349,"3050": 1.8519,"3075": 1.9128,"3100": 1.4244,"3125": 1.6685,"3150": 1.404,"3175": 1.3836,"3200": 1.3226,"3225": 1.0581,"3250": 1.1802,"3275": 0.8749,"3300": 0.5697,"3325": 0.5697,"3350": 0.5086,"3375": 0.4476,"3400": 0.2645,"3425": 0.2848,"3450": 0.2035,"3475": 0.1628,"3500": 0.2035,"3525": 0.1017,"3550": 0.1017,"3575": 0.0203,"3600": 0.0407,"3625": 0.0203,"3650": 0.0407}}}