{"type": "Feature","bbox": [-65.115,-17.2585,-64.6281,-16.7452],"geometry": {"type": "MultiPolygon","coordinates": [[[[-65.0596,-17.1984,843.0894],[-65.0507,-17.2038,1085.7367],[-65.0492,-17.2093,1101.6086],[-65.0414,-17.215,1099.6002],[-65.0382,-17.2206,1070.7496],[-65.0314,-17.2272,1316.629],[-65.0334,-17.2336,1397.2489],[-65.0317,-17.2357,1371.2252],[-65.0241,-17.2394,1224.8237],[-65.0175,-17.2454,1194.127],[-65.0152,-17.2502,1421.0618],[-65.0033,-17.2521,1453.2295],[-65.0029,-17.2553,1493.8781],[-64.9981,-17.2585,1566.0563],[-64.6541,-17.2521,278.8403],[-64.6479,-17.2496,269.5978],[-64.6446,-17.2499,263.6851],[-64.6424,-17.2453,267.843],[-64.6405,-17.2448,268.9977],[-64.6341,-17.2468,273.8593],[-64.6297,-17.2503,272.9919],[-64.6285,-17.2497,279.8122],[-64.6281,-17.2468,275.9533],[-64.6327,-17.2431,272.9244],[-64.6338,-17.2365,262.6384],[-64.6415,-17.2344,257.4044],[-64.6462,-17.2304,251.8324],[-64.646,-17.2251,250.328],[-64.6483,-17.2236,246.2002],[-64.6475,-17.221,242.9291],[-64.6503,-17.2209,243.889],[-64.6519,-17.2191,246.976],[-64.6491,-17.2151,240.5054],[-64.6549,-17.2155,239.7342],[-64.6579,-17.2122,236.8617],[-64.6578,-17.2098,237.5666],[-64.6633,-17.2081,229.3356],[-64.6655,-17.2054,230.9997],[-64.665,-17.2011,224.1911],[-64.6623,-17.1984,223.5497],[-64.6657,-17.1923,216.8951],[-64.6619,-17.1826,229.3371],[-64.6619,-17.1744,218.1596],[-64.6684,-17.1711,216.3571],[-64.667,-17.1679,228.843],[-64.6722,-17.1681,220.8295],[-64.6726,-17.1666,215.3487],[-64.67,-17.1653,221.8386],[-64.6702,-17.1636,216.8304],[-64.6758,-17.1639,216.593],[-64.6759,-17.1613,218.0431],[-64.678,-17.1597,215.321],[-64.6749,-17.1578,223.164],[-64.6806,-17.1574,219.7249],[-64.6824,-17.156,216.2795],[-64.6826,-17.1543,214.2842],[-64.6797,-17.1531,216.5145],[-64.6803,-17.1489,214.641],[-64.6832,-17.1517,214.1274],[-64.6852,-17.1481,213.1102],[-64.6862,-17.1532,212.5808],[-64.6875,-17.1472,212.8314],[-64.6908,-17.1459,220.0911],[-64.6913,-17.1506,214.7128],[-64.6946,-17.1465,208.3193],[-64.6968,-17.1499,217.4479],[-64.6981,-17.1496,217.4479],[-64.6968,-17.1466,217.3991],[-64.6983,-17.1408,210.1983],[-64.6943,-17.1379,209.0179],[-64.6956,-17.1333,208.1995],[-64.6924,-17.1303,215.804],[-64.694,-17.1287,210.3732],[-64.6979,-17.131,212.4998],[-64.6996,-17.1299,212.0593],[-64.6913,-17.1247,209.6264],[-64.6925,-17.1236,216.0083],[-64.6971,-17.1261,212.9138],[-64.6985,-17.1239,212.1211],[-64.7021,-17.1229,208.6829],[-64.6991,-17.1203,210.6237],[-64.7008,-17.1165,212.5736],[-64.6978,-17.1177,211.3179],[-64.6965,-17.1166,211.3179],[-64.7024,-17.1076,213.3898],[-64.7009,-17.106,213.2477],[-64.6958,-17.1061,207.9572],[-64.7024,-17.1022,220.2589],[-64.7006,-17.1011,219.5494],[-64.69,-17.104,212.0131],[-64.689,-17.1023,216.5987],[-64.6922,-17.0982,217.6541],[-64.6865,-17.096,221.9474],[-64.6884,-17.0896,219.4623],[-64.6932,-17.0854,211.47],[-64.6889,-17.0778,207.2535],[-64.6963,-17.0706,208.1711],[-64.6942,-17.0655,212.4054],[-64.6986,-17.0685,214.0024],[-64.7028,-17.0657,210.3897],[-64.7078,-17.0652,202.0377],[-64.7043,-17.0597,217.4665],[-64.7009,-17.0607,207.3441],[-64.6999,-17.0597,207.561],[-64.701,-17.0552,208.6668],[-64.7054,-17.0533,206.2016],[-64.7048,-17.0517,210.1286],[-64.6987,-17.0524,209.0644],[-64.6973,-17.0513,205.1236],[-64.697,-17.0485,214.3591],[-64.6996,-17.0451,206.4978],[-64.6987,-17.0431,204.9085],[-64.6946,-17.0414,215.1159],[-64.6935,-17.0454,208.5167],[-64.6916,-17.0442,203.8248],[-64.6937,-17.0397,209.6845],[-64.6895,-17.0363,206.3171],[-64.6912,-17.0331,206.7615],[-64.6943,-17.0353,213.9895],[-64.6947,-17.04,210.7766],[-64.6962,-17.0401,210.7766],[-64.6977,-17.0372,203.2448],[-64.6961,-17.0316,203.882],[-64.6916,-17.0283,202.9586],[-64.697,-17.0277,201.9316],[-64.6973,-17.0262,205.0683],[-64.6886,-17.0248,208.4085],[-64.687,-17.0279,202.1858],[-64.6864,-17.0237,204.5201],[-64.6841,-17.0208,198.8766],[-64.69,-17.0175,201.2235],[-64.6911,-17.0145,197.7121],[-64.6897,-17.0086,194.4486],[-64.691,-16.9981,196.1218],[-64.69,-16.9965,203.9805],[-64.6854,-16.9954,199.4457],[-64.6805,-16.999,195.2855],[-64.6753,-17.0001,192.0],[-64.672,-16.9969,202.4336],[-64.6719,-16.9943,200.6764],[-64.6756,-16.9895,200.4582],[-64.682,-16.9855,195.733],[-64.6932,-16.984,191.5],[-64.6982,-16.9879,200.384],[-64.6954,-16.9986,199.8044],[-64.7007,-17.0024,197.083],[-64.7046,-17.003,198.0766],[-64.7083,-16.9993,210.516],[-64.7099,-16.9892,190.75],[-64.7059,-16.9851,202.4158],[-64.6979,-16.9834,200.4012],[-64.6927,-16.98,199.9872],[-64.6897,-16.9695,195.0474],[-64.6856,-16.9689,193.5202],[-64.6835,-16.9703,191.5],[-64.6792,-16.9786,191.0],[-64.6745,-16.9784,192.5589],[-64.6733,-16.974,196.1445],[-64.6745,-16.9707,195.3119],[-64.7011,-16.9525,190.5],[-64.7039,-16.9525,190.5],[-64.7074,-16.9564,196.2728],[-64.704,-16.9673,198.9526],[-64.7048,-16.9702,198.7931],[-64.7094,-16.9721,196.5675],[-64.7151,-16.9693,191.5],[-64.7185,-16.9654,194.0139],[-64.7188,-16.9624,195.6835],[-64.7172,-16.9592,194.6213],[-64.7093,-16.9531,197.9688],[-64.7085,-16.9499,199.8003],[-64.7087,-16.946,197.0422],[-64.7133,-16.9419,195.9575],[-64.7178,-16.9436,193.5641],[-64.7206,-16.9493,198.6383],[-64.725,-16.9532,190.0],[-64.7294,-16.9544,196.4578],[-64.7356,-16.952,191.9318],[-64.7394,-16.9464,198.9726],[-64.7467,-16.9423,194.8442],[-64.7467,-16.9397,192.9165],[-64.7394,-16.941,195.9226],[-64.7348,-16.938,191.148],[-64.7349,-16.9322,189.5],[-64.7394,-16.9278,211.8693],[-64.7381,-16.9244,191.5342],[-64.7318,-16.9237,200.3792],[-64.7264,-16.9295,199.8558],[-64.7233,-16.9299,190.2923],[-64.7211,-16.9286,197.1568],[-64.7202,-16.9238,192.0927],[-64.7248,-16.9189,191.8201],[-64.7355,-16.9138,190.9052],[-64.7421,-16.9195,204.2739],[-64.7484,-16.919,190.1001],[-64.75,-16.9174,189.0],[-64.7502,-16.9119,190.41],[-64.7443,-16.9045,193.7133],[-64.7382,-16.9022,191.8534],[-64.7326,-16.9024,190.1809],[-64.7281,-16.8994,194.1413],[-64.7288,-16.8934,200.1652],[-64.7346,-16.8861,194.3844],[-64.7405,-16.8865,196.5746],[-64.7438,-16.8942,193.1939],[-64.7515,-16.8979,195.8224],[-64.7568,-16.8968,196.2146],[-64.7608,-16.8907,189.7734],[-64.7583,-16.8862,198.9855],[-64.7476,-16.8831,200.5878],[-64.7385,-16.8777,192.3125],[-64.7364,-16.8715,190.7372],[-64.737,-16.8681,191.14],[-64.7418,-16.8656,192.4908],[-64.7447,-16.8661,188.5],[-64.7548,-16.8745,191.9988],[-64.7606,-16.8772,188.5],[-64.7651,-16.8774,190.7177],[-64.7704,-16.8731,196.7031],[-64.7691,-16.8679,188.0],[-64.7661,-16.8663,212.313],[-64.7419,-16.861,200.4232],[-64.7397,-16.858,200.2908],[-64.7407,-16.8535,198.7577],[-64.7451,-16.8516,201.6463],[-64.7537,-16.8531,194.4288],[-64.759,-16.8522,188.0],[-64.7633,-16.8548,202.84],[-64.7669,-16.8608,193.614],[-64.7693,-16.8615,188.3637],[-64.7778,-16.8531,192.7464],[-64.7868,-16.8473,187.5],[-64.7909,-16.8418,192.0781],[-64.7926,-16.8287,187.8999],[-64.7917,-16.8212,187.5],[-64.7877,-16.8166,192.736],[-64.7805,-16.8127,187.5],[-64.7789,-16.805,192.9412],[-64.7814,-16.8003,187.6569],[-64.7886,-16.796,187.7209],[-64.7977,-16.798,191.3645],[-64.8017,-16.797,187.381],[-64.8041,-16.792,188.1595],[-64.8045,-16.7852,187.0],[-64.8086,-16.7801,189.2333],[-64.8154,-16.7759,192.5676],[-64.8166,-16.7715,190.5421],[-64.8161,-16.7693,190.7006],[-64.8123,-16.7672,190.7855],[-64.8083,-16.7682,190.4209],[-64.8017,-16.7744,189.4824],[-64.7969,-16.7737,185.2357],[-64.794,-16.7683,188.0704],[-64.7964,-16.7644,188.1319],[-64.8047,-16.762,185.0],[-64.8106,-16.7633,189.1933],[-64.8185,-16.767,196.2905],[-64.8285,-16.7748,187.5975],[-64.8322,-16.7757,188.5431],[-64.8357,-16.7731,189.234],[-64.8297,-16.7608,186.5],[-64.8307,-16.754,192.3967],[-64.8351,-16.7629,193.8883],[-64.839,-16.7649,189.2363],[-64.8417,-16.7645,190.2599],[-64.8444,-16.7596,198.0077],[-64.8418,-16.7509,191.76],[-64.8448,-16.7456,190.9164],[-64.8498,-16.7467,190.5231],[-64.8523,-16.749,189.0598],[-64.8575,-16.7603,186.5],[-64.8618,-16.765,186.5],[-64.864,-16.7652,186.5],[-64.8707,-16.7611,194.7084],[-64.88,-16.749,189.499],[-64.8902,-16.7452,191.5142],[-64.8932,-16.7468,192.0202],[-64.8941,-16.7501,187.5],[-64.8914,-16.7536,192.5121],[-64.8838,-16.7565,197.7206],[-64.883,-16.7617,191.2878],[-64.8983,-16.7772,193.4739],[-64.9027,-16.7787,191.7917],[-64.9075,-16.7777,189.0],[-64.9118,-16.7724,189.0],[-64.915,-16.7711,189.0],[-64.919,-16.7725,189.0],[-64.9231,-16.7814,190.7608],[-64.9281,-16.7846,197.1325],[-64.9357,-16.783,196.4945],[-64.9475,-16.7773,193.6948],[-64.9592,-16.777,194.3669],[-64.9642,-16.7794,190.5],[-64.9654,-16.7846,191.0],[-64.9618,-16.7885,192.5336],[-64.9533,-16.7914,201.9712],[-64.9446,-16.7902,196.2747],[-64.9403,-16.7945,192.7076],[-64.9417,-16.7988,197.1347],[-64.9461,-16.8012,192.0],[-64.9577,-16.8,197.725],[-64.9624,-16.8016,194.581],[-64.9644,-16.8066,192.5],[-64.9592,-16.8177,195.3801],[-64.9627,-16.8225,193.9872],[-64.9699,-16.8235,197.706],[-64.9726,-16.8221,195.4058],[-64.9753,-16.8159,193.5],[-64.975,-16.8039,194.0],[-64.9778,-16.8001,196.224],[-64.9826,-16.7985,195.3259],[-64.9852,-16.7988,194.0],[-64.9878,-16.8022,194.25],[-64.9865,-16.8145,194.9451],[-64.9905,-16.8181,201.1452],[-65.0057,-16.8222,197.7467],[-65.0121,-16.8216,195.5],[-65.0138,-16.8165,195.5],[-65.0069,-16.809,198.782],[-65.0052,-16.8047,202.7883],[-65.0068,-16.8014,201.9684],[-65.0104,-16.8004,199.5927],[-65.0146,-16.8031,197.355],[-65.017,-16.8095,197.6527],[-65.0226,-16.8148,199.2798],[-65.0283,-16.8138,199.2509],[-65.0358,-16.808,205.2345],[-65.0413,-16.8082,204.2672],[-65.0436,-16.8096,202.6539],[-65.0459,-16.8214,202.4912],[-65.0484,-16.8255,202.892],[-65.0529,-16.8264,201.7584],[-65.0625,-16.8237,202.0652],[-65.0675,-16.8264,199.5],[-65.0701,-16.8333,203.2831],[-65.0673,-16.8445,200.375],[-65.0604,-16.8473,205.5552],[-65.0525,-16.8429,207.4684],[-65.0468,-16.843,208.9538],[-65.0434,-16.847,205.4926],[-65.0441,-16.8516,214.8845],[-65.0523,-16.8616,208.3356],[-65.0599,-16.8649,204.9187],[-65.0618,-16.8716,206.8931],[-65.0647,-16.8746,204.6156],[-65.0686,-16.875,204.4158],[-65.0762,-16.8726,208.5623],[-65.0835,-16.8746,205.7966],[-65.0847,-16.8784,207.6212],[-65.0823,-16.8843,207.8957],[-65.0824,-16.8924,203.625],[-65.09,-16.9127,213.1141],[-65.0968,-16.9138,208.0485],[-65.1052,-16.9088,209.9605],[-65.1098,-16.909,209.5622],[-65.1139,-16.9122,210.7637],[-65.115,-16.9158,210.3266],[-65.1109,-16.9237,209.2152],[-65.1023,-16.9283,210.6597],[-65.0972,-16.9274,212.4718],[-65.0801,-16.9142,211.4925],[-65.0718,-16.9147,211.3041],[-65.0679,-16.9202,208.5884],[-65.0686,-16.9255,209.3528],[-65.0808,-16.9414,209.9694],[-65.0817,-16.9461,208.5],[-65.0798,-16.954,214.1294],[-65.0852,-16.9613,214.1474],[-65.0844,-16.9707,212.5627],[-65.0872,-16.9781,220.4138],[-65.0976,-16.9823,213.5],[-65.0966,-16.9855,219.4683],[-65.0935,-16.9877,225.9841],[-65.0817,-16.9857,217.7101],[-65.0782,-16.9893,221.9026],[-65.0805,-16.996,225.6929],[-65.0945,-16.9995,225.2358],[-65.0997,-17.0071,227.8304],[-65.0973,-17.0116,221.78],[-65.0946,-17.0078,232.0423],[-65.0906,-17.0067,235.207],[-65.0835,-17.0108,231.4279],[-65.0832,-17.0129,243.0717],[-65.0876,-17.0173,231.7403],[-65.0893,-17.0172,231.7403],[-65.0906,-17.0148,236.7085],[-65.0931,-17.0151,228.1734],[-65.0938,-17.0213,229.2234],[-65.0994,-17.0247,235.375],[-65.1017,-17.0292,231.1594],[-65.0999,-17.0308,236.765],[-65.0919,-17.0281,238.423],[-65.0881,-17.0292,234.8537],[-65.0875,-17.0325,232.0891],[-65.0903,-17.0351,233.43],[-65.0846,-17.0391,232.9806],[-65.0928,-17.0437,233.4235],[-65.0933,-17.0495,241.4366],[-65.0866,-17.0486,239.2247],[-65.0849,-17.0561,242.2979],[-65.0801,-17.0581,246.1408],[-65.0782,-17.0626,236.1266],[-65.0753,-17.0623,237.3254],[-65.0716,-17.0656,243.5618],[-65.0693,-17.0627,242.3193],[-65.0669,-17.0625,243.5563],[-65.0624,-17.0721,249.099],[-65.063,-17.0778,281.26],[-65.0585,-17.0834,280.4106],[-65.0594,-17.0851,263.3426],[-65.0675,-17.0879,262.4079],[-65.0675,-17.0929,264.434],[-65.0662,-17.0931,293.9573],[-65.0656,-17.0909,269.5201],[-65.0641,-17.0912,275.6348],[-65.063,-17.0921,261.3763],[-65.0642,-17.0965,278.1893],[-65.062,-17.0965,276.1492],[-65.0621,-17.0937,260.4002],[-65.0606,-17.093,278.6766],[-65.0596,-17.0967,263.5532],[-65.0614,-17.101,268.7951],[-65.0659,-17.1014,266.2502],[-65.0658,-17.1047,271.6537],[-65.0697,-17.1062,282.2621],[-65.0688,-17.1076,276.2499],[-65.0645,-17.108,271.6053],[-65.0642,-17.1106,276.1637],[-65.0683,-17.1106,273.9981],[-65.0704,-17.1129,276.1579],[-65.0688,-17.1152,291.1847],[-65.0624,-17.1134,311.3081],[-65.0639,-17.1183,284.3401],[-65.063,-17.1236,291.3932],[-65.066,-17.1257,292.074],[-65.0648,-17.1283,291.1034],[-65.0671,-17.1285,292.3483],[-65.0687,-17.1339,293.0351],[-65.0684,-17.1367,298.9261],[-65.066,-17.1386,302.2283],[-65.0681,-17.1408,307.6877],[-65.0604,-17.1476,340.1031],[-65.0628,-17.1552,361.7418],[-65.062,-17.159,341.7769],[-65.053,-17.169,384.3067],[-65.0528,-17.1834,504.3819],[-65.0596,-17.1984,843.0894]]]]}
,"properties": {"GID_3": "BOL.2.7.5_2","GID_0": "BOL","country": "Bolivia","GID_1": "BOL.2_1","province": "Cochabamba","NL_NAME_1": "NA","GID_2": "BOL.2.7_2","county": "Carrasco","NL_NAME_2": "NA","city": "PuertoVillarroel","VARNAME_3": "NA","NL_NAME_3": "NA","TYPE_3": "District","ENGTYPE_3": "Distrito","CC_3": "NA","HASC_3": "NA","name": "Puerto_Villarroel.city","area_km2": 1984.465,"hist_schema_id": "Elevation0-9000","hist_area_km2": {"175": 2.294,"200": 733.376,"225": 520.014,"250": 227.638,"275": 179.313,"300": 104.447,"325": 46.517,"350": 39.829,"375": 25.038,"400": 17.399,"425": 11.605,"450": 8.202,"475": 6.217,"500": 4.962,"525": 4.212,"550": 4.253,"575": 4.314,"600": 3.747,"625": 3.807,"650": 3.463,"675": 3.038,"700": 3.179,"725": 2.43,"750": 2.248,"775": 1.802,"800": 2.045,"825": 1.6,"850": 1.782,"875": 1.681,"900": 1.418,"925": 1.154,"950": 1.235,"975": 1.195,"1000": 1.256,"1025": 0.891,"1050": 1.033,"1075": 0.891,"1100": 0.689,"1125": 0.607,"1150": 0.445,"1175": 0.486,"1200": 0.405,"1225": 0.425,"1250": 0.364,"1275": 0.243,"1300": 0.202,"1325": 0.202,"1350": 0.182,"1375": 0.162,"1400": 0.101,"1425": 0.121,"1450": 0.061,"1475": 0.061,"1500": 0.081,"1525": 0.04,"1550": 0.02,"1575": 0.04}}}