{"type":"Feature","properties":{"GID_3":"BOL.4.12.1_2","GID_0":"BOL","country":"Bolivia","GID_1":"BOL.4_1","province":"LaPaz","NL_NAME_1":"NA","GID_2":"BOL.4.12_2","county":"Larecaja","NL_NAME_2":"NA","city":"Combaya","VARNAME_3":"NA","NL_NAME_3":"NA","TYPE_3":"District","ENGTYPE_3":"Distrito","CC_3":"NA","HASC_3":"NA","name":"Combaya.city"},
"geometry":{"type": "MultiPolygon","coordinates": [[[[-68.6944,-15.8551,4233.4248],[-68.7088,-15.834,4045.3721],[-68.7212,-15.81,3997.9146],[-68.7205,-15.8043,3852.4121],[-68.7151,-15.7949,3657.1323],[-68.71,-15.7927,3441.1699],[-68.7072,-15.7849,3278.0625],[-68.6973,-15.7682,2372.5649],[-68.6953,-15.758,2112.1665],[-68.698,-15.7535,2128.7944],[-68.7024,-15.7529,2137.9563],[-68.7097,-15.7555,2217.6558],[-68.7177,-15.7608,2265.8745],[-68.7202,-15.7666,2387.4783],[-68.7201,-15.7732,2585.1318],[-68.7287,-15.7781,2562.22],[-68.7412,-15.7791,3042.2512],[-68.7756,-15.7766,4030.7056],[-68.7835,-15.7814,4174.6348],[-68.7931,-15.7847,4364.2705],[-68.8065,-15.7956,4375.2305],[-68.8027,-15.8203,4442.7534],[-68.7972,-15.8258,4466.5952],[-68.8009,-15.8381,4434.0239],[-68.8011,-15.8446,4485.0869],[-68.7996,-15.849,4476.6606],[-68.7912,-15.8544,4417.1582],[-68.7887,-15.8633,4416.1733],[-68.7814,-15.8695,4401.6357],[-68.7706,-15.8671,4343.2119],[-68.7533,-15.8519,4353.2246],[-68.7423,-15.8631,4338.7231],[-68.7354,-15.8563,4256.9912],[-68.7182,-15.8455,3735.4539],[-68.7138,-15.8464,3670.4604],[-68.7087,-15.8563,3814.2085],[-68.7038,-15.8599,3846.321],[-68.6944,-15.8551,4233.4248]]]]}}