{"type":"Feature","properties":{"GID_3":"BOL.8.11.4_2","GID_0":"BOL","country":"Bolivia","GID_1":"BOL.8_1","province":"SantaCruz","NL_NAME_1":"NA","GID_2":"BOL.8.11_2","county":"ObispoSantistéban","NL_NAME_2":"NA","city":"Montero","VARNAME_3":"NA","NL_NAME_3":"NA","TYPE_3":"District","ENGTYPE_3":"Distrito","CC_3":"NA","HASC_3":"NA","name":"Montero.city"},
"geometry":{"type": "MultiPolygon","coordinates": [[[[-63.3187,-17.2568,266.8487],[-63.3182,-17.2602,267.7003],[-63.3145,-17.2639,276.0306],[-63.3176,-17.2695,269.239],[-63.3158,-17.2737,270.8667],[-63.3192,-17.2814,276.0182],[-63.3183,-17.2912,272.2127],[-63.3207,-17.298,275.8613],[-63.3259,-17.3007,274.3777],[-63.3273,-17.3033,275.9392],[-63.3256,-17.3096,275.2197],[-63.3277,-17.3285,280.1427],[-63.3355,-17.3454,285.4328],[-63.335,-17.3582,288.2916],[-63.3315,-17.3696,291.7994],[-63.3321,-17.3753,294.0048],[-63.3288,-17.3812,293.531],[-63.3253,-17.3835,292.852],[-63.3151,-17.3861,296.9094],[-63.3125,-17.3934,298.3357],[-63.3076,-17.3961,298.2786],[-63.3037,-17.4039,298.5251],[-63.2936,-17.4101,299.8633],[-63.2899,-17.4153,302.076],[-63.2859,-17.4163,306.3098],[-63.2799,-17.4147,304.5484],[-63.2705,-17.4151,305.6908],[-63.2626,-17.4201,309.8012],[-63.2581,-17.427,311.2253],[-63.2313,-17.4135,310.6982],[-63.2294,-17.4093,310.3878],[-63.2338,-17.4056,309.4922],[-63.2334,-17.4014,308.4644],[-63.2429,-17.3939,304.9354],[-63.248,-17.385,304.8935],[-63.2473,-17.3837,302.0903],[-63.2411,-17.3865,303.6231],[-63.2355,-17.3826,307.7404],[-63.2336,-17.3757,310.1273],[-63.218,-17.3752,302.9408],[-63.204,-17.3787,302.3635],[-63.1924,-17.3848,303.4944],[-63.1872,-17.3796,307.0847],[-63.1888,-17.378,303.4886],[-63.1915,-17.3782,303.266],[-63.1915,-17.3734,306.1087],[-63.1888,-17.3692,300.6952],[-63.1895,-17.3609,297.7163],[-63.1848,-17.3543,297.2111],[-63.1759,-17.3563,295.7649],[-63.1556,-17.3551,294.5404],[-63.1549,-17.3466,292.3757],[-63.1498,-17.3383,290.4199],[-63.15,-17.3362,289.7889],[-63.1412,-17.3347,289.9675],[-63.1397,-17.3263,286.0219],[-63.144,-17.3225,284.7265],[-63.1409,-17.3142,285.5175],[-63.1423,-17.3121,284.0081],[-63.1491,-17.3113,282.7086],[-63.1508,-17.306,280.2228],[-63.149,-17.3029,279.3167],[-63.1489,-17.2976,279.2584],[-63.1468,-17.2954,278.8831],[-63.1388,-17.2929,279.3686],[-63.1337,-17.2891,274.7313],[-63.1327,-17.2858,273.5531],[-63.1284,-17.2844,273.7064],[-63.1307,-17.2802,275.079],[-63.1519,-17.2827,275.632],[-63.1777,-17.2893,280.4487],[-63.1969,-17.2898,280.6511],[-63.2044,-17.2883,281.4607],[-63.2045,-17.2902,281.7774],[-63.215,-17.2917,282.5653],[-63.2206,-17.2836,281.0558],[-63.2368,-17.2897,281.347],[-63.2363,-17.284,278.8529],[-63.2405,-17.2801,280.005],[-63.2392,-17.2758,278.0537],[-63.2412,-17.2739,280.921],[-63.2434,-17.263,276.3823],[-63.2469,-17.2551,273.0774],[-63.29,-17.2546,271.007],[-63.3187,-17.2568,266.8487]]]]}}