{"type": "Feature","bbox": [-66.7761,-17.9516,-66.4501,-17.6833],"geometry": {"type": "MultiPolygon","coordinates": [[[[-66.5864,-17.733,3924.428],[-66.591,-17.7355,4012.1465],[-66.5963,-17.7306,4126.8501],[-66.606,-17.7307,3945.0713],[-66.6074,-17.7288,4019.624],[-66.6156,-17.7259,4028.894],[-66.6264,-17.7172,3953.8987],[-66.6294,-17.723,3869.1921],[-66.6349,-17.7281,4018.5293],[-66.6381,-17.7281,3994.1567],[-66.6513,-17.734,4009.3579],[-66.6641,-17.7341,4079.7078],[-66.6698,-17.7388,4157.4966],[-66.6973,-17.7104,4216.6768],[-66.7079,-17.6916,4299.7251],[-66.7238,-17.6833,4297.3716],[-66.7294,-17.6848,4347.2583],[-66.7316,-17.688,4214.6768],[-66.7398,-17.6878,4091.5701],[-66.7415,-17.6898,4140.6172],[-66.7406,-17.695,4182.7827],[-66.7461,-17.6975,4107.9521],[-66.7554,-17.7074,4165.1064],[-66.755,-17.7186,4434.9209],[-66.7508,-17.7206,4381.2544],[-66.7454,-17.7301,4308.291],[-66.7515,-17.7335,3988.2292],[-66.7546,-17.7387,3841.229],[-66.7558,-17.7382,3841.229],[-66.7583,-17.7407,3921.4929],[-66.7674,-17.7655,4079.3252],[-66.7694,-17.7672,4087.3989],[-66.7729,-17.7761,4216.8521],[-66.7715,-17.7811,4350.4111],[-66.7761,-17.7914,4167.0879],[-66.7708,-17.7933,4133.873],[-66.7641,-17.8029,4158.8579],[-66.757,-17.825,4125.4863],[-66.7511,-17.8348,4124.9531],[-66.7471,-17.8377,4093.7642],[-66.7308,-17.8405,4086.5874],[-66.7227,-17.8476,3976.781],[-66.7234,-17.8512,4000.3525],[-66.7206,-17.8574,4056.1816],[-66.7225,-17.8701,4048.7878],[-66.7162,-17.8781,4178.8799],[-66.7136,-17.8846,4276.4678],[-66.7134,-17.8937,4267.3892],[-66.7151,-17.9001,4293.6318],[-66.7379,-17.9397,4227.7695],[-66.7428,-17.9454,4198.1353],[-66.7304,-17.9513,4188.4756],[-66.7143,-17.9516,4201.8838],[-66.7012,-17.9488,4194.6689],[-66.6909,-17.9451,4170.5127],[-66.6811,-17.9381,4145.3174],[-66.6725,-17.9359,4095.8159],[-66.6678,-17.9298,4059.7053],[-66.6581,-17.9275,3999.8804],[-66.6464,-17.9293,4088.2986],[-66.6305,-17.9219,4076.4841],[-66.6264,-17.9179,4044.2935],[-66.6179,-17.9185,3960.7129],[-66.6145,-17.9152,4084.5806],[-66.6098,-17.9156,4111.9971],[-66.6006,-17.913,4065.2122],[-66.5597,-17.8969,4008.0454],[-66.558,-17.8933,4068.9043],[-66.5589,-17.8902,4227.3052],[-66.5517,-17.8887,3960.8169],[-66.5462,-17.8903,4040.6697],[-66.5446,-17.8947,3785.6714],[-66.5394,-17.8951,3781.1587],[-66.5352,-17.89,3588.0483],[-66.5328,-17.8956,3608.3818],[-66.5213,-17.9058,3710.9673],[-66.5139,-17.9217,3867.6396],[-66.5056,-17.9295,4063.0498],[-66.4965,-17.9294,4325.3892],[-66.4774,-17.922,4147.5859],[-66.4671,-17.9121,3813.1382],[-66.4632,-17.9102,3890.0842],[-66.4537,-17.8851,4128.667],[-66.4563,-17.8789,4347.7949],[-66.4568,-17.867,3540.2419],[-66.451,-17.8596,3114.3691],[-66.4501,-17.8554,2952.3079],[-66.4513,-17.8501,2863.8267],[-66.4541,-17.848,2865.9043],[-66.455,-17.8426,2887.6597],[-66.4531,-17.8384,2985.6165],[-66.4547,-17.8355,3249.8677],[-66.4607,-17.8282,3406.0737],[-66.4906,-17.8038,3266.8706],[-66.4963,-17.8029,3050.8645],[-66.4987,-17.799,3070.0278],[-66.4995,-17.7932,3100.0061],[-66.5054,-17.7882,3178.5537],[-66.5057,-17.7849,3152.4282],[-66.5136,-17.7842,3433.2725],[-66.5167,-17.7865,3560.3169],[-66.5207,-17.7869,3626.4517],[-66.5303,-17.7847,4058.5112],[-66.5313,-17.7829,4056.3789],[-66.5409,-17.7816,4065.3586],[-66.5505,-17.7763,4057.166],[-66.5767,-17.7448,4169.0068],[-66.5804,-17.7447,4138.7588],[-66.5864,-17.733,3924.428]]]]}
,"properties": {"GID_3": "BOL.2.2.2_2","GID_0": "BOL","country": "Bolivia","GID_1": "BOL.2_1","province": "Cochabamba","NL_NAME_1": "NA","GID_2": "BOL.2.2_2","county": "Arque","NL_NAME_2": "NA","city": "Tacopaya","VARNAME_3": "NA","NL_NAME_3": "NA","TYPE_3": "District","ENGTYPE_3": "Distrito","CC_3": "NA","HASC_3": "NA","name": "Tacopaya.city","area_km2": 590.0054,"hist_schema_id": "Elevation0-9000","hist_area_km2": {"2850": 0.0404,"2875": 0.3431,"2900": 0.7266,"2925": 0.7468,"2950": 0.7872,"2975": 0.9285,"3000": 1.0697,"3025": 0.9285,"3050": 1.5743,"3075": 1.534,"3100": 1.2111,"3125": 1.3321,"3150": 2.0386,"3175": 2.4019,"3200": 2.1799,"3225": 2.301,"3250": 2.7248,"3275": 2.8662,"3300": 3.0276,"3325": 4.0368,"3350": 4.0167,"3375": 4.158,"3400": 4.4405,"3425": 5.2883,"3450": 5.4497,"3475": 6.1563,"3500": 6.56,"3525": 7.0645,"3550": 7.2058,"3575": 7.7509,"3600": 8.5785,"3625": 9.6686,"3650": 9.6685,"3675": 10.3953,"3700": 11.3238,"3725": 12.0105,"3750": 13.3835,"3775": 14.5943,"3800": 15.6849,"3825": 16.9161,"3850": 18.4095,"3875": 18.9139,"3900": 20.5086,"3925": 23.1926,"3950": 24.3839,"3975": 24.0407,"4000": 27.5927,"4025": 26.9249,"4050": 29.0032,"4075": 28.4781,"4100": 23.9977,"4125": 22.2817,"4150": 23.2486,"4175": 16.9117,"4200": 15.6602,"4225": 10.4752,"4250": 7.9122,"4275": 5.8937,"4300": 3.7544,"4325": 2.5028,"4350": 1.7358,"4375": 0.8074,"4400": 0.2422,"4425": 0.0202}}}