{"type":"Feature","properties":{"GID_3":"BOL.9.5.1_2","GID_0":"BOL","country":"Bolivia","GID_1":"BOL.9_1","province":"Tarija","NL_NAME_1":"NA","GID_2":"BOL.9.5_2","county":"Méndez","NL_NAME_2":"NA","city":"ElPuente","VARNAME_3":"NA","NL_NAME_3":"NA","TYPE_3":"District","ENGTYPE_3":"Distrito","CC_3":"NA","HASC_3":"NA","name":"El_Puente.city"},
"geometry":{"type": "MultiPolygon","coordinates": [[[[-65.1242,-20.9644,2188.6899],[-65.1293,-20.9574,2221.1045],[-65.1343,-20.9635,2192.0715],[-65.141,-20.9647,2183.7644],[-65.1435,-20.9575,2185.4604],[-65.1476,-20.9534,2223.7476],[-65.1502,-20.9557,2190.532],[-65.1496,-20.9604,2220.9829],[-65.1518,-20.9637,2224.7524],[-65.1572,-20.9577,2243.856],[-65.1568,-20.9526,2305.9883],[-65.1592,-20.9494,2266.0208],[-65.1582,-20.9459,2278.2136],[-65.1631,-20.9452,2229.4968],[-65.166,-20.9496,2204.0378],[-65.1695,-20.9502,2205.7231],[-65.1723,-20.9481,2257.0918],[-65.1757,-20.9495,2257.1523],[-65.1766,-20.9516,2216.9485],[-65.1744,-20.9557,2242.0513],[-65.1761,-20.9566,2208.8452],[-65.1793,-20.9546,2237.2349],[-65.1817,-20.9588,2215.7341],[-65.1854,-20.9611,2228.6733],[-65.1839,-20.965699999999998,2310.5166],[-65.1865,-20.9679,2298.155],[-65.1865,-20.9704,2268.5576],[-65.1884,-20.971,2316.3879],[-65.1893,-20.9758,2225.4319],[-65.1874,-20.9801,2223.3511],[-65.1923,-20.9842,2217.989],[-65.1924,-20.9977,2228.3984],[-65.1898,-21.0007,2282.3208],[-65.1917,-21.0064,2225.1282],[-65.1883,-21.0133,2231.9846],[-65.1926,-21.021,2245.3093],[-65.1927,-21.0246,2256.7036],[-65.1974,-21.029,2269.9756],[-65.1962,-21.0324,2293.0481],[-65.1983,-21.0407,2244.1475],[-65.1967,-21.0445,2248.6616],[-65.1976,-21.0471,2246.1086],[-65.1957,-21.0495,2259.5808],[-65.2005,-21.0623,2275.6006],[-65.1992,-21.0664,2313.9658],[-65.202,-21.0714,2321.9873],[-65.2013,-21.0803,2307.4915],[-65.2028,-21.0843,2273.0869],[-65.1986,-21.092,2311.0269],[-65.2019,-21.0971,2283.8574],[-65.1966,-21.1023,2305.7632],[-65.1992,-21.1093,2333.5237],[-65.1977,-21.1154,2298.5972],[-65.2005,-21.1224,2292.1201],[-65.1991,-21.1278,2300.1101],[-65.2,-21.1399,2313.6162],[-65.198,-21.1422,2305.8457],[-65.1933,-21.1382,2324.1758],[-65.1904,-21.1403,2314.7983],[-65.1902,-21.144,2350.3374],[-65.1944,-21.1464,2300.1833],[-65.1946,-21.1487,2328.394],[-65.1912,-21.1516,2329.127],[-65.1912,-21.1574,2333.6133],[-65.1884,-21.1604,2328.2683],[-65.1896,-21.1643,2330.532],[-65.1961,-21.1708,2324.7334],[-65.2046,-21.1754,2301.5942],[-65.2053,-21.1782,2303.2056],[-65.2032,-21.181,2306.8569],[-65.2118,-21.192,2307.0786],[-65.2118,-21.1939,2307.0828],[-65.2073,-21.1953,2307.9976],[-65.2,-21.204,2326.4795],[-65.2061,-21.2085,2316.0537],[-65.205,-21.2112,2313.4143],[-65.2007,-21.2132,2322.1179],[-65.2003,-21.2211,2349.5083],[-65.2057,-21.2225,2318.4121],[-65.2114,-21.2317,2320.9663],[-65.2119,-21.2364,2323.2275],[-65.2064,-21.2398,2328.0959],[-65.214,-21.2462,2404.1978],[-65.211,-21.2555,2336.7087],[-65.2135,-21.2577,2333.2747],[-65.22,-21.2522,2365.5312],[-65.2228,-21.2533,2336.5532],[-65.2242,-21.2564,2350.2407],[-65.2233,-21.2584,2351.4194],[-65.2181,-21.2583,2378.9355],[-65.2162,-21.2608,2359.3027],[-65.2171,-21.2634,2340.6467],[-65.2203,-21.2626,2378.8901],[-65.2204,-21.2688,2362.2673],[-65.216,-21.273,2342.936],[-65.2139,-21.2792,2345.3667],[-65.2172,-21.2864,2364.3245],[-65.2117,-21.2915,2354.1831],[-65.2132,-21.296,2352.4766],[-65.2187,-21.3012,2350.9902],[-65.217,-21.3041,2352.4014],[-65.2184,-21.3082,2354.2358],[-65.2163,-21.3117,2355.4741],[-65.2192,-21.3154,2356.6367],[-65.2174,-21.3202,2357.8813],[-65.2235,-21.3234,2385.562],[-65.2253,-21.3263,2360.5098],[-65.2215,-21.3276,2365.4858],[-65.22,-21.3352,2369.6504],[-65.2214,-21.3365,2366.6428],[-65.2263,-21.3349,2367.6169],[-65.228,-21.3364,2370.2949],[-65.2266,-21.3399,2376.7773],[-65.2283,-21.3464,2368.7705],[-65.2231,-21.3513,2380.3628],[-65.2316,-21.3672,2433.0649],[-65.2309,-21.3754,2380.0303],[-65.2326,-21.3831,2387.7627],[-65.2296,-21.3863,2383.3311],[-65.2327,-21.388,2384.7983],[-65.2337,-21.3917,2407.5303],[-65.2306,-21.3963,2386.0159],[-65.2305,-21.4016,2389.6528],[-65.2372,-21.4051,2392.5181],[-65.2373,-21.4073,2396.0256],[-65.2352,-21.409,2394.8391],[-65.2369,-21.4149,2395.28],[-65.2347,-21.4252,2412.8257],[-65.2428,-21.4315,2410.7849],[-65.2438,-21.4387,2404.7542],[-65.2414,-21.4479,2406.9375],[-65.2439,-21.4531,2410.4482],[-65.2419,-21.4619,2412.3818],[-65.2494,-21.469,2439.9734],[-65.2461,-21.4781,2423.5527],[-65.2501,-21.4845,2428.6731],[-65.2471,-21.4891,2428.7734],[-65.2409,-21.4845,2488.1614],[-65.237,-21.4855,2531.1882],[-65.2263,-21.4919,2590.4746],[-65.2229,-21.492,2611.1804],[-65.2228,-21.4949,2638.1953],[-65.2166,-21.4985,2675.1626],[-65.209,-21.4989,2715.7307],[-65.2075,-21.5021,2740.4343],[-65.1988,-21.5039,2788.3728],[-65.1954,-21.5064,2826.1545],[-65.1928,-21.5051,2828.1169],[-65.1859,-21.5081,2901.8843],[-65.1804,-21.5076,2925.6614],[-65.1737,-21.5142,2960.032],[-65.145,-21.4862,3227.1208],[-65.0848,-21.5119,3921.5872],[-65.0837,-21.5305,3980.4512],[-65.0817,-21.5364,3958.2625],[-65.0819,-21.5481,4083.2],[-65.0804,-21.5519,4086.0679],[-65.0623,-21.5565,3850.917],[-65.0427,-21.5637,4235.3711],[-65.0379,-21.5702,3976.7854],[-65.0335,-21.5922,4061.3872],[-65.0256,-21.6093,4217.8311],[-65.0222,-21.6118,4181.6523],[-64.9743,-21.6154,4265.8423],[-64.9728,-21.5972,3845.6528],[-64.9737,-21.5853,3712.9453],[-64.9715,-21.5809,3673.2437],[-64.9703,-21.5725,3644.7104],[-64.965,-21.5752,3719.269],[-64.9591,-21.5822,3661.916],[-64.9592,-21.5887,3682.6216],[-64.9561,-21.5947,3703.5156],[-64.9574,-21.5998,3716.5171],[-64.9558,-21.6083,3743.6497],[-64.9344,-21.6088,4266.9146],[-64.9334,-21.606,4210.3057],[-64.9223,-21.6049,3839.7783],[-64.9124,-21.581,3958.4285],[-64.9143,-21.5793,4046.1089],[-64.9148,-21.5678,4159.1157],[-64.9101,-21.5607,4179.8247],[-64.9052,-21.5592,4196.8018],[-64.8986,-21.5497,4195.0],[-64.8868,-21.5415,3873.1929],[-64.8749,-21.5388,3544.5107],[-64.8668,-21.5257,3443.3477],[-64.8635,-21.5229,3403.3848],[-64.866,-21.5018,3177.519],[-64.8707,-21.4918,2951.3906],[-64.8803,-21.4942,3012.1152],[-64.8915,-21.4816,3526.4619],[-64.8903,-21.4681,3378.4116],[-64.8867,-21.465699999999998,3333.1394],[-64.8827,-21.4665,3282.0684],[-64.882,-21.4642,3190.4937],[-64.8847,-21.458,3130.7932],[-64.8924,-21.4542,2986.863],[-64.8871,-21.4453,2953.0923],[-64.8907,-21.4365,2806.4902],[-64.8887,-21.433,2847.9678],[-64.8896,-21.4241,2767.543],[-64.8947,-21.4259,2865.2722],[-64.898,-21.431,2995.3767],[-64.9028,-21.43,3046.8333],[-64.9109,-21.4312,3184.5552],[-64.9198,-21.4286,3429.3303],[-64.9253,-21.429,3674.1804],[-64.9242,-21.396,3572.2627],[-64.9222,-21.3906,3568.7554],[-64.9242,-21.3823,3565.9331],[-64.9237,-21.3702,3566.2876],[-64.9281,-21.3225,3414.2153],[-64.9212,-21.2863,3648.8394],[-64.9241,-21.2744,3647.6099],[-64.9205,-21.2668,3625.8503],[-64.9195,-21.2604,3668.9971],[-64.9219,-21.2511,3632.728],[-64.9181,-21.2409,3585.781],[-64.9027,-21.2325,3292.3613],[-64.8839,-21.2118,3155.7427],[-64.8796,-21.2089,3168.3884],[-64.8734,-21.2007,3097.6709],[-64.8672,-21.1964,2951.0725],[-64.8589,-21.1872,2962.5635],[-64.8539,-21.1745,3083.6079],[-64.8309,-21.1674,2589.1282],[-64.8305,-21.1656,2555.6348],[-64.829,-21.1655,2573.7358],[-64.8328,-21.1632,2565.8167],[-64.8339,-21.1595,2546.0095],[-64.8269,-21.1499,2259.4082],[-64.8305,-21.139,2177.1221],[-64.8323,-21.138,2147.9053],[-64.833,-21.1307,2044.0038],[-64.8314,-21.1243,2027.3007],[-64.8345,-21.12,1879.4093],[-64.8287,-21.1139,1833.8627],[-64.8316,-21.1127,1754.8188],[-64.8358,-21.1048,1617.2332],[-64.8561,-21.1056,1876.9017],[-64.8542,-21.0957,1719.1384],[-64.8503,-21.0922,1775.4695],[-64.8673,-21.0791,1792.5564],[-64.8852,-21.0787,1732.7457],[-64.8954,-21.0733,1748.9907],[-64.8953,-21.0684,1869.0215],[-64.8896,-21.0675,1904.6411],[-64.8842,-21.0643,1791.5409],[-64.8896,-21.0568,1846.25],[-64.9,-21.0545,1916.5519],[-64.9124,-21.059,1920.8699],[-64.9186,-21.0592,2059.1985],[-64.9253,-21.0526,1876.2196],[-64.9239,-21.0444,1978.0566],[-64.9259,-21.0401,1942.8406],[-64.9262,-21.0328,1999.1207],[-64.9342,-21.0267,2003.7948],[-64.9394,-21.0271,2232.9871],[-64.9422,-21.0242,2209.7156],[-64.9443,-21.0243,2209.373],[-64.9453,-21.0258,2216.0801],[-64.9439,-21.0278,2302.0154],[-64.9438,-21.0339,2184.6169],[-64.9405,-21.0378,2256.4822],[-64.9437,-21.0377,2272.0112],[-64.9504,-21.0417,2382.7231],[-64.9473,-21.0334,2223.3147],[-64.9493,-21.0322,2257.9207],[-64.9543,-21.0337,2179.6543],[-64.9546,-21.0262,2204.2383],[-64.9564,-21.0243,2174.6018],[-64.96,-21.0238,2154.3374],[-64.96,-21.0291,2115.9695],[-64.9628,-21.0306,2158.6748],[-64.9674,-21.0267,2157.6409],[-64.9774,-21.027,2119.6179],[-64.976,-21.0234,2140.2786],[-64.9699,-21.023,2154.1077],[-64.9695,-21.0211,2168.7646],[-64.9745,-21.0164,2109.4856],[-64.9767,-21.0175,2189.3325],[-64.9794,-21.016,2222.9958],[-64.986,-21.0159,2116.2454],[-64.9859,-21.0089,2186.939],[-64.9878,-21.0081,2146.2317],[-64.9922,-21.0106,2123.364],[-64.9924,-21.0198,2141.6475],[-64.9985,-21.0208,2129.2751],[-65.0008,-21.0142,2156.6846],[-65.0041,-21.0162,2175.1709],[-65.0046,-21.0196,2112.5286],[-64.9995,-21.0239,2108.4124],[-64.9997,-21.0263,2114.0154],[-65.0129,-21.0294,2130.8369],[-65.0146,-21.0213,2141.2544],[-65.0177,-21.0204,2171.0962],[-65.0194,-21.0212,2171.0962],[-65.0209,-21.0253,2133.0347],[-65.0265,-21.0278,2132.4326],[-65.0278,-21.0256,2154.3179],[-65.0216,-21.0168,2139.0056],[-65.0223,-21.0118,2140.4502],[-65.0284,-21.0067,2129.5815],[-65.0317,-21.0065,2131.054],[-65.0314,-21.0103,2128.8623],[-65.026,-21.0148,2164.6426],[-65.0265,-21.0167,2153.6455],[-65.0289,-21.0172,2140.6189],[-65.0334,-21.0143,2161.106],[-65.0403,-21.0143,2132.4482],[-65.0441,-21.0084,2264.8052],[-65.051,-21.0087,2148.4617],[-65.0514,-21.0054,2153.1331],[-65.0487,-21.0035,2207.0471],[-65.0445,-21.0039,2144.5896],[-65.0443,-21.0002,2161.8462],[-65.0539,-20.9969,2188.4194],[-65.0534,-20.9931,2168.0547],[-65.059,-20.9875,2146.1987],[-65.0572,-20.9805,2160.9543],[-65.0628,-20.9807,2150.9275],[-65.0617,-20.9733,2180.769],[-65.065,-20.9708,2169.1289],[-65.0694,-20.9707,2150.8547],[-65.07,-20.9589,2193.0474],[-65.0729,-20.9592,2190.5178],[-65.0742,-20.9646,2157.6714],[-65.0784,-20.964,2172.6501],[-65.0824,-20.9605,2237.4189],[-65.0868,-20.9626,2159.8481],[-65.0887,-20.9661,2160.5796],[-65.0857,-20.9737,2159.1094],[-65.0889,-20.977,2165.9661],[-65.0939,-20.976,2162.1978],[-65.0968,-20.9688,2199.6565],[-65.1022,-20.9689,2201.7969],[-65.105,-20.9726,2167.6897],[-65.1027,-20.9744,2209.0103],[-65.1,-20.9741,2231.1694],[-65.0994,-20.9759,2190.6384],[-65.1093,-20.9794,2223.4668],[-65.1121,-20.982,2173.8381],[-65.1145,-20.9801,2174.5049],[-65.1148,-20.9775,2179.6631],[-65.1123,-20.9738,2201.217],[-65.1084,-20.9727,2177.7468],[-65.1091,-20.9698,2195.7732],[-65.1143,-20.9708,2194.2119],[-65.1188,-20.9686,2225.9663],[-65.1231,-20.9693,2203.2937],[-65.125,-20.9682,2189.7935],[-65.1242,-20.9644,2188.6899]]]]}}