{"type":"Feature","properties":{"GID_3":"BOL.4.19.4_2","GID_0":"BOL","country":"Bolivia","GID_1":"BOL.4_1","province":"LaPaz","NL_NAME_1":"NA","GID_2":"BOL.4.19_2","county":"Omasuyos","NL_NAME_2":"NA","city":"Huatajata","VARNAME_3":"NA","NL_NAME_3":"NA","TYPE_3":"District","ENGTYPE_3":"Distrito","CC_3":"NA","HASC_3":"NA","name":"Huatajata.city"},
"geometry":{"type": "MultiPolygon","coordinates": [[[[-68.6957,-16.1736,4152.8706],[-68.7103,-16.1837,3971.6221],[-68.7224,-16.2031,3808.5],[-68.7131,-16.2071,3809.9282],[-68.7103,-16.2114,3808.5],[-68.7043,-16.2143,3808.8936],[-68.6942,-16.2124,3811.8223],[-68.6778,-16.2159,3813.4692],[-68.673,-16.2187,3809.7007],[-68.6656,-16.2176,3816.5686],[-68.6643,-16.2053,3997.0151],[-68.6612,-16.1999,4083.9517],[-68.6782,-16.1835,4100.4268],[-68.6957,-16.1736,4152.8706]]]]}}