{"type": "Feature","bbox": [-68.4964,-18.8316,-68.2098,-18.5873],"geometry": {"type": "MultiPolygon","coordinates": [[[[-68.2443,-18.7813,3712.9802],[-68.2153,-18.7578,3709.5923],[-68.2105,-18.7524,3709.5654],[-68.2098,-18.7464,3710.093],[-68.2169,-18.7353,3710.0815],[-68.2189,-18.7273,3713.1326],[-68.2239,-18.721,3711.9985],[-68.2276,-18.7044,3714.5056],[-68.2365,-18.6959,3715.6992],[-68.2434,-18.6852,3717.9146],[-68.2457,-18.6774,3719.4336],[-68.2501,-18.6791,3719.9805],[-68.2588,-18.676,3721.2678],[-68.2692,-18.6787,3722.7612],[-68.2759,-18.6779,3723.834],[-68.2807,-18.6793,3723.4514],[-68.2847,-18.6779,3725.2319],[-68.2896,-18.679,3724.8115],[-68.2994,-18.6748,3726.8782],[-68.3016,-18.6753,3727.166],[-68.3064,-18.6633,3732.8079],[-68.3049,-18.6596,3730.8389],[-68.311,-18.6375,3742.1089],[-68.3317,-18.6333,3734.678],[-68.3489,-18.6226,3740.7605],[-68.3592,-18.6128,3743.3467],[-68.3797,-18.6094,3744.4412],[-68.3853,-18.6144,3746.0837],[-68.3855,-18.6181,3744.0903],[-68.3968,-18.6293,3747.1694],[-68.408,-18.621,3749.6465],[-68.4064,-18.6095,3752.8962],[-68.4016,-18.6041,3754.1384],[-68.4004,-18.5988,3753.7842],[-68.4027,-18.5938,3757.0391],[-68.4154,-18.5873,3765.3379],[-68.4342,-18.5914,3758.2124],[-68.4367,-18.5889,3759.0977],[-68.4509,-18.5898,3772.2131],[-68.4791,-18.6176,3760.3865],[-68.4777,-18.6185,3760.3762],[-68.4773,-18.6237,3759.5244],[-68.4725,-18.6244,3757.4775],[-68.4846,-18.6433,3761.0059],[-68.4874,-18.6629,3760.2061],[-68.4924,-18.6737,3762.2537],[-68.4964,-18.717,3759.501],[-68.4931,-18.7245,3756.6492],[-68.4908,-18.7375,3753.6218],[-68.4859,-18.7448,3749.3193],[-68.4913,-18.7666,3746.9512],[-68.4648,-18.81,3734.7866],[-68.4282,-18.8119,3828.3208],[-68.3466,-18.8316,3738.5745],[-68.3073,-18.811,4483.8257],[-68.311,-18.8018,4659.7324],[-68.3069,-18.796,4751.5005],[-68.2931,-18.7914,4384.2256],[-68.2885,-18.786,4093.571],[-68.282,-18.7845,4084.627],[-68.2711,-18.7752,3739.4675],[-68.2647,-18.7636,3716.9062],[-68.2621,-18.7641,3713.8982],[-68.2593,-18.7711,3716.1382],[-68.248,-18.7749,3711.5449],[-68.2443,-18.7813,3712.9802]]]]}
,"properties": {"GID_3": "BOL.5.5.1_2","GID_0": "BOL","country": "Bolivia","GID_1": "BOL.5_1","province": "Oruro","NL_NAME_1": "NA","GID_2": "BOL.5.5_2","county": "Litoral","NL_NAME_2": "NA","city": "CruzdeMachacamarca","VARNAME_3": "NA","NL_NAME_3": "NA","TYPE_3": "District","ENGTYPE_3": "Distrito","CC_3": "NA","HASC_3": "NA","name": "Cruzde_Machacamarca.city","area_km2": 531.3616,"hist_schema_id": "Elevation0-9000","hist_area_km2": {"3700": 10.3995,"3725": 173.8585,"3750": 278.6475,"3775": 14.4577,"3800": 6.8656,"3825": 4.9384,"3850": 4.1956,"3875": 3.5532,"3900": 2.8305,"3925": 2.8505,"3950": 2.5093,"3975": 2.2483,"4000": 2.2684,"4025": 2.168,"4050": 2.0274,"4075": 1.5055,"4100": 1.3248,"4125": 1.2646,"4150": 0.9835,"4175": 1.2445,"4200": 0.823,"4225": 0.9233,"4250": 0.7226,"4275": 0.562,"4300": 0.823,"4325": 0.9032,"4350": 0.6423,"4375": 0.6423,"4400": 0.6423,"4425": 0.5419,"4450": 0.4616,"4475": 0.4617,"4500": 0.5219,"4525": 0.562,"4550": 0.3613,"4575": 0.3211,"4600": 0.3211,"4625": 0.2007,"4650": 0.2409,"4675": 0.1606,"4700": 0.1405,"4725": 0.1606,"4750": 0.0803}}}