{"type":"Feature","properties":{"GID_3":"BOL.4.15.3_2","GID_0":"BOL","country":"Bolivia","GID_1":"BOL.4_1","province":"LaPaz","NL_NAME_1":"NA","GID_2":"BOL.4.15_2","county":"MancoKapac","NL_NAME_2":"NA","city":"SanPedrodeTiquina","VARNAME_3":"NA","NL_NAME_3":"NA","TYPE_3":"District","ENGTYPE_3":"Distrito","CC_3":"NA","HASC_3":"NA","name":"San_Pedrode_Tiquina.city"},
"geometry":{"type": "MultiPolygon","coordinates": [[[[-68.8274,-16.2757,3813.8022],[-68.8298,-16.2766,3809.2144],[-68.8261,-16.2804,3835.2114],[-68.8256,-16.2842,3832.8032],[-68.8204,-16.2872,3809.0286],[-68.8242,-16.2919,3840.7021],[-68.8235,-16.2957,3821.981],[-68.8145,-16.3027,3816.0767],[-68.8099,-16.2984,3831.6953],[-68.8046,-16.2966,3810.1204],[-68.8066,-16.301,3816.1069],[-68.804,-16.3024,3816.657],[-68.8024,-16.2998,3812.0647],[-68.804,-16.2961,3812.9075],[-68.8015,-16.2916,3809.042],[-68.8046,-16.2853,3812.8647],[-68.812,-16.2813,3827.3931],[-68.8178,-16.2827,3812.5381],[-68.8178,-16.2806,3811.9373],[-68.8224,-16.2782,3836.8193],[-68.8234,-16.2761,3808.5],[-68.8274,-16.2757,3813.8022]]],
[[[-68.8167,-16.2081,3808.5],[-68.8215,-16.1985,3972.4419],[-68.8288,-16.1958,4066.6064],[-68.8293,-16.1924,4079.0918],[-68.842,-16.1849,4003.7695],[-68.8423,-16.1819,4029.4512],[-68.8468,-16.1808,3934.2231],[-68.85,-16.1762,3812.7554],[-68.8509,-16.1779,3834.9385],[-68.8482,-16.1837,3808.5],[-68.8453,-16.1858,3812.3167],[-68.842,-16.1924,3817.8442],[-68.8444,-16.1963,3832.0664],[-68.8489,-16.1993,3826.0793],[-68.8485,-16.2013,3846.0637],[-68.8501,-16.203,3817.5276],[-68.8562,-16.204,3816.4685],[-68.8536,-16.2081,3808.5],[-68.8543,-16.2094,3808.5],[-68.8523,-16.21,3808.5],[-68.8493,-16.2158,3810.0039],[-68.8357,-16.2242,3808.5],[-68.8325,-16.2233,3809.979],[-68.8316,-16.2257,3810.0815],[-68.8322,-16.2227,3811.229],[-68.8262,-16.2231,3808.5],[-68.829,-16.2176,3814.915],[-68.8276,-16.2132,3810.6025],[-68.8244,-16.2112,3816.176],[-68.8247,-16.2082,3811.6372],[-68.822,-16.2066,3809.4626],[-68.8167,-16.2081,3808.5]]],
[[[-68.847,-16.2704,3810.0225],[-68.8512,-16.2743,3808.5],[-68.8507,-16.2797,3808.5],[-68.8492,-16.2781,3810.9751],[-68.8507,-16.275,3808.5],[-68.847,-16.2704,3810.0225]]],
[[[-68.8663,-16.2707,3810.9124],[-68.8685,-16.2672,3809.6565],[-68.8703,-16.268,3810.458],[-68.8724,-16.2713,3808.5],[-68.8711,-16.2747,3808.5],[-68.8673,-16.2735,3808.5],[-68.8663,-16.2707,3810.9124]]],
[[[-68.8948,-16.2546,3817.8452],[-68.895,-16.257,3811.6592],[-68.8919,-16.2601,3809.2603],[-68.8817,-16.2659,3814.313],[-68.8792,-16.2643,3815.2146],[-68.8742,-16.2645,3812.1609],[-68.8756,-16.2667,3808.5],[-68.8661,-16.2633,3811.8352],[-68.8659,-16.2656,3811.5244],[-68.8632,-16.2665,3808.5],[-68.8607,-16.2653,3810.1267],[-68.8542,-16.2676,3810.3811],[-68.8484,-16.2675,3811.1843],[-68.8454,-16.2642,3812.2625],[-68.8439,-16.2695,3809.2632],[-68.8371,-16.273,3808.5],[-68.8361,-16.2711,3813.6646],[-68.8385,-16.2663,3815.4758],[-68.8385,-16.2624,3809.9448],[-68.8329,-16.2641,3811.0615],[-68.8394,-16.2527,3812.4983],[-68.8369,-16.2517,3809.8745],[-68.8344,-16.2531,3808.5],[-68.8332,-16.249,3816.6567],[-68.8303,-16.2466,3808.5],[-68.8306,-16.237,3811.6934],[-68.8365,-16.2341,3814.563],[-68.8405,-16.2292,3808.5],[-68.8498,-16.2246,3851.7097],[-68.8579,-16.2157,3815.8308],[-68.8623,-16.2166,3851.6753],[-68.8678,-16.2106,3817.6321],[-68.8722,-16.2112,3821.5925],[-68.8755,-16.2058,3808.5],[-68.8806,-16.2049,3826.7288],[-68.8822,-16.2007,3812.9021],[-68.8871,-16.2021,3825.9478],[-68.8918,-16.2004,3823.7095],[-68.8932,-16.1965,3820.488],[-68.8967,-16.1973,3863.2014],[-68.8978,-16.194,3813.4512],[-68.9001,-16.194,3817.2351],[-68.9068,-16.1893,3815.6116],[-68.9175,-16.1892,3824.927],[-68.9249,-16.1864,3857.2808],[-68.9335,-16.1977,3811.8843],[-68.9307,-16.2004,3812.6924],[-68.9237,-16.201,3810.9507],[-68.9166,-16.2058,3817.5925],[-68.916,-16.2099,3811.8926],[-68.9195,-16.2104,3810.3494],[-68.9191,-16.2138,3808.5],[-68.9173,-16.2163,3808.5],[-68.9139,-16.2173,3809.9998],[-68.9132,-16.2212,3808.5],[-68.912,-16.2189,3809.9429],[-68.9093,-16.2187,3810.0684],[-68.903,-16.2257,3818.519],[-68.8889,-16.234,3809.5024],[-68.8905,-16.2378,3808.5],[-68.8975,-16.2449,3810.4468],[-68.8948,-16.2546,3817.8452]]]]}}