{"type":"Feature","properties":{"GID_3":"BOL.5.3.4_2","GID_0":"BOL","country":"Bolivia","GID_1":"BOL.5_1","province":"Oruro","NL_NAME_1":"NA","GID_2":"BOL.5.3_2","county":"Cercado","NL_NAME_2":"NA","city":"Paria","VARNAME_3":"NA","NL_NAME_3":"NA","TYPE_3":"District","ENGTYPE_3":"Distrito","CC_3":"NA","HASC_3":"NA","name":"Paria.city"},
"geometry":{"type": "MultiPolygon","coordinates": [[[[-66.772,-17.7818,4365.3906],[-66.7791,-17.7844,4344.8892],[-66.7819,-17.781,4311.7983],[-66.7957,-17.7818,4422.1162],[-66.7967,-17.7767,4384.4238],[-66.8157,-17.7567,4338.1646],[-66.8216,-17.7373,4505.4409],[-66.8345,-17.7264,4499.8955],[-66.8513,-17.7191,4562.6035],[-66.8608,-17.7126,4500.833],[-66.8697,-17.7017,4465.8154],[-66.8714,-17.6925,4550.8281],[-66.8772,-17.6896,4509.8652],[-66.879,-17.6789,4522.9834],[-66.892,-17.6661,4507.3345],[-66.8876,-17.6392,4374.7207],[-66.8833,-17.6333,4449.7617],[-66.8724,-17.6248,4595.7603],[-66.8728,-17.6173,4596.1938],[-66.886,-17.5997,4543.5693],[-66.8999,-17.5905,4576.0781],[-66.9365,-17.6109,4393.3091],[-66.9747,-17.6209,4221.2852],[-67.0068,-17.6319,4296.7876],[-67.0183,-17.6608,3919.6577],[-67.0093,-17.6682,3893.1296],[-67.0003,-17.6823,3955.6709],[-67.0146,-17.7012,3882.7617],[-67.0302,-17.7104,3816.9753],[-67.0333,-17.7167,3815.9512],[-67.0339,-17.7241,3833.1226],[-67.041,-17.7257,3864.3228],[-67.0398,-17.7277,3863.2336],[-67.05,-17.7267,3771.9395],[-67.0496,-17.7354,3755.1025],[-67.0639,-17.7898,3729.4736],[-67.1107,-17.798,3716.1868],[-67.1278,-17.7773,3715.4209],[-67.1238,-17.7619,3719.1304],[-67.1202,-17.7338,3738.1406],[-67.1203,-17.7143,3754.6001],[-67.1412,-17.6972,3741.2781],[-67.144,-17.7164,3739.0674],[-67.1755,-17.7478,3719.1191],[-67.1959,-17.7725,3717.8135],[-67.1906,-17.778199999999998,3727.0474],[-67.1759,-17.8025,3740.8115],[-67.1578,-17.8055,3711.6912],[-67.1529,-17.8185,3710.3003],[-67.2056,-17.8438,3703.1548],[-67.1466,-17.8983,3702.0652],[-67.1181,-17.8713,3706.5576],[-67.0153,-17.899,4081.0918],[-67.0193,-18.0026,4037.4258],[-67.0252,-18.0203,3720.4526],[-67.0273,-18.0516,3739.0593],[-67.0203,-18.0571,3708.7109],[-66.9709,-18.1098,4086.3933],[-66.9594,-18.1082,4458.6792],[-66.9547,-18.1162,4446.6758],[-66.9481,-18.1095,4246.5303],[-66.9278,-18.0981,4492.1763],[-66.9094,-18.0799,4621.0645],[-66.8869,-18.0747,4720.2432],[-66.8817,-18.0683,4736.2788],[-66.8634,-18.0685,4701.1665],[-66.8529,-18.064,4629.3379],[-66.8465,-18.0545,4713.4146],[-66.8356,-18.0475,4541.5225],[-66.827,-18.037,4608.7397],[-66.8225,-18.0254,4434.2471],[-66.8012,-18.0037,4403.7559],[-66.7884,-17.9882,4347.0312],[-66.7814,-17.9846,4265.7305],[-66.7482,-17.9529,4148.4463],[-66.7379,-17.9397,4227.7695],[-66.7151,-17.9001,4293.6318],[-66.7134,-17.8937,4267.3892],[-66.7136,-17.8846,4276.4678],[-66.7162,-17.8781,4178.8799],[-66.7225,-17.8701,4048.7878],[-66.7206,-17.8574,4056.1816],[-66.7234,-17.8512,4000.3525],[-66.7227,-17.8476,3976.781],[-66.7308,-17.8405,4086.5874],[-66.7471,-17.8377,4093.7642],[-66.7511,-17.8348,4124.9531],[-66.757,-17.825,4125.4863],[-66.7641,-17.8029,4158.8579],[-66.7708,-17.7933,4133.873],[-66.7761,-17.7914,4167.0879],[-66.772,-17.7818,4365.3906]]]]}}