{"type": "Feature","bbox": [-65.6748,-19.735,-65.384,-19.472],"geometry": {"type": "MultiPolygon","coordinates": [[[[-65.5789,-19.472,4059.4285],[-65.5925,-19.4783,3756.7104],[-65.5967,-19.4855,3659.3438],[-65.5989,-19.4977,3583.8794],[-65.612,-19.4987,3555.8794],[-65.6123,-19.5059,3605.2524],[-65.5929,-19.5208,3551.5544],[-65.5997,-19.5287,3588.2393],[-65.602,-19.5261,3640.001],[-65.6079,-19.5273,3641.0625],[-65.6125,-19.5302,3662.7998],[-65.6176,-19.5375,3720.1143],[-65.6363,-19.5436,3855.2415],[-65.6428,-19.556,4107.8174],[-65.6491,-19.5618,4403.9648],[-65.6543,-19.5693,4586.1113],[-65.6516,-19.574,4622.8911],[-65.6531,-19.5786,4660.7148],[-65.6496,-19.5813,4688.4424],[-65.6516,-19.5859,4642.0288],[-65.6511,-19.595,4707.3037],[-65.6529,-19.6002,4806.938],[-65.6623,-19.6118,4908.5781],[-65.6676,-19.6116,4835.1777],[-65.6734,-19.6155,4902.1133],[-65.6748,-19.6202,4913.5527],[-65.6715,-19.6313,4880.895],[-65.6637,-19.6334,4948.4956],[-65.6635,-19.6434,4828.374],[-65.6591,-19.6479,4771.5098],[-65.6554,-19.6555,4865.1089],[-65.6567,-19.6583,4833.3682],[-65.656,-19.6649,4941.7847],[-65.6625,-19.6655,4819.4365],[-65.6646,-19.6755,4846.1143],[-65.6636,-19.6777,4781.3027],[-65.6649,-19.684,4838.4941],[-65.6631,-19.6884,4839.3945],[-65.6654,-19.6934,4787.644],[-65.661,-19.7047,4880.3877],[-65.6496,-19.7081,4790.793],[-65.6379,-19.7142,4723.6104],[-65.6097,-19.7194,4519.7158],[-65.606,-19.7219,4497.2881],[-65.5944,-19.7146,4375.0317],[-65.5869,-19.7144,4457.1133],[-65.5849,-19.7126,4486.6963],[-65.561,-19.7076,3917.1396],[-65.5536,-19.7074,3722.8379],[-65.5506,-19.7097,3700.7964],[-65.5413,-19.7094,3570.0303],[-65.5208,-19.7008,3378.7869],[-65.5184,-19.7005,3351.5972],[-65.5173,-19.7029,3310.1897],[-65.5038,-19.6947,3228.4099],[-65.4973,-19.6951,3222.8071],[-65.4948,-19.6991,3206.6479],[-65.4911,-19.6993,3198.3149],[-65.4886,-19.6959,3170.1272],[-65.4827,-19.6939,3171.583],[-65.4823,-19.6925,3162.9866],[-65.4757,-19.6941,3172.3179],[-65.4751,-19.7003,3201.1289],[-65.4781,-19.6988,3153.7871],[-65.4794,-19.7005,3152.7107],[-65.4771,-19.7069,3174.1375],[-65.4636,-19.708,3237.4377],[-65.4591,-19.7113,3250.3242],[-65.45,-19.6992,3367.3074],[-65.4385,-19.6922,3617.2793],[-65.431,-19.7004,3387.0144],[-65.4303,-19.7062,3316.3057],[-65.432,-19.7102,3360.5144],[-65.4302,-19.7165,3146.1619],[-65.4275,-19.7193,3134.6648],[-65.4281,-19.7259,3300.8411],[-65.4259,-19.735,3303.1348],[-65.4207,-19.7308,3021.1401],[-65.417,-19.7303,2986.1968],[-65.4149,-19.7268,2959.915],[-65.4148,-19.7218,2965.7969],[-65.4184,-19.7149,2971.7859],[-65.416,-19.708,2984.627],[-65.4171,-19.7024,2996.1411],[-65.4149,-19.6848,2998.6907],[-65.4185,-19.67,3011.3018],[-65.4054,-19.6636,3209.552],[-65.3847,-19.6619,3483.5933],[-65.384,-19.6506,3367.948],[-65.4005,-19.6385,3118.5088],[-65.4056,-19.6307,3101.3843],[-65.4078,-19.6306,3067.3005],[-65.4061,-19.6264,3100.3804],[-65.4049,-19.6088,3099.6191],[-65.4032,-19.6055,3105.5938],[-65.408,-19.6037,3179.627],[-65.4088,-19.6058,3206.54],[-65.414,-19.6058,3209.3765],[-65.416,-19.601,3167.27],[-65.4274,-19.5925,3499.5132],[-65.4342,-19.5819,3929.9053],[-65.436,-19.5824,3868.0081],[-65.4408,-19.5922,3630.9988],[-65.4421,-19.602,3612.8516],[-65.4444,-19.6048,3617.6187],[-65.4485,-19.6005,3445.4265],[-65.4538,-19.5857,3612.4907],[-65.4574,-19.5831,3549.4792],[-65.4601,-19.577,3593.2393],[-65.4693,-19.5786,3367.5366],[-65.471,-19.5766,3315.3062],[-65.4798,-19.5766,3233.2231],[-65.4873,-19.5745,3334.4409],[-65.5005,-19.5692,3305.7678],[-65.5082,-19.5594,3368.6028],[-65.5351,-19.5611,3470.6738],[-65.5369,-19.5544,3441.1113],[-65.5467,-19.5435,3439.9438],[-65.5494,-19.5364,3444.2207],[-65.5436,-19.5326,3638.0559],[-65.5442,-19.5286,3695.3633],[-65.5468,-19.5275,3706.7395],[-65.5489,-19.5235,3713.0312],[-65.55,-19.5138,3781.3831],[-65.5605,-19.4962,3874.9919],[-65.5789,-19.472,4059.4285]]]]}
,"properties": {"GID_3": "BOL.7.5.2_2","GID_0": "BOL","country": "Bolivia","GID_1": "BOL.7_1","province": "Potosí","NL_NAME_1": "NA","GID_2": "BOL.7.5_2","county": "CornelioSaavedra","NL_NAME_2": "NA","city": "Chaquí","VARNAME_3": "NA","NL_NAME_3": "NA","TYPE_3": "District","ENGTYPE_3": "Distrito","CC_3": "NA","HASC_3": "NA","name": "Chaquí.city","area_km2": 467.9706,"hist_schema_id": "Elevation0-9000","hist_area_km2": {"2950": 0.1597,"2975": 0.5788,"3000": 0.9382,"3025": 2.2161,"3050": 2.9151,"3075": 4.0931,"3100": 5.0316,"3125": 4.9916,"3150": 5.7505,"3175": 8.4065,"3200": 11.7215,"3225": 13.7385,"3250": 14.7765,"3275": 13.7381,"3300": 13.5584,"3325": 11.3622,"3350": 12.9802,"3375": 14.3587,"3400": 13.6201,"3425": 13.9202,"3450": 14.0008,"3475": 13.6211,"3500": 12.5431,"3525": 11.9647,"3550": 11.965,"3575": 13.184,"3600": 11.906,"3625": 12.0061,"3650": 10.7877,"3675": 8.7497,"3700": 7.6905,"3725": 5.8526,"3750": 5.6925,"3775": 5.2731,"3800": 4.514,"3825": 4.6937,"3850": 3.9946,"3875": 4.2742,"3900": 3.2755,"3925": 3.2555,"3950": 3.0759,"3975": 2.896,"4000": 3.0157,"4025": 2.7161,"4050": 2.5363,"4075": 2.9955,"4100": 3.1352,"4125": 3.155,"4150": 2.9155,"4175": 2.4163,"4200": 2.9353,"4225": 2.7557,"4250": 2.6358,"4275": 2.7356,"4300": 3.6141,"4325": 3.6142,"4350": 3.4744,"4375": 4.0135,"4400": 4.3131,"4425": 4.6725,"4450": 4.1134,"4475": 4.7325,"4500": 4.9519,"4525": 4.7323,"4550": 4.7922,"4575": 4.8321,"4600": 5.0915,"4625": 5.391,"4650": 5.1913,"4675": 4.3724,"4700": 3.9532,"4725": 3.8331,"4750": 2.7551,"4775": 2.5954,"4800": 1.8967,"4825": 1.2977,"4850": 0.8586,"4875": 0.559,"4900": 0.1597,"4925": 0.0799,"4950": 0.0399,"4975": 0.02}}}