{"type":"Feature","properties":{"GID_2":"BOL.3.7_2","GID_0":"BOL","country":"Bolivia","GID_1":"BOL.3_1","province":"Beni","NL_NAME_1":"NA","county":"VacaDiez","VARNAME_2":"NA","NL_NAME_2":"NA","TYPE_2":"Provincia","ENGTYPE_2":"Province","CC_2":"NA","HASC_2":"NA","name":"Vaca_Diez.county"},
"geometry":{"type": "MultiPolygon","coordinates": [[[[-66.8939,-12.0059,140.0],[-66.2679,-12.0,139.8118],[-65.1217,-12.0001,126.0],[-65.1131,-11.9691,125.5],[-65.1094,-11.9628,125.0],[-65.1048,-11.9601,126.4493],[-65.1011,-11.9603,126.7695],[-65.0987,-11.9627,130.3069],[-65.0974,-11.9667,124.5],[-65.0984,-11.9804,124.5],[-65.0936,-11.9927,124.0],[-65.0887,-11.9974,124.0],[-65.0831,-11.9994,126.3225],[-65.0723,-11.994,123.5],[-65.0689,-11.9904,123.5],[-65.0655,-11.9801,123.5],[-65.0651,-11.9734,126.5297],[-65.0652,-11.9665,123.375],[-65.0733,-11.9434,123.0],[-65.0743,-11.937,123.0],[-65.0729,-11.9327,126.3153],[-65.0696,-11.9305,129.8566],[-65.0642,-11.9302,129.1073],[-65.0383,-11.9428,122.0],[-65.0325,-11.9389,124.0092],[-65.0271,-11.9315,123.2523],[-65.0228,-11.9286,122.0],[-65.0173,-11.9084,122.0],[-65.0173,-11.9017,122.0],[-65.0247,-11.8885,124.0013],[-65.0571,-11.8857,122.0],[-65.0693,-11.8753,122.0],[-65.0737,-11.8658,122.0],[-65.0736,-11.8576,122.0],[-65.0627,-11.8292,122.0],[-65.0599,-11.798,122.0],[-65.0629,-11.7749,122.0],[-65.0805,-11.7414,122.0],[-65.083,-11.7305,122.0],[-65.0825,-11.7175,122.0],[-65.0882,-11.7094,122.0],[-65.1016,-11.7069,136.3845],[-65.1017,-11.7043,122.0],[-65.1116,-11.7084,122.0],[-65.1285,-11.7219,122.0],[-65.133,-11.7407,125.0],[-65.1329,-11.772,130.1614],[-65.1343,-11.7744,135.0487],[-65.1444,-11.7752,143.52],[-65.1699,-11.7662,144.7634],[-65.1845,-11.7591,128.2775],[-65.1883,-11.7554,122.0],[-65.2178,-11.744,122.0],[-65.2456,-11.7249,122.0],[-65.257,-11.7141,122.0],[-65.2608,-11.7082,122.0],[-65.2612,-11.7025,122.0],[-65.2596,-11.6989,122.0],[-65.2339,-11.6775,122.0],[-65.2245,-11.6647,124.8471],[-65.2216,-11.6511,132.3799],[-65.222,-11.6383,133.8423],[-65.2253,-11.6267,131.1509],[-65.232,-11.6169,122.0],[-65.2328,-11.6112,122.0],[-65.2293,-11.5832,122.0],[-65.2326,-11.5672,122.0],[-65.232,-11.5605,122.0],[-65.2289,-11.5553,122.0],[-65.2124,-11.5421,121.5],[-65.2116,-11.5337,121.5],[-65.2175,-11.5198,121.5],[-65.2257,-11.5157,121.5],[-65.2356,-11.514099999999999,121.5],[-65.25,-11.5145,121.5],[-65.2709,-11.5113,121.5],[-65.3046,-11.5014,121.5],[-65.3087,-11.4969,121.5],[-65.3121,-11.4702,121.5],[-65.3237,-11.4202,121.5],[-65.3291,-11.3775,121.5],[-65.3346,-11.3579,121.5],[-65.3336,-11.3567,121.5],[-65.3344,-11.3481,121.5],[-65.3336,-11.3397,121.5],[-65.3304,-11.3347,121.5],[-65.3205,-11.3336,121.5],[-65.3074,-11.3362,121.5],[-65.2964,-11.334,121.5],[-65.2941,-11.3326,121.5],[-65.2918,-11.3242,127.3832],[-65.2987,-11.3161,121.5],[-65.3355,-11.3138,121.5],[-65.3429,-11.3097,121.5],[-65.3462,-11.3049,121.5],[-65.352,-11.2901,121.5],[-65.3597,-11.2612,121.5],[-65.362,-11.2339,121.5],[-65.3619,-11.2243,121.5],[-65.3595,-11.2189,121.5],[-65.3549,-11.2141,121.5],[-65.3491,-11.2109,121.5],[-65.3222,-11.2075,121.0],[-65.3187,-11.1994,137.3365],[-65.3246,-11.187,139.511],[-65.331,-11.1857,132.0077],[-65.3434,-11.1903,126.7893],[-65.3512,-11.1873,120.5],[-65.3537,-11.184,120.375],[-65.3557,-11.1799,120.0],[-65.3568,-11.1682,120.0],[-65.3635,-11.1473,120.0],[-65.3628,-11.1378,121.2617],[-65.3512,-11.1222,119.5],[-65.3298,-11.1064,119.5],[-65.319,-11.1014,119.5],[-65.2864,-11.0922,119.0],[-65.2801,-11.0797,119.0],[-65.2809,-11.0636,118.5],[-65.3006,-11.0393,118.5],[-65.3016,-11.033,118.5],[-65.3005,-11.0295,118.5],[-65.2971,-11.0247,118.5],[-65.27,-11.0004,118.0],[-65.2526,-10.9918,117.5],[-65.2509,-10.9846,117.25],[-65.2681,-10.9638,116.5],[-65.273,-10.9545,116.0],[-65.2743,-10.9442,115.5],[-65.2859,-10.9277,122.9639],[-65.2835,-10.919,115.0],[-65.2668,-10.9218,115.0],[-65.2753,-10.8727,113.5],[-65.3196,-10.8234,111.5],[-65.3422,-10.8075,111.0],[-65.3547,-10.805,110.5],[-65.367,-10.7963,110.5],[-65.3656,-10.7801,110.5],[-65.3525,-10.781,110.0],[-65.3482,-10.7785,110.0],[-65.3453,-10.759,110.0],[-65.3496,-10.7435,109.5],[-65.3438,-10.7107,109.0],[-65.3445,-10.6955,109.0],[-65.3488,-10.6727,108.5],[-65.3584,-10.6574,108.5],[-65.3758,-10.6466,108.0],[-65.3927,-10.6463,108.0],[-65.4043,-10.6423,108.0],[-65.4058,-10.6336,107.5],[-65.4109,-10.6307,107.5],[-65.4168,-10.6187,111.0382],[-65.4099,-10.6148,107.5],[-65.4106,-10.6015,107.125],[-65.4088,-10.5983,107.0],[-65.3979,-10.5892,107.0],[-65.3981,-10.5791,107.0],[-65.402,-10.5682,107.0],[-65.4047,-10.5538,106.5],[-65.4099,-10.5474,106.5],[-65.4172,-10.542,106.5],[-65.4204,-10.536,106.5],[-65.4215,-10.5301,106.0],[-65.4153,-10.5209,106.0],[-65.4108,-10.5086,106.0],[-65.4296,-10.4867,105.5],[-65.4305,-10.4823,105.5],[-65.424,-10.4644,105.0],[-65.4209,-10.4626,105.0],[-65.4146,-10.4637,105.0],[-65.4031,-10.4628,105.0],[-65.3977,-10.4563,105.0],[-65.3959,-10.4483,105.0],[-65.3907,-10.4459,104.5],[-65.3875,-10.4415,106.8522],[-65.3816,-10.4291,104.5],[-65.3878,-10.4299,117.1802],[-65.3849,-10.4176,114.9751],[-65.3895,-10.387,104.0],[-65.3878,-10.3868,104.0],[-65.391,-10.3812,104.0],[-65.3978,-10.3926,104.0],[-65.3977,-10.3985,104.0],[-65.4006,-10.4073,104.0],[-65.4082,-10.414,104.0],[-65.425,-10.4169,104.0],[-65.4382,-10.4131,104.0],[-65.4482,-10.4147,104.5],[-65.4721,-10.4292,104.5],[-65.4838,-10.4381,104.5],[-65.4864,-10.4463,104.5],[-65.4878,-10.4624,104.5],[-65.4939,-10.4785,104.5],[-65.5021,-10.4916,104.5],[-65.5099,-10.4967,104.5],[-65.53,-10.5012,105.0],[-65.536,-10.5042,105.0],[-65.5444,-10.5047,105.0],[-65.5554,-10.5078,105.0],[-65.5748,-10.5202,105.0],[-65.5798,-10.5292,105.0],[-65.5872,-10.5368,105.0],[-65.6181,-10.5399,105.0],[-65.6235,-10.5457,105.0],[-65.6245,-10.5577,105.0],[-65.6333,-10.5636,105.0],[-65.6473,-10.5661,105.5],[-65.6836,-10.5642,105.5],[-65.7099,-10.5657,105.5],[-65.7232,-10.565,105.5],[-65.7279,-10.5669,105.5],[-65.732,-10.5717,105.5],[-65.7343,-10.5777,105.5],[-65.7342,-10.5917,105.5],[-65.7246,-10.6119,105.5],[-65.7041,-10.6446,106.0],[-65.7019,-10.6514,106.0],[-65.7111,-10.6836,121.8875],[-65.7196,-10.6951,106.0],[-65.7335,-10.7069,106.0],[-65.7531,-10.7169,106.0],[-65.7877,-10.7306,106.5],[-65.8126,-10.7433,106.5],[-65.8201,-10.7442,106.5],[-65.8271,-10.7418,106.5],[-65.832,-10.7357,106.5],[-65.8405,-10.718,106.5],[-65.8603,-10.6926,106.5],[-65.864,-10.6897,108.0547],[-65.8688,-10.689,106.5],[-65.88,-10.6934,107.0],[-65.8878,-10.7015,107.0],[-65.8958,-10.7138,107.0],[-65.9038,-10.7291,107.0],[-65.9056,-10.7408,107.5431],[-65.903,-10.7456,107.0],[-65.8812,-10.7574,107.0],[-65.8684,-10.7676,107.0],[-65.8518,-10.7844,107.0],[-65.8486,-10.7918,107.5],[-65.8498,-10.823,107.5],[-65.8507,-10.8297,107.5],[-65.854,-10.8339,107.5],[-65.8597,-10.8355,111.2209],[-65.8811,-10.8305,121.4575],[-65.9047,-10.8298,107.5],[-65.9149,-10.8274,107.5],[-65.9354,-10.8135,107.5],[-65.9688,-10.7977,108.0],[-65.9758,-10.797,108.0],[-65.9825,-10.7985,108.0],[-66.0006,-10.8104,108.0],[-66.0103,-10.8131,115.697],[-66.0442,-10.8314,108.0],[-66.0718,-10.8475,108.0],[-66.0763,-10.8517,108.0],[-66.0761,-10.8567,108.0],[-66.071,-10.8631,108.0],[-66.0629,-10.8661,108.0],[-66.056,-10.8671,108.0],[-66.0486,-10.8655,108.0],[-66.0285,-10.8545,108.0],[-66.0215,-10.8549,108.0],[-66.0154,-10.8582,108.0],[-66.0131,-10.8637,108.0],[-66.0154,-10.8719,108.0],[-66.0207,-10.8791,113.4394],[-66.0382,-10.889,137.0689],[-66.0437,-10.8956,114.5262],[-66.0473,-10.903,108.0],[-66.0491,-10.914,108.0],[-66.047,-10.9418,108.5],[-66.0579,-10.9866,113.0],[-66.0609,-10.9898,113.5],[-66.0661,-10.9913,114.0],[-66.0814,-10.9925,117.5387],[-66.0923,-10.9901,122.015],[-66.1066,-11.0228,116.0],[-66.1082,-11.0327,128.2237],[-66.1067,-11.0393,116.0],[-66.1035,-11.0425,116.0],[-66.0985,-11.0432,116.0],[-66.0915,-11.0473,116.0],[-66.0934,-11.0506,116.0],[-66.1043,-11.0514,116.0],[-66.1374,-11.0422,116.5],[-66.1439,-11.0461,117.0],[-66.1433,-11.052,117.0],[-66.127,-11.0758,117.5],[-66.1234,-11.0838,117.5],[-66.1216,-11.1003,117.5],[-66.1264,-11.1183,118.0],[-66.1308,-11.1246,118.0],[-66.1377,-11.1306,118.0],[-66.1529,-11.1355,118.25],[-66.1574,-11.1344,118.5],[-66.1601,-11.1312,118.5],[-66.1703,-11.0974,118.5],[-66.1778,-11.0847,118.5],[-66.1833,-11.0771,121.7288],[-66.1864,-11.0754,119.0],[-66.1938,-11.0749,119.0],[-66.1959,-11.0768,120.526],[-66.2147,-11.1186,119.0],[-66.2143,-11.1224,123.7139],[-66.2004,-11.1284,119.5],[-66.1963,-11.1323,119.5],[-66.1908,-11.1455,119.5],[-66.1858,-11.1818,127.2606],[-66.1888,-11.1876,120.0],[-66.2029,-11.2028,128.444],[-66.2165,-11.2116,120.0],[-66.2409,-11.2204,120.5],[-66.2441,-11.2196,121.3046],[-66.2472,-11.2165,120.5],[-66.2502,-11.209,128.5467],[-66.2534,-11.2066,130.3079],[-66.258,-11.2064,128.8146],[-66.2615,-11.208,121.8074],[-66.267,-11.2172,120.5],[-66.2697,-11.2349,126.0152],[-66.2685,-11.241,127.8957],[-66.2634,-11.2513,120.5],[-66.2551,-11.2578,121.0],[-66.2514,-11.2661,128.0593],[-66.2525,-11.2697,121.0],[-66.2563,-11.2733,121.0],[-66.2661,-11.2748,127.5682],[-66.2754,-11.2726,127.9514],[-66.2776,-11.2745,123.652],[-66.2776,-11.2777,123.5449],[-66.2699,-11.2896,121.5],[-66.243,-11.3033,121.5],[-66.2379,-11.3081,121.5],[-66.2258,-11.3291,123.3368],[-66.2254,-11.3364,122.0],[-66.2281,-11.3404,122.0],[-66.2331,-11.3426,122.0],[-66.2436,-11.3402,122.0],[-66.2722,-11.3229,123.4713],[-66.2903,-11.3155,122.5],[-66.2966,-11.3141,122.5],[-66.3109,-11.3158,122.5],[-66.3315,-11.3235,123.0],[-66.3382,-11.3311,123.0],[-66.3359,-11.3457,123.0],[-66.3297,-11.349,123.0],[-66.3192,-11.3517,129.7905],[-66.3177,-11.3537,127.9534],[-66.3179,-11.3587,123.5],[-66.321,-11.3612,123.5],[-66.327,-11.3635,123.5],[-66.3416,-11.3644,123.5],[-66.3578,-11.3674,123.5],[-66.3737,-11.3746,124.4734],[-66.3896,-11.3782,124.0],[-66.4302,-11.3737,124.0],[-66.4403,-11.3764,124.0],[-66.4614,-11.3921,128.4639],[-66.4646,-11.3963,128.9649],[-66.4671,-11.4057,124.0],[-66.4631,-11.4176,124.0],[-66.464,-11.4238,124.0],[-66.4702,-11.4278,125.6548],[-66.483,-11.4302,124.0],[-66.495,-11.441,132.1129],[-66.5054,-11.4431,129.8577],[-66.5072,-11.442,128.9674],[-66.5107,-11.437,129.7962],[-66.5126,-11.4257,124.0],[-66.519,-11.42,130.7987],[-66.5344,-11.4183,130.0694],[-66.5471,-11.4144,134.6465],[-66.5543,-11.4144,124.5],[-66.5739,-11.4245,135.7955],[-66.5907,-11.4294,132.4272],[-66.6151,-11.428,125.0],[-66.6316,-11.424,125.0],[-66.6374,-11.4255,125.0],[-66.639,-11.4306,125.0],[-66.6335,-11.455,125.5],[-66.6335,-11.462,125.5],[-66.6339,-11.4673,125.5],[-66.6362,-11.4717,125.5],[-66.6395,-11.4733,125.5],[-66.6506,-11.4668,125.5],[-66.6674,-11.4527,127.5544],[-66.6892,-11.4434,126.0],[-66.695,-11.4429,127.2556],[-66.7053,-11.4465,126.0],[-66.7178,-11.4581,126.0],[-66.7333,-11.4799,126.0],[-66.734,-11.4842,126.0],[-66.7295,-11.4879,128.3135],[-66.7196,-11.4862,126.0],[-66.7088,-11.4881,126.0],[-66.6959,-11.4972,126.0],[-66.6864,-11.5122,129.3226],[-66.6791,-11.531,127.0],[-66.6768,-11.5388,127.5],[-66.6758,-11.5617,148.9555],[-66.6778,-11.5654,148.0332],[-66.6804,-11.5658,139.8553],[-66.6922,-11.561,128.0],[-66.6969,-11.5607,128.0],[-66.7214,-11.5662,128.0],[-66.7477,-11.5762,128.0],[-66.7597,-11.5846,128.5],[-66.7624,-11.5878,128.5],[-66.7628,-11.5913,131.0475],[-66.7609,-11.5942,130.8337],[-66.734,-11.6084,129.0],[-66.7205,-11.6067,137.9447],[-66.7128,-11.6105,139.5028],[-66.711,-11.618,140.9395],[-66.7219,-11.6295,129.5],[-66.727,-11.6449,130.0],[-66.7295,-11.6485,130.0],[-66.7353,-11.6523,130.0],[-66.7358,-11.6548,130.0],[-66.7335,-11.6573,130.0],[-66.7294,-11.658,130.0],[-66.7171,-11.6558,137.0433],[-66.7086,-11.6586,148.2488],[-66.7067,-11.6607,143.9199],[-66.7053,-11.6646,149.5141],[-66.706,-11.6713,132.1344],[-66.7117,-11.6818,130.0],[-66.7254,-11.6906,130.0],[-66.762,-11.7085,130.5],[-66.7639,-11.7123,130.5],[-66.7636,-11.7322,138.2885],[-66.7649,-11.7361,130.5],[-66.7721,-11.7423,130.5],[-66.7813,-11.745,130.5],[-66.7907,-11.7427,130.5],[-66.7941,-11.74,130.5],[-66.7959,-11.7309,130.5],[-66.7936,-11.7272,130.5],[-66.7829,-11.7218,130.5],[-66.7741,-11.7134,131.0],[-66.7711,-11.7019,143.1226],[-66.7719,-11.6966,131.0],[-66.7792,-11.6928,139.0597],[-66.8115,-11.6954,136.5666],[-66.8167,-11.6973,131.5],[-66.8261,-11.7062,131.5],[-66.8291,-11.7126,131.5],[-66.8351,-11.7398,132.0],[-66.8377,-11.7646,139.9995],[-66.8398,-11.7664,137.4267],[-66.8521,-11.7629,132.0],[-66.8609,-11.7549,132.5],[-66.8665,-11.7451,132.5],[-66.8702,-11.7429,134.0469],[-66.8796,-11.742,132.5],[-66.9047,-11.7442,133.0],[-66.9105,-11.7471,133.0],[-66.9173,-11.7647,133.0],[-66.9188,-11.7767,133.0],[-66.9179,-11.7806,133.5],[-66.9096,-11.7811,133.5],[-66.8865,-11.7729,133.5],[-66.8804,-11.7739,133.5],[-66.8772,-11.777,133.5],[-66.8718,-11.7886,135.5367],[-66.871,-11.7926,135.9623],[-66.8732,-11.8016,135.9474],[-66.8713,-11.8091,134.0],[-66.8679,-11.8123,134.5],[-66.8564,-11.8172,134.5],[-66.8567,-11.8226,139.9658],[-66.8937,-11.8579,135.5],[-66.9037,-11.8626,136.0],[-66.9188,-11.8655,136.0],[-66.9414,-11.878,153.6134],[-66.9533,-11.8782,140.193],[-66.9555,-11.8802,136.0],[-66.9565,-11.8932,147.0558],[-66.9585,-11.8954,136.0],[-66.9647,-11.8969,139.8904],[-66.9719,-11.8946,151.6955],[-66.9759,-11.8959,151.078],[-66.9791,-11.9,141.8268],[-66.9797,-11.9066,141.3186],[-66.978,-11.914,136.0],[-66.9738,-11.9222,136.375],[-66.9694,-11.9289,136.5],[-66.9561,-11.9406,136.5],[-66.9523,-11.9401,136.5],[-66.9499,-11.9371,136.5],[-66.9574,-11.917,155.4152],[-66.9538,-11.9112,145.4879],[-66.9497,-11.9096,140.0547],[-66.9407,-11.9118,137.0],[-66.9295,-11.9205,137.0],[-66.9262,-11.9311,137.0],[-66.9309,-11.9442,153.9047],[-66.93,-11.9503,137.0],[-66.9253,-11.9546,144.1719],[-66.9137,-11.9493,152.5975],[-66.9084,-11.9505,137.0],[-66.9059,-11.9529,140.2186],[-66.9019,-11.979,138.0],[-66.8939,-12.0059,140.0]]]]}}