{"type": "Feature","bbox": [-66.4388,-18.7384,-66.274,-18.5188],"geometry": {"type": "MultiPolygon","coordinates": [[[[-66.3797,-18.7384,4228.9312],[-66.3663,-18.7274,4050.9089],[-66.3577,-18.7272,4135.1562],[-66.3233,-18.7058,4049.4231],[-66.3139,-18.6965,3556.6445],[-66.3134,-18.6941,3561.3452],[-66.3013,-18.6833,3541.5398],[-66.3022,-18.6805,3552.0637],[-66.2911,-18.6775,3681.8882],[-66.2859,-18.6713,3808.5767],[-66.2853,-18.6665,3754.7952],[-66.2757,-18.6622,3325.5422],[-66.2793,-18.6574,3327.3982],[-66.278,-18.6558,3317.4419],[-66.2798,-18.6533,3301.4575],[-66.2778,-18.6531,3332.4536],[-66.2795,-18.6511,3345.2446],[-66.2813,-18.6515,3335.3132],[-66.2852,-18.6421,3306.9836],[-66.2871,-18.6414,3306.9836],[-66.2871,-18.6373,3346.8523],[-66.2908,-18.6367,3312.6792],[-66.2914,-18.6348,3303.3945],[-66.2901,-18.6302,3309.7126],[-66.2871,-18.6285,3310.9478],[-66.2857,-18.6176,3284.4478],[-66.2797,-18.6164,3316.7791],[-66.2746,-18.6097,3344.022],[-66.274,-18.5994,3282.8198],[-66.2752,-18.5972,3241.9019],[-66.2847,-18.5916,3220.0491],[-66.2842,-18.5853,3201.8562],[-66.2869,-18.5791,3187.2058],[-66.2866,-18.5735,3184.2935],[-66.2813,-18.5671,3174.1045],[-66.2785,-18.5602,3129.5371],[-66.2782,-18.5539,3109.6943],[-66.2884,-18.5504,3176.2671],[-66.2936,-18.5514,3223.0066],[-66.2986,-18.5491,3241.3533],[-66.3022,-18.5499,3239.4912],[-66.3081,-18.5463,3269.7014],[-66.3191,-18.5436,3435.2856],[-66.3338,-18.53,3505.0154],[-66.3398,-18.5265,3551.4299],[-66.3448,-18.5188,3554.7126],[-66.3481,-18.5227,3605.5598],[-66.3531,-18.521,3722.0608],[-66.3542,-18.5312,3655.373],[-66.3582,-18.537,3731.6875],[-66.3645,-18.5301,3720.3521],[-66.367,-18.534,3734.3223],[-66.3702,-18.5351,3778.3389],[-66.3768,-18.5412,3826.1362],[-66.385,-18.5437,4113.1499],[-66.3811,-18.5549,4034.022],[-66.3812,-18.5603,3999.3313],[-66.3834,-18.5642,3936.8125],[-66.3872,-18.5665,3813.2751],[-66.3928,-18.5865,4197.5972],[-66.4024,-18.5847,4149.7554],[-66.4046,-18.5891,4133.2715],[-66.402,-18.5939,4147.5156],[-66.4037,-18.5974,4082.21],[-66.4007,-18.6083,4075.9912],[-66.4024,-18.612,4068.4641],[-66.4134,-18.6171,3565.3921],[-66.4291,-18.6446,4003.4265],[-66.4287,-18.6518,3930.9753],[-66.4325,-18.6587,3829.1562],[-66.4325,-18.6626,3862.1406],[-66.4388,-18.6711,3981.3389],[-66.4376,-18.7082,3553.8999],[-66.4298,-18.7066,3543.4028],[-66.428,-18.7042,3539.3267],[-66.4235,-18.7078,3559.2886],[-66.4233,-18.7097,3622.4121],[-66.4133,-18.7077,3882.5356],[-66.4085,-18.7131,3839.9897],[-66.3982,-18.7128,4062.918],[-66.3923,-18.717,4031.7458],[-66.3797,-18.7384,4228.9312]]]]}
,"properties": {"GID_3": "BOL.7.13.2_2","GID_0": "BOL","country": "Bolivia","GID_1": "BOL.7_1","province": "Potosí","NL_NAME_1": "NA","GID_2": "BOL.7.13_2","county": "RafaelBustillo","NL_NAME_2": "NA","city": "ChuquihutaAylluJucumani","VARNAME_3": "NA","NL_NAME_3": "NA","TYPE_3": "District","ENGTYPE_3": "Distrito","CC_3": "NA","HASC_3": "NA","name": "Chuquihuta_Ayllu_Jucumani.city","area_km2": 262.9103,"hist_schema_id": "Elevation0-9000","hist_area_km2": {"3125": 0.0402,"3150": 0.201,"3175": 0.2412,"3200": 0.1809,"3225": 0.4422,"3250": 0.4623,"3275": 0.6029,"3300": 1.1453,"3325": 1.3864,"3350": 1.7882,"3375": 1.969,"3400": 2.8931,"3425": 3.1945,"3450": 3.6163,"3475": 4.6409,"3500": 4.9824,"3525": 6.1876,"3550": 6.6698,"3575": 6.9913,"3600": 7.152,"3625": 7.2525,"3650": 8.0964,"3675": 8.3978,"3700": 8.3576,"3725": 8.9607,"3750": 9.965,"3775": 10.2665,"3800": 11.0703,"3825": 10.4477,"3850": 10.5081,"3875": 10.4279,"3900": 10.0663,"3925": 9.966,"3950": 10.1269,"3975": 8.8006,"4000": 8.037,"4025": 8.1575,"4050": 7.5146,"4075": 7.3934,"4100": 6.2483,"4125": 5.866,"4150": 5.444,"4175": 3.7967,"4200": 3.7161,"4225": 2.8723,"4250": 1.8478,"4275": 1.205,"4300": 0.944,"4325": 0.8033,"4350": 0.5222,"4375": 0.4619,"4400": 0.3615,"4425": 0.0803,"4450": 0.1406}}}