{"type":"Feature","properties":{"GID_3":"BOL.8.10.6_2","GID_0":"BOL","country":"Bolivia","GID_1":"BOL.8_1","province":"SantaCruz","NL_NAME_1":"NA","GID_2":"BOL.8.10_2","county":"ÑufloDeChávez","NL_NAME_2":"NA","city":"SanRamón","VARNAME_3":"NA","NL_NAME_3":"NA","TYPE_3":"District","ENGTYPE_3":"Distrito","CC_3":"NA","HASC_3":"NA","name":"San_Ramón.city"},
"geometry":{"type": "MultiPolygon","coordinates": [[[[-62.3434,-16.506,324.2186],[-62.3464,-16.5053,325.5888],[-62.3484,-16.5089,324.0974],[-62.3526,-16.509,319.9299],[-62.3592,-16.5124,324.4121],[-62.3579,-16.5019,317.2962],[-62.3604,-16.499,310.3087],[-62.3662,-16.504,315.7866],[-62.3722,-16.503,312.1127],[-62.3745,-16.5053,310.0213],[-62.3727,-16.5068,312.0048],[-62.3741,-16.5104,306.2213],[-62.3785,-16.511,305.102],[-62.3782,-16.5148,326.5453],[-62.3818,-16.5131,311.5958],[-62.3871,-16.5161,304.6952],[-62.3902,-16.5157,320.7388],[-62.3896,-16.5233,305.9042],[-62.4012,-16.5175,299.9714],[-62.4072,-16.5189,326.4512],[-62.4074,-16.5207,290.5023],[-62.4098,-16.5215,285.4925],[-62.41,-16.5187,302.8144],[-62.4129,-16.516,294.1864],[-62.4158,-16.5096,283.4125],[-62.4199,-16.5077,287.6302],[-62.4259,-16.5084,302.1444],[-62.4255,-16.5035,280.4178],[-62.4295,-16.501,301.5817],[-62.4338,-16.5017,292.6948],[-62.4424,-16.4996,280.9416],[-62.4444,-16.5037,292.1598],[-62.4531,-16.5018,280.0956],[-62.4556,-16.5052,278.0585],[-62.4562,-16.4993,271.3224],[-62.4535,-16.4932,279.0954],[-62.4558,-16.4902,270.3329],[-62.4617,-16.4929,267.294],[-62.4677,-16.49,267.6033],[-62.4682,-16.4858,267.43],[-62.4653,-16.4846,281.3824],[-62.4729,-16.4803,263.2145],[-62.4788,-16.4849,257.4109],[-62.4832,-16.4843,255.9047],[-62.4902,-16.4805,255.2166],[-62.493899999999996,-16.4734,254.2301],[-62.4976,-16.4719,262.6241],[-62.504,-16.4756,260.4544],[-62.505,-16.4783,276.783],[-62.4999,-16.4861,257.704],[-62.5009,-16.4871,262.5017],[-62.5024,-16.4855,262.6146],[-62.5074,-16.4925,260.4148],[-62.5092,-16.4914,262.8224],[-62.5127,-16.4947,260.1007],[-62.516,-16.4936,259.5601],[-62.5206,-16.4951,257.5953],[-62.5229,-16.4938,261.1206],[-62.5223,-16.4903,261.2503],[-62.5235,-16.4894,264.0497],[-62.5255,-16.4944,262.8973],[-62.5287,-16.4956,259.666],[-62.5296,-16.4936,259.4964],[-62.5332,-16.4947,255.0975],[-62.5356,-16.5013,251.2201],[-62.538,-16.4998,261.0814],[-62.5412,-16.501,267.0346],[-62.54,-16.505,259.1581],[-62.5447,-16.5081,254.3773],[-62.5456,-16.5104,252.9976],[-62.5494,-16.5086,252.3885],[-62.5546,-16.5143,249.2509],[-62.5592,-16.5162,252.0066],[-62.5606,-16.5178,253.9985],[-62.5593,-16.5203,246.4169],[-62.5607,-16.5215,242.8978],[-62.5684,-16.5167,251.5635],[-62.569,-16.5201,241.4619],[-62.5712,-16.519,248.5411],[-62.5735,-16.5203,237.5566],[-62.5746,-16.5183,244.4358],[-62.5772,-16.5208,245.5299],[-62.5808,-16.5188,246.6682],[-62.5899,-16.5176,240.533],[-62.5907,-16.5207,241.2066],[-62.5938,-16.5212,243.1496],[-62.5924,-16.5233,242.6334],[-62.5969,-16.5254,237.8937],[-62.5961,-16.5301,235.7667],[-62.5983,-16.5342,238.3651],[-62.5961,-16.5358,236.2577],[-62.5996,-16.5365,236.6373],[-62.6012,-16.5398,232.8548],[-62.6019,-16.5383,236.5006],[-62.6032,-16.5383,236.5006],[-62.6033,-16.5402,234.1426],[-62.6042,-16.5388,237.7533],[-62.6047,-16.5412,236.4384],[-62.6076,-16.543,234.4637],[-62.6034,-16.5523,232.621],[-62.6102,-16.5611,232.5244],[-62.6033,-16.5648,237.9971],[-62.6041,-16.5743,234.2748],[-62.6031,-16.5756,238.9896],[-62.6008,-16.575,235.8781],[-62.5967,-16.5685,238.7345],[-62.5902,-16.571,231.8972],[-62.5927,-16.5741,243.1842],[-62.5924,-16.5787,238.244],[-62.595,-16.5829,231.7807],[-62.5873,-16.5876,234.1756],[-62.5863,-16.5908,236.637],[-62.5825,-16.5941,235.5853],[-62.5722,-16.5952,240.1596],[-62.5697,-16.5916,235.8192],[-62.5672,-16.5909,231.6023],[-62.5639,-16.5913,232.84],[-62.5613,-16.5941,236.1907],[-62.5562,-16.592,234.6965],[-62.5533,-16.5925,236.4952],[-62.5515,-16.5885,233.9977],[-62.55,-16.5888,234.3922],[-62.5449,-16.5982,237.746],[-62.545,-16.6006,238.1177],[-62.5416,-16.6022,236.1945],[-62.5417,-16.6087,233.2324],[-62.5335,-16.6115,234.304],[-62.5324,-16.6158,234.3166],[-62.5272,-16.6169,231.0367],[-62.5203,-16.6226,230.0696],[-62.5225,-16.6293,231.2734],[-62.518,-16.6382,233.4496],[-62.5152,-16.6396,241.2315],[-62.5148,-16.6437,233.1501],[-62.5069,-16.6457,230.1651],[-62.5063,-16.6421,233.9646],[-62.502,-16.6416,233.4739],[-62.4979,-16.635,233.7536],[-62.4962,-16.6359,231.8513],[-62.4981,-16.6389,230.927],[-62.4968,-16.642,231.8249],[-62.4946,-16.6381,235.7813],[-62.4922,-16.6382,233.3078],[-62.4907,-16.642,234.5524],[-62.4937,-16.6451,235.1247],[-62.4903,-16.6458,232.1834],[-62.4923,-16.6497,236.5647],[-62.487,-16.6493,232.427],[-62.4864,-16.6526,232.8266],[-62.4912,-16.6538,235.7408],[-62.4898,-16.6558,233.6491],[-62.4905,-16.6581,235.0472],[-62.4858,-16.6601,237.2451],[-62.4893,-16.6695,232.7414],[-62.4878,-16.6702,236.4409],[-62.4838,-16.6671,234.5762],[-62.4848,-16.6699,235.8223],[-62.4799,-16.6758,241.1369],[-62.4794,-16.6823,233.5627],[-62.4722,-16.6796,235.7316],[-62.4717,-16.6838,237.8288],[-62.4687,-16.6825,234.8254],[-62.4658,-16.686,233.5788],[-62.4663,-16.6894,240.3796],[-62.4676,-16.6894,240.3796],[-62.4689,-16.6858,248.5536],[-62.4758,-16.6926,241.2172],[-62.4752,-16.694,238.5532],[-62.4731,-16.691,237.5911],[-62.4718,-16.6913,236.6272],[-62.4686,-16.6965,242.1136],[-62.4681,-16.7046,231.263],[-62.4638,-16.7046,243.2443],[-62.4632,-16.6961,236.3435],[-62.4586,-16.7007,243.2802],[-62.4574,-16.7001,245.6654],[-62.4582,-16.6952,239.1033],[-62.4545,-16.6996,244.1811],[-62.4512,-16.6979,246.9811],[-62.453,-16.6961,238.364],[-62.4527,-16.689,234.6697],[-62.4495,-16.6942,247.9455],[-62.4463,-16.6959,235.6626],[-62.4482,-16.6979,244.7462],[-62.448,-16.7009,242.6128],[-62.4463,-16.7012,241.8103],[-62.4451,-16.6976,234.8271],[-62.4409,-16.7008,234.0821],[-62.4466,-16.7031,242.3277],[-62.4444,-16.7053,243.4235],[-62.438,-16.7075,239.7018],[-62.4368,-16.7064,241.893],[-62.439,-16.7064,239.7018],[-62.4403,-16.7026,234.8683],[-62.4392,-16.7018,234.8683],[-62.4389,-16.704,242.784],[-62.4355,-16.7021,240.4712],[-62.4345,-16.703,238.5671],[-62.4362,-16.7061,240.7675],[-62.4349,-16.7077,241.0224],[-62.4292,-16.7074,239.6339],[-62.4239,-16.682,254.1206],[-62.4253,-16.6508,284.8354],[-62.429,-16.6293,366.609],[-62.3999,-16.6434,366.062],[-62.3723,-16.6463,447.2467],[-62.3499,-16.6459,541.7727],[-62.3271,-16.6412,530.6776],[-62.3074,-16.6344,472.0233],[-62.2916,-16.6154,462.9944],[-62.2754,-16.5999,522.8522],[-62.2591,-16.563,435.4305],[-62.2507,-16.5517,365.1252],[-62.2555,-16.5517,363.8871],[-62.2576,-16.5541,365.7847],[-62.2581,-16.5501,360.3993],[-62.2615,-16.5466,354.9936],[-62.2678,-16.5515,357.6856],[-62.2697,-16.5492,356.1737],[-62.2725,-16.5487,369.4044],[-62.2743,-16.5522,365.3708],[-62.2717,-16.5558,363.4844],[-62.2756,-16.558,349.1037],[-62.2753,-16.5551,351.8353],[-62.2789,-16.5518,356.7684],[-62.2764,-16.5456,353.2573],[-62.2816,-16.5471,351.9538],[-62.2833,-16.5438,357.9979],[-62.2864,-16.546,351.0983],[-62.2897,-16.5388,353.2143],[-62.2925,-16.5385,348.8941],[-62.2926,-16.5412,352.8998],[-62.297,-16.5429,346.1049],[-62.2978,-16.5414,337.7292],[-62.2961,-16.5403,345.4518],[-62.2992,-16.5382,340.6918],[-62.2977,-16.5327,355.619],[-62.3063,-16.5311,335.2482],[-62.308,-16.5285,339.6899],[-62.3105,-16.5302,340.1173],[-62.3164,-16.5278,341.781],[-62.321,-16.5317,334.6708],[-62.3251,-16.5285,333.1282],[-62.324,-16.5246,333.5143],[-62.3216,-16.5261,341.755],[-62.3199,-16.521,339.298],[-62.3245,-16.5192,343.5385],[-62.3284,-16.5204,328.4208],[-62.3285,-16.5171,345.4516],[-62.3218,-16.5155,337.8101],[-62.3197,-16.5132,336.2339],[-62.3147,-16.5146,330.6179],[-62.3136,-16.5115,330.1868],[-62.3209,-16.5097,331.3803],[-62.3213,-16.5124,333.9863],[-62.3227,-16.5128,333.5797],[-62.3283,-16.5081,329.2174],[-62.3307,-16.5096,333.4288],[-62.3318,-16.5132,335.7713],[-62.3339,-16.5134,337.9279],[-62.335,-16.5125,326.4798],[-62.3335,-16.5085,332.5786],[-62.3355,-16.507,328.0157],[-62.3398,-16.5135,327.253],[-62.3399,-16.5093,333.5747],[-62.3434,-16.506,324.2186]]]]}}