{"type": "Feature","bbox": [-66.2337,-21.1736,-65.2212,-19.9661],"geometry": {"type": "MultiPolygon","coordinates": [[[[-65.3835,-20.5711,3474.9778],[-65.3878,-20.5576,3480.2957],[-65.3799,-20.5589,3401.7292],[-65.3501,-20.5484,3703.0786],[-65.3276,-20.5119,4125.4688],[-65.2686,-20.5047,4258.6191],[-65.2682,-20.4926,4264.1421],[-65.2699,-20.4888,4304.6987],[-65.2681,-20.4797,4369.5986],[-65.2728,-20.4716,4423.3979],[-65.2692,-20.463,4499.2988],[-65.2714,-20.4577,4600.0879],[-65.2645,-20.4511,4512.6152],[-65.2591,-20.4504,4627.522],[-65.2573,-20.4471,4534.043],[-65.2564,-20.4425,4455.2231],[-65.2612,-20.4368,4481.7686],[-65.2634,-20.4301,4518.5283],[-65.2624,-20.4238,4469.749],[-65.2555,-20.4235,4371.4453],[-65.2486,-20.4183,4508.877],[-65.2463,-20.4186,4604.5391],[-65.2435,-20.4151,4551.5391],[-65.2459,-20.4106,4563.8315],[-65.2456,-20.4079,4597.9146],[-65.248,-20.4056,4544.6025],[-65.2476,-20.3965,4417.9951],[-65.2491,-20.3903,4605.5859],[-65.2526,-20.3868,4712.9678],[-65.2507,-20.3829,4553.2896],[-65.2515,-20.3796,4595.0566],[-65.2463,-20.3752,4551.3438],[-65.2465,-20.3712,4625.2837],[-65.2443,-20.3675,4638.4326],[-65.2393,-20.3658,4662.626],[-65.2408,-20.3626,4684.5605],[-65.238,-20.3582,4594.6147],[-65.2285,-20.3516,4649.5479],[-65.2332,-20.3434,4698.4473],[-65.2313,-20.3327,4583.4419],[-65.2255,-20.3266,4490.082],[-65.2212,-20.3188,4405.6719],[-65.2218,-20.3138,4298.3262],[-65.2451,-20.2761,3890.3564],[-65.2654,-20.2575,3349.6147],[-65.2686,-20.2562,3351.2971],[-65.2796,-20.2398,3306.7556],[-65.2826,-20.2327,3313.9785],[-65.2921,-20.2297,3300.0962],[-65.3137,-20.2305,3273.7397],[-65.3329,-20.2419,3179.2981],[-65.3584,-20.2461,3126.1836],[-65.3656,-20.236,3116.7227],[-65.3667,-20.2334,3083.626],[-65.3637,-20.2272,3168.834],[-65.3684,-20.2187,3112.6233],[-65.3756,-20.2148,3028.6777],[-65.3746,-20.211,3034.8752],[-65.3637,-20.1977,3179.3171],[-65.3567,-20.1821,3215.9084],[-65.346,-20.1648,3239.323],[-65.3391,-20.1566,3254.8079],[-65.3358,-20.1477,3266.8911],[-65.3365,-20.1455,3204.6675],[-65.3346,-20.1447,3262.8062],[-65.3299,-20.1315,3287.2251],[-65.3287,-20.1222,3257.7654],[-65.3532,-20.1202,3302.4338],[-65.3587,-20.0997,3343.5081],[-65.3689,-20.0917,3375.2629],[-65.3719,-20.0853,3361.9106],[-65.3855,-20.0788,3420.8167],[-65.3948,-20.0677,3450.4456],[-65.4038,-20.0638,3514.446],[-65.4185,-20.0508,3655.2888],[-65.4235,-20.0326,3643.1794],[-65.4354,-20.0352,3543.3931],[-65.4357,-20.0444,3450.0244],[-65.4552,-20.0465,3291.4282],[-65.4657,-20.0455,3252.061],[-65.4868,-20.0543,3172.2593],[-65.4881,-20.0556,3199.1108],[-65.4872,-20.0599,3183.2368],[-65.4733,-20.0688,3381.2405],[-65.473,-20.0746,3428.188],[-65.4747,-20.0753,3402.0928],[-65.4757,-20.079,3391.634],[-65.4767,-20.0894,3382.3882],[-65.4928,-20.088,3119.2356],[-65.5016,-20.0809,3165.3401],[-65.5,-20.0901,3099.998],[-65.5037,-20.1007,3279.2129],[-65.5102,-20.111,3473.0654],[-65.5158,-20.1159,3540.9192],[-65.5354,-20.1164,3413.2932],[-65.5498,-20.1215,3656.2017],[-65.5677,-20.1248,3936.3845],[-65.553,-20.1396,3736.3008],[-65.556,-20.1631,3763.2109],[-65.5526,-20.1686,3712.0361],[-65.5517,-20.1816,3625.2495],[-65.5563,-20.2399,3590.5034],[-65.5596,-20.2438,3556.7368],[-65.5544,-20.292,3287.8728],[-65.6078,-20.2587,3155.9468],[-65.6168,-20.2559,3152.8667],[-65.6277,-20.2502,3117.2666],[-65.6319,-20.2511,3121.3311],[-65.6388,-20.247,3257.1287],[-65.6503,-20.2482,3431.6614],[-65.649,-20.2392,3432.6021],[-65.6514,-20.2294,3418.1638],[-65.6484,-20.2231,3410.7036],[-65.6601,-20.2202,3338.2546],[-65.6713,-20.22,3229.5242],[-65.6818,-20.216,2792.9419],[-65.715,-20.1947,3473.4333],[-65.7501,-20.1526,3282.3027],[-65.7516,-20.1493,3307.7178],[-65.7511,-20.1447,3308.1379],[-65.755,-20.1364,3374.6279],[-65.76,-20.136,3452.2261],[-65.7616,-20.1326,3466.3333],[-65.7663,-20.1307,3543.6226],[-65.7706,-20.1264,3636.4385],[-65.7722,-20.1104,3779.8291],[-65.7708,-20.1031,3874.0293],[-65.7749,-20.0965,4272.3501],[-65.7853,-20.0905,4447.8823],[-65.793,-20.0649,4345.2197],[-65.7956,-20.0416,4313.9771],[-65.8034,-20.0328,4379.2964],[-65.8102,-20.0126,4475.9854],[-65.8384,-20.0049,4096.4839],[-65.8539,-19.9966,4360.2534],[-65.8574,-19.9906,4339.2734],[-65.8763,-19.9816,4516.707],[-65.8829,-19.9661,4416.5376],[-65.898,-19.9732,4313.7324],[-65.8967,-19.9774,4252.1157],[-65.8991,-19.9831,4146.2832],[-65.9011,-20.0019,4010.9255],[-65.8996,-20.0115,3976.0193],[-65.9024,-20.0214,3917.6079],[-65.9094,-20.0261,4072.9839],[-65.9048,-20.0383,4009.2183],[-65.9208,-20.0666,3777.5679],[-65.9165,-20.0761,3819.8225],[-65.9122,-20.0812,3627.645],[-65.9064,-20.0986,3992.3335],[-65.8946,-20.1121,3973.7773],[-65.896,-20.1138,3917.7617],[-65.9065,-20.1155,3730.658],[-65.9217,-20.1211,3912.0737],[-65.9187,-20.1258,3864.1841],[-65.9174,-20.133,4035.8452],[-65.9191,-20.1364,4060.5291],[-65.9056,-20.1615,3748.4277],[-65.9045,-20.1708,3636.2754],[-65.9077,-20.1759,3552.106],[-65.9104,-20.185,3032.6919],[-65.9251,-20.1968,3784.7173],[-65.9299,-20.2033,3876.6243],[-65.9329,-20.2117,3946.3481],[-65.9409,-20.2198,3926.8916],[-65.9481,-20.25,4359.9141],[-65.9468,-20.2567,4273.6235],[-65.94,-20.2686,4320.6558],[-65.9371,-20.2701,4287.7974],[-65.9306,-20.2784,4301.6968],[-65.9049,-20.2901,4066.8794],[-65.9013,-20.3001,4045.4155],[-65.9045,-20.3086,4120.7393],[-65.9148,-20.3139,4371.4556],[-65.921,-20.3324,4382.7065],[-65.9265,-20.3298,4378.1235],[-65.9339,-20.3474,4115.8115],[-65.9302,-20.37,3858.5757],[-65.9341,-20.3851,3273.9734],[-65.9265,-20.3956,3291.6021],[-65.9248,-20.4031,3236.4141],[-65.9214,-20.4043,3299.9458],[-65.92,-20.4075,3226.8311],[-65.9169,-20.409,3221.8721],[-65.9232,-20.4244,3340.9451],[-65.9244,-20.4259,3315.9233],[-65.9258,-20.4236,3354.4888],[-65.9281,-20.4234,3348.9832],[-65.9278,-20.4255,3360.3796],[-65.9294,-20.4259,3357.925],[-65.928,-20.4286,3374.1274],[-65.9382,-20.4349,3430.8684],[-65.9401,-20.4347,3424.2781],[-65.9413,-20.441,3574.2947],[-65.9619,-20.4523,3914.1475],[-65.9674,-20.4531,4002.5698],[-65.9688,-20.4573,4075.686],[-65.9666,-20.4646,4177.6396],[-65.9679,-20.4731,4078.2656],[-65.9778,-20.4774,3894.2444],[-65.9964,-20.4907,4004.385],[-66.0009,-20.4987,3742.2324],[-66.0075,-20.5041,3677.72],[-66.0276,-20.5062,3943.2668],[-66.0459,-20.5135,3281.6848],[-66.0522,-20.505,3283.531],[-66.0724,-20.489,3306.8853],[-66.0712,-20.4867,3306.6943],[-66.0736,-20.4833,3295.1431],[-66.0882,-20.4708,3366.8901],[-66.0901,-20.4666,3361.1816],[-66.0924,-20.4651,3372.3223],[-66.0889,-20.4588,3477.2844],[-66.09,-20.4527,3394.2224],[-66.0921,-20.4508,3408.8506],[-66.0914,-20.4488,3429.1724],[-66.0967,-20.4412,3481.3867],[-66.1032,-20.4363,3444.5247],[-66.1152,-20.4367,3820.8818],[-66.12,-20.4391,3791.269],[-66.1232,-20.4441,3862.0042],[-66.1285,-20.4452,3841.7925],[-66.1274,-20.4479,3796.9954],[-66.1293,-20.4518,3700.8433],[-66.1285,-20.4574,3464.2976],[-66.1332,-20.4612,3377.531],[-66.1309,-20.4687,3363.8223],[-66.133,-20.473,3365.1558],[-66.1482,-20.4748,3400.0151],[-66.1743,-20.481,3465.251],[-66.1832,-20.4816,3464.2378],[-66.1908,-20.4799,3481.9968],[-66.197,-20.4809,3514.7966],[-66.1996,-20.4822,3502.6606],[-66.2038,-20.4898,3520.355],[-66.2082,-20.4904,3525.6187],[-66.2165,-20.5041,3559.9744],[-66.2182,-20.5228,3900.6101],[-66.2119,-20.5312,3637.6035],[-66.2072,-20.5333,3550.145],[-66.1903,-20.5623,3677.3564],[-66.1926,-20.5957,4150.918],[-66.1946,-20.6019,4255.2886],[-66.1983,-20.6062,4354.4814],[-66.2018,-20.632,4824.3345],[-66.2046,-20.6354,4776.1006],[-66.2037,-20.638,4730.1533],[-66.1958,-20.6447,4626.2881],[-66.195,-20.66,4540.0835],[-66.1904,-20.6725,4503.666],[-66.1868,-20.6764,4518.9287],[-66.1832,-20.7092,4406.6714],[-66.1946,-20.7454,4333.9229],[-66.2049,-20.7534,4315.1611],[-66.2337,-20.7808,3805.5249],[-66.2332,-20.783,3791.9626],[-66.2295,-20.7875,3771.8633],[-66.2242,-20.7906,3743.9734],[-66.2208,-20.7997,3713.8081],[-66.2172,-20.8009,3712.7639],[-66.2116,-20.8079,3711.7629],[-66.2028,-20.8129,3671.9648],[-66.1982,-20.82,3661.21],[-66.1976,-20.8282,3638.4878],[-66.1952,-20.829,3632.4912],[-66.1918,-20.8344,3620.2488],[-66.1866,-20.8353,3605.5737],[-66.1817,-20.8429,3596.0332],[-66.1783,-20.8444,3588.124],[-66.1778,-20.8509,3575.8735],[-66.1729,-20.8572,3579.1282],[-66.171,-20.869,3523.8535],[-66.1667,-20.8727,3526.5735],[-66.0844,-20.9115,4290.2451],[-66.0619,-20.9157,4766.7686],[-66.04,-20.9164,5211.1895],[-66.0248,-20.9206,5049.6592],[-66.0163,-20.9202,4955.5889],[-66.0143,-20.9219,4995.4873],[-66.0119,-20.9293,4865.1914],[-65.9869,-20.9389,4406.4321],[-65.9743,-20.9414,4444.7646],[-65.9473,-20.9423,4198.9487],[-65.9454,-20.9484,4141.7456],[-65.9297,-20.9525,3939.9648],[-65.9141,-20.9701,4274.7441],[-65.8744,-20.9843,3372.1057],[-65.8698,-21.0054,3654.4016],[-65.8709,-21.0128,3854.6011],[-65.8936,-21.0401,4142.2964],[-65.8916,-21.08,4175.5054],[-65.8627,-21.0809,4049.9346],[-65.849,-21.083,3938.2065],[-65.8441,-21.0817,3819.9644],[-65.8419,-21.0789,3855.228],[-65.8377,-21.0788,3826.2109],[-65.8335,-21.0811,3600.0371],[-65.831,-21.0874,3670.0049],[-65.8267,-21.0923,3477.269],[-65.8155,-21.1015,3899.8491],[-65.8105,-21.1028,3752.9409],[-65.8077,-21.1064,3709.9812],[-65.8025,-21.1056,3685.4604],[-65.8027,-21.1114,3657.7944],[-65.7993,-21.1241,3701.0076],[-65.7954,-21.1274,3618.5825],[-65.7909,-21.1294,3571.2869],[-65.7869,-21.1276,3605.2629],[-65.7824,-21.1351,3549.4167],[-65.7788,-21.1358,3555.9238],[-65.775,-21.1399,3468.2947],[-65.7643,-21.135,3592.9956],[-65.7554,-21.1369,3802.7979],[-65.7472,-21.1429,3770.1462],[-65.7451,-21.1548,3843.7476],[-65.7229,-21.1603,3796.7698],[-65.7133,-21.17,3956.6689],[-65.707,-21.1736,3920.2278],[-65.7001,-21.1726,3707.6318],[-65.6883,-21.1592,3968.7429],[-65.686,-21.1538,3935.979],[-65.6754,-21.1516,3726.2546],[-65.6697,-21.155,3755.5303],[-65.6631,-21.1529,3636.7283],[-65.6609,-21.1501,3624.4924],[-65.6546,-21.1502,3465.7034],[-65.65,-21.147,3430.2466],[-65.6398,-21.1369,3354.5088],[-65.6388,-21.1241,3383.51],[-65.6295,-21.1296,3442.564],[-65.6149,-21.1332,3377.4204],[-65.6106,-21.1322,3389.7212],[-65.607,-21.1342,3330.5005],[-65.6056,-21.1311,3383.4343],[-65.6036,-21.1307,3406.1008],[-65.6009,-21.1343,3347.6831],[-65.5939,-21.137,3277.6899],[-65.584,-21.1328,3257.5498],[-65.5787,-21.135,3225.5015],[-65.5764,-21.1324,3219.7717],[-65.5758,-21.127,3213.1533],[-65.5701,-21.1241,3201.6785],[-65.5671,-21.1161,3247.8906],[-65.5621,-21.1152,3216.9507],[-65.5641,-21.1104,3160.2764],[-65.5624,-21.1047,3158.9414],[-65.5576,-21.1051,3219.0771],[-65.5559,-21.1032,3265.4873],[-65.5509,-21.1063,3271.9434],[-65.5473,-21.1024,3379.1306],[-65.5442,-21.1021,3395.6428],[-65.54,-21.1065,3390.3572],[-65.5355,-21.1083,3439.8994],[-65.5343,-21.1121,3414.0215],[-65.5319,-21.1136,3447.6614],[-65.5237,-21.1131,3531.7297],[-65.5222,-21.1151,3522.4976],[-65.5173,-21.1133,3601.0789],[-65.5142,-21.1156,3625.647],[-65.511,-21.1149,3744.853],[-65.5028,-21.1173,3842.1309],[-65.4931,-21.1163,3942.5986],[-65.4853,-21.1199,3807.4038],[-65.482,-21.1269,3769.0667],[-65.4789,-21.1298,3752.6868],[-65.4717,-21.131,3722.8875],[-65.4674,-21.1197,3744.6094],[-65.4578,-21.1206,3897.0347],[-65.455,-21.1166,3841.135],[-65.4469,-21.1143,3763.1892],[-65.4507,-21.1121,3790.0593],[-65.4503,-21.1081,3845.7275],[-65.4373,-21.1009,3724.6838],[-65.4356,-21.1036,3683.7212],[-65.4339,-21.1035,3657.8823],[-65.4285,-21.0988,3768.0515],[-65.4186,-21.0958,3829.4209],[-65.4206,-21.0613,3535.1128],[-65.4086,-21.0266,3839.7803],[-65.3999,-21.0069,3275.8354],[-65.3983,-20.9701,4003.918],[-65.4011,-20.9471,3634.7896],[-65.3907,-20.8976,3887.2646],[-65.3947,-20.8921,3977.5422],[-65.3805,-20.8805,3880.3394],[-65.38,-20.8752,3880.5828],[-65.3778,-20.874,3877.4585],[-65.3758,-20.8691,3837.231],[-65.3685,-20.8679,3861.5679],[-65.3625,-20.8717,3807.1631],[-65.3597,-20.871,3733.1191],[-65.3579,-20.8729,3751.6401],[-65.354,-20.8733,3833.8445],[-65.3523,-20.8669,3837.4673],[-65.3462,-20.8632,3824.95],[-65.3483,-20.8572,3802.7402],[-65.3478,-20.8542,3819.5054],[-65.3506,-20.8518,3800.061],[-65.3497,-20.8475,3645.3247],[-65.3508,-20.8435,3592.3984],[-65.3485,-20.839,3474.5984],[-65.3488,-20.8343,3501.6655],[-65.3468,-20.8324,3455.7747],[-65.3491,-20.8267,3446.6353],[-65.3492,-20.8213,3366.3145],[-65.3524,-20.8109,3378.9954],[-65.3586,-20.8052,3246.5415],[-65.3577,-20.8002,3209.9375],[-65.3644,-20.7918,3164.8086],[-65.3664,-20.7795,3058.2839],[-65.3715,-20.7722,3026.6504],[-65.3695,-20.7636,2900.0671],[-65.3723,-20.7586,2866.0586],[-65.3716,-20.7555,2883.8169],[-65.3763,-20.7512,3085.7471],[-65.3745,-20.7495,3071.4043],[-65.3753,-20.7467,3043.1899],[-65.3697,-20.7398,2984.5447],[-65.3688,-20.7365,2909.5471],[-65.3614,-20.7328,2628.8213],[-65.3607,-20.7299,2587.6116],[-65.3572,-20.7271,2464.522],[-65.358,-20.7146,2620.1113],[-65.3636,-20.7081,2675.8569],[-65.3638,-20.701,2701.106],[-65.3617,-20.6976,2817.0679],[-65.3644,-20.6881,2887.8032],[-65.3645,-20.6772,2929.1584],[-65.3632,-20.672,2935.7437],[-65.3584,-20.6674,2922.593],[-65.3575,-20.6579,2983.1628],[-65.3556,-20.6545,3025.4031],[-65.358,-20.6466,3162.4509],[-65.3564,-20.6451,3179.2402],[-65.356,-20.6398,3234.1887],[-65.3472,-20.6226,3270.6101],[-65.3497,-20.6145,3292.3145],[-65.3556,-20.6061,3354.4036],[-65.3546,-20.6023,3392.1157],[-65.3601,-20.5977,3383.7927],[-65.3642,-20.5989,3407.1902],[-65.3683,-20.5974,3449.7068],[-65.3767,-20.5885,3380.9497],[-65.3825,-20.5814,3437.7498],[-65.3819,-20.576,3435.7969],[-65.3835,-20.5711,3474.9778]]]]}
,"properties": {"GID_2": "BOL.7.11_2","GID_0": "BOL","country": "Bolivia","GID_1": "BOL.7_1","province": "Potosí","NL_NAME_1": "NA","county": "NorChichas","VARNAME_2": "NA","NL_NAME_2": "NA","TYPE_2": "Provincia","ENGTYPE_2": "Province","CC_2": "NA","HASC_2": "NA","name": "Nor_Chichas.county","area_km2": 8117.698,"hist_schema_id": "Elevation0-9000","hist_area_km2": {"2400": 2.737,"2425": 4.244,"2450": 5.613,"2475": 6.427,"2500": 8.57,"2525": 11.17,"2550": 14.743,"2575": 17.403,"2600": 24.213,"2625": 31.992,"2650": 38.859,"2675": 46.003,"2700": 55.179,"2725": 66.498,"2750": 79.934,"2775": 94.697,"2800": 109.904,"2825": 119.683,"2850": 131.348,"2875": 145.415,"2900": 152.488,"2925": 154.757,"2950": 161.645,"2975": 172.981,"3000": 184.361,"3025": 195.723,"3050": 199.843,"3075": 201.122,"3100": 210.046,"3125": 202.015,"3150": 195.502,"3175": 188.286,"3200": 181.252,"3225": 170.929,"3250": 164.384,"3275": 159.14,"3300": 157.448,"3325": 154.764,"3350": 149.076,"3375": 140.988,"3400": 137.825,"3425": 132.685,"3450": 132.761,"3475": 129.463,"3500": 128.159,"3525": 128.175,"3550": 125.479,"3575": 125.967,"3600": 127.427,"3625": 126.904,"3650": 128.013,"3675": 129.332,"3700": 125.183,"3725": 127.355,"3750": 126.247,"3775": 126.613,"3800": 124.184,"3825": 118.739,"3850": 115.528,"3875": 107.149,"3900": 100.182,"3925": 95.62,"3950": 89.297,"3975": 83.883,"4000": 78.982,"4025": 70.764,"4050": 64.395,"4075": 59.317,"4100": 52.83,"4125": 46.05,"4150": 45.021,"4175": 39.008,"4200": 34.668,"4225": 30.483,"4250": 28.42,"4275": 25.362,"4300": 21.002,"4325": 19.614,"4350": 16.282,"4375": 14.179,"4400": 12.013,"4425": 8.876,"4450": 7.983,"4475": 6.177,"4500": 5.223,"4525": 4.269,"4550": 3.91,"4575": 2.995,"4600": 2.201,"4625": 2.181,"4650": 1.704,"4675": 1.506,"4700": 1.427,"4725": 1.288,"4750": 0.951,"4775": 0.773,"4800": 0.495,"4825": 0.476,"4850": 0.515,"4875": 0.396,"4900": 0.337,"4925": 0.297,"4950": 0.297,"4975": 0.159,"5000": 0.297,"5025": 0.178,"5050": 0.099,"5075": 0.139,"5100": 0.079,"5125": 0.099}}}