{"type":"Feature","properties":{"GID_3":"BOL.4.12.7_2","GID_0":"BOL","country":"Bolivia","GID_1":"BOL.4_1","province":"LaPaz","NL_NAME_1":"NA","GID_2":"BOL.4.12_2","county":"Larecaja","NL_NAME_2":"NA","city":"Teoponte","VARNAME_3":"NA","NL_NAME_3":"NA","TYPE_3":"District","ENGTYPE_3":"Distrito","CC_3":"NA","HASC_3":"NA","name":"Teoponte.city"},
"geometry":{"type": "MultiPolygon","coordinates": [[[[-67.4972,-15.3484,386.9061],[-67.4985,-15.339,346.0867],[-67.5038,-15.3225,340.3802],[-67.5023,-15.3214,327.8754],[-67.4974,-15.3227,324.5107],[-67.4845,-15.3146,390.4082],[-67.4811,-15.3083,317.0],[-67.4798,-15.2952,316.4173],[-67.4725,-15.2898,316.0785],[-67.471,-15.2863,320.4587],[-67.4723,-15.2802,315.4162],[-67.4859,-15.2713,316.4393],[-67.4943,-15.2698,310.25],[-67.4982,-15.27,310.0],[-67.5002,-15.2746,322.4102],[-67.5026,-15.2759,314.7341],[-67.5077,-15.2759,310.7454],[-67.5154,-15.2698,309.3472],[-67.5221,-15.2569,309.5014],[-67.5316,-15.262,305.7778],[-67.543,-15.2585,307.3409],[-67.5461,-15.2547,320.9092],[-67.5467,-15.2501,303.8942],[-67.5459,-15.2469,315.8307],[-67.5408,-15.2419,301.9336],[-67.5396,-15.2303,299.5],[-67.5357,-15.2248,311.2625],[-67.5417,-15.2116,298.0429],[-67.5463,-15.2092,299.2906],[-67.5607,-15.2097,294.4758],[-67.5727,-15.1989,296.4281],[-67.5765,-15.1989,297.4763],[-67.5816,-15.2055,297.7977],[-67.5845,-15.2061,297.6369],[-67.5911,-15.1987,290.2054],[-67.6079,-15.1878,287.449],[-67.6281,-15.1592,280.0],[-67.6529,-15.1372,275.5],[-67.6583,-15.1261,279.1031],[-67.664,-15.1237,274.251],[-67.6679,-15.1193,274.2887],[-67.6736,-15.1176,273.0],[-67.6864,-15.1192,288.6409],[-67.689,-15.1206,278.4063],[-67.6905,-15.1245,278.6706],[-67.6884,-15.1283,280.4968],[-67.672,-15.1317,281.5089],[-67.6676,-15.1374,313.857],[-67.6688,-15.1422,280.5015],[-67.6713,-15.1438,281.357],[-67.6858,-15.1418,286.9647],[-67.6898,-15.1461,285.7591],[-67.6886,-15.1502,290.3757],[-67.6745,-15.1512,307.3202],[-67.6707,-15.1529,328.785],[-67.6679,-15.1568,287.3603],[-67.6693,-15.1609,289.3556],[-67.6763,-15.1626,370.1833],[-67.6808,-15.1684,307.0482],[-67.6815,-15.1772,295.1044],[-67.6705,-15.2058,294.9804],[-67.6715,-15.2085,293.6325],[-67.6791,-15.2131,294.5909],[-67.6805,-15.2274,311.6631],[-67.686,-15.2368,357.8688],[-67.6873,-15.243,326.7074],[-67.7011,-15.246,302.6063],[-67.704,-15.2488,300.2095],[-67.7089,-15.2491,317.9968],[-67.7115,-15.2488,361.3872],[-67.7155,-15.2424,323.2245],[-67.7249,-15.2434,352.1022],[-67.7246,-15.2381,337.0734],[-67.7275,-15.239,344.3869],[-67.7309,-15.2371,343.7275],[-67.7344,-15.2305,365.1071],[-67.733,-15.2289,350.8176],[-67.7361,-15.2261,359.1718],[-67.7338,-15.2227,355.4832],[-67.738,-15.2196,367.8234],[-67.758,-15.2254,392.0257],[-67.7592,-15.2291,405.8403],[-67.7733,-15.229,449.748],[-67.7786,-15.2334,477.646],[-67.7914,-15.2319,509.4955],[-67.7962,-15.2279,526.1124],[-67.7992,-15.2282,547.2475],[-67.8012,-15.2253,548.8428],[-67.8067,-15.2256,572.8344],[-67.8156,-15.2229,647.7109],[-67.818,-15.2247,759.1714],[-67.8198,-15.2232,683.1874],[-67.8261,-15.2285,797.3938],[-67.8348,-15.2324,881.7628],[-67.8417,-15.2427,979.5914],[-67.8515,-15.2489,1439.3695],[-67.8542,-15.2531,1495.4259],[-67.8621,-15.2571,1697.5337],[-67.8565,-15.2689,1722.0746],[-67.8468,-15.2828,1801.8229],[-67.8446,-15.2974,1711.4531],[-67.8419,-15.3011,1770.2423],[-67.8419,-15.3047,1758.4445],[-67.8363,-15.3127,1657.7407],[-67.8346,-15.3196,1473.9968],[-67.8269,-15.3324,1761.6105],[-67.8237,-15.3348,1796.6953],[-67.8211,-15.3437,1827.5048],[-67.8129,-15.3498,1792.2954],[-67.8123,-15.3537,1758.1252],[-67.8074,-15.3601,1633.9476],[-67.8063,-15.3647,1577.8486],[-67.7989,-15.3708,1471.3469],[-67.7968,-15.3763,1478.3008],[-67.7935,-15.3785,1419.8525],[-67.7893,-15.3782,1476.0089],[-67.7876,-15.3832,1496.4044],[-67.8188,-15.4205,507.3887],[-67.8445,-15.4663,533.2734],[-67.8593,-15.4821,1000.1079],[-67.8467,-15.5009,393.3663],[-67.8459,-15.5044,406.6892],[-67.8381,-15.5114,429.8718],[-67.8322,-15.5197,542.786],[-67.8331,-15.5278,431.5556],[-67.8351,-15.5304,469.9843],[-67.8338,-15.5359,440.0182],[-67.8293,-15.5403,419.8388],[-67.8292,-15.5431,428.7024],[-67.8049,-15.5621,424.0404],[-67.7903,-15.5834,430.0628],[-67.7849,-15.5864,426.8326],[-67.7868,-15.5926,438.87],[-67.7814,-15.6011,442.3463],[-67.7623,-15.612,474.7092],[-67.7614,-15.6167,440.3852],[-67.7575,-15.6198,433.7948],[-67.7627,-15.6311,457.2426],[-67.7599,-15.6325,442.1123],[-67.7531,-15.6309,457.454],[-67.7491,-15.635,463.0455],[-67.7427,-15.6369,445.531],[-67.7407,-15.639099999999999,446.9016],[-67.7396,-15.6449,487.8771],[-67.7366,-15.6436,449.9271],[-67.733,-15.6462,475.4908],[-67.7338,-15.6507,524.3922],[-67.7322,-15.6526,471.7328],[-67.7253,-15.65,460.7837],[-67.7204,-15.6582,461.2792],[-67.713,-15.6644,480.8362],[-67.713,-15.6705,468.6512],[-67.7101,-15.6713,519.8098],[-67.7093,-15.667,489.2794],[-67.7069,-15.6667,471.2404],[-67.7037,-15.6722,469.0595],[-67.7075,-15.6738,516.3286],[-67.705,-15.6783,495.7698],[-67.7011,-15.6812,476.2682],[-67.6953,-15.681,478.6587],[-67.6925,-15.6844,550.1681],[-67.6878,-15.7011,484.119],[-67.6786,-15.7139,525.1391],[-67.6753,-15.7223,516.6232],[-67.6808,-15.7277,527.473],[-67.6805,-15.7307,492.505],[-67.6755,-15.7389,562.1818],[-67.6757,-15.7422,557.1691],[-67.6789,-15.7474,500.3812],[-67.6778,-15.7494,512.5492],[-67.6757,-15.7496,531.3593],[-67.6689,-15.7395,636.0874],[-67.6582,-15.7377,780.6643],[-67.6546,-15.7319,1012.1339],[-67.649,-15.7292,1242.9202],[-67.6458,-15.7236,1324.8605],[-67.6423,-15.7222,1484.2648],[-67.6518,-15.7033,1416.9731],[-67.644,-15.687,898.4448],[-67.6224,-15.6605,1229.1973],[-67.6134,-15.6324,1537.7588],[-67.6417,-15.6079,1211.5481],[-67.6047,-15.561,1722.3528],[-67.6123,-15.5421,1717.475],[-67.6077,-15.5161,1557.2853],[-67.5743,-15.4592,531.7383],[-67.5768,-15.4218,373.9359],[-67.5695,-15.4086,446.7785],[-67.5697,-15.391,529.2826],[-67.5747,-15.3865,537.6198],[-67.5734,-15.3728,573.2761],[-67.5511,-15.3517,672.257],[-67.5556,-15.3475,524.2598],[-67.5475,-15.3377,515.6196],[-67.5289,-15.331,1029.3745],[-67.5108,-15.3522,898.5491],[-67.4972,-15.3484,386.9061]]]]}}