{"type":"Feature","properties":{"GID_3":"BOL.4.20.5_2","GID_0":"BOL","country":"Bolivia","GID_1":"BOL.4_1","province":"LaPaz","NL_NAME_1":"NA","GID_2":"BOL.4.20_2","county":"Pacajes","NL_NAME_2":"NA","city":"Corocoro","VARNAME_3":"NA","NL_NAME_3":"NA","TYPE_3":"District","ENGTYPE_3":"Distrito","CC_3":"NA","HASC_3":"NA","name":"Corocoro.city"},
"geometry":{"type": "MultiPolygon","coordinates": [[[[-68.1645,-17.1154,4094.7156],[-68.1672,-17.1219,4102.75],[-68.1714,-17.1256,4077.9644],[-68.1785,-17.1384,4084.7937],[-68.1832,-17.1421,4095.6438],[-68.1881,-17.1513,4128.2271],[-68.2019,-17.162,4242.8784],[-68.223,-17.1631,4173.0156],[-68.2367,-17.1678,4134.1279],[-68.2502,-17.1675,4159.8389],[-68.2572,-17.1629,4191.103],[-68.2658,-17.1611,4213.5791],[-68.2705,-17.1554,4251.4121],[-68.2694,-17.1524,4261.1499],[-68.2718,-17.1495,4288.0947],[-68.2843,-17.1467,4355.0146],[-68.2891,-17.1363,4459.916],[-68.2892,-17.1293,4617.5679],[-68.2849,-17.1256,4646.3955],[-68.2749,-17.1297,4600.6768],[-68.2688,-17.1252,4543.3301],[-68.2688,-17.1226,4561.2031],[-68.2662,-17.1196,4524.4595],[-68.2646,-17.1065,4501.7607],[-68.2687,-17.0956,4490.5112],[-68.2986,-17.11,4344.6997],[-68.3055,-17.1052,4291.0918],[-68.3118,-17.0921,4292.1406],[-68.3139,-17.092,4336.5303],[-68.3209,-17.0842,4464.8848],[-68.323,-17.0748,4577.5713],[-68.3394,-17.0655,4332.0557],[-68.3449,-17.0548,4378.4067],[-68.3704,-17.0629,4715.312],[-68.3754,-17.0593,4759.7354],[-68.3781,-17.0598,4749.6187],[-68.3784,-17.068,4668.002],[-68.3827,-17.0721,4656.2441],[-68.3805,-17.0792,4674.5942],[-68.3828,-17.086,4653.4775],[-68.4148,-17.0937,4225.7427],[-68.4299,-17.1005,4137.4268],[-68.4395,-17.1013,4134.7422],[-68.4481,-17.0997,4123.002],[-68.4557,-17.1014,4109.8652],[-68.4853,-17.0922,4055.0701],[-68.483,-17.0735,4004.5115],[-68.4814,-17.0703,4009.4395],[-68.4759,-17.0656,4022.3899],[-68.4723,-17.0652,4027.314],[-68.4704,-17.0629,4031.9753],[-68.4598,-17.059,4051.6257],[-68.4508,-17.0533,4071.4363],[-68.4487,-17.0447,4081.3035],[-68.4427,-17.0396,4091.0933],[-68.4419,-17.0359,4095.9011],[-68.4457,-17.0327,4114.9482],[-68.4627,-17.034,4200.7593],[-68.4771,-17.03,4266.4219],[-68.4807,-17.0265,4351.3403],[-68.4832,-17.0196,4525.9438],[-68.4882,-17.0206,4445.626],[-68.5037,-17.0284,4180.4629],[-68.5113,-17.0354,4037.8679],[-68.5122,-17.0396,4012.158],[-68.5247,-17.048,3965.0779],[-68.5284,-17.0482,3963.2498],[-68.5312,-17.0442,3970.4771],[-68.5469,-17.0445,4077.6714],[-68.5565,-17.0429,4103.7612],[-68.5608,-17.0445,4200.873],[-68.5667,-17.0429,4241.5586],[-68.5823,-17.0452,4227.2075],[-68.6009,-17.0532,4217.6553],[-68.6067,-17.0609,4012.8906],[-68.6044,-17.066,3988.4814],[-68.5954,-17.0658,4106.1357],[-68.594,-17.0746,3996.2871],[-68.5891,-17.0774,3932.8955],[-68.5823,-17.0857,3912.2327],[-68.5824,-17.0901,3897.9653],[-68.5838,-17.0913,3898.1829],[-68.5862,-17.0894,3906.8254],[-68.5876,-17.0911,3896.3455],[-68.5923,-17.088,4010.2473],[-68.599,-17.0872,3940.6577],[-68.6277,-17.0896,4415.6992],[-68.6321,-17.0875,4347.5166],[-68.6547,-17.0842,3978.0054],[-68.6615,-17.0933,3879.012],[-68.6585,-17.1073,3865.4866],[-68.6648,-17.1215,3855.1458],[-68.664,-17.1335,3842.2195],[-68.6752,-17.1397,3836.9509],[-68.6781,-17.1437,3844.7717],[-68.6886,-17.1409,3829.1929],[-68.695,-17.1434,3826.8896],[-68.6966,-17.1482,3826.7273],[-68.7076,-17.1475,3820.7588],[-68.7098,-17.151,3819.6821],[-68.7142,-17.1518,3817.3574],[-68.7145,-17.1559,3816.3447],[-68.7169,-17.1561,3815.7427],[-68.7206,-17.1603,3813.5117],[-68.7228,-17.1661,3811.3281],[-68.73,-17.1681,3809.5371],[-68.7293,-17.1707,3809.0151],[-68.7326,-17.1759,3806.4165],[-68.731,-17.177,3806.4111],[-68.7322,-17.1802,3805.5811],[-68.7352,-17.1795,3805.6211],[-68.7479,-17.1846,3803.4502],[-68.7433,-17.193,3805.8923],[-68.7354,-17.1961,3802.189],[-68.7153,-17.1945,3801.6167],[-68.7085,-17.1986,3801.4968],[-68.6969,-17.1989,3800.937],[-68.6902,-17.2027,3800.6211],[-68.6819,-17.2035,3800.5752],[-68.6782,-17.2063,3802.3882],[-68.6782,-17.211,3801.1646],[-68.6806,-17.2175,3800.4033],[-68.6788,-17.2193,3799.8569],[-68.673,-17.2157,3800.5767],[-68.6731,-17.2087,3799.6255],[-68.6712,-17.2056,3800.4111],[-68.6682,-17.2037,3800.501],[-68.6658,-17.2042,3805.0261],[-68.6647,-17.2065,3803.5483],[-68.666,-17.2124,3801.0972],[-68.6642,-17.2159,3799.5754],[-68.6536,-17.2202,3799.8149],[-68.658,-17.2259,3799.1797],[-68.653,-17.2306,3799.0952],[-68.6507,-17.2307,3799.519],[-68.6491,-17.2279,3801.2344],[-68.6417,-17.2286,3799.4966],[-68.6364,-17.2336,3798.7192],[-68.6275,-17.2345,3798.8657],[-68.6268,-17.2389,3802.6099],[-68.6112,-17.2425,3796.9778],[-68.6026,-17.2551,3796.7764],[-68.6077,-17.2582,3796.3154],[-68.6104,-17.2624,3797.3496],[-68.6099,-17.2678,3796.2695],[-68.6063,-17.271,3796.6812],[-68.6052,-17.275,3796.9124],[-68.599,-17.2759,3808.5312],[-68.596,-17.2747,3822.3662],[-68.5926,-17.2767,3834.2615],[-68.579,-17.2753,3840.9976],[-68.582,-17.2814,3826.6335],[-68.5799,-17.2841,3810.6465],[-68.5814,-17.2916,3819.2515],[-68.5805,-17.2938,3827.6052],[-68.5743,-17.2982,3832.8894],[-68.5627,-17.2984,3847.0334],[-68.5561,-17.3027,3850.3577],[-68.5355,-17.3023,3865.4126],[-68.5184,-17.309,3886.9514],[-68.516,-17.3128,3887.1904],[-68.5163,-17.3171,3858.0464],[-68.5073,-17.3203,3861.5332],[-68.5058,-17.3254,3873.0811],[-68.5079,-17.3298,3877.7561],[-68.5069,-17.3365,3875.1545],[-68.5098,-17.341,3866.2993],[-68.5096,-17.3465,3851.6787],[-68.5075,-17.3509,3827.8496],[-68.4994,-17.3559,3815.6377],[-68.4969,-17.3502,3818.918],[-68.4948,-17.3339,3877.5337],[-68.4972,-17.3155,3844.0208],[-68.4943,-17.3073,3848.3943],[-68.4841,-17.3072,3882.7029],[-68.4792,-17.3041,3896.5071],[-68.4738,-17.2966,3862.7588],[-68.4702,-17.2942,3860.645],[-68.4677,-17.2944,3864.1824],[-68.4686,-17.2876,3864.998],[-68.4708,-17.2875,3869.6487],[-68.4695,-17.286,3866.175],[-68.4717,-17.2828,3871.1772],[-68.4677,-17.2814,3880.7153],[-68.4684,-17.28,3873.626],[-68.4618,-17.2757,3880.0002],[-68.4567,-17.2747,3896.0554],[-68.4573,-17.272,3886.6997],[-68.4521,-17.2696,3889.9495],[-68.4528,-17.2666,3891.1047],[-68.4492,-17.2652,3894.9985],[-68.4467,-17.2686,3901.7908],[-68.4433,-17.2687,3901.3816],[-68.4434,-17.2655,3930.3508],[-68.4407,-17.2594,3951.6497],[-68.43,-17.2462,3999.8325],[-68.4312,-17.2326,3960.6541],[-68.4271,-17.2267,3950.8777],[-68.4183,-17.2281,3966.9165],[-68.4165,-17.2254,3963.9666],[-68.4082,-17.2218,3980.3745],[-68.402,-17.216,3990.5312],[-68.3959,-17.214,4007.3799],[-68.3925,-17.2091,4013.4827],[-68.3829,-17.2115,4037.5793],[-68.3716,-17.2096,4057.3472],[-68.3683,-17.2127,4067.542],[-68.3639,-17.2078,4152.127],[-68.3541,-17.2098,4224.8066],[-68.344,-17.2079,4163.3257],[-68.337,-17.2083,4202.4824],[-68.3302,-17.2169,4318.0342],[-68.3274,-17.2174,4332.5718],[-68.3237,-17.2154,4400.7197],[-68.3153,-17.2182,4461.2896],[-68.311,-17.2165,4509.9785],[-68.3013,-17.2205,4655.7437],[-68.2995,-17.222,4676.7256],[-68.2994,-17.226,4716.7837],[-68.295,-17.2279,4713.6943],[-68.2945,-17.2303,4700.4458],[-68.2991,-17.2412,4530.1914],[-68.2992,-17.2497,4414.8096],[-68.2947,-17.251,4398.2378],[-68.2901,-17.2583,4338.3306],[-68.2884,-17.2405,4574.4995],[-68.2793,-17.2276,4533.8887],[-68.2621,-17.2166,4449.4009],[-68.258,-17.2074,4388.0938],[-68.2515,-17.2008,4259.5977],[-68.2446,-17.2015,4266.7573],[-68.2443,-17.2098,4315.5591],[-68.236,-17.2357,4494.3369],[-68.2316,-17.2363,4488.2607],[-68.2281,-17.2412,4470.4922],[-68.2048,-17.2541,4398.8091],[-68.1948,-17.2614,4369.9937],[-68.179,-17.2691,4350.3345],[-68.1668,-17.271,4309.0415],[-68.1545,-17.2752,4263.9033],[-68.1347,-17.2755,4216.873],[-68.1247,-17.2786,4128.4883],[-68.1031,-17.2726,3997.1777],[-68.0895,-17.237,3938.6221],[-68.0896,-17.2202,3909.6709],[-68.106,-17.2217,3959.5496],[-68.1096,-17.211,3981.6162],[-68.1156,-17.1873,3974.6523],[-68.1151,-17.1737,3973.6553],[-68.1186,-17.1288,4103.7241],[-68.1212,-17.1276,4092.7415],[-68.1229,-17.1231,4090.5178],[-68.125,-17.1221,4095.1089],[-68.128,-17.1233,4098.0376],[-68.1645,-17.1154,4094.7156]]]]}}