{"type":"Feature","properties":{"GID_3":"BOL.9.2.1_2","GID_0":"BOL","country":"Bolivia","GID_1":"BOL.9_1","province":"Tarija","NL_NAME_1":"NA","GID_2":"BOL.9.2_2","county":"Avilés","NL_NAME_2":"NA","city":"Uriondo","VARNAME_3":"NA","NL_NAME_3":"NA","TYPE_3":"District","ENGTYPE_3":"Distrito","CC_3":"NA","HASC_3":"NA","name":"Uriondo.city"},
"geometry":{"type": "MultiPolygon","coordinates": [[[[-64.513,-21.7771,2617.7542],[-64.5131,-21.7734,2597.6145],[-64.5067,-21.7647,2495.4084],[-64.5099,-21.7568,2348.9941],[-64.5075,-21.7427,2482.0071],[-64.4991,-21.7131,2465.0159],[-64.4938,-21.7041,2081.1475],[-64.4844,-21.6965,1859.6372],[-64.4866,-21.6938,1854.9993],[-64.485,-21.6928,1818.8269],[-64.4858,-21.6905,1871.3042],[-64.4835,-21.6919,1864.3708],[-64.4826,-21.6903,1883.3347],[-64.4851,-21.6888,1899.3024],[-64.4848,-21.6871,1937.9338],[-64.4894,-21.6855,2019.6393],[-64.4884,-21.688,1972.6133],[-64.4903,-21.6887,1943.576],[-64.4885,-21.6888,1972.6133],[-64.4883,-21.6906,1937.276],[-64.4945,-21.6898,1984.2047],[-64.4974,-21.6764,2068.9297],[-64.4952,-21.6753,2085.4126],[-64.4959,-21.6727,2119.3796],[-64.4924,-21.6743,2243.2778],[-64.4917,-21.6733,2243.2778],[-64.4964,-21.6675,2129.3088],[-64.5031,-21.6655,2150.6206],[-64.5042,-21.662,2171.771],[-64.5149,-21.6552,2296.0239],[-64.5167,-21.6502,2372.3301],[-64.5275,-21.6412,2614.8403],[-64.542,-21.6326,2151.4783],[-64.5754,-21.6226,1909.3196],[-64.5779,-21.6187,1958.384],[-64.5889,-21.6198,1898.3008],[-64.5914,-21.619,1876.86],[-64.5916,-21.617,1868.4977],[-64.6027,-21.6188,1850.9325],[-64.6101,-21.6151,1838.7206],[-64.6155,-21.6151,1819.359],[-64.6201,-21.6165,1814.0939],[-64.6312,-21.6282,1782.3516],[-64.6438,-21.627,1761.2078],[-64.642,-21.6325,1775.6459],[-64.6457,-21.6347,1764.217],[-64.648,-21.632,1747.7064],[-64.6482,-21.6268,1766.0746],[-64.6516,-21.6186,1759.6625],[-64.655,-21.6151,1766.0486],[-64.6614,-21.6171,1777.9589],[-64.6641,-21.6106,1795.8279],[-64.6843,-21.6102,2165.0967],[-64.69,-21.62,2200.5435],[-64.6933,-21.6212,2188.6501],[-64.6955,-21.6245,2248.8884],[-64.6966,-21.6297,2252.8713],[-64.7001,-21.6309,2230.7886],[-64.7043,-21.6416,2286.1074],[-64.7095,-21.6466,2365.2141],[-64.7154,-21.6437,2217.7739],[-64.7214,-21.6471,2175.7627],[-64.7294,-21.6482,2215.5696],[-64.7328,-21.6443,2158.2007],[-64.7371,-21.6435,2089.3784],[-64.7377,-21.6395,2152.6841],[-64.7402,-21.6375,2211.187],[-64.7506,-21.639,2158.4478],[-64.7525,-21.6412,2166.3699],[-64.7522,-21.6461,2279.2002],[-64.7542,-21.6511,2377.1255],[-64.753,-21.6534,2318.019],[-64.7548,-21.6576,2286.2612],[-64.7626,-21.6684,2324.6948],[-64.7671,-21.6711,2248.4707],[-64.7711,-21.6817,2247.3762],[-64.7801,-21.6883,2279.2119],[-64.7806,-21.6918,2271.5056],[-64.7839,-21.6932,2339.5491],[-64.7868,-21.699,2402.6831],[-64.8071,-21.7034,2255.8276],[-64.8213,-21.7093,2018.7239],[-64.841,-21.7062,2016.09],[-64.8528,-21.7011,2144.8762],[-64.8636,-21.7207,2105.1692],[-64.8561,-21.7264,2155.5454],[-64.8569,-21.7305,2187.7556],[-64.8547,-21.7342,2245.7439],[-64.8604,-21.7395,2236.959],[-64.8663,-21.7562,2301.9241],[-64.8698,-21.7581,2259.3777],[-64.8761,-21.7581,2243.6504],[-64.8853,-21.7628,2220.4419],[-64.9041,-21.7539,2356.4946],[-64.915,-21.7577,2638.6836],[-64.9292,-21.7571,3198.9268],[-64.9461,-21.7751,3441.2788],[-64.9539,-21.7773,3326.9314],[-64.9717,-21.774,3562.3176],[-64.9733,-21.7777,3590.1694],[-64.998,-21.7897,4507.3594],[-64.997,-21.7945,4416.0625],[-64.9987,-21.8002,4295.3833],[-65.0103,-21.8111,4451.8047],[-65.0077,-21.8146,4286.9966],[-65.0055,-21.8225,4142.9741],[-65.0081,-21.8394,4554.5039],[-65.007,-21.8457,4594.2852],[-65.0037,-21.8471,4562.21],[-65.0019,-21.8531,4369.9297],[-65.0028,-21.8596,4545.7861],[-64.9971,-21.8625,4436.915],[-64.9947,-21.8574,4308.5498],[-64.9946,-21.8527,4447.4951],[-64.9907,-21.8465,4303.2764],[-64.9848,-21.8476,4164.2891],[-64.9832,-21.8418,3924.6221],[-64.9699,-21.8334,3322.9084],[-64.9629,-21.8349,3062.8125],[-64.9538,-21.8329,3054.5972],[-64.9497,-21.8359,3114.8706],[-64.9391,-21.8374,2592.4231],[-64.9341,-21.8398,2517.8054],[-64.925,-21.8382,2544.6077],[-64.923,-21.836,2486.2664],[-64.9199,-21.8379,2476.46],[-64.9176,-21.8334,2398.4126],[-64.9126,-21.833,2369.666],[-64.9039,-21.8356,2276.4712],[-64.8954,-21.8352,2266.3677],[-64.8908,-21.8383,2288.2544],[-64.8824,-21.840699999999998,2152.4053],[-64.88,-21.837,2151.5974],[-64.8781,-21.8367,2154.9727],[-64.8671,-21.8411,2225.6418],[-64.8647,-21.8388,2240.1074],[-64.8568,-21.8358,2298.2439],[-64.8551,-21.8384,2318.7959],[-64.8487,-21.8381,2364.9373],[-64.8399,-21.8331,2417.0686],[-64.8342,-21.8377,2221.4536],[-64.8336,-21.841,2305.9219],[-64.8277,-21.8393,2261.1313],[-64.8238,-21.836,2254.3506],[-64.8206,-21.8271,2144.3652],[-64.8116,-21.8225,2102.4509],[-64.8045,-21.8148,1895.4302],[-64.7983,-21.8148,1881.5359],[-64.7903,-21.8116,1869.222],[-64.7797,-21.8047,1855.926],[-64.7691,-21.8114,2003.8162],[-64.7683,-21.8165,2020.4114],[-64.7706,-21.8212,2050.3716],[-64.7701,-21.8288,2181.6499],[-64.7669,-21.8349,2127.7981],[-64.7507,-21.8459,2699.979],[-64.7437,-21.846,3011.2639],[-64.7389,-21.8381,2780.5793],[-64.7391,-21.8348,2797.0344],[-64.7365,-21.8346,2773.3896],[-64.7307,-21.8295,2857.0713],[-64.7074,-21.8316,2842.4961],[-64.6986,-21.8232,2807.998],[-64.6939,-21.824,2760.7339],[-64.6907,-21.8204,2810.592],[-64.6807,-21.8234,2413.4846],[-64.6769,-21.827,2174.1931],[-64.6678,-21.8282,2046.9495],[-64.6528,-21.8333,2236.311],[-64.6467,-21.8315,2335.8159],[-64.6357,-21.8352,2310.3569],[-64.6332,-21.8317,2296.2334],[-64.6284,-21.8312,2355.356],[-64.6231,-21.8342,2489.6631],[-64.6187,-21.8406,2608.979],[-64.6111,-21.8447,3017.5112],[-64.6077,-21.8441,3007.3726],[-64.5952,-21.818,2622.2104],[-64.5861,-21.8188,2537.5615],[-64.5851,-21.8201,2441.8555],[-64.5813,-21.8188,2466.3372],[-64.5776,-21.8208,2363.2546],[-64.5736,-21.819,2296.3008],[-64.5644,-21.822,1813.1694],[-64.5604,-21.8187,1815.2062],[-64.5598,-21.8159,1737.9753],[-64.5539,-21.8123,1717.6882],[-64.5493,-21.7987,1558.3198],[-64.5466,-21.7947,1506.5779],[-64.5439,-21.7943,1547.1587],[-64.5446,-21.791,1512.8862],[-64.5487,-21.7884,1474.5321],[-64.5348,-21.7856,2003.4335],[-64.5334,-21.7826,2093.2207],[-64.5279,-21.7798,2148.0999],[-64.515,-21.7791,2565.2021],[-64.513,-21.7771,2617.7542]]]]}}