{"type":"Feature","properties":{"GID_2":"BOL.8.14_2","GID_0":"BOL","country":"Bolivia","GID_1":"BOL.8_1","province":"SantaCruz","NL_NAME_1":"NA","county":"Velasco","VARNAME_2":"NA","NL_NAME_2":"NA","TYPE_2":"Provincia","ENGTYPE_2":"Province","CC_2":"NA","HASC_2":"NA","name":"Velasco.county"},
"geometry":{"type": "MultiPolygon","coordinates": [[[[-59.5012,-16.4492,198.1128],[-59.4956,-16.2793,217.0673],[-59.5371,-16.276,255.1853],[-59.8153,-16.2717,258.2542],[-60.1735,-16.263,303.853],[-60.1799,-15.9977,219.8477],[-60.2376,-15.4735,198.6459],[-60.5749,-15.096,192.2072],[-60.2444,-15.0953,225.923],[-60.25,-14.9983,255.8707],[-60.2516,-14.9944,277.0804],[-60.2564,-14.8799,614.7198],[-60.263,-14.772,471.486],[-60.2666,-14.7405,411.0087],[-60.2678,-14.6894,460.763],[-60.2722,-14.6228,636.6375],[-60.2732,-14.6204,624.5187],[-60.2834,-14.6229,534.173],[-60.2927,-14.6232,507.9108],[-60.3025,-14.6161,468.9147],[-60.3124,-14.6149,457.1367],[-60.3217,-14.6095,445.3195],[-60.3276,-14.596,436.9436],[-60.3289,-14.5882,433.1168],[-60.3274,-14.5811,431.256],[-60.3302,-14.5711,433.4784],[-60.3297,-14.562,425.1494],[-60.3355,-14.5481,423.0154],[-60.3377,-14.5347,400.941],[-60.3438,-14.5309,411.0779],[-60.343,-14.5292,419.4502],[-60.337,-14.5292,406.2154],[-60.3384,-14.526,411.9575],[-60.3434,-14.5218,396.2358],[-60.3421,-14.5147,411.0597],[-60.3393,-14.5123,402.6205],[-60.3395,-14.5095,402.1515],[-60.3467,-14.5042,396.1783],[-60.3475,-14.4986,375.923],[-60.3575,-14.4849,375.8335],[-60.3776,-14.4494,363.263],[-60.3861,-14.4395,351.2724],[-60.3995,-14.412,344.515],[-60.4005,-14.4048,341.4361],[-60.3963,-14.3968,368.5155],[-60.3936,-14.394,362.3062],[-60.3814,-14.3902,364.3205],[-60.3806,-14.3887,377.4034],[-60.3825,-14.3676,357.5405],[-60.3853,-14.3655,364.2289],[-60.3909,-14.3658,354.6559],[-60.3942,-14.3563,336.951],[-60.398,-14.3555,351.6373],[-60.4025,-14.3503,360.9813],[-60.4111,-14.3455,345.1307],[-60.4198,-14.3283,350.5836],[-60.4245,-14.3247,352.5539],[-60.4312,-14.3232,347.8795],[-60.4433,-14.3163,318.6649],[-60.4473,-14.3051,338.946],[-60.4489,-14.2908,340.2971],[-60.4533,-14.2811,343.6294],[-60.4546,-14.2738,326.7891],[-60.4604,-14.2637,322.5092],[-60.46,-14.2526,334.8716],[-60.4511,-14.2431,321.8456],[-60.4508,-14.2383,318.8171],[-60.4525,-14.2351,317.0462],[-60.4589,-14.2314,316.3667],[-60.4611,-14.2281,315.8006],[-60.4633,-14.2182,343.6837],[-60.4646,-14.1969,376.9782],[-60.467,-14.1875,391.6181],[-60.4722,-14.1846,354.8804],[-60.4813,-14.1845,324.1039],[-60.4821,-14.1824,332.7466],[-60.4821,-14.1742,347.3267],[-60.4745,-14.1569,326.3244],[-60.4718,-14.1458,363.96],[-60.4704,-14.1308,325.0753],[-60.4723,-14.1104,319.7289],[-60.4666,-14.0964,315.8362],[-60.4477,-14.0799,195.7408],[-60.4332,-14.063,198.3578],[-60.4266,-14.0474,205.4177],[-60.4115,-14.027,203.0333],[-60.4061,-14.0093,209.0613],[-60.4073,-13.9896,203.335],[-60.4109,-13.9836,182.2376],[-60.4277,-13.9673,195.4451],[-60.4421,-13.9343,185.8104],[-60.4448,-13.9154,190.6702],[-60.4423,-13.9048,185.9115],[-60.4438,-13.8898,180.5038],[-60.4467,-13.8847,179.1808],[-60.4517,-13.8847,186.9872],[-60.4535,-13.8824,181.899],[-60.4501,-13.8676,177.8158],[-60.4507,-13.857,187.4891],[-60.4586,-13.8544,179.1947],[-60.4696,-13.8541,185.3473],[-60.472,-13.8517,183.5433],[-60.4708,-13.8473,183.9159],[-60.4676,-13.8436,187.5556],[-60.467,-13.8378,186.3661],[-60.4678,-13.8361,182.3194],[-60.4723,-13.8351,177.2404],[-60.4737,-13.8328,182.2751],[-60.4699,-13.8302,185.6501],[-60.4666,-13.8302,181.3269],[-60.4622,-13.8237,187.6036],[-60.4624,-13.8119,184.0202],[-60.4593,-13.8041,187.7611],[-60.4606,-13.7993,184.8946],[-60.466,-13.7969,175.7838],[-60.4864,-13.7953,174.9412],[-60.5003,-13.7897,180.9291],[-60.5036,-13.7933,181.9345],[-60.5043,-13.7969,186.4658],[-60.5104,-13.7933,188.5575],[-60.5214,-13.7956,186.1966],[-60.5285,-13.7947,181.5609],[-60.528,-13.7913,175.8601],[-60.5212,-13.7854,176.1321],[-60.5185,-13.7798,181.6665],[-60.5183,-13.7737,172.5],[-60.521,-13.7709,175.5134],[-60.5255,-13.7703,177.3825],[-60.5323,-13.7726,176.7742],[-60.5464,-13.7693,177.421],[-60.5489,-13.7726,178.44],[-60.5463,-13.7823,173.8672],[-60.5514,-13.7817,182.8012],[-60.559,-13.7709,179.6549],[-60.5708,-13.7686,180.4181],[-60.567,-13.7624,172.0071],[-60.567,-13.7595,181.2072],[-60.5764,-13.7588,180.7708],[-60.5791,-13.7572,182.1246],[-60.5757,-13.7513,173.1125],[-60.5765,-13.7464,178.2014],[-60.5869,-13.7477,177.2788],[-60.5893,-13.743,176.2079],[-60.5916,-13.7428,173.9042],[-60.5982,-13.7474,174.5436],[-60.6063,-13.7476,173.0256],[-60.606,-13.7361,172.8993],[-60.6082,-13.7361,178.0607],[-60.6102,-13.7392,171.7175],[-60.6115,-13.7384,171.7175],[-60.6094,-13.7271,175.3261],[-60.6124,-13.7246,181.48],[-60.6191,-13.7244,174.0492],[-60.6209,-13.717,173.9106],[-60.6256,-13.7191,172.9237],[-60.6302,-13.725,171.5829],[-60.6396,-13.7255,175.8464],[-60.6429,-13.7334,173.5244],[-60.6458,-13.7357,176.5438],[-60.6498,-13.7338,169.0],[-60.6518,-13.7282,171.6606],[-60.6547,-13.7283,171.8324],[-60.6563,-13.7353,170.7835],[-60.6713,-13.7222,177.3844],[-60.6783,-13.7196,171.0192],[-60.6833,-13.7155,168.5],[-60.6864,-13.71,171.1347],[-60.6882,-13.6983,175.3345],[-60.6904,-13.6962,173.8189],[-60.6957,-13.6978,176.8185],[-60.6937,-13.7106,168.0],[-60.6944,-13.7134,168.0],[-60.6958,-13.7136,168.0],[-60.7049,-13.7013,175.2305],[-60.7069,-13.6913,173.1158],[-60.7087,-13.6899,168.0],[-60.7198,-13.6907,176.4814],[-60.7404,-13.6826,170.0636],[-60.7557,-13.6871,172.5947],[-60.7634,-13.6862,168.0],[-60.7714,-13.6795,169.1412],[-60.7696,-13.667,168.0],[-60.7735,-13.6605,172.0312],[-60.7822,-13.6582,170.1001],[-60.7878,-13.6548,172.0175],[-60.8019,-13.6563,168.0],[-60.8104,-13.6542,170.8241],[-60.8133,-13.6503,168.7214],[-60.8131,-13.646,170.4043],[-60.8161,-13.6414,172.0076],[-60.8165,-13.637,173.3173],[-60.8231,-13.6303,176.7138],[-60.838,-13.626,167.8893],[-60.8496,-13.6324,173.2086],[-60.8607,-13.6247,166.5],[-60.8778,-13.6192,167.9571],[-60.8803,-13.617,167.8672],[-60.8898,-13.5981,170.023],[-60.9029,-13.5904,166.5],[-60.9103,-13.5838,170.2013],[-60.9234,-13.5665,166.5],[-60.9251,-13.5555,175.515],[-60.9239,-13.5526,166.5],[-60.9178,-13.5475,168.8631],[-60.9187,-13.5425,168.7327],[-60.9296,-13.5383,170.5292],[-60.933,-13.5387,173.3723],[-60.9466,-13.5505,166.5],[-60.9568,-13.5512,171.511],[-60.9608,-13.5489,171.3258],[-60.9651,-13.5367,166.5],[-60.9722,-13.5348,166.9016],[-60.9787,-13.5394,171.6561],[-60.9867,-13.5366,173.9004],[-60.9881,-13.5392,167.7803],[-60.9858,-13.5441,166.6024],[-60.9876,-13.546,169.1659],[-60.9963,-13.5481,171.7828],[-61.0018,-13.5522,165.5584],[-61.0069,-13.5513,168.6272],[-61.0083,-13.549,170.0329],[-61.0075,-13.544,165.0],[-61.009,-13.5368,166.475],[-61.0125,-13.53,167.6461],[-61.0121,-13.5257,168.1895],[-61.0069,-13.5256,169.7235],[-61.0017,-13.5326,168.707],[-60.9997,-13.5309,166.1446],[-60.9997,-13.5274,169.8785],[-61.0097,-13.516,165.0],[-61.0107,-13.5092,165.6055],[-61.0063,-13.5023,167.1983],[-60.998,-13.5018,168.2123],[-60.9934,-13.505,166.3472],[-60.9907,-13.5041,167.579],[-60.9893,-13.5015,168.4251],[-60.9899,-13.4929,180.8327],[-60.9948,-13.4891,172.7384],[-61.0119,-13.4849,177.6942],[-61.0244,-13.4796,171.4963],[-61.0427,-13.4758,171.0767],[-61.0471,-13.4762,172.2069],[-61.0532,-13.4805,169.2818],[-61.0548,-13.4874,179.4442],[-61.0536,-13.4906,165.1834],[-61.0394,-13.4996,171.8961],[-61.039,-13.5049,167.7318],[-61.041,-13.507,165.7738],[-61.0545,-13.512,164.0],[-61.0581,-13.5118,164.0],[-61.0609,-13.5099,165.6843],[-61.0629,-13.503,163.5],[-61.0657,-13.5002,166.4164],[-61.0821,-13.4985,170.6944],[-61.0879,-13.5001,178.2402],[-61.0894,-13.4938,178.3282],[-61.0915,-13.4929,168.4807],[-61.0937,-13.495,175.9849],[-61.096,-13.5049,165.3463],[-61.0987,-13.5095,164.5746],[-61.106,-13.5155,172.4485],[-61.1057,-13.5215,163.5],[-61.1025,-13.5237,163.5],[-61.1058,-13.531,167.2587],[-61.1142,-13.528,171.365],[-61.1237,-13.5201,162.5],[-61.1305,-13.5214,162.0],[-61.1368,-13.5289,168.288],[-61.1399,-13.5283,162.9073],[-61.1413,-13.5227,170.1649],[-61.1393,-13.5136,167.8992],[-61.1427,-13.5118,162.408],[-61.1462,-13.5139,161.5],[-61.1474,-13.5175,166.7366],[-61.1452,-13.5298,167.7004],[-61.1501,-13.531,166.5343],[-61.1528,-13.5281,163.7324],[-61.1545,-13.5211,163.7633],[-61.1578,-13.5166,165.3026],[-61.1723,-13.5107,161.5],[-61.179,-13.5151,163.1107],[-61.1822,-13.5153,161.5],[-61.1835,-13.5134,162.4977],[-61.182,-13.5094,168.1001],[-61.1832,-13.506,165.9435],[-61.1858,-13.507,162.2662],[-61.1871,-13.5118,161.5],[-61.1907,-13.5159,174.4894],[-61.1899,-13.5196,166.1641],[-61.1843,-13.5237,165.3655],[-61.1843,-13.5267,169.6977],[-61.1935,-13.5355,163.2648],[-61.2002,-13.5329,163.3678],[-61.2091,-13.5246,161.5],[-61.2209,-13.5299,166.7256],[-61.2252,-13.5302,179.4222],[-61.2354,-13.5256,175.1255],[-61.2383,-13.5173,163.2266],[-61.2451,-13.5139,162.8171],[-61.2423,-13.5036,171.4395],[-61.2433,-13.4997,164.7716],[-61.2606,-13.4941,175.0844],[-61.2695,-13.4986,171.0535],[-61.2752,-13.505,164.0249],[-61.2793,-13.5048,165.7592],[-61.2854,-13.5018,162.2358],[-61.289,-13.4972,164.9903],[-61.2934,-13.4969,172.7884],[-61.2997,-13.4997,166.635],[-61.3001,-13.5044,170.2318],[-61.3021,-13.5066,167.0899],[-61.312,-13.503,160.0],[-61.3352,-13.5045,161.7697],[-61.3407,-13.5101,162.1206],[-61.3407,-13.5169,161.6653],[-61.353,-13.5212,167.5416],[-61.3812,-13.5192,162.6408],[-61.3913,-13.5199,159.5],[-61.3988,-13.5224,160.8933],[-61.404,-13.5261,159.5],[-61.4036,-13.538,159.5],[-61.4103,-13.5377,163.3481],[-61.4392,-13.5466,159.5],[-61.449,-13.5471,165.7716],[-61.4695,-13.5546,170.0594],[-61.4768,-13.5543,162.4774],[-61.4906,-13.5479,159.0],[-61.5069,-13.5489,159.0],[-61.5136,-13.5437,159.7291],[-61.518,-13.533,158.875],[-61.5279,-13.5298,158.5],[-62.1392,-13.7624,234.4599],[-62.1447,-14.007,188.1434],[-62.1409,-14.1984,235.5845],[-62.1343,-14.2228,209.2129],[-62.1222,-14.2427,208.7452],[-62.0917,-14.2679,206.5982],[-62.0665,-14.2863,235.386],[-62.0373,-14.3035,212.6818],[-61.9814,-14.3423,194.8406],[-61.9635,-14.3524,202.8561],[-61.9342,-14.3739,218.0281],[-61.8904,-14.395,201.6309],[-61.7725,-14.4792,239.0959],[-61.7442,-14.504,261.9415],[-61.7309,-14.5263,221.0393],[-61.7049,-14.5871,199.3258],[-61.7032,-14.587,200.229],[-61.6891,-14.5986,203.7922],[-61.6889,-14.6059,201.9426],[-61.6866,-14.6084,203.1472],[-61.6818,-14.6098,202.4268],[-61.6823,-14.6124,204.0251],[-61.6785,-14.6143,204.7821],[-61.6779,-14.623,205.6566],[-61.6748,-14.627,205.1931],[-61.6752,-14.6304,203.0663],[-61.6628,-14.6374,210.3273],[-61.6621,-14.6412,208.3483],[-61.6604,-14.6419,211.9931],[-61.661,-14.644,206.3553],[-61.6587,-14.6449,210.2535],[-61.658,-14.6473,207.4394],[-61.6527,-14.6494,214.036],[-61.6499,-14.6556,210.6247],[-61.651,-14.657,210.3583],[-61.6476,-14.661,210.9178],[-61.6478,-14.6633,207.359],[-61.6443,-14.6658,212.7514],[-61.6454,-14.6773,206.5333],[-61.6442,-14.6841,209.826],[-61.6386,-14.6882,213.4457],[-61.6349,-14.689,215.8695],[-61.6334,-14.6916,215.5604],[-61.6321,-14.6909,223.042],[-61.6274,-14.6929,218.7535],[-61.6202,-14.6999,217.5368],[-61.6154,-14.7019,211.3533],[-61.6103,-14.701,222.3719],[-61.6071,-14.7036,216.7578],[-61.598,-14.7027,228.9319],[-61.5948,-14.6974,217.2454],[-61.5953,-14.6958,219.6629],[-61.5918,-14.6926,214.5593],[-61.5914,-14.7003,221.3965],[-61.5849,-14.7056,219.5727],[-61.5841,-14.7167,218.4926],[-61.5798,-14.718,221.2095],[-61.5792,-14.722,225.1078],[-61.5744,-14.7249,223.8582],[-61.575,-14.7273,222.5089],[-61.5719,-14.7265,227.4491],[-61.5654,-14.7323,228.4183],[-61.5644,-14.7365,229.0726],[-61.5611,-14.7399,233.3228],[-61.5603,-14.7488,226.991],[-61.5577,-14.7543,228.1531],[-61.5579,-14.7628,230.7926],[-61.5505,-14.7695,232.3293],[-61.5487,-14.7771,231.549],[-61.5488,-14.7857,235.5695],[-61.5505,-14.7911,241.5677],[-61.5486,-14.7974,237.0301],[-61.5442,-14.8039,233.9044],[-61.535,-14.8032,237.5263],[-61.5323,-14.8327,247.3802],[-61.5183,-14.8619,261.3311],[-61.5171,-14.8817,303.1074],[-61.5151,-14.8842,291.2948],[-61.5194,-14.8853,293.0595],[-61.5191,-14.8876,291.4695],[-61.5152,-14.8947,281.4224],[-61.5099,-14.8918,270.3343],[-61.5039,-14.8905,268.7551],[-61.503,-14.8916,267.915],[-61.508,-14.9009,277.0582],[-61.5077,-14.9062,271.4279],[-61.5049,-14.9159,272.8249],[-61.5025,-14.9171,278.4794],[-61.5029,-14.9212,286.0931],[-61.4955,-14.9372,278.0668],[-61.4966,-14.967,326.4579],[-61.4916,-14.9772,343.1342],[-61.4927,-15.0052,295.2082],[-61.4948,-15.0156,306.2331],[-61.4923,-15.0299,307.0962],[-61.4934,-15.0852,274.5984],[-61.4876,-15.0932,258.2569],[-61.4794,-15.1132,242.4507],[-61.4834,-15.1227,247.6981],[-61.4813,-15.1313,255.2862],[-61.4821,-15.1416,260.8679],[-61.4891,-15.1532,300.5312],[-61.4904,-15.1696,283.1371],[-61.494,-15.1832,254.6975],[-61.4926,-15.1886,258.9426],[-61.4945,-15.2151,277.3154],[-61.4978,-15.2183,280.8049],[-61.5013,-15.2257,298.8786],[-61.5094,-15.2324,308.0682],[-61.5018,-15.2521,279.0975],[-61.5081,-15.2656,260.003],[-61.5021,-15.2685,273.9446],[-61.4989,-15.2732,278.1142],[-61.496,-15.2941,233.3136],[-61.4974,-15.3023,239.453],[-61.4877,-15.3187,245.2021],[-61.5107,-15.5424,295.9368],[-61.5195,-15.6195,366.8119],[-61.5213,-15.6205,377.6014],[-61.5197,-15.6269,352.0731],[-61.5203,-15.6381,370.496],[-61.5232,-15.6407,365.8266],[-61.5218,-15.6437,375.3633],[-61.5229,-15.6525,398.5645],[-61.5284,-15.6632,413.3664],[-61.526,-15.6763,429.336],[-61.527,-15.6794,426.244],[-61.5303,-15.6821,412.446],[-61.5298,-15.6901,415.8152],[-61.5386,-15.7132,366.4182],[-61.5313,-15.7237,377.744],[-61.5302,-15.7324,364.2589],[-61.5314,-15.7403,358.0247],[-61.54,-15.7506,371.7071],[-61.5421,-15.7554,351.359],[-61.545,-15.7667,352.6931],[-61.5432,-15.7702,350.3726],[-61.5437,-15.7724,346.6398],[-61.5515,-15.7787,357.0553],[-61.5657,-15.7821,353.268],[-61.5709,-15.7772,353.2281],[-61.5737,-15.769,353.0321],[-61.5831,-15.7645,350.1153],[-61.5996,-15.7659,369.3262],[-61.6126,-15.7736,345.4193],[-61.6074,-15.7789,347.2034],[-61.6033,-15.7797,347.4132],[-61.5984,-15.784,349.0356],[-61.5928,-15.8008,348.4156],[-61.5943,-15.8101,353.9799],[-61.5873,-15.8183,352.5158],[-61.5835,-15.8256,350.8848],[-61.582,-15.835,350.409],[-61.5791,-15.8424,351.3817],[-61.5751,-15.8475,350.3574],[-61.5722,-15.8585,351.4767],[-61.574,-15.8608,364.4593],[-61.5739,-15.8663,352.1304],[-61.5762,-15.8687,352.4363],[-61.5771,-15.8734,353.2132],[-61.5814,-15.8788,353.4798],[-61.5787,-15.8877,353.7369],[-61.5812,-15.8947,358.0792],[-61.5883,-15.9047,359.9587],[-61.5969,-15.9138,366.2548],[-61.6091,-15.9212,379.8089],[-61.6185,-15.9236,386.3817],[-61.6355,-15.9332,399.425],[-61.6449,-15.9456,400.9504],[-61.6496,-15.9632,423.9554],[-61.6563,-15.9763,416.2978],[-61.6633,-15.9994,425.1114],[-61.6751,-16.0203,400.8682],[-61.6796,-16.0595,370.8406],[-61.68,-16.0844,354.9471],[-61.6783,-16.0862,358.3436],[-61.683,-16.0966,361.7831],[-61.681399999999996,-16.1031,362.1409],[-61.6837,-16.1044,363.5898],[-61.6817,-16.1069,363.4161],[-61.6838,-16.1125,364.5767],[-61.6803,-16.1331,368.863],[-61.6833,-16.1361,367.1982],[-61.6819,-16.1391,369.5128],[-61.6856,-16.1405,367.7511],[-61.6876,-16.1437,372.7095],[-61.6836,-16.1484,378.9675],[-61.6856,-16.1525,375.677],[-61.6839,-16.1549,387.465],[-61.6865,-16.156,374.9032],[-61.6796,-16.1643,379.5078],[-61.6793,-16.1692,374.7896],[-61.676,-16.1731,379.0983],[-61.677,-16.1814,377.7555],[-61.6757,-16.1829,386.6548],[-61.6765,-16.1889,384.5458],[-61.6752,-16.1921,399.5662],[-61.6769,-16.1986,379.7845],[-61.6798,-16.2004,390.3682],[-61.6813,-16.2053,385.0271],[-61.6851,-16.2093,383.2551],[-61.6865,-16.2174,386.4911],[-61.6849,-16.2212,391.0471],[-61.6865,-16.2256,385.3756],[-61.6835,-16.2313,393.086],[-61.6929,-16.243,396.435],[-61.6928,-16.2555,395.4952],[-61.6974,-16.2653,401.1684],[-61.6884,-16.2739,422.3236],[-61.6867,-16.2885,450.3102],[-61.6837,-16.2933,457.8537],[-61.6791,-16.2969,463.9922],[-61.6735,-16.2984,456.0872],[-61.6709,-16.3025,467.6205],[-61.6712,-16.3152,454.2801],[-61.6695,-16.3192,467.1693],[-61.6717,-16.335,438.9344],[-61.6748,-16.3414,429.3049],[-61.6752,-16.3469,421.3078],[-61.6714,-16.3522,419.5762],[-61.671,-16.3564,419.6838],[-61.6659,-16.3625,416.4004],[-61.6653,-16.3723,416.4743],[-61.6575,-16.3802,414.5951],[-61.6592,-16.3853,414.1536],[-61.6567,-16.3918,406.9513],[-61.6576,-16.3996,408.4647],[-61.6513,-16.4045,404.9099],[-61.6523,-16.4088,407.2233],[-61.6553,-16.4107,404.053],[-61.658,-16.419,402.0007],[-61.6593,-16.4331,396.2834],[-61.6573,-16.4375,399.2596],[-61.6539,-16.4394,393.4303],[-61.6531,-16.4441,398.2661],[-61.6499,-16.4455,389.9685],[-61.652,-16.4571,394.9952],[-61.6496,-16.4734,381.5041],[-61.6457,-16.4744,380.8922],[-61.6435,-16.4787,380.9607],[-61.6408,-16.4804,381.9406],[-61.6389,-16.4895,382.4211],[-61.6407,-16.4976,378.1285],[-61.6393,-16.5023,375.6557],[-61.6404,-16.5362,432.7546],[-61.661,-16.9827,321.3943],[-61.6567,-16.9866,295.5367],[-61.6555,-16.9902,296.4543],[-61.6622,-17.0015,289.5332],[-61.6613,-17.0135,299.7344],[-61.6708,-17.0272,288.5865],[-61.6744,-17.0281,285.0732],[-61.6841,-17.0157,285.4255],[-61.6868,-17.0148,283.0962],[-61.6907,-17.0168,277.252],[-61.6922,-17.0206,275.7752],[-61.697,-17.022,275.9661],[-61.7007,-17.0251,274.9633],[-61.7069,-17.0269,270.2051],[-61.7126,-17.0252,267.9418],[-61.716,-17.0264,273.6637],[-61.719,-17.0314,272.5831],[-61.7206,-17.0304,270.2183],[-61.7233,-17.0323,272.5331],[-61.7261,-17.0316,269.0142],[-61.7311,-17.0375,265.166],[-61.7422,-17.0448,261.8188],[-61.7482,-17.0452,258.8458],[-61.7511,-17.0419,259.3506],[-61.7583,-17.043,262.9712],[-61.7634,-17.0414,260.001],[-61.7708,-17.0435,262.8025],[-61.7715,-17.0406,260.0879],[-61.7682,-17.0354,257.2164],[-61.7701,-17.034,260.9266],[-61.7781,-17.0349,258.2561],[-61.7829,-17.0387,254.9145],[-61.7862,-17.039,252.3088],[-61.7916,-17.0363,252.6864],[-61.7969,-17.0363,253.5788],[-61.7986,-17.0349,253.1173],[-61.7982,-17.033,253.2904],[-61.8084,-17.0315,250.8979],[-61.8117,-17.0329,251.2355],[-61.8132,-17.0275,250.643],[-61.8155,-17.0299,248.8737],[-61.8171,-17.0292,249.5874],[-61.8168,-17.031,249.0742],[-61.8243,-17.0342,248.6363],[-61.8275,-17.0341,248.9014],[-61.8273,-17.0324,248.7487],[-61.8319,-17.0298,248.7823],[-61.8335,-17.0265,247.1441],[-61.8364,-17.0267,248.4515],[-61.8358,-17.0302,248.6479],[-61.8391,-17.0296,246.2688],[-61.839,-17.0311,246.2688],[-61.8416,-17.0305,249.7277],[-61.8409,-17.0288,246.8381],[-61.8431,-17.0302,252.8932],[-61.8444,-17.029,247.8838],[-61.8452,-17.0318,247.1283],[-61.8509,-17.0339,247.4514],[-61.8457,-17.0434,247.6054],[-61.8494,-17.0503,246.6911],[-61.8476,-17.0552,247.6062],[-61.8511,-17.0586,247.9055],[-61.8544,-17.0574,247.7577],[-61.8557,-17.0618,249.6297],[-61.854,-17.0643,252.3548],[-61.8497,-17.0628,253.4801],[-61.8443,-17.0656,252.5754],[-61.8448,-17.0709,258.1486],[-61.8419,-17.0671,252.8527],[-61.8386,-17.069,252.7655],[-61.8397,-17.0755,252.797],[-61.8358,-17.0807,254.1985],[-61.8304,-17.0778,254.6441],[-61.8308,-17.0706,253.0063],[-61.8284,-17.0717,254.6505],[-61.8249,-17.0702,250.9709],[-61.8208,-17.0732,254.1806],[-61.8239,-17.0736,252.9412],[-61.8217,-17.0769,251.4051],[-61.8249,-17.0796,254.0998],[-61.8236,-17.0825,255.8753],[-61.827,-17.0819,253.7897],[-61.8257,-17.0844,256.574],[-61.8289,-17.0847,255.224],[-61.8275,-17.0875,256.1636],[-61.8349,-17.0863,253.0599],[-61.8347,-17.092,254.224],[-61.8374,-17.0912,253.9558],[-61.8403,-17.0944,253.2148],[-61.8377,-17.0976,251.3719],[-61.8459,-17.0992,254.1835],[-61.8454,-17.1029,252.7058],[-61.8399,-17.102,255.0739],[-61.8355,-17.0998,255.448],[-61.8338,-17.0972,255.3384],[-61.8317,-17.0988,254.7754],[-61.8301,-17.0956,257.1029],[-61.8276,-17.0966,255.7217],[-61.824,-17.0895,254.0351],[-61.8191,-17.0948,254.6159],[-61.8164,-17.0903,257.0934],[-61.8107,-17.0932,255.1174],[-61.8067,-17.0932,255.948],[-61.8046,-17.0922,254.0461],[-61.8072,-17.0915,253.7441],[-61.8083,-17.0876,254.323],[-61.8066,-17.0866,253.5736],[-61.8062,-17.0885,255.0585],[-61.8046,-17.0888,253.3818],[-61.8011,-17.0862,281.4082],[-61.8,-17.088,253.3534],[-61.7966,-17.0883,254.7037],[-61.7954,-17.0928,254.5943],[-61.7928,-17.0906,260.1245],[-61.7856,-17.0937,256.4885],[-61.7861,-17.0995,254.5893],[-61.783,-17.0969,252.0257],[-61.7776,-17.1023,251.1555],[-61.7723,-17.102,257.2143],[-61.7737,-17.1042,251.062],[-61.7715,-17.1044,255.374],[-61.7715,-17.1083,251.7154],[-61.7689,-17.1076,254.5486],[-61.7688,-17.1105,254.2979],[-61.7634,-17.1123,252.7865],[-61.7683,-17.1138,250.6027],[-61.7688,-17.1165,249.7513],[-61.7669,-17.116,251.017],[-61.7668,-17.1178,250.4899],[-61.762,-17.1194,251.6307],[-61.757,-17.1179,253.3192],[-61.7554,-17.1242,249.4904],[-61.7499,-17.1242,249.1844],[-61.7438,-17.1196,249.102],[-61.7403,-17.1216,249.003],[-61.7403,-17.1247,249.2536],[-61.7332,-17.1259,245.8467],[-61.7303,-17.1299,245.6358],[-61.7228,-17.1282,246.0745],[-61.7174,-17.1394,248.5009],[-61.7167,-17.1364,248.7338],[-61.7117,-17.1364,249.7862],[-61.7139,-17.1347,250.7641],[-61.7131,-17.1314,251.9622],[-61.7065,-17.1296,246.354],[-61.7054,-17.1368,245.9362],[-61.6791,-17.1492,244.5],[-61.6752,-17.1564,245.9586],[-61.6779,-17.1653,245.8695],[-61.676,-17.1675,246.1859],[-61.6763,-17.1701,246.5519],[-61.6733,-17.1686,246.79],[-61.6719,-17.1706,246.5353],[-61.665,-17.1715,248.1992],[-61.6657,-17.1771,246.4817],[-61.6619,-17.1809,246.3321],[-61.6552,-17.1802,244.5],[-61.6406,-17.17,246.7437],[-61.6372,-17.1755,248.314],[-61.634,-17.1746,246.3113],[-61.6303,-17.1768,246.4047],[-61.6293,-17.1842,247.571],[-61.6155,-17.1912,247.1936],[-61.6129,-17.1891,247.4512],[-61.6141,-17.1835,249.5913],[-61.6078,-17.179,247.1951],[-61.6034,-17.179,248.9945],[-61.6032,-17.1753,250.1322],[-61.601,-17.1741,250.398],[-61.6001,-17.1713,250.2136],[-61.5971,-17.1698,249.3712],[-61.5958,-17.1742,250.3261],[-61.5924,-17.173,249.9175],[-61.5899,-17.1751,250.1344],[-61.589,-17.1808,247.2024],[-61.5939,-17.1831,247.5215],[-61.5954,-17.1889,255.3163],[-61.5982,-17.191,248.3622],[-61.5992,-17.1889,247.896],[-61.6046,-17.1878,251.9402],[-61.6031,-17.1974,247.1105],[-61.6047,-17.2037,247.3489],[-61.6097,-17.208,247.0618],[-61.6108,-17.2134,248.2268],[-61.6095,-17.2234,250.0808],[-61.6063,-17.2205,250.4189],[-61.6027,-17.2212,251.9409],[-61.6014,-17.2259,251.7753],[-61.5968,-17.2273,252.4338],[-61.5916,-17.2267,252.1135],[-61.5894,-17.2295,252.5934],[-61.5828,-17.2281,253.2559],[-61.5798,-17.2298,253.0862],[-61.5841,-17.2378,252.729],[-61.5841,-17.245,251.6245],[-61.5802,-17.2451,252.1769],[-61.5786,-17.2471,252.5468],[-61.5802,-17.2513,251.3561],[-61.5715,-17.253,252.8427],[-61.5708,-17.2562,252.7435],[-61.5494,-17.2658,252.3564],[-61.5508,-17.2691,253.9035],[-61.5499,-17.2706,251.5394],[-61.5454,-17.2675,252.5355],[-61.5442,-17.27,251.9313],[-61.5364,-17.2755,251.5831],[-61.5376,-17.278,251.3635],[-61.5352,-17.2871,250.2014],[-61.5326,-17.2832,252.0845],[-61.5308,-17.2843,251.3868],[-61.5266,-17.2827,252.0594],[-61.526,-17.2855,252.6925],[-61.5224,-17.2847,253.3778],[-61.5189,-17.2885,252.7782],[-61.5158,-17.2852,253.6464],[-61.5134,-17.2876,252.961],[-61.5103,-17.2859,251.6986],[-61.5052,-17.2892,253.1557],[-61.4999,-17.2901,252.639],[-61.4988,-17.2941,254.0863],[-61.4949,-17.2959,253.6526],[-61.4972,-17.2981,254.1512],[-61.4971,-17.3008,255.1776],[-61.5071,-17.3033,252.9262],[-61.5066,-17.3085,254.8922],[-61.5104,-17.3145,255.8165],[-61.5096,-17.3261,255.8828],[-61.5008,-17.3272,255.0943],[-61.4958,-17.3238,252.5558],[-61.4957,-17.3208,253.8502],[-61.4918,-17.3221,251.4193],[-61.4929,-17.3379,252.7342],[-61.4889,-17.3467,252.3307],[-61.4803,-17.3465,253.6449],[-61.4809,-17.3422,255.8027],[-61.479,-17.3402,255.7782],[-61.4749,-17.34,258.7851],[-61.4742,-17.3418,257.394],[-61.4724,-17.3405,256.9213],[-61.4718,-17.3425,255.819],[-61.4681,-17.3411,256.1411],[-61.4716,-17.3354,260.1391],[-61.4717,-17.3339,258.098],[-61.4686,-17.3334,257.1509],[-61.4701,-17.3302,256.1023],[-61.4558,-17.3303,257.4041],[-61.4535,-17.3321,255.8193],[-61.4484,-17.326,256.5521],[-61.4447,-17.3251,257.8993],[-61.4412,-17.3268,260.7281],[-61.4389,-17.3308,262.65],[-61.4416,-17.336,259.6417],[-61.4375,-17.3374,258.2178],[-61.4416,-17.3443,255.3504],[-61.4481,-17.3499,252.0946],[-61.4461,-17.3544,256.0977],[-61.4418,-17.3565,253.4142],[-61.4395,-17.3601,253.7674],[-61.4298,-17.3589,254.0657],[-61.4259,-17.3562,254.9487],[-61.4254,-17.3538,255.9135],[-61.4222,-17.3542,255.5698],[-61.4211,-17.3519,254.8937],[-61.4255,-17.3464,255.6991],[-61.4242,-17.3431,258.2509],[-61.4209,-17.3441,256.3179],[-61.4121,-17.3416,257.1972],[-61.4107,-17.3399,254.3768],[-61.4027,-17.3405,255.1291],[-61.3996,-17.3421,253.772],[-61.3992,-17.3489,257.6174],[-61.3966,-17.3483,261.4708],[-61.3949,-17.3432,254.4008],[-61.3907,-17.3447,256.7697],[-61.3838,-17.3412,256.0655],[-61.3784,-17.3447,257.0716],[-61.368,-17.3456,254.6351],[-61.3662,-17.3498,253.3635],[-61.3574,-17.3561,252.7979],[-61.3545,-17.3544,254.6896],[-61.352,-17.3555,253.5336],[-61.3533,-17.3578,252.0612],[-61.3516,-17.3624,250.2201],[-61.3525,-17.3647,249.9734],[-61.3492,-17.372,250.8745],[-61.3471,-17.3716,250.9641],[-61.3447,-17.368,249.1209],[-61.3406,-17.3682,249.3186],[-61.3399,-17.3711,249.2991],[-61.3323,-17.3749,253.1248],[-61.327,-17.3731,253.8148],[-61.328,-17.3708,249.827],[-61.3255,-17.3694,250.9859],[-61.3173,-17.3689,249.5304],[-61.3107,-17.3706,251.4001],[-61.3073,-17.3728,248.9622],[-61.3083,-17.3759,249.2102],[-61.3069,-17.3797,249.5159],[-61.3026,-17.3801,249.9638],[-61.3005,-17.3853,250.3576],[-61.2979,-17.3835,251.0872],[-61.2971,-17.386,251.3344],[-61.2925,-17.3865,253.0293],[-61.2913,-17.3881,250.7955],[-61.2922,-17.3891,250.7955],[-61.2882,-17.393,250.0485],[-61.2861,-17.3942,249.947],[-61.2847,-17.3924,251.8034],[-61.2813,-17.3974,250.0141],[-61.2745,-17.398,250.0735],[-61.2679,-17.3931,250.1845],[-61.2665,-17.3945,250.1845],[-61.2672,-17.398,250.8474],[-61.2637,-17.4009,250.1714],[-61.2566,-17.397,250.2162],[-61.2543,-17.4025,250.2293],[-61.2492,-17.4024,250.3133],[-61.2423,-17.3985,250.772],[-61.241,-17.3958,252.669],[-61.2347,-17.3938,252.9831],[-61.231,-17.388,250.8389],[-61.22,-17.3887,252.9739],[-61.2156,-17.3867,254.4146],[-61.2147,-17.3795,265.1687],[-61.2178,-17.3729,251.3447],[-61.2134,-17.3689,252.0169],[-61.1956,-17.3684,257.7341],[-61.1901,-17.3648,250.5963],[-61.1863,-17.3664,251.9432],[-61.1764,-17.3646,253.6048],[-61.1662,-17.3666,253.7899],[-61.1525,-17.364,250.8963],[-61.1404,-17.3664,260.0392],[-61.1358,-17.3579,251.1516],[-61.1274,-17.358,250.7236],[-61.1228,-17.356,250.6426],[-61.1249,-17.3515,251.5017],[-61.1239,-17.3495,250.8951],[-61.1164,-17.3514,252.7198],[-61.1141,-17.3495,253.0571],[-61.1108,-17.3498,252.8153],[-61.1056,-17.3553,253.7871],[-61.1029,-17.3538,251.7529],[-61.0987,-17.3552,251.8542],[-61.095,-17.3542,251.9448],[-61.0905,-17.3489,254.7848],[-61.0813,-17.3504,253.81],[-61.0775,-17.3469,256.119],[-61.0767,-17.3374,254.4276],[-61.0719,-17.3417,254.0694],[-61.0637,-17.3439,256.308],[-61.0574,-17.3398,253.873],[-61.05,-17.3399,253.7487],[-61.0459,-17.3382,254.637],[-61.0328,-17.3413,259.7951],[-61.0288,-17.3369,254.9512],[-61.0208,-17.3349,257.9165],[-61.0141,-17.33,255.3178],[-61.0053,-17.3158,256.2138],[-60.9955,-17.3049,256.8216],[-60.9957,-17.303,257.2883],[-60.9907,-17.2961,259.5912],[-60.9835,-17.298,258.434],[-60.9714,-17.2941,257.3513],[-60.9628,-17.2947,257.8073],[-60.9531,-17.2977,258.1241],[-60.9439,-17.2954,258.7407],[-60.94,-17.2975,259.2074],[-60.9371,-17.2971,259.3694],[-60.9325,-17.2867,261.305],[-60.9348,-17.2825,259.7884],[-60.9343,-17.2763,260.3204],[-60.9363,-17.2721,261.263],[-60.9353,-17.2676,263.7317],[-60.933,-17.2657,260.6233],[-60.9332,-17.2589,260.6117],[-60.9256,-17.255,262.3723],[-60.922,-17.2499,265.7783],[-60.9176,-17.2507,261.5658],[-60.913,-17.2458,261.6327],[-60.9092,-17.2457,261.3235],[-60.9076,-17.2421,263.9003],[-60.9044,-17.2424,262.3513],[-60.8966,-17.2394,262.496],[-60.8836,-17.2398,264.537],[-60.8749,-17.2352,262.6695],[-60.8637,-17.2192,267.4448],[-60.8572,-17.216,264.1345],[-60.8555,-17.1999,265.382],[-60.8565,-17.1963,272.1012],[-60.8428,-17.1907,265.6846],[-60.8417,-17.185,265.4493],[-60.8452,-17.1794,265.5621],[-60.8402,-17.1764,266.5414],[-60.8347,-17.1785,268.3986],[-60.8263,-17.1773,268.6945],[-60.8226,-17.1806,268.2113],[-60.8177,-17.1774,267.2621],[-60.813,-17.1772,266.9366],[-60.8135,-17.1851,266.8912],[-60.8078,-17.1844,274.3374],[-60.8039,-17.1876,279.6552],[-60.7936,-17.1867,279.8526],[-60.7909,-17.1844,280.1656],[-60.7873,-17.1866,280.7999],[-60.7836,-17.1838,283.7529],[-60.7772,-17.1845,284.8271],[-60.7744,-17.187,284.402],[-60.7674,-17.1889,285.481],[-60.7568,-17.1979,291.0832],[-60.7456,-17.1975,293.1696],[-60.7422,-17.201,293.354],[-60.7329,-17.2046,296.1881],[-60.714,-17.2053,306.8098],[-60.7026,-17.2091,318.5821],[-60.6932,-17.2068,340.2697],[-60.6784,-17.2167,414.7617],[-60.6818,-17.2189,395.6425],[-60.6829,-17.2227,382.7112],[-60.6756,-17.2345,323.3349],[-60.6686,-17.2408,316.6008],[-60.6596,-17.2428,303.8132],[-60.6527,-17.2423,297.7799],[-60.6439,-17.248,294.5477],[-60.6382,-17.2571,284.4244],[-60.6199,-17.2587,278.3714],[-60.615,-17.2578,275.324],[-60.611,-17.2616,268.3105],[-60.6096,-17.2679,267.5635],[-60.6009,-17.2676,268.1596],[-60.5795,-17.2605,265.6284],[-60.5711,-17.2562,266.044],[-60.5684,-17.2531,267.2502],[-60.5737,-17.2472,266.1377],[-60.5728,-17.2402,271.9985],[-60.5708,-17.2366,272.8749],[-60.5664,-17.2369,281.3911],[-60.5674,-17.2347,269.5515],[-60.5647,-17.233,273.0641],[-60.5563,-17.237,275.7607],[-60.5533,-17.233,272.5775],[-60.5483,-17.2336,282.835],[-60.547,-17.2316,277.6913],[-60.5399,-17.2288,276.0175],[-60.5289,-17.2318,279.1474],[-60.5264,-17.2301,277.2469],[-60.5257,-17.2251,276.334],[-60.5178,-17.22,278.8726],[-60.5107,-17.2203,284.4126],[-60.5029,-17.2266,289.4294],[-60.4989,-17.2321,287.8107],[-60.489,-17.236,290.2935],[-60.4804,-17.2356,293.9515],[-60.474,-17.2313,306.1086],[-60.4623,-17.2344,312.8293],[-60.4566,-17.2291,320.2575],[-60.4472,-17.2264,352.0721],[-60.4448,-17.2219,327.2277],[-60.3846,-17.2096,341.2686],[-59.5202,-17.0091,216.325],[-59.5012,-16.4492,198.1128]]]]}}