{"type": "Feature","bbox": [-66.1596,-17.825,-65.9491,-17.5929],"geometry": {"type": "MultiPolygon","coordinates": [[[[-66.097,-17.8072,2250.4175],[-66.0853,-17.8115,2250.231],[-66.0827,-17.8138,2249.1265],[-66.0809,-17.8192,2241.7312],[-66.0776,-17.8187,2237.3896],[-66.0654,-17.825,2273.7603],[-66.0588,-17.8221,2269.9851],[-66.0522,-17.8123,2551.4958],[-66.0412,-17.8041,3304.8188],[-66.0446,-17.7947,3333.4456],[-66.0333,-17.7887,3224.2212],[-66.027,-17.7882,3437.6658],[-66.0261,-17.7868,3446.002],[-66.0314,-17.7829,3306.5918],[-66.0322,-17.7778,3254.3887],[-66.0273,-17.7708,3320.6367],[-66.0271,-17.7682,3288.1365],[-66.0291,-17.7624,3243.0256],[-66.0309,-17.7619,3231.6948],[-66.0348,-17.7556,3230.0562],[-66.0354,-17.7493,3295.5801],[-66.034,-17.7411,3347.4797],[-66.0306,-17.7366,3415.4011],[-66.0321,-17.7327,3407.0449],[-66.0312,-17.7295,3456.8909],[-66.0285,-17.7282,3457.9238],[-66.0209,-17.7289,3326.4136],[-66.0202,-17.7269,3315.8887],[-66.0191,-17.7178,3241.5234],[-66.0206,-17.7087,3205.3945],[-66.0194,-17.7039,3241.9417],[-66.0221,-17.6971,3173.4766],[-66.017,-17.6901,3055.6335],[-66.0184,-17.6862,2980.0344],[-66.0146,-17.686,2963.2322],[-66.0113,-17.6819,3018.1309],[-66.0017,-17.6879,3057.2224],[-65.9958,-17.6965,3180.8218],[-65.9931,-17.6976,3160.9282],[-65.9824,-17.6962,3079.5986],[-65.9782,-17.6975,3046.5635],[-65.97,-17.6911,2921.1196],[-65.962,-17.6881,2858.1116],[-65.9558,-17.6808,2806.6812],[-65.9527,-17.6801,2800.0234],[-65.9491,-17.6744,2771.1343],[-65.9512,-17.6624,2761.4453],[-65.9584,-17.6569,2770.4407],[-65.9552,-17.6494,2782.2344],[-65.9674,-17.6349,2782.2061],[-65.9737,-17.6323,2766.9519],[-65.9747,-17.6273,2755.8486],[-65.9731,-17.6233,2748.0081],[-65.965,-17.6186,2728.9199],[-65.9599,-17.6127,2718.0225],[-65.958,-17.6077,2713.4016],[-65.9743,-17.6063,2723.8479],[-65.9766,-17.6086,2724.6196],[-65.989,-17.6104,2736.0889],[-65.9925,-17.6032,2728.1968],[-66.015,-17.6066,2739.0601],[-66.0256,-17.6006,2733.3306],[-66.0363,-17.6002,2730.7173],[-66.0439,-17.5929,2716.4209],[-66.0469,-17.5983,2756.2749],[-66.0532,-17.6012,2828.8091],[-66.054,-17.5975,2781.5408],[-66.0564,-17.596,2806.7109],[-66.0697,-17.5971,2916.1926],[-66.0772,-17.5947,3184.2808],[-66.0834,-17.5968,3408.5483],[-66.0911,-17.603,3406.2561],[-66.0983,-17.603,3334.9067],[-66.1063,-17.6112,3266.3418],[-66.1108,-17.6116,3228.855],[-66.1124,-17.6148,3213.894],[-66.1154,-17.6151,3215.2224],[-66.1227,-17.6197,3273.0288],[-66.1301,-17.6146,3348.7212],[-66.1495,-17.6469,3178.0164],[-66.1538,-17.667,3319.782],[-66.1572,-17.6728,3369.9236],[-66.1564,-17.6764,3356.0862],[-66.1511,-17.6802,3337.6426],[-66.1571,-17.6805,3281.0588],[-66.1596,-17.6825,3133.552],[-66.1594,-17.6879,3152.2695],[-66.154,-17.6905,3110.5396],[-66.1477,-17.6974,3058.2944],[-66.1477,-17.6998,3037.0991],[-66.1525,-17.7075,3024.9775],[-66.1514,-17.7142,2968.3843],[-66.1466,-17.7188,2907.2466],[-66.1422,-17.7206,2904.4226],[-66.1419,-17.7272,2836.3406],[-66.1334,-17.7391,2706.9775],[-66.1307,-17.7398,2742.9004],[-66.1315,-17.743,2630.3572],[-66.1295,-17.7464,2609.3696],[-66.1307,-17.7501,2631.5659],[-66.1279,-17.7635,2477.9714],[-66.1282,-17.7796,2439.6252],[-66.1344,-17.7874,2329.6218],[-66.1392,-17.7887,2309.9971],[-66.1396,-17.7948,2304.9517],[-66.1299,-17.7957,2290.5356],[-66.122,-17.7933,2288.353],[-66.1184,-17.7957,2320.7122],[-66.1172,-17.7985,2321.4795],[-66.1101,-17.7982,2270.615],[-66.1089,-17.8012,2275.3367],[-66.0984,-17.8026,2257.498],[-66.097,-17.8072,2250.4175]]]]}
,"properties": {"GID_3": "BOL.2.10.4_2","GID_0": "BOL","country": "Bolivia","GID_1": "BOL.2_1","province": "Cochabamba","NL_NAME_1": "NA","GID_2": "BOL.2.10_2","county": "EstebanArze","NL_NAME_2": "NA","city": "Tarata","VARNAME_3": "NA","NL_NAME_3": "NA","TYPE_3": "District","ENGTYPE_3": "Distrito","CC_3": "NA","HASC_3": "NA","name": "Tarata.city","area_km2": 340.219,"hist_schema_id": "Elevation0-9000","hist_area_km2": {"2225": 0.4239,"2250": 0.7873,"2275": 0.9084,"2300": 0.7873,"2325": 0.9084,"2350": 0.6863,"2375": 0.8276,"2400": 1.1305,"2425": 1.0094,"2450": 1.3526,"2475": 1.4535,"2500": 1.1305,"2525": 1.2315,"2550": 1.2113,"2575": 1.292,"2600": 1.4738,"2625": 1.3324,"2650": 1.2113,"2675": 1.2113,"2700": 1.171,"2725": 6.1019,"2750": 10.608,"2775": 12.3649,"2800": 16.991,"2825": 14.8896,"2850": 13.8385,"2875": 11.6766,"2900": 11.9594,"2925": 10.6054,"2950": 10.0392,"2975": 10.0592,"3000": 11.2515,"3025": 10.9083,"3050": 11.5142,"3075": 11.8168,"3100": 11.0491,"3125": 10.2813,"3150": 11.0485,"3175": 11.0081,"3200": 12.5429,"3225": 12.3211,"3250": 12.563,"3275": 11.6946,"3300": 11.3511,"3325": 9.3314,"3350": 7.2107,"3375": 5.4939,"3400": 4.2215,"3425": 3.4337,"3450": 3.4539,"3475": 2.3228,"3500": 1.7573,"3525": 1.3129,"3550": 0.8887,"3575": 0.404,"3600": 0.2626,"3625": 0.0606,"3650": 0.0404}}}