{"type":"Feature","properties":{"GID_3":"BOL.8.11.1_2","GID_0":"BOL","country":"Bolivia","GID_1":"BOL.8_1","province":"SantaCruz","NL_NAME_1":"NA","GID_2":"BOL.8.11_2","county":"ObispoSantistéban","NL_NAME_2":"NA","city":"FernándezAlonso","VARNAME_3":"NA","NL_NAME_3":"NA","TYPE_3":"District","ENGTYPE_3":"Distrito","CC_3":"NA","HASC_3":"NA","name":"Fernández_Alonso.city"},
"geometry":{"type": "MultiPolygon","coordinates": [[[[-63.2196,-16.6949,223.8647],[-63.2254,-16.7393,224.5756],[-63.2381,-16.7623,225.3842],[-63.2788,-16.8144,229.0737],[-63.2784,-16.8111,228.3738],[-63.2813,-16.8045,227.9533],[-63.2803,-16.7995,228.022],[-63.2837,-16.7966,227.9833],[-63.2876,-16.8013,227.812],[-63.2966,-16.8007,226.1214],[-63.2988,-16.7983,227.4149],[-63.2964,-16.7962,226.456],[-63.2965,-16.7942,227.2495],[-63.3029,-16.7961,225.2317],[-63.3034,-16.7937,227.7694],[-63.3004,-16.7891,226.7342],[-63.3066,-16.7837,226.6458],[-63.3112,-16.7855,225.322],[-63.3103,-16.781,225.9863],[-63.3307,-16.7975,219.8844],[-63.3265,-16.8813,224.3854],[-63.3394,-16.9036,223.9767],[-63.3594,-16.9457,224.946],[-63.3574,-16.9505,227.3158],[-63.3506,-16.953,227.5992],[-63.3473,-16.9561,231.5311],[-63.3431,-16.9639,226.5828],[-63.3435,-16.97,227.4269],[-63.339,-16.9731,230.3363],[-63.3389,-16.9764,230.4299],[-63.3343,-16.9796,230.8362],[-63.3306,-16.9849,231.1036],[-63.3319,-16.9931,230.0487],[-63.3384,-16.9979,232.0058],[-63.3363,-17.0041,231.6753],[-63.331,-17.0075,232.6965],[-63.3284,-17.0134,233.4781],[-63.3316,-17.0258,235.1152],[-63.3021,-17.0254,233.843],[-63.3021,-17.0474,236.9903],[-63.2838,-17.0473,237.4007],[-63.1707,-17.0223,236.0259],[-63.1707,-16.9894,233.2194],[-63.1448,-16.9893,235.8739],[-63.1221,-16.9706,238.2375],[-63.0548,-16.9715,239.1194],[-63.0514,-16.9696,239.7656],[-63.0484,-16.9634,239.8423],[-63.0453,-16.9624,239.8505],[-63.0461,-16.9588,239.1103],[-63.055,-16.9514,239.4815],[-63.0586,-16.9559,239.0069],[-63.0675,-16.9566,239.1374],[-63.0725,-16.9602,239.4389],[-63.0785,-16.9609,238.5511],[-63.0752,-16.9566,238.3301],[-63.0632,-16.9532,238.5464],[-63.0668,-16.9485,238.1295],[-63.0621,-16.9462,239.834],[-63.0636,-16.9451,237.5297],[-63.0643,-16.9394,242.7511],[-63.0681,-16.9416,237.5286],[-63.0747,-16.9405,238.4177],[-63.0747,-16.936,237.9441],[-63.0836,-16.9325,237.2288],[-63.0869,-16.9219,237.0317],[-63.0792,-16.9239,236.9812],[-63.0699,-16.9296,237.1238],[-63.0642,-16.9269,238.0122],[-63.0621,-16.92,237.5655],[-63.0637,-16.9176,237.8359],[-63.0682,-16.9184,238.2794],[-63.0717,-16.9144,236.1334],[-63.0768,-16.9148,236.3174],[-63.0776,-16.912,236.1531],[-63.076,-16.9079,236.1905],[-63.0786,-16.8993,236.0388],[-63.0826,-16.8994,236.4758],[-63.0894,-16.9048,236.3143],[-63.096,-16.8996,236.3253],[-63.0972,-16.8957,235.066],[-63.0973,-16.8924,235.4395],[-63.093,-16.8846,234.5561],[-63.0877,-16.8791,234.9813],[-63.0885,-16.8653,233.3934],[-63.0848,-16.8612,238.2157],[-63.0872,-16.8553,233.7566],[-63.0869,-16.8506,232.6261],[-63.0843,-16.845,232.3255],[-63.0861,-16.8375,232.499],[-63.0843,-16.8353,232.3563],[-63.0781,-16.8343,233.5645],[-63.0723,-16.8263,234.4907],[-63.0795,-16.8094,235.4856],[-63.082,-16.8073,235.4034],[-63.0935,-16.8061,235.3358],[-63.0973,-16.8091,235.2463],[-63.0978,-16.8033,235.0317],[-63.1047,-16.7985,232.7372],[-63.1072,-16.8023,232.4737],[-63.1097,-16.8027,231.5255],[-63.1116,-16.7996,231.6202],[-63.108,-16.7934,229.7864],[-63.1088,-16.7892,230.2914],[-63.1132,-16.7901,231.2063],[-63.1172,-16.7836,231.3569],[-63.1198,-16.7835,231.4237],[-63.1223,-16.7863,230.11],[-63.1188,-16.7892,230.7795],[-63.1183,-16.7917,231.8277],[-63.1211,-16.7935,230.422],[-63.1262,-16.788,229.0764],[-63.1261,-16.7853,228.9053],[-63.1225,-16.7799,228.6674],[-63.1236,-16.7778,228.7168],[-63.1363,-16.7776,228.7787],[-63.1391,-16.7761,228.6486],[-63.1405,-16.7697,228.3339],[-63.1384,-16.7585,227.2459],[-63.1409,-16.7573,227.9553],[-63.1487,-16.7601,229.4883],[-63.153,-16.7538,228.6065],[-63.1453,-16.7496,229.0001],[-63.1407,-16.7441,226.3271],[-63.1426,-16.7429,226.3634],[-63.1495,-16.7436,226.2036],[-63.1588,-16.7398,228.3863],[-63.1579,-16.7372,226.9726],[-63.1493,-16.7359,228.2396],[-63.1475,-16.7334,227.5323],[-63.1549,-16.7258,227.0411],[-63.1616,-16.7228,229.357],[-63.1617,-16.72,228.4801],[-63.1576,-16.7153,225.8766],[-63.1624,-16.713,225.3357],[-63.1646,-16.7072,224.8574],[-63.1736,-16.7069,224.1638],[-63.1792,-16.7031,223.7973],[-63.1764,-16.7001,225.5284],[-63.1775,-16.6984,224.9492],[-63.185,-16.6949,224.2405],[-63.1895,-16.6953,223.7998],[-63.1925,-16.6982,224.4611],[-63.1968,-16.6973,223.9988],[-63.2071,-16.7001,223.9425],[-63.2071,-16.6914,224.7704],[-63.2095,-16.6893,222.935],[-63.2196,-16.6949,223.8647]]]]}}