{"type": "Feature","bbox": [-69.2311,-16.2256,-68.9687,-15.9547],"geometry": {"type": "MultiPolygon","coordinates": [[[[-68.9852,-16.16,4222.374],[-68.9759,-16.1589,4043.5078],[-68.9687,-16.1549,3864.2913],[-68.9744,-16.1497,3808.5],[-68.9759,-16.141,3808.5],[-68.9911,-16.1284,3818.5303],[-68.9961,-16.1276,3809.4812],[-69.0066,-16.1202,3810.981],[-69.0075,-16.1166,3828.6475],[-69.0115,-16.1132,3815.0747],[-69.0391,-16.1008,3817.0854],[-69.0454,-16.1007,3818.1104],[-69.0463,-16.0982,3813.865],[-69.0503,-16.0954,3808.5],[-69.0553,-16.0966,3818.3845],[-69.0573,-16.0933,3836.8948],[-69.0759,-16.0898,3850.5044],[-69.0886,-16.0769,3808.5],[-69.0919,-16.0766,3828.4285],[-69.0933,-16.0739,3808.5],[-69.0969,-16.0737,3823.8831],[-69.0982,-16.0708,3831.6453],[-69.1057,-16.0661,3808.5],[-69.1097,-16.0673,3810.6018],[-69.1095,-16.0646,3808.5],[-69.1129,-16.0643,3809.3223],[-69.1132,-16.0613,3808.5],[-69.1242,-16.0594,3808.5],[-69.1326,-16.0559,3820.8223],[-69.1285,-16.0638,3835.9514],[-69.1296,-16.0664,3808.5],[-69.1251,-16.0706,3814.0068],[-69.125,-16.0733,3808.5],[-69.1216,-16.0733,3833.9937],[-69.1208,-16.0781,3808.5],[-69.1171,-16.081,3818.4197],[-69.1118,-16.0903,3819.7104],[-69.1118,-16.0947,3811.6938],[-69.1196,-16.0907,3813.627],[-69.1356,-16.0775,3808.5],[-69.1328,-16.0808,3808.5],[-69.1293,-16.0829,3808.5],[-69.1236,-16.0894,3837.4651],[-69.1165,-16.0948,3840.436],[-69.1151,-16.0973,3812.6694],[-69.1055,-16.1016,3808.5],[-69.1026,-16.1016,3808.5],[-69.1,-16.0993,3813.271],[-69.0986,-16.1007,3810.1838],[-69.1012,-16.1031,3808.5],[-69.098,-16.1042,3810.8015],[-69.0973,-16.1007,3810.3101],[-69.0929,-16.1023,3811.9297],[-69.0919,-16.1054,3809.7646],[-69.0936,-16.1068,3828.9199],[-69.0955,-16.1061,3808.5],[-69.0956,-16.1084,3896.8003],[-69.0906,-16.1142,3828.8665],[-69.0849,-16.1174,3863.6812],[-69.0826,-16.1249,3812.3147],[-69.0855,-16.129,3812.5132],[-69.091,-16.1267,3838.3704],[-69.0938,-16.13,3852.5903],[-69.0924,-16.1316,3808.5],[-69.0896,-16.1314,3846.0645],[-69.0824,-16.1397,3808.5],[-69.0789,-16.1399,3814.2512],[-69.0773,-16.1454,3813.3164],[-69.0749,-16.1471,3812.8804],[-69.0777,-16.1545,3811.249],[-69.0832,-16.1591,3810.3054],[-69.0871,-16.1579,3808.5],[-69.093,-16.1598,3852.3247],[-69.0935,-16.1629,3880.5659],[-69.09,-16.1672,3808.5],[-69.0986,-16.1782,3818.4102],[-69.1197,-16.1816,3845.3311],[-69.1235,-16.1855,3837.3899],[-69.1268,-16.1979,3808.5],[-69.1256,-16.2005,3809.4258],[-69.1238,-16.2006,3808.5],[-69.1205,-16.1946,3809.6721],[-69.116,-16.1969,3810.2488],[-69.1081,-16.1979,3812.3264],[-69.1053,-16.2033,3825.6035],[-69.1068,-16.2067,3808.5],[-69.0984,-16.2072,3809.8789],[-69.0967,-16.2116,3808.5],[-69.0932,-16.2148,3811.1553],[-69.0946,-16.2156,3809.9561],[-69.0952,-16.2198,3811.9817],[-69.1024,-16.2256,3808.5],[-69.0959,-16.2256,3858.1189],[-69.0783,-16.2209,3956.9385],[-69.0622,-16.2074,4099.5327],[-69.0555,-16.1982,4368.2241],[-69.0276,-16.2098,4154.3306],[-69.0207,-16.2149,4000.1455],[-69.0171,-16.2231,3928.9167],[-69.0086,-16.2196,3979.8516],[-69.0052,-16.2057,4079.8787],[-68.9989,-16.1997,4089.7505],[-68.9896,-16.1962,3835.1052],[-68.985,-16.1914,3971.4033],[-68.9789,-16.19,3984.0713],[-68.9759,-16.1925,4012.04],[-68.9745,-16.1867,4104.1729],[-68.9757,-16.179,4243.0537],[-68.9852,-16.1628,4242.147],[-68.9852,-16.16,4222.374]]],
[[[-69.1376,-16.0498,3808.5005],[-69.1385,-16.0496,3808.5005],[-69.1385,-16.0511,3808.5005],[-69.1374,-16.0512,3808.5005],[-69.1376,-16.0498,3808.5005]]],
[[[-69.0685,-16.0387,3811.1125],[-69.0818,-16.0317,3808.5],[-69.081,-16.0348,3808.5],[-69.071,-16.0448,3808.5],[-69.0651,-16.0455,3814.6396],[-69.0613,-16.048,3808.5],[-69.0647,-16.0418,3815.4077],[-69.0685,-16.0387,3811.1125]]],
[[[-69.1926,-15.9816,3808.5],[-69.1941,-15.981,3808.5],[-69.1922,-15.9854,3815.4036],[-69.1923,-15.9892,3899.3792],[-69.1937,-15.9906,3824.4111],[-69.2005,-15.989,3817.7588],[-69.2005,-15.9869,3808.5],[-69.2023,-15.9858,3808.5],[-69.2041,-15.987,3833.4985],[-69.2107,-15.9848,3819.0989],[-69.2143,-15.9882,3808.5],[-69.2107,-15.9929,3821.3962],[-69.2056,-15.9908,3827.968],[-69.2031,-15.9914,3808.5],[-69.2021,-15.9939,3832.2041],[-69.1974,-15.9965,3810.0002],[-69.197,-15.9996,3808.5],[-69.1898,-16.0071,3836.4155],[-69.1899,-16.0094,3823.0776],[-69.1925,-16.0124,3813.5315],[-69.2013,-16.0065,3835.178],[-69.2018,-16.0085,3847.5896],[-69.1867,-16.0328,3810.146],[-69.1741,-16.04,3869.9434],[-69.171,-16.0498,3808.5],[-69.1627,-16.0564,3808.5],[-69.1647,-16.0519,3811.3472],[-69.1692,-16.0451,3836.4463],[-69.1715,-16.0371,3808.5],[-69.1756,-16.0317,3808.5],[-69.1727,-16.0291,3819.3662],[-69.1655,-16.033,3828.0737],[-69.1638,-16.036,3814.9265],[-69.162,-16.036,3814.9265],[-69.1615,-16.0385,3808.5],[-69.1583,-16.0375,3846.9553],[-69.1578,-16.0399,3808.5],[-69.1532,-16.0397,3826.8376],[-69.1531,-16.0434,3811.3887],[-69.1479,-16.0462,3854.4456],[-69.1451,-16.0529,3878.2798],[-69.141,-16.0526,3808.5],[-69.1436,-16.0482,3851.7642],[-69.1418,-16.0435,3847.6553],[-69.1447,-16.0338,3808.5],[-69.1431,-16.0288,3808.5],[-69.1453,-16.0257,3808.5],[-69.1442,-16.0236,3810.165],[-69.1509,-16.02,3857.1978],[-69.1569,-16.0192,3808.5],[-69.1576,-16.017,3808.5],[-69.1549,-16.0137,3808.5],[-69.1569,-16.0093,3808.5],[-69.162,-16.0045,3808.5],[-69.1625,-16.0079,3816.3752],[-69.1663,-16.0094,3818.5774],[-69.1687,-16.0129,3809.1682],[-69.1741,-16.0105,3808.5],[-69.1737,-16.0088,3808.5],[-69.1809,-16.0014,3856.3457],[-69.1815,-15.9972,3808.5],[-69.1775,-15.9953,3810.7046],[-69.176,-15.9969,3809.8682],[-69.1707,-15.9976,3818.2734],[-69.1683,-15.9968,3813.437],[-69.1691,-15.9945,3811.2451],[-69.1739,-15.9921,3815.3206],[-69.1757,-15.9893,3808.5],[-69.1783,-15.9907,3822.5833],[-69.1796,-15.9897,3822.5833],[-69.1814,-15.9956,3815.5894],[-69.1831,-15.9971,3813.0693],[-69.1857,-15.9967,3839.0002],[-69.1891,-15.9927,3817.8167],[-69.1863,-15.9886,3808.5],[-69.1911,-15.986,3815.4036],[-69.1926,-15.9816,3808.5]]],
[[[-69.1764,-15.9864,3808.5],[-69.1778,-15.9848,3809.7791],[-69.1785,-15.9852,3808.5],[-69.1761,-15.9874,3808.5],[-69.1764,-15.9864,3808.5]]],
[[[-69.2241,-15.994,3809.8613],[-69.2161,-15.9985,3808.5],[-69.2143,-15.9978,3809.9272],[-69.2204,-15.9949,3818.3391],[-69.2241,-15.994,3809.8613]]],
[[[-69.1897,-15.9777,3808.5],[-69.1899,-15.9771,3808.5],[-69.1922,-15.9758,3808.5],[-69.191,-15.9784,3808.5],[-69.1897,-15.9777,3808.5]]],
[[[-69.2076,-15.9685,3812.9512],[-69.208,-15.9702,3812.8691],[-69.2075,-15.9711,3812.8691],[-69.2063,-15.9698,3808.5],[-69.2076,-15.9685,3812.9512]]],
[[[-69.2308,-15.9673,3816.4036],[-69.2296,-15.9686,3808.5],[-69.2288,-15.9685,3808.5],[-69.2311,-15.9664,3816.4036],[-69.2308,-15.9673,3816.4036]]],
[[[-69.2166,-15.9583,3808.5],[-69.2154,-15.9579,3810.6445],[-69.2177,-15.9547,3809.3328],[-69.2182,-15.9563,3809.4216],[-69.2166,-15.9583,3808.5]]]]}
,"properties": {"GID_3": "BOL.4.15.1_2","GID_0": "BOL","country": "Bolivia","GID_1": "BOL.4_1","province": "LaPaz","NL_NAME_1": "NA","GID_2": "BOL.4.15_2","county": "MancoKapac","NL_NAME_2": "NA","city": "Copacabana","VARNAME_3": "NA","NL_NAME_3": "NA","TYPE_3": "District","ENGTYPE_3": "Distrito","CC_3": "NA","HASC_3": "NA","name": "Copacabana.city","area_km2": 178.9637,"hist_schema_id": "Elevation0-9000","hist_area_km2": {"3800": 4.97,"3825": 16.0499,"3850": 12.9741,"3875": 13.8501,"3900": 13.3613,"3925": 12.4856,"3950": 11.5282,"3975": 11.7116,"4000": 10.2652,"4025": 10.5294,"4050": 8.8389,"4075": 8.085,"4100": 7.0462,"4125": 6.3742,"4150": 6.7001,"4175": 5.9058,"4200": 5.0302,"4225": 4.1952,"4250": 2.5457,"4275": 1.9959,"4300": 1.5682,"4325": 1.67,"4350": 0.7332,"4375": 0.4684,"4400": 0.0815}}}