{"type":"Feature","properties":{"GID_1":"BOL.7_1","GID_0":"BOL","country":"Bolivia","province":"Potosí","VARNAME_1":"NA","NL_NAME_1":"NA","TYPE_1":"Departamento","ENGTYPE_1":"Department","CC_1":"NA","HASC_1":"BO.PO","ISO_1":"NA","name":"Potosí.province"},
"geometry":{"type": "MultiPolygon","coordinates": [[[[-66.973,-22.5407,5662.9902],[-66.9286,-22.4922,5461.8984],[-66.8018,-22.4473,5411.3286],[-66.7825,-22.4381,5205.3647],[-66.7852,-22.4239,5081.1465],[-66.7843,-22.4018,4801.4185],[-66.7616,-22.3459,4746.0044],[-66.7596,-22.3254,4941.3848],[-66.7393,-22.2385,5383.7012],[-66.6862,-22.2095,5405.8691],[-66.6525,-22.2164,5471.3237],[-66.6383,-22.2255,5212.9263],[-66.6232,-22.1974,5491.1973],[-66.4184,-22.146,3815.9722],[-66.357,-22.1322,3606.4539],[-66.3455,-22.1276,3652.9553],[-66.3494,-22.1232,3556.1672],[-66.3475,-22.1196,3534.0767],[-66.3431,-22.1195,3556.6499],[-66.3399,-22.1168,3519.8667],[-66.3365,-22.1201,3606.2793],[-66.332,-22.1188,3552.6555],[-66.3317,-22.1118,3521.6902],[-66.328,-22.1093,3518.6331],[-66.3284,-22.103,3581.7397],[-66.3231,-22.0964,3522.5803],[-66.3227,-22.092,3508.2588],[-66.3252,-22.0876,3573.9341],[-66.3205,-22.0844,3596.9226],[-66.3175,-22.0839,3577.8074],[-66.3167,-22.0883,3489.1155],[-66.3142,-22.0882,3501.3638],[-66.3125,-22.0913,3534.252],[-66.3105,-22.0912,3512.3313],[-66.3083,-22.0938,3508.2122],[-66.3005,-22.0894,3550.095],[-66.2956,-22.0897,3493.8521],[-66.2895,-22.087,3502.3027],[-66.2877,-22.0826,3482.6445],[-66.2901,-22.0798,3487.8123],[-66.2907,-22.0742,3474.594],[-66.2853,-22.0702,3498.9036],[-66.2846,-22.0677,3474.769],[-66.2893,-22.067,3464.4104],[-66.2934,-22.0625,3508.355],[-66.2834,-22.0497,3445.9502],[-66.2872,-22.0482,3451.2432],[-66.291,-22.0515,3440.7183],[-66.2914,-22.0488,3490.4541],[-66.2858,-22.0411,3437.0757],[-66.2911,-22.0379,3492.2795],[-66.2921,-22.0342,3432.9673],[-66.2896,-22.0305,3439.3669],[-66.2839,-22.0302,3426.4402],[-66.2834,-22.0258,3427.196],[-66.2793,-22.025,3423.1772],[-66.2777,-22.0231,3422.3027],[-66.2819,-22.0146,3418.2239],[-66.2793,-22.0084,3414.8669],[-66.2795,-21.9929,3407.9375],[-66.2832,-21.989,3425.5085],[-66.2839,-21.9851,3455.6816],[-66.2829,-21.9815,3419.2654],[-66.2765,-21.9777,3402.1855],[-66.278,-21.9738,3398.6868],[-66.2773,-21.9703,3405.8455],[-66.275,-21.9671,3418.4807],[-66.2717,-21.9664,3453.0725],[-66.2744,-21.9644,3462.1331],[-66.2751,-21.961,3432.8105],[-66.2728,-21.9545,3428.0708],[-66.2747,-21.951,3461.8052],[-66.2728,-21.9466,3397.1746],[-66.2748,-21.9441,3402.9377],[-66.2705,-21.942,3384.9424],[-66.2673,-21.9354,3379.4583],[-66.2626,-21.9357,3374.4751],[-66.2613,-21.9338,3372.3154],[-66.2639,-21.9298,3370.1921],[-66.2583,-21.9165,3363.0439],[-66.2601,-21.9057,3359.8027],[-66.2488,-21.8963,3349.4504],[-66.2512,-21.8902,3362.7061],[-66.2468,-21.8859,3360.8044],[-66.2483,-21.8771,3419.0132],[-66.2441,-21.8734,3337.4739],[-66.2411,-21.8652,3332.968],[-66.2403,-21.8564,3340.9072],[-66.2354,-21.8508,3328.9573],[-66.2391,-21.8449,3322.7383],[-66.2386,-21.8401,3330.0759],[-66.2419,-21.8327,3338.0071],[-66.237,-21.8176,3340.7913],[-66.2428,-21.7937,3330.5073],[-66.2413,-21.7888,3321.853],[-66.2394,-21.7877,3302.1089],[-66.225,-21.7878,3301.6736],[-66.2215,-21.7814,3290.4209],[-66.2189,-21.784,3343.3345],[-66.1942,-21.796,3949.6992],[-66.0763,-21.835,3975.5593],[-66.0433,-21.8719,3907.5703],[-66.0482,-21.919,3845.2305],[-65.9248,-21.9336,3812.1418],[-65.8048,-22.0753,3745.5693],[-65.7942,-22.0747,3679.1445],[-65.7884,-22.0817,3657.9133],[-65.7856,-22.0819,3655.1511],[-65.7833,-22.0869,3653.1758],[-65.7806,-22.0868,3655.0703],[-65.7785,-22.0887,3645.6323],[-65.7757,-22.0937,3624.4985],[-65.7623,-22.101,3601.1194],[-65.7565,-22.1016,3577.5276],[-65.7534,-22.1061,3586.1995],[-65.748,-22.1092,3551.5906],[-65.7348,-22.1091,3533.2097],[-65.7252,-22.1069,3525.9326],[-65.7157,-22.0972,3520.1436],[-65.7086,-22.0995,3508.6392],[-65.7047,-22.0987,3506.4336],[-65.6936,-22.1028,3510.2888],[-65.6856,-22.1095,3493.0444],[-65.6762,-22.1117,3485.688],[-65.6555,-22.1108,3473.3157],[-65.6513,-22.1053,3478.02],[-65.6391,-22.1069,3463.7944],[-65.633,-22.1034,3458.8999],[-65.6274,-22.1035,3454.0273],[-65.6195,-22.0966,3444.1899],[-65.6144,-22.0981,3445.7671],[-65.6125,-22.0954,3441.3469],[-65.6064,-22.0946,3438.1021],[-65.6029,-22.0977,3433.3774],[-65.5928,-22.0959,3426.7615],[-65.5912,-22.0989,3424.0322],[-65.5894,-22.0987,3417.5635],[-65.5823,-22.094,3417.3789],[-65.5824,-22.0913,3412.4897],[-65.5849,-22.0909,3409.2656],[-65.583,-22.0896,3412.4385],[-65.5841,-22.0885,3428.1509],[-65.5816,-22.0884,3407.2805],[-65.5834,-22.0847,3444.5518],[-65.5816,-22.0848,3394.4619],[-65.5809,-22.0806,3388.0408],[-65.5792,-22.0807,3428.6997],[-65.5791,-22.0784,3396.2998],[-65.5749,-22.0755,3380.2271],[-65.4848,-22.0955,3513.0547],[-65.4766,-22.0927,3377.5139],[-65.4735,-22.0887,3301.0796],[-65.1866,-22.0853,4400.9966],[-65.1916,-22.077,4470.647],[-65.1809,-22.0242,4482.166],[-65.1807,-22.0194,4307.291],[-65.185,-22.0131,4154.6577],[-65.2007,-22.0117,3875.4141],[-65.2042,-22.0061,3801.3643],[-65.2168,-21.9959,3709.1638],[-65.2351,-21.9907,3675.0334],[-65.2424,-21.9849,3658.6125],[-65.2468,-21.979,3660.2021],[-65.2618,-21.9712,3631.5239],[-65.2673,-21.9702,3623.9983],[-65.2761,-21.9711,3615.9539],[-65.2988,-21.9782,3594.303],[-65.3136,-21.975,3573.8308],[-65.3232,-21.9691,3558.7397],[-65.3362,-21.9648,3532.9614],[-65.3517,-21.9541,3457.3469],[-65.3559,-21.949,3416.3037],[-65.3657,-21.9436,3349.6743],[-65.3693,-21.9438,3335.7925],[-65.3825,-21.9331,3197.7769],[-65.3871,-21.933,3175.3579],[-65.3927,-21.9292,3139.7629],[-65.3973,-21.9235,3058.4214],[-65.4086,-21.9156,2922.0613],[-65.4117,-21.9055,2894.811],[-65.4172,-21.897,2775.843],[-65.4199,-21.8956,2739.3586],[-65.4154,-21.8893,2732.8323],[-65.4162,-21.8819,2727.675],[-65.4106,-21.8832,2708.7297],[-65.4018,-21.8822,2697.8809],[-65.3967,-21.8793,2723.4146],[-65.396,-21.8773,2778.7407],[-65.3984,-21.8745,2785.9678],[-65.3949,-21.8738,2717.7075],[-65.3926,-21.8679,2665.2139],[-65.3931,-21.8644,2716.5781],[-65.3895,-21.8619,2659.5488],[-65.3911,-21.8478,2649.1033],[-65.3895,-21.8415,2623.7158],[-65.3848,-21.8418,2628.7268],[-65.382,-21.8367,2620.407],[-65.3785,-21.8356,2620.1824],[-65.3737,-21.8374,2616.5615],[-65.3719,-21.8404,2642.3806],[-65.3651,-21.8403,2620.8188],[-65.3622,-21.8378,2717.8096],[-65.3572,-21.8395,2604.9497],[-65.3546,-21.8376,2603.8655],[-65.3539,-21.833,2600.7329],[-65.3481,-21.8263,2596.6455],[-65.3492,-21.8196,2596.4907],[-65.3478,-21.8122,2605.4155],[-65.3361,-21.8057,2597.991],[-65.336,-21.8007,2589.7002],[-65.3335,-21.7947,2582.208],[-65.3339,-21.7892,2577.9509],[-65.3275,-21.7852,2573.0151],[-65.33,-21.7799,2570.6377],[-65.3295,-21.7768,2578.9033],[-65.3246,-21.769,2568.3276],[-65.32,-21.7671,2564.4768],[-65.3194,-21.7636,2562.5283],[-65.3233,-21.7604,2560.2612],[-65.3238,-21.7562,2558.6045],[-65.3154,-21.7466,2573.4553],[-65.3155,-21.7392,2550.7527],[-65.3129,-21.737,2548.7273],[-65.3146,-21.7336,2546.9495],[-65.3139,-21.7309,2567.2571],[-65.3023,-21.7333,2549.1851],[-65.294,-21.7331,2538.542],[-65.2926,-21.7318,2537.0181],[-65.2938,-21.7232,2532.9143],[-65.3002,-21.7214,2556.228],[-65.3011,-21.7197,2533.2515],[-65.3,-21.7154,2548.4985],[-65.3021,-21.7095,2530.3008],[-65.3072,-21.7077,2528.114],[-65.3073,-21.7052,2527.7896],[-65.3017,-21.6983,2522.2581],[-65.3043,-21.6887,2529.0259],[-65.3003,-21.6857,2517.0918],[-65.2971,-21.6761,2513.6123],[-65.2903,-21.6708,2509.2644],[-65.2856,-21.6702,2507.1499],[-65.2844,-21.6654,2507.0217],[-65.2801,-21.6663,2548.1836],[-65.277,-21.6642,2507.5381],[-65.2772,-21.6568,2499.7717],[-65.2729,-21.6559,2498.7012],[-65.2719,-21.6529,2549.9834],[-65.2795,-21.6491,2495.9863],[-65.2799,-21.6462,2506.5137],[-65.2758,-21.6444,2507.4822],[-65.27,-21.6445,2489.7666],[-65.2674,-21.6392,2510.3848],[-65.2628,-21.6366,2485.647],[-65.2616,-21.6304,2484.3284],[-65.2663,-21.6213,2482.7046],[-65.263,-21.6139,2481.2854],[-65.2643,-21.6095,2476.0337],[-65.2587,-21.6015,2472.3252],[-65.2538,-21.6005,2470.0491],[-65.2549,-21.5969,2468.4539],[-65.252,-21.5888,2468.8481],[-65.254,-21.583,2466.2932],[-65.25,-21.5807,2469.0437],[-65.2531,-21.5764,2461.1841],[-65.2451,-21.57,2490.6353],[-65.2467,-21.56,2453.0298],[-65.2452,-21.5534,2458.1062],[-65.2482,-21.5482,2451.437],[-65.2521,-21.5465,2485.6653],[-65.25,-21.5428,2466.7476],[-65.2458,-21.5414,2516.2964],[-65.2481,-21.5333,2476.4229],[-65.2448,-21.5299,2450.7974],[-65.2472,-21.5282,2445.6702],[-65.2448,-21.5226,2462.5806],[-65.248,-21.5229,2463.7192],[-65.2495,-21.5199,2437.8018],[-65.2523,-21.5205,2444.0991],[-65.2534,-21.519,2436.0022],[-65.2485,-21.5093,2453.5432],[-65.2462,-21.5081,2437.6118],[-65.2447,-21.5002,2431.2134],[-65.2472,-21.4959,2434.7263],[-65.2471,-21.4891,2428.7734],[-65.2501,-21.4845,2428.6731],[-65.2498,-21.4824,2428.1353],[-65.2552,-21.4806,2503.5874],[-65.2619,-21.4836,2554.5422],[-65.2621,-21.4861,2598.8479],[-65.265,-21.489,2619.3076],[-65.2717,-21.49,2688.8696],[-65.2751,-21.4929,2761.6831],[-65.2804,-21.4912,2806.7842],[-65.2848,-21.4939,2820.0566],[-65.2987,-21.4882,2948.043],[-65.3009,-21.4851,3064.1704],[-65.3057,-21.4834,3117.3125],[-65.3117,-21.4858,3213.9602],[-65.3201,-21.5173,3127.1672],[-65.3279,-21.5096,3458.0442],[-65.3534,-21.5008,3681.8813],[-65.3877,-21.5164,4305.3833],[-65.3999,-21.5058,4369.4316],[-65.402,-21.5002,4287.8125],[-65.4014,-21.4904,4292.8496],[-65.4057,-21.4847,4302.8057],[-65.4006,-21.4834,4258.396],[-65.3984,-21.4803,4337.1504],[-65.3988,-21.4768,4352.479],[-65.4011,-21.4738,4372.5366],[-65.4012,-21.4662,4322.1045],[-65.3985,-21.4549,4437.6606],[-65.3995,-21.4528,4415.9922],[-65.4047,-21.4514,4405.9082],[-65.4046,-21.4477,4281.9844],[-65.4091,-21.4387,4333.9629],[-65.4077,-21.4319,4236.2861],[-65.4371,-21.4265,4104.3428],[-65.4346,-21.413,3970.6499],[-65.436,-21.4097,3975.1194],[-65.4341,-21.4036,3963.8208],[-65.4349,-21.3972,3920.8831],[-65.4365,-21.3976,3933.8958],[-65.4377,-21.3959,3930.8193],[-65.4334,-21.3866,3766.4524],[-65.4349,-21.3821,3729.5959],[-65.4333,-21.3759,3604.5457],[-65.4338,-21.3694,3594.2188],[-65.4312,-21.3669,3602.2231],[-65.4294,-21.3614,3555.0664],[-65.4325,-21.3594,3685.2456],[-65.4332,-21.353,3859.4868],[-65.4361,-21.3525,3863.8125],[-65.437,-21.3417,3801.8887],[-65.4331,-21.3373,3816.7241],[-65.4341,-21.3332,3808.262],[-65.432,-21.3223,3899.2021],[-65.4304,-21.3217,3848.8218],[-65.4302,-21.3151,3849.5994],[-65.4333,-21.2989,3696.0059],[-65.4321,-21.2968,3694.7649],[-65.4333,-21.2891,3584.563],[-65.4318,-21.287,3571.2915],[-65.436,-21.2811,3567.3391],[-65.4337,-21.2597,3374.1416],[-65.4411,-21.2114,3838.0779],[-65.4413,-21.2009,3775.7478],[-65.4399,-21.1969,3725.8843],[-65.4411,-21.1954,3768.0469],[-65.4417,-21.1811,3908.97],[-65.4385,-21.1824,3960.5779],[-65.4318,-21.1778,3942.5588],[-65.4248,-21.1768,3928.1277],[-65.4183,-21.1707,3936.0757],[-65.4086,-21.1716,3868.573],[-65.4025,-21.1607,3888.894],[-65.4085,-21.1222,3654.9702],[-65.4186,-21.0958,3829.4209],[-65.4206,-21.0613,3535.1128],[-65.4086,-21.0266,3839.7803],[-65.3999,-21.0069,3275.8354],[-65.3983,-20.9701,4003.918],[-65.4011,-20.9471,3634.7896],[-65.3907,-20.8976,3887.2646],[-65.3947,-20.8921,3977.5422],[-65.3805,-20.8805,3880.3394],[-65.38,-20.8752,3880.5828],[-65.3778,-20.874,3877.4585],[-65.3758,-20.8691,3837.231],[-65.3685,-20.8679,3861.5679],[-65.3625,-20.8717,3807.1631],[-65.3597,-20.871,3733.1191],[-65.3579,-20.8729,3751.6401],[-65.354,-20.8733,3833.8445],[-65.3523,-20.8669,3837.4673],[-65.3462,-20.863,3824.95],[-65.3483,-20.8572,3802.7402],[-65.3478,-20.8542,3819.5054],[-65.3506,-20.8518,3800.061],[-65.3497,-20.8475,3645.3247],[-65.3508,-20.8435,3592.3984],[-65.3485,-20.839,3474.5984],[-65.3488,-20.8343,3501.6655],[-65.3468,-20.8324,3455.7747],[-65.3491,-20.8267,3446.6353],[-65.3492,-20.8213,3366.3145],[-65.3524,-20.8109,3378.9954],[-65.3586,-20.8052,3246.5415],[-65.3577,-20.8002,3209.9375],[-65.3644,-20.7918,3164.8086],[-65.3664,-20.7795,3058.2839],[-65.3715,-20.7722,3026.6504],[-65.3695,-20.7636,2900.0671],[-65.3723,-20.7586,2866.0586],[-65.3716,-20.7555,2883.8169],[-65.3763,-20.7512,3085.7471],[-65.3745,-20.7495,3071.4043],[-65.3753,-20.7467,3043.1899],[-65.3697,-20.7398,2984.5447],[-65.3688,-20.7365,2909.5471],[-65.3614,-20.7328,2628.8213],[-65.3607,-20.7299,2587.6116],[-65.3572,-20.7271,2464.522],[-65.358,-20.7146,2620.1113],[-65.3636,-20.7081,2675.8569],[-65.3638,-20.701,2701.106],[-65.3617,-20.6976,2817.0679],[-65.3644,-20.6881,2887.8032],[-65.3645,-20.6772,2929.1584],[-65.3632,-20.672,2935.7437],[-65.3584,-20.6674,2922.593],[-65.3575,-20.6579,2983.1628],[-65.3556,-20.6545,3025.4031],[-65.358,-20.6466,3162.4509],[-65.3564,-20.6451,3179.2402],[-65.356,-20.6398,3234.1887],[-65.3472,-20.6226,3270.6101],[-65.3497,-20.6145,3292.3145],[-65.3556,-20.6061,3354.4036],[-65.3546,-20.6023,3392.1157],[-65.3601,-20.5977,3383.7927],[-65.3642,-20.5989,3407.1902],[-65.3683,-20.5974,3449.7068],[-65.3824,-20.5817,3437.7498],[-65.3819,-20.5753,3435.7969],[-65.3878,-20.5576,3480.2957],[-65.3799,-20.5589,3401.7292],[-65.3501,-20.5484,3703.0786],[-65.3276,-20.5119,4125.4688],[-65.2686,-20.5047,4258.6191],[-65.2682,-20.4926,4264.1421],[-65.2699,-20.4888,4304.6987],[-65.2681,-20.4797,4369.5986],[-65.2728,-20.4716,4423.3979],[-65.2692,-20.463,4499.2988],[-65.2714,-20.4577,4600.0879],[-65.2645,-20.4511,4512.6152],[-65.2591,-20.4504,4627.522],[-65.2573,-20.4471,4534.043],[-65.2564,-20.4425,4455.2231],[-65.2612,-20.4368,4481.7686],[-65.2634,-20.4301,4518.5283],[-65.2624,-20.4238,4469.749],[-65.2555,-20.4235,4371.4453],[-65.2486,-20.4183,4508.877],[-65.2463,-20.4186,4604.5391],[-65.2435,-20.4151,4551.5391],[-65.2459,-20.4106,4563.8315],[-65.2456,-20.4079,4597.9146],[-65.248,-20.4056,4544.6025],[-65.2476,-20.3965,4417.9951],[-65.2491,-20.3903,4605.5859],[-65.2526,-20.3868,4712.9678],[-65.2507,-20.3829,4553.2896],[-65.2515,-20.3796,4595.0566],[-65.2463,-20.3752,4551.3438],[-65.2465,-20.3712,4625.2837],[-65.2443,-20.3675,4638.4326],[-65.2393,-20.3658,4662.626],[-65.2408,-20.3626,4684.5605],[-65.238,-20.3582,4594.6147],[-65.2285,-20.3516,4649.5479],[-65.2332,-20.3434,4698.4473],[-65.2313,-20.3327,4583.4419],[-65.2255,-20.3266,4490.082],[-65.2212,-20.3188,4405.6719],[-65.2218,-20.3138,4298.3262],[-65.2451,-20.2761,3890.3564],[-65.2654,-20.2575,3349.6147],[-65.2686,-20.2562,3351.2971],[-65.2796,-20.2398,3306.7556],[-65.2826,-20.2327,3313.9785],[-65.2921,-20.2297,3300.0962],[-65.3137,-20.2305,3273.7397],[-65.3157,-20.2251,3241.5127],[-65.3152,-20.2153,3223.9778],[-65.3121,-20.207,3267.9299],[-65.3161,-20.1976,3150.1018],[-65.3158,-20.1945,3222.2458],[-65.3016,-20.1778,3303.4182],[-65.2882,-20.1695,3338.8574],[-65.2844,-20.1702,3350.8457],[-65.2713,-20.1514,3692.8625],[-65.2643,-20.1576,3794.02],[-65.2571,-20.1586,3839.8633],[-65.235,-20.1464,3912.6953],[-65.2353,-20.1438,3945.9805],[-65.2326,-20.1405,3847.687],[-65.2337,-20.1305,3845.9136],[-65.239,-20.1163,3755.9841],[-65.2432,-20.1131,3818.1328],[-65.2495,-20.1034,3874.1794],[-65.256,-20.1024,3869.3892],[-65.2685,-20.0924,3637.4834],[-65.2722,-20.0795,3544.3652],[-65.2793,-20.0691,3690.886],[-65.283,-20.0597,3741.3374],[-65.283,-20.0522,3651.1572],[-65.2893,-20.0532,3517.741],[-65.2932,-20.0488,3597.71],[-65.3051,-20.0261,3658.866],[-65.305,-20.0093,3960.9019],[-65.2942,-20.0081,4053.9436],[-65.2938,-20.0066,4046.9976],[-65.2869,-20.0033,4096.2549],[-65.2827,-20.004,4002.3916],[-65.2774,-20.009,4068.627],[-65.2751,-20.0052,4104.2036],[-65.2703,-20.0039,4065.0259],[-65.2721,-19.9933,3667.9304],[-65.2683,-19.9916,3810.0811],[-65.2662,-19.9878,3966.1113],[-65.2442,-19.9702,3541.1184],[-65.2381,-19.9589,3525.375],[-65.2329,-19.9556,3520.9819],[-65.2313,-19.95,3547.4097],[-65.2278,-19.9481,3558.5803],[-65.223,-19.9413,3527.2742],[-65.2223,-19.9359,3454.5525],[-65.214,-19.9393,3435.1748],[-65.2033,-19.938,3377.0811],[-65.1709,-19.9956,3117.5181],[-65.1607,-20.0044,3023.3799],[-65.1542,-20.0074,3010.532],[-65.1522,-20.0124,3068.7227],[-65.1445,-20.0112,3183.7703],[-65.1281,-20.0152,3194.6909],[-65.1046,-20.0165,3425.6099],[-65.0906,-20.0094,2981.6787],[-65.088,-19.9917,3439.5605],[-65.0865,-19.9953,3410.9692],[-65.0822,-19.995,3253.4968],[-65.0746,-19.9899,3319.5662],[-65.0775,-19.9838,3184.0547],[-65.0772,-19.9799,3171.5229],[-65.0752,-19.9782,3201.9419],[-65.075,-19.9745,3198.3455],[-65.0714,-19.9671,3082.6882],[-65.0657,-19.9635,2920.2776],[-65.0658,-19.9591,2832.0356],[-65.062,-19.957,2713.2002],[-65.0598,-19.9533,2656.8198],[-65.0597,-19.9501,2728.5066],[-65.0632,-19.9492,2781.1162],[-65.0661,-19.9439,2925.4783],[-65.0696,-19.9423,3039.5317],[-65.0717,-19.9388,3031.769],[-65.0768,-19.9354,3379.7007],[-65.0816,-19.9348,3527.8118],[-65.0831,-19.9319,3543.6533],[-65.0775,-19.9183,3581.377],[-65.077,-19.9086,3570.1775],[-65.0745,-19.9009,3600.1602],[-65.0759,-19.8991,3626.022],[-65.0689,-19.8806,3728.3979],[-65.0692,-19.8748,3734.854],[-65.0648,-19.8707,3729.4229],[-65.0618,-19.8628,3766.8027],[-65.061,-19.844,3806.9539],[-65.0583,-19.8424,3754.0366],[-65.0559,-19.8333,3780.6357],[-65.057,-19.8277,3787.0271],[-65.0527,-19.8204,3768.0461],[-65.054,-19.8185,3772.1396],[-65.0525,-19.8062,3856.8101],[-65.0567,-19.7937,4050.1604],[-65.0398,-19.7968,3470.1328],[-65.0359,-19.7945,3419.4009],[-65.0302,-19.7946,3349.885],[-65.0263,-19.8025,3301.7449],[-65.0207,-19.8035,3247.7747],[-65.0117,-19.814,3195.8003],[-65.0092,-19.8132,3158.7395],[-65.004,-19.8283,3045.4231],[-65.0025,-19.8292,2999.4854],[-64.9988,-19.8278,3041.9568],[-64.9972,-19.8306,2982.5232],[-64.9958,-19.8303,2939.2603],[-64.996,-19.8329,2930.4097],[-64.995,-19.8323,2930.4097],[-64.9931,-19.8388,2936.4199],[-64.9908,-19.8405,2827.6597],[-64.9916,-19.8435,2824.8076],[-64.9902,-19.8433,2792.1492],[-64.9892,-19.8457,2787.5386],[-64.991,-19.8478,2811.5513],[-64.9909,-19.8533,2680.1462],[-64.9849,-19.8546,2673.4412],[-64.9831,-19.8534,2579.9663],[-64.9827,-19.855,2615.6438],[-64.9783,-19.8531,2493.3],[-64.9785,-19.8549,2581.1548],[-64.9599,-19.869,3102.9531],[-64.9416,-19.8765,3313.9204],[-64.9391,-19.8659,3176.5154],[-64.93,-19.8595,3099.5222],[-64.9311,-19.8565,3069.5205],[-64.928,-19.8438,3095.8179],[-64.9143,-19.8422,2504.4062],[-64.9133,-19.8452,2496.249],[-64.9159,-19.85,2513.3489],[-64.9155,-19.8548,2536.269],[-64.919,-19.86,2564.895],[-64.9191,-19.8636,2571.9878],[-64.9159,-19.8742,2604.5103],[-64.9073,-19.8896,2679.8154],[-64.9053,-19.8982,2718.4436],[-64.8969,-19.9088,2784.6509],[-64.8948,-19.9142,2853.54],[-64.8966,-19.9203,2952.3306],[-64.895,-19.9205,2903.0647],[-64.8931,-19.9247,2871.8418],[-64.897,-19.9339,2927.8477],[-64.8958,-19.9379,3021.7473],[-64.8969,-19.9458,3045.8499],[-64.8946,-19.9464,2978.5347],[-64.8947,-19.9495,2973.6565],[-64.8925,-19.9527,2994.9006],[-64.8929,-19.9571,3003.6992],[-64.8887,-19.9604,3017.5464],[-64.8908,-19.9636,3163.0134],[-64.8885,-19.9638,3131.1934],[-64.8888,-19.9654,3206.9746],[-64.886,-19.9665,3147.9858],[-64.8864,-19.9678,3147.9858],[-64.8829,-19.9671,3193.2188],[-64.8836,-19.968,3194.6624],[-64.8813,-19.9686,3293.0286],[-64.8788,-19.9724,3567.2283],[-64.8762,-19.9732,3698.1006],[-64.8718,-19.981,3902.4229],[-64.8665,-19.9781,3915.6594],[-64.8613,-19.9784,3838.6665],[-64.8589,-19.9745,3900.5332],[-64.8508,-19.9811,3677.7888],[-64.8472,-19.979,3636.0933],[-64.8466,-19.9713,3591.9067],[-64.8383,-19.9556,3466.7051],[-64.8373,-19.9474,3337.5239],[-64.8292,-19.9331,3074.3853],[-64.8236,-19.9308,3016.427],[-64.8198,-19.9313,2925.4607],[-64.8107,-19.9252,2760.4497],[-64.8105,-19.9228,2738.9587],[-64.8067,-19.9196,2732.8809],[-64.8056,-19.9123,2678.4563],[-64.795,-19.9028,2567.4629],[-64.7932,-19.8988,2556.3047],[-64.7927,-19.8885,2494.3577],[-64.7876,-19.8766,2428.3508],[-64.7891,-19.8693,2407.5056],[-64.784,-19.8607,2346.4116],[-64.7842,-19.8542,2315.4973],[-64.78,-19.8492,2277.7021],[-64.7765,-19.841,2231.5994],[-64.7665,-19.8269,2147.6675],[-64.7617,-19.8247,2140.792],[-64.7607,-19.819,2077.8853],[-64.7484,-19.8042,2009.8481],[-64.7393,-19.7898,1878.7915],[-64.7349,-19.7878,1876.0679],[-64.7243,-19.7879,1795.9656],[-64.7189,-19.7816,1793.5061],[-64.7144,-19.7796,1765.1559],[-64.7173,-19.776,1755.4457],[-64.725,-19.7732,1740.0579],[-64.7253,-19.7667,1744.8162],[-64.73,-19.7562,1756.5254],[-64.7273,-19.7514,1807.2106],[-64.7268,-19.7466,1768.514],[-64.7349,-19.7373,1775.313],[-64.736,-19.7228,1791.6591],[-64.7424,-19.7147,1804.1682],[-64.7418,-19.707,1806.9166],[-64.7454,-19.7038,1807.259],[-64.7512,-19.7035,1810.3943],[-64.7616,-19.6862,1827.5031],[-64.7671,-19.6841,1832.9176],[-64.7683,-19.6793,1856.8915],[-64.7733,-19.6737,1840.0593],[-64.7785,-19.6631,1849.5814],[-64.7879,-19.653,1869.2622],[-64.7877,-19.6453,1870.5852],[-64.7895,-19.641,1876.2666],[-64.787,-19.6332,1880.3654],[-64.8106,-19.6255,1895.0851],[-64.814,-19.6218,1898.5757],[-64.8179,-19.6097,1928.639],[-64.8216,-19.6082,1912.4763],[-64.8289,-19.61,1918.2722],[-64.8301,-19.6091,1918.2358],[-64.8301,-19.6027,1924.8765],[-64.8378,-19.5925,1932.1956],[-64.8428,-19.5896,1936.0613],[-64.84,-19.5754,1939.0532],[-64.8328,-19.5616,1942.6307],[-64.8312,-19.5432,1951.9473],[-64.8234,-19.5167,1959.645],[-64.8225,-19.5053,1976.5154],[-64.8184,-19.5013,1968.1802],[-64.823,-19.4895,1973.0533],[-64.8231,-19.4835,1976.516],[-64.8286,-19.4763,1981.5497],[-64.8345,-19.4737,1979.0474],[-64.8407,-19.4618,1992.2836],[-64.8403,-19.4551,1993.2524],[-64.8454,-19.4488,1993.0503],[-64.8487,-19.4333,1998.249],[-64.8518,-19.4288,2002.3387],[-64.85,-19.4229,2004.0898],[-64.8551,-19.4203,2006.5182],[-64.8525,-19.4148,2039.8025],[-64.8526,-19.4102,2019.5742],[-64.8657,-19.4063,2092.0315],[-64.8782,-19.3973,2036.8706],[-64.8893,-19.4022,2028.7224],[-64.8956,-19.3996,2029.8103],[-64.8976,-19.3921,2033.8276],[-64.8934,-19.3842,2038.3706],[-64.8935,-19.3801,2042.0404],[-64.8991,-19.3747,2044.7688],[-64.9098,-19.3702,2051.3027],[-64.9118,-19.3656,2053.8105],[-64.9112,-19.3587,2063.2651],[-64.9127,-19.3547,2067.5398],[-64.9182,-19.3566,2070.0952],[-64.9211,-19.3617,2063.6465],[-64.9293,-19.3627,2067.5198],[-64.9369,-19.3603,2070.5491],[-64.9417,-19.3567,2074.0588],[-64.9474,-19.3585,2075.7817],[-64.9588,-19.3562,2082.4536],[-64.9621,-19.3515,2085.0381],[-64.9704,-19.3468,2089.9685],[-64.9885,-19.3527,2099.4736],[-65.0041,-19.352,2111.1743],[-65.0158,-19.3569,2118.4124],[-65.0256,-19.3678,2127.4197],[-65.0368,-19.3696,2136.8943],[-65.0379,-19.3744,2182.9651],[-65.0443,-19.3773,2143.2754],[-65.044,-19.3813,2186.3455],[-65.0561,-19.3858,2161.3926],[-65.0667,-19.384,2167.2881],[-65.0712,-19.379,2187.0073],[-65.0817,-19.376,2271.2861],[-65.0822,-19.3711,2189.7349],[-65.0882,-19.3668,2191.9075],[-65.1022,-19.3731,2191.061],[-65.1104,-19.3733,2180.1309],[-65.1146,-19.3751,2192.1482],[-65.1219,-19.3741,2198.6995],[-65.1263,-19.3757,2191.2295],[-65.1318,-19.3745,2214.1709],[-65.141,-19.3781,2201.8481],[-65.1484,-19.3756,2215.2292],[-65.1532,-19.3759,2205.8167],[-65.1583,-19.3709,2207.009],[-65.1649,-19.3689,2210.8691],[-65.1668,-19.3629,2226.6221],[-65.175,-19.3557,2236.9968],[-65.1869,-19.3566,2224.2922],[-65.1973,-19.3529,2231.8508],[-65.2009,-19.3496,2233.9844],[-65.2168,-19.3427,2244.3372],[-65.2211,-19.3376,2260.272],[-65.222,-19.3293,2253.9768],[-65.2307,-19.3205,2261.645],[-65.2374,-19.3207,2264.4541],[-65.2417,-19.3184,2267.8213],[-65.2468,-19.3183,2271.6421],[-65.2539,-19.3144,2275.6885],[-65.2605,-19.3159,2281.1021],[-65.2647,-19.3151,2298.9866],[-65.2869,-19.3081,2304.0715],[-65.2946,-19.3085,2306.4736],[-65.301,-19.306,2311.6138],[-65.3092,-19.3066,2315.7986],[-65.3156,-19.3023,2323.2822],[-65.324,-19.2815,2343.522],[-65.3304,-19.2714,2355.2339],[-65.3386,-19.2711,2364.7354],[-65.3412,-19.2676,2368.7781],[-65.3453,-19.2671,2369.8853],[-65.3477,-19.265,2371.8745],[-65.3524,-19.2653,2374.2778],[-65.3611,-19.2628,2404.2793],[-65.3698,-19.2556,2397.4089],[-65.3728,-19.2469,2426.1362],[-65.3721,-19.2406,2435.2756],[-65.3796,-19.2323,2461.229],[-65.3831,-19.2261,2438.6387],[-65.3848,-19.2174,2449.4465],[-65.3933,-19.2037,2580.145],[-65.3886,-19.1914,2561.3887],[-65.3902,-19.1831,2518.5002],[-65.3896,-19.1767,2491.7451],[-65.4009,-19.161,2503.3757],[-65.4062,-19.1438,2592.9272],[-65.4106,-19.1406,2530.8875],[-65.4183,-19.1418,2540.4023],[-65.4249,-19.1376,2573.5396],[-65.4298,-19.1389,2571.6387],[-65.4314,-19.1374,2608.6145],[-65.4392,-19.1368,2575.0327],[-65.45,-19.1321,2589.77],[-65.4566,-19.1241,2578.4338],[-65.4699,-19.1226,2606.5259],[-65.4742,-19.1179,2650.8196],[-65.4783,-19.11,2610.3435],[-65.4845,-19.1042,2650.1956],[-65.487,-19.0964,2632.157],[-65.4967,-19.0892,2644.7886],[-65.5047,-19.0874,2675.29],[-65.5057,-19.0912,2834.657],[-65.5127,-19.0919,2722.7134],[-65.5177,-19.0964,2734.8066],[-65.522,-19.0939,3089.2],[-65.5219,-19.0919,3301.4326],[-65.528,-19.0862,3313.5127],[-65.5371,-19.087,3589.2112],[-65.546,-19.0818,3866.4858],[-65.5486,-19.0723,3915.3994],[-65.553,-19.0658,4014.5356],[-65.5574,-19.0646,4014.7822],[-65.5586,-19.0625,4101.5083],[-65.5572,-19.0608,4075.146],[-65.558,-19.0513,4024.5735],[-65.5609,-19.0427,3851.3345],[-65.567,-19.0324,3399.5759],[-65.5675,-19.0241,3799.3499],[-65.5836,-19.0056,3990.9253],[-65.5846,-19.0011,4034.5842],[-65.5873,-18.9977,3985.3894],[-65.5837,-18.9983,3962.1929],[-65.5779,-18.994,3538.8799],[-65.57,-18.9924,3265.6494],[-65.5596,-18.9871,3119.1101],[-65.5535,-18.9887,3146.6873],[-65.5524,-18.9863,3120.5837],[-65.5495,-18.9863,3137.1555],[-65.5459,-18.982,3042.4617],[-65.5324,-18.9765,3327.6309],[-65.5271,-18.9678,3428.0303],[-65.5245,-18.9579,3765.6387],[-65.5218,-18.9538,3781.0491],[-65.5192,-18.9513,3855.4001],[-65.5097,-18.9483,3919.3403],[-65.5082,-18.9453,3969.0781],[-65.5025,-18.9436,4024.6587],[-65.5015,-18.9424,3986.0576],[-65.5055,-18.9412,3966.4863],[-65.4994,-18.9378,3890.9668],[-65.4962,-18.9378,3810.1384],[-65.4889,-18.9311,3740.6489],[-65.4861,-18.9317,3690.9888],[-65.4849,-18.9277,3642.8804],[-65.4809,-18.9259,3613.3809],[-65.4681,-18.9233,3167.6887],[-65.4655,-18.9246,3137.9648],[-65.463,-18.9295,3093.9163],[-65.4603,-18.9304,3100.7603],[-65.4531,-18.9275,3391.186],[-65.4535,-18.925,3423.4414],[-65.4495,-18.921,3485.8193],[-65.441,-18.9185,3450.394],[-65.4366,-18.92,3466.2371],[-65.4287,-18.9293,3424.4543],[-65.4255,-18.9274,3270.0122],[-65.4245,-18.9303,3348.0122],[-65.4217,-18.9305,3470.8628],[-65.4138,-18.9454,3569.4976],[-65.4092,-18.9438,3394.4922],[-65.4059,-18.9392,3231.3921],[-65.403,-18.9281,3365.7393],[-65.4047,-18.9257,3345.3523],[-65.3978,-18.9196,3268.7573],[-65.4017,-18.9038,3071.3687],[-65.4049,-18.8994,3075.3],[-65.4072,-18.899,3065.0845],[-65.4096,-18.8935,3071.2634],[-65.4092,-18.8895,3062.9846],[-65.4117,-18.8888,3062.3101],[-65.4122,-18.8854,3111.5479],[-65.4146,-18.8862,3114.6113],[-65.4191,-18.8802,3110.6895],[-65.4242,-18.8789,3167.978],[-65.4206,-18.8767,3054.8047],[-65.4165,-18.865,2810.1558],[-65.4197,-18.8589,2908.616],[-65.421,-18.8522,3138.5305],[-65.4239,-18.8527,3169.7239],[-65.4287,-18.8372,3118.335],[-65.4378,-18.8344,3110.342],[-65.443,-18.8353,3217.1509],[-65.4438,-18.8332,3214.1279],[-65.4433,-18.8306,3203.4165],[-65.4374,-18.827,3147.3135],[-65.4343,-18.822,3179.2688],[-65.4384,-18.8143,3209.7202],[-65.4381,-18.8112,3207.9814],[-65.4318,-18.8094,3160.5637],[-65.4306,-18.8073,3148.4072],[-65.4314,-18.8041,3092.3359],[-65.4268,-18.7996,3108.9248],[-65.4278,-18.7957,3140.3052],[-65.4198,-18.7875,2845.2021],[-65.4176,-18.7789,2742.5383],[-65.4135,-18.7789,2736.1326],[-65.412,-18.7769,2867.8667],[-65.4059,-18.7749,3106.4707],[-65.4023,-18.7779,3063.2861],[-65.3911,-18.7949,2924.9033],[-65.3871,-18.7962,2993.0728],[-65.3857,-18.7929,2807.613],[-65.3866,-18.7876,2629.8718],[-65.3825,-18.7864,2625.1023],[-65.3835,-18.7849,2609.021],[-65.3808,-18.7826,2628.9883],[-65.3793,-18.7851,2611.8328],[-65.3749,-18.7839,2610.8281],[-65.3714,-18.7788,2625.0669],[-65.3673,-18.7813,2570.3308],[-65.3687,-18.785,2529.7356],[-65.3666,-18.7867,2544.5588],[-65.3663,-18.7903,2524.6719],[-65.363,-18.7886,2677.292],[-65.3597,-18.7892,2768.9541],[-65.3564,-18.7864,2936.6785],[-65.3601,-18.7827,2829.365],[-65.3594,-18.7803,2808.9114],[-65.3647,-18.7744,2782.3762],[-65.3675,-18.7749,2774.7642],[-65.3702,-18.7733,2798.4775],[-65.3749,-18.7748,2807.5999],[-65.3772,-18.7727,2852.3486],[-65.3829,-18.7718,2884.7769],[-65.3868,-18.7759,2958.3579],[-65.3898,-18.775,2962.8269],[-65.3956,-18.7777,2984.7825],[-65.4033,-18.7707,3133.4426],[-65.4074,-18.773,3103.4624],[-65.4226,-18.7611,3051.4189],[-65.4239,-18.7596,3025.9961],[-65.4226,-18.7569,3011.9446],[-65.4272,-18.7542,3062.1865],[-65.4269,-18.7511,3158.04],[-65.4292,-18.748,3143.7495],[-65.4255,-18.7445,3001.7109],[-65.4242,-18.738,3015.6565],[-65.4174,-18.7338,3150.2002],[-65.4188,-18.7291,3110.4304],[-65.4145,-18.7233,2916.0176],[-65.4138,-18.7186,2848.2913],[-65.4105,-18.7175,2854.2256],[-65.4114,-18.713,2797.2178],[-65.4064,-18.7103,2877.2373],[-65.4006,-18.702,3214.4971],[-65.4085,-18.6975,3133.179],[-65.4145,-18.6897,2967.7866],[-65.4145,-18.6812,2823.3855],[-65.4168,-18.6783,2772.3044],[-65.4163,-18.6747,2708.3074],[-65.4181,-18.6701,2819.0242],[-65.417,-18.6661,2944.2705],[-65.4191,-18.6632,2961.2759],[-65.4143,-18.6598,3078.6536],[-65.411,-18.6518,3430.4346],[-65.4074,-18.6526,3417.9937],[-65.4039,-18.6559,3501.9175],[-65.4028,-18.654,3508.468],[-65.4001,-18.6539,3541.2729],[-65.3933,-18.6562,3420.4197],[-65.3894,-18.6532,3312.062],[-65.3839,-18.6419,2968.9944],[-65.3813,-18.6408,3079.9919],[-65.3844,-18.6375,3039.687],[-65.3902,-18.6355,3111.2722],[-65.3921,-18.6282,3172.6379],[-65.4021,-18.6176,3292.4922],[-65.4073,-18.6136,3358.0581],[-65.4124,-18.613,3366.6899],[-65.4163,-18.6106,3467.9214],[-65.4216,-18.605,3463.8945],[-65.4277,-18.6034,3419.6694],[-65.4339,-18.6063,3239.8442],[-65.4357,-18.6099,3326.2544],[-65.434,-18.6131,3400.3181],[-65.4367,-18.616,3402.0913],[-65.4376,-18.6137,3413.2075],[-65.4476,-18.6064,3367.1211],[-65.4621,-18.606,3393.4568],[-65.4668,-18.5977,3254.9751],[-65.4751,-18.5967,3291.8386],[-65.4756,-18.5927,3188.4233],[-65.4811,-18.5928,3214.1667],[-65.486,-18.5908,3323.2373],[-65.4889,-18.5824,3240.8745],[-65.491,-18.5817,3260.5693],[-65.4912,-18.5792,3240.9565],[-65.4951,-18.5758,3168.6445],[-65.4945,-18.5692,3111.5698],[-65.5013,-18.564,3121.1328],[-65.5013,-18.5597,2900.9785],[-65.4965,-18.5495,2508.2432],[-65.4968,-18.5452,2471.9985],[-65.493,-18.5385,2403.7422],[-65.496,-18.5358,2370.0945],[-65.504,-18.5438,2754.7],[-65.5143,-18.5475,3106.551],[-65.516,-18.5393,3078.3982],[-65.5261,-18.5265,3173.7129],[-65.5299,-18.5274,3125.0896],[-65.5343,-18.5258,3112.9849],[-65.5558,-18.514,3194.489],[-65.5639,-18.5118,3169.2798],[-65.5757,-18.5018,3013.1187],[-65.5839,-18.4983,3059.1689],[-65.6115,-18.4966,2559.3684],[-65.6187,-18.5003,2173.3857],[-65.6238,-18.5011,2019.4591],[-65.6191,-18.4831,2001.6284],[-65.6221,-18.475,1994.6237],[-65.6241,-18.462,1982.4152],[-65.6447,-18.4454,1960.6649],[-65.6555,-18.4462,1952.5919],[-65.6662,-18.4368,1942.9995],[-65.6724,-18.4337,1938.0894],[-65.6773,-18.4293,1960.3517],[-65.6791,-18.4236,1935.824],[-65.6842,-18.4171,1932.6417],[-65.6818,-18.4114,1937.9431],[-65.6845,-18.4025,1915.7542],[-65.6835,-18.3872,1909.1609],[-65.6868,-18.3777,1895.6455],[-65.6955,-18.3663,1886.8212],[-65.6951,-18.3627,1936.2864],[-65.6926,-18.3599,1884.9517],[-65.6941,-18.3527,1876.2859],[-65.6793,-18.3473,1865.9178],[-65.674,-18.3474,1861.8728],[-65.6663,-18.3609,1848.9136],[-65.6582,-18.366,1841.1074],[-65.6457,-18.3671,1832.8097],[-65.6384,-18.3697,1828.2726],[-65.6343,-18.3739,1823.8198],[-65.6256,-18.3753,1817.8438],[-65.5908,-18.3748,1792.6907],[-65.5831,-18.3787,1786.6925],[-65.5782,-18.3851,1781.3303],[-65.5648,-18.3916,1772.0913],[-65.5559,-18.4005,1770.1282],[-65.549,-18.4008,1784.5863],[-65.5465,-18.4046,1803.4011],[-65.5419,-18.4009,1781.771],[-65.5368,-18.3993,1785.2249],[-65.5348,-18.3921,1820.9993],[-65.5293,-18.3916,1814.7253],[-65.5238,-18.3948,1866.5345],[-65.5188,-18.3929,1834.2195],[-65.5128,-18.3875,1770.8781],[-65.5064,-18.3868,1763.5132],[-65.5042,-18.3892,1749.5229],[-65.4976,-18.3919,1740.0111],[-65.4893,-18.4,1756.2048],[-65.4784,-18.4007,1725.6926],[-65.4647,-18.3987,1715.8174],[-65.4623,-18.4004,1716.2626],[-65.4602,-18.4058,1722.7964],[-65.4547,-18.4104,1707.6897],[-65.4481,-18.4053,1757.4253],[-65.4412,-18.4038,1761.8611],[-65.4328,-18.4096,1813.7432],[-65.4245,-18.4103,1729.9344],[-65.4203,-18.4151,1703.6501],[-65.4106,-18.4199,1719.618],[-65.4039,-18.4201,1699.3375],[-65.3996,-18.4256,1677.8394],[-65.3868,-18.4226,1707.7665],[-65.379,-18.4286,1670.6584],[-65.3722,-18.4303,1671.2372],[-65.3666,-18.4354,1718.9506],[-65.358,-18.4365,1726.9258],[-65.3506,-18.4322,1709.8578],[-65.3493,-18.421,1673.272],[-65.3457,-18.4179,1647.2909],[-65.3468,-18.4146,1654.1133],[-65.3536,-18.406,1661.5422],[-65.3736,-18.394,1684.6005],[-65.3789,-18.3877,1704.0751],[-65.4044,-18.3673,1693.5273],[-65.4201,-18.3625,1705.6411],[-65.4293,-18.3686,1696.4351],[-65.4394,-18.3651,1722.4659],[-65.4412,-18.3604,1768.9717],[-65.447,-18.3575,1703.0167],[-65.4486,-18.3539,1718.8066],[-65.4555,-18.3497,1717.7968],[-65.4575,-18.3453,1728.1353],[-65.4635,-18.3411,1710.02],[-65.4634,-18.3341,1714.0693],[-65.4713,-18.3253,1719.8892],[-65.475,-18.3147,1725.2544],[-65.4756,-18.3102,1733.2495],[-65.4729,-18.3047,1731.5],[-65.4792,-18.3019,1742.6536],[-65.4796,-18.2977,1756.9258],[-65.4771,-18.2944,1739.026],[-65.4785,-18.2932,1749.8292],[-65.4839,-18.2961,1759.8746],[-65.4883,-18.2916,1779.0781],[-65.4931,-18.2783,1832.5299],[-65.5012,-18.2689,1769.3945],[-65.5023,-18.2573,1768.9542],[-65.5154,-18.2522,1793.4277],[-65.5223,-18.2533,1824.6453],[-65.5268,-18.2454,1837.7555],[-65.5338,-18.2423,1823.3098],[-65.5355,-18.2467,1874.0958],[-65.5389,-18.2453,1819.754],[-65.5441,-18.2464,1798.1808],[-65.5495,-18.2376,1830.2416],[-65.5543,-18.2382,1896.2004],[-65.5613,-18.2342,1914.7911],[-65.5648,-18.2342,1924.8199],[-65.5716,-18.2225,1889.6047],[-65.5748,-18.2213,1879.1328],[-65.5789,-18.2156,1888.4664],[-65.5839,-18.2143,1870.7859],[-65.5846,-18.2079,1824.2145],[-65.5916,-18.2072,1821.4663],[-65.5937,-18.2058,1823.8125],[-65.594,-18.2036,1824.3665],[-65.5967,-18.2036,1824.3284],[-65.6001,-18.1879,1841.0876],[-65.6031,-18.185,1852.2755],[-65.6042,-18.1759,1891.7991],[-65.6126,-18.1696,1872.199],[-65.6142,-18.1657,2008.147],[-65.6226,-18.157,1904.1222],[-65.6322,-18.1521,1897.2158],[-65.6336,-18.1463,1871.5035],[-65.6392,-18.1422,1869.1184],[-65.638,-18.1374,1865.1315],[-65.6409,-18.1366,1867.458],[-65.6455,-18.1389,1880.9197],[-65.6506,-18.1391,1947.2206],[-65.6542,-18.1335,1898.0625],[-65.6612,-18.1316,1891.6643],[-65.6652,-18.1264,1889.385],[-65.6685,-18.1257,1891.979],[-65.6707,-18.1204,1891.8164],[-65.6763,-18.1201,1901.9227],[-65.6809,-18.1166,1906.0496],[-65.6841,-18.1126,1900.0573],[-65.6842,-18.1076,1901.295],[-65.6882,-18.0992,1905.3738],[-65.6934,-18.0942,1908.4607],[-65.6976,-18.0943,1911.1653],[-65.7042,-18.0887,1913.7141],[-65.7089,-18.0783,1913.8713],[-65.7151,-18.0755,1919.1627],[-65.724,-18.0681,1923.0206],[-65.728,-18.0675,1923.4707],[-65.7296,-18.0606,1926.4839],[-65.7332,-18.0612,1927.9329],[-65.7413,-18.0588,1934.375],[-65.7408,-18.0543,1933.3865],[-65.7441,-18.0497,1935.8832],[-65.752,-18.0487,1940.7924],[-65.7557,-18.0434,1942.5681],[-65.7644,-18.0413,1951.2451],[-65.7679,-18.0361,1967.9653],[-65.7722,-18.037,1952.4036],[-65.7834,-18.0319,2013.7516],[-65.7834,-18.0273,1961.2469],[-65.7813,-18.0239,1970.413],[-65.7825,-18.021,1964.3617],[-65.7869,-18.0199,2006.7192],[-65.7908,-18.0139,1969.5074],[-65.7982,-18.0128,1974.1361],[-65.8007,-18.009,1975.0818],[-65.8041,-18.0087,1977.0005],[-65.8065,-18.0105,1978.5853],[-65.8125,-18.0084,1990.9117],[-65.8159,-18.0022,1984.5845],[-65.8271,-17.9969,1992.2609],[-65.8303,-17.9877,2002.0541],[-65.8357,-17.9869,2005.7828],[-65.8366,-17.9846,2001.4932],[-65.8433,-17.9796,2007.1005],[-65.8451,-17.9742,2010.9956],[-65.8488,-17.974,2012.3884],[-65.8512,-17.9763,2034.8923],[-65.8528,-17.9744,2015.0649],[-65.8577,-17.975,2045.5967],[-65.8676,-17.9709,2095.3774],[-65.8712,-17.9756,2186.3184],[-65.8752,-17.9776,2038.002],[-65.8877,-17.9799,2044.1433],[-65.8879,-17.9831,2065.8711],[-65.8924,-17.9837,2047.8492],[-65.895,-17.9873,2079.978],[-65.9066,-17.9869,2068.0212],[-65.914,-17.9916,2065.4968],[-65.9257,-17.9945,2075.6926],[-65.934,-17.9921,2099.7349],[-65.9344,-17.9838,2099.4429],[-65.9412,-17.9814,2094.0962],[-65.9431,-17.9774,2111.1055],[-65.9413,-17.9624,2217.9629],[-65.9431,-17.9602,2112.1296],[-65.9431,-17.9562,2142.2202],[-65.9487,-17.9548,2148.8196],[-65.9504,-17.9492,2114.5195],[-65.9565,-17.9467,2142.0146],[-65.9595,-17.947,2131.7676],[-65.9606,-17.953,2144.8257],[-65.9643,-17.9532,2137.6143],[-65.9676,-17.9516,2129.5176],[-65.9745,-17.9423,2144.7932],[-65.9844,-17.939,2139.3315],[-65.9886,-17.9352,2144.5044],[-65.9928,-17.918,2185.2529],[-66.0018,-17.9107,2162.5459],[-66.0066,-17.9003,2169.594],[-66.01,-17.8976,2171.3594],[-66.0133,-17.8889,2183.5188],[-66.0166,-17.8858,2180.1863],[-66.0169,-17.8752,2198.8774],[-66.0231,-17.874,2188.168],[-66.0257,-17.868,2185.8633],[-66.0254,-17.8636,2206.5291],[-66.0349,-17.8555,2196.0542],[-66.0356,-17.8506,2198.5249],[-66.0411,-17.8464,2211.5117],[-66.0439,-17.8388,2237.0669],[-66.0533,-17.8347,2231.5759],[-66.0594,-17.8273,2228.4312],[-66.0624,-17.8273,2236.2749],[-66.0776,-17.8187,2237.3896],[-66.0809,-17.8192,2241.7312],[-66.0827,-17.8138,2249.1265],[-66.0878,-17.8099,2243.9238],[-66.097,-17.8072,2250.4175],[-66.1005,-17.8071,2339.697],[-66.1018,-17.8092,2312.9072],[-66.1042,-17.8155,2488.2441],[-66.1077,-17.8195,2638.7422],[-66.1099,-17.8271,2768.9951],[-66.1124,-17.8272,2763.7317],[-66.1145,-17.8362,2869.0818],[-66.1162,-17.8368,2927.5369],[-66.1156,-17.8424,2935.5249],[-66.1175,-17.8504,2977.6982],[-66.1157,-17.8535,3032.3467],[-66.1165,-17.8583,3051.2307],[-66.1339,-17.8781,3226.4104],[-66.1463,-17.8844,3247.3508],[-66.1522,-17.8907,3353.438],[-66.1586,-17.8993,3470.6936],[-66.1569,-17.9033,3435.7212],[-66.1594,-17.9034,3438.3337],[-66.1639,-17.907,3563.2593],[-66.1617,-17.9116,3586.6602],[-66.166,-17.9152,3490.8889],[-66.1654,-17.9256,3351.9204],[-66.1722,-17.928,3393.4646],[-66.1799,-17.9334,3597.6338],[-66.1903,-17.9305,3723.5098],[-66.197,-17.9262,3748.5327],[-66.2034,-17.9309,3722.1238],[-66.2099,-17.9319,3740.3989],[-66.2107,-17.9353,3649.2935],[-66.2161,-17.9352,3678.8352],[-66.2193,-17.9376,3725.0225],[-66.2192,-17.9414,3699.646],[-66.222,-17.9423,3758.0244],[-66.2233,-17.9493,3730.4111],[-66.226,-17.9526,3760.2532],[-66.2366,-17.9487,3922.582],[-66.2472,-17.9532,4071.6265],[-66.2496,-17.9374,4092.573],[-66.2517,-17.9343,4102.6943],[-66.2608,-17.9392,3847.9277],[-66.2662,-17.9461,3753.7163],[-66.2665,-17.9514,3771.8977],[-66.272,-17.9539,3669.6045],[-66.278,-17.964,3727.543],[-66.2809,-17.966,3744.6006],[-66.2873,-17.9626,3673.4485],[-66.3092,-17.9618,3306.9287],[-66.3202,-17.9495,3125.7373],[-66.3268,-17.9528,3039.4158],[-66.3376,-17.9536,3502.0171],[-66.3427,-17.9569,3413.2307],[-66.3435,-17.9597,3344.4834],[-66.3509,-17.96,3459.1865],[-66.3593,-17.9569,3654.3279],[-66.372,-17.9566,3501.8159],[-66.3721,-17.9581,3527.855],[-66.3811,-17.9599,3700.4771],[-66.3878,-17.9641,3811.821],[-66.3953,-17.9633,3692.0896],[-66.4129,-17.9707,4021.5596],[-66.4193,-17.9757,4063.4819],[-66.4314,-17.9734,4062.2578],[-66.4449,-17.9786,4049.6353],[-66.4462,-17.9811,3924.8025],[-66.4613,-17.9934,4026.0481],[-66.4726,-18.0006,4154.4531],[-66.4718,-18.0037,4128.2617],[-66.4745,-18.0066,4086.5566],[-66.4853,-18.0138,3921.3123],[-66.4934,-18.022,3819.4907],[-66.5121,-18.0363,3703.749],[-66.5184,-18.0466,3738.3921],[-66.5335,-18.0584,3901.6362],[-66.5321,-18.0658,3902.8779],[-66.5243,-18.0821,3586.7],[-66.5234,-18.0895,3525.3035],[-66.5274,-18.0891,3537.208],[-66.5358,-18.0834,3854.7905],[-66.5372,-18.084,3906.1006],[-66.54,-18.0821,3906.4663],[-66.5457,-18.0829,3941.8125],[-66.5485,-18.0803,3942.9998],[-66.5646,-18.076,3966.3821],[-66.5765,-18.0829,3951.7319],[-66.5953,-18.0843,3979.1577],[-66.6011,-18.0823,3991.0972],[-66.6075,-18.0855,3906.3345],[-66.6129,-18.093,3917.9126],[-66.614,-18.0969,3947.0508],[-66.6185,-18.0971,3933.6475],[-66.6204,-18.1056,3949.4932],[-66.6262,-18.1125,4024.3579],[-66.6369,-18.1189,4100.2188],[-66.6595,-18.1178,4120.8594],[-66.6706,-18.1108,4048.917],[-66.6764,-18.1093,4057.5225],[-66.6779,-18.1134,4082.5352],[-66.6803,-18.1134,4108.1592],[-66.6815,-18.1114,4086.8723],[-66.6848,-18.112,4080.0181],[-66.6863,-18.1137,4100.6865],[-66.684,-18.1144,4114.1724],[-66.6839,-18.116,4115.8574],[-66.6902,-18.1202,4168.1504],[-66.7049,-18.1204,4471.8105],[-66.7124,-18.1166,4566.293],[-66.7247,-18.1159,4703.5186],[-66.7575,-18.1349,4294.2754],[-66.7852,-18.1357,4579.4946],[-66.7728,-18.1603,4623.7744],[-66.7675,-18.1658,4637.3618],[-66.7597,-18.1699,4651.313],[-66.7576,-18.2062,4494.7998],[-66.7629,-18.2087,4490.8193],[-66.7637,-18.2164,4420.9453],[-66.7577,-18.2274,4374.5039],[-66.7487,-18.2326,4277.1138],[-66.7462,-18.241,4220.7681],[-66.7297,-18.2404,4180.6245],[-66.7257,-18.242,4164.2051],[-66.7246,-18.2446,4155.7031],[-66.7217,-18.2451,4152.6831],[-66.6961,-18.2346,4322.0435],[-66.689,-18.2327,4251.062],[-66.6757,-18.2326,4218.8428],[-66.6675,-18.2384,4092.3604],[-66.656,-18.2357,4063.6809],[-66.6523,-18.2388,4058.8809],[-66.6443,-18.241,3984.1438],[-66.6397,-18.2408,3942.5999],[-66.6315,-18.2367,3940.0435],[-66.6218,-18.2384,3940.7432],[-66.6159,-18.2371,3888.0393],[-66.6053,-18.2384,3855.2808],[-66.5978,-18.2362,3797.8711],[-66.5893,-18.2413,3751.8484],[-66.5846,-18.2461,3725.2881],[-66.5784,-18.2466,3648.3755],[-66.5695,-18.2503,3647.4111],[-66.5667,-18.2481,3574.6753],[-66.5623,-18.2477,3513.731],[-66.559,-18.2436,3466.9919],[-66.5527,-18.2433,3483.6621],[-66.5515,-18.2447,3512.7144],[-66.5504,-18.2427,3456.7827],[-66.5448,-18.2442,3419.2458],[-66.5414,-18.2472,3403.9321],[-66.5314,-18.2469,3391.9993],[-66.5282,-18.2493,3392.9373],[-66.5298,-18.2615,3776.6865],[-66.5337,-18.2635,3769.8623],[-66.5346,-18.2666,3814.9072],[-66.5378,-18.2659,3811.1555],[-66.5402,-18.2692,3820.0449],[-66.5441,-18.2657,3836.6973],[-66.544,-18.2718,3868.3237],[-66.5465,-18.2724,3851.7266],[-66.548,-18.2709,3840.8083],[-66.5497,-18.2744,3869.6895],[-66.5541,-18.2767,3875.2776],[-66.5586,-18.2751,3876.1492],[-66.5624,-18.2772,3891.791],[-66.5657,-18.2768,3902.6177],[-66.5685,-18.2793,3917.6067],[-66.5807,-18.2792,4035.1187],[-66.5867,-18.282,4107.1655],[-66.6144,-18.2793,4101.9414],[-66.6273,-18.2873,4112.0327],[-66.6353,-18.2869,4117.8486],[-66.6386,-18.2884,4125.2324],[-66.644,-18.2935,4136.5308],[-66.6614,-18.2956,4165.0225],[-66.6661,-18.3072,4203.7539],[-66.6786,-18.3164,4316.6914],[-66.7029,-18.3235,4398.9536],[-66.7081,-18.3288,4438.9536],[-66.7293,-18.3404,4592.939],[-66.7149,-18.362,4523.9834],[-66.7142,-18.378,4410.1309],[-66.6986,-18.4032,4311.8442],[-66.6972,-18.4084,4288.7935],[-66.7,-18.419,4255.7515],[-66.6976,-18.4356,4376.7388],[-66.6871,-18.4624,4665.6675],[-66.6815,-18.4717,4592.6719],[-66.6841,-18.4743,4563.8486],[-66.6811,-18.4928,4515.1543],[-66.6814,-18.5012,4334.8022],[-66.6755,-18.5046,4391.541],[-66.6715,-18.515,4362.626],[-66.6661,-18.5211,4286.9512],[-66.6631,-18.5329,4223.8398],[-66.6644,-18.5354,4218.9839],[-66.6628,-18.541,4208.5396],[-66.6578,-18.5481,4192.9219],[-66.6568,-18.5532,4184.8179],[-66.6577,-18.5669,4168.5586],[-66.6566,-18.5693,4165.3691],[-66.6509,-18.573,4157.2339],[-66.6499,-18.5781,4158.0283],[-66.6423,-18.5896,4177.8872],[-66.6395,-18.5988,4194.6309],[-66.6407,-18.6118,4222.9009],[-66.6463,-18.6148,4133.1353],[-66.6442,-18.6303,4103.7812],[-66.6358,-18.6459,4074.1626],[-66.632,-18.6491,4094.0164],[-66.6179,-18.6456,4246.8149],[-66.6069,-18.6506,4408.3799],[-66.6119,-18.66,4239.7979],[-66.6049,-18.6628,4325.7075],[-66.6052,-18.6668,4302.5234],[-66.6006,-18.6662,4404.0625],[-66.5956,-18.6745,4327.1592],[-66.5948,-18.679,4142.3428],[-66.5959,-18.6842,4334.2622],[-66.5949,-18.687,4338.5264],[-66.6019,-18.6942,4015.5544],[-66.5978,-18.6978,4041.2195],[-66.5886,-18.6958,4159.4561],[-66.5813,-18.7028,4439.0508],[-66.5796,-18.7066,4488.0801],[-66.5775,-18.706,4566.3921],[-66.5764,-18.7075,4558.8379],[-66.5762,-18.7144,4500.8774],[-66.5648,-18.7182,4100.3369],[-66.5621,-18.7167,4179.5527],[-66.5557,-18.7191,4247.3984],[-66.537,-18.721,4533.8516],[-66.5382,-18.7368,4445.3301],[-66.5372,-18.7491,4492.8975],[-66.5321,-18.7737,4521.0894],[-66.5292,-18.7778,4604.2358],[-66.5218,-18.7823,4512.1836],[-66.5025,-18.7881,4567.3506],[-66.4997,-18.7873,4515.5562],[-66.4831,-18.7697,4042.637],[-66.4775,-18.7613,4293.5],[-66.4782,-18.7518,4360.9897],[-66.4749,-18.7315,4357.0049],[-66.4708,-18.7194,4234.8721],[-66.4605,-18.7071,3627.614],[-66.4556,-18.7069,3611.4915],[-66.4482,-18.7038,3595.689],[-66.446,-18.7044,3592.2573],[-66.4422,-18.7017,3571.0151],[-66.4373,-18.7085,3569.4402],[-66.4298,-18.7066,3543.4028],[-66.428,-18.7042,3539.3267],[-66.4235,-18.7078,3559.2886],[-66.4233,-18.7097,3622.4121],[-66.4133,-18.7077,3882.5356],[-66.4101,-18.7124,3863.8887],[-66.3982,-18.7128,4062.918],[-66.3923,-18.717,4031.7458],[-66.3775,-18.7409,4199.5024],[-66.3743,-18.752,4239.5723],[-66.3644,-18.7653,4176.5981],[-66.3572,-18.7805,4098.3281],[-66.3524,-18.7922,4189.1211],[-66.3512,-18.8039,4141.1338],[-66.3461,-18.81,4264.4717],[-66.3417,-18.8231,4407.1743],[-66.3429,-18.8297,4372.9683],[-66.3331,-18.8524,4469.6841],[-66.33,-18.8628,4468.748],[-66.3305,-18.8675,4476.4502],[-66.3221,-18.8848,4435.3218],[-66.3201,-18.8959,4453.0981],[-66.3158,-18.8991,4505.7051],[-66.3113,-18.9096,4635.6919],[-66.3132,-18.9217,4619.1621],[-66.3018,-18.9333,4680.2373],[-66.3017,-18.9478,4685.5591],[-66.2985,-18.9707,4794.8896],[-66.3017,-18.9906,4741.4399],[-66.2951,-18.9961,4714.6074],[-66.2817,-19.0148,4744.6738],[-66.2689,-19.0089,4650.1245],[-66.2485,-19.0082,4478.229],[-66.2415,-19.0052,4568.0444],[-66.2281,-18.9949,4511.0254],[-66.2252,-18.9942,4473.8281],[-66.2214,-18.996,4407.1777],[-66.2152,-18.9938,4326.8965],[-66.2123,-18.9946,4263.9487],[-66.2034,-18.9909,4100.8535],[-66.1983,-18.987,4063.3665],[-66.1934,-18.9867,4011.5898],[-66.1882,-18.9827,3949.7876],[-66.1839,-18.9822,3935.7366],[-66.1839,-18.9849,3916.7087],[-66.1811,-18.9866,3918.2729],[-66.1791,-18.9906,3947.666],[-66.1762,-19.0207,4041.8696],[-66.1719,-19.0199,4043.5815],[-66.1529,-19.0307,4063.0029],[-66.1353,-19.0541,3865.0273],[-66.13,-19.0536,4066.6831],[-66.125,-19.0593,4167.9087],[-66.1204,-19.0618,4236.5659],[-66.1148,-19.0703,4437.6611],[-66.1063,-19.0765,4502.6211],[-66.106,-19.0847,4612.3916],[-66.102,-19.0859,4576.8496],[-66.093,-19.0851,4475.5161],[-66.0908,-19.0923,4408.6416],[-66.0861,-19.0998,4179.8813],[-66.0872,-19.1034,4165.6958],[-66.0914,-19.1039,4182.6768],[-66.0956,-19.1089,4275.8066],[-66.1028,-19.1208,4595.9414],[-66.099,-19.1291,4453.6294],[-66.103,-19.14,4163.5439],[-66.1127,-19.15,4123.188],[-66.1127,-19.157,4180.8809],[-66.1007,-19.1745,4113.6016],[-66.1041,-19.1812,4048.967],[-66.1141,-19.1902,4226.4951],[-66.1189,-19.1969,4234.6455],[-66.1242,-19.2083,4277.291],[-66.1256,-19.2156,4298.7275],[-66.1291,-19.2189,4249.8008],[-66.1295,-19.2226,4246.3506],[-66.1253,-19.2373,4234.415],[-66.13,-19.2431,4152.3511],[-66.1301,-19.2456,4130.127],[-66.1391,-19.2453,4014.0442],[-66.146,-19.2394,3920.2598],[-66.1507,-19.2389,3881.4436],[-66.153,-19.2341,3828.386],[-66.1614,-19.2337,3792.6433],[-66.1645,-19.2364,3773.9136],[-66.1718,-19.2377,3832.689],[-66.1788,-19.2418,3858.9014],[-66.1889,-19.2421,4009.5112],[-66.2018,-19.2528,4099.668],[-66.2171,-19.2565,4084.6792],[-66.2213,-19.2621,3897.0625],[-66.2228,-19.2743,4049.8394],[-66.2291,-19.2862,4289.2261],[-66.2574,-19.3003,4611.4004],[-66.2624,-19.3015,4551.6172],[-66.27,-19.2986,4525.1763],[-66.2721,-19.3032,4420.1533],[-66.2711,-19.3141,4343.6543],[-66.2766,-19.3171,4350.8276],[-66.2843,-19.3286,4394.2095],[-66.304,-19.3706,4552.2876],[-66.3358,-19.4154,4542.4893],[-66.3569,-19.4537,4624.125],[-66.3903,-19.4576,4641.3975],[-66.4291,-19.4063,4906.3823],[-66.4603,-19.3808,4609.7236],[-66.5021,-19.3599,4617.4473],[-66.5458,-19.3862,4982.1992],[-66.5573,-19.3956,4862.2568],[-66.5635,-19.3987,4864.1899],[-66.5756,-19.4013,5164.2837],[-66.584,-19.421,4833.7314],[-66.5906,-19.4262,4735.5205],[-66.6029,-19.4277,4656.6069],[-66.6214,-19.4256,4497.9229],[-66.6391,-19.4273,4425.1968],[-66.6577,-19.4326,4316.6523],[-66.6588,-19.4305,4300.8691],[-66.6621,-19.4302,4203.5562],[-66.669,-19.4342,4178.9854],[-66.68,-19.4444,4166.854],[-66.6998,-19.4484,4126.4453],[-66.7089,-19.4463,4039.0518],[-66.7173,-19.4409,4125.2246],[-66.7264,-19.4373,4030.8196],[-66.7318,-19.4299,4088.9014],[-66.7349,-19.4293,4136.3877],[-66.7413,-19.4369,4067.1545],[-66.7452,-19.4355,3998.7275],[-66.7503,-19.4369,3960.2917],[-66.7533,-19.4314,3893.771],[-66.7521,-19.4273,3876.4966],[-66.7546,-19.4274,3858.7793],[-66.7616,-19.43,3854.376],[-66.7696,-19.4297,3819.6313],[-66.7882,-19.4335,3789.51],[-66.7893,-19.4356,3794.8018],[-66.7932,-19.4364,3787.9966],[-66.7966,-19.4418,3805.2349],[-66.802,-19.4429,3790.4475],[-66.8023,-19.4472,3773.822],[-66.8064,-19.4499,3800.4998],[-66.8137,-19.4492,3766.7856],[-66.8182,-19.4507,3765.7305],[-66.8231,-19.455,3763.9966],[-66.829,-19.4551,3761.1924],[-66.8452,-19.4547,3759.6355],[-66.8494,-19.4477,3760.6655],[-66.8566,-19.4474,3755.2358],[-66.8641,-19.439,3753.0791],[-66.8715,-19.4364,3751.7578],[-66.8734,-19.4303,3749.9927],[-66.877,-19.4274,3749.0723],[-66.8772,-19.4243,3754.6091],[-66.8809,-19.422,3747.521],[-66.8817,-19.4136,3747.4199],[-66.886,-19.4134,3751.9927],[-66.8917,-19.4096,3748.9146],[-66.9011,-19.4077,3764.6353],[-66.914,-19.3977,3843.8928],[-66.923,-19.3934,3762.9658],[-66.927,-19.3887,3755.1289],[-66.9373,-19.3821,3744.2251],[-66.9396,-19.3783,3743.2993],[-66.948,-19.3774,3737.459],[-66.9482,-19.3727,3733.9434],[-66.9522,-19.3696,3731.502],[-66.9601,-19.368,3728.7595],[-66.9803,-19.3719,3731.0166],[-66.9865,-19.3735,3733.0439],[-66.9954,-19.3795,3732.7793],[-66.9992,-19.3805,3728.29],[-67.0131,-19.3708,3745.6729],[-67.0188,-19.3688,3755.3005],[-67.0238,-19.3693,4035.6799],[-67.0352,-19.3738,3738.2271],[-67.0416,-19.3808,3728.9419],[-67.0437,-19.381,3729.0371],[-67.0506,-19.3778,3728.0112],[-67.0551,-19.3697,3726.781],[-67.0586,-19.3709,3726.5405],[-67.0595,-19.3741,3726.5615],[-67.0637,-19.3744,3727.335],[-67.0672,-19.3727,3725.7864],[-67.0746,-19.3603,3724.074],[-67.0808,-19.356,3725.4141],[-67.0835,-19.3569,3725.2649],[-67.0855,-19.3582,3725.334],[-67.0892,-19.3756,3726.9185],[-67.1013,-19.3948,3724.3088],[-67.1089,-19.4113,3741.8657],[-67.1434,-19.4204,3837.8079],[-67.162,-19.4386,3898.1399],[-67.1727,-19.4435,3802.9673],[-67.1806,-19.4448,3794.7625],[-67.1929,-19.4496,3870.5737],[-67.2111,-19.4462,3847.2566],[-67.218,-19.4414,3872.5088],[-67.2241,-19.4426,3864.3877],[-67.2344,-19.4363,3828.6143],[-67.2417,-19.4352,3797.1926],[-67.2506,-19.4315,3750.6628],[-67.256,-19.4315,3744.9604],[-67.2658,-19.4285,3721.6855],[-67.2677,-19.4286,3720.2925],[-67.269,-19.4311,3720.6216],[-67.2699,-19.4347,3721.446],[-67.2645,-19.4406,3723.6851],[-67.2622,-19.4486,3724.2368],[-67.2592,-19.4493,3725.1626],[-67.2599,-19.455,3726.5083],[-67.2563,-19.4638,3729.1482],[-67.2437,-19.472,3734.1851],[-67.2352,-19.4809,3737.4453],[-67.229,-19.4815,3740.333],[-67.2258,-19.4839,3742.4204],[-67.2254,-19.4911,3748.0735],[-67.2277,-19.4956,3755.7219],[-67.2317,-19.498,3769.8823],[-67.2349,-19.5039,3777.5906],[-67.2372,-19.5045,3776.1655],[-67.2369,-19.5071,3734.4619],[-67.2326,-19.5088,3721.522],[-67.2315,-19.5125,3713.2212],[-67.2291,-19.514,3718.5312],[-67.2307,-19.5245,3697.6152],[-67.2259,-19.5333,3690.4973],[-67.2298,-19.5362,3694.2056],[-67.2233,-19.5502,3682.4067],[-67.2187,-19.5543,3680.5981],[-67.2183,-19.5593,3680.9497],[-67.2248,-19.5656,3694.395],[-67.2309,-19.5672,3715.0649],[-67.2305,-19.5734,3706.561],[-67.2321,-19.5784,3690.814],[-67.2303,-19.5815,3682.0461],[-67.2317,-19.5843,3678.1433],[-67.2092,-19.6011,3669.9399],[-67.2029,-19.6153,3673.2466],[-67.2036,-19.6167,3668.7029],[-67.2081,-19.6171,3668.6284],[-67.2093,-19.6253,3668.1816],[-67.2071,-19.6292,3668.0171],[-67.2103,-19.6318,3667.7949],[-67.2126,-19.6426,3667.6836],[-67.2118,-19.6494,3667.2822],[-67.2072,-19.6581,3667.3718],[-67.2064,-19.6703,3667.0918],[-67.2101,-19.6749,3666.0876],[-67.2123,-19.6744,3667.5337],[-67.2132,-19.6779,3664.9478],[-67.2144,-19.6774,3664.9478],[-67.2139,-19.6818,3664.0496],[-67.2258,-19.6896,3661.9316],[-67.2319,-19.6914,3661.0728],[-67.243,-19.6911,3659.9353],[-67.2566,-19.6993,3658.9851],[-67.2581,-19.7066,3658.6255],[-67.2574,-19.7159,3658.02],[-67.265,-19.7261,3657.1475],[-67.2748,-19.7504,3655.9937],[-67.291,-19.7652,3655.3481],[-67.291,-19.7594,3655.459],[-67.2994,-19.7544,3655.5969],[-67.3016,-19.7498,3655.5527],[-67.3106,-19.7479,3655.5186],[-67.3151,-19.7442,3655.4709],[-67.322,-19.7435,3655.3384],[-67.3286,-19.7395,3655.3481],[-67.3356,-19.7307,3655.4421],[-67.3471,-19.7223,3655.3711],[-67.3806,-19.713,3655.2847],[-67.4175,-19.7143,3655.2158],[-67.4265,-19.7115,3655.3306],[-67.4348,-19.7121,3655.3691],[-67.4486,-19.7068,3655.335],[-67.4697,-19.7032,3655.1897],[-67.4844,-19.705,3655.1458],[-67.5018,-19.7121,3655.0425],[-67.5144,-19.7139,3654.9536],[-67.5217,-19.7166,3654.9756],[-67.5325,-19.7166,3654.9397],[-67.5387,-19.7147,3654.96],[-67.5398,-19.7127,3655.0371],[-67.5403,-19.7143,3654.9653],[-67.5474,-19.7135,3655.0459],[-67.56,-19.7167,3654.8672],[-67.5623,-19.7152,3654.9771],[-67.5717,-19.7279,3654.8735],[-67.5712,-19.7387,3654.9583],[-67.5678,-19.7468,3654.8423],[-67.5685,-19.7524,3654.895],[-67.566,-19.7572,3654.8167],[-67.5661,-19.7627,3654.9888],[-67.5677,-19.7643,3655.0105],[-67.5569,-19.7715,3653.5],[-67.5594,-19.7734,3653.5],[-67.5573,-19.7742,3653.5],[-67.5609,-19.7772,3653.842],[-67.5631,-19.7768,3655.7068],[-67.5596,-19.7788,3653.8667],[-67.556,-19.7854,3655.0625],[-67.5554,-19.7824,3653.5],[-67.5531,-19.7846,3654.6174],[-67.5468,-19.7864,3653.5],[-67.5475,-19.7839,3654.6985],[-67.5496,-19.7807,3654.1072],[-67.5467,-19.7811,3653.5],[-67.5424,-19.7856,3659.0605],[-67.5399,-19.7851,3668.3281],[-67.5378,-19.782,3653.5],[-67.5375,-19.7872,3670.0029],[-67.5345,-19.7898,3654.5657],[-67.5356,-19.794,3653.5],[-67.5474,-19.8048,3654.9097],[-67.5437,-19.8184,3654.5364],[-67.5363,-19.8255,3660.293],[-67.5296,-19.8286,3653.5],[-67.5311,-19.8302,3657.6421],[-67.529,-19.8336,3656.4297],[-67.5234,-19.8336,3657.4722],[-67.5204,-19.8291,3655.3503],[-67.5195,-19.8335,3653.5],[-67.5287,-19.8371,3671.8479],[-67.5304,-19.8409,3657.1309],[-67.5277,-19.8489,3653.5],[-67.5333,-19.8484,3654.7566],[-67.5376,-19.8524,3664.4971],[-67.5403,-19.8552,3657.0896],[-67.5445,-19.8648,3653.5],[-67.5567,-19.8646,3653.5],[-67.5594,-19.8658,3654.8872],[-67.5632,-19.8717,3655.3845],[-67.5672,-19.8853,3653.5],[-67.5713,-19.8867,3653.7332],[-67.573,-19.8813,3656.635],[-67.5809,-19.8746,3683.3804],[-67.5991,-19.8716,3909.1155],[-67.6048,-19.8644,4109.9365],[-67.6147,-19.8603,4197.208],[-67.6352,-19.8465,4785.458],[-67.6462,-19.8421,5107.5322],[-67.6644,-19.8386,4692.5557],[-67.6775,-19.8305,4437.1958],[-67.7145,-19.812,3783.8469],[-67.7205,-19.8267,3747.3652],[-67.7299,-19.8284,3728.6616],[-67.7339,-19.8316,3726.2046],[-67.7382,-19.8303,3727.7422],[-67.7384,-19.826,3733.9333],[-67.7435,-19.8229,3740.7153],[-67.7519,-19.8132,3685.5161],[-67.7603,-19.8123,3680.9216],[-67.7582,-19.8092,3714.519],[-67.7586,-19.8059,3714.6599],[-67.7859,-19.808,3790.4961],[-67.803,-19.8111,3778.2236],[-67.8217,-19.8096,3814.5125],[-67.8456,-19.7965,3815.0933],[-67.8605,-19.7725,3896.0295],[-67.8764,-19.7619,3672.2219],[-67.8994,-19.7571,3787.0327],[-67.9144,-19.7431,3981.8623],[-67.9353,-19.7338,4191.5771],[-67.9595,-19.7294,4197.665],[-67.9597,-19.7262,4165.3418],[-67.9714,-19.7079,4346.4966],[-67.9895,-19.687,3933.1313],[-68.0319,-19.6223,4978.0234],[-68.0422,-19.6184,4784.0371],[-68.0539,-19.61,4321.8711],[-68.0602,-19.5958,3892.6421],[-68.0785,-19.5876,3700.4194],[-68.0881,-19.5764,3657.0059],[-68.095,-19.5905,3656.5],[-68.0992,-19.5918,3656.5],[-68.1073,-19.588,3658.0161],[-68.1093,-19.588,3656.8838],[-68.1101,-19.5903,3656.5],[-68.1153,-19.59,3657.9641],[-68.1135,-19.594,3656.5],[-68.1153,-19.5962,3656.5],[-68.1253,-19.597,3656.5],[-68.1255,-19.5995,3656.5],[-68.1299,-19.6021,3656.5],[-68.1447,-19.604,3656.5],[-68.1555,-19.6108,3656.5],[-68.167,-19.6143,3656.5],[-68.1658,-19.6117,3656.5],[-68.1757,-19.5999,3656.5],[-68.1777,-19.5986,3656.5],[-68.1985,-19.5964,3656.5],[-68.2022,-19.5899,3656.5],[-68.2069,-19.5875,3656.5],[-68.2072,-19.5826,3656.5],[-68.2116,-19.5847,3656.5],[-68.2122,-19.5827,3656.5],[-68.2161,-19.5835,3656.5],[-68.218,-19.5821,3656.5],[-68.2211,-19.5835,3656.5],[-68.2246,-19.5785,3656.5],[-68.2252,-19.5807,3656.5],[-68.2296,-19.5789,3656.5],[-68.2326,-19.5751,3656.5],[-68.2308,-19.573,3656.5],[-68.2344,-19.5713,3656.5],[-68.2371,-19.5665,3656.5],[-68.2451,-19.5628,3656.5],[-68.256,-19.5615,3656.5],[-68.2609,-19.559,3656.5],[-68.2621,-19.5564,3656.5],[-68.274,-19.5518,3656.5],[-68.285,-19.5504,3656.5],[-68.294,-19.5463,3656.5],[-68.2964,-19.5418,3656.5],[-68.2873,-19.5346,3656.5],[-68.2877,-19.5302,3656.5],[-68.2911,-19.5267,3656.5],[-68.2906,-19.5242,3656.5],[-68.2924,-19.5237,3656.5],[-68.2945,-19.5263,3656.5],[-68.3108,-19.5255,3656.5],[-68.3218,-19.5184,3656.5],[-68.3315,-19.5157,3656.5],[-68.339,-19.516,3656.5],[-68.3435,-19.5213,3656.5],[-68.3463,-19.5184,3656.5],[-68.3521,-19.52,3656.5],[-68.3647,-19.5071,3656.5],[-68.3809,-19.4964,3656.5],[-68.3963,-19.4801,3666.0781],[-68.3975,-19.4743,3656.5],[-68.404,-19.4714,3658.7773],[-68.4046,-19.4639,3659.2417],[-68.4069,-19.4621,3662.4304],[-68.4128,-19.4507,3706.7434],[-68.4115,-19.4399,3656.5],[-68.4258,-19.4355,3656.5],[-68.4406,-19.4404,4021.3079],[-68.5569,-19.5964,4305.9937],[-68.5725,-19.6055,3964.2063],[-68.5988,-19.6407,4574.6748],[-68.6043,-19.6663,4431.4219],[-68.6232,-19.7006,4752.7676],[-68.6594,-19.7088,5435.7188],[-68.6835,-19.7194,5834.3545],[-68.6889,-19.7484,5725.541],[-68.6673,-19.7521,5604.2222],[-68.6519,-19.7722,5599.6851],[-68.6208,-19.7891,5191.6851],[-68.5993,-19.828,4270.4414],[-68.5282,-19.8453,4362.457],[-68.5423,-19.89,4203.0771],[-68.5216,-19.9243,4044.8362],[-68.5515,-20.0213,4056.9915],[-68.5662,-20.0501,3989.2729],[-68.6404,-20.0489,4912.0923],[-68.693,-20.0683,4461.0459],[-68.7635,-20.0787,5018.6055],[-68.7739,-20.1297,4805.8833],[-68.7617,-20.1341,4821.9072],[-68.7417,-20.1252,4615.7593],[-68.7235,-20.1353,4623.5698],[-68.7021,-20.1435,4611.4517],[-68.7047,-20.159,4825.1841],[-68.6917,-20.1772,4928.3687],[-68.7139,-20.1951,4826.6855],[-68.715,-20.2468,4898.396],[-68.695,-20.2791,4465.144],[-68.6924,-20.2955,4744.4893],[-68.6656,-20.3058,4563.6973],[-68.6594,-20.3355,4788.8936],[-68.7108,-20.3664,4004.9185],[-68.7418,-20.3694,4911.8037],[-68.7387,-20.4568,3986.9031],[-68.6662,-20.5166,5121.3647],[-68.6085,-20.5456,3796.2209],[-68.5928,-20.5486,3793.3142],[-68.5709,-20.5756,4045.3257],[-68.52,-20.5873,4989.1377],[-68.4487,-20.6242,5277.418],[-68.4391,-20.641,5122.436],[-68.4393,-20.6441,5179.7031],[-68.4505,-20.6477,5140.5278],[-68.4816,-20.6654,4962.2886],[-68.5016,-20.6688,5127.6982],[-68.5032,-20.676,5130.2388],[-68.5262,-20.6967,5062.7993],[-68.5282,-20.7166,4703.1914],[-68.5321,-20.7229,4706.7603],[-68.5516,-20.7281,5054.5117],[-68.555,-20.7367,4890.8511],[-68.5447,-20.7716,5079.8345],[-68.5411,-20.8014,4241.8149],[-68.5458,-20.8198,4852.6924],[-68.5496,-20.8493,4872.9946],[-68.5544,-20.8644,4747.415],[-68.5691,-20.8945,4609.5864],[-68.543,-20.9037,4742.623],[-68.5286,-20.9148,4539.6899],[-68.5035,-20.9429,5247.5142],[-68.4844,-20.947,5303.8208],[-68.4784,-20.9408,5230.7886],[-68.4622,-20.9461,5260.979],[-68.4361,-20.9457,5294.6914],[-68.4226,-20.9413,5276.0708],[-68.4157,-20.9414,5586.3945],[-68.3638,-21.0022,4024.7622],[-68.2951,-21.0978,4413.8955],[-68.1784,-21.3035,5807.5483],[-68.1806,-21.6041,5637.75],[-68.1379,-21.6568,4445.6284],[-68.1179,-21.6786,5480.4463],[-68.1002,-21.7165,4568.6572],[-68.0599,-21.7779,5489.9136],[-68.0631,-21.8528,4458.6104],[-68.072,-21.9802,5589.4775],[-68.0148,-22.024,4829.2891],[-68.0074,-22.0395,4547.6792],[-68.0024,-22.0393,4582.8711],[-67.9652,-22.0541,5684.8203],[-67.9665,-22.0711,5421.9854],[-67.964,-22.0787,5342.7139],[-67.9545,-22.0865,5538.395],[-67.9392,-22.1086,5481.3232],[-67.9405,-22.1168,5439.1465],[-67.9541,-22.149,5473.9238],[-67.9578,-22.1514,5521.7129],[-67.9552,-22.1778,5560.8457],[-67.9436,-22.1853,5064.5029],[-67.9342,-22.2058,5379.4092],[-67.9222,-22.2423,5497.3579],[-67.9225,-22.2525,5423.0303],[-67.9257,-22.2759,5467.792],[-67.9385,-22.2941,5388.9497],[-67.9388,-22.3124,5379.9048],[-67.9514,-22.3304,5286.4868],[-67.9229,-22.3925,5083.4023],[-67.8986,-22.4239,5679.8154],[-67.8929,-22.4822,4624.7661],[-67.8926,-22.4991,4921.0923],[-67.8871,-22.508,4578.9419],[-67.8783,-22.514,4549.1143],[-67.8534,-22.5573,5780.3135],[-67.878,-22.6661,5418.75],[-67.872,-22.6717,5435.5542],[-67.8683,-22.679,5555.2783],[-67.8691,-22.6914,5598.8926],[-67.886,-22.6895,5538.2866],[-67.8892,-22.7023,5591.3325],[-67.8909,-22.7191,5938.7642],[-67.8788,-22.8005,4481.3252],[-67.8832,-22.8344,5898.8281],[-67.8325,-22.8504,5432.2437],[-67.799,-22.8812,4478.457],[-67.7517,-22.8846,4656.5596],[-67.588,-22.9066,5534.5547],[-67.5632,-22.8982,5557.1196],[-67.3586,-22.8527,4595.5957],[-67.3062,-22.8429,4666.9443],[-67.1805,-22.814,5586.2227],[-67.1278,-22.7221,5346.2334],[-67.0141,-22.6548,5825.7476],[-67.0273,-22.5409,5512.2812],[-66.973,-22.5407,5662.9902]],
[[-67.5306,-19.8603,3653.5],[-67.5299,-19.86,3662.7734],[-67.5253,-19.8614,3653.5],[-67.526,-19.8622,3653.5],[-67.5292,-19.8622,3680.8408],[-67.531,-19.8667,3653.5],[-67.5318,-19.8651,3653.5],[-67.5295,-19.8602,3662.7734],[-67.5306,-19.8603,3653.5]]]]}}