{"type": "Feature","bbox": [-63.5265,-17.9477,-63.1958,-17.56],"geometry": {"type": "MultiPolygon","coordinates": [[[[-63.3628,-17.9374,488.553],[-63.3588,-17.9293,479.611],[-63.3504,-17.9212,481.0359],[-63.351,-17.9149,476.4176],[-63.3479,-17.9091,473.2614],[-63.3491,-17.9035,471.7448],[-63.3455,-17.8984,470.1938],[-63.3445,-17.8893,466.2468],[-63.3409,-17.8839,466.1965],[-63.3205,-17.8732,457.5236],[-63.3065,-17.8743,453.9958],[-63.3047,-17.8793,457.7492],[-63.3028,-17.8803,459.4707],[-63.2895,-17.8737,451.3284],[-63.2849,-17.8648,445.7662],[-63.288,-17.8504,442.9218],[-63.2858,-17.8473,440.7505],[-63.2833,-17.8373,437.2032],[-63.2774,-17.8324,435.4675],[-63.2741,-17.8255,432.2695],[-63.2672,-17.8189,428.5052],[-63.2523,-17.8121,420.951],[-63.2455,-17.8054,417.9247],[-63.2351,-17.7995,417.1336],[-63.2265,-17.7837,415.0019],[-63.2242,-17.7743,410.7424],[-63.2119,-17.7625,401.8846],[-63.2115,-17.7434,396.0128],[-63.2024,-17.7243,391.4431],[-63.1976,-17.7063,384.8892],[-63.1993,-17.6974,386.9276],[-63.2081,-17.6764,376.5667],[-63.2052,-17.6685,374.61],[-63.1986,-17.6636,372.4195],[-63.1958,-17.6574,379.146],[-63.1974,-17.6374,366.0767],[-63.2012,-17.6215,361.4926],[-63.1998,-17.6114,359.941],[-63.2061,-17.6114,365.6555],[-63.2152,-17.6154,370.8575],[-63.239,-17.6078,357.6096],[-63.2481,-17.6033,376.6763],[-63.2569,-17.6068,361.3419],[-63.2605,-17.6109,364.9999],[-63.2601,-17.6132,375.9628],[-63.2634,-17.6153,369.0946],[-63.2665,-17.6202,374.1001],[-63.2957,-17.6334,391.9081],[-63.2994,-17.6308,383.9714],[-63.302,-17.6219,391.3513],[-63.3045,-17.6231,377.8465],[-63.3059,-17.6208,386.6303],[-63.3124,-17.6186,369.5087],[-63.3172,-17.6106,378.5016],[-63.3218,-17.6121,364.6497],[-63.3248,-17.6159,362.2101],[-63.33,-17.6113,355.9259],[-63.3336,-17.611,353.9045],[-63.3334,-17.6196,355.9673],[-63.3278,-17.6253,374.6433],[-63.3299,-17.6329,361.7295],[-63.3568,-17.6238,360.7902],[-63.3544,-17.6196,359.6287],[-63.3546,-17.6029,354.9051],[-63.3617,-17.5921,351.2265],[-63.364,-17.5788,347.5145],[-63.3675,-17.573,345.8234],[-63.3747,-17.5692,343.6331],[-63.3846,-17.5709,340.8356],[-63.3864,-17.5686,340.4473],[-63.3864,-17.565,339.4865],[-63.403,-17.5662,352.3438],[-63.4038,-17.5613,351.5936],[-63.4059,-17.5606,370.6569],[-63.4141,-17.5627,377.7437],[-63.4191,-17.5659,377.0267],[-63.4323,-17.56,340.7634],[-63.4353,-17.5616,339.6845],[-63.4337,-17.5711,346.6924],[-63.4352,-17.5771,350.014],[-63.4326,-17.5853,352.2761],[-63.4363,-17.5905,345.5979],[-63.4354,-17.5965,348.5893],[-63.4445,-17.5996,353.4767],[-63.4478,-17.6039,355.3305],[-63.4434,-17.6114,360.4037],[-63.4436,-17.6146,357.8183],[-63.452,-17.6154,361.4283],[-63.4588,-17.622,359.798],[-63.462,-17.6211,365.9032],[-63.4633,-17.6226,361.4296],[-63.4585,-17.6306,372.1124],[-63.4647,-17.635,365.8857],[-63.4628,-17.6517,370.5083],[-63.4648,-17.6524,377.3017],[-63.4645,-17.6546,384.6596],[-63.4673,-17.6584,379.6215],[-63.4641,-17.6596,384.7152],[-63.4637,-17.6617,392.0565],[-63.4652,-17.6625,381.5757],[-63.4634,-17.6677,393.7023],[-63.4677,-17.6698,398.6024],[-63.4673,-17.6732,402.7039],[-63.4693,-17.6728,396.363],[-63.4684,-17.6757,394.6834],[-63.4718,-17.677,399.7043],[-63.4733,-17.6761,408.7082],[-63.4733,-17.6817,396.1285],[-63.4764,-17.684,405.226],[-63.4751,-17.6862,398.6526],[-63.4773,-17.6849,404.516],[-63.4794,-17.6902,407.7526],[-63.4858,-17.6937,406.1247],[-63.4851,-17.6995,410.0842],[-63.4873,-17.7023,414.3345],[-63.4853,-17.7039,417.4835],[-63.4882,-17.7048,416.7573],[-63.4871,-17.7054,416.7573],[-63.4882,-17.7129,425.5821],[-63.4895,-17.7122,426.4221],[-63.4903,-17.714,429.6605],[-63.4911,-17.7211,431.1199],[-63.4944,-17.7234,437.5395],[-63.4943,-17.7276,462.0024],[-63.4995,-17.7318,472.0179],[-63.5024,-17.738,469.7976],[-63.5087,-17.7453,487.1174],[-63.5154,-17.7631,443.489],[-63.5183,-17.7663,439.1398],[-63.5175,-17.7709,439.1622],[-63.5265,-17.7936,866.0453],[-63.5248,-17.8015,734.9221],[-63.5099,-17.8125,618.3657],[-63.5065,-17.8188,721.3695],[-63.4976,-17.8292,560.549],[-63.485,-17.8337,778.6236],[-63.4837,-17.8357,830.0753],[-63.4817,-17.8628,1098.9086],[-63.4833,-17.8776,1108.3706],[-63.4797,-17.8817,1134.6902],[-63.4783,-17.887,937.8842],[-63.4741,-17.8901,1101.1997],[-63.4744,-17.8955,1106.8232],[-63.4711,-17.906,1100.9954],[-63.4714,-17.9103,1052.8225],[-63.469,-17.9133,1107.3822],[-63.4705,-17.9251,1038.0638],[-63.4675,-17.9326,998.7788],[-63.4593,-17.9363,910.5459],[-63.4584,-17.9387,895.6676],[-63.456,-17.9398,888.122],[-63.4464,-17.9387,774.2731],[-63.4406,-17.9414,681.8535],[-63.434,-17.9415,651.172],[-63.4248,-17.94,619.5013],[-63.4187,-17.9477,614.256],[-63.3995,-17.9419,656.7791],[-63.3942,-17.9425,568.7498],[-63.3899,-17.9374,566.4673],[-63.3855,-17.9377,537.5028],[-63.3821,-17.936,533.7764],[-63.3747,-17.9368,527.9868],[-63.3706,-17.9321,498.4005],[-63.3628,-17.9374,488.553]]]]}
,"properties": {"GID_3": "BOL.8.1.4_2","GID_0": "BOL","country": "Bolivia","GID_1": "BOL.8_1","province": "SantaCruz","NL_NAME_1": "NA","GID_2": "BOL.8.1_2","county": "AndrésIbáñez","NL_NAME_2": "NA","city": "Porongo","VARNAME_3": "NA","NL_NAME_3": "NA","TYPE_3": "District","ENGTYPE_3": "Distrito","CC_3": "NA","HASC_3": "NA","name": "Porongo.city","area_km2": 942.9045,"hist_schema_id": "Elevation0-9000","hist_area_km2": {"350": 21.5644,"375": 119.1711,"400": 205.7676,"425": 138.1086,"450": 116.5589,"475": 84.5448,"500": 68.0436,"525": 56.572,"550": 41.35,"575": 24.9813,"600": 14.5072,"625": 9.1196,"650": 6.0329,"675": 4.298,"700": 2.9664,"725": 2.684,"750": 2.1794,"775": 2.5021,"800": 2.0582,"825": 1.6345,"850": 2.0177,"875": 1.9774,"900": 2.1185,"925": 1.8159,"950": 1.5536,"975": 1.5737,"1000": 1.4527,"1025": 1.4123,"1050": 1.4325,"1075": 1.0895,"1100": 1.1905,"1125": 0.565,"1150": 0.0605}}}