{"type":"Feature","properties":{"GID_2":"BOL.1.1_2","GID_0":"BOL","country":"Bolivia","GID_1":"BOL.1_1","province":"Chuquisaca","NL_NAME_1":"NA","county":"Azurduy","VARNAME_2":"NA","NL_NAME_2":"NA","TYPE_2":"Provincia","ENGTYPE_2":"Province","CC_2":"NA","HASC_2":"NA","name":"Azurduy.county"},
"geometry":{"type": "MultiPolygon","coordinates": [[[[-64.3151,-19.8665,3205.8145],[-64.3103,-19.8603,3354.2256],[-64.3132,-19.8576,3289.1514],[-64.3112,-19.8525,3143.2307],[-64.3309,-19.8476,2058.7688],[-64.3368,-19.8394,1900.2048],[-64.3617,-19.8297,2033.3363],[-64.4028,-19.8269,2634.2788],[-64.4139,-19.8224,2724.8696],[-64.4143,-19.8093,2666.6165],[-64.4089,-19.8077,2550.2754],[-64.4036,-19.8024,2593.2224],[-64.4031,-19.8,2645.4702],[-64.4089,-19.7933,2581.2729],[-64.4095,-19.7905,2590.7529],[-64.4051,-19.7861,2544.9365],[-64.404,-19.7795,2678.9421],[-64.4017,-19.776,2747.6458],[-64.3911,-19.7749,2565.1948],[-64.389,-19.7705,2554.583],[-64.383,-19.7653,2533.7832],[-64.3786,-19.7651,2405.2402],[-64.3708,-19.7605,2531.9639],[-64.3749,-19.7543,2524.8003],[-64.3757,-19.7487,2601.21],[-64.3705,-19.7462,2549.9507],[-64.3764,-19.7371,2533.0442],[-64.3752,-19.7312,2467.2266],[-64.3711,-19.7262,2385.0027],[-64.3736,-19.7158,2444.3679],[-64.3691,-19.7118,2424.0391],[-64.3766,-19.708,2158.3003],[-64.3982,-19.7045,1932.1807],[-64.4065,-19.699,2112.7041],[-64.4082,-19.6895,2278.7598],[-64.4143,-19.6741,2316.636],[-64.4177,-19.6598,2352.2295],[-64.417,-19.651,2517.6597],[-64.4278,-19.6122,2668.6777],[-64.4269,-19.5929,2553.6345],[-64.4231,-19.5839,2357.293],[-64.4347,-19.5819,2198.9507],[-64.4484,-19.5845,1895.8879],[-64.4494,-19.5782,1903.2037],[-64.4471,-19.5713,1974.0121],[-64.453,-19.5662,1923.7997],[-64.4528,-19.5631,1932.4047],[-64.4548,-19.5613,1927.937],[-64.4702,-19.5648,2078.3027],[-64.4756,-19.5692,2150.9958],[-64.4807,-19.5767,2308.999],[-64.4975,-19.576,2574.9214],[-64.5051,-19.5686,2482.1904],[-64.5072,-19.565,2479.1396],[-64.5068,-19.5609,2544.3188],[-64.5102,-19.5562,2586.7112],[-64.5132,-19.5567,2504.9321],[-64.5184,-19.5523,2457.8054],[-64.5225,-19.5556,2470.854],[-64.5315,-19.55,2479.3293],[-64.5371,-19.5525,2561.7129],[-64.5511,-19.5683,2787.2529],[-64.5825,-19.5645,3332.1475],[-64.5932,-19.5645,3441.4478],[-64.5942,-19.5661,3462.1729],[-64.5994,-19.5671,3512.4414],[-64.6028,-19.5636,3619.0398],[-64.6151,-19.5638,3809.0024],[-64.6231,-19.5692,3986.3232],[-64.6285,-19.5662,4117.4897],[-64.6275,-19.6024,3925.9973],[-64.629,-19.6214,4103.271],[-64.6302,-19.6276,4088.8472],[-64.6339,-19.6316,3937.3118],[-64.639,-19.634,4009.1748],[-64.6458,-19.6339,4041.136],[-64.6525,-19.6245,3851.2056],[-64.6629,-19.6164,4065.2026],[-64.6751,-19.6137,4050.719],[-64.682,-19.6143,4104.8022],[-64.6937,-19.6219,4063.5518],[-64.7054,-19.6432,3461.0498],[-64.7159,-19.6547,3240.5525],[-64.7263,-19.6587,3236.6353],[-64.7409,-19.6555,2917.2561],[-64.7519,-19.6552,2728.2156],[-64.7775,-19.6649,1848.4189],[-64.7733,-19.6737,1840.0593],[-64.7683,-19.6793,1856.8915],[-64.7671,-19.6841,1832.9176],[-64.7616,-19.6862,1827.5031],[-64.7512,-19.7035,1810.3943],[-64.7454,-19.7038,1807.259],[-64.7418,-19.707,1806.9166],[-64.7424,-19.7147,1804.1682],[-64.736,-19.7228,1791.6591],[-64.7349,-19.7373,1775.313],[-64.7268,-19.7466,1768.514],[-64.7273,-19.7514,1807.2106],[-64.73,-19.7562,1756.5254],[-64.7253,-19.7667,1744.8162],[-64.725,-19.7732,1740.0579],[-64.7173,-19.776,1755.4457],[-64.713,-19.7811,1765.1559],[-64.7138,-19.7839,1790.1606],[-64.7114,-19.7975,1728.9292],[-64.7063,-19.8027,1788.7585],[-64.7053,-19.8072,1737.348],[-64.6943,-19.8149,1720.6605],[-64.7012,-19.8244,1746.0718],[-64.7035,-19.8317,1691.4553],[-64.7024,-19.8418,1678.5858],[-64.7001,-19.8464,1696.5769],[-64.7016,-19.8514,1680.9567],[-64.6981,-19.8557,1666.3116],[-64.7034,-19.8697,1653.3966],[-64.7028,-19.8748,1645.6877],[-64.6986,-19.8777,1643.2549],[-64.698,-19.8814,1651.793],[-64.6902,-19.8863,1677.812],[-64.6917,-19.8915,1638.4918],[-64.6877,-19.8934,1657.9863],[-64.6883,-19.8975,1649.2065],[-64.6803,-19.9025,1620.9011],[-64.6795,-19.9059,1684.0901],[-64.6751,-19.9079,1742.3218],[-64.671,-19.9162,1615.7612],[-64.6739,-19.9209,1699.8767],[-64.6731,-19.924,1635.6801],[-64.6717,-19.926,1647.0903],[-64.6664,-19.9271,1671.2844],[-64.6591,-19.9356,1685.755],[-64.6573,-19.9415,1569.3474],[-64.6534,-19.9436,1570.1586],[-64.6535,-19.9523,1578.0236],[-64.64,-19.9612,1608.5748],[-64.6395,-19.9648,1573.4613],[-64.637,-19.9667,1569.505],[-64.6358,-19.9705,1617.1013],[-64.6309,-19.9738,1618.4716],[-64.6326,-19.9755,1528.6963],[-64.6329,-19.9815,1525.2654],[-64.6282,-19.9872,1551.6423],[-64.6312,-19.9931,1502.0979],[-64.6307,-19.9953,1514.9341],[-64.6186,-20.01,1514.4276],[-64.6094,-20.0165,1515.8383],[-64.6077,-20.024,1471.8992],[-64.6043,-20.0279,1467.8153],[-64.6055,-20.0366,1457.2542],[-64.6034,-20.0418,1467.4023],[-64.6054,-20.0456,1451.5073],[-64.6048,-20.0557,1453.5588],[-64.6016,-20.0607,1490.7599],[-64.5997,-20.0739,1424.2491],[-64.595,-20.0777,1507.9487],[-64.5913,-20.0858,1420.8707],[-64.5948,-20.0945,1407.088],[-64.5916,-20.0998,1401.7645],[-64.5912,-20.1083,1394.564],[-64.5891,-20.1136,1388.0081],[-64.5848,-20.1185,1383.2505],[-64.5852,-20.1214,1383.6945],[-64.583,-20.1249,1381.7241],[-64.5845,-20.1286,1374.2094],[-64.5818,-20.1334,1369.7217],[-64.5846,-20.1381,1366.2236],[-64.5818,-20.1419,1362.5906],[-64.5821,-20.1443,1361.6012],[-64.5892,-20.1486,1355.5558],[-64.5856,-20.1564,1349.194],[-64.588,-20.1658,1342.3849],[-64.5847,-20.1708,1337.2084],[-64.5862,-20.1781,1330.5354],[-64.5839,-20.1859,1324.3949],[-64.5858,-20.1938,1321.7375],[-64.5797,-20.2033,1316.0034],[-64.5797,-20.2073,1306.6426],[-64.5812,-20.2101,1315.7897],[-64.5854,-20.2126,1391.9275],[-64.5831,-20.2167,1297.0742],[-64.5838,-20.2216,1314.1656],[-64.589,-20.2274,1288.4451],[-64.5931,-20.2274,1384.5712],[-64.5946,-20.2311,1282.2476],[-64.5911,-20.2376,1284.9933],[-64.5905,-20.2441,1284.2026],[-64.5851,-20.2507,1321.1429],[-64.5887,-20.2592,1260.4442],[-64.587,-20.2665,1257.1918],[-64.5799,-20.2719,1248.8645],[-64.5743,-20.2721,1266.3925],[-64.5747,-20.2801,1286.4412],[-64.5779,-20.2869,1235.8813],[-64.5743,-20.3035,1223.8877],[-64.5749,-20.3076,1220.5032],[-64.5725,-20.3113,1308.9769],[-64.5717,-20.3175,1262.7289],[-64.5744,-20.3256,1207.4678],[-64.5727,-20.3305,1296.5865],[-64.5698,-20.3322,1253.8846],[-64.5731,-20.3385,1315.4047],[-64.5725,-20.3427,1251.4164],[-64.5756,-20.346,1208.7832],[-64.5702,-20.3495,1214.8523],[-64.5711,-20.3556,1192.2566],[-64.5697,-20.3604,1235.178],[-64.5717,-20.3644,1202.6581],[-64.5679,-20.3698,1175.9681],[-64.5608,-20.3699,1173.5198],[-64.5545,-20.3729,1170.5026],[-64.5534,-20.3749,1202.0881],[-64.5594,-20.3844,1162.0187],[-64.5598,-20.3886,1157.5543],[-64.5562,-20.3963,1167.2261],[-64.5619,-20.4008,1151.7538],[-64.5613,-20.4048,1148.4161],[-64.5514,-20.4212,1157.6991],[-64.5503,-20.4279,1131.0312],[-64.5465,-20.4304,1144.3361],[-64.5454,-20.4376,1181.806],[-64.5437,-20.4396,1141.6677],[-64.5351,-20.4412,1143.0771],[-64.532,-20.4445,1117.3021],[-64.5303,-20.4494,1112.3839],[-64.5278,-20.4503,1111.6273],[-64.5235,-20.4481,1108.5283],[-64.5179,-20.4488,1134.5171],[-64.513,-20.4468,1128.1086],[-64.511,-20.4486,1181.7913],[-64.5104,-20.4558,1096.2653],[-64.5075,-20.4585,1107.135],[-64.5042,-20.4538,1160.4503],[-64.4964,-20.4522,1158.9292],[-64.4941,-20.4604,1080.2465],[-64.4886,-20.4631,1075.6302],[-64.4839,-20.4597,1084.9427],[-64.4727,-20.4582,1066.8774],[-64.4711,-20.4562,1063.756],[-64.4712,-20.4542,1062.5737],[-64.477,-20.4518,1090.2241],[-64.4784,-20.4487,1121.0317],[-64.4753,-20.4338,1111.0601],[-64.4674,-20.4418,1046.1396],[-64.464,-20.4424,1084.1434],[-64.4583,-20.4499,1079.3367],[-64.4498,-20.4519,1030.7345],[-64.4495,-20.454,1065.2389],[-64.4521,-20.4576,1037.0685],[-64.4512,-20.4586,1026.9771],[-64.4435,-20.4567,1050.9246],[-64.4386,-20.4578,1147.3604],[-64.4378,-20.4604,1032.0465],[-64.4405,-20.4641,1014.3286],[-64.4401,-20.4675,1012.8217],[-64.4392,-20.469,1024.4956],[-64.4331,-20.4688,1077.2043],[-64.4307,-20.4703,1082.3453],[-64.4306,-20.4721,1039.593],[-64.4331,-20.4735,1098.0135],[-64.4327,-20.4757,1007.712],[-64.425,-20.4831,997.5365],[-64.4128,-20.4851,1002.7325],[-64.4003,-20.4831,990.3513],[-64.3975,-20.4779,1047.0947],[-64.3905,-20.4749,995.1501],[-64.3908,-20.4725,1030.6425],[-64.3869,-20.4692,994.489],[-64.3859,-20.4643,1092.9987],[-64.3813,-20.4615,962.9864],[-64.377,-20.4642,953.7203],[-64.3704,-20.4638,949.4577],[-64.3514,-20.4568,976.8288],[-64.3482,-20.4582,948.5139],[-64.3402,-20.458,971.1293],[-64.3384,-20.4557,1031.76],[-64.3307,-20.4526,1080.0947],[-64.3222,-20.4508,1039.6609],[-64.3098,-20.4537,949.5684],[-64.2984,-20.453,937.991],[-64.2947,-20.4539,964.2495],[-64.2914,-20.4571,914.3146],[-64.2887,-20.4537,999.2158],[-64.29,-20.4489,940.188],[-64.2882,-20.4455,995.0527],[-64.2914,-20.4411,1065.7417],[-64.2906,-20.4356,995.9826],[-64.2886,-20.4332,1046.4803],[-64.2917,-20.4296,1099.6069],[-64.2915,-20.4182,1127.0841],[-64.2893,-20.4142,1102.9741],[-64.2911,-20.4098,1168.8428],[-64.2898,-20.4037,1131.5811],[-64.2865,-20.3996,1144.754],[-64.288,-20.3968,1184.5358],[-64.2865,-20.3973,1178.5552],[-64.2831,-20.3949,1167.1599],[-64.283,-20.3923,1245.9316],[-64.2803,-20.3907,1206.9521],[-64.2839,-20.3796,1206.9062],[-64.2907,-20.3773,1270.386],[-64.2877,-20.3754,1298.9927],[-64.2895,-20.3737,1301.2927],[-64.2887,-20.3699,1343.1201],[-64.2899,-20.3699,1309.7773],[-64.2891,-20.3648,1343.5134],[-64.287,-20.3624,1310.3293],[-64.2896,-20.3522,1362.3662],[-64.2897,-20.3479,1437.5699],[-64.2875,-20.3442,1460.7261],[-64.2897,-20.3422,1448.0063],[-64.2902,-20.3374,1479.5059],[-64.2885,-20.3344,1584.9565],[-64.2915,-20.3296,1620.0891],[-64.2897,-20.3286,1552.7789],[-64.2909,-20.3232,1592.7632],[-64.2991,-20.306,1894.6584],[-64.3001,-20.2985,1920.2758],[-64.3134,-20.2778,2574.4634],[-64.301,-20.2603,2005.3785],[-64.2924,-20.2593,1935.4042],[-64.2871,-20.2622,1711.1287],[-64.2853,-20.2588,1686.1245],[-64.2895,-20.2548,1743.3585],[-64.2963,-20.2515,1753.2616],[-64.296,-20.2295,2345.3909],[-64.2942,-20.221,2476.2646],[-64.2979,-20.2142,2431.9165],[-64.3018,-20.1935,2576.5303],[-64.3107,-20.1916,2790.1545],[-64.3162,-20.1834,2761.1511],[-64.3148,-20.177,2760.6514],[-64.3159,-20.1684,2664.4028],[-64.3131,-20.1595,2644.8694],[-64.3148,-20.1508,2611.0044],[-64.3004,-20.141,2358.78],[-64.2994,-20.1301,2256.6367],[-64.2913,-20.1123,2184.4148],[-64.2922,-20.1034,2489.0378],[-64.2984,-20.0802,2685.5049],[-64.3029,-20.0729,2741.6228],[-64.3118,-20.0662,2590.0684],[-64.3177,-20.0454,2798.1255],[-64.3314,-20.0418,2908.5935],[-64.3364,-20.0275,2932.9944],[-64.3427,-20.0241,2985.7151],[-64.3448,-20.0145,3170.7002],[-64.3521,-20.0049,3193.9556],[-64.3503,-19.9861,3050.6902],[-64.3352,-19.982,2693.4734],[-64.3326,-19.9859,2786.9834],[-64.3298,-19.9856,2872.1587],[-64.3208,-19.9754,2883.0776],[-64.3201,-19.9588,2549.0269],[-64.3267,-19.9213,2969.7388],[-64.3263,-19.9183,3013.228],[-64.3208,-19.91,2976.8574],[-64.3168,-19.8907,3042.259],[-64.3186,-19.8815,3045.2886],[-64.3151,-19.8665,3205.8145]]]]}}