{"type": "Feature","bbox": [-65.813,-17.7084,-65.4418,-17.4909],"geometry": {"type": "MultiPolygon","coordinates": [[[[-65.6943,-17.5178,3611.7983],[-65.6964,-17.52,3641.1387],[-65.7033,-17.5164,3584.2666],[-65.7154,-17.5134,3572.4395],[-65.735,-17.5208,3368.3333],[-65.7524,-17.5171,3655.2236],[-65.763,-17.5179,3588.9072],[-65.777,-17.5361,3319.3042],[-65.7932,-17.5471,2735.4509],[-65.7955,-17.5472,2726.6729],[-65.7966,-17.5455,2727.3003],[-65.8041,-17.5476,2731.7397],[-65.8026,-17.5588,2721.3069],[-65.8058,-17.5581,2721.3774],[-65.8101,-17.5804,2709.45],[-65.8103,-17.591,2705.6492],[-65.813,-17.5968,2704.2808],[-65.8017,-17.5993,2705.3179],[-65.796,-17.6033,2856.5938],[-65.7958,-17.6079,2771.5588],[-65.7934,-17.6109,2956.2764],[-65.756,-17.6359,3404.9866],[-65.7448,-17.6455,3375.9614],[-65.7347,-17.6672,3476.8005],[-65.7352,-17.6716,3354.7422],[-65.7312,-17.6773,3398.0864],[-65.7197,-17.6779,3735.6072],[-65.7164,-17.6811,3866.9678],[-65.7078,-17.6835,4090.5195],[-65.7032,-17.6827,3970.4104],[-65.6974,-17.6749,3848.4072],[-65.6891,-17.6736,3926.1553],[-65.6826,-17.6702,3915.4092],[-65.6761,-17.6698,3986.918],[-65.6647,-17.658,4106.5557],[-65.6614,-17.6517,4142.208],[-65.6539,-17.6572,4146.3457],[-65.6382,-17.6624,4129.7832],[-65.6235,-17.6736,4178.6235],[-65.5863,-17.6871,4147.668],[-65.5777,-17.6953,4096.3696],[-65.5521,-17.7084,4079.0435],[-65.5216,-17.6974,3830.3843],[-65.5181,-17.6975,3868.1045],[-65.512,-17.6935,3801.4253],[-65.5084,-17.6827,3883.78],[-65.5075,-17.6663,3659.0596],[-65.5053,-17.6593,3581.9309],[-65.4999,-17.6525,3357.4314],[-65.4924,-17.6481,3375.9326],[-65.4901,-17.643,3584.1233],[-65.4995,-17.6371,3614.6289],[-65.5105,-17.6217,3614.0613],[-65.5197,-17.6148,3480.8516],[-65.5259,-17.613,3510.2659],[-65.5252,-17.6086,3599.0537],[-65.5269,-17.6033,3727.2375],[-65.5351,-17.5978,3714.4192],[-65.5359,-17.5813,3970.7297],[-65.5417,-17.5724,4015.4841],[-65.5423,-17.5652,4012.4189],[-65.5447,-17.5595,4176.1787],[-65.5417,-17.55,4293.667],[-65.5335,-17.5522,4283.874],[-65.5262,-17.5486,4315.4268],[-65.5182,-17.5518,4298.0503],[-65.499,-17.5376,3818.6401],[-65.4952,-17.5324,3878.5972],[-65.4845,-17.5387,3778.3887],[-65.4743,-17.5508,3848.2441],[-65.4569,-17.5608,3893.1504],[-65.4434,-17.5484,3236.2673],[-65.4418,-17.5427,3546.4397],[-65.4714,-17.524,3962.9346],[-65.475,-17.5189,3979.748],[-65.4803,-17.5166,3993.1001],[-65.483,-17.5136,3984.0747],[-65.4968,-17.5097,3951.3787],[-65.499,-17.501,3994.1641],[-65.52,-17.495,3907.8865],[-65.526,-17.5028,3913.7104],[-65.5945,-17.5063,3958.5391],[-65.5995,-17.5085,3887.2083],[-65.6063,-17.5051,3763.5073],[-65.6493,-17.4969,3740.4871],[-65.6618,-17.5002,3679.238],[-65.6682,-17.4912,3660.5566],[-65.6745,-17.4909,3661.0391],[-65.6812,-17.5065,3582.6604],[-65.6849,-17.5113,3529.8779],[-65.6943,-17.5178,3611.7983]]]]}
,"properties": {"GID_2": "BOL.2.1_2","GID_0": "BOL","country": "Bolivia","GID_1": "BOL.2_1","province": "Cochabamba","NL_NAME_1": "NA","county": "Arani","VARNAME_2": "NA","NL_NAME_2": "NA","TYPE_2": "Provincia","ENGTYPE_2": "Province","CC_2": "NA","HASC_2": "NA","name": "Arani.county","area_km2": 556.848,"hist_schema_id": "Elevation0-9000","hist_area_km2": {"2700": 4.2847,"2725": 17.686,"2750": 6.3665,"2775": 4.6888,"2800": 3.1932,"2825": 2.9709,"2850": 2.5465,"2875": 2.4859,"2900": 2.1625,"2925": 2.0412,"2950": 2.3848,"2975": 2.0614,"3000": 2.8699,"3025": 3.0719,"3050": 3.557,"3075": 3.6983,"3100": 4.2238,"3125": 3.5973,"3150": 4.0824,"3175": 4.8909,"3200": 4.3047,"3225": 4.8708,"3250": 4.5878,"3275": 4.6688,"3300": 6.5283,"3325": 8.3879,"3350": 9.2573,"3375": 8.5903,"3400": 40.1821,"3425": 31.5114,"3450": 23.7494,"3475": 23.749,"3500": 20.9196,"3525": 20.5747,"3550": 20.3114,"3575": 20.3099,"3600": 20.3092,"3625": 18.5512,"3650": 17.4196,"3675": 15.9853,"3700": 13.9846,"3725": 13.3788,"3750": 11.7218,"3775": 11.7824,"3800": 11.4998,"3825": 9.7818,"3850": 8.872,"3875": 7.5181,"3900": 6.8511,"3925": 5.5982,"3950": 4.5474,"3975": 5.3152,"4000": 3.86,"4025": 4.1024,"4050": 4.3047,"4075": 3.9413,"4100": 4.0022,"4125": 4.0428,"4150": 4.1439,"4175": 4.0228,"4200": 2.7496,"4225": 1.577,"4250": 0.8289,"4275": 0.465,"4300": 0.2022,"4325": 0.1213}}}