{"type":"Feature","properties":{"GID_3":"BOL.8.9.2_2","GID_0":"BOL","country":"Bolivia","GID_1":"BOL.8_1","province":"SantaCruz","NL_NAME_1":"NA","GID_2":"BOL.8.9_2","county":"ManuelMaríaCaballero","NL_NAME_2":"NA","city":"Saipina","VARNAME_3":"NA","NL_NAME_3":"NA","TYPE_3":"District","ENGTYPE_3":"Distrito","CC_3":"NA","HASC_3":"NA","name":"Saipina.city"},
"geometry":{"type": "MultiPolygon","coordinates": [[[[-64.6998,-18.0897,1403.0933],[-64.6972,-18.093,1473.1079],[-64.6935,-18.094,1435.6743],[-64.6919,-18.0988,1403.4817],[-64.6825,-18.0988,1407.3105],[-64.6793,-18.1014,1403.7051],[-64.6698,-18.1004,1391.856],[-64.6661,-18.1045,1384.1246],[-64.6606,-18.1039,1380.2646],[-64.6546,-18.1005,1384.3513],[-64.6447,-18.1029,1374.3129],[-64.6434,-18.1004,1371.5176],[-64.6389,-18.0991,1365.9646],[-64.635,-18.0959,1425.384],[-64.6264,-18.0966,1390.6887],[-64.6236,-18.0944,1385.4054],[-64.6206,-18.0964,1383.6233],[-64.6149,-18.0937,1365.1172],[-64.6112,-18.0962,1397.9231],[-64.6104,-18.1037,1360.6355],[-64.6067,-18.1044,1348.625],[-64.6041,-18.1093,1346.0641],[-64.5963,-18.1084,1341.6244],[-64.5826,-18.1149,1334.8416],[-64.5789,-18.1149,1332.3958],[-64.5732,-18.1209,1329.9564],[-64.5603,-18.1248,1324.3818],[-64.5584,-18.13,1321.9399],[-64.5534,-18.1338,1318.4611],[-64.5497,-18.1358,1317.5923],[-64.5456,-18.1356,1376.1925],[-64.5383,-18.1459,1314.3376],[-64.5393,-18.1504,1311.1265],[-64.5374,-18.153,1315.0527],[-64.5297,-18.1552,1312.3788],[-64.5277,-18.1575,1354.5856],[-64.5294,-18.1595,1309.2908],[-64.5222,-18.1604,1320.8242],[-64.5224,-18.1623,1310.4944],[-64.5264,-18.1647,1309.2385],[-64.523,-18.1694,1316.0928],[-64.5082,-18.163,1432.7079],[-64.4958,-18.1402,1749.6487],[-64.4852,-18.1391,1775.8127],[-64.4913,-18.1231,1990.344],[-64.4919,-18.1137,1989.7816],[-64.51,-18.102,1852.9456],[-64.511,-18.0889,1830.558],[-64.5282,-18.0577,1924.1599],[-64.5472,-18.0341,2027.0701],[-64.5514,-18.0321,2063.8191],[-64.5535,-18.0092,2155.9434],[-64.5624,-17.9825,1838.2177],[-64.568,-17.9589,1960.8235],[-64.5761,-17.9514,1829.4613],[-64.5784,-17.9375,1974.6084],[-64.5842,-17.9253,2186.5635],[-64.5968,-17.9142,2313.7236],[-64.6034,-17.9139,2457.1792],[-64.6177,-17.9324,2106.4246],[-64.6495,-17.9497,1899.5054],[-64.66,-17.9519,1848.2546],[-64.6821,-17.9442,2189.3901],[-64.6889,-17.9352,2448.3533],[-64.6932,-17.934,2404.8091],[-64.697,-17.9221,2498.7124],[-64.7125,-17.9146,2305.7458],[-64.7243,-17.9139,2117.4541],[-64.7336,-17.9297,2055.6687],[-64.747,-17.9279,2220.8169],[-64.7603,-17.93,2063.9685],[-64.7683,-17.9265,1937.2642],[-64.7775,-17.9291,1835.1707],[-64.8106,-17.9447,1612.413],[-64.8074,-17.9469,1615.4041],[-64.8041,-17.9532,1615.2626],[-64.7995,-17.9578,1580.7468],[-64.7988,-17.9637,1575.0265],[-64.7961,-17.9681,1592.1627],[-64.7864,-17.9747,1561.3562],[-64.7851,-17.979,1562.1429],[-64.7826,-17.9796,1557.9469],[-64.7833,-17.9818,1593.7009],[-64.78,-17.9789,1538.4025],[-64.7772,-17.9813,1536.7177],[-64.7744,-17.9772,1773.4048],[-64.7707,-17.9821,1657.4956],[-64.7663,-17.9849,1556.3317],[-64.7668,-17.9898,1545.839],[-64.7633,-18.0015,1514.6714],[-64.7536,-18.015,1487.2064],[-64.7503,-18.0169,1491.3634],[-64.7471,-18.0273,1488.6968],[-64.7369,-18.0393,1494.8845],[-64.7345,-18.038,1464.855],[-64.7254,-18.0406,1452.7523],[-64.7202,-18.0438,1459.3704],[-64.7166,-18.0428,1498.1321],[-64.7156,-18.0569,1439.7759],[-64.7192,-18.061,1425.7927],[-64.7144,-18.0661,1437.2726],[-64.7157,-18.0719,1432.4167],[-64.7144,-18.0736,1415.4414],[-64.7134,-18.0719,1418.8138],[-64.7113,-18.073,1418.2317],[-64.7114,-18.0781,1413.6439],[-64.7097,-18.0814,1419.7025],[-64.7064,-18.085,1403.4818],[-64.7012,-18.0872,1412.5106],[-64.6998,-18.0897,1403.0933]]]]}}