{"type": "Feature","bbox": [-64.7706,-15.8839,-63.3806,-14.7287],"geometry": {"type": "MultiPolygon","coordinates": [[[[-64.7706,-14.965,156.6048],[-64.7451,-14.9965,160.8194],[-64.7445,-15.0271,160.2148],[-64.7521,-15.0302,155.8872],[-64.7571,-15.0392,155.5854],[-64.7544,-15.0402,158.1742],[-64.7541,-15.0421,156.3747],[-64.7586,-15.0413,156.4391],[-64.7652,-15.0513,156.7187],[-64.7552,-15.0512,155.4698],[-64.7559,-15.0529,154.7503],[-64.7539,-15.0562,155.8731],[-64.757,-15.0592,157.9444],[-64.7554,-15.0646,159.2099],[-64.7528,-15.0596,160.8429],[-64.7506,-15.0635,161.0236],[-64.7445,-15.0664,159.0288],[-64.7418,-15.0661,160.5415],[-64.7381,-15.063,158.9539],[-64.7357,-15.0641,157.6107],[-64.7322,-15.0622,156.4417],[-64.7288,-15.063,157.7344],[-64.7327,-15.0645,156.9891],[-64.7343,-15.0714,156.6098],[-64.7305,-15.0736,156.9478],[-64.7255,-15.0726,157.1375],[-64.7243,-15.0756,158.3405],[-64.73,-15.0766,157.1279],[-64.7344,-15.0818,156.5639],[-64.7302,-15.0822,156.8185],[-64.727,-15.0788,158.8207],[-64.7258,-15.0819,157.7261],[-64.7275,-15.0872,156.2751],[-64.7237,-15.0843,158.2588],[-64.7206,-15.0875,158.4959],[-64.7136,-15.0885,158.686],[-64.7111,-15.0923,155.5594],[-64.7098,-15.0892,158.6874],[-64.705,-15.0893,157.9568],[-64.7059,-15.0944,156.3887],[-64.7108,-15.1008,161.0595],[-64.7025,-15.104,157.757],[-64.7009,-15.1066,156.4549],[-64.6897,-15.0985,157.6057],[-64.6877,-15.1021,157.327],[-64.6834,-15.1035,156.0692],[-64.6813,-15.0975,155.2937],[-64.6753,-15.0999,156.7804],[-64.6748,-15.098,156.1189],[-64.6775,-15.094,158.3087],[-64.6769,-15.0898,157.4272],[-64.6753,-15.0954,157.4758],[-64.6723,-15.0902,156.2018],[-64.6697,-15.0925,157.4903],[-64.6658,-15.0918,156.7628],[-64.6681,-15.0937,159.3326],[-64.6669,-15.0954,158.6081],[-64.6583,-15.0965,156.9872],[-64.6583,-15.1,157.2585],[-64.6607,-15.0988,158.9491],[-64.6632,-15.1006,159.0524],[-64.6614,-15.1035,158.9073],[-64.6625,-15.1107,157.3898],[-64.6651,-15.1061,155.743],[-64.6669,-15.107,163.7213],[-64.6676,-15.11,159.0345],[-64.6715,-15.1122,158.3477],[-64.671,-15.1076,156.9003],[-64.6749,-15.1082,161.4224],[-64.6758,-15.1104,163.5976],[-64.6745,-15.1127,159.713],[-64.6778,-15.1208,161.1883],[-64.6752,-15.1211,159.0518],[-64.6747,-15.1184,160.731],[-64.6718,-15.1164,164.452],[-64.6713,-15.1189,160.4352],[-64.6743,-15.1227,158.1635],[-64.6692,-15.1215,161.5781],[-64.6692,-15.1234,159.8535],[-64.6638,-15.1267,159.4744],[-64.6632,-15.1226,159.006],[-64.6589,-15.1275,160.7344],[-64.6587,-15.1252,156.7446],[-64.6565,-15.1244,157.3743],[-64.6575,-15.129,160.1217],[-64.6545,-15.1297,159.6546],[-64.6555,-15.1326,157.3944],[-64.6492,-15.1354,159.6942],[-64.6511,-15.1379,160.0634],[-64.6535,-15.136,161.2982],[-64.6574,-15.1405,156.3448],[-64.6523,-15.1408,160.9913],[-64.6508,-15.1441,161.8237],[-64.6466,-15.1458,160.8483],[-64.6435,-15.1424,159.004],[-64.6414,-15.1426,159.0666],[-64.6409,-15.1457,159.6694],[-64.643,-15.1473,164.14],[-64.6397,-15.1524,160.1567],[-64.6433,-15.154,158.5005],[-64.6437,-15.1563,158.9804],[-64.6417,-15.1596,159.917],[-64.6396,-15.1602,159.5024],[-64.639,-15.1563,160.8171],[-64.6323,-15.1561,160.4106],[-64.6321,-15.1584,162.3448],[-64.6366,-15.1582,162.5627],[-64.634,-15.1596,163.3852],[-64.6337,-15.164,161.5431],[-64.6226,-15.1636,157.1991],[-64.6261,-15.1676,159.3637],[-64.6215,-15.1691,159.1923],[-64.6204,-15.1711,158.9595],[-64.6245,-15.1716,160.8232],[-64.6229,-15.1772,161.8233],[-64.6269,-15.1786,157.9287],[-64.6271,-15.1816,159.5271],[-64.6243,-15.1821,165.2813],[-64.6216,-15.1787,159.7166],[-64.6172,-15.1849,160.5742],[-64.6108,-15.1843,159.3857],[-64.6116,-15.1899,163.2303],[-64.6063,-15.1878,158.2881],[-64.6033,-15.192,163.0168],[-64.6058,-15.1947,163.5908],[-64.6056,-15.1975,161.463],[-64.6002,-15.1955,163.4255],[-64.5976,-15.197,159.2454],[-64.599,-15.1989,161.301],[-64.6046,-15.1994,164.1447],[-64.604,-15.2023,162.5024],[-64.6008,-15.2008,162.3607],[-64.5946,-15.2013,165.867],[-64.5916,-15.1985,158.2332],[-64.5896,-15.2037,164.2716],[-64.5856,-15.2058,160.7231],[-64.5906,-15.2089,160.9423],[-64.5936,-15.2058,162.6729],[-64.5972,-15.2087,162.0465],[-64.5938,-15.2103,161.1316],[-64.5961,-15.2129,160.7692],[-64.5938,-15.2142,158.2906],[-64.594,-15.2174,161.7993],[-64.5915,-15.2209,160.756],[-64.5915,-15.2237,160.9827],[-64.5861,-15.227,160.1083],[-64.5878,-15.2284,164.3354],[-64.5908,-15.2276,163.3972],[-64.5906,-15.2307,166.8381],[-64.5885,-15.2318,161.4757],[-64.5828,-15.23,160.677],[-64.5888,-15.2326,161.4757],[-64.5875,-15.2339,158.9274],[-64.5889,-15.2359,162.4364],[-64.5868,-15.2375,163.2522],[-64.5913,-15.2394,162.9186],[-64.59,-15.2418,166.95],[-64.5914,-15.2482,163.7327],[-64.5883,-15.249,165.5998],[-64.5848,-15.2437,164.5112],[-64.5846,-15.2457,163.8345],[-64.5817,-15.2479,162.5262],[-64.5845,-15.2503,163.6853],[-64.5808,-15.2528,164.6538],[-64.5799,-15.2477,164.0742],[-64.5764,-15.2451,160.7286],[-64.5774,-15.2484,167.8887],[-64.5732,-15.2546,168.8388],[-64.5695,-15.2548,164.2619],[-64.5678,-15.2564,164.8016],[-64.5674,-15.2544,163.8003],[-64.5697,-15.2522,162.6517],[-64.5674,-15.2513,165.3369],[-64.5666,-15.2572,165.1809],[-64.57,-15.2572,161.6706],[-64.57,-15.2596,165.2405],[-64.5673,-15.2588,162.825],[-64.5648,-15.2615,163.8999],[-64.5666,-15.2638,164.1138],[-64.5727,-15.2643,164.4289],[-64.5726,-15.2673,167.5799],[-64.5747,-15.2704,163.9813],[-64.5712,-15.2691,164.2236],[-64.5677,-15.2701,163.6977],[-64.5725,-15.2715,166.6759],[-64.5719,-15.273,165.6974],[-64.5685,-15.2726,167.8241],[-64.5689,-15.2797,165.0287],[-64.571,-15.2796,164.8402],[-64.5721,-15.2847,166.7872],[-64.5736,-15.285,160.9657],[-64.5729,-15.2868,163.9502],[-64.5744,-15.2862,160.9657],[-64.5765,-15.2881,160.0597],[-64.5741,-15.2897,160.0905],[-64.5747,-15.2911,160.0905],[-64.5762,-15.2896,159.7932],[-64.5784,-15.2911,159.5522],[-64.5752,-15.2935,160.3495],[-64.5765,-15.2948,162.0147],[-64.5791,-15.2929,160.8718],[-64.5765,-15.2963,161.484],[-64.5797,-15.2959,160.4182],[-64.5819,-15.299,161.8359],[-64.5806,-15.2997,160.4688],[-64.5807,-15.2975,160.6648],[-64.5751,-15.2977,161.484],[-64.5775,-15.2985,161.0641],[-64.5776,-15.3,160.9016],[-64.5746,-15.2999,160.2119],[-64.5738,-15.302,160.4779],[-64.5757,-15.3021,161.0935],[-64.5771,-15.3058,160.6848],[-64.5711,-15.3043,160.6208],[-64.5746,-15.3071,161.7127],[-64.5729,-15.3084,161.2166],[-64.5728,-15.3064,160.7023],[-64.5712,-15.3072,160.7023],[-64.5705,-15.3108,161.1955],[-64.5677,-15.3071,162.5364],[-64.5666,-15.3072,163.6815],[-64.5672,-15.3095,161.8593],[-64.5643,-15.3088,164.0814],[-64.5628,-15.3122,161.0994],[-64.5656,-15.313,161.717],[-64.5659,-15.3149,161.8753],[-64.5628,-15.3138,163.2414],[-64.5623,-15.317,164.0695],[-64.5649,-15.3161,161.8753],[-64.5664,-15.3176,161.3404],[-64.5624,-15.3195,163.3483],[-64.5655,-15.3201,162.2264],[-64.5661,-15.3223,162.328],[-64.5644,-15.3219,162.0279],[-64.564,-15.3242,162.1815],[-64.5622,-15.3237,162.5008],[-64.558,-15.3262,166.3871],[-64.5579,-15.3285,165.188],[-64.5547,-15.3284,162.9512],[-64.5533,-15.332,164.2501],[-64.5499,-15.329,162.1347],[-64.5519,-15.3273,163.7841],[-64.549,-15.326,164.644],[-64.5471,-15.3271,168.1819],[-64.5473,-15.3254,168.0094],[-64.5457,-15.3268,164.8703],[-64.5439,-15.3253,163.7441],[-64.5401,-15.3263,163.2686],[-64.5434,-15.329,165.484],[-64.5415,-15.3283,164.5898],[-64.5417,-15.33,166.0849],[-64.5381,-15.3305,166.285],[-64.5381,-15.3325,167.9531],[-64.5402,-15.3337,163.9247],[-64.5399,-15.3362,164.873],[-64.5422,-15.3371,164.812],[-64.5446,-15.3349,166.7894],[-64.5464,-15.3369,168.8259],[-64.545,-15.3399,167.3539],[-64.5421,-15.3401,170.0474],[-64.5428,-15.3418,169.6272],[-64.5451,-15.341,167.3539],[-64.5469,-15.3432,162.1633],[-64.5466,-15.3412,166.7555],[-64.549,-15.3411,167.1431],[-64.5549,-15.3447,164.656],[-64.5582,-15.3429,166.7644],[-64.5563,-15.346,164.656],[-64.5592,-15.347,163.55],[-64.5581,-15.3488,169.6795],[-64.5591,-15.3516,162.6178],[-64.5573,-15.3534,163.0316],[-64.5599,-15.3569,161.1365],[-64.5833,-15.364,161.1687],[-64.576,-15.3951,161.3694],[-64.5736,-15.3969,163.0612],[-64.564,-15.4345,162.5114],[-64.5566,-15.4494,163.2346],[-64.5505,-15.469,167.6273],[-64.5292,-15.5109,163.9011],[-64.518,-15.523,163.8002],[-64.5061,-15.5298,164.4491],[-64.4963,-15.5332,166.3997],[-64.4903,-15.5376,179.5899],[-64.4862,-15.549,180.4924],[-64.4849,-15.5725,176.7319],[-64.4808,-15.5808,172.8492],[-64.4774,-15.5968,181.9431],[-64.4779,-15.5994,182.2527],[-64.486,-15.6016,167.3794],[-64.4875,-15.6069,182.0498],[-64.4863,-15.6656,179.0],[-64.4882,-15.7317,187.8484],[-64.4878,-15.7786,182.1285],[-64.4856,-15.7931,183.354],[-64.487,-15.8251,182.2975],[-63.3806,-15.8839,196.9783],[-63.3819,-15.8805,197.4216],[-63.3895,-15.8746,195.229],[-63.3868,-15.8683,199.1042],[-63.3839,-15.8659,196.4022],[-63.3894,-15.8633,192.6583],[-63.3856,-15.8614,194.7671],[-63.3868,-15.8569,194.9232],[-63.3884,-15.8589,193.3571],[-63.394,-15.8548,195.2849],[-63.4105,-15.8583,197.2683],[-63.4079,-15.8481,195.36],[-63.3994,-15.8509,196.9675],[-63.3998,-15.8472,201.2296],[-63.4049,-15.8432,195.4189],[-63.4096,-15.8419,197.6272],[-63.4121,-15.8438,199.0128],[-63.4145,-15.8519,200.551],[-63.4162,-15.8529,200.551],[-63.4289,-15.8451,203.0929],[-63.4286,-15.8413,200.2238],[-63.4213,-15.838,197.3556],[-63.4224,-15.8357,198.7534],[-63.43,-15.832,194.9486],[-63.4295,-15.8258,196.8632],[-63.4403,-15.8278,195.2974],[-63.4442,-15.8248,196.2583],[-63.4422,-15.8196,192.1965],[-63.4343,-15.8196,191.3315],[-63.4352,-15.8171,193.4743],[-63.4413,-15.8137,194.1172],[-63.4404,-15.809,191.0098],[-63.4309,-15.8078,191.2021],[-63.4391,-15.8014,194.0129],[-63.4401,-15.7888,194.8975],[-63.4364,-15.7882,194.5646],[-63.4328,-15.7935,192.8432],[-63.4294,-15.7921,191.7247],[-63.4303,-15.7879,191.2592],[-63.4381,-15.7836,193.8001],[-63.4383,-15.78,192.611],[-63.4405,-15.782,190.6747],[-63.4451,-15.7783,197.6714],[-63.4421,-15.7764,196.1167],[-63.4352,-15.779,193.0185],[-63.435,-15.7754,192.284],[-63.4401,-15.7681,190.7185],[-63.4369,-15.765,195.7298],[-63.4313,-15.7646,191.3169],[-63.4298,-15.7628,200.2153],[-63.4319,-15.7604,198.1659],[-63.4365,-15.7596,196.5716],[-63.442,-15.7638,196.0879],[-63.4422,-15.7605,193.2104],[-63.4398,-15.7577,192.2441],[-63.4324,-15.7546,191.6203],[-63.4293,-15.7491,195.8963],[-63.441,-15.7482,194.0742],[-63.4343,-15.743,191.8215],[-63.443,-15.7366,194.9586],[-63.446,-15.7421,190.5179],[-63.4576,-15.7404,188.1932],[-63.4553,-15.7333,193.4639],[-63.4613,-15.7319,190.2399],[-63.4624,-15.7292,207.022],[-63.4696,-15.735,192.3291],[-63.471,-15.7346,190.1649],[-63.4721,-15.7191,189.4184],[-63.4754,-15.7165,190.2552],[-63.4818,-15.7209,194.1032],[-63.4831,-15.7181,192.8851],[-63.475,-15.7125,187.9058],[-63.4754,-15.7064,193.2293],[-63.4818,-15.7001,191.2075],[-63.482,-15.7023,189.435],[-63.4875,-15.706,187.2587],[-63.4914,-15.7065,190.6006],[-63.4916,-15.702,188.1156],[-63.489,-15.6987,188.4735],[-63.497,-15.6948,186.9347],[-63.4923,-15.6877,188.4795],[-63.5005,-15.6867,191.1261],[-63.5037,-15.681,194.1549],[-63.5078,-15.6828,192.7213],[-63.5131,-15.6749,190.9131],[-63.5122,-15.6655,185.3323],[-63.516,-15.6624,192.2126],[-63.5242,-15.6625,188.1136],[-63.523,-15.6582,188.8354],[-63.5252,-15.6549,187.6959],[-63.5273,-15.658,198.3516],[-63.5376,-15.6652,191.8443],[-63.5411,-15.6547,190.3096],[-63.5435,-15.6524,189.5567],[-63.5491,-15.6513,187.0197],[-63.5534,-15.6554,188.8709],[-63.5521,-15.66,187.8737],[-63.566,-15.6589,191.1667],[-63.5677,-15.6625,190.4302],[-63.5669,-15.6667,190.4458],[-63.574,-15.6653,191.2649],[-63.5796,-15.6609,190.8173],[-63.573,-15.653,192.5258],[-63.5848,-15.6466,187.3335],[-63.5863,-15.6367,188.0325],[-63.5819,-15.6362,191.2394],[-63.5829,-15.634,186.1734],[-63.5921,-15.6321,187.7111],[-63.5981,-15.6288,187.5471],[-63.5992,-15.6325,186.9931],[-63.5976,-15.638,186.5413],[-63.6174,-15.6317,189.3103],[-63.6214,-15.6335,189.8989],[-63.6221,-15.6369,197.5481],[-63.6238,-15.6377,186.2831],[-63.632,-15.6321,192.5924],[-63.6306,-15.6282,188.6785],[-63.6321,-15.6256,185.3169],[-63.6344,-15.6247,185.2159],[-63.6395,-15.6266,192.6488],[-63.642,-15.6245,194.6859],[-63.6415,-15.6215,191.6341],[-63.639,-15.6195,192.9602],[-63.6321,-15.6195,184.2769],[-63.6346,-15.614,185.3147],[-63.6345,-15.6094,184.5407],[-63.6465,-15.6093,191.1544],[-63.6474,-15.6051,188.5762],[-63.6444,-15.6015,189.3609],[-63.6483,-15.5973,188.2901],[-63.6429,-15.5942,184.1847],[-63.6567,-15.5858,194.7807],[-63.6575,-15.5835,186.2268],[-63.655,-15.5833,190.2993],[-63.6535,-15.5852,191.7168],[-63.6516,-15.5837,192.1704],[-63.6566,-15.5787,191.5863],[-63.6592,-15.5778,194.8411],[-63.6637,-15.5815,188.0146],[-63.6677,-15.5825,188.9242],[-63.6699,-15.5728,188.3728],[-63.6714,-15.5714,188.3728],[-63.6766,-15.5769,191.0446],[-63.6779,-15.5822,188.6045],[-63.6815,-15.5752,192.7472],[-63.6857,-15.574,183.2478],[-63.6903,-15.5763,189.1089],[-63.6903,-15.5816,187.8059],[-63.6927,-15.5812,191.0865],[-63.6932,-15.5754,191.0817],[-63.6903,-15.5687,185.7053],[-63.6846,-15.5647,187.4806],[-63.6934,-15.5538,187.4225],[-63.6891,-15.5412,183.6467],[-63.6898,-15.5336,186.3436],[-63.686,-15.5325,194.003],[-63.682,-15.5375,183.7515],[-63.681,-15.5361,184.7513],[-63.6828,-15.5294,189.827],[-63.6908,-15.5227,184.3618],[-63.6879,-15.5196,188.6096],[-63.6794,-15.518,188.5929],[-63.6781,-15.5162,185.3521],[-63.6899,-15.5094,185.2716],[-63.6801,-15.5003,185.4774],[-63.6804,-15.4973,183.5016],[-63.6931,-15.4894,188.1245],[-63.6953,-15.4915,187.4334],[-63.695,-15.495,185.3381],[-63.6965,-15.4955,187.102],[-63.6974,-15.4847,181.1978],[-63.6998,-15.4829,185.3283],[-63.7068,-15.4887,185.297],[-63.7121,-15.4899,183.7249],[-63.7135,-15.4839,185.6046],[-63.7121,-15.4813,189.003],[-63.7174,-15.4754,184.2948],[-63.7183,-15.47,187.353],[-63.7253,-15.4657,184.6862],[-63.7227,-15.4636,180.7939],[-63.7224,-15.4611,184.7094],[-63.7266,-15.4597,184.6759],[-63.7283,-15.4547,184.3534],[-63.7311,-15.453,182.7718],[-63.7369,-15.4555,186.4038],[-63.7346,-15.46,183.8389],[-63.7357,-15.4643,184.6339],[-63.7329,-15.4692,180.3515],[-63.7434,-15.4653,183.9944],[-63.744,-15.4613,180.4587],[-63.7417,-15.4556,181.3337],[-63.7428,-15.455,181.3337],[-63.7463,-15.4578,182.3368],[-63.7489,-15.4705,182.76],[-63.7513,-15.4726,182.5141],[-63.7534,-15.4693,186.9822],[-63.7535,-15.4606,182.9378],[-63.7554,-15.456,182.2225],[-63.7612,-15.4515,185.2699],[-63.7658,-15.4535,178.6279],[-63.7661,-15.4491,183.2171],[-63.7628,-15.4417,180.5191],[-63.7651,-15.4382,184.6038],[-63.7771,-15.4384,182.7685],[-63.7806,-15.4364,182.757],[-63.7842,-15.4378,183.2599],[-63.7835,-15.4393,179.1081],[-63.788,-15.436,182.1001],[-63.7937,-15.4284,178.7719],[-63.7942,-15.4235,182.0181],[-63.7984,-15.4201,181.944],[-63.7937,-15.4185,184.0466],[-63.7901,-15.413,184.4417],[-63.7792,-15.4072,178.7306],[-63.7799,-15.4051,181.7895],[-63.7835,-15.404,185.1791],[-63.789,-15.4055,183.6819],[-63.7848,-15.3997,185.9539],[-63.7752,-15.4032,182.7855],[-63.7757,-15.3965,180.821],[-63.7784,-15.3907,178.3988],[-63.7814,-15.3892,177.6898],[-63.781,-15.3908,179.9308],[-63.7829,-15.3906,183.3476],[-63.7861,-15.3857,180.1653],[-63.7917,-15.3855,182.8345],[-63.7914,-15.3807,182.3289],[-63.8007,-15.3751,179.9893],[-63.7971,-15.3684,181.5167],[-63.8047,-15.3685,180.7696],[-63.8245,-15.3597,183.0576],[-63.8247,-15.358,183.1017],[-63.8169,-15.3548,181.9911],[-63.8193,-15.3525,185.1303],[-63.8264,-15.3517,183.2438],[-63.8318,-15.353,180.3405],[-63.8343,-15.3493,180.7613],[-63.8343,-15.3452,180.7029],[-63.8377,-15.3426,183.6217],[-63.8375,-15.3405,179.7437],[-63.8323,-15.3386,180.8259],[-63.8367,-15.3317,182.6165],[-63.8316,-15.3285,181.0896],[-63.832,-15.327,185.2366],[-63.8348,-15.3248,182.0422],[-63.8425,-15.3257,182.9609],[-63.8422,-15.3186,186.1363],[-63.8564,-15.3023,181.0864],[-63.8515,-15.293,178.2278],[-63.8552,-15.2855,175.9311],[-63.8528,-15.2805,178.3053],[-63.8559,-15.2767,177.2441],[-63.8531,-15.2694,176.6158],[-63.8564,-15.2688,176.1142],[-63.863,-15.2724,179.4871],[-63.864,-15.2712,176.3213],[-63.8611,-15.2645,179.2157],[-63.8619,-15.2621,177.1613],[-63.8636,-15.2613,177.0907],[-63.8702,-15.2652,177.509],[-63.8713,-15.2637,177.8205],[-63.8674,-15.2552,178.1273],[-63.8625,-15.2564,178.3661],[-63.8665,-15.249,178.9496],[-63.861,-15.2439,175.3436],[-63.8609,-15.2418,175.9859],[-63.867,-15.2356,183.4683],[-63.8585,-15.227,177.3806],[-63.8762,-15.2189,175.5174],[-63.8829,-15.2201,177.2419],[-63.8837,-15.2144,176.9666],[-63.8887,-15.2056,174.5948],[-63.8924,-15.2107,177.3172],[-63.8952,-15.21,177.1748],[-63.8954,-15.2058,176.3216],[-63.8913,-15.2021,176.2118],[-63.8922,-15.1964,175.1553],[-63.8848,-15.1986,176.1854],[-63.8831,-15.1968,174.7228],[-63.8841,-15.1918,177.3315],[-63.8899,-15.1905,175.3264],[-63.8873,-15.1848,175.6034],[-63.8929,-15.1749,174.0432],[-63.8946,-15.174,173.609],[-63.8978,-15.1764,175.0164],[-63.9002,-15.1755,175.2367],[-63.9014,-15.1664,175.0278],[-63.9062,-15.169,176.2324],[-63.9084,-15.1623,175.1691],[-63.9124,-15.1664,184.8212],[-63.9152,-15.1669,177.9775],[-63.9181,-15.1607,178.088],[-63.9234,-15.1594,180.2518],[-63.9256,-15.1641,171.9201],[-63.9347,-15.1694,172.9464],[-63.9397,-15.1594,178.1551],[-63.9436,-15.16,175.2814],[-63.9377,-15.1498,172.0479],[-63.9401,-15.1475,172.8943],[-63.9393,-15.1429,174.6341],[-63.9432,-15.141,174.4514],[-63.9398,-15.1367,173.954],[-63.9445,-15.1325,176.0386],[-63.94,-15.1274,175.7627],[-63.9406,-15.1223,172.4388],[-63.9447,-15.1159,177.9002],[-63.9416,-15.11,178.6737],[-63.9451,-15.1026,173.406],[-63.9482,-15.1034,179.14],[-63.9516,-15.1018,175.4778],[-63.9468,-15.0925,173.8125],[-63.9581,-15.0828,182.3015],[-63.9579,-15.08,183.9207],[-63.9545,-15.0806,179.5489],[-63.9524,-15.0792,174.4848],[-63.9541,-15.0747,175.7504],[-63.9575,-15.069,178.3521],[-63.9636,-15.069,177.637],[-63.9615,-15.0619,178.765],[-63.9425,-15.0536,175.9251],[-63.931,-15.0401,177.1017],[-63.9178,-15.0327,174.6277],[-63.9236,-15.0265,176.7346],[-63.9303,-15.0269,175.7282],[-63.9343,-15.0213,174.0537],[-63.9387,-15.0196,175.1031],[-63.9406,-15.0143,182.0547],[-63.9404,-15.013,182.0547],[-63.9309,-15.0095,180.4547],[-63.931,-15.0032,175.5749],[-63.9243,-15.0024,174.2891],[-63.9219,-15.0006,172.8955],[-63.9235,-14.9926,170.2882],[-63.9213,-14.9887,172.3952],[-63.9249,-14.9827,170.7773],[-63.9228,-14.9676,176.3217],[-63.9293,-14.9577,172.7537],[-63.9343,-14.955,173.9213],[-63.9286,-14.9501,180.404],[-63.9323,-14.9466,176.5652],[-63.9331,-14.9405,175.8274],[-63.9357,-14.9393,171.5218],[-63.9332,-14.937,173.0992],[-63.9353,-14.9331,174.8246],[-63.9389,-14.9337,176.3943],[-63.944,-14.9282,172.9897],[-63.9388,-14.9201,180.6534],[-63.9385,-14.9149,173.0744],[-63.9394,-14.914,174.9736],[-63.9422,-14.9154,173.5729],[-63.9403,-14.9104,176.3182],[-63.9457,-14.9048,168.9707],[-63.9424,-14.8985,171.2363],[-63.9392,-14.8962,178.6751],[-63.9418,-14.8873,169.6959],[-63.9466,-14.8807,171.9429],[-63.9469,-14.8771,174.0883],[-63.9438,-14.8728,170.6492],[-63.9451,-14.8711,169.0566],[-63.9449,-14.8659,170.4825],[-63.9423,-14.8594,170.8008],[-63.9438,-14.8535,168.8657],[-63.9402,-14.853,172.7782],[-63.9373,-14.8461,167.9906],[-63.9377,-14.8413,171.2124],[-63.9404,-14.8402,173.7064],[-63.9399,-14.837,174.9178],[-63.9367,-14.8326,178.5439],[-63.9378,-14.8312,171.2622],[-63.937,-14.8268,176.2684],[-63.9329,-14.8221,186.0963],[-63.931,-14.807,174.7474],[-63.9274,-14.8027,174.2711],[-63.9328,-14.7945,177.6992],[-63.9304,-14.7921,180.5849],[-63.9301,-14.7872,177.6698],[-63.9262,-14.7805,174.4358],[-63.9264,-14.7721,165.5343],[-63.9321,-14.7665,174.5086],[-63.9425,-14.7631,172.5649],[-63.9436,-14.7586,174.6567],[-63.9534,-14.7565,174.9453],[-63.956,-14.7586,173.4611],[-63.959,-14.7577,175.0782],[-63.9627,-14.7517,171.3127],[-63.9677,-14.7483,179.6729],[-63.9686,-14.744,173.3466],[-63.9674,-14.7413,178.4091],[-63.9735,-14.7398,166.6188],[-63.9785,-14.7364,173.8617],[-63.9741,-14.7322,177.5399],[-63.9744,-14.7287,163.1723],[-64.4099,-14.8801,164.9275],[-64.4475,-14.8885,173.8705],[-64.5128,-14.8916,160.6808],[-64.5815,-14.9019,165.7256],[-64.6423,-14.9171,167.9673],[-64.7706,-14.965,156.6048]]]]}
,"properties": {"GID_3": "BOL.3.5.2_2","GID_0": "BOL","country": "Bolivia","GID_1": "BOL.3_1","province": "Beni","NL_NAME_1": "NA","GID_2": "BOL.3.5_2","county": "Marbán","NL_NAME_2": "NA","city": "SanAndrés","VARNAME_3": "NA","NL_NAME_3": "NA","TYPE_3": "District","ENGTYPE_3": "Distrito","CC_3": "NA","HASC_3": "NA","name": "San_Andrés.city","area_km2": 9999.711,"hist_schema_id": "Elevation0-9000","hist_area_km2": {"150": 1126.0,"175": 7534.747,"200": 1337.74,"225": 0.388,"250": 0.326,"275": 0.224,"300": 0.245}}}