{"type":"Feature","properties":{"GID_2":"BOL.7.16_2","GID_0":"BOL","country":"Bolivia","GID_1":"BOL.7_1","province":"Potosí","NL_NAME_1":"NA","county":"TomásFrías","VARNAME_2":"NA","NL_NAME_2":"NA","TYPE_2":"Provincia","ENGTYPE_2":"Province","CC_2":"NA","HASC_2":"NA","name":"Tomás_Frías.county"},
"geometry":{"type": "MultiPolygon","coordinates": [[[[-65.7666,-19.7752,4473.4438],[-65.7666,-19.783,4606.3789],[-65.7483,-19.7942,4223.0659],[-65.7334,-19.7987,4349.1465],[-65.7275,-19.8061,4497.293],[-65.7226,-19.8213,4302.5859],[-65.7055,-19.8224,4483.1421],[-65.6964,-19.8203,4741.6582],[-65.6915,-19.8239,4752.2603],[-65.6799,-19.8159,4671.1816],[-65.6774,-19.8004,4872.0244],[-65.6666,-19.7876,4978.521],[-65.6611,-19.7719,4864.3984],[-65.666,-19.7676,4955.3599],[-65.6657,-19.762,4838.1606],[-65.6732,-19.7478,4420.9741],[-65.6625,-19.7451,4494.0439],[-65.6546,-19.7393,4542.7168],[-65.64,-19.7237,4627.8267],[-65.6379,-19.7142,4723.6104],[-65.6496,-19.7081,4790.793],[-65.661,-19.7047,4880.3877],[-65.6635,-19.6996,4801.9131],[-65.6654,-19.6934,4787.644],[-65.6631,-19.6884,4839.3945],[-65.6649,-19.684,4838.4941],[-65.6642,-19.6727,4834.9297],[-65.6625,-19.6655,4819.4365],[-65.656,-19.6649,4941.7847],[-65.6567,-19.6583,4833.3682],[-65.6554,-19.6555,4865.1089],[-65.6591,-19.6479,4771.5098],[-65.6635,-19.6434,4828.374],[-65.6637,-19.6334,4948.4956],[-65.6715,-19.6313,4880.895],[-65.6748,-19.6202,4913.5527],[-65.6734,-19.6155,4902.1133],[-65.6676,-19.6116,4835.1777],[-65.6623,-19.6118,4908.5781],[-65.6529,-19.6002,4806.938],[-65.6511,-19.595,4707.3037],[-65.6516,-19.5859,4642.0288],[-65.6496,-19.5813,4688.4424],[-65.6531,-19.5786,4660.7148],[-65.6516,-19.574,4622.8911],[-65.6543,-19.5693,4586.1113],[-65.6491,-19.5618,4403.9648],[-65.6428,-19.556,4107.8174],[-65.6363,-19.5436,3855.2415],[-65.6176,-19.5375,3720.1143],[-65.6125,-19.5302,3662.7998],[-65.6079,-19.5273,3641.0625],[-65.602,-19.5261,3640.001],[-65.5997,-19.5287,3588.2393],[-65.5929,-19.5208,3551.5544],[-65.6123,-19.5059,3605.2524],[-65.612,-19.4987,3555.8794],[-65.5989,-19.4977,3583.8794],[-65.5967,-19.4855,3659.3438],[-65.5925,-19.4783,3756.7104],[-65.5789,-19.472,4059.4285],[-65.5799,-19.4688,4083.1509],[-65.5782,-19.4652,4143.5557],[-65.564,-19.4642,3870.499],[-65.5569,-19.4613,3756.7588],[-65.5525,-19.4612,3736.8652],[-65.5481,-19.4583,3695.189],[-65.5433,-19.4591,3668.9519],[-65.5381,-19.4539,3646.2249],[-65.5354,-19.4484,3616.0667],[-65.5299,-19.4446,3591.5107],[-65.5271,-19.4448,3571.1443],[-65.5273,-19.4421,3616.8208],[-65.5339,-19.4345,3782.2449],[-65.5458,-19.4307,3872.4883],[-65.549,-19.4265,4075.2083],[-65.5517,-19.4159,4012.4236],[-65.547,-19.3872,4571.7896],[-65.5495,-19.3827,4546.7822],[-65.5514,-19.369,4447.1118],[-65.5541,-19.3672,4426.6606],[-65.5542,-19.3638,4466.167],[-65.5567,-19.3615,4468.1968],[-65.557,-19.3569,4526.5781],[-65.563,-19.3544,4492.0186],[-65.5645,-19.3493,4422.752],[-65.5676,-19.3465,4401.2915],[-65.5675,-19.344,4433.1528],[-65.5757,-19.3402,4490.5449],[-65.5792,-19.3316,4371.2461],[-65.5878,-19.321,4365.3145],[-65.5975,-19.3203,4150.2681],[-65.606,-19.3217,4346.8271],[-65.6061,-19.3259,4391.1084],[-65.6188,-19.3216,4295.4692],[-65.623,-19.3172,4257.0884],[-65.6262,-19.3176,4207.0327],[-65.6307,-19.3144,4098.3223],[-65.6393,-19.3144,3885.8069],[-65.6475,-19.3103,3850.4321],[-65.6553,-19.3164,4068.533],[-65.6584,-19.3217,4091.6987],[-65.6617,-19.3369,4130.4175],[-65.6587,-19.352,4117.7568],[-65.6614,-19.3543,4200.751],[-65.6621,-19.3581,4166.7603],[-65.6658,-19.3581,4162.5991],[-65.6727,-19.3511,4081.3535],[-65.6718,-19.3407,4097.8438],[-65.6819,-19.327,4042.4824],[-65.6907,-19.3108,3906.9106],[-65.69,-19.3019,3928.2119],[-65.6931,-19.2883,3862.1619],[-65.698,-19.2793,3879.1548],[-65.693,-19.2558,3598.3889],[-65.6903,-19.2522,3789.658],[-65.6882,-19.2446,4059.0076],[-65.6918,-19.2415,4029.5242],[-65.6967,-19.24,3855.7542],[-65.6969,-19.2371,3923.5903],[-65.7048,-19.2303,3548.3833],[-65.7033,-19.2203,3501.7805],[-65.7043,-19.2131,3242.6633],[-65.6999,-19.1964,3027.95],[-65.7068,-19.179,3120.8887],[-65.7063,-19.1772,3135.3037],[-65.6978,-19.1715,3439.5784],[-65.6921,-19.1631,3635.3735],[-65.6827,-19.1672,3437.7754],[-65.6707,-19.1758,2968.5344],[-65.6698,-19.1691,3005.7522],[-65.6572,-19.1468,2933.0552],[-65.6622,-19.1436,3167.6758],[-65.6883,-19.1422,3880.2744],[-65.6927,-19.1349,3865.3914],[-65.6959,-19.1325,3839.7148],[-65.6982,-19.1258,3837.2178],[-65.7,-19.1254,3825.9409],[-65.7099,-19.1117,3907.7952],[-65.7168,-19.1049,4093.6714],[-65.7221,-19.1042,4248.4082],[-65.7258,-19.1005,4337.4678],[-65.7295,-19.094,4399.9185],[-65.7337,-19.0788,4477.1973],[-65.7415,-19.0768,4641.6147],[-65.7327,-19.0558,4347.0981],[-65.7397,-19.046,4230.3159],[-65.7481,-19.0425,4276.4873],[-65.758,-19.034,3951.8108],[-65.7642,-19.0348,3951.175],[-65.7689,-19.0307,3972.9211],[-65.7802,-19.0387,4013.832],[-65.785,-19.0366,4045.2861],[-65.7955,-19.0273,4095.9292],[-65.8054,-19.0269,4121.4912],[-65.8142,-19.0247,4200.167],[-65.823,-19.027,4442.0762],[-65.8254,-19.0232,4471.3701],[-65.8331,-19.0198,4433.832],[-65.8543,-19.0027,4470.3789],[-65.8638,-18.9797,4605.3887],[-65.8731,-18.9714,4440.8623],[-65.8864,-18.9689,4518.1289],[-65.92,-18.9733,4434.5938],[-65.934,-18.9728,4419.9985],[-65.9609,-18.9805,4094.0337],[-65.9673,-18.9898,4070.8398],[-65.9757,-18.9841,4068.7583],[-65.9963,-18.9904,3820.8081],[-66.0007,-18.9939,3794.3062],[-66.0123,-19.0091,3937.3594],[-66.0242,-19.014,4099.9678],[-66.0288,-19.0229,4229.7632],[-66.0364,-19.0275,4169.2051],[-66.0457,-19.0492,4114.499],[-66.0493,-19.0474,4120.6875],[-66.0573,-19.0515,3887.9192],[-66.0623,-19.0486,3947.5474],[-66.0689,-19.0517,3975.2297],[-66.0674,-19.0571,4008.4517],[-66.0771,-19.0737,4235.085],[-66.0793,-19.0856,4294.3149],[-66.0883,-19.0835,4364.4297],[-66.093,-19.0851,4475.5161],[-66.0908,-19.0923,4408.6416],[-66.0861,-19.0998,4179.8813],[-66.0872,-19.1034,4165.6958],[-66.0914,-19.1039,4182.6768],[-66.093,-19.1057,4207.5283],[-66.1028,-19.1208,4595.9414],[-66.099,-19.1291,4453.6294],[-66.103,-19.14,4163.5439],[-66.1127,-19.15,4123.188],[-66.1127,-19.157,4180.8809],[-66.1007,-19.1745,4113.6016],[-66.1041,-19.1812,4048.967],[-66.1141,-19.1902,4226.4951],[-66.1189,-19.1969,4234.6455],[-66.1242,-19.2083,4277.291],[-66.1256,-19.2156,4298.7275],[-66.1291,-19.2189,4249.8008],[-66.1295,-19.2226,4246.3506],[-66.1253,-19.2373,4234.415],[-66.13,-19.2431,4152.3511],[-66.1301,-19.2456,4130.127],[-66.1391,-19.2453,4014.0442],[-66.146,-19.2394,3920.2598],[-66.1507,-19.2389,3881.4436],[-66.153,-19.2341,3828.386],[-66.1614,-19.2337,3792.6433],[-66.1645,-19.2364,3773.9136],[-66.1718,-19.2377,3832.689],[-66.1788,-19.2418,3858.9014],[-66.1889,-19.2421,4009.5112],[-66.2018,-19.2528,4099.668],[-66.2171,-19.2565,4084.6792],[-66.2213,-19.2621,3897.0625],[-66.2228,-19.2743,4049.8394],[-66.2291,-19.2862,4289.2261],[-66.2574,-19.3003,4611.4004],[-66.2624,-19.3015,4551.6172],[-66.27,-19.2986,4525.1763],[-66.2721,-19.3032,4420.1533],[-66.2711,-19.3141,4343.6543],[-66.2766,-19.3171,4350.8276],[-66.2843,-19.3286,4394.2095],[-66.304,-19.3706,4552.2876],[-66.3358,-19.4154,4542.4893],[-66.3569,-19.4537,4624.125],[-66.3604,-19.49,4652.6807],[-66.3342,-19.5557,4786.3564],[-66.3088,-19.5937,4575.0381],[-66.2598,-19.6443,4651.0103],[-66.2292,-19.6589,4783.625],[-66.194,-19.7069,4560.957],[-66.1729,-19.6931,4640.1235],[-66.1308,-19.6889,4517.5742],[-66.0791,-19.6776,4683.4409],[-66.0541,-19.6811,4518.7769],[-65.9953,-19.6706,4283.312],[-65.9818,-19.6717,4310.7949],[-65.9692,-19.6742,4284.9062],[-65.9691,-19.6783,4388.3936],[-65.9663,-19.6838,4483.7051],[-65.9405,-19.6945,4499.3574],[-65.9365,-19.6953,4523.0898],[-65.9207,-19.689,4293.0508],[-65.9153,-19.6892,4337.4316],[-65.9038,-19.6932,4314.1348],[-65.8999,-19.6996,4000.6357],[-65.8887,-19.709,3816.7048],[-65.868,-19.7121,3961.6475],[-65.8458,-19.7061,4074.0537],[-65.8357,-19.7059,4078.8721],[-65.831,-19.715,3897.6995],[-65.8299,-19.7294,3919.5911],[-65.8318,-19.7314,3867.0312],[-65.8375,-19.7523,4158.5728],[-65.8206,-19.7621,4156.6787],[-65.8121,-19.7624,4232.1416],[-65.8069,-19.7504,4273.9609],[-65.8005,-19.7432,4216.0039],[-65.7964,-19.7443,4317.7173],[-65.7869,-19.7533,4444.8652],[-65.7755,-19.7553,4673.5444],[-65.769,-19.7597,4583.6211],[-65.7666,-19.7638,4621.9375],[-65.7666,-19.7752,4473.4438]]]]}}