{"type": "Feature","bbox": [-65.2502,-21.6154,-64.3915,-20.931],"geometry": {"type": "MultiPolygon","coordinates": [[[[-65.1241,-20.9655,2193.376],[-65.1293,-20.9574,2221.1045],[-65.1343,-20.9635,2192.0715],[-65.141,-20.9647,2183.7644],[-65.1435,-20.9575,2185.4604],[-65.1476,-20.9534,2223.7476],[-65.1502,-20.9557,2190.532],[-65.1496,-20.9604,2220.9829],[-65.1518,-20.9637,2224.7524],[-65.1572,-20.9577,2243.856],[-65.1568,-20.9526,2305.9883],[-65.1592,-20.9494,2266.0208],[-65.1582,-20.9459,2278.2136],[-65.1631,-20.9452,2229.4968],[-65.166,-20.9496,2204.0378],[-65.1695,-20.9502,2205.7231],[-65.1723,-20.9481,2257.0918],[-65.1757,-20.9495,2257.1523],[-65.1766,-20.9516,2216.9485],[-65.1744,-20.9557,2242.0513],[-65.1761,-20.9566,2208.8452],[-65.1793,-20.9546,2237.2349],[-65.1817,-20.9588,2215.7341],[-65.1854,-20.9611,2228.6733],[-65.1839,-20.965699999999998,2310.5166],[-65.1865,-20.9679,2298.155],[-65.1865,-20.9704,2268.5576],[-65.1884,-20.971,2316.3879],[-65.1893,-20.9758,2225.4319],[-65.1874,-20.9801,2223.3511],[-65.1923,-20.9842,2217.989],[-65.1924,-20.9977,2228.3984],[-65.1898,-21.0007,2282.3208],[-65.1917,-21.0064,2225.1282],[-65.1883,-21.0133,2231.9846],[-65.1926,-21.021,2245.3093],[-65.1927,-21.0246,2256.7036],[-65.1974,-21.029,2269.9756],[-65.1962,-21.0324,2293.0481],[-65.1983,-21.0407,2244.1475],[-65.1967,-21.0445,2248.6616],[-65.1976,-21.0471,2246.1086],[-65.1957,-21.0495,2259.5808],[-65.2005,-21.0623,2275.6006],[-65.1992,-21.0664,2313.9658],[-65.202,-21.0714,2321.9873],[-65.2013,-21.0803,2307.4915],[-65.2028,-21.0843,2273.0869],[-65.1986,-21.092,2311.0269],[-65.2019,-21.0971,2283.8574],[-65.1966,-21.1023,2305.7632],[-65.1992,-21.1093,2333.5237],[-65.1977,-21.1154,2298.5972],[-65.2005,-21.1224,2292.1201],[-65.1991,-21.1278,2300.1101],[-65.2,-21.1399,2313.6162],[-65.198,-21.1422,2305.8457],[-65.1933,-21.1382,2324.1758],[-65.1904,-21.1403,2314.7983],[-65.1902,-21.144,2350.3374],[-65.1944,-21.1464,2300.1833],[-65.1946,-21.1487,2328.394],[-65.1912,-21.1516,2329.127],[-65.1912,-21.1574,2333.6133],[-65.1884,-21.1604,2328.2683],[-65.1896,-21.1643,2330.532],[-65.1961,-21.1708,2324.7334],[-65.2046,-21.1754,2301.5942],[-65.2053,-21.1782,2303.2056],[-65.2032,-21.181,2306.8569],[-65.2118,-21.192,2307.0786],[-65.2118,-21.1939,2307.0828],[-65.2073,-21.1953,2307.9976],[-65.2,-21.204,2326.4795],[-65.2061,-21.2085,2316.0537],[-65.205,-21.2112,2313.4143],[-65.2007,-21.2132,2322.1179],[-65.2003,-21.2211,2349.5083],[-65.2057,-21.2225,2318.4121],[-65.2114,-21.2317,2320.9663],[-65.2119,-21.2364,2323.2275],[-65.2064,-21.2398,2328.0959],[-65.214,-21.2462,2404.1978],[-65.211,-21.2555,2336.7087],[-65.2135,-21.2577,2333.2747],[-65.22,-21.2522,2365.5312],[-65.2228,-21.2533,2336.5532],[-65.2242,-21.2564,2350.2407],[-65.2233,-21.2584,2351.4194],[-65.2181,-21.2583,2378.9355],[-65.2162,-21.2608,2359.3027],[-65.2171,-21.2634,2340.6467],[-65.2203,-21.2626,2378.8901],[-65.2204,-21.2688,2362.2673],[-65.216,-21.273,2342.936],[-65.2139,-21.2792,2345.3667],[-65.2172,-21.2864,2364.3245],[-65.2117,-21.2915,2354.1831],[-65.2132,-21.296,2352.4766],[-65.2187,-21.3012,2350.9902],[-65.217,-21.3041,2352.4014],[-65.2184,-21.3082,2354.2358],[-65.2163,-21.3117,2355.4741],[-65.2192,-21.3154,2356.6367],[-65.2174,-21.3202,2357.8813],[-65.2235,-21.3234,2385.562],[-65.2253,-21.3263,2360.5098],[-65.2215,-21.3276,2365.4858],[-65.22,-21.3352,2369.6504],[-65.2214,-21.3365,2366.6428],[-65.2263,-21.3349,2367.6169],[-65.228,-21.3364,2370.2949],[-65.2266,-21.3399,2376.7773],[-65.2283,-21.3464,2368.7705],[-65.2231,-21.3513,2380.3628],[-65.2316,-21.3672,2433.0649],[-65.2309,-21.3754,2380.0303],[-65.2326,-21.3831,2387.7627],[-65.2296,-21.3863,2383.3311],[-65.2327,-21.388,2384.7983],[-65.2337,-21.3917,2407.5303],[-65.2306,-21.3963,2386.0159],[-65.2305,-21.4016,2389.6528],[-65.2372,-21.4051,2392.5181],[-65.2373,-21.4073,2396.0256],[-65.2352,-21.409,2394.8391],[-65.2369,-21.4149,2395.28],[-65.2347,-21.4252,2412.8257],[-65.2428,-21.4315,2410.7849],[-65.2438,-21.4387,2404.7542],[-65.2414,-21.4479,2406.9375],[-65.2439,-21.4531,2410.4482],[-65.2419,-21.4619,2412.3818],[-65.2494,-21.469,2439.9734],[-65.2461,-21.4781,2423.5527],[-65.2502,-21.4838,2428.6731],[-65.2471,-21.4891,2428.7734],[-65.2409,-21.4845,2488.1614],[-65.237,-21.4855,2531.1882],[-65.2263,-21.4919,2590.4746],[-65.2229,-21.492,2611.1804],[-65.2228,-21.4949,2638.1953],[-65.2166,-21.4985,2675.1626],[-65.209,-21.4989,2715.7307],[-65.2075,-21.5021,2740.4343],[-65.1988,-21.5039,2788.3728],[-65.1954,-21.5064,2826.1545],[-65.1928,-21.5051,2828.1169],[-65.1859,-21.5081,2901.8843],[-65.1804,-21.5076,2925.6614],[-65.1737,-21.5142,2960.032],[-65.145,-21.4862,3227.1208],[-65.0848,-21.5119,3921.5872],[-65.0837,-21.5305,3980.4512],[-65.0817,-21.5364,3958.2625],[-65.0819,-21.5481,4083.2],[-65.0804,-21.5519,4086.0679],[-65.0623,-21.5565,3850.917],[-65.0427,-21.5637,4235.3711],[-65.0379,-21.5702,3976.7854],[-65.0335,-21.5922,4061.3872],[-65.0256,-21.6093,4217.8311],[-65.0222,-21.6118,4181.6523],[-64.9743,-21.6154,4265.8423],[-64.9728,-21.5972,3845.6528],[-64.9737,-21.5853,3712.9453],[-64.9715,-21.5809,3673.2437],[-64.9703,-21.5725,3644.7104],[-64.965,-21.5752,3719.269],[-64.9591,-21.5822,3661.916],[-64.9592,-21.5887,3682.6216],[-64.9561,-21.5947,3703.5156],[-64.9574,-21.5998,3716.5171],[-64.9558,-21.6083,3743.6497],[-64.9344,-21.6088,4266.9146],[-64.9334,-21.606,4210.3057],[-64.9223,-21.6049,3839.7783],[-64.9124,-21.581,3958.4285],[-64.8967,-21.5846,3794.8789],[-64.8859,-21.5849,3553.8716],[-64.8783,-21.5815,3428.1216],[-64.8763,-21.5743,3501.7983],[-64.8638,-21.5713,3160.7832],[-64.8529,-21.5727,2995.8438],[-64.8505,-21.569,3019.9089],[-64.8358,-21.5624,2790.8335],[-64.8265,-21.5669,2728.7854],[-64.8116,-21.5578,2524.3384],[-64.8101,-21.5533,2519.4768],[-64.804,-21.5502,2546.2607],[-64.8027,-21.5461,2401.4336],[-64.7983,-21.5443,2367.9199],[-64.7961,-21.5404,2354.1577],[-64.7904,-21.5383,2400.1199],[-64.7906,-21.5395,2400.1199],[-64.7868,-21.5305,2299.563],[-64.7795,-21.5253,2228.5706],[-64.7798,-21.5161,2062.2969],[-64.7821,-21.5086,1992.9438],[-64.7728,-21.5008,1972.1454],[-64.7602,-21.5001,1934.6774],[-64.7552,-21.4779,1933.2571],[-64.7518,-21.4697,1939.4253],[-64.7448,-21.4671,1947.9475],[-64.7399,-21.4605,1969.5758],[-64.7329,-21.4553,1968.5334],[-64.717,-21.4311,2009.9874],[-64.7169,-21.4283,2012.5902],[-64.7116,-21.4209,2028.09],[-64.7108,-21.4164,2037.0701],[-64.713,-21.4091,2052.5117],[-64.7131,-21.4025,2060.6777],[-64.7115,-21.3981,2063.5735],[-64.6986,-21.3898,2089.7397],[-64.6847,-21.3854,2135.293],[-64.6772,-21.3883,2131.7534],[-64.6657,-21.3837,2203.9363],[-64.6564,-21.3847,2180.7637],[-64.652,-21.3756,2226.2559],[-64.6496,-21.3746,2237.5715],[-64.6502,-21.3677,2408.4333],[-64.6467,-21.3466,2485.8616],[-64.6408,-21.3438,2491.5344],[-64.639,-21.3298,2685.335],[-64.6411,-21.3257,2739.3052],[-64.6363,-21.3232,2905.8398],[-64.6248,-21.3212,3137.4968],[-64.6234,-21.3025,2961.0879],[-64.6307,-21.2873,2960.6804],[-64.6324,-21.2746,3120.2046],[-64.6225,-21.2663,2859.6121],[-64.6211,-21.2549,2542.6638],[-64.6128,-21.2468,2163.1042],[-64.6108,-21.2423,2129.603],[-64.6118,-21.2369,2109.1304],[-64.6087,-21.2366,2207.1787],[-64.6006,-21.2402,2553.3875],[-64.5871,-21.2395,3182.6665],[-64.5814,-21.2477,3034.0376],[-64.5856,-21.2592,3279.2468],[-64.5893,-21.2824,3244.7048],[-64.5878,-21.2864,3248.6924],[-64.566,-21.286,2953.1953],[-64.5553,-21.2812,2876.1987],[-64.546,-21.2825,2897.4038],[-64.5413,-21.2966,2931.532],[-64.5442,-21.3059,2889.05],[-64.5429,-21.3118,2970.7227],[-64.535,-21.3271,2763.8354],[-64.5204,-21.327,2519.0664],[-64.5034,-21.3324,2575.3303],[-64.4927,-21.3414,2644.3257],[-64.4844,-21.3405,2462.957],[-64.4772,-21.3461,2429.1013],[-64.4707,-21.3465,2295.0684],[-64.4673,-21.3445,2275.584],[-64.4634,-21.3271,2058.5537],[-64.4539,-21.3261,1972.9612],[-64.4498,-21.3205,2007.7517],[-64.4462,-21.3203,1885.8365],[-64.4406,-21.3156,1836.9331],[-64.4371,-21.3089,1799.5996],[-64.4354,-21.2949,1715.418],[-64.4403,-21.2828,1661.0046],[-64.4345,-21.2748,1619.4806],[-64.4295,-21.2625,1554.7777],[-64.432,-21.2419,1474.4348],[-64.4304,-21.2394,1469.1129],[-64.4248,-21.2369,1433.1954],[-64.4236,-21.2342,1421.5483],[-64.425,-21.2244,1455.4828],[-64.4215,-21.2167,1362.4169],[-64.4244,-21.2088,1319.6018],[-64.4233,-21.2011,1359.7285],[-64.4203,-21.1989,1271.5792],[-64.4196,-21.1957,1258.3462],[-64.4209,-21.1879,1224.9172],[-64.4196,-21.1809,1249.8],[-64.4214,-21.1777,1210.094],[-64.4187,-21.174,1260.5045],[-64.4091,-21.1707,1145.708],[-64.4057,-21.1661,1105.4694],[-64.4038,-21.1573,1071.8319],[-64.4002,-21.1546,1073.6488],[-64.3981,-21.1486,1065.8636],[-64.393,-21.1459,1011.5884],[-64.3915,-21.1433,1004.7746],[-64.3919,-21.1221,1018.3805],[-64.3986,-21.1186,950.3795],[-64.3998,-21.1142,1010.0161],[-64.4066,-21.11,943.7172],[-64.413,-21.1095,948.642],[-64.4131,-21.1018,987.5608],[-64.4149,-21.0995,1065.9569],[-64.4187,-21.0989,987.6693],[-64.4299,-21.1033,959.9789],[-64.4337,-21.1003,962.241],[-64.4352,-21.0967,967.9702],[-64.4417,-21.0933,971.1766],[-64.4444,-21.088,976.1756],[-64.4507,-21.0847,989.8625],[-64.455,-21.0851,988.9054],[-64.4571,-21.0831,1040.4136],[-64.4676,-21.0866,985.9694],[-64.4739,-21.0853,1025.3032],[-64.4803,-21.0861,1111.1366],[-64.4805,-21.0913,999.8343],[-64.4818,-21.092,999.8343],[-64.4916,-21.0919,1009.5781],[-64.4961,-21.0961,1012.6973],[-64.5054,-21.0954,1064.6064],[-64.5117,-21.0995,1024.3247],[-64.5174,-21.0992,1088.1572],[-64.5215,-21.0968,1084.3799],[-64.5272,-21.0976,1033.1218],[-64.5308,-21.0919,1069.6121],[-64.5374,-21.0899,1039.2054],[-64.5359,-21.0835,1148.3901],[-64.5385,-21.0819,1044.3793],[-64.5445,-21.0825,1050.4137],[-64.5464,-21.0812,1046.876],[-64.5485,-21.0681,1049.5931],[-64.5551,-21.0626,1056.3762],[-64.5571,-21.056,1064.8015],[-64.5624,-21.0526,1062.1202],[-64.5681,-21.0426,1067.1846],[-64.5676,-21.0342,1074.866],[-64.5717,-21.0314,1076.2795],[-64.5774,-21.0326,1080.0439],[-64.5805,-21.025,1131.4487],[-64.5793,-21.0186,1125.7556],[-64.5847,-21.0164,1085.6376],[-64.5848,-21.0074,1178.1523],[-64.5884,-21.0052,1177.9924],[-64.5923,-21.0076,1114.8643],[-64.5989,-21.0024,1099.9663],[-64.6016,-20.9955,1102.3169],[-64.6013,-20.991,1104.778],[-64.6051,-20.9819,1112.0991],[-64.615,-20.9782,1159.1829],[-64.6215,-20.9813,1118.3281],[-64.6251,-20.9793,1125.6693],[-64.6283,-20.9748,1143.8479],[-64.6384,-20.9712,1170.7665],[-64.644,-20.9642,1136.608],[-64.6452,-20.9547,1150.8771],[-64.6522,-20.9552,1144.2968],[-64.6547,-20.9529,1166.8981],[-64.6546,-20.9494,1219.4368],[-64.659,-20.9448,1234.59],[-64.6668,-20.9405,1172.5715],[-64.6781,-20.9428,1163.6799],[-64.6851,-20.9415,1167.172],[-64.6907,-20.9389,1169.8971],[-64.693,-20.935,1173.6017],[-64.7002,-20.931,1192.2928],[-64.7125,-20.9346,1182.4512],[-64.7147,-20.937,1184.7136],[-64.7197,-20.9365,1192.4977],[-64.7276,-20.9414,1192.104],[-64.7336,-20.9531,1202.0162],[-64.7351,-20.9621,1207.8446],[-64.734,-20.9673,1211.9934],[-64.7399,-20.973,1218.2255],[-64.761,-20.9802,1253.05],[-64.7625,-20.9829,1256.8613],[-64.7574,-20.9852,1292.4248],[-64.7562,-20.9898,1247.4849],[-64.7572,-20.9942,1248.3298],[-64.7686,-21.0145,1312.1488],[-64.7712,-21.016,1315.2246],[-64.7679,-21.0212,1414.3069],[-64.7696,-21.0256,1292.3906],[-64.7709,-21.0274,1319.6718],[-64.7793,-21.0302,1327.052],[-64.7821,-21.0376,1352.4473],[-64.7818,-21.0425,1359.7076],[-64.7789,-21.0438,1412.2108],[-64.7782,-21.0472,1352.3417],[-64.7759,-21.0481,1358.4271],[-64.7744,-21.055,1457.4937],[-64.7782,-21.0606,1381.2002],[-64.7878,-21.062,1456.1766],[-64.792,-21.0678,1458.1338],[-64.7904,-21.0758,1584.1857],[-64.7968,-21.0862,1480.0645],[-64.7978,-21.0947,1577.7676],[-64.8041,-21.0968,1500.8374],[-64.8098,-21.0942,1553.5823],[-64.8178,-21.0932,1530.9495],[-64.8367,-21.093,1554.6458],[-64.8391,-21.0944,1613.9581],[-64.8392,-21.0977,1536.051],[-64.8358,-21.1043,1608.8566],[-64.8386,-21.1059,1673.3068],[-64.8561,-21.1056,1876.9017],[-64.8542,-21.0957,1719.1384],[-64.8503,-21.0922,1775.4695],[-64.8673,-21.0791,1792.5564],[-64.8852,-21.0787,1732.7457],[-64.8954,-21.0733,1748.9907],[-64.8953,-21.0684,1869.0215],[-64.8896,-21.0675,1904.6411],[-64.8842,-21.0643,1791.5409],[-64.8896,-21.0568,1846.25],[-64.9,-21.0545,1916.5519],[-64.9124,-21.059,1920.8699],[-64.9186,-21.0592,2059.1985],[-64.9253,-21.0526,1876.2196],[-64.9239,-21.0444,1978.0566],[-64.9259,-21.0401,1942.8406],[-64.9262,-21.0328,1999.1207],[-64.9342,-21.0267,2003.7948],[-64.9394,-21.0271,2232.9871],[-64.9422,-21.0242,2209.7156],[-64.9443,-21.0243,2209.373],[-64.9453,-21.0258,2216.0801],[-64.9439,-21.0278,2302.0154],[-64.9438,-21.0339,2184.6169],[-64.9405,-21.0378,2256.4822],[-64.9437,-21.0377,2272.0112],[-64.9504,-21.0417,2382.7231],[-64.9473,-21.0334,2223.3147],[-64.9493,-21.0322,2257.9207],[-64.9543,-21.0337,2179.6543],[-64.9546,-21.0262,2204.2383],[-64.9564,-21.0243,2174.6018],[-64.96,-21.0238,2154.3374],[-64.96,-21.0291,2115.9695],[-64.9628,-21.0306,2158.6748],[-64.9674,-21.0267,2157.6409],[-64.9774,-21.027,2119.6179],[-64.976,-21.0234,2140.2786],[-64.9699,-21.023,2154.1077],[-64.9695,-21.0211,2168.7646],[-64.9745,-21.0164,2109.4856],[-64.9767,-21.0175,2189.3325],[-64.9794,-21.016,2222.9958],[-64.986,-21.0159,2116.2454],[-64.9859,-21.0089,2186.939],[-64.9878,-21.0081,2146.2317],[-64.9922,-21.0106,2123.364],[-64.9924,-21.0198,2141.6475],[-64.9985,-21.0208,2129.2751],[-65.0008,-21.0142,2156.6846],[-65.0041,-21.0162,2175.1709],[-65.0046,-21.0196,2112.5286],[-64.9995,-21.0239,2108.4124],[-64.9997,-21.0263,2114.0154],[-65.0129,-21.0294,2130.8369],[-65.0146,-21.0213,2141.2544],[-65.0177,-21.0204,2171.0962],[-65.0194,-21.0212,2171.0962],[-65.0209,-21.0253,2133.0347],[-65.0271,-21.0276,2132.4326],[-65.0278,-21.0256,2154.3179],[-65.0216,-21.0168,2139.0056],[-65.0223,-21.0118,2140.4502],[-65.0284,-21.0067,2129.5815],[-65.0317,-21.0065,2131.054],[-65.0314,-21.0103,2128.8623],[-65.026,-21.0148,2164.6426],[-65.0265,-21.0167,2153.6455],[-65.0289,-21.0172,2140.6189],[-65.0334,-21.0143,2161.106],[-65.0403,-21.0143,2132.4482],[-65.0441,-21.0084,2264.8052],[-65.051,-21.0087,2148.4617],[-65.0514,-21.0054,2153.1331],[-65.0487,-21.0035,2207.0471],[-65.0445,-21.0039,2144.5896],[-65.0443,-21.0002,2161.8462],[-65.0539,-20.9969,2188.4194],[-65.0534,-20.9931,2168.0547],[-65.059,-20.9875,2146.1987],[-65.0572,-20.9805,2160.9543],[-65.0628,-20.9807,2150.9275],[-65.0617,-20.9733,2180.769],[-65.065,-20.9708,2169.1289],[-65.0694,-20.9707,2150.8547],[-65.07,-20.9589,2193.0474],[-65.0729,-20.9592,2190.5178],[-65.0742,-20.9646,2157.6714],[-65.0784,-20.964,2172.6501],[-65.0824,-20.9605,2237.4189],[-65.0868,-20.9626,2159.8481],[-65.0887,-20.9661,2160.5796],[-65.0857,-20.9737,2159.1094],[-65.0889,-20.977,2165.9661],[-65.0939,-20.976,2162.1978],[-65.0968,-20.9688,2199.6565],[-65.1022,-20.9689,2201.7969],[-65.105,-20.9726,2167.6897],[-65.1027,-20.9744,2209.0103],[-65.1,-20.9741,2231.1694],[-65.0994,-20.9759,2190.6384],[-65.1093,-20.9794,2223.4668],[-65.1121,-20.982,2173.8381],[-65.1145,-20.9801,2174.5049],[-65.1148,-20.9775,2179.6631],[-65.1123,-20.9738,2201.217],[-65.1084,-20.9727,2177.7468],[-65.1091,-20.9698,2195.7732],[-65.1143,-20.9708,2194.2119],[-65.1188,-20.9686,2225.9663],[-65.1231,-20.9693,2203.2937],[-65.125,-20.9682,2189.7935],[-65.1241,-20.9655,2193.376]]]]}
,"properties": {"GID_2": "BOL.9.5_2","GID_0": "BOL","country": "Bolivia","GID_1": "BOL.9_1","province": "Tarija","NL_NAME_1": "NA","county": "Méndez","VARNAME_2": "NA","NL_NAME_2": "NA","TYPE_2": "Provincia","ENGTYPE_2": "Province","CC_2": "NA","HASC_2": "NA","name": "Méndez.county","area_km2": 4053.314,"hist_schema_id": "Elevation0-9000","hist_area_km2": {"925": 0.297,"950": 1.167,"975": 1.899,"1000": 1.879,"1025": 2.275,"1050": 3.323,"1075": 4.253,"1100": 5.461,"1125": 5.343,"1150": 6.194,"1175": 6.471,"1200": 6.51,"1225": 6.728,"1250": 6.965,"1275": 6.985,"1300": 7.677,"1325": 8.408,"1350": 7.696,"1375": 8.191,"1400": 9.14,"1425": 8.843,"1450": 8.329,"1475": 9.258,"1500": 9.634,"1525": 10.109,"1550": 9.831,"1575": 9.554,"1600": 10.108,"1625": 10.741,"1650": 10.266,"1675": 10.82,"1700": 10.978,"1725": 11.314,"1750": 10.8,"1775": 12.204,"1800": 11.491,"1825": 12.461,"1850": 12.481,"1875": 11.907,"1900": 12.144,"1925": 14.02,"1950": 18.579,"1975": 22.681,"2000": 28.288,"2025": 33.932,"2050": 39.74,"2075": 35.182,"2100": 35.245,"2125": 34.124,"2150": 33.932,"2175": 35.141,"2200": 33.065,"2225": 34.767,"2250": 33.047,"2275": 34.924,"2300": 37.157,"2325": 40.319,"2350": 46.798,"2375": 50.413,"2400": 50.847,"2425": 53.87,"2450": 53.655,"2475": 56.5,"2500": 57.567,"2525": 60.672,"2550": 60.928,"2575": 61.266,"2600": 62.137,"2625": 62.99,"2650": 65.758,"2675": 70.858,"2700": 74.097,"2725": 77.041,"2750": 79.272,"2775": 83.167,"2800": 92.375,"2825": 91.226,"2850": 88.722,"2875": 84.312,"2900": 86.207,"2925": 84.266,"2950": 83.557,"2975": 80.274,"3000": 76.754,"3025": 75.827,"3050": 71.811,"3075": 67.464,"3100": 61.434,"3125": 55.07,"3150": 51.729,"3175": 49.653,"3200": 44.594,"3225": 44.078,"3250": 40.283,"3275": 39.747,"3300": 39.45,"3325": 39.407,"3350": 45.507,"3375": 52.77,"3400": 44.491,"3425": 40.991,"3450": 34.116,"3475": 29.355,"3500": 23.827,"3525": 21.577,"3550": 22.13,"3575": 21.358,"3600": 19.679,"3625": 18.946,"3650": 17.386,"3675": 16.929,"3700": 16.909,"3725": 14.5,"3750": 15.169,"3775": 13.808,"3800": 13.492,"3825": 12.367,"3850": 11.223,"3875": 11.44,"3900": 10.079,"3925": 9.27,"3950": 9.171,"3975": 8.441,"4000": 7.238,"4025": 6.272,"4050": 5.937,"4075": 5.996,"4100": 5.246,"4125": 5.227,"4150": 4.458,"4175": 3.57,"4200": 3.254,"4225": 2.899,"4250": 3.136,"4275": 2.071,"4300": 1.223,"4325": 0.848,"4350": 0.395,"4375": 0.158,"4400": 0.099}}}