{"type": "Feature","bbox": [-67.1996,-17.6319,-66.8157,-17.2375],"geometry": {"type": "MultiPolygon","coordinates": [[[[-66.878,-17.2979,2312.3857],[-66.8801,-17.3025,2339.2419],[-66.8863,-17.3036,2348.6982],[-66.9022,-17.3126,2447.5986],[-66.9112,-17.3076,2540.5591],[-66.9218,-17.3068,2592.8064],[-66.9279,-17.2995,2818.1436],[-66.9291,-17.2952,2927.9946],[-66.9445,-17.2792,3482.2939],[-66.9464,-17.2751,3546.4399],[-66.9553,-17.2755,3931.1201],[-66.9633,-17.2726,4410.5376],[-66.9707,-17.2679,4432.4775],[-66.9744,-17.2629,4394.8877],[-66.9781,-17.2622,4410.6597],[-66.9856,-17.2552,4509.9551],[-66.9964,-17.242,4528.1309],[-67.0255,-17.2375,4378.0752],[-67.0352,-17.2466,4465.999],[-67.036,-17.2496,4433.0029],[-67.0406,-17.2517,4592.6309],[-67.0435,-17.2519,4538.3232],[-67.0469,-17.2483,4527.4038],[-67.0541,-17.2446,4494.2573],[-67.0602,-17.2442,4499.7769],[-67.0634,-17.2457,4506.3184],[-67.0654,-17.2504,4572.353],[-67.0707,-17.2533,4486.4155],[-67.0704,-17.2604,4509.4775],[-67.0672,-17.264,4543.8467],[-67.0648,-17.2714,4510.3032],[-67.066,-17.272,4549.0625],[-67.065,-17.2748,4557.2319],[-67.0661,-17.2776,4554.3491],[-67.0693,-17.2794,4509.4966],[-67.0984,-17.2878,4533.0771],[-67.1066,-17.2883,4586.9165],[-67.1119,-17.2849,4619.1973],[-67.1245,-17.2825,4579.4888],[-67.1425,-17.2851,4554.3008],[-67.1424,-17.2914,4601.9873],[-67.14,-17.2923,4648.3086],[-67.1366,-17.298,4677.624],[-67.1373,-17.3034,4608.5269],[-67.1396,-17.3062,4578.457],[-67.1468,-17.3069,4614.1069],[-67.1459,-17.3124,4586.4243],[-67.1502,-17.331,4375.9336],[-67.1584,-17.3368,4398.4551],[-67.1652,-17.3479,4241.1543],[-67.1713,-17.345,4231.8452],[-67.181,-17.3438,4193.8774],[-67.186,-17.3435,4191.0791],[-67.1906,-17.3452,4186.0581],[-67.1936,-17.3426,4224.6392],[-67.1982,-17.3464,4253.1904],[-67.194,-17.3486,4211.5884],[-67.1968,-17.3516,4211.7129],[-67.1962,-17.3559,4203.9272],[-67.1982,-17.3573,4209.6914],[-67.1996,-17.3658,4257.6729],[-67.1937,-17.3695,4219.8574],[-67.1915,-17.3749,4256.7715],[-67.1873,-17.3791,4283.3433],[-67.1886,-17.3864,4328.6157],[-67.1869,-17.4074,4355.5957],[-67.1913,-17.4139,4476.0254],[-67.1888,-17.4184,4559.5815],[-67.1712,-17.4327,4603.2393],[-67.1566,-17.4413,4635.9253],[-67.1509,-17.4494,4647.749],[-67.1421,-17.4534,4650.4531],[-67.1359,-17.4543,4671.646],[-67.1245,-17.4654,4639.4077],[-67.0877,-17.466,4404.6836],[-67.0842,-17.4647,4470.6128],[-67.0774,-17.47,4534.8906],[-67.0674,-17.4701,4424.1426],[-67.059,-17.476,4456.6758],[-67.0599,-17.4791,4482.2466],[-67.0498,-17.4957,4559.7881],[-67.036,-17.5002,4509.915],[-67.0261,-17.5119,4416.5591],[-67.0198,-17.5281,4428.4678],[-67.0213,-17.539,4504.335],[-67.051,-17.5877,4384.3311],[-67.0414,-17.6023,4394.8516],[-67.0358,-17.6069,4366.8789],[-67.014,-17.6182,4510.1475],[-67.0104,-17.6294,4315.5996],[-67.0068,-17.6319,4296.7876],[-66.9747,-17.6209,4221.2852],[-66.9365,-17.6109,4393.3091],[-66.8916,-17.5855,4290.3188],[-66.8849,-17.5749,4157.436],[-66.8856,-17.5687,4112.9556],[-66.883,-17.5675,4101.4443],[-66.8799,-17.5608,4066.5225],[-66.8758,-17.5597,4013.9932],[-66.8735,-17.557,4056.4761],[-66.8777,-17.5415,3960.7825],[-66.8699,-17.5394,3982.6482],[-66.8613,-17.5399,3934.6028],[-66.8477,-17.5339,3717.4531],[-66.8403,-17.5336,3650.7925],[-66.8346,-17.5269,3507.1345],[-66.8291,-17.5278,3422.9497],[-66.8249,-17.5256,3406.4258],[-66.8175,-17.5166,3394.1758],[-66.8157,-17.5116,3372.1577],[-66.8174,-17.507,3267.8687],[-66.8163,-17.5035,3246.968],[-66.8219,-17.499,3244.4763],[-66.8228,-17.493,3218.4668],[-66.8274,-17.4892,3200.1057],[-66.8314,-17.4798,3186.439],[-66.8347,-17.4767,3226.7922],[-66.8372,-17.4634,3139.9849],[-66.8357,-17.4511,3091.5105],[-66.8404,-17.4472,3088.0457],[-66.8439,-17.4415,3062.8447],[-66.8629,-17.4361,3026.5557],[-66.8685,-17.4274,3016.3281],[-66.872,-17.4259,3013.5593],[-66.8753,-17.4219,3002.2407],[-66.8769,-17.4168,2985.4197],[-66.8739,-17.4102,2968.3281],[-66.8669,-17.4026,2937.2297],[-66.8649,-17.3887,2915.5959],[-66.8533,-17.3846,2937.4441],[-66.8474,-17.386,2899.2412],[-66.8464,-17.3843,2930.5217],[-66.8498,-17.3819,2861.8804],[-66.8515,-17.378,2868.9116],[-66.8458,-17.365,2761.4924],[-66.8468,-17.3606,2740.6643],[-66.8454,-17.354,2734.5613],[-66.8497,-17.3486,2697.675],[-66.8578,-17.3478,2717.8203],[-66.8595,-17.3412,2715.4812],[-66.8559,-17.3378,2742.4565],[-66.8492,-17.3381,2708.6577],[-66.8472,-17.3365,2665.7185],[-66.8455,-17.3278,2647.9551],[-66.8438,-17.3266,2672.3401],[-66.8442,-17.3211,2525.8491],[-66.8425,-17.3186,2570.8682],[-66.8437,-17.3159,2505.2981],[-66.8574,-17.3107,2406.9338],[-66.878,-17.2979,2312.3857]]]]}
,"properties": {"GID_3": "BOL.4.11.2_2","GID_0": "BOL","country": "Bolivia","GID_1": "BOL.4_1","province": "LaPaz","NL_NAME_1": "NA","GID_2": "BOL.4.11_2","county": "Inquisivi","NL_NAME_2": "NA","city": "Colquiri","VARNAME_3": "NA","NL_NAME_3": "NA","TYPE_3": "District","ENGTYPE_3": "Distrito","CC_3": "NA","HASC_3": "NA","name": "Colquiri.city","area_km2": 1014.8189,"hist_schema_id": "Elevation0-9000","hist_area_km2": {"2325": 0.1619,"2350": 0.1215,"2375": 0.1417,"2400": 0.2024,"2425": 0.2429,"2450": 0.2429,"2475": 0.3441,"2500": 0.2834,"2525": 0.3239,"2550": 0.3239,"2575": 0.3644,"2600": 0.5668,"2625": 0.4251,"2650": 0.8501,"2675": 0.668,"2700": 0.8704,"2725": 0.9108,"2750": 0.7287,"2775": 1.1132,"2800": 0.9918,"2825": 1.3359,"2850": 1.7407,"2875": 1.1132,"2900": 1.6596,"2925": 1.9025,"2950": 2.3275,"2975": 2.7727,"3000": 2.631,"3025": 2.4892,"3050": 2.8535,"3075": 3.7236,"3100": 3.2582,"3125": 3.8651,"3150": 4.351,"3175": 4.2294,"3200": 4.5531,"3225": 4.8162,"3250": 4.978,"3275": 4.7959,"3300": 5.5041,"3325": 4.897,"3350": 6.5361,"3375": 5.6456,"3400": 5.8481,"3425": 6.3539,"3450": 6.5563,"3475": 6.3742,"3500": 6.961,"3525": 7.5884,"3550": 7.2038,"3575": 8.3573,"3600": 7.9525,"3625": 8.0132,"3650": 7.8714,"3675": 9.0654,"3700": 8.7619,"3725": 9.3284,"3750": 9.7128,"3775": 10.0163,"3800": 10.745,"3825": 10.603,"3850": 12.0802,"3875": 11.0077,"3900": 10.3599,"3925": 12.2418,"3950": 12.525,"3975": 12.5848,"4000": 16.3873,"4025": 17.4381,"4050": 21.766,"4075": 23.1187,"4100": 27.2438,"4125": 30.4998,"4150": 31.5313,"4175": 36.2043,"4200": 39.2386,"4225": 41.5034,"4250": 45.1463,"4275": 47.2707,"4300": 47.5337,"4325": 44.2566,"4350": 41.7491,"4375": 38.7958,"4400": 33.4964,"4425": 28.3387,"4450": 24.5561,"4475": 20.3489,"4500": 14.5633,"4525": 11.7115,"4550": 8.3133,"4575": 6.4123,"4600": 3.8033,"4625": 1.922,"4650": 0.9916,"4675": 0.4453,"4700": 0.081,"4725": 0.1012,"4750": 0.0607,"4775": 0.0202}}}