{"type":"Feature","properties":{"GID_3":"BOL.2.14.4_2","GID_0":"BOL","country":"Bolivia","GID_1":"BOL.2_1","province":"Cochabamba","NL_NAME_1":"NA","GID_2":"BOL.2.14_2","county":"Quillacollo","NL_NAME_2":"NA","city":"Tiquipaya","VARNAME_3":"NA","NL_NAME_3":"NA","TYPE_3":"District","ENGTYPE_3":"Distrito","CC_3":"NA","HASC_3":"NA","name":"Tiquipaya.city"},
"geometry":{"type": "MultiPolygon","coordinates": [[[[-66.1562,-17.2781,4489.2031],[-66.1416,-17.2568,4475.5708],[-66.1507,-17.2513,4425.6245],[-66.1698,-17.255,4415.1807],[-66.1847,-17.2466,4411.5625],[-66.1866,-17.239,4440.772],[-66.186,-17.2329,4414.749],[-66.1897,-17.2261,4485.1533],[-66.187,-17.2206,4485.9082],[-66.1865,-17.2051,4271.2158],[-66.1691,-17.1887,4313.2852],[-66.1565,-17.18,4125.5845],[-66.1566,-17.1758,4093.7136],[-66.1488,-17.1678,4081.6345],[-66.1413,-17.1711,4103.8647],[-66.1384,-17.17,4056.8328],[-66.1338,-17.1659,4016.9897],[-66.131,-17.1578,4054.1313],[-66.1195,-17.1556,4095.0522],[-66.1216,-17.1447,3827.8774],[-66.1273,-17.1315,3740.0073],[-66.1283,-17.1234,3694.3809],[-66.1266,-17.116,3644.4121],[-66.1198,-17.1081,3621.7004],[-66.1168,-17.108,3608.1082],[-66.1145,-17.104,3581.7866],[-66.1063,-17.1,3584.4438],[-66.0998,-17.0876,3432.4646],[-66.0944,-17.0834,3317.5605],[-66.0942,-17.0808,3313.7573],[-66.1005,-17.0756,3319.3667],[-66.1015,-17.0712,3260.4292],[-66.1259,-17.0845,4204.8633],[-66.1381,-17.0841,4305.5889],[-66.1656,-17.0757,4290.2363],[-66.179,-17.0744,4174.8506],[-66.2011,-17.079,4404.9082],[-66.2131,-17.0792,4581.1035],[-66.2165,-17.0833,4580.208],[-66.2237,-17.0842,4510.3232],[-66.2388,-17.0747,4472.1602],[-66.2426,-17.0753,4584.7656],[-66.2558,-17.0861,4609.3975],[-66.252,-17.107,4455.624],[-66.2583,-17.1219,4323.4985],[-66.2728,-17.1201,4359.0957],[-66.2778,-17.1212,4313.7432],[-66.2893,-17.1283,4160.8418],[-66.2925,-17.1327,4121.2173],[-66.2898,-17.1401,4003.0125],[-66.2898,-17.1461,3945.9517],[-66.2989,-17.1601,4069.0525],[-66.2986,-17.1683,3822.5415],[-66.2956,-17.171,3821.6113],[-66.2871,-17.1712,3862.7866],[-66.2799,-17.175,3857.7212],[-66.2708,-17.1773,3864.8096],[-66.2623,-17.1824,3891.8828],[-66.2562,-17.1831,3933.8301],[-66.2555,-17.1817,3922.6558],[-66.2531,-17.1833,3917.1152],[-66.2485,-17.1906,3934.9363],[-66.2464,-17.1987,3942.1274],[-66.2418,-17.2017,3950.4839],[-66.2376,-17.2141,3994.1453],[-66.2307,-17.225,4033.1694],[-66.2366,-17.2346,4079.5933],[-66.2541,-17.2531,4303.2964],[-66.2546,-17.2563,4213.4458],[-66.2483,-17.2536,4377.5229],[-66.2414,-17.2636,4302.8091],[-66.2407,-17.2688,4148.8789],[-66.223,-17.2789,3959.9187],[-66.2291,-17.3065,3024.1267],[-66.2314,-17.3091,2888.6553],[-66.2383,-17.3373,2622.7305],[-66.2447,-17.3534,2592.2627],[-66.236,-17.36,2574.6997],[-66.2265,-17.3616,2573.9775],[-66.1983,-17.3745,2554.6147],[-66.1871,-17.3432,2673.9775],[-66.187,-17.3293,2830.4419],[-66.1794,-17.3159,3114.0208],[-66.1753,-17.3115,3333.2166],[-66.1735,-17.3007,3526.6987],[-66.166,-17.2894,4026.8657],[-66.1653,-17.2859,4128.4956],[-66.1601,-17.2789,4340.0312],[-66.1562,-17.2781,4489.2031]]]]}}