{"type": "Feature","bbox": [-64.8318,-19.0562,-64.4787,-18.527],"geometry": {"type": "MultiPolygon","coordinates": [[[[-64.5033,-18.6704,1047.2207],[-64.5082,-18.6696,1050.2499],[-64.5114,-18.6674,1051.5774],[-64.52,-18.6763,1070.157],[-64.5332,-18.675,1059.95],[-64.5397,-18.6762,1065.8853],[-64.5446,-18.6738,1065.4315],[-64.5579,-18.6745,1069.468],[-64.5603,-18.6721,1070.6539],[-64.5636,-18.6623,1074.3137],[-64.5741,-18.6536,1079.4929],[-64.5845,-18.6533,1083.8997],[-64.5949,-18.644,1089.1075],[-64.6021,-18.6427,1092.7897],[-64.6078,-18.6435,1093.8213],[-64.6117,-18.6391,1109.2179],[-64.6216,-18.6328,1100.9235],[-64.6241,-18.6228,1116.5347],[-64.6327,-18.6189,1110.3848],[-64.6366,-18.604,1116.4281],[-64.6433,-18.6047,1137.6995],[-64.6468,-18.6032,1121.116],[-64.6482,-18.5945,1125.1848],[-64.6432,-18.5917,1127.448],[-64.6431,-18.5886,1132.7777],[-64.6525,-18.5724,1137.4829],[-64.6631,-18.5705,1141.3208],[-64.6706,-18.5665,1145.4849],[-64.6747,-18.5611,1148.2859],[-64.6821,-18.5424,1156.2832],[-64.6864,-18.5385,1158.6182],[-64.6939,-18.5384,1160.7578],[-64.6967,-18.5296,1172.6594],[-64.7008,-18.5305,1165.229],[-64.7027,-18.538,1189.4285],[-64.7054,-18.5397,1307.73],[-64.712,-18.535,1186.1056],[-64.7224,-18.537,1179.8799],[-64.7264,-18.534,1177.5607],[-64.7352,-18.5378,1182.9258],[-64.7427,-18.5342,1189.111],[-64.75,-18.5348,1193.5242],[-64.764,-18.5286,1241.9657],[-64.7708,-18.5292,1221.5281],[-64.7795,-18.527,1200.0068],[-64.7855,-18.532,1234.0485],[-64.7844,-18.5369,1223.8201],[-64.7866,-18.5447,1284.5132],[-64.7947,-18.5501,1249.3987],[-64.8087,-18.5639,1290.3391],[-64.8083,-18.5691,1314.1555],[-64.8113,-18.5704,1298.359],[-64.8095,-18.5813,1382.5177],[-64.813,-18.5827,1339.4702],[-64.8121,-18.5861,1348.7983],[-64.8151,-18.5914,1402.6995],[-64.8187,-18.5932,1344.9229],[-64.8225,-18.5996,1359.6877],[-64.826,-18.5998,1360.5883],[-64.8307,-18.6035,1377.7367],[-64.8318,-18.6105,1381.4294],[-64.8307,-18.6138,1386.4392],[-64.8164,-18.618,1421.4111],[-64.8114,-18.6228,1496.5059],[-64.8015,-18.6206,1463.0408],[-64.8007,-18.6248,1468.1987],[-64.7988,-18.6237,1481.2263],[-64.7964,-18.6267,1455.7126],[-64.7956,-18.6298,1465.3461],[-64.7982,-18.6323,1465.2249],[-64.7965,-18.6334,1487.4891],[-64.7972,-18.6365,1480.3706],[-64.794,-18.635,1483.1511],[-64.7953,-18.6387,1486.7402],[-64.8,-18.6409,1511.6556],[-64.8065,-18.6486,1505.9966],[-64.8063,-18.6604,1515.5918],[-64.805,-18.6615,1524.627],[-64.806,-18.666,1526.986],[-64.7992,-18.6709,1635.4279],[-64.7998,-18.6751,1542.834],[-64.7971,-18.6812,1561.876],[-64.7936,-18.6827,1562.1914],[-64.7896,-18.6886,1573.1016],[-64.7933,-18.697,1577.5835],[-64.7893,-18.7027,1611.3445],[-64.7876,-18.7102,1600.2332],[-64.7818,-18.7174,1625.4961],[-64.7805,-18.7273,1643.9668],[-64.7831,-18.7315,1642.5043],[-64.7828,-18.7368,1665.5762],[-64.7803,-18.7373,1671.5825],[-64.7759,-18.7424,1661.9031],[-64.7709,-18.7403,1676.2933],[-64.7679,-18.7446,1693.5681],[-64.7661,-18.7565,1704.2034],[-64.7633,-18.7622,1727.5901],[-64.764,-18.7713,1716.2786],[-64.762,-18.7751,1726.9384],[-64.7633,-18.7779,1724.7704],[-64.7612,-18.7795,1734.6281],[-64.7605,-18.791,1761.5851],[-64.7564,-18.7953,1755.0304],[-64.757,-18.8039,1774.1631],[-64.7507,-18.8182,1798.2107],[-64.7518,-18.8224,1814.2734],[-64.7497,-18.8309,1832.7788],[-64.7464,-18.8414,1838.9165],[-64.7431,-18.844,1860.5879],[-64.7431,-18.847,1863.1968],[-64.7386,-18.8542,1913.8511],[-64.7399,-18.8561,1903.1976],[-64.7392,-18.8583,1910.1669],[-64.7343,-18.8616,1881.2742],[-64.7323,-18.8649,1890.8472],[-64.7309,-18.875,1902.5132],[-64.7319,-18.882,1933.1963],[-64.7297,-18.8836,1945.1267],[-64.7295,-18.8858,2027.2341],[-64.7258,-18.8873,1936.8029],[-64.7284,-18.8888,1938.6134],[-64.7309,-18.8876,2025.0559],[-64.7314,-18.8897,1994.9575],[-64.7298,-18.8956,2048.9214],[-64.7306,-18.9002,1977.8816],[-64.7248,-18.9052,2049.4724],[-64.7256,-18.9081,2020.4784],[-64.7223,-18.9157,2027.4514],[-64.7236,-18.9179,2060.9255],[-64.722,-18.9214,2027.2278],[-64.7237,-18.9233,2041.3094],[-64.7165,-18.9268,2385.8167],[-64.7097,-18.9343,2540.9299],[-64.7019,-18.9512,2576.967],[-64.6867,-18.9653,2620.9863],[-64.68,-18.9748,2724.4961],[-64.6734,-18.9895,2849.53],[-64.6562,-19.0083,2697.3188],[-64.6495,-19.0179,2531.9395],[-64.6437,-19.0229,2654.0908],[-64.6391,-19.031,2742.6816],[-64.6362,-19.0331,2722.5225],[-64.6336,-19.0421,2352.6077],[-64.6196,-19.0562,2630.175],[-64.5856,-19.0169,2472.7148],[-64.5916,-19.0096,2239.6665],[-64.5859,-19.0066,2119.8367],[-64.5788,-19.0058,2053.2363],[-64.5769,-19.0022,2029.9834],[-64.5707,-19.0017,2017.5676],[-64.5676,-18.9985,1974.3259],[-64.5617,-18.9966,1936.9143],[-64.5432,-18.9985,1877.9508],[-64.5403,-19.0003,1873.4796],[-64.5302,-18.9995,1847.6523],[-64.526,-19.0028,1839.468],[-64.5223,-19.0026,1837.7495],[-64.5181,-18.999,1892.8619],[-64.5057,-19.0037,1788.4702],[-64.5064,-19.0071,1766.3243],[-64.5032,-19.0071,1766.2712],[-64.503,-19.0038,1761.6356],[-64.5006,-19.0043,1747.1647],[-64.4983,-19.0022,1744.218],[-64.5008,-18.9852,1722.0718],[-64.4994,-18.981,1715.1958],[-64.501,-18.9731,1708.162],[-64.4994,-18.9698,1703.4105],[-64.4997,-18.9614,1692.6305],[-64.5042,-18.9456,1666.9004],[-64.5039,-18.9295,1656.4591],[-64.5075,-18.9252,1637.6416],[-64.505,-18.914,1687.9736],[-64.5065,-18.9069,1609.1803],[-64.5054,-18.9027,1619.7136],[-64.5021,-18.8998,1604.4753],[-64.5014,-18.8945,1593.6134],[-64.4987,-18.8925,1586.5709],[-64.49,-18.8909,1646.1177],[-64.4894,-18.8878,1670.4978],[-64.4871,-18.8878,1581.9023],[-64.488,-18.8844,1707.5946],[-64.4856,-18.8846,1623.4921],[-64.4855,-18.8813,1618.0828],[-64.4791,-18.8823,1547.333],[-64.4819,-18.8774,1531.8467],[-64.4787,-18.8733,1527.7103],[-64.481,-18.8668,1514.184],[-64.4798,-18.8622,1502.8885],[-64.483,-18.8545,1486.7693],[-64.4826,-18.8521,1491.8862],[-64.4877,-18.8454,1513.9158],[-64.4896,-18.8345,1489.349],[-64.4929,-18.8293,1416.014],[-64.4992,-18.826,1358.765],[-64.4983,-18.8239,1368.8151],[-64.5005,-18.8204,1352.0176],[-64.5002,-18.8139,1340.6897],[-64.4958,-18.8072,1328.0256],[-64.4984,-18.8042,1320.401],[-64.4985,-18.8006,1298.4292],[-64.5076,-18.7873,1263.0485],[-64.5052,-18.7747,1241.9032],[-64.5014,-18.7688,1248.4858],[-64.5014,-18.7645,1245.9843],[-64.505,-18.7573,1201.063],[-64.5005,-18.7494,1213.7556],[-64.5001,-18.7384,1164.7042],[-64.4976,-18.7286,1146.7073],[-64.5058,-18.7061,1101.9929],[-64.5055,-18.6993,1091.4917],[-64.5036,-18.6949,1085.3135],[-64.5051,-18.6861,1068.9573],[-64.5018,-18.6802,1062.8448],[-64.5033,-18.6704,1047.2207]]]]}
,"properties": {"GID_3": "BOL.1.10.1_2","GID_0": "BOL","country": "Bolivia","GID_1": "BOL.1_1","province": "Chuquisaca","NL_NAME_1": "NA","GID_2": "BOL.1.10_2","county": "Zudáñez","NL_NAME_2": "NA","city": "Mojocoya","VARNAME_3": "NA","NL_NAME_3": "NA","TYPE_3": "District","ENGTYPE_3": "Distrito","CC_3": "NA","HASC_3": "NA","name": "Mojocoya.city","area_km2": 1242.5004,"hist_schema_id": "Elevation0-9000","hist_area_km2": {"1050": 1.0846,"1075": 4.3989,"1100": 7.9944,"1125": 8.8183,"1150": 7.1919,"1175": 6.2675,"1200": 7.1718,"1225": 6.3882,"1250": 7.754,"1275": 7.553,"1300": 8.618,"1325": 9.3402,"1350": 10.7864,"1375": 11.9513,"1400": 10.8662,"1425": 11.5886,"1450": 12.6937,"1475": 12.8534,"1500": 14.9224,"1525": 15.8654,"1550": 15.0228,"1575": 14.8015,"1600": 16.0278,"1625": 15.8053,"1650": 16.9503,"1675": 16.9902,"1700": 16.0063,"1725": 15.6031,"1750": 15.6039,"1775": 15.3215,"1800": 14.317,"1825": 15.2401,"1850": 16.3423,"1875": 15.7386,"1900": 14.7754,"1925": 15.7386,"1950": 16.0989,"1975": 16.4606,"2000": 15.6977,"2025": 17.2233,"2050": 17.2429,"2075": 17.5036,"2100": 16.299,"2125": 18.8469,"2150": 18.4853,"2175": 18.1647,"2200": 19.5677,"2225": 20.6715,"2250": 20.8108,"2275": 22.1146,"2300": 23.2792,"2325": 25.5454,"2350": 30.1004,"2375": 33.1497,"2400": 37.9839,"2425": 39.6499,"2450": 54.9437,"2475": 57.9171,"2500": 50.0914,"2525": 40.5971,"2550": 31.4047,"2575": 23.396,"2600": 20.0447,"2625": 16.0718,"2650": 13.4831,"2675": 11.9989,"2700": 10.9564,"2725": 8.8299,"2750": 6.6226,"2775": 4.2746,"2800": 3.6926,"2825": 2.5889,"2850": 1.7257,"2875": 1.1434,"2900": 0.7621,"2925": 0.762,"2950": 0.6618,"2975": 0.5414,"3000": 0.4412,"3025": 0.2607}}}