{"type": "Feature","bbox": [-67.5229,-17.4618,-67.2937,-17.0573],"geometry": {"type": "MultiPolygon","coordinates": [[[[-67.3745,-17.4618,4126.2363],[-67.3666,-17.453,4104.874],[-67.3495,-17.4519,4041.8792],[-67.3447,-17.4489,4063.5713],[-67.341,-17.4499,4050.2803],[-67.3388,-17.4455,4067.1731],[-67.3373,-17.4305,4112.6035],[-67.3325,-17.4273,4136.0122],[-67.3216,-17.4252,4297.3989],[-67.3198,-17.4208,4133.3633],[-67.3138,-17.4135,4041.2307],[-67.3192,-17.395,4357.1621],[-67.3149,-17.3922,4136.125],[-67.3134,-17.3838,3983.0273],[-67.3098,-17.3807,3961.9355],[-67.2976,-17.384,3954.2673],[-67.2943,-17.3805,3961.0391],[-67.2937,-17.3755,3975.8586],[-67.3041,-17.3176,4031.1731],[-67.3102,-17.3056,4038.397],[-67.3065,-17.2907,4053.4878],[-67.3098,-17.2841,4061.9988],[-67.3093,-17.2814,4063.811],[-67.3144,-17.2779,4073.0623],[-67.3147,-17.2756,4075.479],[-67.3161,-17.2757,4076.1157],[-67.3199,-17.2663,4089.9531],[-67.3191,-17.2631,4107.2266],[-67.314,-17.2582,4099.4204],[-67.3128,-17.2474,4116.3623],[-67.3167,-17.2409,4129.1357],[-67.3196,-17.239,4137.9341],[-67.3201,-17.2291,4150.0947],[-67.3253,-17.223,4177.689],[-67.3197,-17.2159,4181.8809],[-67.3294,-17.2016,4215.061],[-67.3314,-17.1917,4224.2827],[-67.3286,-17.1879,4232.0225],[-67.3304,-17.1849,4241.1074],[-67.3298,-17.1808,4246.1699],[-67.32,-17.1731,4309.1846],[-67.3134,-17.171,4310.2432],[-67.3122,-17.1667,4354.2153],[-67.3061,-17.1577,4567.5659],[-67.3215,-17.1448,4614.5781],[-67.3233,-17.1397,4630.5229],[-67.3271,-17.1375,4645.9766],[-67.3314,-17.1319,4668.0991],[-67.3379,-17.1349,4518.7642],[-67.341,-17.133,4572.2241],[-67.3516,-17.1312,4428.2363],[-67.3583,-17.1351,4375.7383],[-67.362,-17.1345,4385.0225],[-67.3629,-17.132,4359.5371],[-67.3718,-17.1286,4096.207],[-67.3806,-17.1219,3932.6118],[-67.3848,-17.1103,4332.0703],[-67.3879,-17.1112,4297.7651],[-67.4004,-17.1076,4233.3403],[-67.4017,-17.1024,4278.5415],[-67.4007,-17.0922,4371.2822],[-67.4064,-17.091,4432.0117],[-67.4102,-17.0882,4534.6055],[-67.4105,-17.0789,4626.9897],[-67.4118,-17.077,4539.4473],[-67.4153,-17.0756,4415.3857],[-67.4286,-17.0627,4093.6836],[-67.4315,-17.0629,4010.8423],[-67.4339,-17.0585,3929.2832],[-67.4378,-17.0604,3912.3357],[-67.4455,-17.058,3797.2896],[-67.4531,-17.0588,3691.9265],[-67.4569,-17.0573,3614.1294],[-67.4677,-17.0654,3489.4832],[-67.4768,-17.0653,3464.1792],[-67.4824,-17.0672,3446.1038],[-67.4846,-17.0718,3534.1543],[-67.4865,-17.0726,3411.1465],[-67.4928,-17.0722,3299.9253],[-67.4992,-17.0685,3236.4084],[-67.5074,-17.067,3138.345],[-67.5114,-17.0711,3264.4597],[-67.515,-17.0808,3593.4189],[-67.5116,-17.0872,3876.2976],[-67.5137,-17.0925,4090.6919],[-67.5074,-17.0961,4264.8652],[-67.5034,-17.0964,4293.8652],[-67.503,-17.1014,4090.4268],[-67.5054,-17.1055,3942.8835],[-67.5048,-17.1153,3740.7244],[-67.4976,-17.1203,3613.7507],[-67.4995,-17.1286,3542.4429],[-67.5026,-17.1339,3440.4851],[-67.5205,-17.1398,3944.5007],[-67.5227,-17.1428,4049.2654],[-67.5229,-17.1446,4066.8938],[-67.5187,-17.1444,3963.2234],[-67.5156,-17.151,3969.0898],[-67.5178,-17.1559,4025.9795],[-67.5161,-17.1683,3342.925],[-67.5146,-17.1713,3125.4006],[-67.5087,-17.1759,3147.0234],[-67.5003,-17.1794,3179.8416],[-67.4964,-17.1791,3186.2534],[-67.4954,-17.1901,3293.6123],[-67.4965,-17.1978,3358.9219],[-67.4884,-17.2107,3549.1426],[-67.4875,-17.2166,3585.8159],[-67.485,-17.2181,3601.6094],[-67.4746,-17.2149,4049.9927],[-67.4721,-17.2157,4102.0439],[-67.4683,-17.2216,4088.1584],[-67.4651,-17.2217,3954.2322],[-67.4608,-17.218,3818.2656],[-67.4563,-17.2292,3893.6042],[-67.4531,-17.2331,3939.5466],[-67.4573,-17.2433,4079.1531],[-67.457,-17.2492,4101.0068],[-67.4611,-17.2514,4131.1133],[-67.4745,-17.2666,4204.7593],[-67.4824,-17.2806,4339.4297],[-67.4714,-17.2945,4482.6812],[-67.4526,-17.3097,4288.4419],[-67.4475,-17.3104,4262.7524],[-67.4446,-17.3237,4413.5684],[-67.4339,-17.3461,4412.791],[-67.4284,-17.3512,4280.4575],[-67.4229,-17.3604,4256.0654],[-67.4061,-17.3778,4170.666],[-67.4016,-17.3896,4200.1094],[-67.3996,-17.3912,4188.5137],[-67.3978,-17.3993,4170.2637],[-67.3906,-17.4009,4031.1184],[-67.3903,-17.4041,4068.1323],[-67.3868,-17.408,4085.3076],[-67.3831,-17.4215,4111.0029],[-67.3786,-17.4265,4136.4561],[-67.3778,-17.4317,4168.6821],[-67.3739,-17.4341,4121.3218],[-67.3745,-17.44,4159.459],[-67.3726,-17.4473,4178.5815],[-67.3745,-17.4618,4126.2363]]]]}
,"properties": {"GID_3": "BOL.4.13.5_2","GID_0": "BOL","country": "Bolivia","GID_1": "BOL.4_1","province": "LaPaz","NL_NAME_1": "NA","GID_2": "BOL.4.13_2","county": "Loayza","NL_NAME_2": "NA","city": "Yaco","VARNAME_3": "NA","NL_NAME_3": "NA","TYPE_3": "District","ENGTYPE_3": "Distrito","CC_3": "NA","HASC_3": "NA","name": "Yaco.city","area_km2": 598.0106,"hist_schema_id": "Elevation0-9000","hist_area_km2": {"3100": 0.0203,"3125": 0.1418,"3150": 0.1418,"3175": 0.1824,"3200": 0.2634,"3225": 0.3039,"3250": 0.709,"3275": 0.8711,"3300": 1.0332,"3325": 1.1345,"3350": 1.6814,"3375": 1.4383,"3400": 2.6943,"3425": 2.2081,"3450": 2.2081,"3475": 2.4917,"3500": 3.1399,"3525": 2.9374,"3550": 3.4034,"3575": 3.7275,"3600": 4.6998,"3625": 4.2947,"3650": 5.6518,"3675": 7.0901,"3700": 7.0292,"3725": 8.2649,"3750": 7.779,"3775": 7.9409,"3800": 8.4678,"3825": 8.7917,"3850": 10.5542,"3875": 10.797,"3900": 11.81,"3925": 12.8223,"3950": 14.7459,"3975": 21.1407,"4000": 31.6446,"4025": 50.6483,"4050": 48.9693,"4075": 52.7139,"4100": 46.5212,"4125": 39.357,"4150": 31.8864,"4175": 23.2829,"4200": 16.0564,"4225": 14.682,"4250": 9.2558,"4275": 8.1425,"4300": 7.5152,"4325": 6.4012,"4350": 4.7808,"4375": 4.2137,"4400": 4.1732,"4425": 3.5251,"4450": 2.5931,"4475": 1.9044,"4500": 1.7625,"4525": 1.5398,"4550": 1.3981,"4575": 0.9321,"4600": 0.8916,"4625": 0.3445,"4650": 0.2229,"4675": 0.0203,"4700": 0.0203}}}