{"type":"Feature","properties":{"GID_3":"BOL.6.4.2_2","GID_0":"BOL","country":"Bolivia","GID_1":"BOL.6_1","province":"Pando","NL_NAME_1":"NA","GID_2":"BOL.6.4_2","county":"Manuripi","NL_NAME_2":"NA","city":"PuertoRico","VARNAME_3":"NA","NL_NAME_3":"NA","TYPE_3":"District","ENGTYPE_3":"Distrito","CC_3":"NA","HASC_3":"NA","name":"Puerto_Rico.city"},
"geometry":{"type": "MultiPolygon","coordinates": [[[[-67.5612,-11.1072,164.9472],[-67.5633,-11.1102,165.8904],[-67.5628,-11.1157,166.3594],[-67.5725,-11.11,162.5421],[-67.5704,-11.1165,166.9833],[-67.5753,-11.1232,172.4576],[-67.578,-11.12,167.2524],[-67.5841,-11.1177,165.6887],[-67.5934,-11.1201,167.6993],[-67.5947,-11.114,162.703],[-67.5998,-11.1165,172.8617],[-67.604,-11.1162,168.3194],[-67.605,-11.1224,164.9334],[-67.6099,-11.1244,168.8707],[-67.6088,-11.127,171.1743],[-67.6044,-11.1282,172.4647],[-67.6023,-11.1314,166.58],[-67.6038,-11.1336,177.3284],[-67.6094,-11.1353,167.077],[-67.6109,-11.142,166.3782],[-67.6138,-11.1416,169.2915],[-67.6173,-11.1365,176.5],[-67.6198,-11.1362,167.5237],[-67.6175,-11.1421,169.0099],[-67.618,-11.1449,172.8813],[-67.6205,-11.1461,168.0671],[-67.6236,-11.1422,164.9504],[-67.6278,-11.1448,178.3012],[-67.6321,-11.1443,166.4211],[-67.6344,-11.1508,167.6917],[-67.6383,-11.1492,170.7667],[-67.6409,-11.144,173.6601],[-67.6447,-11.1444,168.237],[-67.6453,-11.148,179.0191],[-67.642,-11.1526,174.6609],[-67.6458,-11.1577,171.5242],[-67.6543,-11.1551,176.3158],[-67.6589,-11.1576,166.3701],[-67.6601,-11.1541,169.23],[-67.6655,-11.1542,172.4788],[-67.6668,-11.1461,164.5],[-67.6684,-11.1445,173.0176],[-67.6726,-11.1451,170.89],[-67.6738,-11.1503,173.4986],[-67.6762,-11.151,183.2569],[-67.6789,-11.1399,176.6917],[-67.6808,-11.1415,173.8426],[-67.6798,-11.1498,177.2738],[-67.6816,-11.1497,171.3471],[-67.6831,-11.1456,166.9877],[-67.6879,-11.1472,171.4993],[-67.6897,-11.1449,172.9829],[-67.6902,-11.1397,175.3183],[-67.6935,-11.1359,171.3143],[-67.6945,-11.1365,175.0093],[-67.6928,-11.1415,169.3442],[-67.694,-11.1441,174.1699],[-67.6961,-11.1448,173.784],[-67.7018,-11.1417,180.6537],[-67.7038,-11.1461,171.9436],[-67.7051,-11.1394,172.8378],[-67.7022,-11.136,184.9113],[-67.7093,-11.1341,173.3298],[-67.7113,-11.136,173.3873],[-67.706,-11.1366,172.4182],[-67.7055,-11.1381,172.8378],[-67.7111,-11.1417,175.807],[-67.7128,-11.1469,172.3971],[-67.7147,-11.1464,172.7896],[-67.7137,-11.142,175.7401],[-67.7148,-11.1393,169.0578],[-67.7173,-11.1398,168.3214],[-67.7177,-11.1453,179.1284],[-67.7238,-11.1413,179.5502],[-67.7253,-11.1385,169.4288],[-67.7277,-11.146,169.0395],[-67.7308,-11.1433,178.2672],[-67.737799999999993,-11.1466,184.424],[-67.7414,-11.146,177.8653],[-67.7397,-11.1515,178.1262],[-67.7402,-11.157,182.5329],[-67.7438,-11.1507,188.6511],[-67.7426,-11.146,173.4726],[-67.744,-11.1438,177.5006],[-67.754,-11.1486,182.3326],[-67.7567,-11.1479,173.6167],[-67.757,-11.1428,174.9806],[-67.753,-11.1396,181.3693],[-67.757,-11.133,193.1323],[-67.7598,-11.1356,178.8088],[-67.7577,-11.1384,174.8882],[-67.7581,-11.1404,180.4532],[-67.7624,-11.1433,181.1669],[-67.7637,-11.1417,179.1947],[-67.761,-11.1385,172.8026],[-67.7623,-11.1357,176.1142],[-67.7687,-11.1398,186.7587],[-67.7723,-11.1396,187.5979],[-67.7811,-11.1365,184.5194],[-67.7922,-11.1295,178.6568],[-67.7934,-11.1312,181.1162],[-67.7888,-11.1357,186.6797],[-67.7905,-11.1428,181.5644],[-67.7959,-11.14,184.6287],[-67.806,-11.1407,176.7512],[-67.8031,-11.1436,175.2499],[-67.804,-11.1461,179.9926],[-67.8206,-11.1446,178.2572],[-67.8204,-11.1607,180.4351],[-67.8228,-11.1521,175.958],[-67.8263,-11.1507,179.5412],[-67.8318,-11.1531,177.8253],[-67.8311,-11.1548,189.9639],[-67.8278,-11.1546,180.5566],[-67.8271,-11.1567,177.1536],[-67.8316,-11.1611,175.4551],[-67.8336,-11.1614,181.2641],[-67.8354,-11.1579,178.0658],[-67.8379,-11.1578,177.8623],[-67.842,-11.1638,192.6588],[-67.838,-11.1698,189.3436],[-67.8399,-11.1703,182.2269],[-67.8431,-11.1677,187.5166],[-67.848,-11.1749,184.3771],[-67.8509,-11.1764,190.6127],[-67.8512,-11.1823,174.8596],[-67.8534,-11.1827,181.0258],[-67.8549,-11.1779,175.9349],[-67.8572,-11.1788,179.831],[-67.857,-11.1879,184.9663],[-67.8594,-11.1882,181.4982],[-67.8608,-11.1845,185.0567],[-67.8621,-11.1843,175.8814],[-67.8674,-11.19,198.2131],[-67.8676,-11.1928,179.1537],[-67.8626,-11.1957,181.6495],[-67.8627,-11.1987,182.5459],[-67.8683,-11.201,176.6344],[-67.8725,-11.1982,188.2459],[-67.8753,-11.1991,189.2849],[-67.8753,-11.2044,181.2565],[-67.8698,-11.2022,184.1797],[-67.8668,-11.2041,181.9597],[-67.8654,-11.2086,179.7153],[-67.8688,-11.205,178.1506],[-67.8706,-11.2051,179.3397],[-67.8689,-11.2134,188.625],[-67.8743,-11.2106,177.6785],[-67.8748,-11.2127,179.2629],[-67.8723,-11.2156,180.4733],[-67.873,-11.2173,179.3995],[-67.8813,-11.2161,182.9447],[-67.8819,-11.2178,181.7453],[-67.8789,-11.2206,181.3873],[-67.8801,-11.2225,185.4339],[-67.8867,-11.2246,188.8041],[-67.8903,-11.2239,181.2379],[-67.8911,-11.2278,178.1026],[-67.8863,-11.2272,179.8061],[-67.8854,-11.2286,188.7534],[-67.8889,-11.233,188.7111],[-67.892,-11.2293,175.0],[-67.8943,-11.2296,181.2423],[-67.8931,-11.2369,183.1608],[-67.8948,-11.2395,178.8331],[-67.8988,-11.2395,182.4792],[-67.8961,-11.235,189.5641],[-67.9012,-11.2369,181.7557],[-67.9049,-11.2323,182.4554],[-67.9066,-11.2365,185.1362],[-67.9111,-11.239,181.7041],[-67.9118,-11.2461,187.8339],[-67.9164,-11.25,189.3436],[-67.9164,-11.2454,181.2348],[-67.9186,-11.243,185.6263],[-67.9202,-11.2437,191.672],[-67.9204,-11.2478,186.8355],[-67.9218,-11.2489,182.2706],[-67.9337,-11.2433,191.4181],[-67.9369,-11.2443,184.8339],[-67.9382,-11.2494,179.5735],[-67.9422,-11.2448,191.7408],[-67.945,-11.2457,191.0701],[-67.948,-11.2499,193.3552],[-67.9529,-11.2438,180.5543],[-67.9589,-11.258,188.5488],[-67.9603,-11.2586,197.4197],[-67.9659,-11.2551,188.7997],[-67.9698,-11.2632,192.9479],[-67.9719,-11.2623,190.7749],[-67.9709,-11.2581,184.0474],[-67.972,-11.2557,183.3936],[-67.9769,-11.2569,193.4097],[-67.9812,-11.256,183.9057],[-67.9833,-11.2602,182.5649],[-67.9822,-11.2627,185.2525],[-67.9776,-11.2625,184.3635],[-67.9788,-11.2676,182.9259],[-67.9865,-11.2662,188.3272],[-67.9869,-11.2639,184.2936],[-67.9847,-11.2602,182.5649],[-67.9905,-11.2588,184.42],[-67.9969,-11.2601,182.7023],[-67.9915,-11.263,180.8786],[-67.992,-11.2657,194.6995],[-67.9956,-11.2694,185.4837],[-67.9983,-11.2687,184.668],[-67.9949,-11.2633,181.6958],[-67.9993,-11.266,179.0],[-68.0016,-11.2654,188.6847],[-67.9963,-11.8497,152.5],[-67.9948,-11.8479,152.5],[-67.9905,-11.8476,152.5],[-67.9765,-11.8497,152.5],[-67.9686,-11.8482,152.5],[-67.9638,-11.8459,152.0],[-67.9609,-11.8422,152.0],[-67.9607,-11.838,152.0],[-67.9634,-11.8333,152.0],[-67.9682,-11.8299,152.0],[-67.9746,-11.8179,152.0],[-67.9749,-11.8102,156.5185],[-67.9695,-11.7938,151.5],[-67.9588,-11.777,151.5],[-67.9479,-11.7642,151.5],[-67.92,-11.7523,151.0],[-67.9165,-11.7481,151.0],[-67.9144,-11.7426,151.0],[-67.9146,-11.7384,151.0],[-67.918,-11.717,151.0],[-67.9157,-11.7134,150.5],[-67.8952,-11.6951,150.5],[-67.8819,-11.6889,150.5],[-67.8754,-11.6876,150.5],[-67.8239,-11.6845,152.5415],[-67.8093,-11.6901,149.5],[-67.7959,-11.6978,149.5],[-67.7884,-11.6985,164.6704],[-67.7468,-11.6816,149.0],[-67.7361,-11.6732,149.0],[-67.7318,-11.6666,148.5],[-67.7167,-11.6294,148.5],[-67.7073,-11.6115,148.0],[-67.7008,-11.6063,148.0],[-67.6799,-11.5991,148.0],[-67.6716,-11.5912,148.0],[-67.6704,-11.5863,148.0],[-67.6717,-11.5829,148.0],[-67.6801,-11.574,148.0],[-67.6826,-11.5656,148.0],[-67.6744,-11.5469,148.0],[-67.6681,-11.5126,168.8957],[-67.6584,-11.5005,158.917],[-67.6274,-11.48,144.5],[-67.6088,-11.4727,144.0],[-67.5863,-11.471,143.5],[-67.5667,-11.4719,163.5621],[-67.553,-11.4669,166.9379],[-67.5392,-11.4663,142.5],[-67.5157,-11.4741,142.0],[-67.4979,-11.4957,141.0],[-67.4918,-11.4972,141.0],[-67.4689,-11.4963,140.5],[-67.4556,-11.5005,140.25],[-67.4516,-11.5053,156.4732],[-67.4417,-11.5115,140.0],[-67.4247,-11.5161,140.0],[-67.4107,-11.5154,141.7677],[-67.4074,-11.517,140.0],[-67.4048,-11.5323,143.1595],[-67.4019,-11.5356,140.0],[-67.3971,-11.5374,140.0],[-67.3601,-11.5403,139.5],[-67.3452,-11.539,139.5],[-67.3393,-11.5367,139.5],[-67.3284,-11.5242,139.5],[-67.3134,-11.496,139.0],[-67.2988,-11.4853,139.0],[-67.2824,-11.4793,139.0],[-67.2438,-11.4728,138.5],[-67.2321,-11.4647,138.5],[-67.2272,-11.4595,138.5],[-67.22,-11.4431,138.5],[-67.218,-11.4354,138.5],[-67.2171,-11.4141,138.5],[-67.2106,-11.4011,139.9124],[-67.1881,-11.3686,138.125],[-67.174,-11.3599,137.875],[-67.1612,-11.3487,137.25],[-67.1548,-11.3463,137.0],[-67.1399,-11.3466,136.5],[-67.1132,-11.3436,136.0],[-67.0927,-11.3451,135.0],[-67.0733,-11.3424,134.5],[-67.0633,-11.3427,134.5],[-67.03,-11.3338,133.5],[-67.0016,-11.3359,135.3129],[-67.0016,-10.9701,147.9699],[-67.0071,-10.9704,146.1207],[-67.0036,-10.9779,147.6563],[-67.0099,-10.9828,146.4476],[-67.0088,-10.9854,146.2008],[-67.0034,-10.9859,143.0],[-67.002,-10.9875,143.0],[-67.01,-10.9911,145.6364],[-67.0114,-10.9984,160.3639],[-67.0137,-10.9984,147.9726],[-67.0184,-10.9933,150.3826],[-67.0248,-11.0009,147.2002],[-67.0358,-11.0061,149.8772],[-67.0383,-11.0056,148.3611],[-67.0356,-11.0019,150.2946],[-67.0365,-10.9988,146.1163],[-67.0493,-11.0067,153.6835],[-67.0506,-11.0031,145.75],[-67.0474,-10.9998,147.9699],[-67.0579,-10.9949,154.216],[-67.0618,-10.9967,156.8202],[-67.0659,-11.0061,149.4029],[-67.0696,-11.0074,148.0],[-67.0709,-11.0034,159.6307],[-67.0658,-10.9969,149.0617],[-67.0647,-10.992,149.8847],[-67.0662,-10.9895,153.4272],[-67.07,-10.9901,153.6375],[-67.0752,-11.0047,155.9815],[-67.099,-11.0359,149.594],[-67.1021,-11.0349,158.8333],[-67.0995,-11.0259,152.5165],[-67.1031,-11.023,153.5215],[-67.1073,-11.0257,148.0],[-67.1047,-11.0302,150.5443],[-67.1054,-11.0311,150.5443],[-67.1138,-11.0313,156.969],[-67.1172,-11.0282,149.208],[-67.1166,-11.0257,154.4426],[-67.1133,-11.0236,152.9438],[-67.1141,-11.0199,149.7579],[-67.1192,-11.0238,148.8344],[-67.123,-11.0187,149.6621],[-67.1251,-11.0181,152.1812],[-67.1263,-11.0243,149.3304],[-67.1289,-11.0249,155.9535],[-67.1321,-11.0172,156.2505],[-67.1344,-11.0165,151.2798],[-67.1337,-11.0231,148.9221],[-67.1361,-11.0243,149.0932],[-67.1389,-11.0182,149.3499],[-67.144,-11.016,149.4303],[-67.1451,-11.0181,151.967],[-67.1401,-11.0234,152.249],[-67.1422,-11.0269,149.5733],[-67.1582,-11.0314,160.1307],[-67.1686,-11.0323,151.8283],[-67.1668,-11.0365,152.2909],[-67.1607,-11.0386,151.7041],[-67.1597,-11.0422,149.062],[-67.1808,-11.0376,149.0884],[-67.1819,-11.0394,154.558],[-67.1795,-11.0456,152.1904],[-67.1864,-11.0499,155.6996],[-67.1913,-11.0486,151.3864],[-67.196,-11.0517,155.4149],[-67.2008,-11.051,148.5],[-67.2008,-11.0533,155.3506],[-67.1974,-11.0557,154.8059],[-67.1969,-11.0583,151.8976],[-67.2007,-11.0619,150.6315],[-67.2068,-11.0578,149.0],[-67.2136,-11.0601,155.0882],[-67.2177,-11.0483,159.292],[-67.2248,-11.054,152.5819],[-67.227,-11.0507,152.7409],[-67.2259,-11.0459,152.9791],[-67.235,-11.0527,155.7987],[-67.2409,-11.0501,152.3719],[-67.2443,-11.0464,155.2194],[-67.2461,-11.0485,149.5],[-67.246,-11.0555,152.0372],[-67.2533,-11.059,156.0025],[-67.2555,-11.0642,152.7914],[-67.2574,-11.0648,154.0941],[-67.259,-11.0598,159.9955],[-67.2612,-11.0585,151.5551],[-67.2683,-11.066,154.9955],[-67.2659,-11.0754,155.7351],[-67.2627,-11.0795,152.0934],[-67.2628,-11.0834,155.0923],[-67.2722,-11.0746,154.8401],[-67.2728,-11.0866,160.1784],[-67.2748,-11.09,161.2001],[-67.2783,-11.0913,157.788],[-67.2847,-11.0877,156.119],[-67.2881,-11.0874,150.5],[-67.2878,-11.0829,153.035],[-67.2908,-11.0797,153.8929],[-67.292,-11.0738,156.6817],[-67.2955,-11.0705,151.0],[-67.2974,-11.0719,151.0],[-67.2971,-11.0749,159.8813],[-67.3035,-11.0741,154.6228],[-67.3066,-11.0798,163.9716],[-67.3126,-11.0832,151.5],[-67.3163,-11.0838,157.2619],[-67.318,-11.08,157.9088],[-67.3232,-11.078,162.0478],[-67.329,-11.0814,157.4492],[-67.332,-11.0815,155.7697],[-67.3319,-11.0796,159.461],[-67.3261,-11.076,163.3556],[-67.3334,-11.0707,161.5796],[-67.3327,-11.0692,155.6722],[-67.3276,-11.0707,156.5426],[-67.3249,-11.0691,158.8808],[-67.3292,-11.0647,152.0],[-67.3262,-11.0599,164.7469],[-67.3266,-11.0528,153.535],[-67.3253,-11.0503,160.399],[-67.3265,-11.0491,162.8441],[-67.3309,-11.0519,157.7958],[-67.3352,-11.0469,164.6993],[-67.3418,-11.0442,159.1522],[-67.3412,-11.0419,155.2194],[-67.336,-11.0402,152.375],[-67.336,-11.0367,155.9711],[-67.344,-11.0367,163.2677],[-67.3491,-11.032,154.9043],[-67.3509,-11.0252,160.2712],[-67.3605,-11.0219,157.1941],[-67.369,-11.0132,157.8686],[-67.3719,-11.0147,159.0363],[-67.3705,-11.02,161.3495],[-67.3723,-11.0226,156.0035],[-67.3777,-11.0142,167.9426],[-67.3915,-11.0072,158.2667],[-67.3933,-11.0081,161.514],[-67.3952,-11.0148,163.235],[-67.3979,-11.0162,156.4186],[-67.4007,-11.0085,163.7916],[-67.4084,-11.0018,157.7213],[-67.4123,-11.0032,163.7993],[-67.4163,-11.0019,162.9583],[-67.4194,-11.0029,157.5505],[-67.4207,-11.0046,157.7037],[-67.4194,-11.0092,155.0],[-67.4213,-11.01,166.6618],[-67.4299,-11.0053,156.2425],[-67.4301,-10.9982,156.547],[-67.4341,-10.9955,157.5536],[-67.4359,-10.9971,156.4779],[-67.4317,-11.0095,161.8221],[-67.4342,-11.0091,156.5223],[-67.436,-11.0038,158.0081],[-67.439,-11.0009,158.0669],[-67.4384,-11.0074,155.5],[-67.4472,-11.0081,172.2671],[-67.4496,-11.0167,165.3719],[-67.452,-11.0169,164.6256],[-67.4545,-11.014099999999999,158.7955],[-67.4571,-11.0151,158.0979],[-67.4527,-11.0211,156.0],[-67.4551,-11.0269,162.9613],[-67.4576,-11.0274,158.1945],[-67.4617,-11.0217,162.0302],[-67.4676,-11.0204,156.5],[-67.4715,-11.0215,160.1823],[-67.4645,-11.024,156.5],[-67.4636,-11.0326,161.3175],[-67.4648,-11.0342,156.5],[-67.4701,-11.0315,160.335],[-67.4731,-11.0346,167.9855],[-67.4776,-11.0333,158.9286],[-67.4795,-11.0379,157.0],[-67.4822,-11.0394,157.0],[-67.4891,-11.0398,160.1273],[-67.4896,-11.037,157.0],[-67.4843,-11.0321,172.2267],[-67.4895,-11.0318,161.4606],[-67.4906,-11.0278,169.0054],[-67.4954,-11.0288,166.5715],[-67.5006,-11.0271,162.6201],[-67.5115,-11.03,159.0612],[-67.5128,-11.0343,159.5011],[-67.5103,-11.039,161.9084],[-67.5122,-11.0438,165.6805],[-67.5144,-11.0382,164.1875],[-67.5189,-11.039,157.5],[-67.5248,-11.0372,163.0587],[-67.531,-11.0489,162.1084],[-67.5339,-11.05,170.3732],[-67.535,-11.0467,165.1242],[-67.5319,-11.0407,164.0798],[-67.5335,-11.0393,161.0287],[-67.5373,-11.0405,159.6655],[-67.5379,-11.0478,159.9721],[-67.5478,-11.0542,167.8402],[-67.5441,-11.0577,169.8859],[-67.5451,-11.0679,161.1504],[-67.5431,-11.075,165.0118],[-67.5485,-11.072,164.3391],[-67.5536,-11.0749,173.7819],[-67.5522,-11.0777,158.0],[-67.5485,-11.0781,164.521],[-67.5476,-11.0811,165.4768],[-67.5507,-11.0825,167.798],[-67.5541,-11.0801,162.3351],[-67.5562,-11.0818,164.0067],[-67.5583,-11.0892,158.0],[-67.5535,-11.0932,160.579],[-67.5527,-11.0975,159.5477],[-67.5574,-11.0999,160.5511],[-67.5612,-11.1072,164.9472]]]]}}