{"type": "Feature","bbox": [-65.3933,-19.3604,-65.1483,-19.0902],"geometry": {"type": "MultiPolygon","coordinates": [[[[-65.3929,-19.1726,2476.7593],[-65.3896,-19.1767,2491.7451],[-65.3902,-19.1831,2518.5002],[-65.3885,-19.1906,2560.4585],[-65.3933,-19.2037,2580.145],[-65.3848,-19.2174,2449.4465],[-65.3831,-19.2261,2438.6387],[-65.3796,-19.2323,2461.229],[-65.3721,-19.2406,2435.2756],[-65.3728,-19.2469,2426.1362],[-65.3698,-19.2556,2397.4089],[-65.3611,-19.2628,2404.2793],[-65.3524,-19.2653,2374.2778],[-65.3477,-19.265,2371.8745],[-65.3453,-19.2671,2369.8853],[-65.3412,-19.2676,2368.7781],[-65.3386,-19.2711,2364.7354],[-65.3304,-19.2714,2355.2339],[-65.324,-19.2815,2343.522],[-65.3156,-19.3023,2323.2822],[-65.3092,-19.3066,2315.7986],[-65.301,-19.306,2311.6138],[-65.2946,-19.3085,2306.4736],[-65.2869,-19.3081,2304.0715],[-65.2647,-19.3151,2298.9866],[-65.2605,-19.3159,2281.1021],[-65.2539,-19.3144,2275.6885],[-65.2468,-19.3183,2271.6421],[-65.2417,-19.3184,2267.8213],[-65.2374,-19.3207,2264.4541],[-65.2307,-19.3205,2261.645],[-65.222,-19.3293,2253.9768],[-65.2211,-19.3376,2260.272],[-65.2151,-19.3439,2245.127],[-65.2084,-19.3457,2238.5754],[-65.2009,-19.3496,2233.9844],[-65.199,-19.3521,2232.7314],[-65.1869,-19.3566,2224.2922],[-65.177,-19.3552,2217.2915],[-65.1698,-19.3604,2227.7368],[-65.167,-19.3588,2230.2876],[-65.1663,-19.3523,2243.3916],[-65.1624,-19.3481,2260.3176],[-65.1567,-19.3166,2365.5864],[-65.158,-19.3128,2361.8171],[-65.1565,-19.3063,2396.4719],[-65.1567,-19.2933,2438.2837],[-65.159,-19.2859,2493.0334],[-65.1558,-19.279,2551.7129],[-65.151,-19.2755,2834.0972],[-65.1483,-19.2692,3065.6929],[-65.1507,-19.2614,3107.1584],[-65.1636,-19.246,3324.0117],[-65.1692,-19.2418,3374.7791],[-65.1798,-19.2255,3329.7407],[-65.197,-19.1917,3034.5122],[-65.2065,-19.1613,2923.0115],[-65.2053,-19.1586,2877.8064],[-65.1958,-19.1516,2981.1758],[-65.1947,-19.1485,2955.8796],[-65.1965,-19.1404,2828.3735],[-65.2051,-19.1391,2710.4473],[-65.2152,-19.1409,2635.2852],[-65.2147,-19.1371,2651.7549],[-65.2202,-19.1261,2717.6284],[-65.2244,-19.1265,2745.427],[-65.2307,-19.1304,2893.2588],[-65.2473,-19.1191,2644.3567],[-65.2455,-19.1157,2651.8462],[-65.2396,-19.1137,2701.1504],[-65.2391,-19.112,2713.9224],[-65.2472,-19.1048,2736.5918],[-65.2476,-19.0938,2802.6375],[-65.2632,-19.0902,2829.2656],[-65.2734,-19.0956,2738.2009],[-65.28,-19.0938,2880.7625],[-65.2842,-19.0948,2869.1331],[-65.2857,-19.1065,2863.5725],[-65.2832,-19.1123,2850.4521],[-65.29,-19.1159,2788.1838],[-65.2913,-19.1182,2670.1582],[-65.3023,-19.1213,2656.8359],[-65.3111,-19.1281,2796.1296],[-65.3167,-19.1261,2849.4177],[-65.32,-19.1216,2852.8557],[-65.3237,-19.1218,2840.7756],[-65.3256,-19.1195,2850.3782],[-65.3342,-19.1201,3019.2859],[-65.334,-19.1279,3022.728],[-65.3368,-19.1341,3182.0847],[-65.3374,-19.1407,3163.823],[-65.3471,-19.1508,3200.957],[-65.3418,-19.1638,3246.3804],[-65.347,-19.1731,3385.4746],[-65.3496,-19.172,3436.7339],[-65.3568,-19.1575,3396.3765],[-65.362,-19.1527,3510.8142],[-65.366,-19.1601,3095.0369],[-65.3762,-19.1652,2950.7202],[-65.3833,-19.1652,2714.4963],[-65.3929,-19.1726,2476.7593]]]]}
,"properties": {"GID_3": "BOL.1.6.3_2","GID_0": "BOL","country": "Bolivia","GID_1": "BOL.1_1","province": "Chuquisaca","NL_NAME_1": "NA","GID_2": "BOL.1.6_2","county": "Oropeza","NL_NAME_2": "NA","city": "Yotala","VARNAME_3": "NA","NL_NAME_3": "NA","TYPE_3": "District","ENGTYPE_3": "Distrito","CC_3": "NA","HASC_3": "NA","name": "Yotala.city","area_km2": 435.831,"hist_schema_id": "Elevation0-9000","hist_area_km2": {"2225": 1.2403,"2250": 2.3607,"2275": 3.4012,"2300": 3.2613,"2325": 4.3019,"2350": 5.2028,"2375": 5.5434,"2400": 7.2847,"2425": 7.9059,"2450": 8.867,"2475": 9.8282,"2500": 10.9299,"2525": 12.7522,"2550": 15.3358,"2575": 18.2197,"2600": 17.2596,"2625": 19.9831,"2650": 20.3036,"2675": 22.2053,"2700": 21.2243,"2725": 17.6,"2750": 17.0391,"2775": 16.1183,"2800": 14.516,"2825": 13.1741,"2850": 13.4735,"2875": 14.3534,"2900": 14.0124,"2925": 14.2928,"2950": 11.8106,"2975": 9.6686,"3000": 9.4684,"3025": 10.129,"3050": 7.4667,"3075": 6.1457,"3100": 4.3842,"3125": 3.7034,"3150": 3.4834,"3175": 3.2432,"3200": 2.1623,"3225": 1.782,"3250": 1.6419,"3275": 1.1013,"3300": 1.1414,"3325": 1.3817,"3350": 1.2015,"3375": 1.0614,"3400": 0.6809,"3425": 0.5808,"3450": 0.6609,"3475": 0.3605,"3500": 0.1802,"3525": 0.2403,"3550": 0.1602}}}