{"type": "Feature","bbox": [-66.035583719952015,-13.129409384381802,-65.881631281462163,-12.910402473795841],"geometry": {"type": "Polygon","coordinates": [[[-65.8922283900389,-12.94543180492451,146.0],[-65.899440311153626,-12.936306516983421,146.0],[-65.907388142586186,-12.928358685550876,146.0],[-65.919309889735018,-12.913051750940014,151.1316],[-65.92446126195982,-12.910696837922984,147.8093],[-65.932409093392366,-12.910402473795841,147.6047],[-65.941828745460583,-12.912463022685756,147.4376],[-65.9921650112001,-12.937189609364822,158.5748],[-66.023809154866754,-12.959855647153972,156.3275],[-66.029402073282256,-12.968980935095033,161.5228],[-66.0330816248714,-12.978694951290379,157.5423],[-66.035583719952015,-12.990763880502783,153.9507],[-66.034700627570629,-13.004304630350845,152.9922],[-66.02763588851947,-13.023732662741537,152.0821],[-66.025280975502412,-13.037273412589599,152.9914],[-66.026164067883812,-13.049636705929117,159.0291],[-66.0283717988373,-13.060233814505864,158.2762],[-66.018363418514824,-13.107332074846937,153.5177],[-66.01262331803575,-13.115574270406626,153.7842],[-66.005411396921019,-13.12087282469497,146.0],[-65.985247454212512,-13.125288286601972,146.0],[-65.93653019117221,-13.129409384381802,146.0],[-65.925638718468349,-13.122639009457771,146.0],[-65.922842259260591,-13.11498554215234,146.0],[-65.907093778459043,-13.006953907495017,146.0],[-65.90356140893347,-12.999889168443872,146.0],[-65.889873477021851,-12.990469516375668,146.0],[-65.88310310209782,-12.983110413197352,146.0],[-65.881631281462163,-12.974279489383406,158.6626],[-65.88810729225905,-12.954851456992714,146.0],[-65.8922283900389,-12.94543180492451,146.0]]]}
,"properties": {"featurecla": "Lake","scalerank": 9,"name": "Laguna Huaitunas","name_abb": "Lag. Huaitunas","name_alt": null,"note": null,"delta": null,"dam_name": null,"year": -99,"admin": null,"min_zoom": 7.0,"min_label": 8.0,"area_km2": 284.4081,"hist_schema_id": "Elevation0-9000","hist_area_km2": {"150": 282.8999,"175": 1.5082}}}