{"type": "Feature","bbox": [-65.623473941967688,-13.045221244022144,-65.4730538730034,-12.757627491814503],"geometry": {"type": "Polygon","coordinates": [[[-65.476733424592553,-12.98634841859581,141.0],[-65.479824247927425,-12.977223130654721,143.7291],[-65.480118612054554,-12.966626022078003,141.0],[-65.474231329511923,-12.946903625560168,141.0],[-65.47776369903751,-12.938367065873337,148.9878],[-65.491745995076258,-12.92276576713536,141.0],[-65.494689636347573,-12.9136404791943,141.0],[-65.493217815711915,-12.903926462998953,141.0],[-65.494984000474716,-12.883909702354003,141.0],[-65.491745995076258,-12.874490050285772,141.0],[-65.487919261423556,-12.866247854726083,153.7634],[-65.488802353804942,-12.859183115674938,149.0517],[-65.495719910792545,-12.855650746149337,150.4395],[-65.504403652542919,-12.855062017895079,144.6148],[-65.512793030166179,-12.852707104878021,141.0],[-65.517944402390981,-12.845348001699733,141.0],[-65.521918318107254,-12.815322860732323,141.0],[-65.521035225725868,-12.795600464214488,141.0],[-65.525450687632841,-12.787358268654799,152.1455],[-65.533545701128958,-12.783825899129226,144.0414],[-65.5734320403553,-12.776761160078053,141.0],[-65.601543814496381,-12.759099312450161,149.8672],[-65.606989550848311,-12.757627491814503,155.6708],[-65.612140923073113,-12.759099312450161,160.478],[-65.618322569742872,-12.763809138484277,160.4538],[-65.621560575141331,-12.772934426425337,153.7614],[-65.62273803164986,-12.783825899129226,155.9462],[-65.622002121332031,-12.798249741358688,151.7407],[-65.623473941967688,-12.81090739882535,158.1147],[-65.617733841488615,-12.827097425817584,148.9934],[-65.615084564344428,-12.842404360428418,157.4875],[-65.609933192119627,-12.853590197259422,159.9862],[-65.592860072745992,-12.865953490598969,141.0],[-65.5906523417925,-12.878905512192745,141.0],[-65.589916431474677,-12.901277185854752,150.7076],[-65.584029148932046,-12.938367065873337,161.4299],[-65.587414336394048,-12.948964174450083,156.0576],[-65.594037529254521,-12.957206370009771,156.7426],[-65.5980114449708,-12.96633165795086,154.2857],[-65.595067803699479,-12.979872407798922,147.5799],[-65.567544757812669,-13.016373559563249,144.9477],[-65.556800467172366,-13.026970668139995,141.0],[-65.509260660640592,-13.045221244022144,141.0],[-65.499988190635946,-13.04404378751363,141.0],[-65.49733891349176,-13.041688874496572,141.0],[-65.492776269521229,-13.035507227826798,143.1026],[-65.494542454284016,-13.02814812464851,157.4694],[-65.499988190635946,-13.017256651944649,141.0],[-65.49822200587316,-13.013724282419048,141.0],[-65.493217815711915,-13.009897548766332,141.0],[-65.478352427291767,-13.005776450986502,141.0],[-65.474231329511923,-13.001949717333787,141.0],[-65.4730538730034,-12.999006076062471,141.0],[-65.473642601257666,-12.994590614155499,141.0],[-65.476733424592553,-12.98634841859581,141.0]]]}
,"properties": {"featurecla": "Lake","scalerank": 9,"name": "Laguna Ragaguado","name_abb": "Lag. Ragaguado","name_alt": null,"note": null,"delta": null,"dam_name": null,"year": -99,"admin": null,"min_zoom": 7.0,"min_label": 8.0,"area_km2": 314.6522,"hist_schema_id": "Elevation0-9000","hist_area_km2": {"150": 314.1562,"175": 0.4961}}}