{"type": "Feature","bbox": [-67.7927,-17.1995,-67.4977,-16.9488],"geometry": {"type": "MultiPolygon","coordinates": [[[[-67.765,-17.1854,4675.731],[-67.7301,-17.1866,4784.5176],[-67.7223,-17.1894,4776.8281],[-67.7205,-17.194,4729.9336],[-67.7147,-17.1946,4670.8164],[-67.7069,-17.1995,4608.0176],[-67.7031,-17.1974,4605.7158],[-67.7008,-17.1932,4498.188],[-67.701,-17.1898,4516.3628],[-67.697,-17.1867,4452.2651],[-67.6797,-17.1917,4277.2964],[-67.6696,-17.1885,3935.0933],[-67.6595,-17.1881,3596.3665],[-67.6622,-17.1817,3531.3076],[-67.6611,-17.1739,3503.6455],[-67.6541,-17.1713,3413.2756],[-67.6458,-17.1644,3412.0078],[-67.6488,-17.1489,3397.5737],[-67.6457,-17.133,3148.5652],[-67.6524,-17.1131,2925.5845],[-67.6498,-17.1097,2907.6104],[-67.6356,-17.1034,2813.5012],[-67.6353,-17.0989,2794.8931],[-67.6291,-17.0977,2752.9917],[-67.6244,-17.1026,3102.3916],[-67.6269,-17.1152,3743.7417],[-67.6258,-17.1173,3726.7568],[-67.6184,-17.1261,3704.0752],[-67.6159,-17.1268,3465.2637],[-67.6117,-17.136,3050.8696],[-67.6014,-17.14,3362.429],[-67.6011,-17.1489,3703.0449],[-67.5915,-17.1548,3121.2944],[-67.5715,-17.1842,3941.4175],[-67.5612,-17.1884,3912.4148],[-67.5478,-17.1901,3328.6477],[-67.5363,-17.1889,3465.0935],[-67.5321,-17.1791,3404.8945],[-67.5296,-17.1774,3229.0437],[-67.526,-17.1806,3336.6558],[-67.5213,-17.182,3470.2063],[-67.5173,-17.1793,3518.6152],[-67.5176,-17.1781,3518.6152],[-67.5145,-17.177,3405.7734],[-67.5178,-17.1559,4025.9795],[-67.5156,-17.151,3969.0898],[-67.5187,-17.1444,3963.2234],[-67.5229,-17.1446,4066.8938],[-67.5227,-17.1428,4049.2654],[-67.5205,-17.1398,3944.5007],[-67.5026,-17.1339,3440.4851],[-67.4995,-17.1286,3542.4429],[-67.4977,-17.1193,3621.2466],[-67.5029,-17.1177,3701.9414],[-67.5048,-17.1153,3740.7244],[-67.5054,-17.1055,3942.8835],[-67.503,-17.1014,4090.4268],[-67.5034,-17.0964,4293.8652],[-67.5074,-17.0961,4264.8652],[-67.5137,-17.0925,4090.6919],[-67.5116,-17.0872,3876.2976],[-67.515,-17.0808,3593.4189],[-67.5114,-17.0711,3264.4597],[-67.5074,-17.067,3138.345],[-67.5175,-17.0522,3129.3958],[-67.5204,-17.0522,3012.3899],[-67.5245,-17.0495,3004.4446],[-67.5275,-17.0411,3052.6545],[-67.5319,-17.0386,2944.5205],[-67.5424,-17.0368,2858.9841],[-67.5357,-17.0185,3635.9221],[-67.5373,-17.0123,3794.4934],[-67.5432,-17.0087,3901.2844],[-67.5447,-17.0062,3620.6375],[-67.5607,-17.0135,3672.3088],[-67.5704,-17.0094,3698.834],[-67.5775,-17.0036,3425.7964],[-67.597,-17.0029,3419.2771],[-67.606,-17.0042,3048.7939],[-67.6137,-17.0002,2997.0796],[-67.6209,-17.0032,2531.2776],[-67.6386,-17.0013,2417.2083],[-67.6468,-17.0024,2378.9626],[-67.6581,-16.9985,2338.9854],[-67.6648,-16.9923,2314.0688],[-67.6681,-16.987,2302.897],[-67.6714,-16.9739,2267.2729],[-67.6789,-16.9677,2237.7651],[-67.6818,-16.9595,2216.0278],[-67.6809,-16.9488,2195.8745],[-67.6829,-16.9537,2224.7188],[-67.692,-16.9616,2341.1082],[-67.6955,-16.9794,2869.6919],[-67.6892,-16.9878,2958.2095],[-67.6843,-16.9889,2557.8633],[-67.6826,-16.9969,3010.689],[-67.6806,-16.9993,3101.2664],[-67.687,-17.014,3609.8538],[-67.6987,-17.014,3631.5581],[-67.7028,-17.0122,3651.468],[-67.7113,-17.0145,4037.353],[-67.7149,-17.0174,3951.355],[-67.7123,-17.0257,3849.427],[-67.7177,-17.026,3758.7405],[-67.7248,-17.0223,3593.3789],[-67.7272,-17.0238,3594.5903],[-67.7359,-17.0231,3426.3828],[-67.7359,-17.0285,3579.8027],[-67.74,-17.0344,3817.0015],[-67.7407,-17.0446,3491.1821],[-67.7388,-17.0494,3419.3604],[-67.7401,-17.0533,3318.9229],[-67.7491,-17.0583,3166.0039],[-67.7499,-17.0607,3154.0142],[-67.7489,-17.0663,3148.5088],[-67.7438,-17.0711,3197.437],[-67.7243,-17.0812,3278.2051],[-67.7232,-17.0852,3355.9971],[-67.7244,-17.0895,3312.519],[-67.7215,-17.0965,3384.085],[-67.7249,-17.1018,3454.3389],[-67.7224,-17.1062,3438.4863],[-67.7232,-17.1097,3472.3523],[-67.7368,-17.1082,4160.1724],[-67.7406,-17.1093,4178.7627],[-67.7428,-17.1172,4355.4736],[-67.7422,-17.1226,4366.0181],[-67.7462,-17.1258,4415.2871],[-67.7473,-17.1302,4373.6567],[-67.755,-17.1325,4628.5259],[-67.7643,-17.1405,4788.499],[-67.7668,-17.1511,4828.2959],[-67.7847,-17.1527,4288.8979],[-67.7927,-17.1572,4558.1152],[-67.7722,-17.1771,4743.9692],[-67.7703,-17.1808,4698.7607],[-67.7722,-17.1837,4665.5371],[-67.765,-17.1854,4675.731]]]]}
,"properties": {"GID_3": "BOL.4.13.2_2","GID_0": "BOL","country": "Bolivia","GID_1": "BOL.4_1","province": "LaPaz","NL_NAME_1": "NA","GID_2": "BOL.4.13_2","county": "Loayza","NL_NAME_2": "NA","city": "Luribay","VARNAME_3": "NA","NL_NAME_3": "NA","TYPE_3": "District","ENGTYPE_3": "Distrito","CC_3": "NA","HASC_3": "NA","name": "Luribay.city","area_km2": 452.4699,"hist_schema_id": "Elevation0-9000","hist_area_km2": {"2200": 0.0811,"2225": 0.142,"2250": 0.5273,"2275": 0.5678,"2300": 0.6489,"2325": 0.8719,"2350": 1.0747,"2375": 1.2571,"2400": 1.3585,"2425": 1.4193,"2450": 1.7234,"2475": 1.622,"2500": 2.1288,"2525": 2.3517,"2550": 2.6355,"2575": 2.8584,"2600": 2.6961,"2625": 2.9799,"2650": 3.4461,"2675": 3.7501,"2700": 3.7501,"2725": 4.0946,"2750": 4.2364,"2775": 3.7499,"2800": 4.3781,"2825": 4.378,"2850": 4.6213,"2875": 4.9658,"2900": 4.4591,"2925": 5.4116,"2950": 5.3304,"2975": 5.533,"3000": 4.9655,"3025": 5.6141,"3050": 5.4516,"3075": 5.857,"3100": 6.4448,"3125": 5.9381,"3150": 5.9989,"3175": 5.9582,"3200": 6.465,"3225": 6.2015,"3250": 5.9583,"3275": 5.7759,"3300": 6.4853,"3325": 6.769,"3350": 5.9583,"3375": 7.0122,"3400": 6.688,"3425": 6.7487,"3450": 6.8499,"3475": 6.5662,"3500": 7.3769,"3525": 7.2147,"3550": 6.9514,"3575": 7.4783,"3600": 7.0121,"3625": 7.9647,"3650": 7.4579,"3675": 8.6942,"3700": 8.1267,"3725": 8.4305,"3750": 8.1264,"3775": 7.559,"3800": 8.2479,"3825": 7.194,"3850": 7.8425,"3875": 6.8494,"3900": 7.1938,"3925": 6.5249,"3950": 6.2207,"3975": 6.0181,"4000": 5.5519,"4025": 5.2075,"4050": 5.4303,"4075": 5.6937,"4100": 4.4981,"4125": 4.2145,"4150": 3.87,"4175": 3.8091,"4200": 3.728,"4225": 2.8162,"4250": 2.2488,"4275": 1.8436,"4300": 1.6612,"4325": 1.9246,"4350": 1.4789,"4375": 1.6409,"4400": 1.3978,"4425": 1.8434,"4450": 1.4991,"4475": 1.8232,"4500": 1.8637,"4525": 1.7624,"4550": 2.1068,"4575": 2.2284,"4600": 2.1878,"4625": 2.4106,"4650": 3.3222,"4675": 2.9981,"4700": 2.755,"4725": 2.5727,"4750": 2.2081,"4775": 1.5598,"4800": 0.6888,"4825": 0.3039,"4850": 0.081}}}