{"type": "Feature","bbox": [-67.0055,-17.4485,-66.1415,-15.7799],"geometry": {"type": "MultiPolygon","coordinates": [[[[-66.4323,-17.095,3916.6921],[-66.4246,-17.0818,3883.6724],[-66.4179,-17.0764,3815.2598],[-66.4152,-17.0763,3867.4209],[-66.4084,-17.0693,3775.3608],[-66.4043,-17.0685,3836.2083],[-66.4005,-17.0639,3755.3127],[-66.3967,-17.0632,3751.0947],[-66.3949,-17.0592,3714.3774],[-66.3876,-17.0579,3748.9365],[-66.3851,-17.0544,3687.9517],[-66.3826,-17.0539,3686.3201],[-66.3799,-17.0462,3672.2],[-66.3658,-17.0466,3572.4878],[-66.3596,-17.0509,3568.2305],[-66.3543,-17.0592,3612.8486],[-66.3524,-17.0586,3518.9238],[-66.353,-17.0619,3680.2266],[-66.3468,-17.069,3603.9287],[-66.3451,-17.0745,3614.1438],[-66.3417,-17.0766,3649.6333],[-66.3271,-17.0739,4144.0327],[-66.3252,-17.0721,4168.2539],[-66.32,-17.0562,4463.5229],[-66.3036,-17.045,4734.4873],[-66.3018,-17.0299,4540.6323],[-66.3144,-17.0145,4432.4741],[-66.3501,-16.9955,4168.3008],[-66.3109,-16.9714,4040.7129],[-66.2946,-16.9856,4498.0615],[-66.2824,-16.9828,4325.6914],[-66.2618,-16.9689,3743.6191],[-66.2637,-16.9659,3717.6885],[-66.2603,-16.9599,3698.6194],[-66.2571,-16.9564,3651.5044],[-66.2539,-16.9564,3699.6406],[-66.2506,-16.9523,3567.8572],[-66.2507,-16.9503,3544.7947],[-66.2425,-16.9494,2928.3896],[-66.2402,-16.9464,2887.7534],[-66.2364,-16.9464,2663.6416],[-66.2281,-16.9426,2443.8704],[-66.222,-16.9339,2271.5615],[-66.2181,-16.9323,2196.1638],[-66.2178,-16.9196,2034.9731],[-66.2242,-16.9141,1996.0072],[-66.2368,-16.896,1916.918],[-66.2436,-16.8943,1840.738],[-66.2571,-16.8844,1776.0024],[-66.2633,-16.8856,1901.4756],[-66.2774,-16.8769,2242.4822],[-66.2829,-16.8766,2064.9438],[-66.2875,-16.8689,2025.5352],[-66.2872,-16.8616,2040.2322],[-66.2893,-16.8572,1978.2748],[-66.2928,-16.8583,1966.7947],[-66.2945,-16.857,1927.897],[-66.2966,-16.8537,1929.921],[-66.296,-16.8497,1936.3542],[-66.3017,-16.8478,1937.0342],[-66.3031,-16.8453,1874.9738],[-66.3024,-16.8428,1870.439],[-66.3086,-16.8381,1821.178],[-66.3092,-16.8338,1898.1163],[-66.3115,-16.8327,1811.9192],[-66.3108,-16.8249,1814.6912],[-66.3124,-16.819,1791.5121],[-66.3111,-16.8126,1719.2006],[-66.3127,-16.8112,1726.7963],[-66.3127,-16.8068,1735.6711],[-66.3052,-16.7819,1596.2451],[-66.2991,-16.7768,1575.1874],[-66.2922,-16.7765,1567.8392],[-66.2856,-16.7711,1596.4388],[-66.2789,-16.7691,1524.9146],[-66.2784,-16.7666,1520.9066],[-66.271,-16.7605,1502.1179],[-66.2581,-16.76,1470.2744],[-66.2536,-16.7626,1456.9767],[-66.2485,-16.763,1465.3333],[-66.2374,-16.7688,1433.1144],[-66.2331,-16.7731,1435.3601],[-66.2123,-16.77,1397.8341],[-66.2028,-16.7738,1403.3757],[-66.1945,-16.7715,1398.486],[-66.1908,-16.7747,1415.8596],[-66.1854,-16.7746,1434.396],[-66.1747,-16.7674,1367.0175],[-66.1745,-16.7642,1341.5441],[-66.1689,-16.7644,1354.859],[-66.1665,-16.7625,1401.5132],[-66.1712,-16.757,1350.6436],[-66.1708,-16.7504,1349.6902],[-66.1688,-16.7468,1347.1527],[-66.1699,-16.7363,1338.0507],[-66.1747,-16.734,1304.6731],[-66.1739,-16.7314,1344.6729],[-66.1758,-16.7271,1329.9011],[-66.1739,-16.7242,1353.6462],[-66.1744,-16.7206,1314.0568],[-66.1715,-16.7171,1310.2839],[-66.1729,-16.714,1290.6932],[-66.1713,-16.7098,1263.5852],[-66.1751,-16.7005,1264.4852],[-66.1759,-16.6914,1302.3293],[-66.1821,-16.6803,1286.5493],[-66.1801,-16.6762,1270.4868],[-66.177,-16.6742,1279.1208],[-66.1777,-16.6715,1258.7563],[-66.1724,-16.6672,1229.6576],[-66.172,-16.6649,1228.6707],[-66.1776,-16.662,1210.1238],[-66.1806,-16.6581,1241.1285],[-66.1787,-16.6551,1200.5243],[-66.1801,-16.6515,1213.8345],[-66.1772,-16.6495,1260.9768],[-66.1806,-16.6418,1225.0034],[-66.1793,-16.6378,1205.0981],[-66.1893,-16.6277,1171.8799],[-66.1909,-16.6189,1177.3904],[-66.1878,-16.6159,1209.3605],[-66.189,-16.6082,1163.4854],[-66.1867,-16.6023,1185.8018],[-66.1818,-16.5988,1155.186],[-66.1684,-16.5952,1130.8879],[-66.1654,-16.5916,1204.6884],[-66.1653,-16.5883,1123.2222],[-66.1597,-16.583,1106.1694],[-66.1593,-16.5783,1235.8853],[-66.1415,-16.5592,1067.6844],[-66.1454,-16.5546,1082.2876],[-66.1509,-16.5521,1070.1921],[-66.1532,-16.5463,1074.4238],[-66.1624,-16.5376,1059.593],[-66.1606,-16.5291,1048.6147],[-66.1619,-16.5241,1050.959],[-66.1714,-16.5217,1070.781],[-66.1765,-16.5146,1044.4628],[-66.1786,-16.5147,1046.0088],[-66.1803,-16.5179,1035.5726],[-66.1853,-16.5183,1054.7368],[-66.186,-16.5145,1156.5884],[-66.1897,-16.5124,1032.8257],[-66.1871,-16.5089,1027.6134],[-66.1888,-16.5053,1032.0813],[-66.1979,-16.5022,1016.6249],[-66.2028,-16.5025,1042.9918],[-66.2083,-16.4984,1024.8666],[-66.21,-16.4925,1031.4031],[-66.2164,-16.493,1083.2114],[-66.2217,-16.4845,1010.6722],[-66.2288,-16.4824,1021.7784],[-66.234,-16.4773,1004.5756],[-66.2371,-16.4709,1013.6401],[-66.2347,-16.4663,1007.3361],[-66.2385,-16.4632,989.2446],[-66.2407,-16.4588,989.0844],[-66.2489,-16.4564,1010.4318],[-66.2579,-16.4584,984.1888],[-66.2748,-16.4465,1085.7078],[-66.2766,-16.4431,962.3496],[-66.2817,-16.4402,958.8404],[-66.2846,-16.4348,953.9834],[-66.2908,-16.4326,982.6604],[-66.2935,-16.4277,947.0162],[-66.2982,-16.4264,962.8119],[-66.3016,-16.4215,944.4293],[-66.3045,-16.4212,933.5549],[-66.3068,-16.4171,943.2302],[-66.3232,-16.4069,926.9758],[-66.3271,-16.4066,986.2099],[-66.328,-16.404,920.0228],[-66.3268,-16.4009,941.5135],[-66.3232,-16.3992,980.9511],[-66.3064,-16.3573,2079.4343],[-66.3097,-16.3073,1120.4282],[-66.3079,-16.2875,1284.0012],[-66.3393,-16.1172,342.186],[-66.3497,-16.1146,378.1414],[-66.3552,-16.111,418.5772],[-66.3561,-16.108,399.3926],[-66.361,-16.1075,423.9351],[-66.3674,-16.104,467.9567],[-66.3722,-16.0956,570.2062],[-66.3783,-16.0928,710.9547],[-66.3832,-16.0861,651.9261],[-66.4016,-16.0745,952.2649],[-66.4769,-16.0044,1106.6057],[-66.5063,-15.9852,695.4521],[-66.5697,-15.9606,1251.6289],[-66.6156,-15.9517,1161.3781],[-66.6352,-15.9335,1244.4656],[-66.6347,-15.927,1296.1047],[-66.6388,-15.916,1417.3684],[-66.6468,-15.9169,1427.4312],[-66.6587,-15.9054,1459.283],[-66.6689,-15.9061,1366.5416],[-66.6762,-15.911,1445.5706],[-66.6817,-15.9029,1465.6118],[-66.7071,-15.8939,1571.9539],[-66.7295,-15.8786,1614.6637],[-66.7476,-15.8603,1590.3751],[-66.7663,-15.8464,1753.8839],[-66.7908,-15.8338,1609.4016],[-66.8075,-15.828,1525.3596],[-66.8089,-15.8234,1419.8077],[-66.8058,-15.8083,1331.0939],[-66.8028,-15.8045,1338.8179],[-66.8015,-15.7995,1180.2786],[-66.7972,-15.7953,1145.7502],[-66.7944,-15.7878,1179.4954],[-66.7954,-15.7851,1097.2786],[-66.8003,-15.7848,1092.0889],[-66.8027,-15.7826,1083.371],[-66.8041,-15.7839,1094.7245],[-66.8069,-15.7804,1095.0247],[-66.8093,-15.7799,1097.9294],[-66.8128,-15.7822,1135.6075],[-66.8123,-15.7861,1155.6016],[-66.8262,-15.7886,1367.6958],[-66.8304,-15.7905,1525.5067],[-66.8337,-15.7951,1629.7548],[-66.8368,-15.7967,1619.9581],[-66.8485,-15.7884,1346.3987],[-66.8605,-15.7831,1228.2673],[-66.8641,-15.7915,1025.4271],[-66.8737,-15.7964,875.1456],[-66.8819,-15.8089,748.1306],[-66.8835,-15.8088,748.1306],[-66.8908,-15.8159,671.9509],[-66.8928,-15.8203,650.4168],[-66.8954,-15.8206,644.2667],[-66.9003,-15.8352,582.3257],[-66.9081,-15.8461,518.4365],[-66.9065,-15.8489,505.5568],[-66.9011,-15.8494,502.0],[-66.9016,-15.8522,505.1821],[-66.8999,-15.8556,508.5671],[-66.9035,-15.8618,507.728],[-66.9014,-15.868,515.3816],[-66.8948,-15.8718,513.7339],[-66.8871,-15.8734,515.2974],[-66.8829,-15.8785,513.228],[-66.8818,-15.8845,514.1585],[-66.8831,-15.8899,532.8432],[-66.8885,-15.894,517.0527],[-66.8902,-15.8975,528.9762],[-66.8747,-15.919,527.7446],[-66.8787,-15.9224,528.3793],[-66.8783,-15.9258,533.6263],[-66.8688,-15.9354,554.8882],[-66.8753,-15.938,545.6948],[-66.8785,-15.9436,569.911],[-66.884,-15.9417,557.4535],[-66.8888,-15.9504,576.0762],[-66.8948,-15.9521,568.2567],[-66.8987,-15.9556,647.5669],[-66.9003,-15.9611,598.838],[-66.9052,-15.9629,626.5836],[-66.9058,-15.9683,584.6353],[-66.9104,-15.9729,590.8333],[-66.9137,-15.9797,609.1932],[-66.9117,-15.9857,652.1373],[-66.9125,-15.9878,627.667],[-66.9099,-15.9913,659.5439],[-66.9208,-15.9983,630.1872],[-66.9217,-16.0014,616.5479],[-66.917,-16.0043,640.502],[-66.9165,-16.0111,680.4526],[-66.9135,-16.0156,704.8517],[-66.9156,-16.0216,643.3588],[-66.913,-16.0259,681.6903],[-66.9116,-16.0329,660.0099],[-66.9132,-16.0424,644.2468],[-66.9091,-16.0473,667.425],[-66.911,-16.0489,662.8553],[-66.9095,-16.0532,683.2635],[-66.9131,-16.0607,668.256],[-66.9103,-16.0642,744.2485],[-66.9135,-16.0678,675.2394],[-66.9177,-16.0695,667.6076],[-66.918,-16.0823,692.0887],[-66.92,-16.0851,657.8212],[-66.9205,-16.0914,666.5267],[-66.9186,-16.0951,678.8006],[-66.9133,-16.0965,663.8464],[-66.9101,-16.1047,709.5721],[-66.903,-16.1035,682.1484],[-66.8982,-16.112,673.6812],[-66.8945,-16.1121,688.8082],[-66.8897,-16.1169,680.7587],[-66.8882,-16.1199,681.6628],[-66.8892,-16.1242,689.5135],[-66.8846,-16.1266,697.8524],[-66.8826,-16.1344,700.7922],[-66.8762,-16.1387,699.0433],[-66.8745,-16.1475,708.6226],[-66.868,-16.1515,702.1301],[-66.8706,-16.1606,715.3256],[-66.8629,-16.1646,705.5602],[-66.859,-16.1729,712.9099],[-66.8508,-16.1823,766.8002],[-66.8479,-16.1928,724.4815],[-66.8443,-16.195,851.8102],[-66.8457,-16.2092,748.0515],[-66.8516,-16.2167,735.5361],[-66.8495,-16.218,733.1347],[-66.8498,-16.2235,739.4211],[-66.8467,-16.2276,816.2178],[-66.8527,-16.2338,741.5006],[-66.8503,-16.2372,791.1313],[-66.8505,-16.2408,814.3184],[-66.8514,-16.244,832.7717],[-66.8535,-16.2446,824.3873],[-66.8499,-16.2516,760.0499],[-66.843,-16.258,813.974],[-66.8341,-16.2606,778.455],[-66.8277,-16.2686,767.9927],[-66.8195,-16.2695,863.4748],[-66.8198,-16.2749,772.8201],[-66.8163,-16.2812,782.7812],[-66.809,-16.2831,827.3624],[-66.807,-16.2877,798.1582],[-66.8004,-16.2956,791.5245],[-66.8003,-16.3,792.8279],[-66.801,-16.3016,803.3688],[-66.8038,-16.3019,826.0642],[-66.804,-16.3035,822.3332],[-66.8022,-16.3085,858.1342],[-66.8029,-16.3119,842.9132],[-66.7987,-16.3209,884.4648],[-66.7991,-16.3286,883.2786],[-66.7949,-16.3443,899.5167],[-66.7989,-16.3535,918.3804],[-66.7956,-16.3656,860.2856],[-66.7968,-16.3762,864.2659],[-66.7942,-16.3906,864.5402],[-66.7946,-16.3983,864.4362],[-66.7892,-16.4088,884.4299],[-66.7913,-16.4121,1005.6657],[-66.7857,-16.4142,887.6636],[-66.783,-16.4198,1044.2549],[-66.786,-16.4283,899.6951],[-66.7853,-16.4323,891.1746],[-66.7874,-16.436,914.5917],[-66.7882,-16.4434,912.5629],[-66.7851,-16.4505,905.022],[-66.786,-16.4565,904.8835],[-66.7825,-16.4618,1031.1731],[-66.7825,-16.4679,1010.8889],[-66.7845,-16.4721,958.3277],[-66.7882,-16.4735,922.5886],[-66.7888,-16.4845,965.2108],[-66.7816,-16.4941,938.7285],[-66.7731,-16.5,961.9312],[-66.7691,-16.5049,953.92],[-66.7688,-16.5121,1000.5378],[-66.7768,-16.5174,1013.126],[-66.7765,-16.5218,1000.9589],[-66.769,-16.5339,1006.3037],[-66.7649,-16.5356,1007.6779],[-66.765,-16.543,1028.6893],[-66.7597,-16.5444,1078.6641],[-66.7484,-16.564,1078.3954],[-66.7421,-16.5713,1064.6532],[-66.7426,-16.5776,1081.3223],[-66.7381,-16.5784,1099.1714],[-66.7321,-16.5901,1124.965],[-66.7338,-16.5964,1156.8904],[-66.7382,-16.6001,1192.1843],[-66.7367,-16.6048,1238.2775],[-66.7378,-16.6074,1255.9172],[-66.734,-16.6129,1134.6426],[-66.7373,-16.617,1161.8313],[-66.7369,-16.6228,1210.396],[-66.7414,-16.6246,1155.3015],[-66.7423,-16.6281,1153.7057],[-66.7466,-16.6321,1174.1432],[-66.7447,-16.64,1196.8065],[-66.742,-16.6438,1173.9038],[-66.7427,-16.6488,1164.8562],[-66.741,-16.6567,1193.4545],[-66.7469,-16.6621,1207.0911],[-66.747,-16.6669,1276.1436],[-66.7542,-16.6762,1217.9437],[-66.7543,-16.6843,1197.4513],[-66.7587,-16.6938,1231.9991],[-66.7566,-16.6971,1217.2971],[-66.7577,-16.7032,1229.0879],[-66.7532,-16.7065,1231.566],[-66.7436,-16.7203,1250.8271],[-66.7445,-16.7309,1252.1868],[-66.7409,-16.7363,1275.9984],[-66.7447,-16.7382,1256.9703],[-66.7456,-16.7406,1278.9883],[-66.7412,-16.75,1264.4408],[-66.7412,-16.7552,1270.6481],[-66.7516,-16.7687,1290.1998],[-66.7593,-16.7704,1291.713],[-66.7623,-16.7821,1335.1738],[-66.7691,-16.7858,1307.7385],[-66.7759,-16.7841,1312.1387],[-66.7841,-16.7931,1328.4807],[-66.7849,-16.7957,1330.2543],[-66.7806,-16.7999,1446.4871],[-66.784,-16.8031,1337.8206],[-66.7848,-16.8065,1432.4176],[-66.7892,-16.8067,1347.7617],[-66.7926,-16.8104,1359.5759],[-66.7969,-16.8117,1376.6755],[-66.8003,-16.818,1365.3853],[-66.8067,-16.821,1356.9575],[-66.8149,-16.8293,1366.1707],[-66.8212,-16.8313,1377.02],[-66.8222,-16.8338,1383.929],[-66.8261,-16.8347,1418.8695],[-66.828,-16.8374,1411.7338],[-66.8374,-16.8408,1447.8787],[-66.8393,-16.8389,1440.5278],[-66.841,-16.8403,1460.1631],[-66.8445,-16.8396,1451.6056],[-66.8488,-16.836,1510.624],[-66.8544,-16.8344,1470.9552],[-66.8577,-16.8358,1449.139],[-66.8664,-16.8331,1486.5844],[-66.8703,-16.8352,1506.4189],[-66.8819,-16.836,1465.2404],[-66.885,-16.8375,1475.7823],[-66.8875,-16.834,1513.676],[-66.8911,-16.8351,1499.7727],[-66.894,-16.8337,1474.4816],[-66.9015,-16.8339,1501.0282],[-66.9033,-16.8366,1557.4109],[-66.9064,-16.8368,1522.1428],[-66.9107,-16.8329,1565.186],[-66.9155,-16.8362,1515.2163],[-66.9221,-16.8352,1511.9033],[-66.9249,-16.8365,1526.9996],[-66.9355,-16.8524,1524.3724],[-66.9416,-16.8561,1538.2222],[-66.9466,-16.8685,1576.2272],[-66.9525,-16.8761,1560.8921],[-66.956,-16.8776,1560.8431],[-66.9652,-16.8873,1588.2845],[-66.972,-16.89,1585.853],[-66.9736,-16.8921,1604.7067],[-66.9762,-16.9064,1607.4846],[-66.9702,-16.921,1635.0186],[-66.9705,-16.9243,1638.948],[-66.9779,-16.9285,1663.5706],[-66.9917,-16.9333,1650.4907],[-66.9922,-16.9416,1669.2234],[-67.0021,-16.9469,1666.8015],[-67.0055,-16.9516,1668.2754],[-67.0052,-16.9578,1680.6915],[-67.001,-16.9616,1678.0801],[-67.0,-16.9684,1689.1527],[-67.0022,-16.9767,1690.6295],[-67.0008,-16.9926,1706.6069],[-66.9906,-17.0144,1744.2452],[-66.9907,-17.0196,1753.761],[-66.9867,-17.0256,1749.9666],[-66.984,-17.0344,1756.3801],[-66.9849,-17.0388,1797.7112],[-66.9801,-17.0477,1773.6843],[-66.9736,-17.0515,1787.8607],[-66.9695,-17.0572,1792.9148],[-66.9573,-17.0656,1816.8586],[-66.9565,-17.0718,1830.4111],[-66.9444,-17.0845,1848.8138],[-66.9403,-17.0943,1875.6857],[-66.9306,-17.1071,1887.4246],[-66.9256,-17.1109,1893.0906],[-66.9154,-17.1135,1907.9923],[-66.9047,-17.1229,1923.1346],[-66.8971,-17.1336,1949.2134],[-66.8904,-17.1398,1961.7554],[-66.8892,-17.1478,1970.502],[-66.8839,-17.1566,1994.7249],[-66.8831,-17.1613,2005.1953],[-66.8852,-17.1659,2012.5803],[-66.8863,-17.1781,2043.5439],[-66.8853,-17.1852,2072.2573],[-66.8898,-17.1898,2079.4314],[-66.8905,-17.1946,2113.8887],[-66.8888,-17.1962,2106.0576],[-66.8886,-17.2004,2124.6692],[-66.89,-17.2061,2119.8394],[-66.8876,-17.2156,2131.949],[-66.8822,-17.2203,2140.4236],[-66.8823,-17.2256,2153.2734],[-66.8775,-17.2332,2172.657],[-66.8772,-17.2368,2174.5339],[-66.8787,-17.2484,2247.165],[-66.8886,-17.2661,2234.9624],[-66.8866,-17.2709,2236.8787],[-66.8889,-17.2728,2242.4243],[-66.8888,-17.2835,2269.1257],[-66.8872,-17.2904,2292.9399],[-66.883,-17.2916,2295.1587],[-66.8732,-17.3021,2334.4407],[-66.8669,-17.3039,2357.5552],[-66.8574,-17.3107,2406.9338],[-66.8426,-17.3175,2550.5474],[-66.8472,-17.3365,2665.7185],[-66.8492,-17.3381,2708.6577],[-66.8559,-17.3378,2742.4565],[-66.8595,-17.3412,2715.4812],[-66.8578,-17.3478,2717.8203],[-66.8497,-17.3486,2697.675],[-66.8454,-17.354,2734.5613],[-66.8468,-17.3606,2740.6643],[-66.8457,-17.3645,2756.7507],[-66.8501,-17.3733,2866.4219],[-66.8509,-17.3802,2850.269],[-66.8454,-17.3867,3040.6094],[-66.8337,-17.3957,3212.519],[-66.8246,-17.3929,3328.7896],[-66.8182,-17.397,3418.0786],[-66.8081,-17.4157,3641.4927],[-66.7967,-17.4201,3770.0813],[-66.7946,-17.4306,3815.2996],[-66.7834,-17.4319,4178.8579],[-66.7755,-17.4411,4179.3896],[-66.7459,-17.4445,4056.4292],[-66.7331,-17.4485,4024.3909],[-66.7153,-17.4403,3992.3477],[-66.72,-17.4177,4120.6196],[-66.7198,-17.4124,4157.5703],[-66.7165,-17.4094,4232.1924],[-66.6813,-17.4057,4212.3564],[-66.6649,-17.4093,4200.7656],[-66.6587,-17.4147,4195.5176],[-66.6538,-17.4141,4227.6821],[-66.6492,-17.4156,4148.2959],[-66.6459,-17.4209,4198.7026],[-66.6391,-17.4244,4094.9321],[-66.6249,-17.4273,4077.3035],[-66.6164,-17.4265,4035.2642],[-66.6122,-17.4208,4025.6448],[-66.6121,-17.4114,4059.9746],[-66.6088,-17.407,4155.0508],[-66.6109,-17.4035,4138.0146],[-66.6063,-17.3986,4153.436],[-66.6052,-17.3952,4077.7246],[-66.5909,-17.3895,4160.0425],[-66.5891,-17.3862,4185.1147],[-66.5842,-17.3846,4131.7588],[-66.5767,-17.3766,4325.5332],[-66.5714,-17.3768,4442.6484],[-66.5655,-17.3674,4570.7871],[-66.5538,-17.3763,4496.8833],[-66.5517,-17.3821,4504.4097],[-66.5388,-17.3873,4458.4683],[-66.5351,-17.3872,4507.1494],[-66.5269,-17.3763,4351.4668],[-66.522,-17.3649,4329.5078],[-66.5009,-17.3603,4174.79],[-66.4926,-17.343,4142.5835],[-66.4893,-17.3321,4151.6851],[-66.4889,-17.3156,4249.2983],[-66.4844,-17.3041,4277.0464],[-66.484,-17.2935,4248.9614],[-66.4807,-17.2876,4170.3799],[-66.4656,-17.2909,4191.2754],[-66.4592,-17.2838,4136.8853],[-66.453,-17.2808,4348.4556],[-66.4538,-17.2654,4483.1826],[-66.4413,-17.2608,4581.4902],[-66.4175,-17.2633,4506.5649],[-66.3993,-17.2438,4451.5557],[-66.3979,-17.2225,4774.6162],[-66.4,-17.2133,5027.4185],[-66.4155,-17.2185,4822.9062],[-66.4265,-17.2142,4877.6079],[-66.4338,-17.2008,4616.2021],[-66.4379,-17.1962,4603.8047],[-66.4475,-17.192,4921.8838],[-66.4589,-17.1816,4712.5723],[-66.4603,-17.1637,4523.1592],[-66.4545,-17.1572,4383.4507],[-66.4532,-17.1509,4353.04],[-66.4561,-17.1404,4279.042],[-66.4467,-17.1307,4215.7153],[-66.4395,-17.1268,4048.7881],[-66.4409,-17.1243,4055.8247],[-66.4378,-17.1171,4037.8064],[-66.439,-17.1095,4007.2671],[-66.4365,-17.1001,3949.3804],[-66.4335,-17.0981,3941.4773],[-66.4323,-17.095,3916.6921]]]]}
,"properties": {"GID_2": "BOL.2.3_2","GID_0": "BOL","country": "Bolivia","GID_1": "BOL.2_1","province": "Cochabamba","NL_NAME_1": "NA","county": "Ayopaya","VARNAME_2": "NA","NL_NAME_2": "NA","TYPE_2": "Provincia","ENGTYPE_2": "Province","CC_2": "NA","HASC_2": "NA","name": "Ayopaya.county","area_km2": 9388.629,"hist_schema_id": "Elevation0-9000","hist_area_km2": {"350": 0.448,"375": 1.487,"400": 1.181,"425": 1.222,"450": 2.098,"475": 2.363,"500": 3.871,"525": 7.154,"550": 9.314,"575": 11.861,"600": 16.385,"625": 20.786,"650": 25.228,"675": 28.407,"700": 35.436,"725": 39.777,"750": 47.336,"775": 50.534,"800": 55.321,"825": 61.144,"850": 63.993,"875": 66.881,"900": 67.184,"925": 70.5,"950": 69.173,"975": 69.415,"1000": 72.303,"1025": 76.434,"1050": 77.715,"1075": 77.082,"1100": 79.522,"1125": 78.989,"1150": 81.284,"1175": 78.979,"1200": 77.976,"1225": 79.581,"1250": 82.426,"1275": 84.866,"1300": 85.819,"1325": 84.919,"1350": 83.817,"1375": 87.168,"1400": 88.082,"1425": 88.486,"1450": 90.515,"1475": 90.003,"1500": 89.444,"1525": 88.911,"1550": 91.675,"1575": 91.728,"1600": 91.176,"1625": 93.224,"1650": 94.278,"1675": 92.382,"1700": 93.435,"1725": 94.381,"1750": 90.21,"1775": 86.136,"1800": 84.524,"1825": 81.584,"1850": 74.851,"1875": 72.282,"1900": 71.907,"1925": 69.07,"1950": 65.531,"1975": 62.151,"2000": 61.414,"2025": 61.82,"2050": 61.204,"2075": 58.641,"2100": 59.899,"2125": 56.868,"2150": 56.356,"2175": 56.478,"2200": 55.114,"2225": 56.168,"2250": 53.018,"2275": 53.22,"2300": 51.714,"2325": 50.696,"2350": 49.638,"2375": 50.081,"2400": 48.393,"2425": 48.514,"2450": 45.283,"2475": 44.265,"2500": 43.675,"2525": 45.111,"2550": 42.451,"2575": 44.785,"2600": 43.522,"2625": 42.589,"2650": 43.011,"2675": 41.953,"2700": 42.195,"2725": 41.035,"2750": 43.631,"2775": 41.134,"2800": 42.874,"2825": 43.421,"2850": 43.581,"2875": 42.285,"2900": 45.241,"2925": 44.632,"2950": 43.9,"2975": 44.448,"3000": 45.663,"3025": 45.722,"3050": 46.126,"3075": 45.235,"3100": 45.15,"3125": 46.835,"3150": 45.556,"3175": 47.339,"3200": 45.799,"3225": 50.097,"3250": 49.65,"3275": 48.694,"3300": 49.122,"3325": 52.099,"3350": 51.491,"3375": 52.97,"3400": 49.746,"3425": 53.497,"3450": 52.564,"3475": 53.737,"3500": 54.268,"3525": 53.314,"3550": 56.596,"3575": 54.408,"3600": 56.885,"3625": 56.559,"3650": 55.057,"3675": 53.985,"3700": 55.241,"3725": 55.706,"3750": 55.949,"3775": 56.378,"3800": 57.268,"3825": 59.336,"3850": 57.268,"3875": 56.985,"3900": 58.87,"3925": 59.398,"3950": 59.356,"3975": 59.985,"4000": 59.214,"4025": 60.898,"4050": 60.187,"4075": 62.299,"4100": 61.162,"4125": 61.384,"4150": 58.809,"4175": 57.98,"4200": 50.986,"4225": 50.296,"4250": 48.005,"4275": 45.755,"4300": 45.593,"4325": 46.465,"4350": 44.155,"4375": 45.816,"4400": 43.302,"4425": 42.23,"4450": 41.885,"4475": 39.938,"4500": 35.031,"4525": 28.302,"4550": 22.198,"4575": 16.887,"4600": 14.353,"4625": 11.474,"4650": 8.677,"4675": 6.507,"4700": 4.075,"4725": 2.493,"4750": 1.703,"4775": 0.912,"4800": 0.547,"4825": 0.648,"4850": 0.284,"4875": 0.223,"4900": 0.162,"4950": 0.101,"5000": 0.081}}}