{"type":"Feature","properties":{"GID_3":"BOL.5.6.3_2","GID_0":"BOL","country":"Bolivia","GID_1":"BOL.5_1","province":"Oruro","NL_NAME_1":"NA","GID_2":"BOL.5.6_2","county":"Mejillones","NL_NAME_2":"NA","city":"TodosSantos","VARNAME_3":"NA","NL_NAME_3":"NA","TYPE_3":"District","ENGTYPE_3":"Distrito","CC_3":"NA","HASC_3":"NA","name":"Todos_Santos.city"},
"geometry":{"type": "MultiPolygon","coordinates": [[[[-68.687,-18.9742,4268.5454],[-68.6905,-18.9732,4251.5132],[-68.6934,-18.9694,4190.7754],[-68.6996,-18.9655,4102.3564],[-68.7031,-18.9653,4092.3657],[-68.7103,-18.9605,4035.02],[-68.7164,-18.9587,4129.1777],[-68.735,-18.9636,4163.8467],[-68.7439,-18.9597,4269.3721],[-68.7529,-18.9508,4563.7212],[-68.7629,-18.9483,4470.0547],[-68.7651,-18.9439,4554.0464],[-68.7722,-18.9407,4572.6299],[-68.7801,-18.9426,4585.9746],[-68.7896,-18.9459,4643.6914],[-68.79,-18.9585,4380.6191],[-68.7871,-18.9637,4258.0205],[-68.7982,-18.9682,4280.6406],[-68.7955,-18.9753,4260.7441],[-68.7897,-18.9782,4244.4771],[-68.7884,-18.981,4245.6865],[-68.7946,-19.008,4398.1484],[-68.7992,-19.0116,4472.4863],[-68.8038,-19.0089,4638.5151],[-68.8068,-19.0102,4677.1787],[-68.8136,-19.0073,4791.5615],[-68.7999,-18.9721,4290.2129],[-68.8008,-18.9687,4281.1909],[-68.816,-18.9633,4353.6729],[-68.8396,-18.9603,4427.7285],[-68.8412,-18.9857,4981.9492],[-68.8271,-19.0191,4715.6538],[-68.8221,-19.0357,4532.3818],[-68.8262,-19.0524,4181.3169],[-68.8246,-19.0542,4152.939],[-68.8165,-19.0549,4169.1221],[-68.806,-19.0836,4436.7891],[-68.7814,-19.1083,4682.6089],[-68.7509,-19.133,4476.1953],[-68.7105,-19.0923,4624.2964],[-68.7081,-19.0745,4995.5039],[-68.7019,-19.0706,5168.5088],[-68.7043,-19.0643,4982.4062],[-68.6997,-19.0311,4053.8486],[-68.6964,-19.026,4009.5793],[-68.6892,-19.0198,3933.623],[-68.6859,-19.0127,3891.4529],[-68.6824,-19.0092,3875.7769],[-68.6787,-19.0103,3872.9426],[-68.6758,-19.0089,3872.3774],[-68.6813,-18.999,3897.3135],[-68.6807,-18.9892,4049.7456],[-68.6837,-18.9837,4091.9702],[-68.6852,-18.9757,4253.3164],[-68.687,-18.9742,4268.5454]]]]}}