{"type":"Feature","properties":{"GID_2":"BOL.2.6_2","GID_0":"BOL","country":"Bolivia","GID_1":"BOL.2_1","province":"Cochabamba","NL_NAME_1":"NA","county":"Capinota","VARNAME_2":"NA","NL_NAME_2":"NA","TYPE_2":"Provincia","ENGTYPE_2":"Province","CC_2":"NA","HASC_2":"NA","name":"Capinota.county"},
"geometry":{"type": "MultiPolygon","coordinates": [[[[-66.2955,-17.8668,3130.0396],[-66.2911,-17.8641,3328.8303],[-66.2799,-17.8622,3763.2949],[-66.2771,-17.8788,3785.0239],[-66.2736,-17.8849,3913.9475],[-66.2696,-17.8982,3938.1655],[-66.2632,-17.9058,3955.0125],[-66.2545,-17.9238,4053.2302],[-66.2496,-17.9374,4092.573],[-66.2472,-17.9532,4071.6265],[-66.2366,-17.9487,3922.582],[-66.226,-17.9526,3760.2532],[-66.2233,-17.9493,3730.4111],[-66.222,-17.9423,3758.0244],[-66.2192,-17.9414,3699.646],[-66.2193,-17.9376,3725.0225],[-66.2161,-17.9352,3678.8352],[-66.2107,-17.9353,3649.2935],[-66.2099,-17.9319,3740.3989],[-66.2034,-17.9309,3722.1238],[-66.197,-17.9262,3748.5327],[-66.1903,-17.9305,3723.5098],[-66.1799,-17.9334,3597.6338],[-66.1722,-17.928,3393.4646],[-66.1654,-17.9256,3351.9204],[-66.166,-17.9152,3490.8889],[-66.1617,-17.9116,3586.6602],[-66.1639,-17.907,3563.2593],[-66.1594,-17.9034,3438.3337],[-66.1569,-17.9033,3435.7212],[-66.1586,-17.8993,3470.6936],[-66.1463,-17.8844,3247.3508],[-66.1339,-17.8781,3226.4104],[-66.1165,-17.8583,3051.2307],[-66.1157,-17.8535,3032.3467],[-66.1175,-17.8504,2977.6982],[-66.1156,-17.8424,2935.5249],[-66.1162,-17.8368,2927.5369],[-66.1145,-17.8362,2869.0818],[-66.1124,-17.8272,2763.7317],[-66.1099,-17.8271,2768.9951],[-66.1077,-17.8195,2638.7422],[-66.1042,-17.8155,2488.2441],[-66.1018,-17.8092,2312.9072],[-66.1005,-17.8071,2339.697],[-66.0966,-17.8066,2250.4175],[-66.0984,-17.8026,2257.498],[-66.1089,-17.8012,2275.3367],[-66.1101,-17.7982,2270.615],[-66.1172,-17.7985,2321.4795],[-66.1184,-17.7957,2320.7122],[-66.122,-17.7933,2288.353],[-66.1299,-17.7957,2290.5356],[-66.1396,-17.7948,2304.9517],[-66.1392,-17.7887,2309.9971],[-66.1344,-17.7874,2329.6218],[-66.1282,-17.7796,2439.6252],[-66.1279,-17.7635,2477.9714],[-66.1307,-17.7501,2631.5659],[-66.1295,-17.7464,2609.3696],[-66.1315,-17.743,2630.3572],[-66.1307,-17.7398,2742.9004],[-66.1334,-17.7391,2706.9775],[-66.1419,-17.7272,2836.3406],[-66.1422,-17.7206,2904.4226],[-66.1466,-17.7188,2907.2466],[-66.1514,-17.7142,2968.3843],[-66.1525,-17.7075,3024.9775],[-66.1477,-17.6998,3037.0991],[-66.1477,-17.6974,3058.2944],[-66.154,-17.6905,3110.5396],[-66.1594,-17.6879,3152.2695],[-66.1601,-17.6838,3119.3584],[-66.1571,-17.6805,3281.0588],[-66.1511,-17.6802,3337.6426],[-66.1564,-17.6764,3356.0862],[-66.1572,-17.6728,3369.9236],[-66.1538,-17.667,3319.782],[-66.1495,-17.6469,3178.0164],[-66.1301,-17.6146,3348.7212],[-66.1377,-17.5904,3389.1377],[-66.1333,-17.5841,3294.3367],[-66.1333,-17.5802,3132.7747],[-66.1309,-17.5775,3079.8882],[-66.1305,-17.5728,2916.5249],[-66.1276,-17.5678,2812.6567],[-66.1313,-17.5615,2770.4722],[-66.1312,-17.5586,2750.6094],[-66.1269,-17.5554,2732.0195],[-66.1246,-17.5488,2712.4209],[-66.1248,-17.5254,2812.3252],[-66.1282,-17.5122,3108.5972],[-66.1335,-17.5148,2957.2996],[-66.1421,-17.5141,3016.6663],[-66.1485,-17.5197,3159.2891],[-66.1623,-17.5258,3077.356],[-66.2002,-17.5056,3291.4358],[-66.2112,-17.5027,3194.7656],[-66.2237,-17.5043,3089.5012],[-66.2423,-17.5037,3099.3677],[-66.2531,-17.4975,3192.7954],[-66.2566,-17.4896,3136.7239],[-66.2737,-17.4726,2958.4487],[-66.2906,-17.4745,2709.1377],[-66.2983,-17.477,2730.6443],[-66.3214,-17.4791,2673.321],[-66.3255,-17.4839,2707.645],[-66.3146,-17.5001,2830.5818],[-66.3111,-17.5096,2810.1526],[-66.3113,-17.5153,2773.5186],[-66.3066,-17.5228,2743.4766],[-66.3032,-17.5253,2670.0281],[-66.3086,-17.5596,2847.9893],[-66.2899,-17.5798,2725.0381],[-66.2817,-17.5915,2615.5386],[-66.2818,-17.5944,2585.8323],[-66.2925,-17.6053,2438.8208],[-66.3008,-17.61,2472.1995],[-66.3017,-17.6134,2472.928],[-66.3057,-17.6166,2480.6262],[-66.3145,-17.6198,2530.2732],[-66.3218,-17.6262,2580.9907],[-66.3223,-17.6325,2656.3154],[-66.321,-17.6353,2674.6191],[-66.3226,-17.6421,2702.835],[-66.3282,-17.6488,2849.6289],[-66.3337,-17.6485,2827.9143],[-66.3468,-17.6532,3081.2754],[-66.3482,-17.6582,3249.5681],[-66.3395,-17.6725,3344.1079],[-66.3464,-17.6838,3318.0376],[-66.341,-17.6887,3316.2729],[-66.339,-17.6887,3316.4968],[-66.3335,-17.6982,2996.699],[-66.3377,-17.71,3026.75],[-66.337,-17.7181,2772.3076],[-66.3336,-17.7234,2615.1016],[-66.3346,-17.7283,2607.0176],[-66.3336,-17.7343,2493.5869],[-66.3496,-17.7422,2516.5068],[-66.3556,-17.7418,2543.5669],[-66.3641,-17.7317,2623.3354],[-66.3657,-17.7239,2659.0842],[-66.3693,-17.7163,2737.2766],[-66.3724,-17.7139,2738.8325],[-66.3729,-17.7104,2756.9414],[-66.3809,-17.7071,2857.6782],[-66.3828,-17.7019,2893.4729],[-66.3907,-17.6986,2986.6201],[-66.4018,-17.7044,3210.3582],[-66.4048,-17.7044,3360.7485],[-66.4068,-17.7068,3486.041],[-66.4058,-17.7112,3540.1831],[-66.4039,-17.7119,3569.5034],[-66.3999,-17.718,3517.1726],[-66.3947,-17.72,3578.8572],[-66.3919,-17.735,3214.7629],[-66.3871,-17.7398,3109.3142],[-66.3856,-17.7468,2837.2368],[-66.3825,-17.7509,2699.5461],[-66.3841,-17.7523,2705.1416],[-66.383,-17.7662,3064.1519],[-66.3852,-17.7698,3247.8032],[-66.3935,-17.7766,3498.897],[-66.3937,-17.7792,3556.7839],[-66.3897,-17.7841,3554.709],[-66.3861,-17.7932,3329.8545],[-66.3672,-17.8026,2827.9456],[-66.3651,-17.8061,2705.0552],[-66.3612,-17.8085,2651.9629],[-66.3603,-17.8118,2640.5552],[-66.3668,-17.8185,2662.1665],[-66.3633,-17.8298,2841.8484],[-66.3616,-17.8312,2775.1084],[-66.3571,-17.831,2835.8345],[-66.3528,-17.8372,2994.0007],[-66.3474,-17.841,3040.3213],[-66.3445,-17.8579,3282.7598],[-66.3377,-17.87,3265.9314],[-66.3308,-17.8716,3447.7939],[-66.3093,-17.8674,2931.9414],[-66.2955,-17.8668,3130.0396]]]]}}