{"type": "Feature","bbox": [-69.2556,-12.4984,-66.0103,-10.8018],"geometry": {"type": "MultiPolygon","coordinates": [[[[-67.9974,-11.8541,152.5],[-67.9948,-11.8479,152.5],[-67.9765,-11.8497,152.5],[-67.9638,-11.8459,152.0],[-67.9609,-11.8422,152.0],[-67.9607,-11.838,152.0],[-67.9634,-11.8333,152.0],[-67.9682,-11.8299,152.0],[-67.9746,-11.8179,152.0],[-67.9749,-11.8102,156.5185],[-67.9695,-11.7938,151.5],[-67.9588,-11.777,151.5],[-67.9479,-11.7642,151.5],[-67.92,-11.7523,151.0],[-67.9165,-11.7481,151.0],[-67.9144,-11.7426,151.0],[-67.9146,-11.7384,151.0],[-67.918,-11.717,151.0],[-67.9157,-11.7134,150.5],[-67.8952,-11.6951,150.5],[-67.8819,-11.6889,150.5],[-67.8754,-11.6876,150.5],[-67.8239,-11.6845,152.5415],[-67.8093,-11.6901,149.5],[-67.7959,-11.6978,149.5],[-67.7884,-11.6985,164.6704],[-67.7468,-11.6816,149.0],[-67.7361,-11.6732,149.0],[-67.7318,-11.6666,148.5],[-67.7167,-11.6294,148.5],[-67.7073,-11.6115,148.0],[-67.7008,-11.6063,148.0],[-67.6799,-11.5991,148.0],[-67.6716,-11.5912,148.0],[-67.6704,-11.5863,148.0],[-67.6717,-11.5829,148.0],[-67.6801,-11.574,148.0],[-67.6826,-11.5656,148.0],[-67.6744,-11.5469,148.0],[-67.6681,-11.5126,168.8957],[-67.6584,-11.5005,158.917],[-67.6274,-11.48,144.5],[-67.6088,-11.4727,144.0],[-67.5863,-11.471,143.5],[-67.5667,-11.4719,163.5621],[-67.553,-11.4669,166.9379],[-67.5392,-11.4663,142.5],[-67.5157,-11.4741,142.0],[-67.4979,-11.4957,141.0],[-67.4918,-11.4972,141.0],[-67.4689,-11.4963,140.5],[-67.4556,-11.5005,140.25],[-67.4516,-11.5053,156.4732],[-67.4417,-11.5115,140.0],[-67.4247,-11.5161,140.0],[-67.4107,-11.5154,141.7677],[-67.4074,-11.517,140.0],[-67.4048,-11.5323,143.1595],[-67.4019,-11.5356,140.0],[-67.3971,-11.5374,140.0],[-67.3527,-11.5402,139.5],[-67.3393,-11.5367,139.5],[-67.3238,-11.5176,139.5],[-67.3175,-11.5017,139.5],[-67.3069,-11.4907,139.0],[-67.2988,-11.4853,139.0],[-67.2824,-11.4793,139.0],[-67.2438,-11.4728,138.5],[-67.2321,-11.4647,138.5],[-67.2272,-11.4595,138.5],[-67.22,-11.4431,138.5],[-67.218,-11.4354,138.5],[-67.2171,-11.4141,138.5],[-67.2106,-11.4011,139.9124],[-67.1881,-11.3686,138.125],[-67.174,-11.3599,137.875],[-67.1612,-11.3487,137.25],[-67.1548,-11.3463,137.0],[-67.1399,-11.3466,136.5],[-67.1132,-11.3436,136.0],[-67.0927,-11.3451,135.0],[-67.0733,-11.3424,134.5],[-67.0633,-11.3427,134.5],[-67.03,-11.3338,133.5],[-66.9812,-11.3377,132.5],[-66.9592,-11.3192,132.0],[-66.9473,-11.3008,132.0],[-66.9439,-11.2798,132.0],[-66.951,-11.2583,132.0],[-66.9486,-11.2487,132.0],[-66.9438,-11.2436,131.5],[-66.93,-11.2384,131.5],[-66.9224,-11.238,131.5],[-66.9084,-11.2425,131.5],[-66.9018,-11.2469,131.5],[-66.8932,-11.2566,131.5],[-66.8787,-11.2853,131.0],[-66.8687,-11.2994,131.0],[-66.8574,-11.3029,131.0],[-66.846,-11.2988,131.0],[-66.8339,-11.285,131.0],[-66.8206,-11.2782,131.0],[-66.8059,-11.267,130.5],[-66.7981,-11.253,130.5],[-66.795,-11.2438,130.5],[-66.7941,-11.2092,130.5],[-66.7994,-11.1972,130.5],[-66.8045,-11.1932,130.0],[-66.8109,-11.1839,130.0],[-66.8131,-11.1761,130.0],[-66.8118,-11.1702,130.0],[-66.8087,-11.1669,130.0],[-66.8039,-11.1653,130.0],[-66.7913,-11.1675,130.0],[-66.7712,-11.1806,130.0],[-66.751,-11.1911,129.5],[-66.7424,-11.1987,129.5],[-66.7369,-11.2063,129.5],[-66.7331,-11.2218,129.0],[-66.7294,-11.2258,129.0],[-66.7248,-11.2259,129.0],[-66.7211,-11.2238,133.1206],[-66.6978,-11.1951,131.923],[-66.6844,-11.186,130.4492],[-66.67,-11.1848,129.5707],[-66.6525,-11.1913,129.4699],[-66.6408,-11.1876,128.0],[-66.6373,-11.1834,128.0],[-66.6374,-11.1727,129.3046],[-66.6468,-11.162,128.0],[-66.6523,-11.1496,128.0],[-66.6527,-11.1429,136.5087],[-66.6509,-11.1341,134.6359],[-66.6447,-11.1291,141.0904],[-66.6366,-11.1275,140.2677],[-66.6207,-11.1335,126.5],[-66.6113,-11.1399,126.5],[-66.6054,-11.146,126.0],[-66.6009,-11.1536,126.0],[-66.5911,-11.1616,125.5],[-66.5799,-11.1636,125.5],[-66.549,-11.1442,124.5],[-66.5417,-11.1376,132.6953],[-66.5336,-11.1256,137.8213],[-66.5222,-11.114,123.0],[-66.5159,-11.1002,123.0],[-66.4994,-11.0858,122.5],[-66.4862,-11.0865,130.3136],[-66.4699,-11.0936,122.0],[-66.4608,-11.1061,147.3424],[-66.4574,-11.1193,125.9796],[-66.4548,-11.1227,123.2758],[-66.4444,-11.123,125.8949],[-66.4389,-11.12,125.6585],[-66.4342,-11.1133,121.0],[-66.4312,-11.1048,127.7034],[-66.4316,-11.0956,129.7834],[-66.4329,-11.0892,124.6956],[-66.4449,-11.0754,121.0],[-66.4492,-11.0627,121.0],[-66.4486,-11.0576,121.0],[-66.4458,-11.0533,122.1899],[-66.4335,-11.0477,124.1247],[-66.4276,-11.0482,129.0208],[-66.4221,-11.0517,121.0],[-66.4113,-11.0628,121.0],[-66.4093,-11.0705,126.4252],[-66.4104,-11.0858,132.1376],[-66.4202,-11.1016,125.3645],[-66.4216,-11.1071,126.7262],[-66.4201,-11.1124,121.0],[-66.415,-11.1112,121.0],[-66.3946,-11.0899,121.0],[-66.3768,-11.0807,120.5],[-66.3599,-11.076,120.5],[-66.3457,-11.0678,120.5],[-66.3419,-11.0591,140.4421],[-66.3442,-11.0438,132.5928],[-66.3431,-11.0285,120.5],[-66.3396,-11.0163,138.6209],[-66.3351,-11.0077,120.2855],[-66.3165,-10.9994,120.0],[-66.305,-10.9888,120.0],[-66.3021,-10.9817,125.1354],[-66.3022,-10.9734,131.1532],[-66.3048,-10.9662,120.0],[-66.3134,-10.9573,120.0],[-66.3332,-10.9521,122.5374],[-66.3355,-10.9485,122.5803],[-66.3346,-10.9433,120.0],[-66.3263,-10.941,119.5],[-66.3199,-10.9411,119.5],[-66.3047,-10.9499,119.0],[-66.2878,-10.9565,119.0],[-66.2824,-10.9618,118.6777],[-66.2783,-10.9677,118.5],[-66.2755,-10.9757,118.5],[-66.274,-10.9854,118.5],[-66.2772,-11.0195,117.5],[-66.276,-11.0248,117.0],[-66.2721,-11.0269,117.0],[-66.2663,-11.0272,117.0],[-66.253,-11.0237,117.0],[-66.2161,-11.0082,117.0],[-66.2098,-11.0028,117.0],[-66.1936,-10.9857,117.0],[-66.1831,-10.9703,117.0],[-66.1798,-10.9498,116.5],[-66.1678,-10.9273,116.5],[-66.1546,-10.9132,116.5],[-66.1483,-10.9118,145.0395],[-66.1324,-10.9105,131.9821],[-66.122,-10.9123,116.5],[-66.1078,-10.9206,116.5],[-66.1036,-10.9266,116.5],[-66.0968,-10.9507,116.0],[-66.0949,-10.9847,121.6457],[-66.0923,-10.9901,122.015],[-66.0814,-10.9925,117.5387],[-66.0609,-10.9898,113.5],[-66.0558,-10.982,112.5],[-66.047,-10.9418,108.5],[-66.0491,-10.914,108.0],[-66.0473,-10.903,108.0],[-66.0437,-10.8956,114.5262],[-66.0382,-10.889,137.0689],[-66.0207,-10.8791,113.4394],[-66.0154,-10.8719,108.0],[-66.0131,-10.8637,108.0],[-66.0154,-10.8582,108.0],[-66.0215,-10.8549,108.0],[-66.0285,-10.8545,108.0],[-66.0486,-10.8655,108.0],[-66.056,-10.8671,108.0],[-66.0629,-10.8661,108.0],[-66.071,-10.8631,108.0],[-66.0761,-10.8567,108.0],[-66.0763,-10.8517,108.0],[-66.0718,-10.8475,108.0],[-66.0442,-10.8314,108.0],[-66.0103,-10.8131,115.697],[-66.0161,-10.8127,109.5848],[-66.0268,-10.8166,113.4746],[-66.0287,-10.8162,110.6695],[-66.0337,-10.81,113.3508],[-66.0367,-10.8099,116.4343],[-66.038,-10.818,125.0222],[-66.0412,-10.8204,115.0114],[-66.0461,-10.8219,120.7048],[-66.0488,-10.8159,113.0633],[-66.0563,-10.815,116.7738],[-66.0599,-10.8211,113.7021],[-66.0649,-10.823,126.2248],[-66.0678,-10.8188,111.0],[-66.0654,-10.8133,119.3403],[-66.0658,-10.8101,117.6792],[-66.0685,-10.8087,113.746],[-66.0743,-10.8091,114.1196],[-66.0777,-10.8133,114.9978],[-66.0754,-10.8174,125.1547],[-66.071,-10.8203,128.5472],[-66.0705,-10.8251,127.7912],[-66.0751,-10.8265,126.2696],[-66.0823,-10.8238,116.0244],[-66.0868,-10.826,120.2833],[-66.0894,-10.8245,133.4699],[-66.09,-10.8191,135.3427],[-66.082,-10.8083,119.78],[-66.0833,-10.8024,117.2766],[-66.0864,-10.8036,117.4381],[-66.0858,-10.808,116.9626],[-66.088,-10.8138,116.1122],[-66.0917,-10.8152,125.1401],[-66.0944,-10.8108,115.0],[-66.0933,-10.8028,120.0719],[-66.0966,-10.8023,119.5635],[-66.0982,-10.8046,128.3653],[-66.0981,-10.8143,130.5721],[-66.1004,-10.8158,117.5534],[-66.1017,-10.8105,123.4323],[-66.1067,-10.8054,127.2617],[-66.1189,-10.8018,122.6969],[-66.1239,-10.8047,121.5821],[-66.1181,-10.8106,124.9895],[-66.1176,-10.8151,128.1013],[-66.1243,-10.8132,118.7705],[-66.1268,-10.8063,130.1313],[-66.1346,-10.811,119.3204],[-66.1406,-10.8087,122.6451],[-66.1473,-10.8147,124.7165],[-66.1493,-10.8141,120.6002],[-66.1505,-10.8108,126.9398],[-66.145,-10.8085,131.0961],[-66.1447,-10.8064,124.6824],[-66.154,-10.802,121.608],[-66.1586,-10.8048,126.9288],[-66.1567,-10.8108,122.8256],[-66.161,-10.817,119.7253],[-66.1632,-10.818,127.5257],[-66.1695,-10.8146,129.4849],[-66.174,-10.8203,120.8145],[-66.1809,-10.8242,123.381],[-66.1828,-10.824,119.2765],[-66.1907,-10.8163,127.2245],[-66.1936,-10.8161,118.0],[-66.1937,-10.8239,122.7681],[-66.1992,-10.8277,122.9409],[-66.2031,-10.826599999999999,137.0309],[-66.2064,-10.8211,121.7787],[-66.209,-10.8223,123.4883],[-66.2062,-10.8285,119.7983],[-66.208,-10.8305,121.8449],[-66.2133,-10.8305,126.3438],[-66.2212,-10.8265,128.4207],[-66.2227,-10.8282,120.8506],[-66.2223,-10.8305,122.0443],[-66.2182,-10.8322,120.6317],[-66.2174,-10.8345,121.3084],[-66.2235,-10.8382,125.9193],[-66.2275,-10.8356,119.281],[-66.2249,-10.8298,123.0794],[-66.2265,-10.827,120.1599],[-66.2306,-10.8284,121.0395],[-66.2381,-10.8367,126.2493],[-66.2426,-10.8329,125.0801],[-66.2488,-10.8333,118.0],[-66.2488,-10.8354,126.4583],[-66.2433,-10.837,119.31],[-66.2426,-10.8388,119.477],[-66.2472,-10.8426,120.1474],[-66.2562,-10.8395,132.2008],[-66.2579,-10.8373,123.2916],[-66.256,-10.8341,127.0276],[-66.2512,-10.8332,128.8709],[-66.2512,-10.8302,120.4366],[-66.2597,-10.8289,123.6437],[-66.2614,-10.8304,126.1022],[-66.2598,-10.8381,130.0214],[-66.2613,-10.8388,127.8698],[-66.2627,-10.8363,127.4354],[-66.2649,-10.8363,124.3871],[-66.2728,-10.851,120.2124],[-66.276,-10.851,120.5549],[-66.274,-10.8437,130.6008],[-66.2754,-10.8414,128.0692],[-66.2787,-10.8422,129.1011],[-66.2858,-10.8478,122.7388],[-66.2895,-10.8531,126.3876],[-66.294,-10.8532,125.2261],[-66.2936,-10.8495,130.2909],[-66.2869,-10.8443,127.4332],[-66.2899,-10.8379,127.6775],[-66.2926,-10.8372,125.3151],[-66.2941,-10.8386,124.7896],[-66.291,-10.8418,133.9953],[-66.2915,-10.8455,122.6016],[-66.2996,-10.8473,129.1127],[-66.3019,-10.84,123.6993],[-66.3067,-10.8436,125.9758],[-66.3067,-10.8462,124.2026],[-66.3038,-10.8494,122.9119],[-66.3124,-10.8555,129.643],[-66.3116,-10.85,120.0],[-66.3181,-10.8514,126.3969],[-66.3216,-10.8485,124.1665],[-66.3221,-10.8403,130.2979],[-66.3241,-10.8378,135.1893],[-66.3273,-10.8375,123.7037],[-66.3267,-10.8448,122.289],[-66.3313,-10.8462,127.1127],[-66.3327,-10.8446,127.2369],[-66.3305,-10.8388,124.9557],[-66.3427,-10.8427,123.966],[-66.3488,-10.8329,131.9084],[-66.3523,-10.8309,125.6125],[-66.3543,-10.8322,122.6914],[-66.3534,-10.8382,125.4749],[-66.3549,-10.8409,123.3869],[-66.3582,-10.8427,124.3092],[-66.3616,-10.8413,140.0484],[-66.3605,-10.835,130.5878],[-66.3547,-10.8289,124.2016],[-66.3559,-10.8267,122.9435],[-66.3586,-10.8307,121.7687],[-66.3619,-10.8278,124.6044],[-66.3636,-10.8281,132.1109],[-66.3637,-10.8337,125.5117],[-66.3743,-10.8453,129.6504],[-66.3759,-10.8448,127.7485],[-66.3789,-10.8388,125.9985],[-66.3906,-10.8401,128.9092],[-66.3926,-10.8368,122.5],[-66.3879,-10.8335,138.8751],[-66.3875,-10.8316,137.8271],[-66.3931,-10.8322,124.5946],[-66.3964,-10.8219,138.813],[-66.3984,-10.821,132.0087],[-66.405,-10.8233,132.8987],[-66.4101,-10.8158,130.5098],[-66.4159,-10.8163,138.4474],[-66.4221,-10.8227,125.5164],[-66.4278,-10.8226,126.0734],[-66.4285,-10.826599999999999,128.8745],[-66.424,-10.8312,128.722],[-66.43,-10.8351,131.1985],[-66.433,-10.8341,127.3347],[-66.4342,-10.8293,126.8241],[-66.4368,-10.8276,124.5],[-66.4396,-10.8344,126.1921],[-66.4418,-10.8351,132.7702],[-66.4447,-10.8271,126.2585],[-66.4471,-10.8246,129.0519],[-66.4529,-10.8254,130.3491],[-66.457,-10.8237,126.9851],[-66.459,-10.8261,130.1868],[-66.4533,-10.8306,134.3789],[-66.4573,-10.8322,140.4835],[-66.4588,-10.8366,129.7042],[-66.4615,-10.8382,135.6024],[-66.4637,-10.835,138.7212],[-66.4601,-10.8301,132.177],[-66.4605,-10.8281,138.4601],[-66.4691,-10.8308,133.8578],[-66.4697,-10.826,133.2122],[-66.4712,-10.8254,128.7676],[-66.4714,-10.8294,128.1351],[-66.478,-10.8306,129.1739],[-66.4841,-10.8398,139.4481],[-66.487,-10.8387,130.6215],[-66.4837,-10.8361,132.6371],[-66.4845,-10.8332,135.0254],[-66.4904,-10.8323,130.012],[-66.4973,-10.8358,130.3572],[-66.499,-10.8398,134.7747],[-66.4964,-10.8441,131.5495],[-66.4968,-10.8465,140.5273],[-66.5012,-10.8462,133.811],[-66.5049,-10.843,133.345],[-66.5072,-10.843,138.8717],[-66.5102,-10.8575,129.824],[-66.5144,-10.8566,132.417],[-66.5126,-10.8503,129.6747],[-66.5155,-10.847,131.4098],[-66.5206,-10.8482,133.0257],[-66.5211,-10.8526,129.6271],[-66.5266,-10.8505,132.7865],[-66.5261,-10.8561,128.0],[-66.5277,-10.8594,136.4999],[-66.5297,-10.8587,131.6895],[-66.5336,-10.8527,134.4298],[-66.536,-10.8525,131.4543],[-66.5335,-10.8626,134.9278],[-66.5381,-10.8605,129.6816],[-66.5412,-10.8611,130.928],[-66.544,-10.8712,141.627],[-66.5421,-10.8778,142.7303],[-66.5384,-10.8808,137.3507],[-66.5391,-10.8846,131.1258],[-66.5411,-10.8853,134.3061],[-66.5437,-10.8832,132.0522],[-66.5489,-10.8853,136.4883],[-66.5529,-10.875,131.9892],[-66.5548,-10.8735,129.642],[-66.5559,-10.88,134.1652],[-66.5631,-10.8839,135.2274],[-66.562,-10.8869,133.2117],[-66.5572,-10.8893,129.9166],[-66.556,-10.8972,129.4761],[-66.5603,-10.8926,132.3308],[-66.565,-10.8928,130.5617],[-66.5705,-10.896,130.4216],[-66.5727,-10.8926,131.8983],[-66.5828,-10.891,129.25],[-66.5848,-10.894,132.2888],[-66.5792,-10.8956,137.824],[-66.5778,-10.8975,130.5883],[-66.5785,-10.9,138.316],[-66.5812,-10.9001,136.7631],[-66.5861,-10.8965,132.9208],[-66.5901,-10.8956,139.958],[-66.5893,-10.892,141.4932],[-66.5929,-10.8881,130.0],[-66.5941,-10.8829,132.2203],[-66.598,-10.8838,134.5652],[-66.5996,-10.8868,136.0149],[-66.5949,-10.8961,136.678],[-66.5952,-10.8989,136.2365],[-66.5974,-10.9,136.4933],[-66.5982,-10.8968,140.5161],[-66.6008,-10.8962,133.3239],[-66.6096,-10.9007,132.8153],[-66.6101,-10.9032,132.6304],[-66.6062,-10.9077,144.4611],[-66.6093,-10.9128,134.0576],[-66.6128,-10.912,133.2599],[-66.6138,-10.9047,135.5436],[-66.6183,-10.9014,139.8108],[-66.6197,-10.9033,138.2207],[-66.6156,-10.9076,138.0611],[-66.6164,-10.9105,134.8266],[-66.6232,-10.9107,135.9181],[-66.6272,-10.9055,133.9344],[-66.6359,-10.9104,134.5131],[-66.6368,-10.9138,134.0403],[-66.6328,-10.9173,144.3164],[-66.6461,-10.9282,133.3695],[-66.6409,-10.934,143.2302],[-66.6477,-10.9372,133.6407],[-66.6456,-10.9419,132.5],[-66.6454,-10.9496,135.7941],[-66.6483,-10.9512,142.0802],[-66.6573,-10.9491,135.6524],[-66.6556,-10.955,138.1195],[-66.6633,-10.9544,134.4096],[-66.6637,-10.956,137.3512],[-66.659,-10.9614,144.4087],[-66.6611,-10.9654,140.2668],[-66.669,-10.965,137.5445],[-66.6719,-10.9615,136.7879],[-66.674,-10.9616,138.8922],[-66.6756,-10.9643,141.6733],[-66.6728,-10.9696,136.1452],[-66.6747,-10.9729,135.389],[-66.6817,-10.9764,151.1987],[-66.6866,-10.9755,140.8013],[-66.6903,-10.9807,144.2405],[-66.6923,-10.9792,148.067],[-66.6917,-10.9748,138.2132],[-66.6938,-10.9732,136.8378],[-66.6992,-10.9766,143.6706],[-66.7038,-10.9755,138.2924],[-66.7038,-10.9654,139.6616],[-66.7072,-10.9641,137.2953],[-66.7132,-10.9706,140.7208],[-66.7121,-10.977,142.1331],[-66.713,-10.9791,154.6299],[-66.7196,-10.9783,140.3341],[-66.7247,-10.9803,141.1648],[-66.7262,-10.9875,138.6233],[-66.7335,-10.9963,144.8909],[-66.7406,-10.9921,140.2806],[-66.7435,-10.9925,138.2163],[-66.7461,-11.0033,141.175],[-66.7538,-10.9986,140.93],[-66.7474,-10.9928,145.2085],[-66.7479,-10.987,148.8563],[-66.7498,-10.9876,138.2232],[-66.7503,-10.9935,138.3541],[-66.7578,-10.992,140.3461],[-66.759,-10.9884,136.75],[-66.7577,-10.9822,138.8242],[-66.7594,-10.981,138.3668],[-66.7623,-10.9843,148.7293],[-66.7606,-10.9902,138.7491],[-66.7636,-10.9932,142.71],[-66.765,-10.9915,149.7612],[-66.7649,-10.9856,149.7785],[-66.767,-10.9839,142.8634],[-66.7703,-10.9842,141.6048],[-66.772,-10.9869,145.2054],[-66.7718,-10.9922,147.8872],[-66.7748,-10.9949,143.9987],[-66.7769,-10.9935,143.0931],[-66.7797,-10.9832,140.1543],[-66.7821,-10.9815,143.299],[-66.786,-10.9815,148.7899],[-66.7877,-10.9838,138.8073],[-66.7847,-10.99,142.5777],[-66.7884,-10.991,145.851],[-66.7902,-10.9861,142.4746],[-66.7962,-10.986,139.4233],[-66.7938,-10.9806,145.4547],[-66.7947,-10.9785,141.5817],[-66.8008,-10.9817,137.5],[-66.8039,-10.9805,141.3001],[-66.8035,-10.9744,144.2731],[-66.8067,-10.9656,147.4178],[-66.8167,-10.9667,144.7411],[-66.8253,-10.9579,158.9885],[-66.8306,-10.9548,149.8137],[-66.8331,-10.9558,140.6423],[-66.8317,-10.9616,144.3535],[-66.8341,-10.9651,158.9582],[-66.8423,-10.9615,145.9406],[-66.8423,-10.9635,142.0417],[-66.8383,-10.9662,142.1295],[-66.8388,-10.9683,140.7503],[-66.8412,-10.9695,144.8438],[-66.8476,-10.9685,139.4892],[-66.8535,-10.9629,145.6846],[-66.8612,-10.9644,142.3068],[-66.8637,-10.9688,139.8019],[-66.8701,-10.9676,144.2307],[-66.8711,-10.9653,139.0141],[-66.8641,-10.9641,140.8094],[-66.8645,-10.9553,141.8254],[-66.8756,-10.9691,144.0586],[-66.8816,-10.968,146.1768],[-66.8944,-10.9701,143.3667],[-66.896,-10.9684,152.1005],[-66.8949,-10.9665,150.3179],[-66.8881,-10.9619,147.5844],[-66.8893,-10.9582,147.1643],[-66.8922,-10.9583,140.9256],[-66.8944,-10.9612,141.4461],[-66.899,-10.9596,144.431],[-66.9019,-10.9638,150.4411],[-66.9089,-10.9659,140.6442],[-66.9124,-10.9619,159.4688],[-66.9124,-10.9543,150.3217],[-66.9213,-10.9493,146.7242],[-66.9248,-10.9505,144.3651],[-66.9258,-10.953,152.3979],[-66.9178,-10.9532,148.06],[-66.9163,-10.955,142.6129],[-66.9172,-10.9565,145.0172],[-66.924,-10.9577,146.3918],[-66.9288,-10.956,154.6387],[-66.9306,-10.952,155.0899],[-66.9307,-10.9451,140.0],[-66.9346,-10.9496,154.3928],[-66.939,-10.9491,143.3284],[-66.9372,-10.9582,154.7934],[-66.9387,-10.9614,155.4821],[-66.943,-10.9606,142.0754],[-66.9442,-10.9556,144.1134],[-66.9467,-10.9537,146.2289],[-66.9499,-10.9563,147.6536],[-66.9506,-10.9636,145.5532],[-66.9523,-10.9659,140.0],[-66.9539,-10.9646,146.3392],[-66.9544,-10.9574,141.6899],[-66.9581,-10.9574,148.2386],[-66.9623,-10.962,148.3914],[-66.9687,-10.9543,141.4322],[-66.9707,-10.9555,146.6857],[-66.9706,-10.9631,142.1327],[-66.972,-10.9645,142.1327],[-66.9739,-10.9636,145.3839],[-66.9774,-10.9573,142.9256],[-66.9802,-10.9596,152.1112],[-66.9822,-10.9655,150.1551],[-66.9843,-10.965,142.2528],[-66.9854,-10.9594,140.5],[-66.9937,-10.9596,150.5157],[-66.9931,-10.9612,150.5157],[-66.9894,-10.9617,145.4029],[-66.9884,-10.9647,153.3601],[-66.9967,-10.9725,146.437],[-66.9982,-10.9725,146.9101],[-66.999,-10.9686,147.9421],[-67.0071,-10.9704,146.1207],[-67.0036,-10.9779,147.6563],[-67.0089,-10.9812,145.5525],[-67.0098,-10.9839,146.0723],[-67.002,-10.9875,143.0],[-67.01,-10.9911,145.6364],[-67.0125,-10.9992,145.7196],[-67.0184,-10.9933,150.3826],[-67.0227,-10.9992,147.4043],[-67.034,-11.0054,166.7714],[-67.0383,-11.0056,148.3611],[-67.0356,-11.0019,150.2946],[-67.0365,-10.9988,146.1163],[-67.0493,-11.0067,153.6835],[-67.0506,-11.0031,145.75],[-67.0474,-10.9998,147.9699],[-67.0596,-10.995,153.2845],[-67.0654,-11.0027,156.4727],[-67.0659,-11.0061,149.4029],[-67.0696,-11.0074,148.0],[-67.0709,-11.0034,159.6307],[-67.0658,-10.9969,149.0617],[-67.0647,-10.992,149.8847],[-67.0662,-10.9895,153.4272],[-67.07,-10.9901,153.6375],[-67.0752,-11.0047,155.9815],[-67.099,-11.0359,149.594],[-67.1021,-11.0349,158.8333],[-67.0995,-11.0259,152.5165],[-67.1031,-11.023,153.5215],[-67.1073,-11.0257,148.0],[-67.1047,-11.0302,150.5443],[-67.1054,-11.0311,150.5443],[-67.1138,-11.0313,156.969],[-67.1172,-11.0282,149.208],[-67.1166,-11.0257,154.4426],[-67.1133,-11.0236,152.9438],[-67.1141,-11.0199,149.7579],[-67.1192,-11.0238,148.8344],[-67.123,-11.0187,149.6621],[-67.1251,-11.0181,152.1812],[-67.1263,-11.0243,149.3304],[-67.1289,-11.0249,155.9535],[-67.1321,-11.0172,156.2505],[-67.1344,-11.0165,151.2798],[-67.1337,-11.0231,148.9221],[-67.1361,-11.0243,149.0932],[-67.1389,-11.0182,149.3499],[-67.144,-11.016,149.4303],[-67.1451,-11.0181,151.967],[-67.1401,-11.0234,152.249],[-67.1422,-11.0269,149.5733],[-67.1582,-11.0314,160.1307],[-67.1686,-11.0323,151.8283],[-67.1668,-11.0365,152.2909],[-67.1607,-11.0386,151.7041],[-67.1597,-11.0422,149.062],[-67.1808,-11.0376,149.0884],[-67.1819,-11.0394,154.558],[-67.1795,-11.0456,152.1904],[-67.1864,-11.0499,155.6996],[-67.1913,-11.0486,151.3864],[-67.196,-11.0517,155.4149],[-67.2008,-11.051,148.5],[-67.2008,-11.0533,155.3506],[-67.1974,-11.0557,154.8059],[-67.1969,-11.0583,151.8976],[-67.2007,-11.0619,150.6315],[-67.2068,-11.0578,149.0],[-67.2136,-11.0601,155.0882],[-67.2177,-11.0483,159.292],[-67.2248,-11.054,152.5819],[-67.227,-11.0507,152.7409],[-67.2259,-11.0459,152.9791],[-67.235,-11.0527,155.7987],[-67.2409,-11.0501,152.3719],[-67.2443,-11.0464,155.2194],[-67.2461,-11.0485,149.5],[-67.246,-11.0555,152.0372],[-67.2533,-11.059,156.0025],[-67.2555,-11.0642,152.7914],[-67.2574,-11.0648,154.0941],[-67.259,-11.0598,159.9955],[-67.2612,-11.0585,151.5551],[-67.2683,-11.066,154.9955],[-67.2659,-11.0754,155.7351],[-67.2627,-11.0795,152.0934],[-67.2628,-11.0834,155.0923],[-67.2722,-11.0746,154.8401],[-67.2728,-11.0866,160.1784],[-67.2748,-11.09,161.2001],[-67.2783,-11.0913,157.788],[-67.2847,-11.0877,156.119],[-67.2881,-11.0874,150.5],[-67.2878,-11.0829,153.035],[-67.2908,-11.0797,153.8929],[-67.292,-11.0738,156.6817],[-67.2955,-11.0705,151.0],[-67.2974,-11.0719,151.0],[-67.2971,-11.0749,159.8813],[-67.3035,-11.0741,154.6228],[-67.3066,-11.0798,163.9716],[-67.3126,-11.0832,151.5],[-67.3163,-11.0838,157.2619],[-67.318,-11.08,157.9088],[-67.3232,-11.078,162.0478],[-67.329,-11.0814,157.4492],[-67.332,-11.0815,155.7697],[-67.3319,-11.0796,159.461],[-67.3261,-11.076,163.3556],[-67.3334,-11.0707,161.5796],[-67.3327,-11.0692,155.6722],[-67.3276,-11.0707,156.5426],[-67.3249,-11.0691,158.8808],[-67.3292,-11.0647,152.0],[-67.3262,-11.0599,164.7469],[-67.3266,-11.0528,153.535],[-67.3253,-11.0503,160.399],[-67.3265,-11.0491,162.8441],[-67.3309,-11.0519,157.7958],[-67.3352,-11.0469,164.6993],[-67.3418,-11.0442,159.1522],[-67.3412,-11.0419,155.2194],[-67.336,-11.0402,152.375],[-67.336,-11.0367,155.9711],[-67.344,-11.0367,163.2677],[-67.3491,-11.032,154.9043],[-67.3509,-11.0252,160.2712],[-67.3605,-11.0219,157.1941],[-67.369,-11.0132,157.8686],[-67.3719,-11.0147,159.0363],[-67.3705,-11.02,161.3495],[-67.3723,-11.0226,156.0035],[-67.3777,-11.0142,167.9426],[-67.3915,-11.0072,158.2667],[-67.3933,-11.0081,161.514],[-67.3952,-11.0148,163.235],[-67.3979,-11.0162,156.4186],[-67.4007,-11.0085,163.7916],[-67.4084,-11.0018,157.7213],[-67.4123,-11.0032,163.7993],[-67.4163,-11.0019,162.9583],[-67.4194,-11.0029,157.5505],[-67.4207,-11.0046,157.7037],[-67.4194,-11.0092,155.0],[-67.4213,-11.01,166.6618],[-67.4299,-11.0053,156.2425],[-67.4301,-10.9982,156.547],[-67.4341,-10.9955,157.5536],[-67.4359,-10.9971,156.4779],[-67.4317,-11.0095,161.8221],[-67.4342,-11.0091,156.5223],[-67.436,-11.0038,158.0081],[-67.439,-11.0009,158.0669],[-67.4384,-11.0074,155.5],[-67.4472,-11.0081,172.2671],[-67.4496,-11.0167,165.3719],[-67.452,-11.0169,164.6256],[-67.4545,-11.014099999999999,158.7955],[-67.4571,-11.0151,158.0979],[-67.4527,-11.0211,156.0],[-67.4551,-11.0269,162.9613],[-67.4576,-11.0274,158.1945],[-67.4617,-11.0217,162.0302],[-67.4676,-11.0204,156.5],[-67.4715,-11.0215,160.1823],[-67.4645,-11.024,156.5],[-67.4636,-11.0326,161.3175],[-67.4648,-11.0342,156.5],[-67.4701,-11.0315,160.335],[-67.4731,-11.0346,167.9855],[-67.4776,-11.0333,158.9286],[-67.4795,-11.0379,157.0],[-67.4822,-11.0394,157.0],[-67.4891,-11.0398,160.1273],[-67.4896,-11.037,157.0],[-67.4843,-11.0321,172.2267],[-67.4895,-11.0318,161.4606],[-67.4906,-11.0278,169.0054],[-67.4954,-11.0288,166.5715],[-67.5006,-11.0271,162.6201],[-67.5115,-11.03,159.0612],[-67.5128,-11.0343,159.5011],[-67.5103,-11.039,161.9084],[-67.5122,-11.0438,165.6805],[-67.5144,-11.0382,164.1875],[-67.5189,-11.039,157.5],[-67.5248,-11.0372,163.0587],[-67.531,-11.0489,162.1084],[-67.5339,-11.05,170.3732],[-67.535,-11.0467,165.1242],[-67.5319,-11.0407,164.0798],[-67.5335,-11.0393,161.0287],[-67.5373,-11.0405,159.6655],[-67.5379,-11.0478,159.9721],[-67.5478,-11.0542,167.8402],[-67.5441,-11.0577,169.8859],[-67.5451,-11.0679,161.1504],[-67.5431,-11.075,165.0118],[-67.5485,-11.072,164.3391],[-67.5536,-11.0749,173.7819],[-67.553,-11.0771,158.0],[-67.5485,-11.0781,164.521],[-67.5474,-11.0801,165.4768],[-67.5495,-11.0826,158.0],[-67.5535,-11.0802,162.3351],[-67.5562,-11.0818,164.0067],[-67.5583,-11.0892,158.0],[-67.5535,-11.0932,160.579],[-67.5527,-11.0975,159.5477],[-67.5574,-11.0999,160.5511],[-67.563,-11.1093,166.9148],[-67.5628,-11.1157,166.3594],[-67.5725,-11.11,162.5421],[-67.5704,-11.1165,166.9833],[-67.5753,-11.1232,172.4576],[-67.578,-11.12,167.2524],[-67.5841,-11.1177,165.6887],[-67.5934,-11.1201,167.6993],[-67.5947,-11.114,162.703],[-67.5998,-11.1165,172.8617],[-67.604,-11.1162,168.3194],[-67.605,-11.1224,164.9334],[-67.6099,-11.1244,168.8707],[-67.6088,-11.127,171.1743],[-67.6044,-11.1282,172.4647],[-67.6023,-11.1314,166.58],[-67.6038,-11.1336,177.3284],[-67.6094,-11.1353,167.077],[-67.6109,-11.142,166.3782],[-67.6138,-11.1416,169.2915],[-67.6173,-11.1365,176.5],[-67.6198,-11.1362,167.5237],[-67.6175,-11.1421,169.0099],[-67.618,-11.1449,172.8813],[-67.6205,-11.1461,168.0671],[-67.6236,-11.1422,164.9504],[-67.6278,-11.1448,178.3012],[-67.6321,-11.1443,166.4211],[-67.6344,-11.1508,167.6917],[-67.6383,-11.1492,170.7667],[-67.6409,-11.144,173.6601],[-67.6436,-11.1439,168.237],[-67.6455,-11.147,167.6138],[-67.642,-11.1526,174.6609],[-67.6447,-11.157,173.5711],[-67.6472,-11.1576,171.5242],[-67.6496,-11.1557,172.3047],[-67.6552,-11.1551,176.3158],[-67.6581,-11.1577,166.3701],[-67.6601,-11.1541,169.23],[-67.666,-11.1537,168.5314],[-67.6668,-11.1461,164.5],[-67.6684,-11.1445,173.0176],[-67.6726,-11.1451,170.89],[-67.6738,-11.1503,173.4986],[-67.6762,-11.151,183.2569],[-67.6789,-11.1399,176.6917],[-67.6808,-11.1415,173.8426],[-67.6798,-11.1498,177.2738],[-67.6816,-11.1497,171.3471],[-67.6831,-11.1456,166.9877],[-67.6879,-11.1472,171.4993],[-67.6897,-11.1449,172.9829],[-67.6902,-11.1397,175.3183],[-67.6935,-11.1359,171.3143],[-67.6945,-11.1365,175.0093],[-67.6928,-11.1415,169.3442],[-67.694,-11.1441,174.1699],[-67.6961,-11.1448,173.784],[-67.7018,-11.1417,180.6537],[-67.7038,-11.1461,171.9436],[-67.7051,-11.1394,172.8378],[-67.7022,-11.136,184.9113],[-67.7093,-11.1341,173.3298],[-67.7113,-11.136,173.3873],[-67.706,-11.1366,172.4182],[-67.7055,-11.1381,172.8378],[-67.7111,-11.1417,175.807],[-67.7128,-11.1469,172.3971],[-67.7147,-11.1464,172.7896],[-67.7137,-11.142,175.7401],[-67.7148,-11.1393,169.0578],[-67.7173,-11.1398,168.3214],[-67.7177,-11.1453,179.1284],[-67.7238,-11.1413,179.5502],[-67.7253,-11.1385,169.4288],[-67.7277,-11.146,169.0395],[-67.7308,-11.1433,178.2672],[-67.737799999999993,-11.1466,184.424],[-67.7414,-11.146,177.8653],[-67.7397,-11.1515,178.1262],[-67.7402,-11.157,182.5329],[-67.7438,-11.1507,188.6511],[-67.7426,-11.146,173.4726],[-67.744,-11.1438,177.5006],[-67.754,-11.1486,182.3326],[-67.7567,-11.1479,173.6167],[-67.757,-11.1428,174.9806],[-67.753,-11.1396,181.3693],[-67.757,-11.133,193.1323],[-67.7598,-11.1356,178.8088],[-67.7577,-11.1384,174.8882],[-67.7581,-11.1404,180.4532],[-67.7624,-11.1433,181.1669],[-67.7637,-11.1417,179.1947],[-67.761,-11.1385,172.8026],[-67.7623,-11.1357,176.1142],[-67.7687,-11.1398,186.7587],[-67.7723,-11.1396,187.5979],[-67.7811,-11.1365,184.5194],[-67.7922,-11.1295,178.6568],[-67.7934,-11.1312,181.1162],[-67.7888,-11.1357,186.6797],[-67.7905,-11.1428,181.5644],[-67.7959,-11.14,184.6287],[-67.806,-11.1407,176.7512],[-67.8031,-11.1436,175.2499],[-67.804,-11.1461,179.9926],[-67.8206,-11.1446,178.2572],[-67.8204,-11.1607,180.4351],[-67.8228,-11.1521,175.958],[-67.8263,-11.1507,179.5412],[-67.8318,-11.1531,177.8253],[-67.8311,-11.1548,189.9639],[-67.8278,-11.1546,180.5566],[-67.8271,-11.1567,177.1536],[-67.8316,-11.1611,175.4551],[-67.8336,-11.1614,181.2641],[-67.8354,-11.1579,178.0658],[-67.8379,-11.1578,177.8623],[-67.842,-11.1638,192.6588],[-67.838,-11.1698,189.3436],[-67.8399,-11.1703,182.2269],[-67.8431,-11.1677,187.5166],[-67.848,-11.1749,184.3771],[-67.8509,-11.1764,190.6127],[-67.8512,-11.1823,174.8596],[-67.8534,-11.1827,181.0258],[-67.8549,-11.1779,175.9349],[-67.8572,-11.1788,179.831],[-67.857,-11.1879,184.9663],[-67.8594,-11.1882,181.4982],[-67.8608,-11.1845,185.0567],[-67.8621,-11.1843,175.8814],[-67.8674,-11.19,198.2131],[-67.8676,-11.1928,179.1537],[-67.8626,-11.1957,181.6495],[-67.8627,-11.1987,182.5459],[-67.8683,-11.201,176.6344],[-67.8725,-11.1982,188.2459],[-67.8753,-11.1991,189.2849],[-67.8753,-11.2044,181.2565],[-67.8698,-11.2022,184.1797],[-67.8668,-11.2041,181.9597],[-67.8654,-11.2086,179.7153],[-67.8688,-11.205,178.1506],[-67.8706,-11.2051,179.3397],[-67.8689,-11.2134,188.625],[-67.8743,-11.2106,177.6785],[-67.8748,-11.2127,179.2629],[-67.8723,-11.2156,180.4733],[-67.873,-11.2173,179.3995],[-67.8813,-11.2161,182.9447],[-67.8819,-11.2178,181.7453],[-67.8789,-11.2206,181.3873],[-67.8801,-11.2225,185.4339],[-67.8867,-11.2246,188.8041],[-67.8903,-11.2239,181.2379],[-67.8911,-11.2278,178.1026],[-67.8863,-11.2272,179.8061],[-67.8854,-11.2286,188.7534],[-67.8889,-11.233,188.7111],[-67.892,-11.2293,175.0],[-67.8943,-11.2296,181.2423],[-67.8931,-11.2369,183.1608],[-67.8948,-11.2395,178.8331],[-67.8988,-11.2395,182.4792],[-67.8961,-11.235,189.5641],[-67.9012,-11.2369,181.7557],[-67.9049,-11.2323,182.4554],[-67.9066,-11.2365,185.1362],[-67.9111,-11.239,181.7041],[-67.9118,-11.2461,187.8339],[-67.9164,-11.25,189.3436],[-67.9164,-11.2454,181.2348],[-67.9186,-11.243,185.6263],[-67.9202,-11.2437,191.672],[-67.9204,-11.2478,186.8355],[-67.9218,-11.2489,182.2706],[-67.9337,-11.2433,191.4181],[-67.9369,-11.2443,184.8339],[-67.9382,-11.2494,179.5735],[-67.9422,-11.2448,191.7408],[-67.945,-11.2457,191.0701],[-67.948,-11.2499,193.3552],[-67.9529,-11.2438,180.5543],[-67.9589,-11.258,188.5488],[-67.9603,-11.2586,197.4197],[-67.9659,-11.2551,188.7997],[-67.9698,-11.2632,192.9479],[-67.9719,-11.2623,190.7749],[-67.9709,-11.2581,184.0474],[-67.972,-11.2557,183.3936],[-67.9769,-11.2569,193.4097],[-67.9812,-11.256,183.9057],[-67.9833,-11.2602,182.5649],[-67.9822,-11.2627,185.2525],[-67.9776,-11.2625,184.3635],[-67.9788,-11.2676,182.9259],[-67.9865,-11.2662,188.3272],[-67.9869,-11.2639,184.2936],[-67.9847,-11.2602,182.5649],[-67.9905,-11.2588,184.42],[-67.9964,-11.2596,182.7023],[-67.9968,-11.2607,182.7023],[-67.9919,-11.2622,181.6238],[-67.9914,-11.2647,194.6995],[-67.9965,-11.2698,195.8796],[-67.9983,-11.2687,184.668],[-67.9948,-11.265,188.1807],[-67.9952,-11.2631,183.1052],[-68.0056,-11.2677,183.6877],[-68.0056,-11.2702,183.0737],[-68.0024,-11.2728,182.9534],[-68.0028,-11.276,186.6695],[-68.0076,-11.2712,181.1823],[-68.0096,-11.2754,185.005],[-68.0116,-11.276,184.0988],[-68.0131,-11.2704,184.2346],[-68.0146,-11.27,192.4703],[-68.0161,-11.2759,186.4296],[-68.0267,-11.2763,191.2939],[-68.0264,-11.2784,195.9857],[-68.0214,-11.2783,195.0026],[-68.0198,-11.2809,196.8743],[-68.0284,-11.2851,189.8947],[-68.0306,-11.2798,198.1631],[-68.0366,-11.2776,194.6469],[-68.0315,-11.2862,185.2413],[-68.0371,-11.2852,191.5195],[-68.0434,-11.2863,202.4357],[-68.044,-11.2888,201.5418],[-68.0414,-11.2955,184.4617],[-68.0436,-11.2975,182.8511],[-68.0469,-11.2929,186.6246],[-68.0509,-11.2972,189.95],[-68.0519,-11.293,182.9678],[-68.0561,-11.292,185.9108],[-68.0582,-11.2867,191.3145],[-68.0625,-11.2957,198.9052],[-68.0673,-11.2997,199.5457],[-68.0685,-11.2986,184.4577],[-68.0661,-11.2944,184.1189],[-68.0679,-11.2919,192.2466],[-68.0705,-11.2924,193.1253],[-68.074,-11.2962,192.364],[-68.0779,-11.2968,192.1886],[-68.0807,-11.2914,202.5601],[-68.0873,-11.2909,185.3827],[-68.0878,-11.2946,199.75],[-68.092,-11.2925,194.8852],[-68.0988,-11.292,199.0582],[-68.1031,-11.2868,188.6056],[-68.1076,-11.2843,191.2239],[-68.1097,-11.2871,186.5819],[-68.1067,-11.2905,197.2043],[-68.1106,-11.2936,193.22],[-68.1122,-11.291,205.9407],[-68.1101,-11.2786,193.4084],[-68.1112,-11.2779,189.5872],[-68.1152,-11.2818,198.1216],[-68.114,-11.288,192.4672],[-68.1177,-11.2904,191.1755],[-68.12,-11.2882,193.2377],[-68.1178,-11.2819,190.6866],[-68.1266,-11.2877,193.9673],[-68.1332,-11.2863,198.4379],[-68.131,-11.2816,189.9861],[-68.132,-11.2804,190.5806],[-68.1388,-11.2802,201.8331],[-68.1394,-11.2824,194.7199],[-68.1365,-11.2846,187.7177],[-68.1363,-11.2868,194.8579],[-68.1414,-11.2913,200.1197],[-68.1425,-11.2873,191.4918],[-68.1547,-11.2863,201.0292],[-68.1564,-11.2791,188.6647],[-68.159,-11.2781,201.7512],[-68.1612,-11.2791,192.4004],[-68.1599,-11.2829,201.7862],[-68.1611,-11.2847,197.1253],[-68.1665,-11.2821,191.6164],[-68.1714,-11.2821,189.8992],[-68.1684,-11.2872,206.9596],[-68.171,-11.2924,194.4342],[-68.1742,-11.2884,202.9968],[-68.179,-11.286,190.7993],[-68.181,-11.2872,193.575],[-68.1793,-11.29,192.0677],[-68.1807,-11.2928,194.7147],[-68.1849,-11.2924,191.1688],[-68.1887,-11.2884,198.0182],[-68.1934,-11.2933,196.4842],[-68.1954,-11.2888,203.0422],[-68.2018,-11.2854,196.1339],[-68.2028,-11.2871,194.3873],[-68.199,-11.2897,198.4354],[-68.1994,-11.2919,195.6357],[-68.2105,-11.2958,192.9695],[-68.2113,-11.2898,210.9958],[-68.2183,-11.2902,198.3058],[-68.2203,-11.2887,194.7459],[-68.2201,-11.2845,190.3714],[-68.2168,-11.2818,197.42],[-68.2206,-11.2763,189.3235],[-68.2273,-11.2756,197.5657],[-68.2308,-11.2788,193.9576],[-68.2364,-11.2761,197.2917],[-68.2398,-11.2763,191.75],[-68.241,-11.274,190.7912],[-68.2379,-11.2667,214.722],[-68.2408,-11.264,196.7862],[-68.2443,-11.2685,197.8739],[-68.2503,-11.271,195.7233],[-68.2486,-11.2644,200.6729],[-68.2491,-11.259,198.5517],[-68.2506,-11.2576,198.0102],[-68.2551,-11.2591,196.0055],[-68.2546,-11.2517,198.7755],[-68.2596,-11.2554,192.3895],[-68.2639,-11.2491,195.604],[-68.2683,-11.2504,203.5058],[-68.2766,-11.2495,195.7428],[-68.2865,-11.2551,197.9256],[-68.2875,-11.2493,195.0279],[-68.2856,-11.2482,211.9566],[-68.2809,-11.2499,193.2759],[-68.2788,-11.2466,201.1477],[-68.2852,-11.2446,208.8525],[-68.2888,-11.2454,193.8485],[-68.2905,-11.2417,193.0995],[-68.2954,-11.2411,205.5664],[-68.3024,-11.236,201.7372],[-68.3056,-11.2375,205.7077],[-68.306,-11.2415,211.2205],[-68.3103,-11.2409,201.9246],[-68.3161,-11.2482,203.3846],[-68.3182,-11.2486,204.8499],[-68.319,-11.2465,197.9713],[-68.3157,-11.2454,190.625],[-68.3153,-11.2429,204.8749],[-68.3246,-11.2424,202.6513],[-68.3284,-11.2405,203.6499],[-68.3259,-11.2362,222.1355],[-68.3286,-11.2321,195.57],[-68.3342,-11.2338,203.1356],[-68.3398,-11.2319,203.9107],[-68.3453,-11.2331,195.8734],[-68.3449,-11.2404,216.2424],[-68.3467,-11.2423,199.8692],[-68.3506,-11.234,197.4583],[-68.3542,-11.2393,201.7207],[-68.3574,-11.2399,198.8577],[-68.3588,-11.2391,199.0496],[-68.3579,-11.234,200.5789],[-68.3637,-11.2311,201.5577],[-68.3698,-11.2311,221.5735],[-68.3705,-11.2323,211.884],[-68.366,-11.235,208.4499],[-68.3644,-11.239,198.4082],[-68.3655,-11.2416,208.5031],[-68.3684,-11.242,205.6354],[-68.3729,-11.2399,208.1177],[-68.3788,-11.2326,204.4301],[-68.3816,-11.2332,223.3061],[-68.383,-11.2351,202.8624],[-68.379,-11.2393,203.6658],[-68.3785,-11.2421,209.614],[-68.3811,-11.2438,204.1217],[-68.3844,-11.2413,219.0898],[-68.3859,-11.2434,222.6265],[-68.3857,-11.2472,208.8243],[-68.3825,-11.2509,203.2769],[-68.3829,-11.2577,200.9653],[-68.3847,-11.257,202.4187],[-68.3858,-11.2531,197.4015],[-68.3889,-11.2554,205.844],[-68.3973,-11.2575,200.4426],[-68.3945,-11.2628,197.973],[-68.3999,-11.2668,202.2902],[-68.4017,-11.2654,197.4651],[-68.4005,-11.2614,211.9383],[-68.4052,-11.2575,204.4501],[-68.4086,-11.2584,205.3594],[-68.4072,-11.2629,203.0055],[-68.4087,-11.2701,203.257],[-68.4116,-11.2712,205.35],[-68.4149,-11.2689,202.4081],[-68.4217,-11.2753,203.6446],[-68.4236,-11.2692,205.1563],[-68.4305,-11.2685,213.0986],[-68.4349,-11.2717,207.398],[-68.4342,-11.2667,203.1137],[-68.4355,-11.2643,203.174],[-68.4431,-11.2657,204.0972],[-68.4439,-11.2563,224.4689],[-68.4463,-11.257,209.9147],[-68.4477,-11.262,222.1235],[-68.4507,-11.2649,208.4443],[-68.4534,-11.2627,211.2073],[-68.4518,-11.2572,207.2061],[-68.4538,-11.2538,203.2509],[-68.4559,-11.2545,212.0732],[-68.4539,-11.2574,200.0938],[-68.4547,-11.2598,209.1569],[-68.4617,-11.2619,205.4207],[-68.4649,-11.2611,209.8619],[-68.4648,-11.2586,212.5681],[-68.4591,-11.2576,205.9297],[-68.4581,-11.2561,223.4102],[-68.4593,-11.2513,213.631],[-68.4609,-11.2504,205.5233],[-68.4622,-11.2513,215.0197],[-68.4624,-11.2557,203.7487],[-68.4705,-11.2555,201.0953],[-68.4721,-11.2581,215.378],[-68.4716,-11.2628,200.9516],[-68.4729,-11.2637,199.6782],[-68.478,-11.2605,209.6445],[-68.4839,-11.2614,206.4782],[-68.4841,-11.2599,219.2342],[-68.4795,-11.2578,198.5],[-68.4845,-11.2469,209.1206],[-68.4863,-11.2483,210.1714],[-68.4851,-11.2537,221.7274],[-68.4873,-11.2581,202.6135],[-68.4907,-11.2586,205.407],[-68.4926,-11.2533,217.4053],[-68.4954,-11.251,204.3654],[-68.4968,-11.2537,206.8813],[-68.4958,-11.2586,204.8081],[-68.4986,-11.2602,206.2762],[-68.5016,-11.2526,213.9828],[-68.5088,-11.2479,224.0155],[-68.5257,-11.23,209.2971],[-68.5302,-11.2321,213.3999],[-68.5265,-11.232,204.0179],[-68.5257,-11.2337,216.5486],[-68.5296,-11.2362,206.6136],[-68.5299,-11.2407,211.3582],[-68.5328,-11.2427,208.1258],[-68.5352,-11.2411,209.5339],[-68.5361,-11.2346,227.9433],[-68.5385,-11.2318,225.8074],[-68.5438,-11.2298,219.191],[-68.5528,-11.2295,210.7101],[-68.5553,-11.2344,213.0818],[-68.5605,-11.2363,230.0828],[-68.5643,-11.2494,210.2704],[-68.5662,-11.2506,210.1964],[-68.5677,-11.25,216.6753],[-68.5687,-11.2449,205.6486],[-68.5722,-11.2455,219.1984],[-68.582,-11.2396,224.8873],[-68.5876,-11.2394,210.1302],[-68.5904,-11.2376,209.1602],[-68.5966,-11.2397,222.4789],[-68.6001,-11.236,210.571],[-68.6069,-11.2383,212.6676],[-68.6069,-11.2397,223.8904],[-68.6032,-11.2386,203.5],[-68.6029,-11.2403,209.2673],[-68.6056,-11.2444,205.791],[-68.6092,-11.2447,226.6913],[-68.6148,-11.2403,226.7143],[-68.6175,-11.2356,210.6218],[-68.6224,-11.2402,223.8563],[-68.63,-11.238,223.6381],[-68.633,-11.2386,227.1715],[-68.6334,-11.2434,215.2277],[-68.6363,-11.2462,211.8961],[-68.6419,-11.2431,213.5855],[-68.6495,-11.2461,213.9993],[-68.6591,-11.2418,217.7632],[-68.6604,-11.2442,213.6068],[-68.6588,-11.2492,212.5416],[-68.6636,-11.2519,212.7659],[-68.6658,-11.2507,217.6271],[-68.6639,-11.2456,214.0954],[-68.6648,-11.2441,211.0142],[-68.6687,-11.2425,217.2098],[-68.6713,-11.2453,216.165],[-68.6762,-11.2467,221.8044],[-68.6787,-11.2389,220.1238],[-68.6833,-11.238,215.792],[-68.6881,-11.2402,212.1165],[-68.6898,-11.245,218.1507],[-68.6955,-11.2472,214.7392],[-68.7067,-11.2585,220.3955],[-68.7096,-11.2577,213.0693],[-68.7096,-11.251,210.8292],[-68.7114,-11.251,224.3641],[-68.7167,-11.262,221.2887],[-68.724,-11.266,216.3082],[-68.7255,-11.2732,228.0223],[-68.7274,-11.2751,227.3671],[-68.7301,-11.2759,216.2895],[-68.7332,-11.271,216.5632],[-68.737,-11.2719,217.6926],[-68.7387,-11.2848,219.6285],[-68.7368,-11.2911,215.4225],[-68.7399,-11.2941,218.7475],[-68.7437,-11.2947,218.4353],[-68.741,-11.2987,216.1222],[-68.7418,-11.3061,218.6284],[-68.7462,-11.3118,221.6102],[-68.7409,-11.3175,212.5],[-68.7422,-11.3182,225.8761],[-68.7461,-11.3159,219.1813],[-68.7503,-11.3167,219.5658],[-68.7479,-11.3237,219.7602],[-68.7494,-11.3312,219.5888],[-68.7529,-11.33,217.6288],[-68.7509,-11.3248,218.6346],[-68.7531,-11.3221,220.7787],[-68.7636,-11.3276,220.334],[-68.761,-11.3309,217.5532],[-68.7607,-11.3368,217.0577],[-68.7668,-11.3434,224.0447],[-68.7681,-11.3418,218.2458],[-68.7666,-11.3302,216.4852],[-68.7748,-11.3343,220.703],[-68.7783,-11.327,217.7408],[-68.7822,-11.33,223.6407],[-68.7892,-11.3293,226.933],[-68.7896,-11.3314,220.3681],[-68.784,-11.3347,221.1232],[-68.784,-11.3366,216.2297],[-68.7886,-11.3392,218.3234],[-68.7934,-11.3364,226.8516],[-68.8028,-11.3409,219.7664],[-68.8018,-11.3442,218.0685],[-68.7989,-11.3414,234.4066],[-68.7963,-11.3415,219.607],[-68.7953,-11.3465,224.9548],[-68.7923,-11.3489,225.5515],[-68.7948,-11.3539,224.1471],[-68.7951,-11.3494,227.9668],[-68.8023,-11.3456,227.7599],[-68.8041,-11.3465,221.1601],[-68.7984,-11.3623,226.254],[-68.7988,-11.3647,231.8587],[-68.8016,-11.3647,229.9272],[-68.8008,-11.3605,223.359],[-68.803,-11.3578,218.6099],[-68.8056,-11.3591,234.6758],[-68.8076,-11.3684,235.6475],[-68.8124,-11.3668,224.215],[-68.8152,-11.361,229.6148],[-68.819,-11.3612,227.3991],[-68.8196,-11.3636,224.6467],[-68.8151,-11.3648,226.1014],[-68.8138,-11.3667,224.215],[-68.8143,-11.369,225.946],[-68.8168,-11.3702,228.5959],[-68.8188,-11.369,231.158],[-68.8218,-11.3622,219.1345],[-68.8236,-11.3625,226.9447],[-68.8225,-11.3676,218.2156],[-68.8237,-11.3683,232.4776],[-68.83,-11.3677,223.6349],[-68.833,-11.3632,231.2547],[-68.838,-11.3625,225.3937],[-68.8404,-11.3651,240.3268],[-68.8392,-11.3724,226.1361],[-68.8415,-11.3736,222.5495],[-68.8413,-11.369,221.0879],[-68.846,-11.3662,221.8739],[-68.8479,-11.3582,227.0732],[-68.8505,-11.3575,230.9561],[-68.8539,-11.3626,221.47559999999999],[-68.849,-11.3651,226.2694],[-68.8491,-11.3675,227.5415],[-68.8539,-11.3696,238.8853],[-68.8587,-11.3645,223.5934],[-68.861,-11.3644,227.8438],[-68.8619,-11.375,228.2086],[-68.8682,-11.3796,229.8247],[-68.8685,-11.3866,233.0724],[-68.8706,-11.386,228.0929],[-68.8714,-11.3805,223.7585],[-68.8761,-11.3754,230.1082],[-68.879,-11.3765,226.0992],[-68.8813,-11.3807,226.0387],[-68.8803,-11.3826,224.2643],[-68.8741,-11.3845,228.4028],[-68.8753,-11.3874,227.7868],[-68.8779,-11.3885,233.2303],[-68.882,-11.3879,226.0535],[-68.8848,-11.385,224.358],[-68.8846,-11.3762,224.6594],[-68.887,-11.3741,229.087],[-68.8895,-11.3752,233.2071],[-68.8892,-11.3803,229.3958],[-68.8938,-11.3837,231.4884],[-68.9009,-11.3807,228.5278],[-68.9061,-11.3715,237.1198],[-68.911,-11.3771,228.0821],[-68.9179,-11.3756,231.002],[-68.9257,-11.3779,229.3664],[-68.9274,-11.3808,229.9395],[-68.925,-11.3831,229.0984],[-68.9193,-11.3796,229.4722],[-68.9176,-11.3814,240.1016],[-68.9229,-11.3865,235.9814],[-68.9273,-11.3849,223.0],[-68.9289,-11.3896,244.9806],[-68.9328,-11.3932,232.246],[-68.9341,-11.401,230.6996],[-68.9405,-11.4021,230.8599],[-68.9402,-11.4042,236.6962],[-68.9372,-11.406,231.9733],[-68.9299,-11.4053,227.2596],[-68.93,-11.4095,229.2703],[-68.9371,-11.4102,235.8347],[-68.9403,-11.409,227.1721],[-68.9461,-11.414,225.823],[-68.9497,-11.4082,236.9964],[-68.9527,-11.4076,226.0807],[-68.9526,-11.415,241.5627],[-68.9477,-11.4182,242.6427],[-68.9541,-11.4266,226.5858],[-68.9571,-11.4269,227.8974],[-68.9581,-11.4227,239.0244],[-68.9598,-11.4218,239.0244],[-68.9693,-11.426,231.05],[-68.972,-11.4321,231.6705],[-68.9785,-11.4291,232.9815],[-68.9819,-11.4292,231.4383],[-68.982,-11.432,233.1498],[-68.9775,-11.432,238.3147],[-68.9762,-11.4338,229.5753],[-68.981,-11.4375,228.3826],[-68.9819,-11.4428,232.9024],[-68.9837,-11.4444,234.5018],[-68.9871,-11.4444,231.1316],[-68.9889,-11.4425,245.7115],[-68.9854,-11.4393,230.9951],[-68.9841,-11.4342,232.8116],[-68.997,-11.4402,234.7327],[-68.9984,-11.4391,233.018],[-68.9982,-11.4363,238.8212],[-68.9901,-11.4329,239.1881],[-68.9993,-11.4308,227.0],[-69.0017,-11.4314,243.2522],[-69.0023,-11.4366,238.7253],[-69.007,-11.4384,246.4928],[-69.0064,-11.4435,231.7261],[-69.0079,-11.4464,241.7889],[-69.011,-11.445,235.6402],[-69.0128,-11.4393,232.1754],[-69.0143,-11.4399,229.7084],[-69.0152,-11.4465,238.5177],[-69.0244,-11.4474,231.231],[-69.0266,-11.4394,233.0151],[-69.0289,-11.4374,232.9018],[-69.0305,-11.4382,236.0317],[-69.0319,-11.4448,246.9835],[-69.036,-11.4463,244.9586],[-69.0382,-11.4447,233.9087],[-69.0352,-11.4409,231.4314],[-69.036,-11.4381,232.6632],[-69.0441,-11.4359,235.5433],[-69.0461,-11.4379,234.3958],[-69.0461,-11.4436,245.8178],[-69.0528,-11.45,242.3445],[-69.0582,-11.439,233.6451],[-69.0649,-11.4408,239.6759],[-69.0713,-11.4376,246.4003],[-69.0716,-11.4349,242.9726],[-69.07,-11.4333,238.1724],[-69.0668,-11.4361,239.3642],[-69.0644,-11.435,237.7528],[-69.0654,-11.4276,239.5385],[-69.0708,-11.4274,233.6483],[-69.0771,-11.4248,250.9127],[-69.0864,-11.4275,238.2673],[-69.0841,-11.4296,258.5652],[-69.0744,-11.4298,241.2517],[-69.0745,-11.4371,241.8456],[-69.0789,-11.4315,243.5014],[-69.0897,-11.4365,248.3967],[-69.0913,-11.436,233.0],[-69.0906,-11.4315,245.9744],[-69.0918,-11.4305,238.7227],[-69.101,-11.432,242.8896],[-69.1078,-11.4313,255.3375],[-69.1115,-11.4354,241.1831],[-69.1063,-11.4372,251.5963],[-69.1047,-11.4416,245.8029],[-69.1117,-11.4389,243.8978],[-69.1168,-11.4446,243.0961],[-69.1159,-11.4483,250.8251],[-69.1112,-11.4495,237.9356],[-69.1113,-11.4524,236.4322],[-69.1182,-11.4513,252.1635],[-69.1238,-11.4539,237.9894],[-69.1249,-11.4511,250.141],[-69.1232,-11.4446,237.208],[-69.1248,-11.4431,257.6053],[-69.1309,-11.4471,243.5831],[-69.1358,-11.4453,239.5629],[-69.1423,-11.4524,240.9033],[-69.1425,-11.4581,235.0],[-69.1449,-11.4614,253.8856],[-69.1495,-11.4595,254.039],[-69.1502,-11.4528,243.5577],[-69.1552,-11.4523,238.8256],[-69.159,-11.4476,241.1626],[-69.1652,-11.447,249.0274],[-69.1719,-11.4523,241.2973],[-69.1777,-11.4463,254.4847],[-69.1799,-11.4459,242.2404],[-69.182,-11.4467,255.2135],[-69.1848,-11.4535,250.166],[-69.1885,-11.4566,255.1822],[-69.1913,-11.4559,242.0682],[-69.1916,-11.4542,244.6554],[-69.1866,-11.4501,248.0443],[-69.1883,-11.4468,244.5787],[-69.1917,-11.4475,246.9331],[-69.1964,-11.4517,247.8177],[-69.2034,-11.4492,246.3207],[-69.2068,-11.4538,247.4609],[-69.218,-11.4518,237.03],[-69.2183,-11.4534,252.9006],[-69.2152,-11.4563,252.4185],[-69.2162,-11.4582,246.9358],[-69.2214,-11.4602,248.5355],[-69.2292,-11.459,248.0869],[-69.2312,-11.4618,250.3423],[-69.2281,-11.4634,248.2962],[-69.2278,-11.466,241.7591],[-69.2373,-11.4685,257.8551],[-69.2404,-11.4674,248.5721],[-69.2375,-11.4626,257.9138],[-69.238,-11.4611,243.7367],[-69.2401,-11.4608,253.946],[-69.2433,-11.4651,248.0806],[-69.2463,-11.4596,258.9863],[-69.2556,-11.4575,256.8242],[-69.1485,-11.6364,257.2394],[-68.97,-11.9125,248.9105],[-68.6522,-12.4977,160.0],[-68.6375,-12.4984,160.0],[-68.6183,-12.4954,160.0],[-68.5626,-12.4591,160.0],[-68.5586,-12.4543,160.0],[-68.5581,-12.4478,160.0],[-68.5597,-12.4443,160.0],[-68.5826,-12.4182,160.0],[-68.5911,-12.4036,160.0],[-68.5882,-12.3969,160.0],[-68.5837,-12.3936,160.0],[-68.5724,-12.3899,160.0],[-68.5639,-12.3897,165.2153],[-68.5196,-12.3952,160.0],[-68.5082,-12.3993,160.0],[-68.5022,-12.4033,160.0],[-68.4922,-12.4168,160.0],[-68.4856,-12.4203,160.0],[-68.472,-12.4232,159.5],[-68.4609,-12.4203,159.5],[-68.4502,-12.4109,159.0],[-68.4385,-12.3975,159.0],[-68.4193,-12.382,158.5],[-68.4046,-12.3636,158.0],[-68.4017,-12.3498,187.4219],[-68.4002,-12.3323,157.5],[-68.4029,-12.3027,157.0],[-68.4144,-12.2812,157.0],[-68.415,-12.2746,157.0],[-68.4117,-12.264099999999999,157.0],[-68.4041,-12.2542,157.0],[-68.3782,-12.2312,157.0],[-68.3582,-12.2225,157.0],[-68.339,-12.22,157.0],[-68.3106,-12.2289,157.0],[-68.3015,-12.2281,157.0],[-68.2929,-12.2246,157.0],[-68.2829,-12.2172,157.0],[-68.2712,-12.2048,157.0],[-68.2498,-12.1923,157.0],[-68.2443,-12.1874,157.0],[-68.2342,-12.1693,157.0],[-68.2253,-12.1383,157.0],[-68.2253,-12.1271,157.0],[-68.2311,-12.1048,157.0],[-68.2306,-12.0983,157.0],[-68.2264,-12.0842,157.0],[-68.2311,-12.0563,156.5],[-68.2317,-12.041,156.5],[-68.2386,-12.0211,156.5],[-68.2366,-12.0128,156.5],[-68.2334,-12.0108,156.5],[-68.2086,-12.0098,156.5],[-68.1842,-12.0111,156.5],[-68.1564,-12.0221,156.5],[-68.1333,-12.0219,156.5],[-68.1281,-12.0244,156.5],[-68.1171,-12.0343,156.5],[-68.1107,-12.0367,156.5],[-68.1036,-12.0373,156.5],[-68.0983,-12.0348,156.5],[-68.0614,-11.9982,156.5],[-68.0464,-11.9885,156.5],[-68.0178,-11.9767,156.5],[-68.0126,-11.9726,156.5],[-67.9871,-11.9483,156.0],[-67.9776,-11.9359,155.5],[-67.9746,-11.9193,155.0],[-67.9776,-11.8995,154.5],[-67.9881,-11.8728,153.5],[-67.997,-11.8588,153.0],[-67.9974,-11.8541,152.5]]]]}
,"properties": {"GID_2": "BOL.6.4_2","GID_0": "BOL","country": "Bolivia","GID_1": "BOL.6_1","province": "Pando","NL_NAME_1": "NA","county": "Manuripi","VARNAME_2": "NA","NL_NAME_2": "NA","TYPE_2": "Provincia","ENGTYPE_2": "Province","CC_2": "NA","HASC_2": "NA","name": "Manuripi.county","area_km2": 19725.1,"hist_schema_id": "Elevation0-9000","hist_area_km2": {"100": 15.7,"125": 843.58,"150": 2064.77,"175": 3464.15,"200": 3124.8,"225": 3723.49,"250": 4063.31,"275": 1741.62,"300": 634.84,"325": 48.77}}}