{"type":"Feature","properties":{"GID_3":"BOL.6.1.2_2","GID_0":"BOL","country":"Bolivia","GID_1":"BOL.6_1","province":"Pando","NL_NAME_1":"NA","GID_2":"BOL.6.1_2","county":"Abuná","NL_NAME_2":"NA","city":"SantaRosa","VARNAME_3":"NA","NL_NAME_3":"NA","TYPE_3":"District","ENGTYPE_3":"Distrito","CC_3":"NA","HASC_3":"NA","name":"Santa_Rosa.city"},
"geometry":{"type": "MultiPolygon","coordinates": [[[[-67.0016,-10.2293,129.1249],[-67.0068,-10.2311,121.5212],[-67.0053,-10.2434,133.4407],[-67.0094,-10.2469,123.3017],[-67.0107,-10.2532,133.0376],[-67.0159,-10.2585,121.3663],[-67.0177,-10.2575,122.8389],[-67.018,-10.2545,138.0709],[-67.0234,-10.2543,128.8659],[-67.0247,-10.2584,129.3555],[-67.031,-10.2571,120.2996],[-67.035,-10.2647,133.7708],[-67.0416,-10.2621,127.551],[-67.0436,-10.2669,131.417],[-67.0462,-10.2653,122.6701],[-67.0523,-10.2696,137.4644],[-67.0525,-10.273,129.7932],[-67.0476,-10.2747,126.1177],[-67.048,-10.276,126.1177],[-67.0527,-10.2769,122.387],[-67.0539,-10.2797,126.4714],[-67.0583,-10.2796,131.0204],[-67.0718,-10.2863,129.9287],[-67.0761,-10.2853,121.9979],[-67.0794,-10.2904,128.3555],[-67.0821,-10.2887,123.5221],[-67.0848,-10.291,128.1971],[-67.0889,-10.2906,126.8307],[-67.0876,-10.2865,126.9809],[-67.0979,-10.2835,124.933],[-67.0988,-10.2875,124.9242],[-67.1044,-10.2867,131.6694],[-67.1055,-10.2892,136.2508],[-67.1095,-10.2898,131.4112],[-67.114,-10.293,134.0231],[-67.1207,-10.2935,131.7419],[-67.1255,-10.2914,130.3496],[-67.1371,-10.2983,124.8665],[-67.1375,-10.3029,126.2467],[-67.1405,-10.3076,134.8727],[-67.1375,-10.3106,129.4292],[-67.1326,-10.3105,125.5835],[-67.1268,-10.3166,126.8848],[-67.1298,-10.3176,126.1389],[-67.133,-10.3165,123.7788],[-67.1346,-10.3198,135.3127],[-67.1378,-10.3158,128.7938],[-67.1385,-10.32,130.9526],[-67.1429,-10.3263,126.7212],[-67.1444,-10.3265,126.0566],[-67.1461,-10.3236,129.6684],[-67.154,-10.3286,126.737],[-67.1618,-10.329,128.8666],[-67.1632,-10.3327,129.6927],[-67.1694,-10.3371,127.5784],[-67.1766,-10.3386,125.5801],[-67.1841,-10.337,129.802],[-67.1871,-10.3402,125.507],[-67.1914,-10.3393,136.8103],[-67.1923,-10.3412,130.2643],[-67.1902,-10.3431,129.8035],[-67.1991,-10.3488,124.2932],[-67.1993,-10.3523,130.9536],[-67.2039,-10.3546,129.4583],[-67.2049,-10.354,130.3951],[-67.2034,-10.3496,134.0414],[-67.2085,-10.3515,128.0257],[-67.2045,-10.3573,136.0743],[-67.2109,-10.362,133.643],[-67.2088,-10.3656,136.3047],[-67.2116,-10.3651,132.8486],[-67.2144,-10.361,138.9171],[-67.2174,-10.3645,130.2545],[-67.2168,-10.3589,140.7791],[-67.2208,-10.3598,134.535],[-67.2313,-10.3672,137.1243],[-67.2365,-10.3682,132.6242],[-67.2359,-10.3696,129.6064],[-67.2387,-10.3747,136.7446],[-67.2424,-10.3739,134.9259],[-67.2405,-10.3712,138.846],[-67.2452,-10.3711,138.3091],[-67.2456,-10.3756,137.2749],[-67.2476,-10.3745,129.2438],[-67.2489,-10.3802,136.6731],[-67.2547,-10.3871,131.0937],[-67.256,-10.3936,137.6768],[-67.2581,-10.3939,136.7993],[-67.2631,-10.3901,141.1388],[-67.2814,-10.4007,134.1525],[-67.2791,-10.406,131.8968],[-67.2851,-10.4105,129.2321],[-67.2864,-10.4097,139.3637],[-67.2875,-10.4113,140.6228],[-67.2862,-10.4119,128.7717],[-67.2887,-10.4153,138.5335],[-67.2932,-10.4184,142.866],[-67.2927,-10.4198,143.9015],[-67.2884,-10.4206,138.9809],[-67.2901,-10.4258,140.309],[-67.2842,-10.4255,138.8383],[-67.2824,-10.4332,138.7801],[-67.2868,-10.4323,137.412],[-67.2845,-10.4375,133.4064],[-67.2863,-10.4396,137.4945],[-67.2884,-10.4401,141.3839],[-67.29,-10.4384,137.8213],[-67.295,-10.4409,140.6801],[-67.2927,-10.4482,140.3105],[-67.2945,-10.4485,140.6118],[-67.2943,-10.4451,132.1132],[-67.2976,-10.4444,139.1853],[-67.2987,-10.4449,138.5233],[-67.2978,-10.4483,139.5035],[-67.3049,-10.451,138.9106],[-67.3059,-10.4574,143.1208],[-67.3043,-10.4608,142.3145],[-67.3023,-10.4599,142.3822],[-67.3006,-10.4619,141.9691],[-67.2999,-10.4592,137.3467],[-67.2979,-10.4635,138.3212],[-67.3013,-10.465,142.776],[-67.3014,-10.4694,132.9467],[-67.3037,-10.4675,137.4947],[-67.3109,-10.4672,142.8384],[-67.3121,-10.4679,144.6561],[-67.31,-10.4738,140.3844],[-67.3131,-10.4749,137.6478],[-67.3134,-10.4732,140.9192],[-67.317,-10.4726,140.7786],[-67.3163,-10.4693,142.0685],[-67.321,-10.4703,135.8479],[-67.3213,-10.4733,143.453],[-67.3252,-10.476,132.6647],[-67.3257,-10.4784,137.2846],[-67.3216,-10.4802,133.5825],[-67.3217,-10.483,139.2135],[-67.3314,-10.4827,135.1258],[-67.3331,-10.4856,133.6258],[-67.3304,-10.4875,136.3542],[-67.3312,-10.4894,135.9643],[-67.3417,-10.4919,138.3474],[-67.3445,-10.49,135.2882],[-67.3479,-10.4918,140.3303],[-67.3463,-10.4944,134.6352],[-67.3485,-10.4954,147.0505],[-67.3488,-10.5042,136.4273],[-67.3536,-10.5111,136.871],[-67.3481,-10.5144,133.8127],[-67.3482,-10.5164,143.0673],[-67.354,-10.5196,137.0566],[-67.3576,-10.5238,133.6653],[-67.3626,-10.5247,143.0178],[-67.3662,-10.5229,141.1206],[-67.3699,-10.5247,142.9424],[-67.3682,-10.5284,137.7707],[-67.3726,-10.5321,135.3891],[-67.3766,-10.5387,139.8529],[-67.381,-10.5402,141.7112],[-67.383,-10.5371,142.8607],[-67.3847,-10.5372,136.4143],[-67.3835,-10.5392,137.218],[-67.3867,-10.5426,143.2617],[-67.3906,-10.542,137.3299],[-67.3929,-10.5441,145.9167],[-67.3933,-10.5406,136.3222],[-67.3986,-10.5368,142.3454],[-67.408,-10.5371,142.6985],[-67.4094,-10.5403,139.4613],[-67.4053,-10.5448,139.9391],[-67.4084,-10.5483,143.7581],[-67.4122,-10.5496,138.8821],[-67.412,-10.5506,138.8821],[-67.4091,-10.5495,141.6227],[-67.4104,-10.5535,135.3696],[-67.4157,-10.5546,142.523],[-67.4146,-10.5498,142.3394],[-67.4169,-10.5506,144.9922],[-67.4192,-10.5487,138.4284],[-67.4236,-10.5531,146.9225],[-67.4268,-10.5506,136.0079],[-67.4269,-10.5566,138.197],[-67.4284,-10.5583,144.4098],[-67.4234,-10.5614,140.689],[-67.4292,-10.563,140.162],[-67.4281,-10.5665,142.3018],[-67.4317,-10.5682,144.9866],[-67.4293,-10.5706,143.6079],[-67.4289,-10.5733,139.2572],[-67.4313,-10.5753,143.0883],[-67.4409,-10.5762,152.2519],[-67.4536,-10.5843,140.3686],[-67.4545,-10.5872,137.8599],[-67.4521,-10.5877,141.1341],[-67.4495,-10.592,143.7727],[-67.45,-10.6014,138.8836],[-67.4545,-10.6051,136.7345],[-67.4559,-10.6051,136.7345],[-67.4568,-10.602,143.6199],[-67.4586,-10.6022,146.468],[-67.4597,-10.6069,139.8492],[-67.4622,-10.6082,138.4366],[-67.4622,-10.612,143.0887],[-67.4637,-10.611,140.6183],[-67.463,-10.6081,138.4366],[-67.4677,-10.6059,140.1791],[-67.4683,-10.6084,145.7024],[-67.4717,-10.6085,144.7293],[-67.4746,-10.6115,144.5268],[-67.4747,-10.6141,145.3716],[-67.4727,-10.6155,141.7755],[-67.4733,-10.6175,141.1893],[-67.4791,-10.6163,146.2911],[-67.4815,-10.6169,140.5801],[-67.4815,-10.6186,144.2997],[-67.4925,-10.6192,140.224],[-67.4936,-10.6204,150.7974],[-67.4923,-10.6216,143.5234],[-67.4934,-10.623,147.1254],[-67.4921,-10.6276,143.4232],[-67.4942,-10.6266,149.5957],[-67.4978,-10.6291,145.345],[-67.5001,-10.6283,143.7751],[-67.5063,-10.6301,145.0156],[-67.5071,-10.6319,143.2007],[-67.5037,-10.6311,142.8594],[-67.5036,-10.636,142.0176],[-67.5071,-10.6354,139.9656],[-67.508,-10.638,150.6548],[-67.5099,-10.6386,144.032],[-67.5133,-10.6369,142.6996],[-67.5176,-10.6383,144.4524],[-67.521,-10.6436,147.0124],[-67.5229,-10.6432,142.6525],[-67.5238,-10.6382,146.0758],[-67.5261,-10.6386,142.2444],[-67.5245,-10.6413,144.7168],[-67.5279,-10.6383,142.2444],[-67.5327,-10.6404,144.8728],[-67.5354,-10.6484,150.0937],[-67.5392,-10.6494,144.2584],[-67.5365,-10.6513,144.6167],[-67.5423,-10.6556,149.4497],[-67.5434,-10.66,147.0508],[-67.5409,-10.662,143.8058],[-67.5428,-10.664,143.0861],[-67.5499,-10.6623,145.7299],[-67.551,-10.6652,145.6181],[-67.5609,-10.6633,145.5952],[-67.5644,-10.6661,145.3772],[-67.5681,-10.6668,145.6676],[-67.5672,-10.6704,146.5224],[-67.5709,-10.6725,149.0369],[-67.569,-10.6745,148.5872],[-67.5697,-10.6761,140.5681],[-67.578,-10.6731,145.5108],[-67.5738,-10.6776,140.909],[-67.5799,-10.6824,145.5699],[-67.5844,-10.6807,143.6118],[-67.5848,-10.682,145.7038],[-67.5868,-10.6819,145.0292],[-67.5864,-10.6844,147.4725],[-67.588,-10.684,142.6086],[-67.5884,-10.6873,149.9425],[-67.592,-10.6869,147.5826],[-67.5917,-10.6843,151.3912],[-67.5929,-10.685,144.7714],[-67.5981,-10.6823,147.8539],[-67.601,-10.6829,148.2173],[-67.6011,-10.6843,145.3957],[-67.6042,-10.6846,147.7868],[-67.6038,-10.688,146.9401],[-67.6059,-10.6915,150.5696],[-67.6074,-10.6901,146.4634],[-67.6102,-10.6916,148.9772],[-67.6099,-10.6939,146.1097],[-67.6113,-10.694,145.7787],[-67.6127,-10.6907,147.7071],[-67.6148,-10.6919,147.212],[-67.6132,-10.6935,147.6239],[-67.6138,-10.6953,148.0476],[-67.6165,-10.6926,144.445],[-67.6166,-10.6947,144.831],[-67.6183,-10.6944,146.8998],[-67.6173,-10.6911,146.549],[-67.621,-10.693,150.6232],[-67.6241,-10.692,146.9908],[-67.6266,-10.6954,148.7434],[-67.6284,-10.6943,147.0977],[-67.6308,-10.6969,146.0442],[-67.6315,-10.7006,142.821],[-67.6351,-10.7002,148.9078],[-67.6349,-10.7022,150.4033],[-67.6375,-10.7012,146.9279],[-67.6391,-10.7036,148.7945],[-67.6428,-10.7027,146.8949],[-67.6426,-10.7046,149.0522],[-67.6452,-10.7071,148.8161],[-67.6458,-10.7054,143.9004],[-67.6499,-10.7048,147.0042],[-67.6496,-10.7029,148.159],[-67.6509,-10.7023,148.159],[-67.6565,-10.7065,152.0136],[-67.658,-10.7032,146.1845],[-67.6595,-10.7056,146.5757],[-67.6653,-10.7026,143.3422],[-67.6709,-10.7042,147.4003],[-67.6721,-10.7075,147.1617],[-67.6777,-10.7067,148.7503],[-67.6809,-10.709,148.206],[-67.6844,-10.7089,144.8452],[-67.6823,-10.7068,146.7681],[-67.687,-10.701599999999999,150.9226],[-67.6941,-10.7018,147.0141],[-67.7,-10.707,157.2063],[-67.7027,-10.705,153.764],[-67.7037,-10.7112,148.6199],[-67.7053,-10.7119,151.393],[-67.7038,-10.7135,149.0857],[-67.7066,-10.7157,151.662],[-67.7066,-10.7174,152.1358],[-67.5612,-11.1072,164.9472],[-67.5574,-11.0999,160.5511],[-67.5527,-11.0975,159.5477],[-67.5535,-11.0932,160.579],[-67.5583,-11.0892,158.0],[-67.5562,-11.0818,164.0067],[-67.5541,-11.0801,162.3351],[-67.5507,-11.0825,167.798],[-67.5476,-11.0811,165.4768],[-67.5485,-11.0781,164.521],[-67.5522,-11.0777,158.0],[-67.5536,-11.0749,173.7819],[-67.5485,-11.072,164.3391],[-67.5431,-11.075,165.0118],[-67.5451,-11.0679,161.1504],[-67.5441,-11.0577,169.8859],[-67.5478,-11.0542,167.8402],[-67.5379,-11.0478,159.9721],[-67.5373,-11.0405,159.6655],[-67.5335,-11.0393,161.0287],[-67.5319,-11.0407,164.0798],[-67.535,-11.0467,165.1242],[-67.5339,-11.05,170.3732],[-67.531,-11.0489,162.1084],[-67.5248,-11.0372,163.0587],[-67.5189,-11.039,157.5],[-67.5144,-11.0382,164.1875],[-67.5122,-11.0438,165.6805],[-67.5103,-11.039,161.9084],[-67.5128,-11.0343,159.5011],[-67.5115,-11.03,159.0612],[-67.5006,-11.0271,162.6201],[-67.4954,-11.0288,166.5715],[-67.4906,-11.0278,169.0054],[-67.4895,-11.0318,161.4606],[-67.4843,-11.0321,172.2267],[-67.4896,-11.037,157.0],[-67.4891,-11.0398,160.1273],[-67.4822,-11.0394,157.0],[-67.4795,-11.0379,157.0],[-67.4776,-11.0333,158.9286],[-67.4731,-11.0346,167.9855],[-67.4701,-11.0315,160.335],[-67.4648,-11.0342,156.5],[-67.4636,-11.0326,161.3175],[-67.4645,-11.024,156.5],[-67.4715,-11.0215,160.1823],[-67.4676,-11.0204,156.5],[-67.4617,-11.0217,162.0302],[-67.4576,-11.0274,158.1945],[-67.4551,-11.0269,162.9613],[-67.4527,-11.0211,156.0],[-67.4571,-11.0151,158.0979],[-67.4545,-11.014099999999999,158.7955],[-67.452,-11.0169,164.6256],[-67.4496,-11.0167,165.3719],[-67.4472,-11.0081,172.2671],[-67.4384,-11.0074,155.5],[-67.439,-11.0009,158.0669],[-67.436,-11.0038,158.0081],[-67.4342,-11.0091,156.5223],[-67.4317,-11.0095,161.8221],[-67.4359,-10.9971,156.4779],[-67.4341,-10.9955,157.5536],[-67.4301,-10.9982,156.547],[-67.4299,-11.0053,156.2425],[-67.4213,-11.01,166.6618],[-67.4194,-11.0092,155.0],[-67.4207,-11.0046,157.7037],[-67.4194,-11.0029,157.5505],[-67.4163,-11.0019,162.9583],[-67.4123,-11.0032,163.7993],[-67.4084,-11.0018,157.7213],[-67.4007,-11.0085,163.7916],[-67.3979,-11.0162,156.4186],[-67.3952,-11.0148,163.235],[-67.3933,-11.0081,161.514],[-67.3915,-11.0072,158.2667],[-67.3777,-11.0142,167.9426],[-67.3723,-11.0226,156.0035],[-67.3705,-11.02,161.3495],[-67.3719,-11.0147,159.0363],[-67.369,-11.0132,157.8686],[-67.3605,-11.0219,157.1941],[-67.3509,-11.0252,160.2712],[-67.3491,-11.032,154.9043],[-67.344,-11.0367,163.2677],[-67.336,-11.0367,155.9711],[-67.336,-11.0402,152.375],[-67.3412,-11.0419,155.2194],[-67.3418,-11.0442,159.1522],[-67.3352,-11.0469,164.6993],[-67.3309,-11.0519,157.7958],[-67.3265,-11.0491,162.8441],[-67.3253,-11.0503,160.399],[-67.3266,-11.0528,153.535],[-67.3262,-11.0599,164.7469],[-67.3292,-11.0647,152.0],[-67.3249,-11.0691,158.8808],[-67.3276,-11.0707,156.5426],[-67.3327,-11.0692,155.6722],[-67.3334,-11.0707,161.5796],[-67.3261,-11.076,163.3556],[-67.3319,-11.0796,159.461],[-67.332,-11.0815,155.7697],[-67.329,-11.0814,157.4492],[-67.3232,-11.078,162.0478],[-67.318,-11.08,157.9088],[-67.3163,-11.0838,157.2619],[-67.3126,-11.0832,151.5],[-67.3066,-11.0798,163.9716],[-67.3035,-11.0741,154.6228],[-67.2971,-11.0749,159.8813],[-67.2974,-11.0719,151.0],[-67.2955,-11.0705,151.0],[-67.292,-11.0738,156.6817],[-67.2908,-11.0797,153.8929],[-67.2878,-11.0829,153.035],[-67.2881,-11.0874,150.5],[-67.2847,-11.0877,156.119],[-67.2783,-11.0913,157.788],[-67.2748,-11.09,161.2001],[-67.2728,-11.0866,160.1784],[-67.2722,-11.0746,154.8401],[-67.2628,-11.0834,155.0923],[-67.2627,-11.0795,152.0934],[-67.2659,-11.0754,155.7351],[-67.2683,-11.066,154.9955],[-67.2612,-11.0585,151.5551],[-67.259,-11.0598,159.9955],[-67.2574,-11.0648,154.0941],[-67.2555,-11.0642,152.7914],[-67.2533,-11.059,156.0025],[-67.246,-11.0555,152.0372],[-67.2461,-11.0485,149.5],[-67.2443,-11.0464,155.2194],[-67.2409,-11.0501,152.3719],[-67.235,-11.0527,155.7987],[-67.2259,-11.0459,152.9791],[-67.227,-11.0507,152.7409],[-67.2248,-11.054,152.5819],[-67.2177,-11.0483,159.292],[-67.2136,-11.0601,155.0882],[-67.2068,-11.0578,149.0],[-67.2007,-11.0619,150.6315],[-67.1969,-11.0583,151.8976],[-67.1974,-11.0557,154.8059],[-67.2008,-11.0533,155.3506],[-67.2008,-11.051,148.5],[-67.196,-11.0517,155.4149],[-67.1913,-11.0486,151.3864],[-67.1864,-11.0499,155.6996],[-67.1795,-11.0456,152.1904],[-67.1819,-11.0394,154.558],[-67.1808,-11.0376,149.0884],[-67.1597,-11.0422,149.062],[-67.1607,-11.0386,151.7041],[-67.1668,-11.0365,152.2909],[-67.1686,-11.0323,151.8283],[-67.1582,-11.0314,160.1307],[-67.1422,-11.0269,149.5733],[-67.1402,-11.0245,152.249],[-67.1405,-11.0218,152.7331],[-67.1451,-11.0181,151.967],[-67.1451,-11.0162,149.4303],[-67.1389,-11.0182,149.3499],[-67.1361,-11.0243,149.0932],[-67.1337,-11.0231,148.9221],[-67.1344,-11.0165,151.2798],[-67.1321,-11.0172,156.2505],[-67.1289,-11.0249,155.9535],[-67.1263,-11.0243,149.3304],[-67.1251,-11.0181,152.1812],[-67.123,-11.0187,149.6621],[-67.1192,-11.0238,148.8344],[-67.1141,-11.0199,149.7579],[-67.1133,-11.0236,152.9438],[-67.1166,-11.0257,154.4426],[-67.1172,-11.0282,149.208],[-67.1138,-11.0313,156.969],[-67.1054,-11.0311,150.5443],[-67.1047,-11.0302,150.5443],[-67.1073,-11.0257,148.0],[-67.1031,-11.023,153.5215],[-67.0995,-11.0259,152.5165],[-67.1023,-11.0332,151.0533],[-67.1003,-11.0363,154.5931],[-67.0752,-11.0047,155.9815],[-67.0732,-10.9962,157.4651],[-67.0686,-10.9894,149.0316],[-67.0651,-10.9903,155.1692],[-67.0647,-10.9937,148.0],[-67.0709,-11.0034,159.6307],[-67.0696,-11.0074,148.0],[-67.0659,-11.0061,149.4029],[-67.0654,-11.0027,156.4727],[-67.0596,-10.995,153.2845],[-67.0474,-10.9998,147.9699],[-67.0506,-11.0031,145.75],[-67.0493,-11.0067,153.6835],[-67.0365,-10.9988,146.1163],[-67.0353,-11.0007,149.2731],[-67.0377,-11.0063,154.7321],[-67.0248,-11.0009,147.2002],[-67.0184,-10.9933,150.3826],[-67.0125,-10.9992,145.7196],[-67.01,-10.9911,145.6364],[-67.002,-10.9875,143.0],[-67.0034,-10.9859,143.0],[-67.0088,-10.9854,146.2008],[-67.0099,-10.9828,146.4476],[-67.0036,-10.9779,147.6563],[-67.0071,-10.9704,146.1207],[-67.0016,-10.9701,147.9699],[-67.0016,-10.2293,129.1249]]]]}}