{"type":"Feature","properties":{"GID_2":"BOL.4.9_2","GID_0":"BOL","country":"Bolivia","GID_1":"BOL.4_1","province":"LaPaz","NL_NAME_1":"NA","county":"GualbertoVillarroel","VARNAME_2":"G.Villarroel","NL_NAME_2":"NA","TYPE_2":"Provincia","ENGTYPE_2":"Province","CC_2":"NA","HASC_2":"NA","name":"Gualberto_Villarroel.county"},
"geometry":{"type": "MultiPolygon","coordinates": [[[[-67.7649,-17.5532,3733.9431],[-67.7711,-17.5511,3733.8223],[-67.7932,-17.5517,3734.9731],[-67.8066,-17.5466,3735.7166],[-67.8112,-17.5471,3736.2568],[-67.8229,-17.5541,3736.7324],[-67.8306,-17.5531,3737.4297],[-67.8359,-17.5506,3737.2495],[-67.8574,-17.5551,3738.8618],[-67.8678,-17.5543,3737.9253],[-67.8716,-17.5554,3738.9053],[-67.8877,-17.5513,3740.0781],[-67.8933,-17.5493,3740.293],[-67.8965,-17.5445,3741.0049],[-67.9101,-17.5368,3741.5042],[-67.9249,-17.5305,3742.49],[-67.9328,-17.5313,3742.896],[-67.945,-17.5294,3743.6191],[-67.9485,-17.5246,3743.873],[-67.962,-17.5193,3744.0515],[-67.977,-17.5073,3745.4895],[-67.9852,-17.4853,3747.248],[-67.9866,-17.4776,3747.6265],[-67.9936,-17.4747,3747.979],[-68.0076,-17.4757,3749.2214],[-68.0267,-17.4718,3749.0425],[-68.0387,-17.4768,3750.0242],[-68.0463,-17.4825,3749.9883],[-68.0568,-17.4858,3751.9478],[-68.074,-17.4889,3753.2183],[-68.0956,-17.4869,3754.0994],[-68.1031,-17.4809,3757.4653],[-68.1104,-17.4694,3755.2117],[-68.1215,-17.4606,3756.2278],[-68.1331,-17.4591,3757.0664],[-68.1413,-17.4616,3757.0254],[-68.1469,-17.4511,3761.4536],[-68.1436,-17.4472,3762.7439],[-68.1439,-17.4429,3764.865],[-68.1514,-17.4345,3771.2847],[-68.1521,-17.4271,3774.4839],[-68.1584,-17.4248,3776.3845],[-68.1662,-17.4137,3788.1228],[-68.1848,-17.4237,3796.0791],[-68.1852,-17.4311,3806.7627],[-68.1999,-17.446,3901.0981],[-68.201,-17.4525,3878.1108],[-68.193,-17.4786,3760.1543],[-68.1958,-17.4796,3760.7041],[-68.2104,-17.4951,3762.6511],[-68.2229,-17.5019,3762.7073],[-68.233,-17.5025,3762.9878],[-68.246,-17.5125,3787.4067],[-68.247,-17.5166,3784.2495],[-68.2456,-17.5199,3797.7314],[-68.2332,-17.5255,3828.6309],[-68.2363,-17.5346,3815.3665],[-68.2464,-17.5445,3791.8838],[-68.2536,-17.5445,3786.009],[-68.254,-17.5568,3819.4939],[-68.2589,-17.576,3933.832],[-68.266,-17.5775,3916.0674],[-68.2706,-17.5761,3922.187],[-68.2758,-17.5796,3865.5393],[-68.2785,-17.5915,3844.3606],[-68.2784,-17.6004,3882.1284],[-68.2894,-17.6152,3819.875],[-68.2764,-17.6286,3826.75],[-68.2691,-17.6435,3834.8325],[-68.2625,-17.6419,3839.3401],[-68.256,-17.6382,3842.2231],[-68.2512,-17.6388,3843.25],[-68.2378,-17.6476,3852.3499],[-68.2275,-17.6491,3857.2432],[-68.2241,-17.6511,3858.9844],[-68.2123,-17.6634,3866.0022],[-68.2088,-17.6692,3869.6731],[-68.2033,-17.6714,3873.6357],[-68.2006,-17.6706,3875.6467],[-68.201,-17.6684,3879.6978],[-68.1983,-17.6648,3884.252],[-68.1901,-17.6632,3901.5933],[-68.1888,-17.6594,3908.0442],[-68.1905,-17.6581,3908.0442],[-68.1905,-17.6546,3950.7153],[-68.1435,-17.6687,4096.667],[-68.1373,-17.6761,4161.8311],[-68.1001,-17.6991,3919.8857],[-68.0853,-17.7152,3946.9243],[-68.074,-17.7187,3933.6855],[-68.0548,-17.7179,3896.0986],[-68.0164,-17.7328,3878.5669],[-68.0003,-17.7411,3836.2385],[-67.9995,-17.7392,3836.1682],[-67.9954,-17.7381,3829.8176],[-67.9885,-17.7412,3821.7534],[-67.9836,-17.7416,3819.4194],[-67.969,-17.7327,3808.6284],[-67.9652,-17.7377,3814.9053],[-67.9663,-17.7481,3829.6995],[-67.9576,-17.7644,3863.7258],[-67.9394,-17.774,3853.2051],[-67.9263,-17.7829,3846.2393],[-67.9024,-17.7911,3818.291],[-67.8849,-17.805,3769.6904],[-67.8748,-17.8102,3768.4443],[-67.8683,-17.8115,3759.3118],[-67.8639,-17.8148,3770.7598],[-67.8605,-17.8143,3753.873],[-67.861,-17.8225,3775.0659],[-67.8526,-17.8247,3759.5691],[-67.8524,-17.8289,3768.0757],[-67.8482,-17.8294,3762.0112],[-67.8337,-17.8492,3740.4536],[-67.8317,-17.8488,3739.4922],[-67.8267,-17.8517,3735.7612],[-67.8274,-17.8537,3736.083],[-67.823,-17.8598,3732.385],[-67.8235,-17.8612,3732.385],[-67.8179,-17.8627,3729.6997],[-67.8172,-17.8651,3729.8037],[-67.8112,-17.8686,3728.1426],[-67.8077,-17.8732,3727.2061],[-67.7884,-17.8804,3722.8423],[-67.7721,-17.8778,3721.2153],[-67.7534,-17.8719,3718.1851],[-67.7322,-17.8596,3717.4666],[-67.7076,-17.848,3716.3191],[-67.7016,-17.8022,3719.8105],[-67.6798,-17.7781,3719.8975],[-67.677,-17.7639,3720.55],[-67.6445,-17.758,3717.9634],[-67.6325,-17.7649,3745.311],[-67.5858,-17.7682,3718.5564],[-67.5863,-17.7119,3721.23],[-67.5582,-17.7035,3719.5164],[-67.5313,-17.6738,3718.5081],[-67.5161,-17.6717,3717.0093],[-67.5077,-17.6473,3718.676],[-67.5087,-17.6426,3720.4624],[-67.5151,-17.6367,3720.6011],[-67.5307,-17.6103,3722.0745],[-67.5271,-17.5995,3721.2705],[-67.5291,-17.5968,3721.1377],[-67.5522,-17.5857,3723.0056],[-67.5632,-17.5916,3722.7544],[-67.5753,-17.5911,3723.6218],[-67.5924,-17.5795,3724.8374],[-67.6064,-17.5618,3725.5249],[-67.6107,-17.5506,3725.2705],[-67.616,-17.5473,3725.7173],[-67.6275,-17.5496,3727.0493],[-67.6422,-17.5451,3727.8435],[-67.6656,-17.5505,3728.4622],[-67.6739,-17.549,3729.2903],[-67.6832,-17.5437,3729.4644],[-67.6878,-17.5435,3729.429],[-67.7058,-17.5539,3730.7751],[-67.7182,-17.5565,3731.1978],[-67.7263,-17.5561,3732.1782],[-67.7373,-17.56,3732.1707],[-67.7482,-17.5576,3733.1494],[-67.7575,-17.5584,3732.9458],[-67.7649,-17.5532,3733.9431]]]]}}