{"type": "Feature","bbox": [-67.7412,-21.8506,-67.0244,-21.082],"geometry": {"type": "MultiPolygon","coordinates": [[[[-67.0985,-21.8506,4387.4766],[-67.0419,-21.7896,4033.1787],[-67.044,-21.773,4008.7368],[-67.0244,-21.7023,3969.3977],[-67.1255,-21.5978,3903.2246],[-67.2454,-21.5156,3797.1392],[-67.3468,-21.4752,3846.2671],[-67.3654,-21.4605,4344.1074],[-67.3802,-21.434,3945.4763],[-67.4641,-21.3388,3779.6396],[-67.4827,-21.2671,3889.9241],[-67.5221,-21.2144,4212.7524],[-67.5328,-21.1892,4065.5288],[-67.5321,-21.1554,3993.2278],[-67.5627,-21.0987,3927.2744],[-67.5815,-21.0861,4003.9431],[-67.6274,-21.1116,3793.9124],[-67.6881,-21.082,4040.231],[-67.7147,-21.1008,3854.585],[-67.7412,-21.1404,3899.3491],[-67.7164,-21.2705,4631.9448],[-67.6957,-21.3533,3903.2854],[-67.611,-21.518,4142.8164],[-67.5669,-21.5382,4064.7407],[-67.445,-21.6691,4184.8037],[-67.4244,-21.686,4336.7319],[-67.3919,-21.694,4048.3774],[-67.3693,-21.7255,3909.458],[-67.279,-21.7864,4119.1807],[-67.1882,-21.8268,4408.228],[-67.1556,-21.8335,4267.3447],[-67.0985,-21.8506,4387.4766]]]]}
,"properties": {"GID_2": "BOL.7.7_2","GID_0": "BOL","country": "Bolivia","GID_1": "BOL.7_1","province": "Potosí","NL_NAME_1": "NA","county": "EnriqueBaldivieso","VARNAME_2": "NA","NL_NAME_2": "NA","TYPE_2": "Provincia","ENGTYPE_2": "Province","CC_2": "NA","HASC_2": "NA","name": "Enrique_Baldivieso.county","area_km2": 2350.937,"hist_schema_id": "Elevation0-9000","hist_area_km2": {"3775": 48.316,"3800": 131.114,"3825": 148.44,"3850": 135.946,"3875": 120.929,"3900": 136.571,"3925": 136.676,"3950": 134.562,"3975": 119.497,"4000": 131.41,"4025": 146.718,"4050": 121.598,"4075": 94.345,"4100": 82.91,"4125": 73.727,"4150": 64.883,"4175": 59.342,"4200": 53.743,"4225": 53.065,"4250": 50.011,"4275": 44.366,"4300": 40.654,"4325": 36.873,"4350": 31.366,"4375": 26.691,"4400": 25.188,"4425": 15.764,"4450": 10.678,"4475": 9.239,"4500": 9.335,"4525": 9.355,"4550": 6.16,"4575": 5.449,"4600": 4.581,"4625": 3.95,"4650": 3.359,"4675": 3.122,"4700": 2.43,"4725": 2.134,"4750": 1.541,"4775": 1.66,"4800": 1.581,"4825": 1.502,"4850": 1.265,"4875": 1.087,"4900": 1.047,"4925": 1.344,"4950": 0.692,"4975": 0.731,"5000": 0.553,"5025": 0.613,"5050": 0.514,"5075": 0.435,"5100": 0.395,"5125": 0.277,"5150": 0.316,"5175": 0.158,"5200": 0.178,"5225": 0.079,"5250": 0.138,"5275": 0.158,"5300": 0.099,"5325": 0.059,"5375": 0.02}}}