{"type":"Feature","properties":{"GID_2":"BOL.6.2_2","GID_0":"BOL","country":"Bolivia","GID_1":"BOL.6_1","province":"Pando","NL_NAME_1":"NA","county":"FedericoRomán","VARNAME_2":"Gral.FedericoPoma|GeneralFede","NL_NAME_2":"NA","TYPE_2":"Provincia","ENGTYPE_2":"Province","CC_2":"NA","HASC_2":"NA","name":"Federico_Román.county"},
"geometry":{"type": "MultiPolygon","coordinates": [[[[-65.536,-10.5042,105.0],[-65.53,-10.5012,105.0],[-65.5099,-10.4967,104.5],[-65.5021,-10.4916,104.5],[-65.4912,-10.4723,104.5],[-65.4878,-10.4624,104.5],[-65.4864,-10.4463,104.5],[-65.4838,-10.4381,104.5],[-65.4756,-10.4316,104.5],[-65.4482,-10.4147,104.5],[-65.4382,-10.4131,104.0],[-65.4292,-10.4163,104.0],[-65.4194,-10.4168,104.0],[-65.4082,-10.414,104.0],[-65.4032,-10.4104,104.0],[-65.4006,-10.4073,104.0],[-65.3977,-10.3985,104.0],[-65.3971,-10.3909,104.0],[-65.391,-10.3812,104.0],[-65.3919,-10.3743,104.0],[-65.388,-10.3662,103.5],[-65.3835,-10.3609,103.5],[-65.3744,-10.3565,103.5],[-65.3618,-10.3424,103.0],[-65.3498,-10.3215,102.0],[-65.3267,-10.3048,101.0],[-65.3213,-10.2947,100.5],[-65.3126,-10.2634,99.5],[-65.3125,-10.2548,99.0],[-65.3069,-10.2513,98.5],[-65.3005,-10.242,98.5],[-65.2918,-10.2237,97.5],[-65.2936,-10.2146,97.0],[-65.2923,-10.2104,97.0],[-65.2975,-10.2001,96.5],[-65.2996,-10.1915,96.0],[-65.3062,-10.1803,96.0],[-65.3078,-10.1733,96.0],[-65.308,-10.1645,96.0],[-65.302,-10.145,96.0],[-65.3044,-10.1325,95.5],[-65.3027,-10.1064,95.5],[-65.3045,-10.0986,95.5],[-65.3076,-10.0942,95.5],[-65.3165,-10.0877,95.5],[-65.3233,-10.0783,95.5],[-65.3304,-10.0637,95.5],[-65.3312,-10.0497,95.5],[-65.3207,-10.0037,95.0],[-65.3248,-9.9871,95.0],[-65.3336,-9.9727,94.5],[-65.3351,-9.9359,94.0],[-65.3292,-9.9187,93.5],[-65.3203,-9.9043,93.5],[-65.2913,-9.8716,92.5],[-65.2875,-9.8527,92.0],[-65.2916,-9.8405,117.5123],[-65.2957,-9.8359,107.4697],[-65.3178,-9.8224,105.2739],[-65.3229,-9.8157,93.9611],[-65.3255,-9.798,91.0],[-65.332,-9.7771,90.5],[-65.3364,-9.771,90.5],[-65.3562,-9.7225,89.5],[-65.3678,-9.7083,89.5],[-65.3876,-9.6924,89.0],[-65.395,-9.6882,89.0],[-65.425,-9.6785,88.0],[-65.4388,-9.6709,88.0],[-65.4396,-9.6774,115.9386],[-65.4364,-9.6805,118.2366],[-65.4353,-9.6842,109.6411],[-65.4356,-9.6897,109.5115],[-65.4388,-9.6963,114.7083],[-65.4675,-9.7151,115.9856],[-65.4867,-9.7177,105.9777],[-65.4833,-9.7241,111.746],[-65.4785,-9.727,115.6067],[-65.4789,-9.7294,115.6957],[-65.4901,-9.7318,119.94],[-65.4996,-9.7382,101.0543],[-65.5026,-9.7475,114.5821],[-65.5043,-9.7677,95.7284],[-65.498,-9.7791,93.2768],[-65.5073,-9.794,125.8298],[-65.5131,-9.7973,101.2896],[-65.5376,-9.7999,108.6016],[-65.5417,-9.8042,88.0],[-65.5548,-9.8061,113.5784],[-65.5574,-9.8108,96.2747],[-65.5627,-9.8123,102.7219],[-65.5611,-9.8246,97.9697],[-65.553,-9.8354,92.509],[-65.5548,-9.8419,101.1752],[-65.5595,-9.8458,88.5],[-65.5615,-9.8457,96.2985],[-65.5701,-9.838,113.7513],[-65.5957,-9.8444,103.7714],[-65.5984,-9.8438,125.8616],[-65.5996,-9.8385,101.6125],[-65.5978,-9.83,106.1291],[-65.599,-9.8265999999999991,119.1645],[-65.6008,-9.8261,102.6645],[-65.6053,-9.8261,98.4671],[-65.6153,-9.8313,111.4751],[-65.6252,-9.8389,105.8618],[-65.6287,-9.839,127.9313],[-65.6326,-9.8324,89.0],[-65.6354,-9.809,120.7924],[-65.6371,-9.8065,111.5918],[-65.6415,-9.8084,92.2037],[-65.6481,-9.8175,91.6822],[-65.6508,-9.8189,97.2858],[-65.6537,-9.8157,113.6564],[-65.6555,-9.81,126.6257],[-65.6483,-9.7997,109.5428],[-65.6501,-9.7935,120.169],[-65.6631,-9.7951,131.4864],[-65.6666,-9.7863,123.2561],[-65.6709,-9.7829,94.9599],[-65.6895,-9.8013,97.0754],[-65.6897,-9.8127,110.1932],[-65.6912,-9.8149,120.4442],[-65.6969,-9.815,122.7201],[-65.7056,-9.8102,121.7542],[-65.7126,-9.8103,128.3759],[-65.712,-9.8056,104.8689],[-65.7024,-9.7924,108.4838],[-65.704,-9.7834,122.7279],[-65.7125,-9.7746,132.2634],[-65.7116,-9.7709,132.2873],[-65.7086,-9.7662,113.2204],[-65.7048,-9.7638,112.9251],[-65.6887,-9.7587,119.8247],[-65.6886,-9.7509,97.5975],[-65.6909,-9.752,115.07],[-65.6974,-9.7508,94.2952],[-65.708,-9.7584,110.4656],[-65.719,-9.7573,109.4272],[-65.7293,-9.7601,106.6468],[-65.7361,-9.7667,91.5],[-65.7374,-9.7798,93.4987],[-65.7403,-9.7828,102.0453],[-65.7473,-9.784,112.8102],[-65.7527,-9.7804,109.3529],[-65.7601,-9.7692,110.657],[-65.7755,-9.762,99.6272],[-65.7747,-9.7533,109.5776],[-65.77,-9.7416,109.5729],[-65.7719,-9.7388,108.7364],[-65.7754,-9.7382,114.0774],[-65.7782,-9.7389,104.7524],[-65.7796,-9.749,99.3017],[-65.7754,-9.7668,108.4951],[-65.7812,-9.7732,99.0647],[-65.7838,-9.7863,100.9163],[-65.798,-9.7952,113.5554],[-65.7997,-9.7889,101.9905],[-65.8043,-9.7921,114.9139],[-65.8089,-9.7902,118.4825],[-65.8098,-9.7856,104.0185],[-65.8149,-9.7785,111.5419],[-65.816,-9.7741,123.9954],[-65.8078,-9.7693,105.8638],[-65.8074,-9.7629,97.9323],[-65.8108,-9.7652,114.4697],[-65.8178,-9.7587,114.1556],[-65.8196,-9.7586,115.242],[-65.8206,-9.7664,97.495],[-65.8225,-9.7666,98.3821],[-65.8231,-9.7697,102.533],[-65.8286,-9.7699,115.1132],[-65.8389,-9.7831,112.9273],[-65.8429,-9.7856,113.6539],[-65.8415,-9.7898,97.019],[-65.8454,-9.7909,99.1448],[-65.8439,-9.7922,105.0403],[-65.8444,-9.7942,116.4498],[-65.851,-9.7934,98.4914],[-65.8573,-9.7985,110.363],[-65.8655,-9.7989,120.6208],[-65.8728,-9.7971,110.5482],[-65.8764,-9.7921,113.9146],[-65.8763,-9.7902,105.5364],[-65.8715,-9.7861,111.7561],[-65.8723,-9.7772,110.8958],[-65.8653,-9.7707,113.5352],[-65.872,-9.7654,111.9138],[-65.8741,-9.7571,114.9104],[-65.89,-9.7556,112.3951],[-65.8936,-9.7612,114.456],[-65.9006,-9.7624,100.3843],[-65.9035,-9.7651,105.5491],[-65.9043,-9.7691,120.8836],[-65.9071,-9.7699,103.5012],[-65.9182,-9.7657,114.2096],[-65.9196,-9.7638,118.1619],[-65.9171,-9.7587,107.4139],[-65.924,-9.756,101.2336],[-65.9253,-9.7598,101.1737],[-65.9229,-9.7637,102.4074],[-65.9267,-9.7625,100.5606],[-65.9276,-9.7633,100.387],[-65.9251,-9.7648,105.2811],[-65.9258,-9.766,105.2811],[-65.9289,-9.7651,101.7354],[-65.9323,-9.7689,109.0365],[-65.9384,-9.7717,123.2499],[-65.9414,-9.7712,119.0211],[-65.942,-9.7653,113.2246],[-65.9458,-9.7629,100.1883],[-65.9574,-9.7718,116.6493],[-65.9709,-9.7741,106.5253],[-65.9726,-9.7769,108.5314],[-65.9742,-9.7979,111.2809],[-65.9638,-9.8026,108.7875],[-65.9687,-9.8066,116.9444],[-65.9814,-9.803,109.0287],[-65.9833,-9.8109,108.6088],[-65.9903,-9.8032,105.9375],[-65.9935,-9.8057,106.4536],[-66.002,-9.8006,107.5116],[-66.0076,-9.8014,122.3914],[-66.021,-9.8153,134.7311],[-66.0262,-9.8161,117.0645],[-66.0288,-9.8139,122.2076],[-66.0363,-9.7919,120.3031],[-66.0385,-9.7901,115.1418],[-66.0436,-9.7908,117.3623],[-66.0521,-9.7885,115.5568],[-66.0617,-9.7901,118.1404],[-66.0709,-9.7881,113.9596],[-66.084,-9.7922,103.1228],[-66.0784,-9.7961,120.3147],[-66.08,-9.7971,119.5808],[-66.0785,-9.7993,118.0308],[-66.0859,-9.8046,120.4654],[-66.0878,-9.8117,126.2256],[-66.0911,-9.8179,125.0171],[-66.093,-9.8186,123.5199],[-66.0982,-9.8156,110.3962],[-66.1007,-9.8093,112.8275],[-66.1032,-9.8071,117.9195],[-66.103,-9.7958,121.3916],[-66.1048,-9.7875,117.8778],[-66.11,-9.7903,115.9635],[-66.1092,-9.794,115.9724],[-66.1124,-9.7929,105.3055],[-66.1213,-9.7962,118.5314],[-66.1228,-9.7921,108.9537],[-66.1263,-9.791,111.4032],[-66.13,-9.7944,118.6985],[-66.1354,-9.7922,118.0745],[-66.1406,-9.7921,116.2239],[-66.1433,-9.7955,120.2457],[-66.145,-9.7914,114.8377],[-66.1502,-9.7894,115.116],[-66.1707,-9.798,118.3974],[-66.1737,-9.8024,118.5796],[-66.1736,-9.8076,113.9348],[-66.1779,-9.8068,110.4356],[-66.1844,-9.8092,105.8422],[-66.1911,-9.8082,121.1466],[-66.1936,-9.8169,116.1424],[-66.1889,-9.8184,110.5146],[-66.1836,-9.8238,117.5997],[-66.1836,-9.8258,118.0823],[-66.1859,-9.827,120.0938],[-66.1925,-9.8222,116.862],[-66.1945,-9.827,105.7857],[-66.1911,-9.832,122.1959],[-66.1971,-9.8348,112.6766],[-66.2025,-9.8395,121.7672],[-66.21,-9.8378,124.2714],[-66.2117,-9.8343,120.1562],[-66.2198,-9.8279,103.142],[-66.2322,-9.8187,119.2673],[-66.2351,-9.8185,119.8769],[-66.2375,-9.8236,121.9149],[-66.2372,-9.8291,124.2151],[-66.2409,-9.8237,112.715],[-66.242,-9.827,112.5069],[-66.2448,-9.8244,118.4256],[-66.244,-9.8283,123.9601],[-66.2508,-9.8353,130.4513],[-66.2592,-9.832,112.3717],[-66.2717,-9.8364,121.021],[-66.2728,-9.834,103.3886],[-66.2749,-9.8348,117.3809],[-66.2753,-9.8293,110.9825],[-66.2766,-9.8291,110.9825],[-66.2779,-9.8321,118.8357],[-66.2809,-9.833,120.2766],[-66.2789,-9.8415,122.7117],[-66.2831,-9.8452,115.8317],[-66.3026,-9.8365,114.6684],[-66.3035,-9.8402,118.3604],[-66.3056,-9.8402,112.5534],[-66.3068,-9.8381,116.0141],[-66.3084,-9.8405,106.002],[-66.3142,-9.8334,116.2381],[-66.315,-9.8354,109.2415],[-66.3196,-9.8369,111.5585],[-66.3466,-9.8402,120.0444],[-66.3512,-9.8431,110.53],[-66.3504,-9.8459,119.9761],[-66.3552,-9.8484,108.0286],[-66.3553,-9.8554,106.7027],[-66.3575,-9.8599,111.4865],[-66.3577,-9.8648,109.3373],[-66.3598,-9.8665,111.3972],[-66.3803,-9.8682,117.509],[-66.397,-9.8658,120.1431],[-66.4073,-9.8723,105.6969],[-66.4086,-9.8751,109.7429],[-66.4112,-9.8755,107.216],[-66.4122,-9.882,114.0317],[-66.4181,-9.8837,114.3212],[-66.419,-9.8916,124.9618],[-66.4217,-9.8951,109.2536],[-66.4133,-9.8933,111.9271],[-66.4126,-9.8946,124.5106],[-66.4267,-9.8997,126.2252],[-66.4289,-9.8996,127.3266],[-66.4335,-9.8942,112.1783],[-66.4312,-9.8894,119.3435],[-66.4309,-9.8795,123.9719],[-66.4324,-9.874,121.0988],[-66.4425,-9.8701,113.4632],[-66.4602,-9.8741,119.1688],[-66.4547,-9.8774,108.4386],[-66.4564,-9.8799,113.878],[-66.4641,-9.8776,115.9552],[-66.4679,-9.8723,116.2039],[-66.472,-9.8723,118.4688],[-66.4817,-9.8735,124.1581],[-66.4907,-9.8791,123.9055],[-66.4913,-9.8825,120.33],[-66.4949,-9.8843,111.2486],[-66.5057,-9.8833,124.7863],[-66.505,-9.8804,119.0591],[-66.5061,-9.8784,120.9797],[-66.5092,-9.8781,122.5449],[-66.5169,-9.8832,119.5895],[-66.5281,-9.887,122.4778],[-66.535,-9.8863,121.4755],[-66.5417,-9.8833,125.4265],[-66.5467,-9.8836,117.9162],[-66.5491,-9.8888,116.4024],[-66.5511,-9.8873,113.7554],[-66.5537,-9.8892,124.591],[-66.5574,-9.8851,123.6227],[-66.5686,-9.8918,119.1142],[-66.5704,-9.8944,113.4169],[-66.573,-9.8941,122.4005],[-66.5824,-9.8995,121.5066],[-66.5837,-9.9062,120.6515],[-66.5921,-9.9022,123.6307],[-66.545,-10.1925,163.7956],[-66.4636,-10.7313,152.7773],[-66.4462,-10.8257,129.0519],[-66.4418,-10.8351,132.7702],[-66.4396,-10.8344,126.1921],[-66.4368,-10.8276,124.5],[-66.4342,-10.8293,126.8241],[-66.4322,-10.8346,133.6987],[-66.4253,-10.8332,132.0249],[-66.4242,-10.8303,128.722],[-66.4285,-10.826599999999999,128.8745],[-66.4278,-10.8226,126.0734],[-66.4221,-10.8227,125.5164],[-66.4159,-10.8163,138.4474],[-66.4101,-10.8158,130.5098],[-66.405,-10.8233,132.8987],[-66.3984,-10.821,132.0087],[-66.3964,-10.8219,138.813],[-66.3931,-10.8322,124.5946],[-66.3875,-10.8316,137.8271],[-66.3879,-10.8335,138.8751],[-66.3923,-10.8359,125.8389],[-66.3916,-10.8394,131.6846],[-66.3882,-10.8406,125.9514],[-66.3789,-10.8388,125.9985],[-66.3754,-10.8454,129.6504],[-66.3645,-10.835,130.8567],[-66.3636,-10.8281,132.1109],[-66.3619,-10.8278,124.6044],[-66.3586,-10.8307,121.7687],[-66.3559,-10.8267,122.9435],[-66.355,-10.8298,127.2983],[-66.3605,-10.835,130.5878],[-66.3618,-10.8386,126.3212],[-66.3616,-10.8413,140.0484],[-66.3592,-10.8424,125.7247],[-66.3539,-10.8395,125.4749],[-66.3543,-10.8322,122.6914],[-66.3523,-10.8309,125.6125],[-66.3488,-10.8329,131.9084],[-66.3427,-10.8427,123.966],[-66.3305,-10.8388,124.9557],[-66.3327,-10.8446,127.2369],[-66.3313,-10.8462,127.1127],[-66.3267,-10.8448,122.289],[-66.3278,-10.8386,122.2767],[-66.3262,-10.8372,124.5641],[-66.3229,-10.8386,122.5444],[-66.3228,-10.8456,120.0],[-66.3204,-10.8501,125.5899],[-66.3166,-10.8516,126.8865],[-66.3116,-10.85,120.0],[-66.3124,-10.8555,129.643],[-66.3038,-10.8494,122.9119],[-66.3067,-10.8462,124.2026],[-66.3067,-10.8436,125.9758],[-66.3019,-10.84,123.6993],[-66.2996,-10.8473,129.1127],[-66.2924,-10.8462,122.6016],[-66.2906,-10.8431,132.9128],[-66.2941,-10.8386,124.7896],[-66.2912,-10.8372,127.6775],[-66.2869,-10.8443,127.4332],[-66.2946,-10.8515,123.9527],[-66.294,-10.8532,125.2261],[-66.2911,-10.8538,126.3876],[-66.2858,-10.8478,122.7388],[-66.2773,-10.8416,129.1011],[-66.2754,-10.8414,128.0692],[-66.274,-10.8437,130.6008],[-66.276,-10.851,120.5549],[-66.2728,-10.851,120.2124],[-66.2649,-10.8363,124.3871],[-66.2627,-10.8363,127.4354],[-66.2613,-10.8388,127.8698],[-66.2598,-10.8381,130.0214],[-66.2614,-10.8304,126.1022],[-66.2597,-10.8289,123.6437],[-66.2512,-10.8302,120.4366],[-66.2512,-10.8332,128.8709],[-66.256,-10.8341,127.0276],[-66.2579,-10.8373,123.2916],[-66.2562,-10.8395,132.2008],[-66.2472,-10.8426,120.1474],[-66.2426,-10.8388,119.477],[-66.2433,-10.837,119.31],[-66.2488,-10.8354,126.4583],[-66.2488,-10.8333,118.0],[-66.2426,-10.8329,125.0801],[-66.2381,-10.8367,126.2493],[-66.2283,-10.8271,125.0071],[-66.2265,-10.827,120.1599],[-66.2249,-10.8298,123.0794],[-66.2275,-10.8356,119.281],[-66.2235,-10.8382,125.9193],[-66.2174,-10.8345,121.3084],[-66.2182,-10.8322,120.6317],[-66.2223,-10.8305,122.0443],[-66.2227,-10.8282,120.8506],[-66.2212,-10.8265,128.4207],[-66.2133,-10.8305,126.3438],[-66.208,-10.8305,121.8449],[-66.2062,-10.8285,119.7983],[-66.209,-10.8223,123.4883],[-66.2064,-10.8211,121.7787],[-66.2031,-10.826599999999999,137.0309],[-66.1992,-10.8277,122.9409],[-66.1937,-10.8239,122.7681],[-66.1936,-10.8161,118.0],[-66.1907,-10.8163,127.2245],[-66.1821,-10.8245,123.381],[-66.174,-10.8203,120.8145],[-66.1695,-10.8146,129.4849],[-66.1619,-10.8176,124.945],[-66.1567,-10.8108,122.8256],[-66.1586,-10.8048,126.9288],[-66.154,-10.802,121.608],[-66.1447,-10.8064,124.6824],[-66.145,-10.8085,131.0961],[-66.1505,-10.8108,126.9398],[-66.1493,-10.8141,120.6002],[-66.1473,-10.8147,124.7165],[-66.1406,-10.8087,122.6451],[-66.1346,-10.811,119.3204],[-66.1268,-10.8063,130.1313],[-66.1243,-10.8132,118.7705],[-66.1176,-10.8151,128.1013],[-66.1181,-10.8106,124.9895],[-66.1239,-10.8047,121.5821],[-66.1189,-10.8018,122.6969],[-66.1067,-10.8054,127.2617],[-66.1017,-10.8105,123.4323],[-66.1004,-10.8158,117.5534],[-66.0981,-10.8143,130.5721],[-66.0982,-10.8046,128.3653],[-66.0966,-10.8023,119.5635],[-66.0933,-10.8028,120.0719],[-66.0944,-10.8108,115.0],[-66.0917,-10.8152,125.1401],[-66.088,-10.8138,116.1122],[-66.0858,-10.808,116.9626],[-66.0864,-10.8036,117.4381],[-66.0833,-10.8024,117.2766],[-66.082,-10.8083,119.78],[-66.0897,-10.8179,138.0814],[-66.0898,-10.8237,134.1996],[-66.0882,-10.8258,119.8977],[-66.0823,-10.8238,116.0244],[-66.0735,-10.8267,126.2696],[-66.0698,-10.8232,119.7472],[-66.071,-10.8203,128.5472],[-66.0774,-10.8146,128.5033],[-66.0775,-10.8124,114.5211],[-66.0743,-10.8091,114.1196],[-66.0685,-10.8087,113.746],[-66.0658,-10.8101,117.6792],[-66.0654,-10.8133,119.3403],[-66.0678,-10.8188,111.0],[-66.0663,-10.8225,115.2073],[-66.0599,-10.8211,113.7021],[-66.0563,-10.815,116.7738],[-66.0488,-10.8159,113.0633],[-66.0466,-10.8212,117.2763],[-66.0448,-10.8219,120.7048],[-66.038,-10.818,125.0222],[-66.0367,-10.8099,116.4343],[-66.0337,-10.81,113.3508],[-66.0287,-10.8162,110.6695],[-66.0268,-10.8166,113.4746],[-66.0179,-10.8131,120.8666],[-66.0103,-10.8131,115.697],[-66.0006,-10.8104,108.0],[-65.9896,-10.8021,108.0],[-65.9758,-10.797,108.0],[-65.9688,-10.7977,108.0],[-65.9354,-10.8135,107.5],[-65.9149,-10.8274,107.5],[-65.9047,-10.8298,107.5],[-65.8811,-10.8305,121.4575],[-65.8597,-10.8355,111.2209],[-65.854,-10.8339,107.5],[-65.8507,-10.8297,107.5],[-65.8498,-10.823,107.5],[-65.8486,-10.7918,107.5],[-65.8518,-10.7844,107.0],[-65.8684,-10.7676,107.0],[-65.8812,-10.7574,107.0],[-65.903,-10.7456,107.0],[-65.9056,-10.7408,107.5431],[-65.9038,-10.7291,107.0],[-65.8878,-10.7015,107.0],[-65.88,-10.6934,107.0],[-65.8742,-10.6904,106.5],[-65.8688,-10.689,106.5],[-65.864,-10.6897,108.0547],[-65.8473,-10.7079,106.5],[-65.8405,-10.718,106.5],[-65.832,-10.7357,106.5],[-65.8271,-10.7418,106.5],[-65.8201,-10.7442,106.5],[-65.8126,-10.7433,106.5],[-65.7877,-10.7306,106.5],[-65.7531,-10.7169,106.0],[-65.7335,-10.7069,106.0],[-65.7196,-10.6951,106.0],[-65.7111,-10.6836,121.8875],[-65.7019,-10.6514,106.0],[-65.7041,-10.6446,106.0],[-65.7246,-10.6119,105.5],[-65.7342,-10.5917,105.5],[-65.7343,-10.5777,105.5],[-65.732,-10.5717,105.5],[-65.7279,-10.5669,105.5],[-65.7232,-10.565,105.5],[-65.7099,-10.5657,105.5],[-65.6836,-10.5642,105.5],[-65.6473,-10.5661,105.5],[-65.6333,-10.5636,105.0],[-65.6245,-10.5577,105.0],[-65.6235,-10.5457,105.0],[-65.6181,-10.5399,105.0],[-65.5872,-10.5368,105.0],[-65.5798,-10.5292,105.0],[-65.5736,-10.5192,105.0],[-65.5554,-10.5078,105.0],[-65.5444,-10.5047,105.0],[-65.536,-10.5042,105.0]]]]}}