{"type": "Feature","bbox": [-67.933,-19.1054,-66.9751,-18.6002],"geometry": {"type": "MultiPolygon","coordinates": [[[[-67.9229,-18.8128,3698.8674],[-67.9293,-18.8146,3693.3425],[-67.9329,-18.8268,3691.1694],[-67.933,-18.8358,3690.0952],[-67.9231,-18.8454,3703.1995],[-67.9156,-18.8425,3688.6523],[-67.911,-18.8665,3687.5312],[-67.9006,-18.887,3684.8687],[-67.9028,-18.9097,3680.0164],[-67.8882,-18.9526,3677.2522],[-67.8485,-18.9885,3674.9268],[-67.8481,-18.9944,3674.2927],[-67.8507,-18.999,3674.1877],[-67.8595,-19.0052,3673.4697],[-67.8641,-19.0039,3671.9719],[-67.8684,-19.0048,3671.6685],[-67.8748,-19.0106,3670.7358],[-67.8796,-19.0208,3670.1848],[-67.8901,-19.0235,3668.5271],[-67.895,-19.0285,3667.9792],[-67.8935,-19.0573,3664.8237],[-67.8801,-19.0501,3666.8037],[-67.875,-19.0501,3666.9287],[-67.8741,-19.0515,3666.4551],[-67.8764,-19.0547,3666.3828],[-67.8722,-19.0587,3665.9224],[-67.8697,-19.0583,3666.2417],[-67.8653,-19.0537,3666.5317],[-67.8556,-19.0549,3666.2966],[-67.8391,-19.0694,3665.1567],[-67.8256,-19.0716,3665.4658],[-67.8222,-19.0698,3665.1357],[-67.8179,-19.0712,3665.2019],[-67.813,-19.0679,3665.0779],[-67.8107,-19.0682,3665.314],[-67.8065,-19.0697,3667.2856],[-67.8013,-19.0751,3666.5259],[-67.7961,-19.0778,3666.9548],[-67.7863,-19.0778,3667.5347],[-67.7716,-19.0721,3668.5256],[-67.753,-19.0712,3671.6826],[-67.7454,-19.0878,3671.5796],[-67.7307,-19.0968,3674.2639],[-67.7052,-19.1042,3672.5898],[-67.6984,-19.1042,3671.3682],[-67.689,-19.0985,3671.6201],[-67.6838,-19.0931,3672.9636],[-67.6773,-19.0934,3671.8394],[-67.6748,-19.091,3671.989],[-67.6745,-19.085,3672.707],[-67.6713,-19.0832,3673.0574],[-67.666,-19.0842,3672.4778],[-67.6592,-19.0714,3673.8545],[-67.65,-19.0689,3672.9578],[-67.6457,-19.0713,3675.9263],[-67.6414,-19.0695,3673.4678],[-67.6389,-19.0703,3673.5498],[-67.6322,-19.0846,3674.187],[-67.6172,-19.0959,3674.5195],[-67.5978,-19.0933,3675.2561],[-67.5902,-19.0908,3674.0813],[-67.5795,-19.0745,3675.2839],[-67.5744,-19.073,3675.8862],[-67.5694,-19.068,3675.813],[-67.5615,-19.0661,3675.8962],[-67.5536,-19.0598,3676.8469],[-67.541,-19.0547,3676.9443],[-67.536,-19.0573,3677.0229],[-67.5288,-19.0553,3677.1255],[-67.5182,-19.0577,3677.113],[-67.5094,-19.0632,3677.4199],[-67.4939,-19.0567,3678.6716],[-67.4849,-19.0565,3679.53],[-67.4797,-19.058,3679.4995],[-67.476,-19.0611,3679.437],[-67.4655,-19.0641,3680.9841],[-67.4622,-19.0619,3680.3691],[-67.4544,-19.0631,3681.4448],[-67.4438,-19.0578,3678.25],[-67.433,-19.0578,3680.5547],[-67.427,-19.0555,3680.5483],[-67.4211,-19.0561,3680.3472],[-67.4126,-19.0534,3680.4685],[-67.409,-19.0568,3682.3613],[-67.401,-19.0602,3681.3179],[-67.3961,-19.0609,3681.8184],[-67.3883,-19.0593,3681.6987],[-67.3755,-19.0633,3681.2188],[-67.3579,-19.0643,3681.0581],[-67.3531,-19.066,3682.1843],[-67.3459,-19.0722,3681.3447],[-67.3362,-19.0765,3684.4058],[-67.3086,-19.0818,3681.5],[-67.3008,-19.0902,3682.6094],[-67.2973,-19.0976,3683.6367],[-67.295,-19.0978,3683.9204],[-67.2852,-19.1054,3685.5044],[-67.276,-19.0999,3714.0024],[-67.2651,-19.1011,3711.6707],[-67.2285,-19.0931,3724.4094],[-67.2187,-19.0862,3720.4143],[-67.1889,-19.0912,3715.7212],[-67.1842,-19.0945,3712.2222],[-67.1648,-19.0805,3699.2534],[-67.1632,-19.0846,3700.3491],[-67.1609,-19.0859,3699.9929],[-67.1394,-19.0832,3688.9568],[-67.1277,-19.0748,3690.1196],[-67.1135,-19.0726,3685.5],[-67.0975,-19.0735,3685.7939],[-67.0727,-19.0903,3685.5],[-67.0531,-19.0903,3685.5],[-67.0504,-19.0796,3685.5],[-67.053,-19.0738,3685.5],[-67.0598,-19.0658,3685.5],[-67.0599,-19.0585,3685.5],[-66.9751,-19.0556,3685.5],[-67.0096,-18.883,3685.5],[-67.0825,-18.7448,3685.5],[-67.1304,-18.7379,3685.5],[-67.1668,-18.7447,3685.5],[-67.2129,-18.7397,3685.5],[-67.2707,-18.7397,3688.0532],[-67.322,-18.7362,3689.4114],[-67.3349,-18.7328,3689.4451],[-67.3532,-18.7225,3691.3828],[-67.367,-18.707,3693.375],[-67.3785,-18.6979,3695.0967],[-67.3837,-18.6947,3695.3926],[-67.4047,-18.6873,3698.397],[-67.4263,-18.6687,3701.5496],[-67.4493,-18.6596,3703.9607],[-67.4686,-18.6483,3707.1851],[-67.4664,-18.6246,3715.4136],[-67.4712,-18.6159,3717.552],[-67.4954,-18.6077,3741.5806],[-67.5084,-18.6002,3740.2668],[-67.5415,-18.6273,3717.844],[-67.5533,-18.6436,3719.3262],[-67.5787,-18.6673,3718.1133],[-67.6179,-18.6832,3725.5151],[-67.6297,-18.6816,3740.6895],[-67.6363,-18.6836,3751.7053],[-67.6649,-18.677,3759.3418],[-67.6843,-18.6822,3781.2163],[-67.6956,-18.6807,3790.9631],[-67.7173,-18.6817,3798.6499],[-67.7278,-18.6994,3740.1162],[-67.7425,-18.7161,3892.887],[-67.7554,-18.7247,3791.1047],[-67.7816,-18.7392,3737.959],[-67.8038,-18.7474,3715.115],[-67.8671,-18.7892,3703.1304],[-67.8786,-18.8004,3701.2136],[-67.9082,-18.8069,3710.5757],[-67.9229,-18.8128,3698.8674]]]]}
,"properties": {"GID_2": "BOL.5.15_2","GID_0": "BOL","country": "Bolivia","GID_1": "BOL.5_1","province": "Oruro","NL_NAME_1": "NA","county": "SurCarangas","VARNAME_2": "NA","NL_NAME_2": "NA","TYPE_2": "Provincia","ENGTYPE_2": "Province","CC_2": "NA","HASC_2": "NA","name": "Sur_Carangas.county","area_km2": 3754.348,"hist_schema_id": "Elevation0-9000","hist_area_km2": {"3675": 974.783,"3700": 1034.336,"3725": 633.521,"3750": 482.581,"3775": 287.458,"3800": 153.508,"3825": 65.093,"3850": 38.566,"3875": 26.026,"3900": 17.237,"3925": 12.521,"3950": 8.869,"3975": 7.907,"4000": 5.78,"4025": 3.753,"4050": 1.726,"4075": 0.682}}}