{"type": "Feature","bbox": [-64.4108,-19.6914,-63.9552,-19.14],"geometry": {"type": "MultiPolygon","coordinates": [[[[-64.3833,-19.1485,2576.4395],[-64.3792,-19.1525,2645.4001],[-64.3731,-19.153,2553.8821],[-64.3684,-19.1591,2398.7605],[-64.3757,-19.1703,2398.6753],[-64.387,-19.173,2581.6887],[-64.389,-19.1749,2603.1914],[-64.3895,-19.1865,2719.3408],[-64.3933,-19.1962,2705.5076],[-64.3925,-19.2058,2705.613],[-64.3968,-19.2134,2794.3379],[-64.396,-19.2232,2594.9722],[-64.406,-19.2284,2425.1128],[-64.4049,-19.232,2413.0742],[-64.4096,-19.2346,2570.5635],[-64.4108,-19.2384,2532.2012],[-64.4081,-19.2466,2579.8887],[-64.404,-19.2744,2538.9661],[-64.4015,-19.2822,2443.9324],[-64.3981,-19.2832,2411.4514],[-64.3983,-19.2885,2390.1528],[-64.3956,-19.295,2392.4766],[-64.4025,-19.2973,2304.9277],[-64.3981,-19.302,2283.8379],[-64.3957,-19.31,2468.7263],[-64.3956,-19.3169,2449.1846],[-64.3925,-19.3228,2479.45],[-64.3926,-19.3276,2522.1667],[-64.3801,-19.3219,2635.356],[-64.3765,-19.3266,2565.9431],[-64.3673,-19.3279,2396.3577],[-64.3618,-19.3325,2289.0034],[-64.3479,-19.3316,2311.458],[-64.3414,-19.3396,2163.9509],[-64.3398,-19.3472,2020.3247],[-64.3407,-19.3606,2129.6641],[-64.3359,-19.3776,2030.0034],[-64.3369,-19.3844,2110.3257],[-64.3459,-19.3904,2122.2949],[-64.337,-19.4001,2147.6426],[-64.3356,-19.4046,2239.2595],[-64.3374,-19.4068,2278.3137],[-64.3408,-19.4077,2292.229],[-64.342,-19.4129,2316.7236],[-64.3342,-19.415,2276.7366],[-64.3329,-19.4172,2300.0769],[-64.333,-19.4235,2277.6943],[-64.3392,-19.4291,2187.2966],[-64.3383,-19.4384,2107.3098],[-64.336,-19.4442,2181.1479],[-64.3327,-19.4454,2253.4492],[-64.3277,-19.4443,2099.7959],[-64.3082,-19.4482,2337.0952],[-64.3019,-19.4414,2276.2573],[-64.2977,-19.4438,2165.7673],[-64.2992,-19.4483,2050.3472],[-64.2926,-19.4531,1939.6827],[-64.2859,-19.4515,1859.6638],[-64.2826,-19.4527,1806.6093],[-64.2835,-19.4615,1934.9796],[-64.2774,-19.4622,1766.1506],[-64.2774,-19.4652,1776.3728],[-64.2746,-19.4645,1854.8301],[-64.2755,-19.4695,1751.6646],[-64.2729,-19.4685,1742.084],[-64.27,-19.4701,1778.3633],[-64.2694,-19.4732,1734.0109],[-64.2723,-19.4808,1724.4438],[-64.2714,-19.4854,1706.9795],[-64.2656,-19.4872,1805.5913],[-64.2642,-19.4928,1706.6417],[-64.2599,-19.496,1715.5425],[-64.2576,-19.5048,1667.1812],[-64.2536,-19.5054,1719.3259],[-64.2533,-19.509,1672.5906],[-64.2484,-19.5102,1655.8433],[-64.2453,-19.5136,1672.2075],[-64.2461,-19.5177,1643.5959],[-64.2421,-19.518,1621.3588],[-64.2396,-19.5254,1686.1089],[-64.2347,-19.53,1599.9617],[-64.2143,-19.5321,1544.8315],[-64.2137,-19.5303,1596.6121],[-64.2058,-19.5273,1491.8506],[-64.2037,-19.5235,1482.4785],[-64.1987,-19.5225,1536.3832],[-64.1964,-19.5246,1584.4211],[-64.1957,-19.5228,1450.8873],[-64.1934,-19.5229,1441.3181],[-64.1923,-19.5203,1445.0012],[-64.1899,-19.5225,1466.7302],[-64.1863,-19.5224,1453.2191],[-64.1875,-19.5261,1398.3552],[-64.1832,-19.5267,1409.201],[-64.1834,-19.5297,1401.0354],[-64.1783,-19.5312,1436.5999],[-64.1785,-19.5373,1585.0869],[-64.1738,-19.5449,2214.679],[-64.1625,-19.5563,2381.416],[-64.1597,-19.5732,2389.7551],[-64.1481,-19.5781,2492.7695],[-64.1437,-19.5866,2447.5581],[-64.1441,-19.5945,2425.7427],[-64.1483,-19.6023,2508.1514],[-64.1474,-19.6115,2291.106],[-64.1519,-19.6222,2309.7913],[-64.1518,-19.6341,2380.9355],[-64.1527,-19.6366,2420.1616],[-64.1584,-19.6381,2465.6545],[-64.1594,-19.6407,2407.6333],[-64.1567,-19.6483,2401.3496],[-64.1545,-19.6493,2377.5918],[-64.1549,-19.6542,2428.9346],[-64.1587,-19.6597,2261.5874],[-64.1651,-19.662,2271.8677],[-64.166,-19.6639,2197.2651],[-64.1631,-19.6738,2392.7004],[-64.1651,-19.6765,2298.2312],[-64.1549,-19.6879,1875.0767],[-64.1449,-19.6914,1561.646],[-64.1273,-19.6849,1507.5841],[-64.1261,-19.6899,1254.3582],[-64.1222,-19.6882,1186.9197],[-64.1175,-19.69,1162.8335],[-64.1091,-19.6884,1132.0276],[-64.0941,-19.69,1330.149],[-64.0799,-19.6888,1835.8461],[-64.0785,-19.683,1718.4792],[-64.0809,-19.6789,1772.8177],[-64.0806,-19.6704,1712.5024],[-64.083,-19.6674,1828.8817],[-64.0804,-19.6541,1578.8865],[-64.079,-19.6291,1506.6986],[-64.0832,-19.611,1132.5699],[-64.0762,-19.6113,1031.0253],[-64.0731,-19.6086,1060.9261],[-64.0726,-19.606,1148.1572],[-64.0695,-19.6078,1033.3076],[-64.0709,-19.6098,1035.1577],[-64.0685,-19.6132,1020.9081],[-64.0651,-19.614,1059.3514],[-64.064,-19.6057,1085.1438],[-64.0682,-19.6068,1024.0352],[-64.0692,-19.605,1068.3519],[-64.0582,-19.602,1021.4864],[-64.062,-19.5996,997.9072],[-64.0612,-19.591,1013.9646],[-64.0592,-19.592,1005.9771],[-64.0585,-19.5957,991.2612],[-64.05,-19.5926,1005.53],[-64.0502,-19.5902,1030.5361],[-64.0528,-19.5884,995.579],[-64.0516,-19.5846,984.2629],[-64.0403,-19.5828,1085.1925],[-64.0378,-19.5847,1003.163],[-64.0298,-19.5852,1016.9477],[-64.011,-19.581,963.7595],[-64.0036,-19.5749,946.7974],[-63.994,-19.5629,1036.2218],[-63.9914,-19.5628,994.6218],[-63.9889,-19.5649,936.2076],[-63.9848,-19.5641,936.2309],[-63.9825,-19.5578,975.1796],[-63.9797,-19.5552,946.4512],[-63.9826,-19.5506,926.4312],[-63.9793,-19.5452,932.9291],[-63.9815,-19.5431,929.4563],[-63.9846,-19.5449,947.0988],[-63.9862,-19.5424,930.4198],[-63.9847,-19.5407,980.1638],[-63.9815,-19.541,923.0519],[-63.9784,-19.5358,917.5126],[-63.9785,-19.5274,926.4117],[-63.9738,-19.5257,1005.8624],[-63.9745,-19.5204,915.4816],[-63.9721,-19.5143,960.0488],[-63.9735,-19.5109,921.3225],[-63.9795,-19.508,914.5659],[-63.9761,-19.5042,1031.2927],[-63.9783,-19.4997,897.3439],[-63.9759,-19.4954,908.6434],[-63.9771,-19.4933,901.9363],[-63.9735,-19.4925,889.7675],[-63.9724,-19.4895,887.5955],[-63.9734,-19.4878,954.7125],[-63.9783,-19.4879,892.8285],[-63.9786,-19.4859,974.6284],[-63.9705,-19.4805,890.7685],[-63.9723,-19.477,891.1074],[-63.9771,-19.477,886.8738],[-63.9775,-19.4759,921.3842],[-63.969,-19.4684,884.272],[-63.9707,-19.4619,895.4151],[-63.97,-19.4606,921.846],[-63.9675,-19.4615,990.4449],[-63.9666,-19.4551,895.3512],[-63.9612,-19.4528,905.8538],[-63.9629,-19.447,872.3603],[-63.962,-19.4444,938.7438],[-63.9562,-19.4423,867.7787],[-63.9552,-19.4405,936.9724],[-63.9572,-19.4376,887.7872],[-63.9601,-19.439,889.5746],[-63.9643,-19.4341,898.0786],[-63.9673,-19.4335,891.411],[-63.9631,-19.4261,924.0537],[-63.9647,-19.4248,865.8737],[-63.9667,-19.4268,890.4225],[-63.9696,-19.4266,881.4406],[-63.9717,-19.4223,869.9021],[-63.9696,-19.419,918.5505],[-63.9753,-19.4167,867.7025],[-63.973,-19.4102,890.6125],[-63.976,-19.4011,921.7111],[-63.9848,-19.3994,844.5375],[-63.9868,-19.3969,879.233],[-63.9877,-19.3873,851.4669],[-63.9863,-19.3875,857.1243],[-63.9838,-19.392,824.8333],[-63.98,-19.3908,836.5786],[-63.9774,-19.3858,827.2935],[-63.98,-19.3826,827.5559],[-63.9867,-19.3823,853.9564],[-63.9852,-19.3709,828.6528],[-63.9808,-19.3718,805.8221],[-63.979,-19.3701,807.5414],[-63.9821,-19.3688,803.5312],[-63.9847,-19.3627,798.9564],[-63.9914,-19.3557,791.2806],[-63.9895,-19.3514,790.9705],[-63.99,-19.3459,869.5616],[-63.9924,-19.3442,840.9589],[-63.9941,-19.3458,784.4319],[-63.9959,-19.3446,809.6357],[-63.9936,-19.3414,781.7139],[-63.9937,-19.3352,814.9453],[-63.9882,-19.336,805.1515],[-63.9923,-19.3266,784.3055],[-63.9919,-19.3243,772.7948],[-63.9878,-19.3216,784.564],[-63.9956,-19.3206,769.7043],[-63.9997,-19.3223,779.5891],[-63.9981,-19.3132,752.7432],[-63.9967,-19.3124,770.8392],[-63.994,-19.3159,749.5715],[-63.9941,-19.312,755.1064],[-63.9957,-19.3082,749.9501],[-63.9993,-19.3095,800.0664],[-64.0029,-19.3058,765.0013],[-64.0008,-19.2942,745.8608],[-64.0038,-19.2869,780.6104],[-64.0027,-19.286,767.2339],[-63.9984,-19.2878,752.7278],[-64.0002,-19.2834,744.6186],[-63.9957,-19.2827,739.7695],[-63.9966,-19.2777,743.1062],[-63.9951,-19.2749,742.9951],[-64.0026,-19.2704,742.9001],[-63.9989,-19.2586,777.4741],[-63.9953,-19.2556,719.8405],[-63.9956,-19.2541,738.0426],[-63.9997,-19.2528,787.9891],[-63.9971,-19.2444,726.3975],[-63.9988,-19.2365,710.3536],[-63.9967,-19.2338,716.4135],[-63.9972,-19.2326,710.3266],[-64.0003,-19.2327,702.8076],[-64.0005,-19.2287,690.5],[-63.9981,-19.2258,740.6583],[-63.9988,-19.2212,733.1664],[-64.0013,-19.217,695.4506],[-64.0045,-19.2154,693.4133],[-64.0033,-19.2138,723.718],[-64.001,-19.2143,684.3125],[-63.9993,-19.2104,687.2557],[-64.0042,-19.2017,677.6911],[-64.0089,-19.2007,679.1097],[-64.0095,-19.1931,673.2078],[-64.0081,-19.1884,694.9044],[-64.013,-19.1833,670.204],[-64.0099,-19.1798,676.0062],[-64.0165,-19.174,661.2655],[-64.0187,-19.1668,727.8454],[-64.024,-19.1645,668.1456],[-64.0225,-19.1567,672.3127],[-64.0346,-19.1559,699.88],[-64.0438,-19.1596,742.1465],[-64.056,-19.1551,751.5778],[-64.0604,-19.1586,790.6002],[-64.066,-19.1584,768.9634],[-64.0684,-19.1568,790.3475],[-64.0708,-19.1594,791.2523],[-64.0788,-19.1613,848.9117],[-64.0835,-19.1652,869.6674],[-64.0869,-19.1647,858.2127],[-64.0861,-19.1677,856.7711],[-64.0919,-19.1657,880.5386],[-64.094,-19.1674,894.0463],[-64.0966,-19.1666,911.6362],[-64.1008,-19.1762,977.9265],[-64.1004,-19.1793,1003.2609],[-64.1038,-19.1833,1090.0416],[-64.1081,-19.1862,1014.7054],[-64.1078,-19.184,992.4614],[-64.1092,-19.1841,1029.6644],[-64.1209,-19.1944,1092.8455],[-64.1238,-19.1954,1108.4783],[-64.1323,-19.1903,1183.8038],[-64.1461,-19.1896,1261.3612],[-64.1482,-19.1881,1244.2513],[-64.1497,-19.1908,1312.4437],[-64.1548,-19.1931,1376.0466],[-64.1559,-19.1972,1463.5461],[-64.1627,-19.1976,1703.3687],[-64.1626,-19.1958,1719.7175],[-64.1644,-19.1956,1787.4113],[-64.1702,-19.198,1987.0555],[-64.1837,-19.1997,2230.688],[-64.2288,-19.2015,2023.9447],[-64.2334,-19.2074,1925.9497],[-64.2328,-19.2141,1825.9167],[-64.2352,-19.2147,1829.3346],[-64.2332,-19.2173,1856.7329],[-64.2342,-19.2193,1883.1241],[-64.2373,-19.2191,1874.5348],[-64.2381,-19.221,1853.8782],[-64.2468,-19.2241,1929.468],[-64.2526,-19.2209,1921.2346],[-64.2515,-19.219,1920.2135],[-64.2529,-19.2169,1910.3888],[-64.2485,-19.2118,1941.7026],[-64.2508,-19.21,1947.6317],[-64.2551,-19.2111,1929.7792],[-64.2547,-19.2057,1988.1871],[-64.2559,-19.2077,1944.6865],[-64.2576,-19.2073,1952.0441],[-64.2601,-19.2025,1957.2009],[-64.2631,-19.2013,1961.2518],[-64.2779,-19.2037,2218.5103],[-64.2742,-19.1947,2090.4597],[-64.2768,-19.1853,2095.2598],[-64.2738,-19.1791,2036.0424],[-64.2709,-19.177,2017.6125],[-64.2736,-19.1768,2021.969],[-64.2737,-19.1749,2031.7888],[-64.2777,-19.1753,2030.5251],[-64.2783,-19.1714,2032.7113],[-64.2906,-19.1764,2109.23],[-64.3077,-19.1797,2267.2046],[-64.3268,-19.176,2248.2715],[-64.3374,-19.1801,2327.7051],[-64.3414,-19.1788,2471.0532],[-64.3387,-19.1656,2527.0996],[-64.342,-19.1564,2291.804],[-64.3401,-19.1489,2417.7075],[-64.3425,-19.1465,2455.0823],[-64.3432,-19.1429,2465.6428],[-64.3465,-19.14,2420.9907],[-64.351,-19.1402,2256.4587],[-64.3575,-19.1454,2316.7441],[-64.3611,-19.1462,2309.1445],[-64.3616,-19.1438,2273.7646],[-64.3833,-19.1485,2576.4395]]]]}
,"properties": {"GID_3": "BOL.1.8.3_2","GID_0": "BOL","country": "Bolivia","GID_1": "BOL.1_1","province": "Chuquisaca","NL_NAME_1": "NA","GID_2": "BOL.1.8_2","county": "Tomina","NL_NAME_2": "NA","city": "Padilla","VARNAME_3": "NA","NL_NAME_3": "NA","TYPE_3": "District","ENGTYPE_3": "Distrito","CC_3": "NA","HASC_3": "NA","name": "Padilla.city","area_km2": 1671.181,"hist_schema_id": "Elevation0-9000","hist_area_km2": {"650": 0.14,"675": 1.422,"700": 1.802,"725": 2.683,"750": 4.004,"775": 5.545,"800": 6.085,"825": 7.025,"850": 8.046,"875": 10.566,"900": 10.726,"925": 11.864,"950": 11.864,"975": 12.264,"1000": 13.522,"1025": 14.401,"1050": 16.236,"1075": 19.596,"1100": 19.474,"1125": 21.113,"1150": 19.272,"1175": 20.072,"1200": 19.493,"1225": 19.872,"1250": 19.811,"1275": 19.052,"1300": 18.713,"1325": 18.712,"1350": 20.592,"1375": 20.713,"1400": 19.652,"1425": 20.493,"1450": 20.695,"1475": 22.235,"1500": 22.475,"1525": 21.815,"1550": 22.216,"1575": 21.497,"1600": 22.377,"1625": 22.936,"1650": 23.236,"1675": 23.156,"1700": 24.518,"1725": 25.098,"1750": 24.679,"1775": 24.518,"1800": 26.759,"1825": 24.739,"1850": 26.359,"1875": 26.0,"1900": 29.221,"1925": 31.021,"1950": 35.482,"1975": 36.483,"2000": 37.843,"2025": 39.544,"2050": 40.905,"2075": 42.747,"2100": 40.548,"2125": 38.009,"2150": 37.13,"2175": 35.731,"2200": 36.654,"2225": 35.595,"2250": 34.255,"2275": 32.876,"2300": 31.937,"2325": 28.254,"2350": 24.834,"2375": 20.53,"2400": 17.509,"2425": 15.747,"2450": 12.407,"2475": 10.204,"2500": 9.184,"2525": 8.284,"2550": 7.704,"2575": 5.842,"2600": 4.902,"2625": 5.222,"2650": 4.301,"2675": 3.321,"2700": 3.241,"2725": 2.46,"2750": 2.4,"2775": 1.86,"2800": 1.3,"2825": 1.28,"2850": 1.0,"2875": 0.7,"2900": 0.6,"2925": 0.6,"2950": 0.4,"2975": 0.42,"3000": 0.26,"3025": 0.2,"3050": 0.1}}}