{"type":"Feature","properties":{"GID_2":"BOL.9.3_2","GID_0":"BOL","country":"Bolivia","GID_1":"BOL.9_1","province":"Tarija","NL_NAME_1":"NA","county":"Cercado","VARNAME_2":"NA","NL_NAME_2":"NA","TYPE_2":"Provincia","ENGTYPE_2":"Province","CC_2":"NA","HASC_2":"NA","name":"Cercado.county"},
"geometry":{"type": "MultiPolygon","coordinates": [[[[-64.3604,-21.8225,956.3826],[-64.3579,-21.8183,967.4279],[-64.3532,-21.8186,962.4106],[-64.3556,-21.8158,1008.9507],[-64.3537,-21.8137,964.864],[-64.3558,-21.8099,1007.9468],[-64.3522,-21.8067,994.2737],[-64.3556,-21.8038,991.2673],[-64.3505,-21.7985,999.7208],[-64.3567,-21.7905,982.8203],[-64.3568,-21.7873,1013.0568],[-64.3618,-21.7796,1022.5225],[-64.3616,-21.7772,996.2243],[-64.3637,-21.7764,995.2427],[-64.3645,-21.7737,1021.4327],[-64.3686,-21.7726,1004.7065],[-64.3667,-21.7689,1017.9962],[-64.3629,-21.7666,1016.2386],[-64.3631,-21.7624,1038.9039],[-64.3657,-21.7588,1041.4702],[-64.3625,-21.7512,1040.3464],[-64.3644,-21.7467,1038.8513],[-64.3611,-21.7423,1061.3683],[-64.3617,-21.7377,1059.9211],[-64.3579,-21.7355,1075.8911],[-64.3571,-21.7324,1071.6166],[-64.3586,-21.7325,1071.6166],[-64.3584,-21.7309,1080.1439],[-64.3554,-21.7305,1071.2361],[-64.3579,-21.7279,1130.3538],[-64.3551,-21.726,1124.5135],[-64.3555,-21.7237,1142.1895],[-64.353,-21.7223,1156.5787],[-64.3523,-21.7178,1113.8605],[-64.3489,-21.715,1124.3739],[-64.345,-21.7076,1140.1566],[-64.3489,-21.7012,1156.4546],[-64.3503,-21.6826,1344.7749],[-64.3517,-21.6798,1316.9353],[-64.3483,-21.6705,1379.7565],[-64.3451,-21.6679,1431.6222],[-64.347,-21.6629,1521.7529],[-64.3458,-21.6472,1637.4257],[-64.3409,-21.639,1856.9873],[-64.3413,-21.6355,1912.7067],[-64.3506,-21.619,2232.5752],[-64.329,-21.5922,2349.0645],[-64.3259,-21.5781,2466.9944],[-64.3319,-21.5533,2335.8906],[-64.3643,-21.5244,2622.1353],[-64.3673,-21.519,2528.1021],[-64.3655,-21.5065,2645.6987],[-64.3609,-21.5,2495.7954],[-64.3628,-21.4822,2854.0718],[-64.382,-21.4691,2907.7168],[-64.3852,-21.4566,2798.0386],[-64.3911,-21.4519,2703.6257],[-64.4047,-21.4491,2772.3792],[-64.4123,-21.4699,2457.8682],[-64.4161,-21.4686,2619.9097],[-64.4206,-21.4709,2568.5144],[-64.425,-21.4703,2437.259],[-64.4321,-21.4615,2379.2117],[-64.4327,-21.4466,2575.0474],[-64.4272,-21.4399,2634.8005],[-64.4277,-21.4353,2623.3521],[-64.4227,-21.4215,2637.3416],[-64.4166,-21.422,2573.4614],[-64.4121,-21.4169,2618.0479],[-64.4061,-21.4164,2496.3223],[-64.4088,-21.4108,2572.4087],[-64.4063,-21.4083,2635.0469],[-64.4089,-21.4058,2561.8223],[-64.4088,-21.404,2557.6387],[-64.407,-21.4041,2576.689],[-64.403,-21.3998,2617.449],[-64.3993,-21.3995,2673.3335],[-64.4012,-21.3958,2668.5356],[-64.3976,-21.3955,2706.7639],[-64.3973,-21.3874,2766.3618],[-64.3678,-21.3861,3045.7402],[-64.3548,-21.3656,2975.7759],[-64.3601,-21.3608,3050.7185],[-64.3616,-21.3515,3196.7012],[-64.3581,-21.3455,3325.6648],[-64.3576,-21.3361,3234.0842],[-64.3538,-21.3338,3209.6086],[-64.354,-21.3249,3308.0938],[-64.3495,-21.3231,3321.5237],[-64.3464,-21.3129,3266.9348],[-64.3585,-21.318,3185.355],[-64.3593,-21.32,3141.5825],[-64.3781,-21.3212,2485.084],[-64.3827,-21.3247,2396.792],[-64.3885,-21.3227,2343.1499],[-64.3934,-21.324,2308.6338],[-64.399,-21.3218,2225.0137],[-64.4009,-21.3247,2145.2603],[-64.4031,-21.3242,2252.197],[-64.4025,-21.3267,2109.3345],[-64.4082,-21.3266,2077.2856],[-64.412,-21.3303,2045.4728],[-64.4149,-21.3309,2026.5192],[-64.4188,-21.3304,1981.0695],[-64.4199,-21.328,1973.0372],[-64.4226,-21.328,1953.2568],[-64.4236,-21.3255,1925.7369],[-64.4322,-21.3208,1867.8821],[-64.4375,-21.3111,1786.9194],[-64.4371,-21.3089,1799.5996],[-64.4406,-21.3156,1836.9331],[-64.4462,-21.3203,1885.8365],[-64.4498,-21.3205,2007.7517],[-64.4539,-21.3261,1972.9612],[-64.4634,-21.3271,2058.5537],[-64.4673,-21.3445,2275.584],[-64.4742,-21.347,2339.1138],[-64.4844,-21.3405,2462.957],[-64.4927,-21.3414,2644.3257],[-64.5034,-21.3324,2575.3303],[-64.5204,-21.327,2519.0664],[-64.535,-21.3271,2763.8354],[-64.5429,-21.3118,2970.7227],[-64.5442,-21.3059,2889.05],[-64.5413,-21.2966,2931.532],[-64.5474,-21.2816,2940.3262],[-64.5553,-21.2812,2876.1987],[-64.566,-21.286,2953.1953],[-64.5878,-21.2864,3248.6924],[-64.5893,-21.2824,3244.7048],[-64.5856,-21.2592,3279.2468],[-64.5814,-21.2477,3034.0376],[-64.5871,-21.2395,3182.6665],[-64.6006,-21.2402,2553.3875],[-64.6087,-21.2366,2207.1787],[-64.612,-21.2371,2109.1304],[-64.6107,-21.2416,2129.603],[-64.6128,-21.2468,2163.1042],[-64.6211,-21.2549,2542.6638],[-64.6225,-21.2663,2859.6121],[-64.6324,-21.2746,3120.2046],[-64.6307,-21.2873,2960.6804],[-64.6234,-21.3025,2961.0879],[-64.6248,-21.3212,3137.4968],[-64.6363,-21.3232,2905.8398],[-64.6411,-21.3257,2739.3052],[-64.639,-21.3298,2685.335],[-64.6408,-21.3438,2491.5344],[-64.6467,-21.3466,2485.8616],[-64.6502,-21.3677,2408.4333],[-64.6496,-21.3746,2237.5715],[-64.652,-21.3756,2226.2559],[-64.6564,-21.3847,2180.7637],[-64.6657,-21.3837,2203.9363],[-64.6772,-21.3883,2131.7534],[-64.6847,-21.3854,2135.293],[-64.6986,-21.3898,2089.7397],[-64.7115,-21.3981,2063.5735],[-64.7131,-21.4037,2058.9492],[-64.7108,-21.4164,2037.0701],[-64.7116,-21.4209,2028.09],[-64.7169,-21.4283,2012.5902],[-64.7176,-21.432,2006.318],[-64.7264,-21.4436,1986.1741],[-64.7283,-21.4499,1978.5216],[-64.7317,-21.4518,1972.7405],[-64.7329,-21.4553,1968.5334],[-64.7399,-21.4605,1969.5758],[-64.7448,-21.4671,1947.9475],[-64.7518,-21.4697,1939.4253],[-64.7552,-21.4779,1933.2571],[-64.7602,-21.5001,1934.6774],[-64.7728,-21.5008,1972.1454],[-64.7821,-21.5086,1992.9438],[-64.7798,-21.5161,2062.2969],[-64.7795,-21.5253,2228.5706],[-64.7868,-21.5305,2299.563],[-64.7906,-21.5395,2400.1199],[-64.7904,-21.5383,2400.1199],[-64.7961,-21.5404,2354.1577],[-64.7983,-21.5443,2367.9199],[-64.8027,-21.5461,2401.4336],[-64.804,-21.5502,2546.2607],[-64.8101,-21.5533,2519.4768],[-64.8116,-21.5578,2524.3384],[-64.8265,-21.5669,2728.7854],[-64.8358,-21.5624,2790.8335],[-64.8505,-21.569,3019.9089],[-64.8529,-21.5727,2995.8438],[-64.8638,-21.5713,3160.7832],[-64.8763,-21.5743,3501.7983],[-64.8783,-21.5815,3428.1216],[-64.8859,-21.5849,3553.8716],[-64.8967,-21.5846,3794.8789],[-64.9124,-21.581,3958.4285],[-64.9223,-21.6049,3839.7783],[-64.9334,-21.606,4210.3057],[-64.9344,-21.6088,4266.9146],[-64.9558,-21.6083,3743.6497],[-64.9539,-21.6205,3791.0015],[-64.958,-21.6223,3834.0129],[-64.965,-21.6343,3950.926],[-64.9671,-21.6453,4150.7275],[-64.9663,-21.6495,4221.1851],[-64.9704,-21.6544,4432.2871],[-64.9794,-21.6567,4534.915],[-64.9796,-21.6593,4599.3843],[-64.9752,-21.664,4347.3203],[-64.9838,-21.6836,4044.5405],[-64.9838,-21.6908,4141.5771],[-64.9862,-21.6964,4163.9141],[-64.9819,-21.7113,3892.0066],[-64.9798,-21.7135,3896.6025],[-64.9798,-21.7186,4048.8975],[-64.9952,-21.7267,4138.2397],[-64.9978,-21.735,3937.1438],[-64.9977,-21.7461,3812.0745],[-64.9935,-21.7494,3854.074],[-64.9918,-21.7536,3920.291],[-64.9937,-21.7599,4088.1685],[-64.9932,-21.7646,4114.7842],[-64.9849,-21.7832,4301.4839],[-64.9733,-21.7777,3590.1694],[-64.9717,-21.774,3562.3176],[-64.9539,-21.7773,3326.9314],[-64.9461,-21.7751,3441.2788],[-64.9292,-21.7571,3198.9268],[-64.915,-21.7577,2638.6836],[-64.9041,-21.7539,2356.4946],[-64.8853,-21.7628,2220.4419],[-64.8761,-21.7581,2243.6504],[-64.8698,-21.7581,2259.3777],[-64.8663,-21.7562,2301.9241],[-64.8604,-21.7395,2236.959],[-64.8547,-21.7342,2245.7439],[-64.8569,-21.7305,2187.7556],[-64.8561,-21.7264,2155.5454],[-64.8636,-21.7207,2105.1692],[-64.8528,-21.7011,2144.8762],[-64.841,-21.7062,2016.09],[-64.8213,-21.7093,2018.7239],[-64.8071,-21.7034,2255.8276],[-64.7868,-21.699,2402.6831],[-64.7839,-21.6932,2339.5491],[-64.7806,-21.6918,2271.5056],[-64.7801,-21.6883,2279.2119],[-64.7711,-21.6817,2247.3762],[-64.7671,-21.6711,2248.4707],[-64.7626,-21.6684,2324.6948],[-64.7548,-21.6576,2286.2612],[-64.753,-21.6534,2318.019],[-64.7542,-21.6511,2377.1255],[-64.7522,-21.6461,2279.2002],[-64.7525,-21.6412,2166.3699],[-64.7506,-21.639,2158.4478],[-64.7402,-21.6375,2211.187],[-64.7377,-21.6395,2152.6841],[-64.7371,-21.6435,2089.3784],[-64.7328,-21.6443,2158.2007],[-64.7294,-21.6482,2215.5696],[-64.7214,-21.6471,2175.7627],[-64.7154,-21.6437,2217.7739],[-64.7095,-21.6466,2365.2141],[-64.7043,-21.6416,2286.1074],[-64.7001,-21.6309,2230.7886],[-64.6966,-21.6297,2252.8713],[-64.6955,-21.6245,2248.8884],[-64.6933,-21.6212,2188.6501],[-64.69,-21.62,2200.5435],[-64.6843,-21.6102,2165.0967],[-64.6641,-21.6106,1795.8279],[-64.6614,-21.6171,1777.9589],[-64.655,-21.6151,1766.0486],[-64.6516,-21.6186,1759.6625],[-64.6482,-21.6268,1766.0746],[-64.648,-21.632,1747.7064],[-64.6457,-21.6347,1764.217],[-64.642,-21.6325,1775.6459],[-64.6438,-21.627,1761.2078],[-64.6312,-21.6282,1782.3516],[-64.6201,-21.6165,1814.0939],[-64.6155,-21.6151,1819.359],[-64.6101,-21.6151,1838.7206],[-64.6027,-21.6188,1850.9325],[-64.5916,-21.617,1868.4977],[-64.5914,-21.619,1876.86],[-64.5889,-21.6198,1898.3008],[-64.5779,-21.6187,1958.384],[-64.5754,-21.6226,1909.3196],[-64.542,-21.6326,2151.4783],[-64.5275,-21.6412,2614.8403],[-64.5167,-21.6502,2372.3301],[-64.5149,-21.6552,2296.0239],[-64.5042,-21.662,2171.771],[-64.5031,-21.6655,2150.6206],[-64.4964,-21.6675,2129.3088],[-64.4917,-21.6733,2243.2778],[-64.4924,-21.6743,2243.2778],[-64.4959,-21.6727,2119.3796],[-64.4952,-21.6753,2085.4126],[-64.4974,-21.6764,2068.9297],[-64.4945,-21.6898,1984.2047],[-64.4883,-21.6906,1937.276],[-64.4885,-21.6888,1972.6133],[-64.4903,-21.6887,1943.576],[-64.4884,-21.688,1972.6133],[-64.4894,-21.6855,2019.6393],[-64.4848,-21.6871,1937.9338],[-64.4851,-21.6888,1899.3024],[-64.4826,-21.6903,1883.3347],[-64.4835,-21.6919,1864.3708],[-64.4858,-21.6905,1871.3042],[-64.485,-21.6928,1818.8269],[-64.4866,-21.6938,1854.9993],[-64.4844,-21.6965,1859.6372],[-64.4938,-21.7041,2081.1475],[-64.4991,-21.7131,2465.0159],[-64.5075,-21.7427,2482.0071],[-64.5099,-21.7568,2348.9941],[-64.5067,-21.7647,2495.4084],[-64.5131,-21.7734,2597.6145],[-64.513,-21.7771,2617.7542],[-64.5089,-21.7787,2430.658],[-64.4966,-21.7772,2311.4971],[-64.4917,-21.7815,1826.2108],[-64.4941,-21.8003,1423.4172],[-64.4986,-21.8076,1384.4568],[-64.4967,-21.8206,1310.3069],[-64.4905,-21.8255,1321.2493],[-64.493,-21.8313,1280.068],[-64.4986,-21.8357,1242.238],[-64.4971,-21.8411,1238.7523],[-64.5015,-21.857,1206.5242],[-64.4983,-21.8622,1176.717],[-64.4896,-21.864,1170.5975],[-64.488,-21.8675,1134.0803],[-64.4852,-21.8681,1127.0079],[-64.4776,-21.8614,1121.8123],[-64.4739,-21.8615,1130.558],[-64.4712,-21.8641,1101.0366],[-64.4568,-21.8635,1074.6515],[-64.4494,-21.8607,1064.7395],[-64.4337,-21.8495,1072.0177],[-64.4169,-21.8238,1014.8641],[-64.4075,-21.8134,989.4493],[-64.3991,-21.8075,981.2546],[-64.3903,-21.8056,983.5787],[-64.3839,-21.807,968.5248],[-64.3767,-21.8063,963.2839],[-64.3693,-21.8153,948.7118],[-64.3654,-21.8168,944.6302],[-64.3604,-21.8225,956.3826]]]]}}