{"type":"Feature","properties":{"GID_3":"BOL.4.21.4_2","GID_0":"BOL","country":"Bolivia","GID_1":"BOL.4_1","province":"LaPaz","NL_NAME_1":"NA","GID_2":"BOL.4.21_2","county":"SudYungas","NL_NAME_2":"NA","city":"PalosBlancos","VARNAME_3":"NA","NL_NAME_3":"NA","TYPE_3":"District","ENGTYPE_3":"Distrito","CC_3":"NA","HASC_3":"NA","name":"Palos_Blancos.city"},
"geometry":{"type": "MultiPolygon","coordinates": [[[[-67.4285,-14.9222,263.4996],[-67.4301,-14.9228,257.8801],[-67.4302,-14.929,275.7767],[-67.4326,-14.928,269.1828],[-67.433,-14.9248,267.1616],[-67.4372,-14.9271,267.7992],[-67.4372,-14.932,276.9323],[-67.4399,-14.9344,283.4192],[-67.4392,-14.9363,284.8132],[-67.4415,-14.9369,273.2263],[-67.4408,-14.9401,278.7952],[-67.4464,-14.9411,274.4544],[-67.4483,-14.9394,274.2292],[-67.4473,-14.9358,293.337],[-67.4505,-14.9322,282.4122],[-67.4573,-14.9323,282.2123],[-67.4593,-14.934,277.5863],[-67.4615,-14.9316,279.759],[-67.4696,-14.9328,294.6223],[-67.4698,-14.9366,288.248],[-67.4728,-14.9363,284.9122],[-67.4755,-14.9433,283.8179],[-67.4824,-14.9481,291.8796],[-67.4814,-14.9519,290.3074],[-67.483,-14.9517,287.5979],[-67.4844,-14.9543,289.0946],[-67.4827,-14.9541,289.0946],[-67.4838,-14.9565,295.6158],[-67.482,-14.9557,298.3387],[-67.4801,-14.9583,302.9794],[-67.4819,-14.959,293.2101],[-67.4799,-14.9613,306.9209],[-67.4815,-14.9682,298.8604],[-67.4797,-14.9686,308.0813],[-67.4806,-14.9742,300.6245],[-67.4791,-14.9779,307.9192],[-67.4841,-14.9804,303.9776],[-67.4822,-14.988,315.0927],[-67.4849,-14.9887,328.0946],[-67.4843,-14.9905,313.2956],[-67.4877,-14.9931,313.6428],[-67.4873,-14.9953,314.7906],[-67.4847,-14.9964,322.847],[-67.4842,-15.0039,335.9768],[-67.4893,-15.0102,342.7084],[-67.4877,-15.0126,345.7372],[-67.4918,-15.0164,358.617],[-67.4906,-15.0205,379.9464],[-67.4937,-15.0234,381.8423],[-67.4969,-15.0236,392.3138],[-67.4982,-15.0258,406.9088],[-67.5021,-15.0258,432.2675],[-67.5091,-15.0364,798.0179],[-67.5196,-15.0437,1095.5374],[-67.5372,-15.0649,953.3875],[-67.5697,-15.0821,1936.5361],[-67.5805,-15.0839,1680.14],[-67.5842,-15.0913,1487.4323],[-67.6495,-15.1065,373.204],[-67.664,-15.1237,274.251],[-67.6583,-15.1261,279.1031],[-67.6529,-15.1372,275.5],[-67.6281,-15.1592,280.0],[-67.6079,-15.1878,287.449],[-67.5911,-15.1987,290.2054],[-67.5845,-15.2061,297.6369],[-67.5816,-15.2055,297.7977],[-67.5765,-15.1989,297.4763],[-67.5727,-15.1989,296.4281],[-67.5607,-15.2097,294.4758],[-67.5463,-15.2092,299.2906],[-67.5417,-15.2116,298.0429],[-67.5357,-15.2248,311.2625],[-67.5396,-15.2303,299.5],[-67.5408,-15.2419,301.9336],[-67.5459,-15.2469,315.8307],[-67.5467,-15.2501,303.8942],[-67.5461,-15.2547,320.9092],[-67.543,-15.2585,307.3409],[-67.5316,-15.262,305.7778],[-67.5221,-15.2569,309.5014],[-67.5154,-15.2698,309.3472],[-67.5077,-15.2759,310.7454],[-67.5026,-15.2759,314.7341],[-67.5002,-15.2746,322.4102],[-67.4982,-15.27,310.0],[-67.4943,-15.2698,310.25],[-67.4859,-15.2713,316.4393],[-67.4723,-15.2802,315.4162],[-67.471,-15.2863,320.4587],[-67.4725,-15.2898,316.0785],[-67.4798,-15.2952,316.4173],[-67.4811,-15.3083,317.0],[-67.4845,-15.3146,390.4082],[-67.4974,-15.3227,324.5107],[-67.5023,-15.3214,327.8754],[-67.5038,-15.3225,340.3802],[-67.4985,-15.339,346.0867],[-67.4972,-15.3484,386.9061],[-67.4939,-15.3526,328.7493],[-67.4902,-15.3626,333.839],[-67.5085,-15.3708,335.656],[-67.5146,-15.3709,347.2767],[-67.513,-15.3811,335.3697],[-67.5237,-15.3918,337.0],[-67.5248,-15.3976,338.6039],[-67.5269,-15.3989,339.2662],[-67.5238,-15.4,351.4362],[-67.5192,-15.3968,345.5246],[-67.5105,-15.3948,342.8558],[-67.5057,-15.4062,341.0],[-67.4854,-15.4134,347.2862],[-67.4845,-15.4167,356.9802],[-67.4881,-15.423,354.89],[-67.4895,-15.4324,345.5],[-67.4875,-15.4391,351.1107],[-67.4817,-15.4385,361.763],[-67.4781,-15.4322,349.1632],[-67.4731,-15.429,349.1083],[-67.4652,-15.4313,360.5133],[-67.4671,-15.4353,356.769],[-67.4735,-15.4408,354.4674],[-67.4738,-15.4437,353.2826],[-67.4725,-15.4488,353.3535],[-67.4684,-15.4535,358.7236],[-67.468,-15.4572,360.7507],[-67.464,-15.461,357.0],[-67.4628,-15.4768,363.1848],[-67.4599,-15.4856,368.7821],[-67.458,-15.4869,373.7016],[-67.4511,-15.4853,362.7011],[-67.434,-15.4935,367.924],[-67.4282,-15.4945,367.952],[-67.4257,-15.4971,364.4146],[-67.4265,-15.5032,371.3883],[-67.4335,-15.507,393.069],[-67.4355,-15.513,380.7047],[-67.4345,-15.5169,365.0],[-67.4298,-15.5198,385.2832],[-67.4229,-15.5211,368.75],[-67.3982,-15.5206,375.8409],[-67.3952,-15.5251,380.8279],[-67.3955,-15.5375,381.6881],[-67.3863,-15.5519,379.2565],[-67.3758,-15.5607,393.4794],[-67.3627,-15.5661,383.7747],[-67.3547,-15.5642,392.8135],[-67.3469,-15.5704,390.507],[-67.3398,-15.572,395.7277],[-67.3302,-15.5707,396.6862],[-67.3233,-15.5735,391.0],[-67.321,-15.5706,393.5705],[-67.3055,-15.5675,398.8434],[-67.3028,-15.5691,395.6365],[-67.3009,-15.5733,400.8452],[-67.2869,-15.5839,402.7684],[-67.2738,-15.583,402.839],[-67.2637,-15.5898,416.2531],[-67.2245,-15.6044,418.556],[-67.2211,-15.6136,419.6368],[-67.2178,-15.6169,418.4827],[-67.2134,-15.6166,420.013],[-67.2076,-15.6125,417.5378],[-67.2048,-15.6133,418.0787],[-67.204,-15.6155,415.5476],[-67.2071,-15.6201,426.105],[-67.2058,-15.6238,421.9019],[-67.188,-15.634,423.0269],[-67.1813,-15.64,425.4972],[-67.1677,-15.6421,429.7243],[-67.1527,-15.6483,430.2028],[-67.1491,-15.6474,431.3449],[-67.1454,-15.6485,429.7813],[-67.1383,-15.6619,436.3929],[-67.1378,-15.6811,446.1322],[-67.134,-15.692,444.1495],[-67.136,-15.7008,450.1567],[-67.1342,-15.7056,451.5723],[-67.1367,-15.7094,454.3548],[-67.134,-15.7144,455.8205],[-67.1414,-15.723,460.1931],[-67.1393,-15.737,471.3796],[-67.1451,-15.7397,489.2397],[-67.1533,-15.7393,487.7592],[-67.1609,-15.7523,490.9019],[-67.1653,-15.754,490.1105],[-67.1606,-15.7626,530.455],[-67.1611,-15.768,607.5287],[-67.1573,-15.772,623.5109],[-67.1585,-15.7777,634.8947],[-67.1544,-15.7854,677.4048],[-67.1509,-15.7848,684.5681],[-67.1407,-15.7917,758.4515],[-67.1383,-15.7913,748.912],[-67.1385,-15.7928,748.912],[-67.1335,-15.7979,797.7932],[-67.1304,-15.799,831.9564],[-67.1304,-15.8029,817.3766],[-67.1256,-15.8092,866.7215],[-67.1034,-15.8201,1216.2758],[-67.1008,-15.8271,1104.9535],[-67.0963,-15.8321,1024.1471],[-67.0833,-15.8378,862.076],[-67.0831,-15.8404,875.2838],[-67.0797,-15.8447,908.6338],[-67.08,-15.8518,937.7897],[-67.0774,-15.8515,929.9896],[-67.0813,-15.8569,979.4836],[-67.0773,-15.8604,991.9932],[-67.0608,-15.8624,926.4979],[-67.0589,-15.868,1039.9106],[-67.0559,-15.8703,1090.3866],[-67.0337,-15.9101,1467.4814],[-67.0213,-15.9206,1637.8135],[-67.0095,-15.9252,1646.895],[-66.9986,-15.933,1428.2291],[-66.9886,-15.9364,1245.574],[-66.9794,-15.936,1108.2703],[-66.9731,-15.9272,1045.0858],[-66.9738,-15.9235,1027.8021],[-66.9681,-15.9147,949.8329],[-66.9684,-15.9124,947.6508],[-66.9641,-15.9139,907.8623],[-66.9507,-15.9073,789.2772],[-66.9412,-15.896,697.4114],[-66.9407,-15.8929,717.9615],[-66.9333,-15.8874,657.7743],[-66.9313,-15.8816,637.8068],[-66.9322,-15.8778,628.1064],[-66.9294,-15.876,612.1442],[-66.9273,-15.8692,596.8967],[-66.9292,-15.8664,585.2059],[-66.93,-15.8598,592.3266],[-66.9319,-15.8585,601.6592],[-66.9264,-15.8535,573.2316],[-66.9248,-15.8431,519.6599],[-66.9223,-15.8413,516.3086],[-66.9224,-15.8373,505.2701],[-66.9199,-15.837,498.2405],[-66.9135,-15.8452,501.94],[-66.9082,-15.8472,505.5334],[-66.9065,-15.8427,521.4273],[-66.9003,-15.8352,582.3257],[-66.8954,-15.8206,644.2667],[-66.8928,-15.8203,650.4168],[-66.8908,-15.8159,671.9509],[-66.8835,-15.8088,748.1306],[-66.8819,-15.8089,748.1306],[-66.8737,-15.7964,875.1456],[-66.8641,-15.7915,1025.4271],[-66.8605,-15.7831,1228.2673],[-66.8485,-15.7884,1346.3987],[-66.8368,-15.7967,1619.9581],[-66.8337,-15.7951,1629.7548],[-66.8304,-15.7905,1525.5067],[-66.8262,-15.7886,1367.6958],[-66.8123,-15.7861,1155.6016],[-66.8128,-15.7822,1135.6075],[-66.8093,-15.7799,1097.9294],[-66.8069,-15.7804,1095.0247],[-66.8041,-15.7839,1094.7245],[-66.8027,-15.7826,1083.371],[-66.8003,-15.7848,1092.0889],[-66.7954,-15.7851,1097.2786],[-66.8735,-15.694,1340.0522],[-66.8897,-15.6625,1353.5634],[-66.9069,-15.6402,1441.1306],[-66.9044,-15.6271,1262.7471],[-66.9067,-15.6212,1128.0793],[-66.904,-15.619,1038.1157],[-66.9029,-15.6198,1062.9915],[-66.8992,-15.6152,1013.6117],[-66.8996,-15.6041,982.1774],[-66.9027,-15.6036,958.3192],[-66.9042,-15.5997,988.9921],[-66.9067,-15.5984,945.2081],[-66.9071,-15.5936,933.5327],[-66.9111,-15.5919,915.4448],[-66.9124,-15.5874,938.9955],[-66.9112,-15.5858,950.2737],[-66.9147,-15.5847,897.0096],[-66.9174,-15.58,887.0343],[-66.9197,-15.579,889.3172],[-66.9188,-15.5768,926.1899],[-66.9231,-15.5752,877.9337],[-66.9217,-15.5723,905.2577],[-66.9235,-15.5688,868.5062],[-66.9289,-15.5672,865.1298],[-66.9309,-15.5684,869.8575],[-66.9324,-15.5657,858.8346],[-66.9346,-15.5656,856.5322],[-66.9345,-15.5609,873.065],[-66.9366,-15.5591,851.3264],[-66.9333,-15.5539,852.1287],[-66.9311,-15.5537,884.7003],[-66.9318,-15.5515,849.2024],[-66.9338,-15.5492,860.6566],[-66.9369,-15.5486,850.3956],[-66.9364,-15.5462,884.2563],[-66.9411,-15.5412,844.1201],[-66.9431,-15.5353,864.0459],[-66.9462,-15.5343,843.2872],[-66.9473,-15.5313,863.8938],[-66.9496,-15.5324,839.448],[-66.9497,-15.5258,924.3752],[-66.9545,-15.5238,845.6972],[-66.9565,-15.5253,847.1938],[-66.9559,-15.5222,848.2591],[-66.9591,-15.5195,838.4162],[-66.959,-15.5158,852.2405],[-66.9628,-15.5111,846.5596],[-66.9623,-15.5068,836.8031],[-66.9657,-15.5084,856.4875],[-66.9746,-15.4995,847.4404],[-66.9781,-15.5019,836.064],[-66.9785,-15.4976,861.1321],[-66.9854,-15.4973,834.0146],[-66.9864,-15.495,819.8839],[-66.9839,-15.4931,846.8913],[-66.9884,-15.4896,816.9198],[-66.9921,-15.4903,819.8781],[-66.9933,-15.4863,816.6397],[-67.001,-15.487,805.6245],[-67.0028,-15.4851,811.5104],[-67.0031,-15.4812,809.9509],[-67.0015,-15.4792,816.2557],[-67.0025,-15.4766,806.1899],[-67.0078,-15.4766,805.6083],[-67.0135,-15.4719,805.9373],[-67.0159,-15.4728,802.418],[-67.0218,-15.4661,824.1549],[-67.0254,-15.4676,800.5729],[-67.026,-15.4639,807.3124],[-67.0286,-15.4644,817.6761],[-67.0276,-15.4616,833.5151],[-67.0306,-15.4626,797.8173],[-67.0323,-15.459,810.3668],[-67.0372,-15.4587,808.4898],[-67.0358,-15.4573,835.0126],[-67.0366,-15.4554,803.941],[-67.0437,-15.4544,802.4236],[-67.0434,-15.453,802.4236],[-67.0399,-15.4525,810.8292],[-67.04,-15.4499,814.0557],[-67.0435,-15.45,801.4017],[-67.0467,-15.4464,791.8619],[-67.0473,-15.4491,785.1028],[-67.0505,-15.4506,781.7483],[-67.0518,-15.445,785.4086],[-67.0554,-15.4464,791.1558],[-67.0619,-15.4441,777.4563],[-67.0638,-15.4417,779.9255],[-67.0592,-15.442,769.2957],[-67.0589,-15.4409,769.9521],[-67.0659,-15.4398,767.988],[-67.0654,-15.4374,755.813],[-67.0701,-15.4332,761.0789],[-67.0671,-15.431,745.1462],[-67.0702,-15.428,738.0122],[-67.081,-15.4275,738.6093],[-67.0806,-15.4239,753.726],[-67.0844,-15.4226,709.7112],[-67.0866,-15.4187,713.6088],[-67.0862,-15.4145,704.6084],[-67.0845,-15.4136,717.1802],[-67.087,-15.4114,701.9775],[-67.0888,-15.4123,707.7643],[-67.0931,-15.4107,683.7669],[-67.0907,-15.4072,687.3599],[-67.0957,-15.4071,686.4031],[-67.0966,-15.4109,705.2238],[-67.1004,-15.4112,664.7976],[-67.0997,-15.407,690.8852],[-67.101,-15.4048,661.514],[-67.1045,-15.4056,654.6577],[-67.1065,-15.3994,654.1863],[-67.1108,-15.4004,651.1413],[-67.1127,-15.3986,645.9719],[-67.1129,-15.3957,642.8851],[-67.1098,-15.3946,681.8528],[-67.1104,-15.3924,636.604],[-67.1183,-15.3933,629.5207],[-67.1155,-15.3902,661.5486],[-67.1165,-15.3871,640.8322],[-67.1058,-15.3718,660.7699],[-67.1056,-15.3668,636.8204],[-67.103,-15.3626,555.2589],[-67.0995,-15.3602,551.0856],[-67.0945,-15.3609,545.2546],[-67.0937,-15.3558,543.4729],[-67.0886,-15.3529,558.5059],[-67.0883,-15.3454,520.8903],[-67.0833,-15.3374,506.7304],[-67.0841,-15.3274,493.8846],[-67.0861,-15.3223,488.2331],[-67.0807,-15.3212,529.8142],[-67.0814,-15.3145,479.8404],[-67.0823,-15.3122,489.9193],[-67.0845,-15.3116,480.6831],[-67.0861,-15.3053,475.05],[-67.09,-15.3009,485.2907],[-67.1021,-15.3005,476.3684],[-67.106,-15.296,485.1989],[-67.1044,-15.2901,476.3631],[-67.109,-15.2898,492.4612],[-67.1143,-15.2794,472.8745],[-67.1184,-15.2771,456.3373],[-67.1256,-15.2772,454.7122],[-67.1269,-15.2738,448.0398],[-67.1357,-15.2747,482.4374],[-67.1342,-15.271,440.8116],[-67.1298,-15.272,445.2988],[-67.1293,-15.2696,444.36],[-67.1322,-15.2629,459.2693],[-67.1374,-15.2648,447.4423],[-67.1375,-15.2596,425.9264],[-67.1339,-15.2589,429.2162],[-67.1325,-15.2603,447.8399],[-67.1303,-15.2581,455.6396],[-67.1354,-15.2535,432.1317],[-67.1365,-15.2502,419.9679],[-67.1308,-15.25,433.0871],[-67.1278,-15.2518,437.1108],[-67.1268,-15.2506,410.2138],[-67.1339,-15.2328,414.9988],[-67.1371,-15.2353,430.4663],[-67.1391,-15.2343,410.5805],[-67.138,-15.2307,408.3888],[-67.1353,-15.2307,398.5329],[-67.1369,-15.2213,415.3842],[-67.1384,-15.2186,410.7213],[-67.1436,-15.218,419.4619],[-67.1419,-15.2154,388.2038],[-67.1449,-15.2123,392.2586],[-67.1446,-15.2085,385.8195],[-67.1474,-15.2074,400.3917],[-67.1474,-15.2039,388.7247],[-67.1494,-15.2024,387.5828],[-67.1514,-15.1968,385.7197],[-67.1549,-15.2006,377.4189],[-67.1569,-15.1908,409.5484],[-67.161,-15.1918,393.6907],[-67.1603,-15.1892,387.7699],[-67.1579,-15.1886,390.2045],[-67.1573,-15.1837,410.9727],[-67.1593,-15.1835,372.1143],[-67.1621,-15.1861,376.1332],[-67.1671,-15.1844,382.4507],[-67.1675,-15.1767,393.4942],[-67.1691,-15.1738,369.4981],[-67.1678,-15.1707,414.6881],[-67.1726,-15.1706,375.6077],[-67.1708,-15.1645,380.2696],[-67.1736,-15.162,387.1311],[-67.1757,-15.1634,375.7087],[-67.1774,-15.1625,363.9809],[-67.1801,-15.1563,368.5007],[-67.1864,-15.1579,371.4359],[-67.1862,-15.1512,447.1005],[-67.19,-15.148,354.881],[-67.1925,-15.1522,369.8571],[-67.1965,-15.1546,378.691],[-67.1977,-15.1505,349.7477],[-67.1944,-15.1489,371.6982],[-67.1942,-15.1451,380.5817],[-67.196,-15.143,355.7824],[-67.1943,-15.1395,363.3163],[-67.191,-15.1404,348.2892],[-67.1909,-15.1383,341.3525],[-67.1969,-15.1341,368.8802],[-67.1967,-15.1321,355.187],[-67.1992,-15.1299,343.3106],[-67.2056,-15.1301,368.0059],[-67.2037,-15.1275,339.8157],[-67.2054,-15.1222,340.7413],[-67.2132,-15.1126,339.0725],[-67.2161,-15.112,331.8354],[-67.2181,-15.1175,331.317],[-67.2194,-15.1157,330.635],[-67.2188,-15.1132,356.9982],[-67.2238,-15.1084,334.1482],[-67.2257,-15.1096,338.2794],[-67.2243,-15.1163,351.8184],[-67.2255,-15.1174,330.1243],[-67.2291,-15.1169,331.0841],[-67.2317,-15.1124,341.0884],[-67.2385,-15.1146,356.9582],[-67.2371,-15.1083,321.8092],[-67.2346,-15.11,349.9651],[-67.2332,-15.1085,336.4875],[-67.2379,-15.1047,352.7331],[-67.2395,-15.101,337.0015],[-67.2432,-15.0994,327.3482],[-67.245,-15.0918,323.5656],[-67.2418,-15.0886,321.3205],[-67.2394,-15.0923,323.0886],[-67.238,-15.0922,323.0886],[-67.2389,-15.0893,330.4354],[-67.2377,-15.0858,323.8431],[-67.2347,-15.0868,329.3745],[-67.2332,-15.0853,324.3368],[-67.239,-15.0793,328.8048],[-67.2359,-15.0783,321.4059],[-67.2356,-15.0767,329.8734],[-67.2386,-15.0749,322.197],[-67.2433,-15.0763,329.8307],[-67.2447,-15.0731,321.6189],[-67.2388,-15.0699,318.2628],[-67.2379,-15.0626,315.2546],[-67.2408,-15.0601,318.6978],[-67.2379,-15.0586,314.2023],[-67.2412,-15.0573,314.171],[-67.243,-15.0523,323.0896],[-67.2443,-15.0553,321.8522],[-67.2462,-15.054,312.7917],[-67.2475,-15.0486,364.0656],[-67.2494,-15.047,307.5623],[-67.2507,-15.047,305.6116],[-67.2518,-15.0568,333.1044],[-67.2531,-15.0577,303.9217],[-67.2565,-15.0566,332.6111],[-67.2551,-15.0543,320.0109],[-67.2568,-15.0525,317.2395],[-67.259,-15.054,301.6754],[-67.2615,-15.0535,309.9621],[-67.2604,-15.0513,325.9441],[-67.264,-15.0466,311.5538],[-67.2668,-15.0469,314.2108],[-67.2751,-15.0414,312.7259],[-67.28,-15.0427,301.9042],[-67.281,-15.0408,307.8798],[-67.2793,-15.0289,304.3815],[-67.2844,-15.0298,301.0622],[-67.2857,-15.0369,298.908],[-67.2885,-15.0383,323.6078],[-67.2918,-15.036,314.5767],[-67.2886,-15.0311,301.8818],[-67.2892,-15.0278,316.0227],[-67.2936,-15.0271,301.3518],[-67.2979,-15.0285,293.2873],[-67.3026,-15.0367,287.1732],[-67.3025,-15.0396,298.1065],[-67.3002,-15.0418,293.7045],[-67.3008,-15.0434,300.8777],[-67.3038,-15.0441,317.1813],[-67.3088,-15.0396,299.2162],[-67.3165,-15.0372,286.696],[-67.3181,-15.0391,313.0118],[-67.3184,-15.0455,290.0375],[-67.32,-15.0465,314.512],[-67.3294,-15.0377,297.6188],[-67.335,-15.0448,312.0687],[-67.3366,-15.0391,280.6983],[-67.3432,-15.0367,292.6467],[-67.3425,-15.0296,290.1116],[-67.3475,-15.0335,277.1835],[-67.3494,-15.0381,283.2803],[-67.3508,-15.0379,281.0842],[-67.356,-15.0209,276.8955],[-67.359,-15.0227,287.4641],[-67.3604,-15.0315,299.7139],[-67.3623,-15.0331,291.7395],[-67.3676,-15.0282,279.0656],[-67.3734,-15.0271,274.5942],[-67.3767,-15.0218,274.364],[-67.3782,-15.0148,274.113],[-67.3806,-15.0155,278.2657],[-67.3815,-15.0196,282.356],[-67.385,-15.0206,273.4865],[-67.3869,-15.0176,273.7574],[-67.3864,-15.0128,272.544],[-67.3961,-15.0093,272.1027],[-67.4008,-14.9989,272.0541],[-67.4001,-14.9936,280.8091],[-67.3942,-14.9922,277.6826],[-67.3938,-14.9884,279.7224],[-67.3997,-14.9881,279.7829],[-67.4033,-14.994,273.0233],[-67.4057,-14.9948,269.8955],[-67.409,-14.9924,272.3359],[-67.4136,-14.9929,269.2084],[-67.4164,-14.9892,264.4927],[-67.4158,-14.9861,272.7795],[-67.411,-14.9812,271.3662],[-67.41,-14.9753,270.4304],[-67.4066,-14.9718,268.2896],[-67.4079,-14.969,269.0862],[-67.4104,-14.9682,271.1919],[-67.4165,-14.9711,264.5936],[-67.4192,-14.9708,262.008],[-67.4207,-14.9642,273.8289],[-67.4167,-14.9605,268.3672],[-67.4182,-14.9554,257.8965],[-67.4127,-14.9505,257.2974],[-67.4229,-14.9447,263.9493],[-67.4205,-14.9401,271.3281],[-67.4224,-14.9338,261.412],[-67.4176,-14.931,263.059],[-67.4174,-14.929,257.0297],[-67.4215,-14.9265,269.418],[-67.4226,-14.9222,266.7071],[-67.4243,-14.9226,261.0112],[-67.425,-14.9268,268.6281],[-67.4277,-14.9259,260.0482],[-67.4285,-14.9222,263.4996]]]]}}