{"type":"Feature","properties":{"GID_3":"BOL.7.4.3_2","GID_0":"BOL","country":"Bolivia","GID_1":"BOL.7_1","province":"Potosí","NL_NAME_1":"NA","GID_2":"BOL.7.4_2","county":"Chayanta","NL_NAME_2":"NA","city":"Pocoata","VARNAME_3":"NA","NL_NAME_3":"NA","TYPE_3":"District","ENGTYPE_3":"Distrito","CC_3":"NA","HASC_3":"NA","name":"Pocoata.city"},
"geometry":{"type": "MultiPolygon","coordinates": [[[[-66.3268,-18.8738,4456.1611],[-66.3098,-18.866,4427.9072],[-66.2866,-18.8613,4380.667],[-66.2581,-18.8428,4085.7056],[-66.2459,-18.8203,4075.125],[-66.2357,-18.8096,4115.3574],[-66.1724,-18.7825,3628.1113],[-66.1139,-18.8118,3657.3247],[-66.1085,-18.79,3620.6423],[-66.1032,-18.7939,3481.5205],[-66.0898,-18.7776,3490.3711],[-66.0955,-18.7636,3541.0886],[-66.0604,-18.741,4095.345],[-66.0277,-18.7233,3918.3462],[-66.0249,-18.7175,3892.3813],[-66.0205,-18.7148,3937.8027],[-66.0247,-18.7046,4300.2891],[-66.0199,-18.6876,4665.7764],[-66.0215,-18.6864,4665.7764],[-66.0227,-18.6751,4659.5117],[-66.0318,-18.6655,4464.0435],[-66.0321,-18.6627,4409.2822],[-66.0423,-18.6509,4110.9312],[-66.0558,-18.6465,4001.885],[-66.0642,-18.6458,3956.2993],[-66.0654,-18.642,3945.6001],[-66.0731,-18.6364,3931.2871],[-66.0787,-18.6216,3909.5344],[-66.0823,-18.6181,3889.4478],[-66.0824,-18.615,3896.0811],[-66.074,-18.6144,3984.4016],[-66.0552,-18.6047,4266.5298],[-66.0395,-18.6089,4483.0674],[-66.0339,-18.608,4446.687],[-66.0285,-18.6105,4504.1875],[-66.0236,-18.608,4446.7876],[-66.0146,-18.6134,4450.8496],[-66.0136,-18.6155,4470.0278],[-66.0121,-18.6155,4515.04],[-66.0109,-18.6117,4369.9404],[-65.9967,-18.6087,4050.0845],[-65.9921,-18.6099,3919.0342],[-65.9918,-18.6132,3919.9773],[-65.985,-18.6238,4127.1782],[-65.9652,-18.6284,4287.252],[-65.9586,-18.6209,4301.3037],[-65.9461,-18.615,3951.6069],[-65.9415,-18.6099,3655.3489],[-65.9323,-18.6099,3990.4333],[-65.9286,-18.6055,4186.6973],[-65.9192,-18.6027,3981.3252],[-65.907,-18.5873,3163.6394],[-65.9021,-18.5857,3504.7822],[-65.8977,-18.5793,3833.1519],[-65.8945,-18.5781,3873.0293],[-65.8917,-18.5744,3949.0911],[-65.8967,-18.5598,3754.9648],[-65.9025,-18.5551,3649.5813],[-65.9042,-18.5496,3439.572],[-65.9116,-18.5467,3155.6084],[-65.9127,-18.5407,2590.3145],[-65.9205,-18.5431,2611.5688],[-65.923,-18.539,2611.3062],[-65.928,-18.5387,2621.7339],[-65.9344,-18.5352,2622.7764],[-65.9426,-18.5384,2657.6226],[-65.9465,-18.5366,2641.3237],[-65.9488,-18.5332,2638.9448],[-65.9585,-18.5289,2661.02],[-65.9615,-18.5241,2698.6885],[-65.9659,-18.5215,2856.3533],[-65.9847,-18.5219,3522.8345],[-65.9959,-18.5198,3769.7715],[-66.0086,-18.5064,3949.627],[-66.0131,-18.5044,3892.5261],[-66.0186,-18.4986,3953.1157],[-66.0261,-18.4955,4142.8379],[-66.0285,-18.4903,4106.0586],[-66.0326,-18.4873,4161.5688],[-66.0356,-18.4806,4107.9004],[-66.0398,-18.4766,4083.9441],[-66.0411,-18.4711,4063.7915],[-66.0531,-18.4631,4137.5015],[-66.0639,-18.4611,4087.429],[-66.0689,-18.458,4128.5693],[-66.0753,-18.4579,4191.6094],[-66.0826,-18.4542,4173.9629],[-66.0887,-18.4546,4274.5376],[-66.0922,-18.4484,4308.7554],[-66.0953,-18.4474,4334.2266],[-66.0993,-18.442,4303.7065],[-66.1071,-18.4363,4127.2119],[-66.1122,-18.421,4144.3984],[-66.1154,-18.4169,4206.9102],[-66.1315,-18.4077,4157.2383],[-66.1516,-18.4063,4132.7407],[-66.1627,-18.4083,4375.0215],[-66.1679,-18.418,4213.1406],[-66.1745,-18.4257,4038.6191],[-66.1793,-18.4277,4057.9253],[-66.1858,-18.4384,3888.7866],[-66.1876,-18.4453,3640.6396],[-66.186,-18.4505,3505.8179],[-66.1918,-18.4523,3258.2837],[-66.2019,-18.46,3135.1902],[-66.207,-18.4598,2993.1133],[-66.2042,-18.4701,2992.7666],[-66.202,-18.4726,3001.229],[-66.1993,-18.4738,2967.1648],[-66.1944,-18.481,3028.1411],[-66.1825,-18.4894,2938.8423],[-66.1799,-18.4898,2906.491],[-66.1774,-18.4941,2903.0244],[-66.1853,-18.5033,3040.7817],[-66.1898,-18.5176,2948.3252],[-66.1928,-18.5208,2989.8809],[-66.1962,-18.5196,2990.0068],[-66.2037,-18.5213,3039.4729],[-66.2064,-18.518,2986.8623],[-66.2072,-18.513,3037.0356],[-66.2104,-18.5148,3060.3677],[-66.2151,-18.513,3033.5039],[-66.222,-18.5186,3001.2349],[-66.2258,-18.5169,3024.833],[-66.2305,-18.5225,3016.6379],[-66.2324,-18.5218,3029.8132],[-66.235,-18.5255,3035.2158],[-66.2384,-18.5262,3060.1965],[-66.2447,-18.5437,3060.8992],[-66.2503,-18.5484,3142.4021],[-66.2512,-18.5527,3106.894],[-66.2501,-18.5586,3108.8804],[-66.2514,-18.5596,3121.7754],[-66.2545,-18.5593,3090.0447],[-66.2578,-18.553,3082.5054],[-66.2615,-18.55,3103.2007],[-66.2648,-18.5515,3110.4556],[-66.2745,-18.5508,3113.4026],[-66.2787,-18.5536,3109.6943],[-66.2785,-18.5602,3129.5371],[-66.2813,-18.5671,3174.1045],[-66.2866,-18.5735,3184.2935],[-66.2869,-18.5791,3187.2058],[-66.2842,-18.5853,3201.8562],[-66.2847,-18.5916,3220.0491],[-66.2752,-18.5972,3241.9019],[-66.274,-18.5994,3282.8198],[-66.2746,-18.6097,3344.022],[-66.2797,-18.6164,3316.7791],[-66.2857,-18.6176,3284.4478],[-66.2871,-18.6285,3310.9478],[-66.2901,-18.6302,3309.7126],[-66.2914,-18.6348,3303.3945],[-66.2908,-18.6367,3312.6792],[-66.2871,-18.6373,3346.8523],[-66.2871,-18.6414,3306.9836],[-66.2852,-18.6421,3306.9836],[-66.2813,-18.6515,3335.3132],[-66.2795,-18.6511,3345.2446],[-66.2778,-18.6531,3332.4536],[-66.2798,-18.6533,3301.4575],[-66.278,-18.6558,3317.4419],[-66.2793,-18.6574,3327.3982],[-66.277,-18.6591,3310.5139],[-66.276,-18.6632,3349.207],[-66.2853,-18.6665,3754.7952],[-66.2859,-18.6713,3808.5767],[-66.2911,-18.6775,3681.8882],[-66.3022,-18.6805,3552.0637],[-66.3013,-18.6833,3541.5398],[-66.3134,-18.6941,3561.3452],[-66.3139,-18.6965,3556.6445],[-66.3233,-18.7058,4049.4231],[-66.3577,-18.7272,4135.1562],[-66.3663,-18.7274,4050.9089],[-66.3797,-18.7384,4228.9312],[-66.3756,-18.7447,4202.2476],[-66.3743,-18.752,4239.5723],[-66.3644,-18.7653,4176.5981],[-66.3524,-18.7922,4189.1211],[-66.3512,-18.8039,4141.1338],[-66.3461,-18.81,4264.4717],[-66.3417,-18.8231,4407.1743],[-66.3429,-18.8297,4372.9683],[-66.3355,-18.8456,4499.4561],[-66.33,-18.8628,4468.748],[-66.3305,-18.8675,4476.4502],[-66.3268,-18.8738,4456.1611]]]]}}