{"type":"Feature","properties":{"featurecla":"River","scalerank":7,"rivernum":475,"dissolve":"475River","name":"Beni","name_alt":null,"note":null,"min_zoom":6.0,"strokeweig":0.2,"name_en":"Beni","min_label":7.0},
"geometry":{"type": "LineString","coordinates": [[-66.9951171875,-17.078936456255889,3142.467],[-67.010498046875,-17.06511809688088,2891.5781],[-67.015307617187489,-17.046905206255886,2677.4451],[-67.012451171875,-17.02629973750588,2288.5352],[-67.004492187499991,-17.00505950313088,2040.3734],[-66.99951171875,-16.99700286250588,1712.2356],[-66.98203125,-16.97478606563088,2977.5496],[-66.97802734375,-16.963897393755886,2653.481],[-66.977636718749991,-16.95476653438088,2469.6509],[-66.980322265624991,-16.935088800005886,1856.302],[-66.978271484375,-16.91472747188088,1878.6185],[-66.971118164062489,-16.897295831255889,1836.5852],[-66.952197265624989,-16.863116143755889,2138.5979],[-66.932373046875,-16.835284112505889,1809.4205],[-66.908251953124989,-16.82390715938088,2250.2993],[-66.848193359374989,-16.81658294063088,2541.7175],[-66.824804687499991,-16.808916925005889,2304.7812],[-66.79833984375,-16.79534270625588,1936.4072],[-66.77509765625,-16.777666925005889,1775.9307],[-66.761572265624991,-16.757842706255886,1817.5488],[-66.758593749999989,-16.74114348750588,2287.7866],[-66.75927734375,-16.724639581255886,2245.9329],[-66.766772460937489,-16.678545831255889,1468.3976],[-66.76708984375,-16.665362237505889,2035.4117]]}}