{"type":"Feature","properties":{"featurecla":"River","scalerank":3,"rivernum":77,"dissolve":"77River","name":"Grande11","name_alt":null,"note":null,"min_zoom":3.0,"strokeweig":0.15,"name_en":"Grande","min_label":4.0},
"geometry":{"type": "LineString","coordinates": [[-66.322924804687489,-17.57659270625588,2442.9348],[-66.295166015625,-17.587432550005886,2443.5876],[-66.260009765625,-17.60881926875588,2551.1499],[-66.252001953124989,-17.61516692500588,2511.1162],[-66.244726562499991,-17.622588800005886,2610.9414],[-66.238940429687489,-17.63030364375588,2548.4399],[-66.234472656249991,-17.63933684688088,2540.9353],[-66.231542968749991,-17.649932550005886,2507.7412],[-66.231787109374991,-17.66375090938088,2454.4482],[-66.238525390625,-17.69280364375588,2670.0789],[-66.238330078124989,-17.70403411250588,2423.0393],[-66.223876953125,-17.71892669063088,2495.9851],[-66.174072265625,-17.74871184688088,2501.9358],[-66.163256835937489,-17.76262786250588,2575.2854],[-66.159106445312489,-17.77410247188088,2309.7532],[-66.149023437499991,-17.78411223750588,2489.011],[-66.136523437499989,-17.791338800005889,2410.1418],[-66.112402343749991,-17.79607512813088,2444.9512],[-66.090917968749991,-17.805010675005889,2287.2212],[-66.063574218749991,-17.81316497188088,2427.7812],[-66.045214843749989,-17.82805755000588,2344.5007],[-66.018603515624989,-17.86223723750588,2360.9661]]}}