{"type":"Feature","properties":{"featurecla":"River","scalerank":3,"rivernum":77,"dissolve":"77River","name":"Grande14","name_alt":null,"note":null,"min_zoom":3.0,"strokeweig":0.25,"name_en":"Grande","min_label":4.0},
"geometry":{"type": "LineString","coordinates": [[-62.773046874999991,-17.79876067500588,301.8475],[-62.76611328125,-17.752764581255889,297.4379],[-62.7802734375,-17.57878997188088,280.8892],[-62.788745117187489,-17.546905206255886,278.7823],[-62.790625,-17.531280206255886,274.5],[-62.787939453124991,-17.515166925005886,275.0969],[-62.764086914062489,-17.471514581255889,273.6051],[-62.75634765625,-17.44963958125588,268.375],[-62.749853515624991,-17.40007903438088,273.2447],[-62.748291015625,-17.33831145625588,273.2115],[-62.74560546875,-17.326006768755889,265.6207],[-62.728686523437489,-17.286651300005886,268.8161],[-62.7267578125,-17.268096612505886,266.3022],[-62.737158203124991,-17.248370050005889,262.1894],[-62.744677734374989,-17.238311456255886,262.5801],[-62.748583984374989,-17.22918059688088,260.6667],[-62.754003906249991,-17.193194268755889,260.6051],[-62.757739257812489,-17.18254973750588,260.351],[-62.764013671874991,-17.173370050005886,259.9541],[-62.773535156249991,-17.16594817500588,257.6081],[-62.789160156249991,-17.16130950313088,259.2207],[-62.822607421874991,-17.16301848750588,263.2209],[-62.8388671875,-17.160479425005889,253.6408],[-62.851660156249991,-17.15276458125588,252.564],[-62.874121093749991,-17.13152434688088,253.5774],[-62.886474609375,-17.122588800005886,256.5606],[-62.90087890625,-17.116241143755886,258.5223],[-62.908740234374989,-17.114092706255889,249.7794],[-62.916113281249991,-17.113116143755889,249.5923],[-62.924072265625,-17.11419036250588,250.9461],[-62.936083984374989,-17.12053801875588,249.1767],[-62.9423828125,-17.12273528438088,247.8513],[-62.959814453124991,-17.11931731563088,246.0239],[-62.970996093749989,-17.10588958125588,254.0488],[-62.984790039062489,-17.07170989375588,247.7153],[-62.990087890624991,-17.06218840938088,247.6979],[-63.019140624999991,-17.03240325313088,242.1499],[-63.02587890625,-17.021807550005889,242.3183],[-63.06640625,-16.91472747188088,236.6949],[-63.068945312499991,-16.89739348750588,235.8006],[-63.067675781249989,-16.861846612505886,234.9244],[-63.069091796875,-16.844561456255889,238.1721],[-63.076416015625,-16.824248956255886,233.6606],[-63.088671874999989,-16.805205987505886,235.3195],[-63.149658203125,-16.742998956255889,226.2036],[-63.168066406249991,-16.732745050005889,223.6019],[-63.188525390624989,-16.731280206255889,222.0152],[-63.210742187499989,-16.74065520625588,223.9749],[-63.2197265625,-16.74163176875588,222.686],[-63.232275390624991,-16.739288018755886,225.3043],[-63.267871093749989,-16.72380950313088,220.8536],[-63.297705078124991,-16.715362237505886,219.9451],[-63.304931640625,-16.71087005000588,219.5947],[-63.325122070312489,-16.694366143755886,217.8262],[-63.33984375,-16.68792083125588,217.1926],[-63.387255859374989,-16.67522551875588,214.1845],[-63.522387695312489,-16.59856536250588,216.5421],[-63.540478515625,-16.58342864375588,207.3164],[-63.547949218749991,-16.579620050005886,206.9613],[-63.599780273437489,-16.566924737505886,206.2399],[-63.663989257812489,-16.531084893755889,204.0373],[-63.685791015625,-16.525909112505886,202.9122],[-63.754248046874991,-16.518096612505886,197.4141],[-63.77109375,-16.512237237505886,199.0684],[-63.777636718749989,-16.50115325313088,198.3717],[-63.78955078125,-16.46087005000588,196.0228],[-63.791601562499991,-16.446807550005886,195.571],[-63.797119140625,-16.433916925005889,194.0641],[-63.823657226562489,-16.40471770625588,192.608],[-63.861083984375,-16.37322356563088,194.0002],[-63.875,-16.35686614375588,191.994],[-63.880957031249991,-16.336944268755886,202.1142],[-63.882861328124989,-16.292510675005886,195.2004],[-63.888769531249991,-16.27532317500588,194.7256],[-63.901464843749991,-16.25896575313088,186.8886],[-63.916601562499991,-16.24944426875588,187.9467],[-63.960546874999991,-16.227862237505889,195.9688],[-63.9697265625,-16.22087981563088,187.1904],[-63.981201171875,-16.22478606563088,187.2807],[-64.035009765624991,-16.216338800005886,184.6812],[-64.052294921874989,-16.21062590938088,182.2859],[-64.079541015625,-16.187823175005889,187.6339],[-64.093994140625,-16.179717706255886,183.5145],[-64.137255859374989,-16.175127862505889,184.4944],[-64.155029296875,-16.17009856563088,183.1698],[-64.168554687499991,-16.159698175005886,182.7246],[-64.175830078124989,-16.14226653438088,178.0627],[-64.176220703125,-16.09465911250588,198.4585],[-64.182470703124991,-16.082354425005889,192.0984],[-64.193457031249991,-16.07659270625588,188.0387],[-64.221923828125,-16.07244231563088,189.0761],[-64.234375,-16.06853606563088,187.4657],[-64.283984374999989,-16.037139581255886,193.5099],[-64.327246093749991,-16.01970794063088,185.2368],[-64.369799804687489,-15.99334075313088,183.1628],[-64.4150390625,-15.956573175005886,170.3624],[-64.427416992187489,-15.95159270625588,170.0044],[-64.441357421875,-15.949053643755889,169.7675],[-64.4716796875,-15.94646575313088,187.7615],[-64.485400390624989,-15.94280364375588,169.4006],[-64.496435546874991,-15.93596770625588,170.4975],[-64.516894531249989,-15.917803643755889,178.6077],[-64.571875,-15.884795831255886,178.3905],[-64.579638671874989,-15.883135675005889,183.6473],[-64.596435546875,-15.88298919063088,187.5316],[-64.604248046875,-15.881866143755886,183.947],[-64.609423828124989,-15.879229425005889,180.7537],[-64.619067382812489,-15.871905206255889,186.3694],[-64.624072265624989,-15.869170831255886,183.864],[-64.661059570312489,-15.861163018755889,182.2051],[-64.663818359375,-15.85979583125588,180.0001]]}}