{"type":"Feature","properties":{"featurecla":"River","scalerank":3,"rivernum":87,"dissolve":"87River","name":"Mamoré","name_alt":null,"note":null,"min_zoom":3.0,"strokeweig":0.25,"name_en":"Mamoré","min_label":4.0},
"geometry":{"type": "LineString","coordinates": [[-64.663818359375,-15.85979583125588,180.0001],[-64.668627929687489,-15.857256768755889,185.3068],[-64.705859374999989,-15.82512786250588,166.0698],[-64.728198242187489,-15.79949309688088,174.1279],[-64.73876953125,-15.77898528438088,171.3358],[-64.742724609374989,-15.75969817500588,165.3793],[-64.746826171875,-15.71770598750588,160.7421],[-64.755712890624991,-15.688799737505889,163.9196],[-64.761474609375,-15.652666925005889,170.0287],[-64.7861328125,-15.585479425005886,172.7775],[-64.798999023437489,-15.512725518755886,168.4745],[-64.817675781249989,-15.47210051875588,154.5],[-64.826513671874991,-15.438799737505889,173.3761],[-64.834814453124991,-15.42327239375588,167.2225],[-64.840991210937489,-15.41692473750588,166.7363],[-64.847021484374991,-15.41204192500588,157.5],[-64.852099609374989,-15.40667083125588,157.5],[-64.855639648437489,-15.398760675005889,174.3672],[-64.85595703125,-15.38958098750588,164.1509],[-64.85400390625,-15.38250090938088,156.0],[-64.853369140624991,-15.375323175005889,171.217],[-64.858007812499991,-15.365557550005889,165.1388],[-64.870898437499989,-15.353057550005886,162.114],[-64.902197265624991,-15.33416106563088,169.9144],[-64.915380859374991,-15.320635675005889,160.3531],[-64.924414062499991,-15.301104425005889,152.0],[-64.934619140624989,-15.25896575313088,152.0],[-64.943798828125,-15.23967864375588,158.9542],[-64.9736328125,-15.21013762813088,155.7326],[-64.986279296875,-15.19426848750588,152.9597],[-65.002685546875,-15.12761809688088,162.8662],[-65.008471679687489,-15.11760833125588,166.0201],[-65.013769531249991,-15.104327081255889,169.5557],[-65.00830078125,-15.089385675005886,145.5],[-64.991381835937489,-15.06609465938088,157.433],[-65.004980468749991,-15.06609465938088,164.1032],[-65.016406249999989,-15.06267669063088,160.9707],[-65.025488281249991,-15.05608489375588,163.9452],[-65.032324218749991,-15.046221612505889,164.1371],[-64.987646484374991,-15.01140715938088,163.6912],[-64.984228515624991,-15.00457122188088,162.3255],[-64.983935546874989,-14.95989348750588,164.9336],[-64.995703124999991,-14.93694426875588,159.3026],[-65.018798828125,-14.917510675005886,150.4697],[-65.034716796874989,-14.89617278438088,142.5],[-65.02490234375,-14.86736419063088,154.3588],[-65.052832031249991,-14.819659112505889,155.339],[-65.054980468749989,-14.806475518755889,151.8514],[-65.054931640625,-14.791045831255886,163.8601],[-65.057226562499991,-14.776202081255889,164.2186],[-65.066503906249991,-14.764483331255889,150.9784],[-65.07763671875,-14.769854425005889,151.4943],[-65.083789062499989,-14.765459893755889,151.2595],[-65.08642578125,-14.75457122188088,150.9475],[-65.086962890624989,-14.740557550005889,151.3033],[-65.089404296874989,-14.726592706255886,149.4961],[-65.095751953124989,-14.712432550005886,148.663],[-65.104541015624989,-14.699541925005889,149.5],[-65.114306640624989,-14.68865325313088,150.7697],[-65.105712890625,-14.68645598750588,149.5],[-65.090576171875,-14.685381768755889,151.1364],[-65.074511718749989,-14.68694426875588,150.5657],[-65.04931640625,-14.69988372188088,156.1133],[-65.044848632812489,-14.688018487505886,159.9514],[-65.046630859375,-14.66204192500588,152.9569],[-65.003759765624991,-14.58562590938088,141.0],[-64.969091796874991,-14.45183684688088,153.4955],[-64.966894531249991,-14.43547942500588,148.7481],[-64.982836914062489,-14.421905206255886,150.4815],[-64.994238281249991,-14.39495208125588,154.1019],[-64.98779296875,-14.374541925005886,146.4068],[-64.949804687499991,-14.38079192500588,152.0129],[-64.9541015625,-14.36174895625588,147.1565],[-64.978930664062489,-14.32659270625588,148.3539],[-64.980810546874991,-14.315948175005886,147.4208],[-64.99609375,-14.28289153438088,151.7805],[-65.02783203125,-14.242998956255889,135.5],[-65.040625,-14.222002862505889,151.683],[-65.046142578125,-14.20012786250588,160.9009],[-65.042529296874989,-14.18547942500588,142.4503],[-65.026953124999991,-14.16057708125588,147.8876],[-65.025,-14.145830987505889,160.619],[-65.032080078124991,-14.12981536250588,142.379],[-65.058349609375,-14.10466887813088,143.4393],[-65.068359375,-14.08953215938088,134.5],[-65.082861328124991,-14.06145598750588,149.8826],[-65.116870117187489,-14.01531340938088,157.7832],[-65.142138671874989,-13.960967706255886,134.5],[-65.150390625,-13.95281340938088,145.9852],[-65.164404296874991,-13.94744231563088,147.1873],[-65.176220703125,-13.94890715938088,151.228],[-65.190771484374991,-13.953643487505886,147.1574],[-65.205004882812489,-13.955401300005889,145.8062],[-65.215625,-13.948077081255889,142.5355],[-65.2125,-13.935088800005886,134.5],[-65.193212890624991,-13.93010833125588,153.4213],[-65.177661132812489,-13.920440362505886,151.3676],[-65.191503906249991,-13.880401300005886,154.5811],[-65.191503906249991,-13.867998956255889,142.1263],[-65.189794921874991,-13.855498956255886,141.5363],[-65.190527343749991,-13.841827081255886,159.7411],[-65.196093749999989,-13.824541925005889,144.6382],[-65.202807617187489,-13.81731536250588,143.1323],[-65.227709960937489,-13.806475518755889,148.3997],[-65.2783203125,-13.77117278438088,148.4086],[-65.302416992187489,-13.74993255000588,137.7395],[-65.322998046875,-13.72747161250588,145.105],[-65.327099609375,-13.70354583125588,144.3614],[-65.317919921874989,-13.67937590938088,140.9627],[-65.315600585937489,-13.66008880000588,147.58],[-65.340136718749989,-13.65081145625588,146.1659],[-65.335302734374991,-13.63982512813088,136.2135],[-65.32958984375,-13.60881926875588,130.0],[-65.325122070312489,-13.59685637813088,143.728],[-65.32080078125,-13.58831145625588,145.8869],[-65.307666015624989,-13.56902434688088,147.748],[-65.291113281249991,-13.549834893755886,147.3039],[-65.28466796875,-13.53923919063088,145.3859],[-65.283447265625,-13.52703215938088,138.8447],[-65.288427734374991,-13.52141692500588,141.8046],[-65.306396484375,-13.52361419063088,140.9272],[-65.312255859375,-13.52092864375588,141.2801],[-65.311572265624989,-13.491241143755886,139.89],[-65.261889648437489,-13.44475676875588,139.7605],[-65.250781249999989,-13.41130950313088,135.8515],[-65.253710937499989,-13.405303643755886,142.4175],[-65.259375,-13.40007903438088,136.4886],[-65.264746093749991,-13.393389581255889,146.8639],[-65.266650390624989,-13.38372161250588,137.506],[-65.262744140624989,-13.372881768755889,149.3365],[-65.238867187499991,-13.345245050005886,130.0],[-65.230761718749989,-13.319659112505889,145.4373],[-65.23427734375,-13.274248956255889,129.0],[-65.230883789062489,-13.24749114375588,138.9369],[-65.2216796875,-13.230303643755889,153.4011],[-65.19501953125,-13.19744231563088,147.0649],[-65.188159179687489,-13.18132903438088,137.7542],[-65.194580078125,-13.16643645625588,145.5959],[-65.210546874999991,-13.15642669063088,144.8203],[-65.224047851562489,-13.144561456255886,128.0],[-65.222705078124989,-13.12444426875588,139.4489],[-65.193530273437489,-13.11126067500588,142.3365],[-65.148364257812489,-13.11394622188088,143.2325],[-65.108642578125,-13.10808684688088,129.2821],[-65.0958984375,-13.06926848750588,148.1185],[-65.103564453124989,-13.05706145625588,145.9085],[-65.115527343749989,-13.04680755000588,145.919],[-65.120703124999991,-13.034698175005886,146.2029],[-65.107958984374989,-13.016631768755886,136.3239],[-65.091259765625,-13.00945403438088,135.7084],[-65.052661132812489,-13.006866143755886,150.6761],[-65.038427734374991,-12.99895598750588,139.8383],[-65.035009765624991,-12.98552825313088,134.9991],[-65.037524414062489,-12.967608331255889,137.9105],[-65.045947265624989,-12.93547942500588,140.4464],[-65.045019531249991,-12.92742278438088,127.5],[-65.040478515625,-12.921416925005886,136.8389],[-65.027587890625,-12.910967706255889,143.2808],[-65.023876953125,-12.901397393755886,131.8991],[-65.030200195312489,-12.89446380000588,132.9242],[-65.039599609374989,-12.888213800005886,136.235],[-65.0451171875,-12.88103606563088,127.0],[-65.038671874999991,-12.85125090938088,140.5038],[-65.021582031249991,-12.822100518755889,142.8728],[-65.011328124999991,-12.79070403438088,145.8584],[-65.046630859375,-12.708819268755889,127.0],[-65.0537109375,-12.61296965938088,132.5],[-65.073657226562489,-12.565752862505889,143.6665],[-65.171142578125,-12.42180755000588,141.7291],[-65.178808593749991,-12.40471770625588,146.8108],[-65.179736328124989,-12.38884856563088,141.2545],[-65.169189453125,-12.375518487505886,157.0272],[-65.152197265624991,-12.36174895625588,137.4131],[-65.1408203125,-12.34661223750588,148.8275],[-65.1466796875,-12.329131768755886,131.1332],[-65.173828125,-12.31096770625588,133.4704],[-65.181201171874989,-12.29900481563088,133.1751],[-65.168554687499991,-12.28655364375588,145.2819],[-65.136962890625,-12.27898528438088,133.6145],[-65.13046875,-12.27092864375588,133.7549],[-65.131762695312489,-12.248565362505886,134.6723],[-65.138427734375,-12.23088958125588,133.9046],[-65.174487304687489,-12.188506768755886,134.0669],[-65.182080078125,-12.169463800005886,131.5471],[-65.186938476562489,-12.14519622188088,126.0],[-65.186621093749991,-12.12908294063088,143.0768],[-65.1787109375,-12.134795831255886,134.4728],[-65.16650390625,-12.15227630000588,133.9299],[-65.156005859375,-12.15764739375588,132.1569],[-65.145068359374989,-12.15154387813088,146.7696],[-65.118579101562489,-12.11907317500588,134.9128],[-65.108154296875,-12.11248137813088,151.5426],[-65.100683593749991,-12.10442473750588,139.6546],[-65.096728515624989,-12.085284112505889,126.0],[-65.106201171875,-12.034991143755889,139.4296],[-65.120458984374991,-12.037139581255886,131.0734],[-65.140234374999991,-12.04607512813088,139.6713],[-65.157641601562489,-12.049346612505886,141.111],[-65.164721679687489,-12.034502862505889,144.065],[-65.160986328124991,-12.02239348750588,138.0563],[-65.1525390625,-12.00969817500588,144.9292],[-65.080371093749989,-11.935088800005886,138.4981],[-65.065844726562489,-11.92742278438088,122.5],[-65.000097656249991,-11.916045831255886,126.273]]}}