{"type": "Feature","bbox": [-68.0563,-18.0872,-67.5858,-17.7327],"geometry": {"type": "MultiPolygon","coordinates": [[[[-67.8835,-17.8052,3768.5684],[-67.9024,-17.7911,3818.291],[-67.9263,-17.7829,3846.2393],[-67.9394,-17.774,3853.2051],[-67.9576,-17.7644,3863.7258],[-67.9663,-17.7481,3829.6995],[-67.9652,-17.7377,3814.9053],[-67.969,-17.7327,3808.6284],[-67.9829,-17.7414,3819.4194],[-67.9885,-17.7412,3821.7534],[-67.9925,-17.7387,3824.811],[-67.997,-17.7381,3829.8176],[-68.0006,-17.7415,3837.1677],[-68.0054,-17.7427,3858.1201],[-68.006,-17.7445,3848.0093],[-68.0157,-17.7481,3865.521],[-68.0186,-17.7522,3874.2593],[-68.0281,-17.7571,3902.8352],[-68.0325,-17.7634,3907.7607],[-68.0383,-17.7673,3968.3494],[-68.041,-17.7737,4041.1401],[-68.0511,-17.7746,4298.9336],[-68.0553,-17.783,4134.54],[-68.0563,-17.7982,4085.6536],[-68.051,-17.812,4039.011],[-68.0452,-17.8172,4054.9583],[-68.0454,-17.8198,4070.8445],[-68.0418,-17.8211,4124.2124],[-68.0375,-17.8279,4212.4819],[-68.0344,-17.847,4126.623],[-68.0167,-17.8571,4325.0815],[-68.0085,-17.8651,4383.4062],[-68.0121,-17.8867,3950.9951],[-68.0091,-17.8904,3948.1855],[-68.0112,-17.8943,3935.3057],[-68.0092,-17.8962,3934.2839],[-68.0064,-17.8958,3935.5703],[-68.005,-17.8986,3931.0715],[-68.0073,-17.9009,3928.1987],[-67.9825,-17.9057,4013.5815],[-67.972,-17.9131,4079.1001],[-67.959,-17.9169,4087.7778],[-67.9504,-17.9237,4106.4707],[-67.963,-17.9377,3943.813],[-67.9637,-17.9413,3935.5713],[-67.9621,-17.9476,3933.0554],[-67.9452,-17.9468,3961.52],[-67.9384,-17.9535,3954.8267],[-67.9352,-17.9423,3997.0874],[-67.9203,-17.9346,4083.6758],[-67.9176,-17.9395,4025.2036],[-67.9122,-17.9428,4073.5647],[-67.9167,-17.9516,3960.2698],[-67.9192,-17.9623,3980.8433],[-67.9174,-17.973,3945.8208],[-67.9088,-17.9908,4014.231],[-67.9124,-18.0097,3945.4229],[-67.9172,-18.0176,3979.0032],[-67.9016,-18.0228,3943.1587],[-67.8855,-18.0357,3884.7114],[-67.8836,-18.0392,3887.5024],[-67.8722,-18.0436,3900.7393],[-67.867,-18.0481,3921.063],[-67.8642,-18.0479,3917.5476],[-67.857,-18.054,3915.6367],[-67.8498,-18.0512,3976.7563],[-67.8476,-18.0534,3972.7327],[-67.8151,-18.0365,4088.6875],[-67.8018,-18.0372,4189.6763],[-67.7983,-18.0348,4258.5415],[-67.797,-18.0316,4245.4834],[-67.7829,-18.022,4577.7666],[-67.7783,-18.0246,4574.8242],[-67.7679,-18.0349,4591.6958],[-67.7615,-18.0428,4575.2266],[-67.7585,-18.0502,4549.5361],[-67.7533,-18.0517,4583.3242],[-67.7384,-18.0704,4549.9971],[-67.7303,-18.0843,4560.8198],[-67.7211,-18.0788,4293.4453],[-67.7075,-18.0759,4323.6411],[-67.6917,-18.0654,4544.604],[-67.6819,-18.0608,4671.8535],[-67.6757,-18.067,4644.8218],[-67.6782,-18.0709,4631.8291],[-67.6777,-18.0728,4635.6514],[-67.6764,-18.0755,4612.0811],[-67.6711,-18.0786,4673.605],[-67.6699,-18.0847,4656.5195],[-67.6676,-18.0872,4628.604],[-67.6578,-18.0848,4301.8696],[-67.6444,-18.0776,4025.458],[-67.6406,-18.0814,3928.8242],[-67.6376,-18.0812,3862.1526],[-67.6294,-18.075,3725.3125],[-67.6279,-18.0703,3714.7178],[-67.6158,-18.0622,3705.7693],[-67.6143,-18.0592,3706.7261],[-67.6161,-18.055,3706.4377],[-67.6157,-18.0456,3706.5676],[-67.6129,-18.0454,3706.7192],[-67.6124,-18.0414,3706.5654],[-67.6091,-18.0405,3707.0908],[-67.6029,-18.02,3708.7444],[-67.5883,-17.9934,3709.3418],[-67.5858,-17.9708,3709.9209],[-67.6196,-17.9302,3712.5762],[-67.6171,-17.9006,3714.1099],[-67.6334,-17.9123,3714.0527],[-67.6514,-17.9124,3712.6709],[-67.6567,-17.9157,3712.0996],[-67.6649,-17.915,3711.948],[-67.6655,-17.9134,3712.0159],[-67.6721,-17.91,3712.2935],[-67.6966,-17.9116,3714.4604],[-67.6969,-17.9092,3714.5347],[-67.7006,-17.9058,3714.5894],[-67.6987,-17.9022,3714.73],[-67.7029,-17.896,3715.1379],[-67.7058,-17.8944,3715.2644],[-67.7078,-17.895,3715.2471],[-67.7098,-17.8934,3715.4517],[-67.7093,-17.8916,3715.4844],[-67.7137,-17.8936,3715.2622],[-67.7129,-17.8891,3715.7168],[-67.7164,-17.8814,3716.2314],[-67.716,-17.8745,3716.3799],[-67.7224,-17.8709,3716.6548],[-67.7242,-17.8647,3716.9155],[-67.7275,-17.8635,3717.0312],[-67.7315,-17.8593,3717.4451],[-67.7526,-17.8715,3718.1851],[-67.7641,-17.8759,3720.0417],[-67.7905,-17.8806,3723.3855],[-67.797,-17.8767,3724.146],[-67.8077,-17.8732,3727.2061],[-67.8112,-17.8686,3728.1426],[-67.8172,-17.8651,3729.8037],[-67.8179,-17.8627,3729.6997],[-67.8235,-17.8612,3732.385],[-67.823,-17.8598,3732.385],[-67.8274,-17.8537,3736.083],[-67.8267,-17.8517,3735.7612],[-67.8317,-17.8488,3739.4922],[-67.8337,-17.8492,3740.4536],[-67.8482,-17.8294,3762.0112],[-67.8524,-17.8289,3768.0757],[-67.8526,-17.8247,3759.5691],[-67.861,-17.8225,3775.0659],[-67.8605,-17.8143,3753.873],[-67.8639,-17.8148,3770.7598],[-67.8683,-17.8115,3759.3118],[-67.8725,-17.8112,3762.1519],[-67.8835,-17.8052,3768.5684]]]]}
,"properties": {"GID_2": "BOL.5.7_2","GID_0": "BOL","country": "Bolivia","GID_1": "BOL.5_1","province": "Oruro","NL_NAME_1": "NA","county": "NorCarangas","VARNAME_2": "NA","NL_NAME_2": "NA","TYPE_2": "Provincia","ENGTYPE_2": "Province","CC_2": "NA","HASC_2": "NA","name": "Nor_Carangas.county","area_km2": 907.3098,"hist_schema_id": "Elevation0-9000","hist_area_km2": {"3700": 111.8484,"3725": 101.089,"3750": 20.2152,"3775": 22.3982,"3800": 27.5231,"3825": 33.9038,"3850": 43.1287,"3875": 42.6046,"3900": 40.4573,"3925": 36.8948,"3950": 38.3644,"3975": 32.6969,"4000": 29.1471,"4025": 27.0302,"4050": 26.6883,"4075": 28.9885,"4100": 27.133,"4125": 26.5082,"4150": 24.7729,"4175": 23.179,"4200": 19.9714,"4225": 17.8918,"4250": 14.5216,"4275": 13.8143,"4300": 11.4947,"4325": 10.566,"4350": 8.9526,"4375": 7.0572,"4400": 6.9359,"4425": 5.7865,"4450": 5.2623,"4475": 4.6173,"4500": 3.8309,"4525": 3.2662,"4550": 2.6814,"4575": 2.5805,"4600": 1.4111,"4625": 1.0281,"4650": 0.6451,"4675": 0.3628,"4700": 0.0605}}}