{"type": "Feature","bbox": [-68.7284,-16.5304,-68.1537,-16.1111],"geometry": {"type": "MultiPolygon","coordinates": [[[[-68.7284,-16.4219,3811.0981],[-68.7166,-16.446,3878.092],[-68.7126,-16.461,3934.5723],[-68.7048,-16.4744,4013.1426],[-68.7053,-16.4909,3972.626],[-68.7039,-16.4978,4030.7988],[-68.7074,-16.5033,4060.7905],[-68.7038,-16.514,4112.1606],[-68.6991,-16.519,4097.5132],[-68.6866,-16.523,4073.9902],[-68.6624,-16.523,4092.438],[-68.6527,-16.5209,4132.8828],[-68.6382,-16.5229,4160.8271],[-68.6312,-16.5273,4123.416],[-68.6291,-16.5257,4151.0479],[-68.6177,-16.5304,4156.5063],[-68.6155,-16.53,4168.6206],[-68.6199,-16.5201,4153.9746],[-68.6044,-16.5117,4111.1875],[-68.6011,-16.5179,4093.8145],[-68.5936,-16.5226,4135.8223],[-68.5723,-16.5005,3820.8379],[-68.5467,-16.4784,3819.5742],[-68.5409,-16.486,3820.03],[-68.5411,-16.4931,3820.3108],[-68.5367,-16.4989,3820.8643],[-68.5353,-16.4979,3821.3342],[-68.5315,-16.5008,3820.7632],[-68.5289,-16.4991,3821.2349],[-68.526,-16.4996,3821.7754],[-68.5223,-16.5036,3821.3916],[-68.5198,-16.5027,3822.0679],[-68.5145,-16.5055,3822.0764],[-68.5146,-16.5088,3821.7634],[-68.5104,-16.5139,3822.6184],[-68.5033,-16.5148,3822.5676],[-68.4975,-16.5066,3830.5537],[-68.4779,-16.4913,3905.5686],[-68.4724,-16.4772,3993.2756],[-68.4679,-16.473,4001.7207],[-68.4594,-16.4716,4108.9199],[-68.4511,-16.4796,4041.0278],[-68.4342,-16.4674,3834.3989],[-68.4106,-16.4723,3838.9019],[-68.4083,-16.4714,3839.3271],[-68.4082,-16.4685,3840.8269],[-68.3979,-16.4599,3847.7561],[-68.3731,-16.4913,3877.658],[-68.3602,-16.4793,3867.71],[-68.3309,-16.4682,3903.3342],[-68.3167,-16.4596,3930.4153],[-68.3062,-16.4746,3922.6038],[-68.3201,-16.5017,3884.6594],[-68.3076,-16.513,3890.7751],[-68.3005,-16.5102,3896.541],[-68.305,-16.5075,3895.7722],[-68.2974,-16.491,3918.8203],[-68.289,-16.4834,3940.0376],[-68.2824,-16.4717,3963.5474],[-68.2764,-16.4649,3984.5388],[-68.2766,-16.4622,3987.4373],[-68.2705,-16.4559,4007.8589],[-68.2704,-16.4446,4046.6201],[-68.2633,-16.4337,4092.4355],[-68.2434,-16.3927,4248.3013],[-68.2163,-16.3835,4400.0146],[-68.2055,-16.3365,4606.5],[-68.1991,-16.3288,4645.4316],[-68.1931,-16.3246,4711.0513],[-68.1909,-16.3153,4743.4102],[-68.1849,-16.3056,4806.2593],[-68.1853,-16.3026,4831.7661],[-68.1703,-16.2928,5168.6177],[-68.1656,-16.2775,5315.0649],[-68.1537,-16.2626,6003.2451],[-68.1813,-16.2373,5259.124],[-68.2147,-16.2173,4947.9912],[-68.21,-16.2111,4971.9189],[-68.2076,-16.201,5073.2549],[-68.2143,-16.1913,5077.5146],[-68.2174,-16.1892,5293.7974],[-68.2182,-16.184,5137.3662],[-68.2162,-16.181,5177.7554],[-68.2178,-16.1744,5282.0264],[-68.2176,-16.1538,4951.5967],[-68.2251,-16.1246,4799.2852],[-68.2316,-16.1151,4967.1152],[-68.2369,-16.1111,4677.144],[-68.2477,-16.1251,5125.0576],[-68.2512,-16.136,4860.3799],[-68.2552,-16.14,4793.3711],[-68.2647,-16.1439,4645.6138],[-68.2728,-16.1447,4643.2339],[-68.2823,-16.1493,4577.8135],[-68.3106,-16.1546,4515.2139],[-68.3159,-16.1506,4437.8848],[-68.3252,-16.1538,4391.7725],[-68.3287,-16.1607,4391.749],[-68.3361,-16.1687,4306.4604],[-68.3399,-16.182,4292.6201],[-68.3539,-16.2121,4290.0],[-68.3534,-16.2147,4293.2988],[-68.3568,-16.2172,4276.1084],[-68.3718,-16.2161,4247.311],[-68.3788,-16.2187,4244.7437],[-68.3845,-16.2294,4244.3545],[-68.3925,-16.2362,4222.2651],[-68.397,-16.2424,4189.6309],[-68.3986,-16.2496,4157.2832],[-68.4143,-16.2647,4072.3105],[-68.4242,-16.2714,4033.9814],[-68.4284,-16.2775,4018.178],[-68.4354,-16.2822,3994.854],[-68.4383,-16.2863,3984.4006],[-68.4539,-16.295,3945.9824],[-68.4374,-16.3202,3952.4001],[-68.4295,-16.3242,3959.4512],[-68.4151,-16.3372,3967.5093],[-68.4236,-16.3427,3949.3628],[-68.425,-16.342,3949.3628],[-68.4265,-16.3454,3943.7058],[-68.4519,-16.3716,3881.2307],[-68.4664,-16.3624,3874.9053],[-68.4642,-16.3507,3888.5918],[-68.4777,-16.3418,3879.2903],[-68.4817,-16.3431,3875.269],[-68.488,-16.3502,3864.6558],[-68.4997,-16.3575,3850.584],[-68.5047,-16.3524,3850.3342],[-68.5094,-16.3592,3845.3384],[-68.5293,-16.3507,3834.6072],[-68.541,-16.3319,3829.0273],[-68.5494,-16.3475,3830.1846],[-68.554,-16.3518,3829.5959],[-68.5743,-16.3489,3823.4231],[-68.5782,-16.3604,3871.5024],[-68.5771,-16.3715,4256.2246],[-68.5896,-16.3643,4110.6445],[-68.598,-16.3552,3932.5808],[-68.6123,-16.3466,4028.7197],[-68.6191,-16.3377,3919.7515],[-68.6245,-16.3397,3817.7903],[-68.6257,-16.3427,3810.8428],[-68.6237,-16.3447,3813.0632],[-68.6246,-16.3491,3812.1577],[-68.6295,-16.3509,3811.7261],[-68.6374,-16.3479,3825.4819],[-68.6449,-16.3526,4063.6135],[-68.6514,-16.3514,4031.0598],[-68.656,-16.3417,4013.0767],[-68.6642,-16.3495,3837.8208],[-68.6766,-16.371,3808.5],[-68.6799,-16.3731,3809.7998],[-68.6891,-16.3732,3808.5],[-68.6897,-16.3781,3808.5],[-68.6923,-16.3776,3808.5],[-68.6924,-16.3805,3808.9507],[-68.7018,-16.3863,3811.2271],[-68.707,-16.3802,3810.0425],[-68.7093,-16.3801,3809.0479],[-68.7082,-16.3879,3811.2625],[-68.7216,-16.3975,3811.3171],[-68.7192,-16.3998,3811.4189],[-68.7141,-16.4011,3811.4111],[-68.7142,-16.4028,3811.3525],[-68.7222,-16.4112,3810.4224],[-68.7284,-16.4219,3811.0981]]]]}
,"properties": {"GID_3": "BOL.4.14.4_2","GID_0": "BOL","country": "Bolivia","GID_1": "BOL.4_1","province": "LaPaz","NL_NAME_1": "NA","GID_2": "BOL.4.14_2","county": "LosAndes","NL_NAME_2": "NA","city": "Pucarani","VARNAME_3": "NA","NL_NAME_3": "NA","TYPE_3": "District","ENGTYPE_3": "Distrito","CC_3": "NA","HASC_3": "NA","name": "Pucarani.city","area_km2": 1260.9412,"hist_schema_id": "Elevation0-9000","hist_area_km2": {"3800": 42.6521,"3825": 237.4336,"3850": 92.9989,"3875": 73.8018,"3900": 55.0496,"3925": 41.8324,"3950": 36.9952,"3975": 34.6591,"4000": 28.923,"4025": 29.432,"4050": 27.5205,"4075": 28.274,"4100": 26.0372,"4125": 24.6957,"4150": 19.9776,"4175": 17.0697,"4200": 17.1313,"4225": 18.5762,"4250": 16.6039,"4275": 14.3252,"4300": 15.5681,"4325": 14.713,"4350": 13.3908,"4375": 15.6497,"4400": 13.6358,"4425": 15.448,"4450": 14.9185,"4475": 13.9416,"4500": 12.3546,"4525": 12.3956,"4550": 11.3168,"4575": 11.7853,"4600": 13.7399,"4625": 12.2337,"4650": 13.862,"4675": 14.0859,"4700": 13.2105,"4725": 12.1724,"4750": 11.5212,"4775": 11.5416,"4800": 10.7884,"4825": 11.7249,"4850": 10.6461,"4875": 9.5271,"4900": 7.8174,"4925": 7.2067,"4950": 6.2909,"4975": 5.497,"5000": 5.4564,"5025": 4.3165,"5050": 3.9705,"5075": 3.6854,"5100": 3.3392,"5125": 2.9523,"5150": 2.7488,"5175": 2.5859,"5200": 2.0565,"5225": 1.6289,"5250": 1.6697,"5275": 1.2217,"5300": 0.5905,"5325": 0.8348,"5350": 0.4072,"5375": 0.5498,"5400": 0.285,"5425": 0.3054,"5450": 0.3258,"5475": 0.2443,"5500": 0.1629,"5525": 0.1222,"5550": 0.0611,"5575": 0.0815,"5600": 0.1222,"5625": 0.0204,"5650": 0.0407,"5675": 0.0204,"5700": 0.0204,"5725": 0.0204,"5775": 0.0407,"5825": 0.0407,"6000": 0.0204,"6050": 0.0204}}}