{"type": "Feature","bbox": [-66.7293,-18.7881,-66.1774,-18.2049],"geometry": {"type": "MultiPolygon","coordinates": [[[[-66.3832,-18.7318,4243.043],[-66.3797,-18.7384,4228.9312],[-66.3663,-18.7274,4050.9089],[-66.3577,-18.7272,4135.1562],[-66.3233,-18.7058,4049.4231],[-66.3139,-18.6965,3556.6445],[-66.3134,-18.6941,3561.3452],[-66.3013,-18.6833,3541.5398],[-66.3022,-18.6805,3552.0637],[-66.2911,-18.6775,3681.8882],[-66.2859,-18.6713,3808.5767],[-66.2853,-18.6665,3754.7952],[-66.2759,-18.6629,3325.5422],[-66.277,-18.6591,3310.5139],[-66.2793,-18.6574,3327.3982],[-66.278,-18.6558,3317.4419],[-66.2798,-18.6533,3301.4575],[-66.2778,-18.6531,3332.4536],[-66.2795,-18.6511,3345.2446],[-66.2813,-18.6515,3335.3132],[-66.2852,-18.6421,3306.9836],[-66.2871,-18.6414,3306.9836],[-66.2871,-18.6373,3346.8523],[-66.2908,-18.6367,3312.6792],[-66.2914,-18.6348,3303.3945],[-66.2901,-18.6302,3309.7126],[-66.2871,-18.6285,3310.9478],[-66.2857,-18.6176,3284.4478],[-66.2797,-18.6164,3316.7791],[-66.2746,-18.6097,3344.022],[-66.274,-18.5994,3282.8198],[-66.2752,-18.5972,3241.9019],[-66.2847,-18.5916,3220.0491],[-66.2842,-18.5853,3201.8562],[-66.2869,-18.5791,3187.2058],[-66.2866,-18.5735,3184.2935],[-66.2813,-18.5671,3174.1045],[-66.2785,-18.5602,3129.5371],[-66.2787,-18.5536,3109.6943],[-66.2745,-18.5508,3113.4026],[-66.2648,-18.5515,3110.4556],[-66.2615,-18.55,3103.2007],[-66.2578,-18.553,3082.5054],[-66.2545,-18.5593,3090.0447],[-66.2507,-18.5594,3108.8804],[-66.2503,-18.5484,3142.4021],[-66.2447,-18.5437,3060.8992],[-66.2384,-18.5261,3060.1965],[-66.235,-18.5255,3035.2158],[-66.2324,-18.5218,3029.8132],[-66.2305,-18.5225,3016.6379],[-66.2258,-18.5169,3024.833],[-66.222,-18.5186,3001.2349],[-66.2149,-18.5129,3132.5142],[-66.2109,-18.5148,3060.3677],[-66.2068,-18.5132,3068.9568],[-66.2064,-18.518,2986.8623],[-66.2039,-18.5213,3039.4729],[-66.1962,-18.5196,2990.0068],[-66.1928,-18.5208,2989.8809],[-66.1879,-18.5143,2969.2234],[-66.1853,-18.5033,3040.7817],[-66.1774,-18.4941,2903.0244],[-66.1799,-18.4898,2906.491],[-66.1825,-18.4894,2938.8423],[-66.1944,-18.481,3028.1411],[-66.1993,-18.4738,2967.1648],[-66.202,-18.4726,3001.229],[-66.2077,-18.4591,2996.9097],[-66.2102,-18.4569,3003.8018],[-66.2126,-18.4578,2995.8337],[-66.2173,-18.4515,3032.7275],[-66.2258,-18.4465,3043.4897],[-66.2293,-18.4384,3109.4302],[-66.2359,-18.4333,3081.8757],[-66.2392,-18.4262,3158.4685],[-66.2417,-18.4253,3078.8586],[-66.2427,-18.4204,3108.7124],[-66.2517,-18.4068,3149.001],[-66.2644,-18.3976,3191.6157],[-66.2777,-18.3928,3153.3501],[-66.2796,-18.3897,3144.1201],[-66.2875,-18.3888,3162.8118],[-66.2917,-18.3848,3165.3816],[-66.2972,-18.3839,3158.0942],[-66.3001,-18.3746,3166.2373],[-66.3079,-18.3693,3191.3779],[-66.3108,-18.3646,3176.4536],[-66.3111,-18.3568,3197.4924],[-66.314,-18.3553,3212.1287],[-66.316,-18.3505,3191.7996],[-66.3233,-18.3479,3196.2744],[-66.3263,-18.3422,3212.7502],[-66.3323,-18.3408,3202.3113],[-66.3447,-18.3302,3277.9863],[-66.3471,-18.3301,3252.2554],[-66.3483,-18.3268,3247.3101],[-66.3519,-18.3252,3246.3142],[-66.3525,-18.3208,3298.8154],[-66.3557,-18.3172,3269.8137],[-66.3521,-18.3133,3334.8823],[-66.3433,-18.2952,3621.0835],[-66.3431,-18.293,3640.8254],[-66.3454,-18.2901,3717.2048],[-66.3449,-18.28,3988.9514],[-66.3389,-18.2697,3875.625],[-66.3331,-18.2613,3640.9128],[-66.3206,-18.2533,3800.8831],[-66.3049,-18.2257,3728.7449],[-66.3009,-18.2261,3783.583],[-66.2973,-18.2219,3865.1929],[-66.2999,-18.2155,3974.2317],[-66.2994,-18.2114,4087.1941],[-66.3038,-18.2051,3993.5059],[-66.3146,-18.2049,3894.5654],[-66.3209,-18.2095,3893.4565],[-66.3298,-18.2084,4053.5537],[-66.3323,-18.2063,4064.8169],[-66.3437,-18.2052,3916.2461],[-66.3518,-18.2074,3923.5657],[-66.3533,-18.2057,3925.6262],[-66.3647,-18.2067,3793.26],[-66.3659,-18.2104,3704.8242],[-66.3714,-18.2117,3545.6392],[-66.3798,-18.2182,3853.8445],[-66.3926,-18.2356,4054.0439],[-66.4018,-18.2344,3889.3398],[-66.4088,-18.2401,3575.4075],[-66.4172,-18.2579,3298.8882],[-66.4165,-18.259,3298.9971],[-66.4213,-18.2599,3305.8354],[-66.4252,-18.2569,3309.1094],[-66.4314,-18.2564,3301.3674],[-66.4343,-18.266,3306.0847],[-66.4379,-18.2673,3316.666],[-66.4419,-18.2656,3310.6956],[-66.4452,-18.2699,3317.6931],[-66.4517,-18.2725,3322.6958],[-66.4595,-18.2738,3383.2559],[-66.4649,-18.2708,3528.9438],[-66.4692,-18.2713,3599.4573],[-66.4763,-18.2655,3652.6392],[-66.4952,-18.2601,3530.9653],[-66.4986,-18.2613,3469.698],[-66.5014,-18.2694,3529.2734],[-66.5066,-18.2708,3556.0911],[-66.513,-18.2685,3669.6328],[-66.5148,-18.2696,3685.7603],[-66.5159,-18.2753,3740.7021],[-66.5194,-18.2748,3775.6897],[-66.5214,-18.2766,3805.7346],[-66.5249,-18.2724,3676.228],[-66.5317,-18.2735,3740.9775],[-66.5343,-18.2754,3758.438],[-66.5439,-18.2711,3871.5562],[-66.5465,-18.2724,3851.7266],[-66.5475,-18.2707,3840.8083],[-66.5497,-18.2744,3869.6895],[-66.5541,-18.2767,3875.2776],[-66.5586,-18.2751,3876.1492],[-66.5624,-18.2772,3891.791],[-66.5657,-18.2768,3902.6177],[-66.5685,-18.2793,3917.6067],[-66.5807,-18.2792,4035.1187],[-66.5867,-18.282,4107.1655],[-66.6144,-18.2793,4101.9414],[-66.6273,-18.2873,4112.0327],[-66.6353,-18.2869,4117.8486],[-66.6386,-18.2884,4125.2324],[-66.644,-18.2935,4136.5308],[-66.6614,-18.2956,4165.0225],[-66.6661,-18.3072,4203.7539],[-66.6786,-18.3164,4316.6914],[-66.7029,-18.3235,4398.9536],[-66.7081,-18.3288,4438.9536],[-66.7293,-18.3404,4592.939],[-66.7149,-18.362,4523.9834],[-66.7142,-18.378,4410.1309],[-66.6986,-18.4032,4311.8442],[-66.6972,-18.4084,4288.7935],[-66.7,-18.419,4255.7515],[-66.6976,-18.4356,4376.7388],[-66.6871,-18.4624,4665.6675],[-66.6815,-18.4717,4592.6719],[-66.6841,-18.4743,4563.8486],[-66.6811,-18.4928,4515.1543],[-66.6814,-18.5012,4334.8022],[-66.6755,-18.5046,4391.541],[-66.6715,-18.515,4362.626],[-66.6661,-18.5211,4286.9512],[-66.6631,-18.5329,4223.8398],[-66.6644,-18.5354,4218.9839],[-66.6628,-18.541,4208.5396],[-66.6578,-18.5481,4192.9219],[-66.6568,-18.5532,4184.8179],[-66.6577,-18.5669,4168.5586],[-66.6566,-18.5693,4165.3691],[-66.6509,-18.573,4157.2339],[-66.6499,-18.5781,4158.0283],[-66.6423,-18.5896,4177.8872],[-66.6395,-18.5988,4194.6309],[-66.6407,-18.6118,4222.9009],[-66.6463,-18.6148,4133.1353],[-66.6442,-18.6303,4103.7812],[-66.6358,-18.6459,4074.1626],[-66.632,-18.6491,4094.0164],[-66.6179,-18.6456,4246.8149],[-66.6069,-18.6506,4408.3799],[-66.6119,-18.66,4239.7979],[-66.6049,-18.6628,4325.7075],[-66.6052,-18.6668,4302.5234],[-66.6006,-18.6662,4404.0625],[-66.5956,-18.6745,4327.1592],[-66.5948,-18.679,4142.3428],[-66.5959,-18.6842,4334.2622],[-66.5949,-18.687,4338.5264],[-66.6019,-18.6942,4015.5544],[-66.6002,-18.696,4005.9395],[-66.5978,-18.6978,4041.2195],[-66.5886,-18.6958,4159.4561],[-66.5813,-18.7028,4439.0508],[-66.5796,-18.7066,4488.0801],[-66.5775,-18.706,4566.3921],[-66.5764,-18.7075,4558.8379],[-66.5762,-18.7144,4500.8774],[-66.5648,-18.7182,4100.3369],[-66.5621,-18.7167,4179.5527],[-66.5557,-18.7191,4247.3984],[-66.537,-18.721,4533.8516],[-66.5382,-18.7368,4445.3301],[-66.5372,-18.7491,4492.8975],[-66.5321,-18.7737,4521.0894],[-66.5292,-18.7778,4604.2358],[-66.5218,-18.7823,4512.1836],[-66.5025,-18.7881,4567.3506],[-66.4997,-18.7873,4515.5562],[-66.4831,-18.7697,4042.637],[-66.4775,-18.7613,4293.5],[-66.4782,-18.7518,4360.9897],[-66.4749,-18.7315,4357.0049],[-66.4708,-18.7194,4234.8721],[-66.4605,-18.7071,3627.614],[-66.4556,-18.7069,3611.4915],[-66.4482,-18.7038,3595.689],[-66.446,-18.7044,3592.2573],[-66.4428,-18.7016,3571.0151],[-66.437,-18.7086,3569.4402],[-66.4298,-18.7066,3543.4028],[-66.428,-18.7042,3539.3267],[-66.4235,-18.7078,3559.2886],[-66.4233,-18.7097,3622.4121],[-66.4133,-18.7077,3882.5356],[-66.4101,-18.7124,3863.8887],[-66.3982,-18.7128,4062.918],[-66.3923,-18.717,4031.7458],[-66.3832,-18.7318,4243.043]]]]}
,"properties": {"GID_2": "BOL.7.13_2","GID_0": "BOL","country": "Bolivia","GID_1": "BOL.7_1","province": "Potosí","NL_NAME_1": "NA","county": "RafaelBustillo","VARNAME_2": "Bustillos","NL_NAME_2": "NA","TYPE_2": "Provincia","ENGTYPE_2": "Province","CC_2": "NA","HASC_2": "NA","name": "Rafael_Bustillo.county","area_km2": 2126.959,"hist_schema_id": "Elevation0-9000","hist_area_km2": {"2875": 0.02,"2900": 0.121,"2925": 0.161,"2950": 0.322,"2975": 0.442,"3000": 0.563,"3025": 0.744,"3050": 0.845,"3075": 1.347,"3100": 1.85,"3125": 1.79,"3150": 2.293,"3175": 3.379,"3200": 2.715,"3225": 4.223,"3250": 3.721,"3275": 7.323,"3300": 7.664,"3325": 9.315,"3350": 10.722,"3375": 11.849,"3400": 12.572,"3425": 14.302,"3450": 15.086,"3475": 17.077,"3500": 18.404,"3525": 21.32,"3550": 23.633,"3575": 26.751,"3600": 28.158,"3625": 31.196,"3650": 34.191,"3675": 40.486,"3700": 59.312,"3725": 80.268,"3750": 78.031,"3775": 79.337,"3800": 75.532,"3825": 72.795,"3850": 73.153,"3875": 70.576,"3900": 73.731,"3925": 79.54,"3950": 78.574,"3975": 74.289,"4000": 72.74,"4025": 72.262,"4050": 71.038,"4075": 64.742,"4100": 53.643,"4125": 61.451,"4150": 54.878,"4175": 47.455,"4200": 43.652,"4225": 39.064,"4250": 30.355,"4275": 24.704,"4300": 22.091,"4325": 22.816,"4350": 21.871,"4375": 21.47,"4400": 22.938,"4425": 21.812,"4450": 20.908,"4475": 19.762,"4500": 18.998,"4525": 15.781,"4550": 12.625,"4575": 8.966,"4600": 5.83,"4625": 3.055,"4650": 1.427,"4675": 0.703,"4700": 0.141,"4725": 0.06}}}