{"type": "Feature","bbox": [-68.9661,-15.7758,-68.4479,-15.1525],"geometry": {"type": "MultiPolygon","coordinates": [[[[-68.9615,-15.5401,2554.9902],[-68.9623,-15.5408,2660.1743],[-68.9598,-15.5429,2713.3618],[-68.9488,-15.5393,3090.7085],[-68.9431,-15.5354,3310.4626],[-68.9375,-15.5366,3484.7227],[-68.9322,-15.535,3536.573],[-68.9291,-15.5364,3444.7388],[-68.9279,-15.5499,3804.3438],[-68.9361,-15.571,3932.011],[-68.9332,-15.5783,4006.8066],[-68.9384,-15.5825,3838.6265],[-68.9427,-15.5931,3914.7568],[-68.9405,-15.5991,3885.5967],[-68.9317,-15.6051,3689.7222],[-68.9211,-15.6159,3354.8889],[-68.9123,-15.6171,2948.4321],[-68.9114,-15.623,3080.7188],[-68.9034,-15.6379,3587.165],[-68.9267,-15.6653,4227.395],[-68.9289,-15.6732,4191.3794],[-68.9323,-15.6762,4287.2568],[-68.9362,-15.6833,4317.3462],[-68.9395,-15.6837,4338.4629],[-68.9508,-15.6936,4368.0566],[-68.9527,-15.6996,4426.2842],[-68.9522,-15.738,4560.0645],[-68.9454,-15.7425,4486.2129],[-68.9396,-15.7556,4606.0234],[-68.928,-15.7606,4607.376],[-68.9179,-15.7726,4672.457],[-68.9075,-15.7758,4636.2583],[-68.8887,-15.7617,4620.0967],[-68.8779,-15.7613,4530.6025],[-68.8756,-15.7639,4454.0938],[-68.8674,-15.7645,4293.5801],[-68.8521,-15.7558,3987.3831],[-68.8481,-15.7559,3927.3892],[-68.8426,-15.7596,3853.1152],[-68.8304,-15.754,3441.9602],[-68.8221,-15.7548,3366.6228],[-68.8053,-15.7356,2833.6152],[-68.8016,-15.7358,2760.2236],[-68.7976,-15.7313,2716.2632],[-68.7928,-15.731,2643.1355],[-68.791,-15.7292,2604.0562],[-68.7864,-15.7132,2407.447],[-68.7843,-15.7119,2394.4233],[-68.783,-15.7074,2323.1055],[-68.7813,-15.7071,2323.1055],[-68.7805,-15.7043,2271.3782],[-68.7766,-15.7011,2259.4106],[-68.7759,-15.694,2158.7969],[-68.7709,-15.6912,2121.1995],[-68.7636,-15.668,2022.0687],[-68.7586,-15.6635,1990.3937],[-68.7587,-15.6596,1898.3397],[-68.7542,-15.6561,1991.8032],[-68.7539,-15.6502,1893.6128],[-68.7561,-15.6461,1789.4453],[-68.7498,-15.6418,1728.4553],[-68.754,-15.6334,1650.2318],[-68.7581,-15.6319,1619.2117],[-68.7621,-15.6342,1640.1128],[-68.7651,-15.6334,1632.8633],[-68.7716,-15.6281,1588.1703],[-68.7743,-15.618,1559.8944],[-68.7735,-15.6094,1547.5452],[-68.7764,-15.6042,1542.9548],[-68.7759,-15.5991,1546.0569],[-68.7783,-15.5956,1525.038],[-68.7744,-15.5838,1500.6658],[-68.7708,-15.5791,1586.0475],[-68.7703,-15.5725,1485.2267],[-68.7643,-15.5702,1534.9613],[-68.7603,-15.5653,1471.584],[-68.7486,-15.56,1469.229],[-68.7405,-15.5535,1433.661],[-68.7273,-15.5504,1411.3268],[-68.7078,-15.5416,1385.5635],[-68.7003,-15.5252,1393.2966],[-68.6951,-15.5213,1351.5144],[-68.6875,-15.51,1356.2947],[-68.6834,-15.5081,1354.613],[-68.676,-15.5077,1352.0417],[-68.6709,-15.5044,1316.9258],[-68.6685,-15.4958,1264.4938],[-68.6692,-15.4902,1305.2173],[-68.6637,-15.4834,1259.4792],[-68.6562,-15.4808,1250.1881],[-68.6449,-15.4726,1208.9033],[-68.6251,-15.4684,1191.2363],[-68.6218,-15.4649,1186.7509],[-68.5941,-15.4513,1119.6455],[-68.6053,-15.432,2174.5151],[-68.6137,-15.4215,2733.3906],[-68.6177,-15.4109,3254.572],[-68.6325,-15.3863,2989.0498],[-68.6327,-15.3812,2719.0085],[-68.6344,-15.3787,2730.6143],[-68.6333,-15.3746,2624.2715],[-68.6362,-15.372,2477.7959],[-68.6407,-15.3717,2522.3774],[-68.6471,-15.3683,2602.354],[-68.654,-15.3632,2746.7451],[-68.6358,-15.3433,4182.9688],[-68.6308,-15.3296,4113.6982],[-68.6094,-15.332,3369.8789],[-68.5796,-15.3176,3564.6274],[-68.5681,-15.3013,2669.1909],[-68.5594,-15.2934,2109.4265],[-68.5498,-15.2727,1805.7146],[-68.5377,-15.265,1626.3311],[-68.5345,-15.2556,1461.3909],[-68.52,-15.2436,1395.0298],[-68.5183,-15.2373,1223.241],[-68.5198,-15.2329,1274.7268],[-68.5164,-15.2204,1109.2848],[-68.5071,-15.2157,1058.9271],[-68.501,-15.2145,1078.5334],[-68.4991,-15.2133,1034.1621],[-68.4987,-15.2099,986.1409],[-68.4934,-15.2077,1134.2036],[-68.4904,-15.204,1015.9889],[-68.4843,-15.2026,931.7354],[-68.4814,-15.1996,902.8429],[-68.4691,-15.1947,856.8154],[-68.4544,-15.2,790.5769],[-68.4511,-15.1985,835.1975],[-68.4479,-15.1943,916.7922],[-68.448,-15.1893,858.2519],[-68.4593,-15.1761,735.6334],[-68.4659,-15.1719,749.2312],[-68.4653,-15.1592,746.7079],[-68.4778,-15.1527,783.8099],[-68.4861,-15.1534,782.9551],[-68.4938,-15.1585,890.0252],[-68.5019,-15.1542,772.256],[-68.5123,-15.1525,807.206],[-68.5189,-15.1571,883.2996],[-68.5204,-15.1617,869.0159],[-68.5365,-15.1675,836.1127],[-68.5413,-15.1721,914.782],[-68.5435,-15.1719,871.2732],[-68.5452,-15.1748,944.4341],[-68.5641,-15.1796,929.4799],[-68.5781,-15.1904,991.5021],[-68.5925,-15.1972,968.6096],[-68.6025,-15.1982,1034.7665],[-68.6105,-15.2036,1034.6906],[-68.6254,-15.2047,1135.6569],[-68.6504,-15.2204,1205.3396],[-68.6717,-15.2201,1242.1425],[-68.6763,-15.2167,1260.9667],[-68.687,-15.2152,1278.6844],[-68.6931,-15.2105,1284.1659],[-68.7054,-15.2075,1342.4272],[-68.7129,-15.2101,1356.719],[-68.7264,-15.2264,1389.0647],[-68.7372,-15.2325,1377.9281],[-68.7447,-15.2343,1398.9817],[-68.7539,-15.2324,1431.5239],[-68.7606,-15.2271,1478.2947],[-68.7698,-15.2308,1571.416],[-68.7768,-15.2314,1700.0459],[-68.7796,-15.2347,1788.5724],[-68.7858,-15.2317,1732.4978],[-68.7891,-15.233,1795.1519],[-68.7903,-15.2367,1875.2185],[-68.7963,-15.2421,1901.1006],[-68.7984,-15.248,2066.8616],[-68.8083,-15.248,2101.6384],[-68.8188,-15.2502,2225.7241],[-68.8353,-15.2585,2499.0996],[-68.8411,-15.2656,2609.3569],[-68.8424,-15.2781,2895.1111],[-68.8488,-15.2903,3074.4905],[-68.8528,-15.3116,3490.2864],[-68.8612,-15.331,3873.4746],[-68.8635,-15.3326,3826.9011],[-68.871,-15.332,3963.8271],[-68.8761,-15.3345,4045.1792],[-68.8828,-15.333,4210.5688],[-68.8924,-15.3352,4301.8848],[-68.905,-15.3432,4676.6221],[-68.9142,-15.3579,4677.3306],[-68.9202,-15.3752,4709.8032],[-68.9141,-15.3862,4338.6904],[-68.912,-15.4096,3887.3857],[-68.9286,-15.4254,3434.1555],[-68.9293,-15.4462,3211.6152],[-68.9382,-15.443,3430.3477],[-68.954,-15.4514,3217.5996],[-68.9652,-15.4702,2425.2773],[-68.9549,-15.489,2403.6719],[-68.9505,-15.4911,2341.594],[-68.9486,-15.497,2381.249],[-68.9377,-15.5022,2178.3042],[-68.9426,-15.5031,2207.2222],[-68.9475,-15.5071,2250.7905],[-68.9519,-15.5077,2315.1946],[-68.9572,-15.504,2301.312],[-68.9625,-15.5061,2382.4202],[-68.9661,-15.518,2401.3342],[-68.9653,-15.5239,2430.0981],[-68.9607,-15.5324,2554.9263],[-68.9615,-15.5401,2554.9902]]]]}
,"properties": {"GID_2": "BOL.4.16_2","GID_0": "BOL","country": "Bolivia","GID_1": "BOL.4_1","province": "LaPaz","NL_NAME_1": "NA","county": "Muñecas","VARNAME_2": "NA","NL_NAME_2": "NA","TYPE_2": "Provincia","ENGTYPE_2": "Province","CC_2": "NA","HASC_2": "NA","name": "Muñecas.county","area_km2": 1606.955,"hist_schema_id": "Elevation0-9000","hist_area_km2": {"750": 0.061,"775": 0.184,"800": 0.246,"825": 0.327,"850": 0.532,"875": 0.553,"900": 0.696,"925": 0.675,"950": 1.003,"975": 0.819,"1000": 0.982,"1025": 1.166,"1050": 1.187,"1075": 1.31,"1100": 1.269,"1125": 1.534,"1150": 1.902,"1175": 1.739,"1200": 2.312,"1225": 2.475,"1250": 2.721,"1275": 2.904,"1300": 2.925,"1325": 3.211,"1350": 3.477,"1375": 3.825,"1400": 3.947,"1425": 3.906,"1450": 4.274,"1475": 4.437,"1500": 4.826,"1525": 4.601,"1550": 5.378,"1575": 5.582,"1600": 5.888,"1625": 6.011,"1650": 6.46,"1675": 7.646,"1700": 6.91,"1725": 7.585,"1750": 7.769,"1775": 7.891,"1800": 8.77,"1825": 8.095,"1850": 8.504,"1875": 8.83,"1900": 9.342,"1925": 9.853,"1950": 9.709,"1975": 9.771,"2000": 10.2,"2025": 10.567,"2050": 10.383,"2075": 10.914,"2100": 11.324,"2125": 10.976,"2150": 11.344,"2175": 11.364,"2200": 11.017,"2225": 12.324,"2250": 10.873,"2275": 12.487,"2300": 12.917,"2325": 11.302,"2350": 12.896,"2375": 13.61,"2400": 13.325,"2425": 13.201,"2450": 13.12,"2475": 13.344,"2500": 14.898,"2525": 14.08,"2550": 14.182,"2575": 13.692,"2600": 13.814,"2625": 13.691,"2650": 13.855,"2675": 15.449,"2700": 13.896,"2725": 15.224,"2750": 15.02,"2775": 15.347,"2800": 14.897,"2825": 14.713,"2850": 14.652,"2875": 15.244,"2900": 15.898,"2925": 16.49,"2950": 16.409,"2975": 15.775,"3000": 15.388,"3025": 16.367,"3050": 16.266,"3075": 15.244,"3100": 15.183,"3125": 15.305,"3150": 16.449,"3175": 14.794,"3200": 16.041,"3225": 15.919,"3250": 16.388,"3275": 15.019,"3300": 15.632,"3325": 15.387,"3350": 16.061,"3375": 15.347,"3400": 14.55,"3425": 16.328,"3450": 15.714,"3475": 15.858,"3500": 14.918,"3525": 14.304,"3550": 14.959,"3575": 14.919,"3600": 14.877,"3625": 14.939,"3650": 15.367,"3675": 14.571,"3700": 14.469,"3725": 14.878,"3750": 14.346,"3775": 14.489,"3800": 14.816,"3825": 14.796,"3850": 14.101,"3875": 13.079,"3900": 13.978,"3925": 13.283,"3950": 13.304,"3975": 13.528,"4000": 12.975,"4025": 11.729,"4050": 12.567,"4075": 12.69,"4100": 12.036,"4125": 11.301,"4150": 11.259,"4175": 10.728,"4200": 10.482,"4225": 10.768,"4250": 10.298,"4275": 10.339,"4300": 11.585,"4325": 11.421,"4350": 10.481,"4375": 9.705,"4400": 9.991,"4425": 10.011,"4450": 8.152,"4475": 7.621,"4500": 8.214,"4525": 6.11,"4550": 6.927,"4575": 5.518,"4600": 4.803,"4625": 3.863,"4650": 3.291,"4675": 2.658,"4700": 2.147,"4725": 1.615,"4750": 1.063,"4775": 0.859,"4800": 0.388,"4825": 0.47,"4850": 0.266,"4875": 0.204,"4900": 0.143,"4925": 0.143,"4950": 0.102,"4975": 0.02,"5000": 0.082,"5025": 0.02,"5050": 0.02}}}