{"type": "Feature","bbox": [-68.072,-22.9066,-66.2215,-21.2966],"geometry": {"type": "MultiPolygon","coordinates": [[[[-66.7832,-22.4325,5093.2217],[-66.7852,-22.4239,5081.1465],[-66.7843,-22.4018,4801.4185],[-66.7616,-22.3459,4746.0044],[-66.7596,-22.3254,4941.3848],[-66.7393,-22.2385,5383.7012],[-66.6862,-22.2095,5405.8691],[-66.6525,-22.2164,5471.3237],[-66.6383,-22.2255,5212.9263],[-66.6232,-22.1974,5491.1973],[-66.4184,-22.146,3815.9722],[-66.357,-22.1322,3606.4539],[-66.3455,-22.1276,3652.9553],[-66.3494,-22.1232,3556.1672],[-66.3475,-22.1196,3534.0767],[-66.3431,-22.1195,3556.6499],[-66.3399,-22.1168,3519.8667],[-66.3365,-22.1201,3606.2793],[-66.332,-22.1188,3552.6555],[-66.3317,-22.1118,3521.6902],[-66.328,-22.1093,3518.6331],[-66.3284,-22.103,3581.7397],[-66.3231,-22.0964,3522.5803],[-66.3227,-22.092,3508.2588],[-66.3252,-22.0876,3573.9341],[-66.3205,-22.0844,3596.9226],[-66.3175,-22.0839,3577.8074],[-66.3167,-22.0883,3489.1155],[-66.3142,-22.0882,3501.3638],[-66.3125,-22.0913,3534.252],[-66.3105,-22.0912,3512.3313],[-66.3083,-22.0938,3508.2122],[-66.3005,-22.0894,3550.095],[-66.2956,-22.0897,3493.8521],[-66.2895,-22.087,3502.3027],[-66.2877,-22.0826,3482.6445],[-66.2901,-22.0798,3487.8123],[-66.2907,-22.0742,3474.594],[-66.2853,-22.0702,3498.9036],[-66.2846,-22.0677,3474.769],[-66.2893,-22.067,3464.4104],[-66.2934,-22.0625,3508.355],[-66.2834,-22.0497,3445.9502],[-66.2872,-22.0482,3451.2432],[-66.291,-22.0515,3440.7183],[-66.2914,-22.0488,3490.4541],[-66.2858,-22.0411,3437.0757],[-66.2911,-22.0379,3492.2795],[-66.2921,-22.0342,3432.9673],[-66.2896,-22.0305,3439.3669],[-66.2839,-22.0302,3426.4402],[-66.2834,-22.0258,3427.196],[-66.2793,-22.025,3423.1772],[-66.2777,-22.0231,3422.3027],[-66.2819,-22.0146,3418.2239],[-66.2793,-22.0084,3414.8669],[-66.2795,-21.9929,3407.9375],[-66.2832,-21.989,3425.5085],[-66.2839,-21.9851,3455.6816],[-66.2829,-21.9815,3419.2654],[-66.2765,-21.9777,3402.1855],[-66.278,-21.9738,3398.6868],[-66.2773,-21.9703,3405.8455],[-66.275,-21.9671,3418.4807],[-66.2717,-21.9664,3453.0725],[-66.2744,-21.9644,3462.1331],[-66.2751,-21.961,3432.8105],[-66.2728,-21.9545,3428.0708],[-66.2747,-21.951,3461.8052],[-66.2728,-21.9466,3397.1746],[-66.2748,-21.9441,3402.9377],[-66.2705,-21.942,3384.9424],[-66.2673,-21.9354,3379.4583],[-66.2626,-21.9357,3374.4751],[-66.2613,-21.9338,3372.3154],[-66.2639,-21.9298,3370.1921],[-66.2583,-21.9165,3363.0439],[-66.2601,-21.9057,3359.8027],[-66.2488,-21.8963,3349.4504],[-66.2512,-21.8902,3362.7061],[-66.2468,-21.8859,3360.8044],[-66.2483,-21.8771,3419.0132],[-66.2441,-21.8734,3337.4739],[-66.2411,-21.8652,3332.968],[-66.2403,-21.8564,3340.9072],[-66.2354,-21.8508,3328.9573],[-66.2391,-21.8449,3322.7383],[-66.2386,-21.8401,3330.0759],[-66.2419,-21.8327,3338.0071],[-66.237,-21.8176,3340.7913],[-66.2428,-21.7937,3330.5073],[-66.2413,-21.7888,3321.853],[-66.2394,-21.7877,3302.1089],[-66.225,-21.7878,3301.6736],[-66.2215,-21.7814,3290.4209],[-66.2267,-21.778,3307.3103],[-66.2296,-21.7695,3304.446],[-66.237,-21.7601,3318.5596],[-66.2385,-21.7508,3365.7207],[-66.2469,-21.7486,3399.3835],[-66.252,-21.7559,3360.5881],[-66.2592,-21.7542,3486.5928],[-66.2631,-21.7616,3396.3838],[-66.264,-21.7675,3464.2161],[-66.2684,-21.7687,3447.6873],[-66.272,-21.773,3456.8257],[-66.2839,-21.7801,3467.4951],[-66.2863,-21.7774,3460.353],[-66.288,-21.7684,3477.1711],[-66.2932,-21.7708,3630.7622],[-66.2966,-21.7691,3672.011],[-66.3015,-21.7703,3618.1768],[-66.3039,-21.767,3669.7207],[-66.3081,-21.7693,3605.6655],[-66.3185,-21.7637,3528.271],[-66.3236,-21.7651,3515.5728],[-66.3265,-21.7637,3607.1318],[-66.3335,-21.7556,3756.5977],[-66.3308,-21.7437,3879.8889],[-66.3342,-21.7369,3883.415],[-66.3338,-21.7314,3860.0146],[-66.3454,-21.7145,4213.4336],[-66.3475,-21.7049,4273.7573],[-66.3354,-21.662,5102.4609],[-66.3315,-21.6608,5152.8003],[-66.3122,-21.6419,4644.6299],[-66.306,-21.6199,4210.377],[-66.2942,-21.6092,4190.8008],[-66.2809,-21.6042,4194.3647],[-66.2736,-21.5821,3810.4246],[-66.2692,-21.5795,3821.8862],[-66.2698,-21.5731,3854.4136],[-66.2681,-21.5659,3906.2451],[-66.2699,-21.5483,4018.8025],[-66.2716,-21.5446,4035.9392],[-66.2706,-21.5387,4111.9385],[-66.2727,-21.5302,4166.2871],[-66.2711,-21.5221,4286.4785],[-66.2725,-21.5129,4196.4668],[-66.2758,-21.506,4144.6514],[-66.2741,-21.4967,4124.2544],[-66.2677,-21.4922,4101.2725],[-66.2805,-21.4734,4135.6895],[-66.2832,-21.467,4157.4292],[-66.2825,-21.4591,4179.4253],[-66.2885,-21.454,4177.8462],[-66.2917,-21.4392,4196.5571],[-66.2845,-21.4346,4218.4214],[-66.2774,-21.4349,4263.2168],[-66.2711,-21.4327,4312.0352],[-66.2692,-21.4262,4422.4136],[-66.3028,-21.4078,4216.5303],[-66.3055,-21.4085,4214.0513],[-66.3086,-21.4071,4209.4824],[-66.3227,-21.3943,4200.6201],[-66.3493,-21.3835,4164.0122],[-66.3558,-21.3832,4161.1953],[-66.3606,-21.3809,4162.4272],[-66.3782,-21.3856,4141.3311],[-66.3819,-21.3822,4142.2695],[-66.3882,-21.3832,4127.6777],[-66.3935,-21.3811,4139.6035],[-66.3987,-21.3814,4119.2778],[-66.4081,-21.3774,4123.8901],[-66.4178,-21.3786,4106.3062],[-66.4249,-21.382,4102.1426],[-66.4319,-21.3787,4096.2759],[-66.4428,-21.38,4088.1445],[-66.4483,-21.3778,4091.479],[-66.4526,-21.3721,4112.2178],[-66.4629,-21.3641,4081.3613],[-66.4709,-21.3611,4068.9385],[-66.4797,-21.3603,4057.4592],[-66.4798,-21.3562,4056.7705],[-66.4857,-21.3534,4070.2656],[-66.4902,-21.3476,4054.2114],[-66.4954,-21.3473,4052.3962],[-66.4975,-21.3397,4042.731],[-66.5065,-21.3304,4033.365],[-66.5183,-21.3237,4024.8875],[-66.5197,-21.3199,4027.1543],[-66.5236,-21.3183,4020.5659],[-66.5252,-21.3159,4024.0811],[-66.5344,-21.3135,4010.3972],[-66.5434,-21.3073,4010.4434],[-66.549,-21.3056,4001.8433],[-66.563,-21.3065,3992.3203],[-66.57,-21.3007,3985.0115],[-66.5803,-21.2972,3978.4146],[-66.5874,-21.2966,3974.5845],[-66.5944,-21.2981,3968.5625],[-66.5986,-21.3032,3964.8511],[-66.6042,-21.3037,3962.3696],[-66.6088,-21.3067,3957.8745],[-66.6103,-21.3148,3952.1255],[-66.6163,-21.3211,3947.9526],[-66.6312,-21.3231,3938.5928],[-66.634,-21.3253,3936.9463],[-66.6399,-21.3251,3934.6711],[-66.642,-21.3281,3934.1643],[-66.6457,-21.3275,3930.2346],[-66.6531,-21.3302,3925.2412],[-66.6597,-21.3373,3920.3562],[-66.6673,-21.3391,3918.3589],[-66.6698,-21.3411,3917.4702],[-66.6731,-21.3481,3913.0876],[-66.6834,-21.3538,3908.2061],[-66.6886,-21.3537,3905.6816],[-66.6917,-21.3512,3908.688],[-66.7005,-21.3527,3900.9949],[-66.7105,-21.3502,3896.5044],[-66.7137,-21.3479,3896.1282],[-66.7167,-21.3422,3891.6992],[-66.7219,-21.3402,3888.2651],[-66.7304,-21.3417,3886.6885],[-66.735,-21.3461,3882.3247],[-66.7451,-21.3443,3882.3616],[-66.7584,-21.349,3873.1377],[-66.761,-21.3486,3871.2432],[-66.7885,-21.3843,3878.7202],[-66.8105,-21.4315,3933.7129],[-66.835,-21.5069,3940.0837],[-66.8449,-21.5112,3892.7852],[-66.8468,-21.5197,3931.6702],[-66.8752,-21.5326,3933.7876],[-66.9095,-21.5683,3908.3474],[-66.918,-21.6035,3968.8848],[-66.9458,-21.6203,4007.9543],[-67.0244,-21.7023,3969.3977],[-67.044,-21.773,4008.7368],[-67.0419,-21.7896,4033.1787],[-67.0985,-21.8506,4387.4766],[-67.0831,-21.8588,4325.2866],[-67.0586,-21.8652,4266.8984],[-67.0468,-21.8763,4283.7881],[-67.041,-21.8854,4293.3364],[-67.038,-21.8953,4306.2988],[-67.0371,-21.9108,4326.2842],[-67.0274,-21.9253,4406.6626],[-67.0321,-21.9656,4807.4375],[-67.0513,-21.9762,4838.6958],[-67.1544,-22.0059,5170.4785],[-67.2197,-22.0092,5866.3784],[-67.2434,-22.0045,5259.8193],[-67.3406,-22.0144,4177.9551],[-67.4376,-21.9828,4301.6958],[-67.5634,-21.9819,4442.5747],[-67.6251,-21.9525,4716.4453],[-67.7736,-21.9487,5467.29],[-67.8163,-21.9636,5018.1201],[-67.9244,-21.959,4974.7036],[-68.0706,-21.962,5318.2236],[-68.072,-21.9802,5589.4775],[-68.0148,-22.024,4829.2891],[-68.0074,-22.0395,4547.6792],[-68.0024,-22.0393,4582.8711],[-67.9652,-22.0541,5684.8203],[-67.9665,-22.0711,5421.9854],[-67.964,-22.0787,5342.7139],[-67.9545,-22.0865,5538.395],[-67.9392,-22.1086,5481.3232],[-67.9405,-22.1168,5439.1465],[-67.9541,-22.149,5473.9238],[-67.9578,-22.1514,5521.7129],[-67.9552,-22.1778,5560.8457],[-67.9436,-22.1853,5064.5029],[-67.9342,-22.2058,5379.4092],[-67.9222,-22.2423,5497.3579],[-67.9225,-22.2525,5423.0303],[-67.9257,-22.2759,5467.792],[-67.9385,-22.2941,5388.9497],[-67.9388,-22.3124,5379.9048],[-67.9514,-22.3304,5286.4868],[-67.9229,-22.3925,5083.4023],[-67.8986,-22.4239,5679.8154],[-67.8929,-22.4822,4624.7661],[-67.8926,-22.4991,4921.0923],[-67.8871,-22.508,4578.9419],[-67.8783,-22.514,4549.1143],[-67.8534,-22.5573,5780.3135],[-67.878,-22.6661,5418.75],[-67.872,-22.6717,5435.5542],[-67.8683,-22.679,5555.2783],[-67.8691,-22.6914,5598.8926],[-67.886,-22.6895,5538.2866],[-67.8892,-22.7023,5591.3325],[-67.8909,-22.7191,5938.7642],[-67.8788,-22.8005,4481.3252],[-67.8832,-22.8344,5898.8281],[-67.8325,-22.8504,5432.2437],[-67.799,-22.8812,4478.457],[-67.7517,-22.8846,4656.5596],[-67.588,-22.9066,5534.5547],[-67.5632,-22.8982,5557.1196],[-67.3586,-22.8527,4595.5957],[-67.3062,-22.8429,4666.9443],[-67.1805,-22.814,5586.2227],[-67.1278,-22.7221,5346.2334],[-67.0141,-22.6548,5825.7476],[-67.0273,-22.5409,5512.2812],[-66.973,-22.5407,5662.9902],[-66.9286,-22.4922,5461.8984],[-66.8018,-22.4473,5411.3286],[-66.7825,-22.4381,5205.3647],[-66.7832,-22.4325,5093.2217]]]]}
,"properties": {"GID_2": "BOL.7.15_2","GID_0": "BOL","country": "Bolivia","GID_1": "BOL.7_1","province": "Potosí","NL_NAME_1": "NA","county": "SurLipez","VARNAME_2": "NA","NL_NAME_2": "NA","TYPE_2": "Provincia","ENGTYPE_2": "Province","CC_2": "NA","HASC_2": "NA","name": "Sur_Lipez.county","area_km2": 16227.42,"hist_schema_id": "Elevation0-9000","hist_area_km2": {"3300": 1.18,"3325": 2.93,"3350": 3.25,"3375": 3.09,"3400": 2.97,"3425": 5.19,"3450": 7.42,"3475": 8.85,"3500": 9.2,"3525": 10.29,"3550": 18.91,"3575": 21.36,"3600": 21.01,"3625": 20.24,"3650": 21.33,"3675": 23.87,"3700": 26.07,"3725": 30.38,"3750": 33.54,"3775": 35.89,"3800": 36.32,"3825": 38.21,"3850": 37.35,"3875": 49.41,"3900": 69.93,"3925": 92.08,"3950": 111.62,"3975": 145.93,"4000": 189.07,"4025": 215.27,"4050": 227.82,"4075": 256.5,"4100": 258.7,"4125": 272.03,"4150": 270.99,"4175": 276.28,"4200": 272.42,"4225": 259.92,"4250": 257.21,"4275": 223.58,"4300": 318.94,"4325": 297.17,"4350": 307.64,"4375": 307.86,"4400": 489.24,"4425": 377.11,"4450": 378.62,"4475": 389.14,"4500": 397.68,"4525": 431.16,"4550": 519.73,"4575": 567.12,"4600": 522.64,"4625": 473.97,"4650": 447.66,"4675": 441.8,"4700": 422.06,"4725": 411.36,"4750": 367.28,"4775": 333.59,"4800": 346.28,"4825": 336.34,"4850": 308.01,"4875": 297.06,"4900": 265.77,"4925": 253.37,"4950": 224.17,"4975": 219.54,"5000": 201.03,"5025": 186.28,"5050": 171.12,"5075": 155.57,"5100": 136.77,"5125": 125.8,"5150": 111.12,"5175": 99.55,"5200": 88.63,"5225": 77.76,"5250": 69.43,"5275": 68.76,"5300": 60.23,"5325": 54.12,"5350": 47.21,"5375": 39.72,"5400": 34.87,"5425": 30.79,"5450": 27.19,"5475": 22.17,"5500": 18.07,"5525": 15.9,"5550": 13.21,"5575": 11.33,"5600": 9.49,"5625": 8.06,"5650": 5.22,"5675": 4.77,"5700": 3.47,"5725": 2.55,"5750": 1.94,"5775": 1.79,"5800": 1.02,"5825": 0.9,"5850": 0.61,"5875": 0.55,"5900": 0.26,"5925": 0.2}}}