{"type": "Feature","bbox": [-68.4509,-18.9297,-67.9293,-18.4743],"geometry": {"type": "MultiPolygon","coordinates": [[[[-68.1256,-18.4876,3758.666],[-68.1507,-18.4845,3762.7898],[-68.1682,-18.4802,3761.9138],[-68.1734,-18.4812,3762.7803],[-68.1915,-18.4743,3752.0962],[-68.218,-18.4807,3756.3848],[-68.2378,-18.4751,3750.1387],[-68.2587,-18.4879,3745.4805],[-68.2675,-18.4905,3744.0273],[-68.2999,-18.5079,3743.3486],[-68.3215,-18.5247,3740.75],[-68.3325,-18.5256,3741.7546],[-68.3395,-18.5279,3742.3047],[-68.3614,-18.5393,3745.377],[-68.3924,-18.5455,3765.5417],[-68.4037,-18.5628,3755.0779],[-68.4324,-18.5716,3761.5823],[-68.4509,-18.5898,3772.2131],[-68.4367,-18.5889,3759.0977],[-68.4342,-18.5914,3758.2124],[-68.4154,-18.5873,3765.3379],[-68.4027,-18.5938,3757.0391],[-68.4004,-18.5988,3753.7842],[-68.4016,-18.6041,3754.1384],[-68.4064,-18.6095,3752.8962],[-68.408,-18.621,3749.6465],[-68.3968,-18.6293,3747.1694],[-68.3855,-18.6181,3744.0903],[-68.3853,-18.6144,3746.0837],[-68.3797,-18.6094,3744.4412],[-68.3742,-18.6099,3743.979],[-68.3566,-18.6141,3743.9917],[-68.3489,-18.6226,3740.7605],[-68.3317,-18.6333,3734.678],[-68.311,-18.6375,3742.1089],[-68.3049,-18.6596,3730.8389],[-68.3064,-18.6633,3732.8079],[-68.3016,-18.6753,3727.166],[-68.2994,-18.6748,3726.8782],[-68.2896,-18.679,3724.8115],[-68.2847,-18.6779,3725.2319],[-68.2807,-18.6793,3723.4514],[-68.2759,-18.6779,3723.834],[-68.2692,-18.6787,3722.7612],[-68.2588,-18.676,3721.2678],[-68.2501,-18.6791,3719.9805],[-68.2469,-18.6772,3719.2412],[-68.2452,-18.6777,3719.4336],[-68.2434,-18.6852,3717.9146],[-68.2365,-18.6959,3715.6992],[-68.2276,-18.7044,3714.5056],[-68.2239,-18.721,3711.9985],[-68.2189,-18.7273,3713.1326],[-68.2169,-18.7353,3710.0815],[-68.2098,-18.7464,3710.093],[-68.2105,-18.7524,3709.5654],[-68.2443,-18.7813,3712.9802],[-68.267,-18.8162,3822.1716],[-68.2616,-18.8168,3775.2451],[-68.259,-18.825,3853.8481],[-68.2394,-18.8429,4592.5054],[-68.2348,-18.843,4554.4375],[-68.2297,-18.8453,4585.9619],[-68.2265,-18.8533,4575.8174],[-68.2242,-18.8545,4605.4512],[-68.228,-18.8612,4630.751],[-68.2266,-18.8662,4528.2524],[-68.2225,-18.8699,4433.1094],[-68.2176,-18.8871,4013.0874],[-68.2061,-18.8986,3806.3877],[-68.2014,-18.9089,3718.5002],[-68.1694,-18.9226,3690.5029],[-68.1459,-18.9212,3683.0361],[-68.0912,-18.9297,3682.0015],[-68.0733,-18.9244,3681.7852],[-68.0115,-18.8877,3681.335],[-67.9384,-18.8616,3686.2725],[-67.9368,-18.8513,3688.0254],[-67.9339,-18.8446,3688.793],[-67.9329,-18.8268,3691.1694],[-67.9293,-18.8146,3693.3425],[-67.9335,-18.8152,3695.0576],[-67.9544,-18.8109,3715.8997],[-67.9906,-18.7717,3711.4248],[-68.0342,-18.7148,3742.415],[-68.0492,-18.6239,3731.2852],[-68.0545,-18.6129,3739.5071],[-68.0575,-18.5963,3736.875],[-68.0533,-18.585,3737.8208],[-68.0649,-18.5355,3779.2148],[-68.0849,-18.5046,3814.2922],[-68.1256,-18.4876,3758.666]]]]}
,"properties": {"GID_3": "BOL.5.5.2_2","GID_0": "BOL","country": "Bolivia","GID_1": "BOL.5_1","province": "Oruro","NL_NAME_1": "NA","GID_2": "BOL.5.5_2","county": "Litoral","NL_NAME_2": "NA","city": "Escara","VARNAME_3": "NA","NL_NAME_3": "NA","TYPE_3": "District","ENGTYPE_3": "Distrito","CC_3": "NA","HASC_3": "NA","name": "Escara.city","area_km2": 1339.995,"hist_schema_id": "Elevation0-9000","hist_area_km2": {"3675": 109.135,"3700": 339.273,"3725": 371.111,"3750": 429.779,"3775": 30.468,"3800": 9.482,"3825": 4.557,"3850": 3.11,"3875": 2.047,"3900": 2.267,"3925": 1.826,"3950": 1.746,"3975": 1.966,"4000": 1.665,"4025": 1.525,"4050": 1.665,"4075": 1.545,"4100": 1.585,"4125": 1.605,"4150": 1.264,"4175": 1.545,"4200": 1.826,"4225": 1.304,"4250": 1.485,"4275": 1.244,"4300": 1.545,"4325": 1.585,"4350": 1.324,"4375": 1.425,"4400": 1.364,"4425": 1.204,"4450": 1.164,"4475": 0.923,"4500": 0.803,"4525": 0.662,"4550": 0.803,"4575": 0.702,"4600": 0.542,"4625": 0.341,"4650": 0.14,"4675": 0.161,"4700": 0.161,"4725": 0.08,"4750": 0.02,"4775": 0.02}}}