{"type":"Feature","properties":{"GID_3":"BOL.2.13.2_2","GID_0":"BOL","country":"Bolivia","GID_1":"BOL.2_1","province":"Cochabamba","NL_NAME_1":"NA","GID_2":"BOL.2.13_2","county":"Punata","NL_NAME_2":"NA","city":"SanBenito","VARNAME_3":"NA","NL_NAME_3":"NA","TYPE_3":"District","ENGTYPE_3":"Distrito","CC_3":"NA","HASC_3":"NA","name":"San_Benito.city"},
"geometry":{"type": "MultiPolygon","coordinates": [[[[-65.9457,-17.4792,3571.2256],[-65.9461,-17.4858,3305.2896],[-65.941,-17.493,3105.8037],[-65.9441,-17.4951,3034.6782],[-65.9493,-17.507,2944.3767],[-65.9489,-17.5141,2824.0571],[-65.9522,-17.5198,2772.9312],[-65.9529,-17.5267,2733.1721],[-65.9509,-17.534,2705.6494],[-65.9464,-17.5419,2693.4331],[-65.9433,-17.5419,2693.332],[-65.9419,-17.5402,2693.5049],[-65.9409,-17.542,2692.8989],[-65.9356,-17.5388,2694.166],[-65.9312,-17.54,2693.969],[-65.9254,-17.5477,2696.3228],[-65.9221,-17.5495,2696.6699],[-65.9211,-17.5578,2698.9268],[-65.9157,-17.5595,2700.0405],[-65.9165,-17.5651,2701.5728],[-65.9079,-17.57,2702.1475],[-65.901,-17.568,2699.469],[-65.8941,-17.5689,2697.0947],[-65.8976,-17.5576,2696.3525],[-65.9001,-17.5549,2696.5439],[-65.8976,-17.5545,2695.5884],[-65.8966,-17.5525,2695.0588],[-65.8862,-17.551,2696.3801],[-65.8853,-17.555,2697.2173],[-65.8799,-17.5543,2697.6055],[-65.8793,-17.5513,2698.5259],[-65.8721,-17.5505,2699.7395],[-65.8727,-17.5483,2699.5605],[-65.8685,-17.5486,2702.3748],[-65.8695,-17.5453,2700.9404],[-65.8766,-17.5403,2699.2268],[-65.8766,-17.5386,2699.0762],[-65.8718,-17.5389,2699.7334],[-65.8718,-17.5364,2700.1716],[-65.8695,-17.5365,2701.0596],[-65.8621,-17.5264,2705.9451],[-65.8457,-17.5257,2718.1797],[-65.8474,-17.5182,2719.3608],[-65.8361,-17.517,2734.6479],[-65.8359,-17.5197,2732.4231],[-65.8268,-17.5189,2749.5498],[-65.8093,-17.5139,2789.8284],[-65.8056,-17.4983,3224.4502],[-65.7958,-17.4934,2869.572],[-65.7912,-17.4889,2852.2563],[-65.7863,-17.4882,2912.5635],[-65.7856,-17.4851,2871.3547],[-65.7883,-17.4763,2890.1846],[-65.7913,-17.4732,2947.7432],[-65.7948,-17.475,2948.2317],[-65.7966,-17.4731,2956.0862],[-65.8011,-17.4748,2986.9956],[-65.808,-17.4744,3036.3032],[-65.8128,-17.4758,3070.3977],[-65.8157,-17.4743,3118.1338],[-65.816,-17.4712,3145.7397],[-65.8128,-17.4661,3171.98],[-65.8197,-17.4572,3408.2021],[-65.819,-17.4532,3494.0891],[-65.8203,-17.4502,3580.7798],[-65.823,-17.4493,3681.0745],[-65.8293,-17.4509,3717.2317],[-65.8338,-17.4496,3706.3008],[-65.8395,-17.4537,3742.9512],[-65.8459,-17.4544,3782.0078],[-65.8553,-17.4477,3841.2283],[-65.8555,-17.4451,3894.0334],[-65.8517,-17.4396,3931.1094],[-65.8654,-17.4383,3775.1777],[-65.8831,-17.4396,3724.9932],[-65.8879,-17.449,3660.1511],[-65.9093,-17.4628,3851.8428],[-65.9182,-17.465699999999998,3824.6729],[-65.9308,-17.4743,3694.0029],[-65.9372,-17.4713,3686.6636],[-65.9457,-17.4792,3571.2256]]]]}}