{"type": "Feature","bbox": [-65.3534,-16.4006,-63.3806,-14.7287],"geometry": {"type": "MultiPolygon","coordinates": [[[[-64.8651,-14.9988,154.2295],[-65.0116,-15.0413,145.0],[-65.005,-15.0551,145.0],[-64.9837,-15.0654,146.329],[-64.9825,-15.069,152.3719],[-64.9856,-15.0758,145.0],[-65.022,-15.0934,153.9995],[-65.028,-15.0947,146.0],[-65.0424,-15.0913,153.0027],[-65.0487,-15.0924,146.5],[-65.0501,-15.0953,146.5],[-65.0485,-15.1009,146.5],[-65.0523,-15.1043,160.7853],[-65.0519,-15.1061,158.4856],[-65.0497,-15.1064,159.3652],[-65.0494,-15.1095,158.4379],[-65.0533,-15.1118,159.9922],[-65.0566,-15.1116,161.0258],[-65.0548,-15.1149,159.0548],[-65.0583,-15.1192,158.0411],[-65.0675,-15.1197,158.4175],[-65.0741,-15.1266,160.2947],[-65.0767,-15.1249,159.3424],[-65.0781,-15.1286,158.7028],[-65.0761,-15.1329,158.838],[-65.0781,-15.1338,158.5162],[-65.0762,-15.1366,157.1832],[-65.0818,-15.143,156.0842],[-65.0817,-15.1449,155.9527],[-65.0832,-15.146,155.9527],[-65.087,-15.1438,155.3862],[-65.0887,-15.1462,156.2289],[-65.0929,-15.1437,161.1371],[-65.0927,-15.1496,157.8339],[-65.1029,-15.1577,164.1158],[-65.1016,-15.1596,162.6298],[-65.1024,-15.1619,161.7891],[-65.1058,-15.163,159.5878],[-65.1072,-15.1653,156.972],[-65.1114,-15.1643,162.4809],[-65.1186,-15.1664,165.6518],[-65.1195,-15.1696,167.1841],[-65.1181,-15.1724,164.5271],[-65.1206,-15.1729,163.3846],[-65.1188,-15.1755,166.0713],[-65.1199,-15.1785,163.682],[-65.118,-15.179,165.7024],[-65.1179,-15.1808,166.1608],[-65.1198,-15.1841,162.8107],[-65.1229,-15.1856,162.6185],[-65.1238,-15.1905,160.9228],[-65.1208,-15.1963,159.5494],[-65.1242,-15.1975,164.5961],[-65.127,-15.1962,166.614],[-65.131,-15.2049,161.8595],[-65.1408,-15.208,158.3225],[-65.1434,-15.2069,164.7277],[-65.1448,-15.2098,161.6491],[-65.1488,-15.2078,159.8804],[-65.1531,-15.208,166.0613],[-65.1553,-15.2126,165.8466],[-65.1577,-15.2135,166.94],[-65.1576,-15.2185,167.1391],[-65.1624,-15.2194,167.4408],[-65.1652,-15.2251,167.0869],[-65.1702,-15.2248,167.0484],[-65.1756,-15.2284,160.7738],[-65.1775,-15.2341,167.7447],[-65.1741,-15.2372,164.464],[-65.1755,-15.2459,162.9255],[-65.1805,-15.2493,168.0296],[-65.1842,-15.2554,162.9075],[-65.1883,-15.2564,169.2714],[-65.1922,-15.2609,167.8147],[-65.1967,-15.2761,164.6322],[-65.2035,-15.2845,164.7269],[-65.2051,-15.3037,168.0786],[-65.2026,-15.3124,164.7421],[-65.2133,-15.3237,168.4284],[-65.212,-15.3306,160.826],[-65.2218,-15.3336,160.7909],[-65.2268,-15.3324,160.9376],[-65.2314,-15.3366,161.5861],[-65.2452,-15.3399,167.6617],[-65.2487,-15.3438,161.8935],[-65.121,-15.5272,158.0],[-65.1286,-15.5309,162.6627],[-65.1206,-15.5359,160.3561],[-65.117,-15.5439,163.0611],[-65.1354,-15.5457,162.2304],[-65.1376,-15.5616,169.6503],[-65.1279,-15.561,160.1653],[-65.1165,-15.5542,160.2496],[-65.1144,-15.5551,163.23],[-65.1142,-15.5578,163.4525],[-65.1163,-15.5615,165.8447],[-65.1242,-15.568,168.2524],[-65.1392,-15.5732,161.8858],[-65.1435,-15.5805,164.7473],[-65.1401,-15.5839,161.4052],[-65.1239,-15.5859,167.6995],[-65.1248,-15.5878,160.0],[-65.135,-15.5918,161.0071],[-65.1403,-15.5976,163.9701],[-65.1375,-15.6068,172.4005],[-65.1241,-15.6122,161.4171],[-65.1254,-15.6151,164.4066],[-65.1338,-15.6177,165.7621],[-65.1357,-15.623,161.0993],[-65.1341,-15.624,168.6155],[-65.1304,-15.62,175.1637],[-65.1265,-15.6201,168.47],[-65.1243,-15.6225,174.5527],[-65.1243,-15.6301,175.6127],[-65.1298,-15.6517,173.0594],[-65.133,-15.6527,166.2004],[-65.1349,-15.65,165.0726],[-65.1309,-15.6465,162.9871],[-65.1308,-15.6444,162.7727],[-65.1404,-15.6397,174.4672],[-65.1412,-15.6422,164.6028],[-65.1381,-15.6479,162.1038],[-65.1452,-15.6483,165.7442],[-65.148,-15.65,166.9443],[-65.1499,-15.6546,163.7926],[-65.1421,-15.6541,162.3219],[-65.142,-15.6587,168.7827],[-65.1593,-15.6687,165.5085],[-65.1537,-15.6707,163.6844],[-65.1501,-15.6702,165.2874],[-65.1473,-15.6768,164.8578],[-65.1422,-15.6766,169.8167],[-65.1387,-15.6797,166.7928],[-65.1537,-15.6841,170.4822],[-65.1583,-15.6912,172.6744],[-65.155,-15.7007,166.0005],[-65.1511,-15.704,163.947],[-65.145,-15.7054,165.7462],[-65.1489,-15.713,175.395],[-65.1629,-15.7197,166.86],[-65.171,-15.7211,165.4046],[-65.1752,-15.7264,168.5639],[-65.1747,-15.7281,168.3055],[-65.1662,-15.7255,164.5999],[-65.1669,-15.7277,164.9683],[-65.1731,-15.7322,167.0906],[-65.1612,-15.7379,168.9669],[-65.1646,-15.7478,165.2504],[-65.1668,-15.7481,165.6635],[-65.1713,-15.7427,167.4634],[-65.1737,-15.7421,166.4112],[-65.1762,-15.7423,166.3409],[-65.1788,-15.7466,170.2881],[-65.1767,-15.7546,164.5909],[-65.1737,-15.757,163.5],[-65.1681,-15.7567,164.5273],[-65.1716,-15.7618,175.4651],[-65.1717,-15.7661,164.1209],[-65.1702,-15.7685,167.5279],[-65.1641,-15.7719,168.8273],[-65.1703,-15.7722,170.3753],[-65.173,-15.7684,168.5777],[-65.1816,-15.768,165.3676],[-65.1863,-15.7627,179.2069],[-65.1921,-15.7681,172.7111],[-65.1902,-15.7707,172.053],[-65.1844,-15.773,175.6996],[-65.1823,-15.7761,166.8414],[-65.1837,-15.7917,168.0071],[-65.1922,-15.7853,174.5115],[-65.1883,-15.7791,178.6563],[-65.1902,-15.7757,167.2131],[-65.1957,-15.7738,168.5989],[-65.2042,-15.7737,168.0172],[-65.2088,-15.7798,165.6536],[-65.2158,-15.7804,169.9339],[-65.2194,-15.7857,169.5609],[-65.2262,-15.7866,167.5789],[-65.2287,-15.7911,167.165],[-65.2324,-15.7896,166.2492],[-65.2335,-15.7943,166.9616],[-65.2374,-15.7938,168.0212],[-65.2376,-15.7957,168.9781],[-65.2415,-15.7964,167.1762],[-65.2419,-15.7985,168.0529],[-65.2433,-15.7977,167.6604],[-65.2437,-15.7997,166.8847],[-65.2417,-15.8012,168.8292],[-65.2444,-15.8046,167.8265],[-65.2419,-15.8051,166.527],[-65.2422,-15.8063,167.1902],[-65.2592,-15.8056,178.1351],[-65.2593,-15.8187,168.625],[-65.2669,-15.8245,168.7427],[-65.2703,-15.8226,169.2501],[-65.2722,-15.8241,173.3387],[-65.2682,-15.8274,173.374],[-65.2721,-15.8307,168.8961],[-65.2696,-15.8327,168.8636],[-65.2691,-15.8375,169.528],[-65.2753,-15.8383,168.6226],[-65.277,-15.8362,169.0314],[-65.2784,-15.8395,168.9845],[-65.2825,-15.8382,169.8035],[-65.2831,-15.8363,170.2847],[-65.286,-15.8398,170.1799],[-65.2878,-15.8401,169.2647],[-65.2887,-15.8384,169.3714],[-65.2927,-15.8426,169.4227],[-65.2956,-15.8424,171.7666],[-65.2956,-15.8458,173.4912],[-65.2996,-15.8469,170.6723],[-65.3006,-15.8492,171.1774],[-65.306,-15.8472,171.2319],[-65.3082,-15.8498,171.0898],[-65.3102,-15.8493,172.8137],[-65.3085,-15.8524,172.2348],[-65.3051,-15.8532,170.3939],[-65.3073,-15.8565,174.8767],[-65.3064,-15.86,170.6739],[-65.3123,-15.8643,171.5967],[-65.3156,-15.8613,172.4906],[-65.3182,-15.8615,171.5702],[-65.3204,-15.8709,170.3129],[-65.3179,-15.874,170.3115],[-65.3218,-15.8767,170.4418],[-65.3241,-15.8751,170.4412],[-65.3253,-15.8785,170.4657],[-65.3233,-15.8787,170.5138],[-65.3257,-15.8884,171.0569],[-65.3245,-15.8892,171.0569],[-65.3248,-15.9021,171.0234],[-65.3223,-15.9071,171.3962],[-65.3219,-15.914,174.6985],[-65.3181,-15.9144,177.3083],[-65.3119,-15.9197,178.8869],[-65.3179,-15.9188,179.2016],[-65.3202,-15.9215,177.1453],[-65.3198,-15.9245,178.4589],[-65.3176,-15.928,177.4622],[-65.3127,-15.9303,175.9059],[-65.3039,-15.9315,183.8922],[-65.3013,-15.9419,174.6716],[-65.3022,-15.9431,180.0804],[-65.3058,-15.9421,178.3075],[-65.3045,-15.9448,178.0452],[-65.3056,-15.9465,175.3301],[-65.3087,-15.9462,180.2425],[-65.3115,-15.9493,180.0151],[-65.3163,-15.9483,177.6174],[-65.3185,-15.9517,177.4279],[-65.3126,-15.9509,177.4648],[-65.3083,-15.9595,175.947],[-65.3169,-15.9618,178.3179],[-65.3205,-15.9607,175.2856],[-65.3227,-15.9628,176.5822],[-65.3214,-15.9676,179.1006],[-65.3187,-15.969,181.1822],[-65.3225,-15.9717,177.7801],[-65.3219,-15.9752,179.0518],[-65.3236,-15.9774,176.7701],[-65.3152,-15.9793,185.071],[-65.3193,-15.9824,182.8212],[-65.3266,-15.9819,182.2076],[-65.3253,-15.9835,184.9664],[-65.3211,-15.9835,178.8937],[-65.3207,-15.9851,179.861],[-65.3228,-15.985,178.9598],[-65.3232,-15.9876,181.2255],[-65.3287,-15.9867,179.6581],[-65.3295,-15.9908,179.694],[-65.3251,-15.9894,179.8453],[-65.3245,-15.9905,180.6383],[-65.331,-15.9952,183.739],[-65.3259,-15.9973,183.6381],[-65.3222,-16.0024,180.8552],[-65.3353,-16.0085,182.1721],[-65.3317,-16.0123,177.6992],[-65.3298,-16.01,186.9528],[-65.3278,-16.0115,177.3591],[-65.3315,-16.0139,174.6512],[-65.3283,-16.0194,187.6439],[-65.2912,-16.1958,178.9097],[-65.2995,-16.2991,180.0437],[-65.3534,-16.4006,197.1851],[-65.2399,-16.3688,189.3216],[-65.1398,-16.2366,178.502],[-65.1162,-16.188,177.3204],[-65.0889,-16.0058,171.2612],[-65.0807,-15.931,169.0041],[-65.0717,-15.9057,168.4511],[-65.0412,-15.858,166.307],[-65.0216,-15.8371,165.3315],[-65.0027,-15.8215,164.8677],[-64.9583,-15.801,164.8983],[-64.7271,-15.802,170.558],[-64.487,-15.8251,182.2975],[-63.3806,-15.8839,196.9783],[-63.3819,-15.8805,197.4216],[-63.3895,-15.8746,195.229],[-63.3868,-15.8683,199.1042],[-63.3839,-15.8659,196.4022],[-63.3894,-15.8633,192.6583],[-63.3856,-15.8614,194.7671],[-63.3868,-15.8569,194.9232],[-63.3884,-15.8589,193.3571],[-63.394,-15.8548,195.2849],[-63.4105,-15.8583,197.2683],[-63.4079,-15.8481,195.36],[-63.3994,-15.8509,196.9675],[-63.3998,-15.8472,201.2296],[-63.4049,-15.8432,195.4189],[-63.4096,-15.8419,197.6272],[-63.4121,-15.8438,199.0128],[-63.4145,-15.8519,200.551],[-63.4162,-15.8529,200.551],[-63.4289,-15.8451,203.0929],[-63.4286,-15.8413,200.2238],[-63.4213,-15.838,197.3556],[-63.4224,-15.8357,198.7534],[-63.43,-15.832,194.9486],[-63.4295,-15.8258,196.8632],[-63.4403,-15.8278,195.2974],[-63.4442,-15.8248,196.2583],[-63.4422,-15.8196,192.1965],[-63.4343,-15.8196,191.3315],[-63.4352,-15.8171,193.4743],[-63.4413,-15.8137,194.1172],[-63.4404,-15.809,191.0098],[-63.4309,-15.8078,191.2021],[-63.4391,-15.8014,194.0129],[-63.4401,-15.7888,194.8975],[-63.4364,-15.7882,194.5646],[-63.4328,-15.7935,192.8432],[-63.4294,-15.7921,191.7247],[-63.4303,-15.7879,191.2592],[-63.4381,-15.7836,193.8001],[-63.4383,-15.78,192.611],[-63.4405,-15.782,190.6747],[-63.4451,-15.7783,197.6714],[-63.4421,-15.7764,196.1167],[-63.4352,-15.779,193.0185],[-63.435,-15.7754,192.284],[-63.4401,-15.7681,190.7185],[-63.4369,-15.765,195.7298],[-63.4313,-15.7646,191.3169],[-63.4298,-15.7628,200.2153],[-63.4319,-15.7604,198.1659],[-63.4365,-15.7596,196.5716],[-63.442,-15.7638,196.0879],[-63.4422,-15.7605,193.2104],[-63.4398,-15.7577,192.2441],[-63.4324,-15.7546,191.6203],[-63.4293,-15.7491,195.8963],[-63.441,-15.7482,194.0742],[-63.4343,-15.743,191.8215],[-63.443,-15.7366,194.9586],[-63.446,-15.7421,190.5179],[-63.4576,-15.7404,188.1932],[-63.4553,-15.7333,193.4639],[-63.4613,-15.7319,190.2399],[-63.4624,-15.7292,207.022],[-63.4696,-15.735,192.3291],[-63.471,-15.7346,190.1649],[-63.4721,-15.7191,189.4184],[-63.4754,-15.7165,190.2552],[-63.4818,-15.7209,194.1032],[-63.4831,-15.7181,192.8851],[-63.475,-15.7125,187.9058],[-63.4754,-15.7064,193.2293],[-63.4818,-15.7001,191.2075],[-63.482,-15.7023,189.435],[-63.4875,-15.706,187.2587],[-63.4914,-15.7065,190.6006],[-63.4916,-15.702,188.1156],[-63.489,-15.6987,188.4735],[-63.497,-15.6948,186.9347],[-63.4923,-15.6877,188.4795],[-63.5005,-15.6867,191.1261],[-63.5037,-15.681,194.1549],[-63.5078,-15.6828,192.7213],[-63.5131,-15.6749,190.9131],[-63.5122,-15.6655,185.3323],[-63.516,-15.6624,192.2126],[-63.5242,-15.6625,188.1136],[-63.523,-15.6582,188.8354],[-63.5252,-15.6549,187.6959],[-63.5273,-15.658,198.3516],[-63.5376,-15.6652,191.8443],[-63.5411,-15.6547,190.3096],[-63.5435,-15.6524,189.5567],[-63.5491,-15.6513,187.0197],[-63.5534,-15.6554,188.8709],[-63.5521,-15.66,187.8737],[-63.566,-15.6589,191.1667],[-63.5677,-15.6625,190.4302],[-63.5669,-15.6667,190.4458],[-63.574,-15.6653,191.2649],[-63.5796,-15.6609,190.8173],[-63.573,-15.653,192.5258],[-63.5848,-15.6466,187.3335],[-63.5863,-15.6367,188.0325],[-63.5819,-15.6362,191.2394],[-63.5829,-15.634,186.1734],[-63.5921,-15.6321,187.7111],[-63.5981,-15.6288,187.5471],[-63.5992,-15.6325,186.9931],[-63.5976,-15.638,186.5413],[-63.6174,-15.6317,189.3103],[-63.6214,-15.6335,189.8989],[-63.6221,-15.6369,197.5481],[-63.6238,-15.6377,186.2831],[-63.632,-15.6321,192.5924],[-63.6306,-15.6282,188.6785],[-63.6321,-15.6256,185.3169],[-63.6344,-15.6247,185.2159],[-63.6395,-15.6266,192.6488],[-63.642,-15.6245,194.6859],[-63.6415,-15.6215,191.6341],[-63.639,-15.6195,192.9602],[-63.6321,-15.6195,184.2769],[-63.6346,-15.614,185.3147],[-63.6345,-15.6094,184.5407],[-63.6465,-15.6093,191.1544],[-63.6474,-15.6051,188.5762],[-63.6444,-15.6015,189.3609],[-63.6483,-15.5973,188.2901],[-63.6429,-15.5942,184.1847],[-63.6567,-15.5858,194.7807],[-63.6575,-15.5835,186.2268],[-63.655,-15.5833,190.2993],[-63.6535,-15.5852,191.7168],[-63.6516,-15.5837,192.1704],[-63.6566,-15.5787,191.5863],[-63.6592,-15.5778,194.8411],[-63.6637,-15.5815,188.0146],[-63.6677,-15.5825,188.9242],[-63.6699,-15.5728,188.3728],[-63.6714,-15.5714,188.3728],[-63.6766,-15.5769,191.0446],[-63.6779,-15.5822,188.6045],[-63.6815,-15.5752,192.7472],[-63.6857,-15.574,183.2478],[-63.6903,-15.5763,189.1089],[-63.6903,-15.5816,187.8059],[-63.6927,-15.5812,191.0865],[-63.6932,-15.5754,191.0817],[-63.6903,-15.5687,185.7053],[-63.6846,-15.5647,187.4806],[-63.6934,-15.5538,187.4225],[-63.6891,-15.5412,183.6467],[-63.6898,-15.5336,186.3436],[-63.686,-15.5325,194.003],[-63.682,-15.5375,183.7515],[-63.681,-15.5361,184.7513],[-63.6828,-15.5294,189.827],[-63.6908,-15.5227,184.3618],[-63.6879,-15.5196,188.6096],[-63.6794,-15.518,188.5929],[-63.6781,-15.5162,185.3521],[-63.6899,-15.5094,185.2716],[-63.6801,-15.5003,185.4774],[-63.6804,-15.4973,183.5016],[-63.6931,-15.4894,188.1245],[-63.6953,-15.4915,187.4334],[-63.695,-15.495,185.3381],[-63.6965,-15.4955,187.102],[-63.6974,-15.4847,181.1978],[-63.6998,-15.4829,185.3283],[-63.7068,-15.4887,185.297],[-63.7121,-15.4899,183.7249],[-63.7135,-15.4839,185.6046],[-63.7121,-15.4813,189.003],[-63.7174,-15.4754,184.2948],[-63.7183,-15.47,187.353],[-63.7253,-15.4657,184.6862],[-63.7227,-15.4636,180.7939],[-63.7224,-15.4611,184.7094],[-63.7266,-15.4597,184.6759],[-63.7283,-15.4547,184.3534],[-63.7311,-15.453,182.7718],[-63.7369,-15.4555,186.4038],[-63.7346,-15.46,183.8389],[-63.7357,-15.4643,184.6339],[-63.7329,-15.4692,180.3515],[-63.7434,-15.4653,183.9944],[-63.744,-15.4613,180.4587],[-63.7417,-15.4556,181.3337],[-63.7428,-15.455,181.3337],[-63.7463,-15.4578,182.3368],[-63.7489,-15.4705,182.76],[-63.7513,-15.4726,182.5141],[-63.7534,-15.4693,186.9822],[-63.7535,-15.4606,182.9378],[-63.7554,-15.456,182.2225],[-63.7612,-15.4515,185.2699],[-63.7658,-15.4535,178.6279],[-63.7661,-15.4491,183.2171],[-63.7628,-15.4417,180.5191],[-63.7651,-15.4382,184.6038],[-63.7771,-15.4384,182.7685],[-63.7806,-15.4364,182.757],[-63.7842,-15.4378,183.2599],[-63.7835,-15.4393,179.1081],[-63.788,-15.436,182.1001],[-63.7937,-15.4284,178.7719],[-63.7942,-15.4235,182.0181],[-63.7984,-15.4201,181.944],[-63.7937,-15.4185,184.0466],[-63.7901,-15.413,184.4417],[-63.7792,-15.4072,178.7306],[-63.7799,-15.4051,181.7895],[-63.7835,-15.404,185.1791],[-63.789,-15.4055,183.6819],[-63.7848,-15.3997,185.9539],[-63.7752,-15.4032,182.7855],[-63.7757,-15.3965,180.821],[-63.7784,-15.3907,178.3988],[-63.7814,-15.3892,177.6898],[-63.781,-15.3908,179.9308],[-63.7829,-15.3906,183.3476],[-63.7861,-15.3857,180.1653],[-63.7917,-15.3855,182.8345],[-63.7914,-15.3807,182.3289],[-63.8007,-15.3751,179.9893],[-63.7971,-15.3684,181.5167],[-63.8047,-15.3685,180.7696],[-63.8245,-15.3597,183.0576],[-63.8247,-15.358,183.1017],[-63.8169,-15.3548,181.9911],[-63.8193,-15.3525,185.1303],[-63.8264,-15.3517,183.2438],[-63.8318,-15.353,180.3405],[-63.8343,-15.3493,180.7613],[-63.8343,-15.3452,180.7029],[-63.8377,-15.3426,183.6217],[-63.8375,-15.3405,179.7437],[-63.8323,-15.3386,180.8259],[-63.8367,-15.3317,182.6165],[-63.8316,-15.3285,181.0896],[-63.832,-15.327,185.2366],[-63.8348,-15.3248,182.0422],[-63.8425,-15.3257,182.9609],[-63.8422,-15.3186,186.1363],[-63.8564,-15.3023,181.0864],[-63.8515,-15.293,178.2278],[-63.8552,-15.2855,175.9311],[-63.8528,-15.2805,178.3053],[-63.8559,-15.2767,177.2441],[-63.8531,-15.2694,176.6158],[-63.8564,-15.2688,176.1142],[-63.863,-15.2724,179.4871],[-63.864,-15.2712,176.3213],[-63.8611,-15.2645,179.2157],[-63.8619,-15.2621,177.1613],[-63.8636,-15.2613,177.0907],[-63.8702,-15.2652,177.509],[-63.8713,-15.2637,177.8205],[-63.8674,-15.2552,178.1273],[-63.8625,-15.2564,178.3661],[-63.8665,-15.249,178.9496],[-63.861,-15.2439,175.3436],[-63.8609,-15.2418,175.9859],[-63.867,-15.2356,183.4683],[-63.8585,-15.227,177.3806],[-63.8762,-15.2189,175.5174],[-63.8829,-15.2201,177.2419],[-63.8837,-15.2144,176.9666],[-63.8887,-15.2056,174.5948],[-63.8924,-15.2107,177.3172],[-63.8952,-15.21,177.1748],[-63.8954,-15.2058,176.3216],[-63.8913,-15.2021,176.2118],[-63.8922,-15.1964,175.1553],[-63.8848,-15.1986,176.1854],[-63.8831,-15.1968,174.7228],[-63.8841,-15.1918,177.3315],[-63.8899,-15.1905,175.3264],[-63.8873,-15.1848,175.6034],[-63.8929,-15.1749,174.0432],[-63.8946,-15.174,173.609],[-63.8978,-15.1764,175.0164],[-63.9002,-15.1755,175.2367],[-63.9014,-15.1664,175.0278],[-63.9062,-15.169,176.2324],[-63.9084,-15.1623,175.1691],[-63.9124,-15.1664,184.8212],[-63.9152,-15.1669,177.9775],[-63.9181,-15.1607,178.088],[-63.9234,-15.1594,180.2518],[-63.9256,-15.1641,171.9201],[-63.9347,-15.1694,172.9464],[-63.9397,-15.1594,178.1551],[-63.9436,-15.16,175.2814],[-63.9377,-15.1498,172.0479],[-63.9401,-15.1475,172.8943],[-63.9393,-15.1429,174.6341],[-63.9432,-15.141,174.4514],[-63.9398,-15.1367,173.954],[-63.9445,-15.1325,176.0386],[-63.94,-15.1274,175.7627],[-63.9406,-15.1223,172.4388],[-63.9447,-15.1159,177.9002],[-63.9416,-15.11,178.6737],[-63.9451,-15.1026,173.406],[-63.9482,-15.1034,179.14],[-63.9516,-15.1018,175.4778],[-63.9468,-15.0925,173.8125],[-63.9581,-15.0828,182.3015],[-63.9579,-15.08,183.9207],[-63.9545,-15.0806,179.5489],[-63.9524,-15.0792,174.4848],[-63.9541,-15.0747,175.7504],[-63.9575,-15.069,178.3521],[-63.9636,-15.069,177.637],[-63.9615,-15.0619,178.765],[-63.9425,-15.0536,175.9251],[-63.931,-15.0401,177.1017],[-63.9178,-15.0327,174.6277],[-63.9236,-15.0265,176.7346],[-63.9303,-15.0269,175.7282],[-63.9343,-15.0213,174.0537],[-63.9387,-15.0196,175.1031],[-63.9406,-15.0143,182.0547],[-63.9404,-15.013,182.0547],[-63.9309,-15.0095,180.4547],[-63.931,-15.0032,175.5749],[-63.9243,-15.0024,174.2891],[-63.9219,-15.0006,172.8955],[-63.9235,-14.9926,170.2882],[-63.9213,-14.9887,172.3952],[-63.9249,-14.9827,170.7773],[-63.9228,-14.9676,176.3217],[-63.9293,-14.9577,172.7537],[-63.9343,-14.955,173.9213],[-63.9286,-14.9501,180.404],[-63.9323,-14.9466,176.5652],[-63.9331,-14.9405,175.8274],[-63.9357,-14.9393,171.5218],[-63.9332,-14.937,173.0992],[-63.9353,-14.9331,174.8246],[-63.9389,-14.9337,176.3943],[-63.944,-14.9282,172.9897],[-63.9388,-14.9201,180.6534],[-63.9385,-14.9149,173.0744],[-63.9394,-14.914,174.9736],[-63.9422,-14.9154,173.5729],[-63.9403,-14.9104,176.3182],[-63.9457,-14.9048,168.9707],[-63.9424,-14.8985,171.2363],[-63.9392,-14.8962,178.6751],[-63.9418,-14.8873,169.6959],[-63.9466,-14.8807,171.9429],[-63.9469,-14.8771,174.0883],[-63.9438,-14.8728,170.6492],[-63.9451,-14.8711,169.0566],[-63.9449,-14.8659,170.4825],[-63.9423,-14.8594,170.8008],[-63.9438,-14.8535,168.8657],[-63.9402,-14.853,172.7782],[-63.9373,-14.8461,167.9906],[-63.9377,-14.8413,171.2124],[-63.9404,-14.8402,173.7064],[-63.9399,-14.837,174.9178],[-63.9367,-14.8326,178.5439],[-63.9378,-14.8312,171.2622],[-63.937,-14.8268,176.2684],[-63.9329,-14.8221,186.0963],[-63.931,-14.807,174.7474],[-63.9274,-14.8027,174.2711],[-63.9328,-14.7945,177.6992],[-63.9304,-14.7921,180.5849],[-63.9301,-14.7872,177.6698],[-63.9262,-14.7805,174.4358],[-63.9264,-14.7721,165.5343],[-63.9321,-14.7665,174.5086],[-63.9425,-14.7631,172.5649],[-63.9436,-14.7586,174.6567],[-63.9534,-14.7565,174.9453],[-63.956,-14.7586,173.4611],[-63.959,-14.7577,175.0782],[-63.9627,-14.7517,171.3127],[-63.9677,-14.7483,179.6729],[-63.9686,-14.744,173.3466],[-63.9674,-14.7413,178.4091],[-63.9735,-14.7398,166.6188],[-63.9785,-14.7364,173.8617],[-63.9741,-14.7322,177.5399],[-63.9744,-14.7287,163.1723],[-64.4099,-14.8801,164.9275],[-64.4475,-14.8885,173.8705],[-64.5128,-14.8916,160.6808],[-64.5815,-14.9019,165.7256],[-64.6423,-14.9171,167.9673],[-64.8156,-14.9818,155.1027],[-64.8651,-14.9988,154.2295]]]]}
,"properties": {"GID_2": "BOL.3.5_2","GID_0": "BOL","country": "Bolivia","GID_1": "BOL.3_1","province": "Beni","NL_NAME_1": "NA","county": "Marbán","VARNAME_2": "NA","NL_NAME_2": "NA","TYPE_2": "Provincia","ENGTYPE_2": "Province","CC_2": "NA","HASC_2": "NA","name": "Marbán.county","area_km2": 16848.91,"hist_schema_id": "Elevation0-9000","hist_area_km2": {"150": 3963.51,"175": 11459.44,"200": 1424.74,"225": 0.39,"250": 0.33,"275": 0.22,"300": 0.24}}}