{"type":"Feature","properties":{"GID_3":"BOL.4.19.3_2","GID_0":"BOL","country":"Bolivia","GID_1":"BOL.4_1","province":"LaPaz","NL_NAME_1":"NA","GID_2":"BOL.4.19_2","county":"Omasuyos","NL_NAME_2":"NA","city":"Huarina","VARNAME_3":"NA","NL_NAME_3":"NA","TYPE_3":"District","ENGTYPE_3":"Distrito","CC_3":"NA","HASC_3":"NA","name":"Huarina.city"},
"geometry":{"type": "MultiPolygon","coordinates": [[[[-68.603,-16.2256,3809.9839],[-68.6051,-16.223,3810.8259],[-68.6052,-16.2247,3808.9348],[-68.6003,-16.2292,3808.8848],[-68.6,-16.2384,3812.2698],[-68.5981,-16.2439,3808.5],[-68.5927,-16.2478,3813.6743],[-68.5884,-16.2391,3808.5],[-68.5907,-16.2375,3814.731],[-68.5928,-16.2299,3810.9878],[-68.5973,-16.2275,3808.825],[-68.5997,-16.2284,3811.6145],[-68.603,-16.2256,3809.9839]]],
[[[-68.5398,-16.0871,4091.8164],[-68.5466,-16.082,4072.2769],[-68.5764,-16.1051,3921.3794],[-68.5843,-16.1094,3908.4529],[-68.5958,-16.1042,3896.5327],[-68.612,-16.1146,3883.0342],[-68.6299,-16.1231,4014.6101],[-68.6312,-16.1255,3966.0781],[-68.6335,-16.1249,3954.0459],[-68.66,-16.1459,3935.2153],[-68.6639,-16.1466,3870.7832],[-68.683,-16.1583,3904.2637],[-68.6951,-16.1619,4015.2607],[-68.6967,-16.172,4152.7241],[-68.6944,-16.172,4114.1465],[-68.6927,-16.1752,4122.042],[-68.6782,-16.1835,4100.4268],[-68.6612,-16.1999,4083.9517],[-68.6643,-16.2053,3997.0151],[-68.6648,-16.2187,3809.2888],[-68.6616,-16.2181,3810.1482],[-68.6585,-16.2201,3808.5],[-68.6538,-16.2181,3810.6143],[-68.6444,-16.2184,3810.0908],[-68.6426,-16.214,3813.1011],[-68.6309,-16.206,3812.6743],[-68.6294,-16.2003,3811.0867],[-68.6265,-16.1975,3811.5005],[-68.6169,-16.2029,3810.8965],[-68.6125,-16.2026,3810.7227],[-68.6097,-16.1998,3810.7329],[-68.6082,-16.2014,3810.6543],[-68.6033,-16.1998,3810.8164],[-68.6017,-16.201,3810.5547],[-68.6012,-16.21,3809.3333],[-68.5929,-16.2155,3810.7593],[-68.5936,-16.2178,3810.7739],[-68.5912,-16.2203,3810.7478],[-68.5878,-16.2303,3810.5374],[-68.5813,-16.2332,3810.5144],[-68.5799,-16.2377,3810.4377],[-68.5772,-16.2394,3820.4856],[-68.5781,-16.2431,3810.2493],[-68.5719,-16.2496,3810.4253],[-68.5733,-16.2507,3808.5],[-68.5722,-16.2519,3810.7803],[-68.5737,-16.2562,3810.7646],[-68.5504,-16.2477,4040.7705],[-68.558,-16.2354,4085.4033],[-68.5691,-16.2252,4031.9448],[-68.5529,-16.1975,3910.1682],[-68.5308,-16.1977,3926.8235],[-68.5243,-16.2071,3934.3582],[-68.5114,-16.1871,3944.9624],[-68.5177,-16.1791,3937.022],[-68.5306,-16.1719,3922.1938],[-68.5274,-16.1282,4027.8376],[-68.5187,-16.121,4053.2668],[-68.5097,-16.1314,4164.9004],[-68.5009,-16.1335,4212.1074],[-68.507,-16.1187,4064.0657],[-68.5229,-16.1157,4022.5022],[-68.5396,-16.107,4065.4739],[-68.5498,-16.1059,3988.884],[-68.5484,-16.0996,4003.5869],[-68.5435,-16.0903,4062.7866],[-68.5398,-16.0871,4091.8164]]]]}}