{"type":"Feature","properties":{"GID_3":"BOL.8.4.6_2","GID_0":"BOL","country":"Bolivia","GID_1":"BOL.8_1","province":"SantaCruz","NL_NAME_1":"NA","GID_2":"BOL.8.4_2","county":"Cordillera","NL_NAME_2":"NA","city":"Gutiérrez","VARNAME_3":"NA","NL_NAME_3":"NA","TYPE_3":"District","ENGTYPE_3":"Distrito","CC_3":"NA","HASC_3":"NA","name":"Gutiérrez.city"},
"geometry":{"type": "MultiPolygon","coordinates": [[[[-63.7243,-19.3938,824.3642],[-63.7198,-19.3934,795.6312],[-63.7107,-19.3961,794.845],[-63.7119,-19.3996,793.0624],[-63.7081,-19.3985,762.8351],[-63.7038,-19.4026,762.8469],[-63.694,-19.3999,731.261],[-63.6943,-19.4053,721.5143],[-63.6905,-19.4059,722.3056],[-63.6883,-19.3989,724.3631],[-63.6914,-19.3937,715.3633],[-63.6873,-19.3892,712.1923],[-63.6827,-19.3888,720.0276],[-63.6793,-19.3916,704.1508],[-63.676,-19.3995,702.3516],[-63.6686,-19.3993,724.2079],[-63.6533,-19.4037,871.627],[-63.6381,-19.4106,791.2782],[-63.6245,-19.4205,828.8489],[-63.6167,-19.4214,865.1063],[-63.6107,-19.424,858.7021],[-63.6056,-19.4322,841.6461],[-63.6058,-19.4406,897.7699],[-63.6028,-19.448,942.3569],[-63.6031,-19.4676,1038.6969],[-63.6059,-19.4719,1059.0662],[-63.6043,-19.4849,1106.5829],[-63.6068,-19.4954,1098.7454],[-63.6016,-19.5248,1210.9633],[-63.6029,-19.5329,1124.7222],[-63.601,-19.5562,1237.2694],[-63.5974,-19.5679,1210.2639],[-63.5955,-19.5976,1115.0978],[-63.593,-19.6063,1286.2096],[-63.5935,-19.6112,1195.8442],[-63.5894,-19.6357,1201.713],[-63.5787,-19.6598,1176.7338],[-63.5778,-19.665,1111.3796],[-63.5819,-19.6702,1051.8818],[-63.5981,-19.6772,1018.4862],[-63.6043,-19.6842,980.5053],[-63.6023,-19.6868,994.0347],[-63.5975,-19.6873,998.2667],[-63.596,-19.6858,1011.0635],[-63.5906,-19.6879,1003.3701],[-63.5826,-19.6863,1010.1892],[-63.5768,-19.6886,1022.8116],[-63.5734,-19.6871,1053.2081],[-63.5663,-19.6923,1049.5883],[-63.5644,-19.696,1058.5248],[-63.5604,-19.6949,1063.7247],[-63.5555,-19.7009,1128.8834],[-63.5494,-19.7001,1182.8496],[-63.5408,-19.7347,1256.6229],[-63.5353,-19.744,1232.4456],[-63.5292,-19.7505,1293.5096],[-63.5311,-19.7645,1168.9188],[-63.5314,-19.8209,1040.9379],[-63.5281,-19.8322,1141.9143],[-63.5245,-19.8724,1122.1895],[-63.5246,-19.8872,1061.8539],[-63.5217,-19.8952,979.4133],[-63.499,-19.8795,993.5909],[-63.4904,-19.8802,1193.3862],[-63.4834,-19.8827,1308.9155],[-63.475,-19.8815,1102.7642],[-63.463,-19.8709,1019.0536],[-63.456,-19.8756,1021.7268],[-63.4457,-19.8665,1002.3524],[-63.4351,-19.866,976.6188],[-63.4235,-19.8615,970.9023],[-63.4221,-19.8628,963.689],[-63.4205,-19.86,950.0171],[-63.4181,-19.8615,962.6321],[-63.4147,-19.8607,955.9755],[-63.4067,-19.8684,949.1475],[-63.4026,-19.8673,919.8519],[-63.397,-19.8723,956.2741],[-63.3917,-19.8672,927.6359],[-63.3881,-19.866,929.1125],[-63.3765,-19.8689,872.9327],[-63.375,-19.8716,879.4069],[-63.3704,-19.869,896.4999],[-63.3646,-19.8696,930.1067],[-63.3589,-19.8658,933.6312],[-63.3521,-19.8657,945.5619],[-63.3481,-19.8672,957.2023],[-63.3433,-19.8645,993.8989],[-63.3144,-19.8653,1498.0469],[-63.3126,-19.8539,1584.2991],[-63.3219,-19.7363,1278.1562],[-63.3169,-19.7235,1238.7288],[-63.3192,-19.7142,1317.2594],[-63.3193,-19.7061,1381.6982],[-63.3218,-19.6999,1510.9041],[-63.3217,-19.6944,1529.2561],[-63.3283,-19.6755,1554.2849],[-63.3265,-19.659,1618.0769],[-63.3294,-19.6515,1614.5835],[-63.3273,-19.6449,1559.0881],[-63.3307,-19.6398,1558.5674],[-63.3369,-19.6167,1557.0824],[-63.3409,-19.5942,1606.7181],[-63.3452,-19.5819,1506.1439],[-63.3459,-19.5687,1276.2371],[-63.3417,-19.5627,1410.501],[-63.34,-19.542,1324.887],[-63.3418,-19.5352,1288.5388],[-63.3474,-19.5271,1320.6807],[-63.3486,-19.5187,1272.8296],[-63.3486,-19.4926,1334.1803],[-63.3468,-19.4869,1407.0353],[-63.3511,-19.4749,1433.1976],[-63.3515,-19.4651,1438.6606],[-63.3563,-19.4482,1420.434],[-63.3614,-19.418,1324.8662],[-63.3677,-19.4111,1388.79],[-63.3688,-19.4034,1351.2955],[-63.3718,-19.4017,1366.8544],[-63.377,-19.3842,1387.1947],[-63.3766,-19.3813,1422.6641],[-63.3601,-19.3855,1046.6011],[-63.3448,-19.3856,1228.3523],[-63.3347,-19.381,1271.7069],[-63.3274,-19.3809,1460.5708],[-63.3249,-19.3759,1514.1019],[-63.3252,-19.3736,1567.3439],[-63.3324,-19.3663,1511.9429],[-63.3485,-19.3415,1141.9807],[-63.3581,-19.331,1238.2539],[-63.3674,-19.3152,978.2498],[-63.3843,-19.2976,959.2788],[-63.3949,-19.2926,1187.6426],[-63.4102,-19.255,1128.7261],[-63.4121,-19.2462,1261.1124],[-63.4221,-19.2262,1277.3607],[-63.4205,-19.2166,1043.2235],[-63.4144,-19.2099,956.837],[-63.401,-19.2025,943.0569],[-63.3997,-19.201,988.9001],[-63.3996,-19.1946,966.0447],[-63.3908,-19.1866,941.496],[-63.3884,-19.1817,910.7355],[-63.3877,-19.1752,994.0767],[-63.3917,-19.1663,845.7164],[-63.3894,-19.1571,1038.0299],[-63.3946,-19.143,887.6577],[-63.389,-19.1272,747.9064],[-63.3916,-19.1231,727.7486],[-63.3903,-19.112,692.8499],[-63.3942,-19.1106,710.4781],[-63.3966,-19.1027,744.9454],[-63.4039,-19.0978,799.922],[-63.4021,-19.0926,794.5034],[-63.412,-19.0835,885.0981],[-63.4084,-19.072,1032.6658],[-63.4085,-19.0589,940.1736],[-63.401,-19.0486,849.6753],[-63.3955,-19.0441,756.2896],[-63.3866,-19.0165,644.6014],[-63.3868,-18.9695,561.5159],[-63.3798,-18.9472,516.3898],[-63.3816,-18.944,477.9494],[-63.3802,-18.9419,477.7748],[-63.3821,-18.9407,474.7027],[-63.3801,-18.9359,454.9624],[-63.3822,-18.9352,466.2723],[-63.3725,-18.9229,423.5],[-63.3863,-18.9217,431.2181],[-63.3967,-18.9112,429.5524],[-63.4013,-18.9091,433.9925],[-63.4106,-18.9116,433.8267],[-63.4196,-18.9247,433.0818],[-63.4258,-18.9281,435.3047],[-63.4316,-18.9239,439.515],[-63.4418,-18.9217,436.4711],[-63.4442,-18.9323,436.0],[-63.4472,-18.9341,439.7607],[-63.4494,-18.9333,436.375],[-63.4568,-18.9224,447.3858],[-63.4653,-18.9186,438.0],[-63.4689,-18.9193,455.7509],[-63.4681,-18.9302,452.627],[-63.4693,-18.931,452.627],[-63.4765,-18.9287,453.9161],[-63.4833,-18.9353,466.3858],[-63.4863,-18.9341,476.9608],[-63.4904,-18.9234,542.41],[-63.4945,-18.922,487.393],[-63.4958,-18.9238,508.7294],[-63.4936,-18.9329,545.7451],[-63.4954,-18.9359,474.6923],[-63.4977,-18.9364,483.556],[-63.5009,-18.9282,528.6445],[-63.5026,-18.9278,516.5557],[-63.5029,-18.9322,494.6127],[-63.5048,-18.9336,469.7115],[-63.5185,-18.9318,457.7132],[-63.5219,-18.9274,478.7307],[-63.5295,-18.9316,484.2429],[-63.5314,-18.9253,467.7959],[-63.5356,-18.9222,452.1149],[-63.5382,-18.9221,466.4393],[-63.5394,-18.9251,450.6766],[-63.5367,-18.9384,466.9725],[-63.5435,-18.9446,466.7707],[-63.5457,-18.9503,465.7911],[-63.5423,-18.9607,456.8428],[-63.5426,-18.9697,465.3654],[-63.5448,-18.9725,457.697],[-63.5506,-18.9726,458.7683],[-63.5559,-18.9681,458.644],[-63.5618,-18.9752,464.5368],[-63.5602,-18.9801,460.5006],[-63.5513,-18.9819,461.9559],[-63.5465,-18.9922,467.5957],[-63.5449,-19.0003,488.8775],[-63.5452,-19.0015,484.2938],[-63.5499,-19.001,474.2701],[-63.5511,-19.0025,470.0109],[-63.5415,-19.0161,503.0094],[-63.5427,-19.019,469.3461],[-63.551,-19.0188,475.6255],[-63.5551,-19.0199,487.0312],[-63.5563,-19.0217,467.5851],[-63.5559,-19.0248,471.7935],[-63.5472,-19.0323,469.625],[-63.5452,-19.0395,495.9948],[-63.5467,-19.0457,482.8167],[-63.5517,-19.048,476.2838],[-63.5559,-19.0531,477.8635],[-63.5584,-19.0627,482.1793],[-63.5644,-19.0688,489.7241],[-63.5636,-19.0712,484.8722],[-63.558,-19.0755,478.5893],[-63.5562,-19.0805,478.5628],[-63.556,-19.0887,477.7464],[-63.5577,-19.0919,478.0],[-63.5657,-19.0867,482.0286],[-63.5734,-19.0863,484.5993],[-63.5789,-19.0878,487.7174],[-63.5802,-19.0949,513.0191],[-63.5865,-19.0981,510.0489],[-63.5973,-19.0976,505.7333],[-63.6083,-19.093,501.4557],[-63.615,-19.0971,505.965],[-63.6212,-19.0929,520.4077],[-63.6252,-19.0978,483.1044],[-63.6262,-19.1022,535.0795],[-63.6278,-19.1026,526.3752],[-63.6288,-19.0946,514.1285],[-63.6306,-19.0921,493.4623],[-63.6444,-19.0866,489.0],[-63.6475,-19.092,497.6753],[-63.6518,-19.0924,497.111],[-63.6494,-19.0855,518.6746],[-63.651,-19.083,534.7476],[-63.6629,-19.0895,497.6927],[-63.6669,-19.09,499.6608],[-63.6691,-19.0855,498.2245],[-63.6676,-19.082,504.0873],[-63.6686,-19.0794,517.4504],[-63.6781,-19.0779,499.5],[-63.6818,-19.0745,500.8737],[-63.6835,-19.0699,502.152],[-63.6833,-19.0654,502.7256],[-63.6756,-19.0628,504.275],[-63.6712,-19.058,521.5106],[-63.6731,-19.0564,505.7395],[-63.6829,-19.0546,508.1959],[-63.6926,-19.0565,508.0265],[-63.6983,-19.0546,517.3453],[-63.699,-19.0534,509.3024],[-63.694,-19.0435,543.0531],[-63.6979,-19.0392,514.9084],[-63.7004,-19.0393,513.8832],[-63.7079,-19.0452,536.4278],[-63.7067,-19.0501,537.3104],[-63.7095,-19.0518,541.0021],[-63.7083,-19.0541,550.1132],[-63.709,-19.0653,571.9411],[-63.7137,-19.0712,589.9471],[-63.7115,-19.0735,569.3528],[-63.711,-19.0767,570.2122],[-63.7154,-19.0852,602.0173],[-63.717,-19.0973,595.9913],[-63.7188,-19.0975,595.9913],[-63.7204,-19.1003,606.9098],[-63.7191,-19.1061,610.6783],[-63.7202,-19.1099,616.7449],[-63.7186,-19.113,657.7507],[-63.7206,-19.1138,624.0139],[-63.7202,-19.1159,627.6201],[-63.7225,-19.1194,640.5036],[-63.7312,-19.1261,659.1759],[-63.7319,-19.1302,743.5061],[-63.7343,-19.1325,838.1977],[-63.7363,-19.1465,1144.5757],[-63.7397,-19.1482,1216.3143],[-63.7438,-19.1592,1330.9696],[-63.7456,-19.175,1299.1215],[-63.7437,-19.1805,1278.9775],[-63.7445,-19.1852,1347.6752],[-63.7356,-19.2034,1401.2253],[-63.7393,-19.2087,1352.4376],[-63.7377,-19.216,1285.438],[-63.728,-19.2271,1292.186],[-63.7228,-19.2433,1239.5254],[-63.7226,-19.2525,1326.3121],[-63.7178,-19.2611,1267.7316],[-63.7145,-19.2721,1241.6396],[-63.7189,-19.2794,1255.6661],[-63.7197,-19.3124,1301.9026],[-63.7179,-19.3168,1302.3558],[-63.7209,-19.3217,1200.9575],[-63.7206,-19.3349,1245.3202],[-63.7253,-19.3399,1208.4462],[-63.7232,-19.3443,1184.8107],[-63.729,-19.3492,1266.7019],[-63.7254,-19.3635,1252.1448],[-63.7201,-19.3655,1234.5365],[-63.7191,-19.3692,1264.7048],[-63.713,-19.3768,1355.1821],[-63.7174,-19.3807,1281.9463],[-63.7243,-19.3938,824.3642]]]]}}