{"type":"Feature","properties":{"GID_3":"BOL.6.3.1_2","GID_0":"BOL","country":"Bolivia","GID_1":"BOL.6_1","province":"Pando","NL_NAME_1":"NA","GID_2":"BOL.6.3_2","county":"MadredeDios","NL_NAME_2":"NA","city":"PuertoGonzaloMoreno","VARNAME_3":"NA","NL_NAME_3":"NA","TYPE_3":"District","ENGTYPE_3":"Distrito","CC_3":"NA","HASC_3":"NA","name":"Puerto_Gonzalo_Moreno.city"},
"geometry":{"type": "MultiPolygon","coordinates": [[[[-66.0923,-10.9901,122.015],[-66.0949,-10.9847,121.6457],[-66.0968,-10.9507,116.0],[-66.1036,-10.9266,116.5],[-66.1078,-10.9206,116.5],[-66.122,-10.9123,116.5],[-66.1324,-10.9105,131.9821],[-66.1483,-10.9118,145.0395],[-66.1546,-10.9132,116.5],[-66.1678,-10.9273,116.5],[-66.1798,-10.9498,116.5],[-66.1831,-10.9703,117.0],[-66.1936,-10.9857,117.0],[-66.2098,-11.0028,117.0],[-66.2161,-11.0082,117.0],[-66.253,-11.0237,117.0],[-66.2663,-11.0272,117.0],[-66.2721,-11.0269,117.0],[-66.276,-11.0248,117.0],[-66.2772,-11.0195,117.5],[-66.274,-10.9854,118.5],[-66.2783,-10.9677,118.5],[-66.2878,-10.9565,119.0],[-66.3047,-10.9499,119.0],[-66.3199,-10.9411,119.5],[-66.3263,-10.941,119.5],[-66.3346,-10.9433,120.0],[-66.3355,-10.9485,122.5803],[-66.3332,-10.9521,122.5374],[-66.32,-10.9549,120.0],[-66.3091,-10.9605,120.0],[-66.3048,-10.9662,120.0],[-66.3022,-10.9734,131.1532],[-66.3021,-10.9817,125.1354],[-66.305,-10.9888,120.0],[-66.3105,-10.9944,120.0],[-66.3165,-10.9994,120.0],[-66.3351,-11.0077,120.2855],[-66.3396,-11.0163,138.6209],[-66.3431,-11.0285,120.5],[-66.3442,-11.0438,132.5928],[-66.3419,-11.0591,140.4421],[-66.3457,-11.0678,120.5],[-66.3599,-11.076,120.5],[-66.3768,-11.0807,120.5],[-66.3946,-11.0899,121.0],[-66.415,-11.1112,121.0],[-66.4201,-11.1124,121.0],[-66.4216,-11.1071,126.7262],[-66.4202,-11.1016,125.3645],[-66.4137,-11.0927,133.1344],[-66.409,-11.0784,134.4421],[-66.4113,-11.0628,121.0],[-66.4221,-11.0517,121.0],[-66.4276,-11.0482,129.0208],[-66.4335,-11.0477,124.1247],[-66.44,-11.0502,137.7436],[-66.4458,-11.0533,122.1899],[-66.4486,-11.0576,121.0],[-66.4492,-11.0627,121.0],[-66.4449,-11.0754,121.0],[-66.4329,-11.0892,124.6956],[-66.4312,-11.1048,127.7034],[-66.4342,-11.1133,121.0],[-66.4389,-11.12,125.6585],[-66.4444,-11.123,125.8949],[-66.4506,-11.1238,123.5274],[-66.4548,-11.1227,123.2758],[-66.4574,-11.1193,125.9796],[-66.4608,-11.1061,147.3424],[-66.4699,-11.0936,122.0],[-66.4862,-11.0865,130.3136],[-66.4994,-11.0858,122.5],[-66.5016,-11.0873,122.5],[-66.5016,-11.2536,161.7217],[-66.4987,-11.4423,127.4847],[-66.495,-11.441,132.1129],[-66.483,-11.4302,124.0],[-66.4702,-11.4278,125.6548],[-66.464,-11.4238,124.0],[-66.4631,-11.4176,124.0],[-66.4671,-11.4057,124.0],[-66.4646,-11.3963,128.9649],[-66.4614,-11.3921,128.4639],[-66.4403,-11.3764,124.0],[-66.4302,-11.3737,124.0],[-66.3896,-11.3782,124.0],[-66.3737,-11.3746,124.4734],[-66.3578,-11.3674,123.5],[-66.3416,-11.3644,123.5],[-66.327,-11.3635,123.5],[-66.321,-11.3612,123.5],[-66.3179,-11.3587,123.5],[-66.3177,-11.3537,127.9534],[-66.3192,-11.3517,129.7905],[-66.3297,-11.349,123.0],[-66.3359,-11.3457,123.0],[-66.3382,-11.3311,123.0],[-66.3315,-11.3235,123.0],[-66.3176,-11.3175,122.5],[-66.3032,-11.3143,122.5],[-66.2903,-11.3155,122.5],[-66.2722,-11.3229,123.4713],[-66.2436,-11.3402,122.0],[-66.2331,-11.3426,122.0],[-66.2281,-11.3404,122.0],[-66.2254,-11.3364,122.0],[-66.2258,-11.3291,123.3368],[-66.2379,-11.3081,121.5],[-66.243,-11.3033,121.5],[-66.2699,-11.2896,121.5],[-66.2776,-11.2777,123.5449],[-66.2776,-11.2745,123.652],[-66.2754,-11.2726,127.9514],[-66.2661,-11.2748,127.5682],[-66.2563,-11.2733,121.0],[-66.2525,-11.2697,121.0],[-66.2514,-11.2661,128.0593],[-66.2551,-11.2578,121.0],[-66.2634,-11.2513,120.5],[-66.2685,-11.241,127.8957],[-66.2697,-11.2349,126.0152],[-66.267,-11.2172,120.5],[-66.2615,-11.208,121.8074],[-66.258,-11.2064,128.8146],[-66.2534,-11.2066,130.3079],[-66.2502,-11.209,128.5467],[-66.2472,-11.2165,120.5],[-66.2441,-11.2196,121.3046],[-66.2409,-11.2204,120.5],[-66.2165,-11.2116,120.0],[-66.2029,-11.2028,128.444],[-66.1888,-11.1876,120.0],[-66.1858,-11.1818,127.2606],[-66.1908,-11.1455,119.5],[-66.1963,-11.1323,119.5],[-66.2004,-11.1284,119.5],[-66.2143,-11.1224,123.7139],[-66.2147,-11.1186,119.0],[-66.1959,-11.0768,120.526],[-66.1938,-11.0749,119.0],[-66.1864,-11.0754,119.0],[-66.1833,-11.0771,121.7288],[-66.1778,-11.0847,118.5],[-66.1703,-11.0974,118.5],[-66.1601,-11.1312,118.5],[-66.1574,-11.1344,118.5],[-66.1529,-11.1355,118.25],[-66.1444,-11.1337,118.0],[-66.1377,-11.1306,118.0],[-66.1308,-11.1246,118.0],[-66.1264,-11.1183,118.0],[-66.1237,-11.1095,118.0],[-66.1217,-11.093,117.5],[-66.1234,-11.0838,117.5],[-66.127,-11.0758,117.5],[-66.1433,-11.052,117.0],[-66.1439,-11.0461,117.0],[-66.1374,-11.0422,116.5],[-66.1043,-11.0514,116.0],[-66.0934,-11.0506,116.0],[-66.0915,-11.0473,116.0],[-66.0985,-11.0432,116.0],[-66.1035,-11.0425,116.0],[-66.1067,-11.0393,116.0],[-66.1082,-11.0327,128.2237],[-66.1066,-11.0228,116.0],[-66.0923,-10.9901,122.015]]]]}}