{"type": "Feature","bbox": [-67.3516,-17.3755,-67.0354,-17.027],"geometry": {"type": "MultiPolygon","coordinates": [[[[-67.0469,-17.2483,4527.4038],[-67.0439,-17.2434,4491.2275],[-67.0459,-17.2401,4488.5195],[-67.0445,-17.2345,4480.4365],[-67.0381,-17.231,4379.9839],[-67.0386,-17.2283,4314.0957],[-67.0354,-17.2177,4284.375],[-67.0448,-17.2108,3947.5012],[-67.0469,-17.2137,3999.2534],[-67.0524,-17.2153,4145.5547],[-67.0647,-17.2097,4404.7202],[-67.0678,-17.1979,4181.8491],[-67.0691,-17.1801,4216.5239],[-67.0508,-17.1612,3820.4324],[-67.0475,-17.1607,3865.1353],[-67.0466,-17.1579,3973.7305],[-67.0446,-17.1587,3927.6689],[-67.0391,-17.156,3965.875],[-67.0379,-17.1533,3962.7002],[-67.043,-17.1456,3647.8323],[-67.0418,-17.1366,3219.9785],[-67.0441,-17.1298,2835.2905],[-67.0471,-17.1284,2638.9946],[-67.0517,-17.1214,2367.5586],[-67.0539,-17.1125,2232.9775],[-67.0577,-17.1066,2074.2014],[-67.055,-17.0971,1984.2522],[-67.0563,-17.0937,2196.634],[-67.0782,-17.0679,3393.3625],[-67.1,-17.0532,3968.6262],[-67.1106,-17.0498,4239.1787],[-67.1142,-17.0502,4312.2422],[-67.1183,-17.0471,4343.0151],[-67.1222,-17.0465,4309.1475],[-67.1284,-17.0384,4367.5586],[-67.1379,-17.0319,4463.9224],[-67.156,-17.0411,4347.0928],[-67.16,-17.0381,4326.4624],[-67.1657,-17.028,4294.4385],[-67.1696,-17.027,4432.1499],[-67.176,-17.0285,4337.6968],[-67.1864,-17.0378,4184.9434],[-67.1904,-17.0333,4174.2061],[-67.194,-17.0319,4158.9043],[-67.199,-17.0333,4109.9785],[-67.2028,-17.0314,4138.1094],[-67.2092,-17.0354,4444.5269],[-67.2167,-17.0369,4593.5054],[-67.2275,-17.0317,4600.7256],[-67.2411,-17.0437,5159.9707],[-67.2433,-17.0491,5304.8721],[-67.2407,-17.059,5481.0264],[-67.2423,-17.0626,5298.6089],[-67.2507,-17.0654,5214.5742],[-67.2591,-17.06,4851.937],[-67.2653,-17.0611,4900.4297],[-67.2744,-17.0555,4825.5542],[-67.2865,-17.0547,4771.9355],[-67.2903,-17.0579,4901.5879],[-67.2887,-17.0633,4884.6826],[-67.2908,-17.0644,4897.8936],[-67.2893,-17.0707,4915.7534],[-67.295,-17.0721,4800.7822],[-67.295,-17.0765,4848.355],[-67.2967,-17.0777,4819.8008],[-67.2963,-17.0827,4822.374],[-67.3023,-17.0874,4758.3379],[-67.3084,-17.0887,4620.9385],[-67.3098,-17.0919,4649.3374],[-67.3138,-17.0943,4784.4688],[-67.318,-17.0946,4697.1104],[-67.3217,-17.0985,4738.7739],[-67.3223,-17.1087,4666.6133],[-67.3257,-17.1073,4628.0225],[-67.3277,-17.1037,4526.0552],[-67.3394,-17.0973,4163.7026],[-67.3421,-17.099,4150.3115],[-67.3418,-17.1047,4359.27],[-67.3477,-17.1038,4274.6089],[-67.3498,-17.1076,4319.5479],[-67.344,-17.1169,4503.4937],[-67.3475,-17.1203,4520.1489],[-67.3516,-17.1312,4428.2363],[-67.341,-17.133,4572.2241],[-67.3379,-17.1349,4518.7642],[-67.3314,-17.1319,4668.0991],[-67.3271,-17.1375,4645.9766],[-67.3233,-17.1397,4630.5229],[-67.3215,-17.1448,4614.5781],[-67.3061,-17.1577,4567.5659],[-67.3122,-17.1667,4354.2153],[-67.3134,-17.171,4310.2432],[-67.32,-17.1731,4309.1846],[-67.3298,-17.1808,4246.1699],[-67.3304,-17.1849,4241.1074],[-67.3286,-17.1879,4232.0225],[-67.3314,-17.1917,4224.2827],[-67.3294,-17.2016,4215.061],[-67.3197,-17.2159,4181.8809],[-67.3253,-17.223,4177.689],[-67.3201,-17.2291,4150.0947],[-67.3196,-17.239,4137.9341],[-67.3167,-17.2409,4129.1357],[-67.3128,-17.2474,4116.3623],[-67.314,-17.2582,4099.4204],[-67.3191,-17.2631,4107.2266],[-67.3199,-17.2663,4089.9531],[-67.3161,-17.2757,4076.1157],[-67.3147,-17.2756,4075.479],[-67.3144,-17.2779,4073.0623],[-67.3093,-17.2814,4063.811],[-67.3098,-17.2841,4061.9988],[-67.3065,-17.2907,4053.4878],[-67.3102,-17.3056,4038.397],[-67.3041,-17.3176,4031.1731],[-67.2937,-17.3755,3975.8586],[-67.2858,-17.3683,3987.436],[-67.2851,-17.357,4034.8499],[-67.2775,-17.3448,4110.1631],[-67.2567,-17.3325,4181.7578],[-67.2535,-17.3282,4117.9155],[-67.2535,-17.324,4089.4583],[-67.2482,-17.324,4093.4446],[-67.2433,-17.3283,4107.4326],[-67.2344,-17.3326,4109.626],[-67.2328,-17.3353,4114.6582],[-67.2285,-17.3367,4120.7046],[-67.2273,-17.3342,4122.3994],[-67.223,-17.3322,4134.3745],[-67.2181,-17.3373,4134.603],[-67.2155,-17.3351,4141.8193],[-67.2033,-17.3363,4159.0566],[-67.1982,-17.3464,4253.1904],[-67.1936,-17.3426,4224.6392],[-67.1906,-17.3452,4186.0581],[-67.186,-17.3435,4191.0791],[-67.181,-17.3438,4193.8774],[-67.1713,-17.345,4231.8452],[-67.1652,-17.3479,4241.1543],[-67.1584,-17.3368,4398.4551],[-67.1502,-17.331,4375.9336],[-67.1459,-17.3124,4586.4243],[-67.1468,-17.3069,4614.1069],[-67.1396,-17.3062,4578.457],[-67.1373,-17.3034,4608.5269],[-67.1366,-17.298,4677.624],[-67.14,-17.2923,4648.3086],[-67.1424,-17.2914,4601.9873],[-67.1425,-17.2851,4554.3008],[-67.1245,-17.2825,4579.4888],[-67.1119,-17.2849,4619.1973],[-67.1066,-17.2883,4586.9165],[-67.0984,-17.2878,4533.0771],[-67.0693,-17.2794,4509.4966],[-67.0661,-17.2776,4554.3491],[-67.065,-17.2748,4557.2319],[-67.066,-17.272,4549.0625],[-67.0648,-17.2714,4510.3032],[-67.0672,-17.264,4543.8467],[-67.0704,-17.2604,4509.4775],[-67.0707,-17.2533,4486.4155],[-67.0654,-17.2504,4572.353],[-67.0634,-17.2457,4506.3184],[-67.0602,-17.2442,4499.7769],[-67.0541,-17.2446,4494.2573],[-67.0469,-17.2483,4527.4038]]]]}
,"properties": {"GID_3": "BOL.4.11.3_2","GID_0": "BOL","country": "Bolivia","GID_1": "BOL.4_1","province": "LaPaz","NL_NAME_1": "NA","GID_2": "BOL.4.11_2","county": "Inquisivi","NL_NAME_2": "NA","city": "Ichoca","VARNAME_3": "NA","NL_NAME_3": "NA","TYPE_3": "District","ENGTYPE_3": "Distrito","CC_3": "NA","HASC_3": "NA","name": "Ichoca.city","area_km2": 842.2702,"hist_schema_id": "Elevation0-9000","hist_area_km2": {"1975": 0.0811,"2000": 0.1824,"2025": 0.2026,"2050": 0.1419,"2075": 0.2229,"2100": 0.2026,"2125": 0.2026,"2150": 0.2634,"2175": 0.2432,"2200": 0.2837,"2225": 0.2634,"2250": 0.4256,"2275": 0.1824,"2300": 0.4053,"2325": 0.385,"2350": 0.385,"2375": 0.5269,"2400": 0.2634,"2425": 0.5066,"2450": 0.4256,"2475": 0.4661,"2500": 0.4053,"2525": 0.4053,"2550": 0.7903,"2575": 0.5674,"2600": 0.5471,"2625": 0.6485,"2650": 0.5066,"2675": 0.6485,"2700": 0.4458,"2725": 0.9929,"2750": 0.8916,"2775": 1.0537,"2800": 0.9929,"2825": 1.4184,"2850": 1.236,"2875": 1.4995,"2900": 1.6818,"2925": 1.4792,"2950": 1.7021,"2975": 1.6818,"3000": 2.5936,"3025": 2.0263,"3050": 2.3099,"3075": 2.0263,"3100": 2.3707,"3125": 2.1681,"3150": 2.776,"3175": 2.4315,"3200": 2.5936,"3225": 2.5733,"3250": 3.019,"3275": 2.7151,"3300": 2.7151,"3325": 3.2825,"3350": 3.2622,"3375": 3.2825,"3400": 3.5255,"3425": 3.3432,"3450": 3.951,"3475": 3.7282,"3500": 4.0726,"3525": 4.7615,"3550": 4.6803,"3575": 5.3085,"3600": 4.8424,"3625": 5.2678,"3650": 5.0854,"3675": 5.5514,"3700": 6.0377,"3725": 6.0375,"3750": 6.5846,"3775": 6.1995,"3800": 7.2127,"3825": 7.0505,"3850": 7.8813,"3875": 8.0837,"3900": 7.8406,"3925": 9.0155,"3950": 9.8463,"3975": 9.9272,"4000": 12.7419,"4025": 13.6526,"4050": 20.2524,"4075": 19.4637,"4100": 20.8207,"4125": 24.3638,"4150": 25.5985,"4175": 25.9029,"4200": 23.0078,"4225": 26.3091,"4250": 29.0428,"4275": 30.8451,"4300": 28.921,"4325": 29.691,"4350": 27.1804,"4375": 27.4428,"4400": 26.3899,"4425": 26.0651,"4450": 29.2233,"4475": 29.1227,"4500": 25.9225,"4525": 23.8165,"4550": 19.8477,"4575": 14.7243,"4600": 10.1686,"4625": 7.2328,"4650": 5.3495,"4675": 3.4653,"4700": 2.8576,"4725": 2.6347,"4750": 2.4523,"4775": 2.1483,"4800": 1.6417,"4825": 1.4998,"4850": 1.3174,"4875": 1.0134,"4900": 0.7905,"4925": 0.4864,"4950": 0.6891,"4975": 0.5473,"5000": 0.4054,"5025": 0.304,"5050": 0.3648,"5075": 0.4662,"5100": 0.3243,"5125": 0.4054,"5150": 0.1013,"5175": 0.2027,"5200": 0.1622,"5225": 0.1621,"5250": 0.1419,"5275": 0.2027,"5300": 0.1419,"5325": 0.1013,"5350": 0.0811,"5375": 0.0811,"5400": 0.0203,"5450": 0.0811,"5500": 0.0203,"5525": 0.0203}}}