{"type":"Feature","properties":{"GID_3":"BOL.8.10.1_2","GID_0":"BOL","country":"Bolivia","GID_1":"BOL.8_1","province":"SantaCruz","NL_NAME_1":"NA","GID_2":"BOL.8.10_2","county":"ÑufloDeChávez","NL_NAME_2":"NA","city":"Concepción","VARNAME_3":"NA","NL_NAME_3":"NA","TYPE_3":"District","ENGTYPE_3":"Distrito","CC_3":"NA","HASC_3":"NA","name":"Concepción.city"},
"geometry":{"type": "MultiPolygon","coordinates": [[[[-62.7049,-13.9758,162.6416],[-62.7054,-13.9771,167.2497],[-62.7037,-13.9769,161.8862],[-62.7016,-13.9821,161.0944],[-62.7025,-13.9842,160.4161],[-62.7003,-13.9897,161.0135],[-62.7013,-13.9914,164.7662],[-62.696,-13.9941,156.395],[-62.6952,-13.997,167.7819],[-62.6935,-13.9963,162.1483],[-62.6932,-14.0057,163.3277],[-62.6877,-14.0067,162.0672],[-62.6881,-14.0115,165.0297],[-62.6864,-14.0125,165.0297],[-62.6848,-14.0183,165.9367],[-62.6827,-14.0212,163.8454],[-62.6808,-14.0211,161.8139],[-62.6795,-14.024,161.733],[-62.6806,-14.0273,163.2842],[-62.6777,-14.0298,157.0872],[-62.6778,-14.0347,161.3995],[-62.675,-14.0429,159.3945],[-62.6782,-14.0586,158.563],[-62.6743,-14.0605,158.2979],[-62.6797,-14.0659,159.91],[-62.6833,-14.0651,159.9424],[-62.6894,-14.0687,159.6098],[-62.692,-14.0723,160.4682],[-62.691,-14.0797,160.3946],[-62.6926,-14.0889,160.7149],[-62.6902,-14.0915,161.1478],[-62.6946,-14.0949,161.5577],[-62.693,-14.0995,162.3506],[-62.6969,-14.0987,162.298],[-62.6996,-14.1013,162.3031],[-62.7043,-14.1144,163.2627],[-62.7094,-14.1167,166.6758],[-62.711,-14.1192,167.6718],[-62.7182,-14.1164,168.2743],[-62.7225,-14.1245,167.3551],[-62.7335,-14.1273,165.0918],[-62.7341,-14.1333,168.8358],[-62.7384,-14.1386,167.1718],[-62.7312,-14.1458,174.1708],[-62.7302,-14.1503,166.2283],[-62.7358,-14.1524,165.9723],[-62.7478,-14.1485,165.2782],[-62.7486,-14.1555,166.6696],[-62.7507,-14.1592,167.2743],[-62.7505,-14.164,166.141],[-62.754,-14.1656,166.448],[-62.7566,-14.1729,168.1531],[-62.7632,-14.1745,167.4501],[-62.7628,-14.1792,168.2217],[-62.757,-14.1814,167.0539],[-62.7551,-14.1967,167.0918],[-62.7567,-14.2029,166.1377],[-62.7629,-14.2038,165.8955],[-62.7659,-14.2081,166.5087],[-62.763,-14.2126,166.3959],[-62.7625,-14.2265,166.3483],[-62.7651,-14.2303,166.3637],[-62.7634,-14.235,165.7695],[-62.7661,-14.2388,165.8334],[-62.7619,-14.2466,166.6519],[-62.7657,-14.2496,165.8792],[-62.7678,-14.249,165.4532],[-62.7705,-14.2565,165.8038],[-62.7817,-14.2646,165.8171],[-62.7842,-14.2702,165.617],[-62.7894,-14.2743,165.6728],[-62.7901,-14.2754,165.9024],[-62.7874,-14.2789,166.5588],[-62.7947,-14.2797,166.2388],[-62.7973,-14.2815,166.106],[-62.7937,-14.2865,166.3631],[-62.7893,-14.2862,167.6311],[-62.788,-14.2875,167.9509],[-62.7923,-14.2921,167.9654],[-62.7978,-14.2944,168.9257],[-62.7959,-14.2986,167.4464],[-62.7964,-14.3037,169.5699],[-62.792,-14.3083,167.7406],[-62.7921,-14.3125,166.1923],[-62.7901,-14.3129,166.8483],[-62.7835,-14.3084,167.4308],[-62.7822,-14.3095,167.4817],[-62.7827,-14.3141,169.2298],[-62.7853,-14.3184,170.6436],[-62.7839,-14.3271,175.5546],[-62.7779,-14.3327,168.4231],[-62.7718,-14.3339,171.4715],[-62.7729,-14.3381,174.4758],[-62.7745,-14.3376,169.853],[-62.7774,-14.3423,168.5247],[-62.7774,-14.3497,169.5513],[-62.7739,-14.3495,172.7634],[-62.7689,-14.3558,171.4688],[-62.7674,-14.3553,172.4951],[-62.7652,-14.3579,171.2],[-62.7605,-14.359,168.1688],[-62.7581,-14.3669,168.9003],[-62.761,-14.369,168.4503],[-62.7556,-14.3718,175.617],[-62.7563,-14.3772,169.3885],[-62.7508,-14.3789,169.1522],[-62.7496,-14.3812,170.0695],[-62.7507,-14.3882,170.316],[-62.7468,-14.3931,173.9498],[-62.7508,-14.3945,172.2559],[-62.7447,-14.3979,177.4868],[-62.7496,-14.4018,171.1808],[-62.7478,-14.4066,172.2903],[-62.7508,-14.4119,175.9662],[-62.7484,-14.4139,174.114],[-62.7479,-14.4212,175.2165],[-62.7422,-14.4194,177.825],[-62.7405,-14.4216,172.9728],[-62.741,-14.4234,175.6539],[-62.7449,-14.4234,173.2793],[-62.7469,-14.4252,174.6726],[-62.7435,-14.4353,171.7579],[-62.7419,-14.4357,171.7579],[-62.7416,-14.4326,173.4398],[-62.739,-14.4311,181.1948],[-62.7315,-14.4328,178.9877],[-62.7284,-14.4365,175.3856],[-62.7319,-14.4429,172.9331],[-62.7353,-14.4424,177.1148],[-62.7337,-14.4475,173.379],[-62.7376,-14.4503,173.0931],[-62.7383,-14.4527,173.1983],[-62.7404,-14.4525,178.9814],[-62.7411,-14.4548,175.8209],[-62.7364,-14.4628,172.6463],[-62.7355,-14.4589,176.8329],[-62.7316,-14.462,175.327],[-62.729,-14.4671,179.8433],[-62.7315,-14.4709,175.8695],[-62.7311,-14.4732,176.687],[-62.7266,-14.4739,175.9322],[-62.7321,-14.48,179.1064],[-62.7261,-14.4835,176.7116],[-62.7265,-14.4853,177.8161],[-62.7292,-14.4856,177.1516],[-62.7298,-14.4901,173.8571],[-62.7252,-14.4883,175.4451],[-62.7225,-14.4895,180.6628],[-62.7261,-14.4912,174.9307],[-62.7249,-14.4951,174.8816],[-62.7262,-14.4986,174.3559],[-62.7245,-14.5014,176.7114],[-62.7186,-14.4998,177.9895],[-62.7224,-14.5049,174.3563],[-62.7236,-14.5095,179.2907],[-62.7162,-14.5117,177.8664],[-62.7139,-14.5104,172.9749],[-62.7101,-14.5129,176.4224],[-62.7049,-14.5114,173.7958],[-62.7043,-14.5159,173.3433],[-62.7069,-14.5171,179.6641],[-62.7025,-14.5229,176.0618],[-62.7042,-14.5294,175.4145],[-62.7025,-14.5332,178.8624],[-62.7038,-14.534,174.8666],[-62.7018,-14.5352,179.3205],[-62.6976,-14.5448,176.462],[-62.6943,-14.5453,178.4848],[-62.688,-14.5412,180.5468],[-62.6852,-14.5433,179.9632],[-62.6876,-14.5466,180.1469],[-62.6867,-14.5475,180.1469],[-62.6821,-14.5487,176.4786],[-62.6812,-14.5467,179.4971],[-62.6835,-14.545,176.7004],[-62.6815,-14.5438,180.9448],[-62.6778,-14.5447,178.3204],[-62.6762,-14.5481,177.5829],[-62.6724,-14.5465,178.2065],[-62.6712,-14.5502,182.5726],[-62.6684,-14.5509,180.7945],[-62.6716,-14.5542,179.6557],[-62.6694,-14.5567,185.6663],[-62.6706,-14.5579,176.6249],[-62.6696,-14.5636,177.5806],[-62.6709,-14.5685,184.132],[-62.6735,-14.5689,184.3223],[-62.6703,-14.5713,181.1273],[-62.6715,-14.5733,184.0493],[-62.6706,-14.577,178.0022],[-62.6643,-14.5804,180.4484],[-62.6666,-14.5851,178.5043],[-62.6598,-14.585,180.0048],[-62.6591,-14.5888,181.581],[-62.6559,-14.5887,185.1818],[-62.6559,-14.5923,175.487],[-62.6577,-14.5922,180.0363],[-62.6602,-14.5957,182.389],[-62.6652,-14.5939,182.9587],[-62.6635,-14.5961,179.3703],[-62.6642,-14.5993,181.4324],[-62.6683,-14.5989,180.9893],[-62.6729,-14.6025,178.102],[-62.6759,-14.6013,181.8268],[-62.6735,-14.6049,184.8436],[-62.676,-14.6071,181.9551],[-62.6739,-14.6114,183.019],[-62.6715,-14.61,179.6521],[-62.6691,-14.6134,181.898],[-62.6708,-14.6179,181.276],[-62.666,-14.6179,179.6282],[-62.6672,-14.6156,178.5546],[-62.6662,-14.6146,178.5546],[-62.6592,-14.6147,178.8069],[-62.6615,-14.6215,181.3435],[-62.6578,-14.6225,180.9286],[-62.6557,-14.6202,182.0232],[-62.6564,-14.6252,179.8432],[-62.651,-14.6235,189.633],[-62.6475,-14.6289,185.7552],[-62.6495,-14.6332,183.995],[-62.6521,-14.6323,181.815],[-62.6553,-14.6334,180.1082],[-62.6561,-14.6355,181.5486],[-62.6587,-14.635,182.5423],[-62.6606,-14.639,178.1478],[-62.6594,-14.6427,178.2306],[-62.6518,-14.6445,181.3525],[-62.649,-14.6425,181.5387],[-62.6487,-14.6398,179.9815],[-62.645,-14.6384,183.9998],[-62.6442,-14.6425,178.3979],[-62.6374,-14.6473,180.2606],[-62.6352,-14.647,178.8887],[-62.6344,-14.6441,182.138],[-62.6265,-14.6418,183.7656],[-62.6244,-14.6428,187.9897],[-62.6239,-14.6479,182.6736],[-62.621,-14.6501,179.9191],[-62.6219,-14.6583,193.3862],[-62.6245,-14.6561,183.61],[-62.6244,-14.6598,177.7786],[-62.6306,-14.6666,181.3882],[-62.6264,-14.6668,182.1487],[-62.626,-14.6703,195.2657],[-62.6236,-14.6718,191.6046],[-62.6226,-14.6754,181.6004],[-62.6243,-14.679,186.7204],[-62.6282,-14.6764,182.4218],[-62.6302,-14.679,181.9498],[-62.6269,-14.6837,181.496],[-62.6291,-14.6861,179.9478],[-62.627,-14.6886,178.6287],[-62.6279,-14.6942,178.6156],[-62.6236,-14.6945,183.2378],[-62.6208,-14.6967,178.4048],[-62.6218,-14.7008,179.883],[-62.6155,-14.7003,190.2131],[-62.6143,-14.703,180.8054],[-62.6166,-14.705,182.6637],[-62.6179,-14.7134,179.1935],[-62.6169,-14.7142,179.1935],[-62.6182,-14.7165,181.1119],[-62.616,-14.7192,181.596],[-62.6221,-14.7228,178.1808],[-62.6181,-14.728,181.2288],[-62.6216,-14.7288,178.2309],[-62.6238,-14.7317,180.7326],[-62.627,-14.7298,180.8267],[-62.6284,-14.7363,178.4125],[-62.6304,-14.7332,179.9602],[-62.6315,-14.7362,181.3784],[-62.6355,-14.7375,179.1132],[-62.6335,-14.7408,180.5516],[-62.6363,-14.7419,181.122],[-62.6359,-14.7474,181.6293],[-62.6392,-14.7504,179.2015],[-62.6403,-14.7541,179.929],[-62.6384,-14.7567,182.8385],[-62.6386,-14.7597,184.3439],[-62.6429,-14.7585,187.8292],[-62.6424,-14.7613,185.0697],[-62.6444,-14.7635,182.1133],[-62.6472,-14.7613,183.1506],[-62.6478,-14.7641,182.0519],[-62.6519,-14.7653,180.4504],[-62.6499,-14.7664,185.1636],[-62.6502,-14.7702,186.2663],[-62.6476,-14.7729,187.1792],[-62.6514,-14.779,207.2583],[-62.6504,-14.7836,182.991],[-62.6464,-14.7854,185.3038],[-62.6467,-14.7879,187.1257],[-62.6441,-14.7887,184.8478],[-62.6441,-14.7916,185.5595],[-62.6416,-14.7932,183.2101],[-62.6441,-14.7945,187.7596],[-62.644,-14.7969,182.6171],[-62.6477,-14.7962,186.1983],[-62.6476,-14.7995,184.1573],[-62.6387,-14.8016,188.5969],[-62.6356,-14.8073,181.1779],[-62.6363,-14.8137,183.728],[-62.6422,-14.815,182.7152],[-62.642,-14.8176,186.9066],[-62.6442,-14.8204,183.8229],[-62.6456,-14.8187,183.9074],[-62.6481,-14.8195,185.9804],[-62.6458,-14.8232,182.9419],[-62.6426,-14.8246,183.7762],[-62.6445,-14.8259,185.749],[-62.6445,-14.8308,181.6324],[-62.646,-14.8325,185.5254],[-62.644,-14.8344,186.1281],[-62.6477,-14.836,185.6547],[-62.6431,-14.8402,183.4795],[-62.6444,-14.8431,183.6025],[-62.643,-14.8446,189.4827],[-62.6397,-14.8448,183.3826],[-62.6342,-14.8482,185.7133],[-62.6311,-14.8522,187.3344],[-62.6332,-14.8539,183.0652],[-62.6327,-14.8575,183.5332],[-62.6347,-14.8568,190.9913],[-62.6367,-14.8585,193.5203],[-62.634,-14.8625,184.215],[-62.6381,-14.8625,189.2127],[-62.6383,-14.8666,184.5729],[-62.6366,-14.8658,188.7133],[-62.6359,-14.8694,185.314],[-62.6316,-14.8715,182.7695],[-62.63,-14.8701,185.795],[-62.6267,-14.8712,192.1147],[-62.6244,-14.8753,186.2197],[-62.6274,-14.8757,190.6448],[-62.6274,-14.8779,188.114],[-62.6245,-14.8805,189.8202],[-62.6275,-14.8872,188.5391],[-62.6296,-14.8847,185.0496],[-62.6318,-14.8889,187.7912],[-62.639,-14.8836,188.5856],[-62.6398,-14.8896,188.0075],[-62.6457,-14.8923,183.9195],[-62.643,-14.8975,185.1174],[-62.6457,-14.8979,185.2834],[-62.6462,-14.8961,186.8482],[-62.6483,-14.8975,186.1971],[-62.6462,-14.9006,190.7639],[-62.6472,-14.9034,187.7642],[-62.6451,-14.9031,186.9893],[-62.6455,-14.9049,188.605],[-62.6431,-14.9069,186.6268],[-62.644,-14.9087,186.0665],[-62.6462,-14.9085,189.7318],[-62.6448,-14.9109,192.0416],[-62.6476,-14.9115,187.5089],[-62.6497,-14.9153,187.7124],[-62.6493,-14.9166,190.5359],[-62.646,-14.9167,186.5297],[-62.6452,-14.9189,188.8757],[-62.646,-14.9203,188.031],[-62.6483,-14.9183,189.7567],[-62.6489,-14.9206,188.6717],[-62.6469,-14.9211,188.031],[-62.6467,-14.9241,194.6201],[-62.6445,-14.9252,189.2202],[-62.6447,-14.93,190.1418],[-62.6465,-14.9322,187.8005],[-62.6427,-14.9377,200.7815],[-62.6463,-14.9419,189.5317],[-62.6434,-14.9433,189.1418],[-62.643,-14.9477,191.303],[-62.6387,-14.9496,191.1679],[-62.6387,-14.9523,187.6762],[-62.6347,-14.958,189.7869],[-62.6355,-14.9596,187.8727],[-62.6334,-14.962,196.9988],[-62.6334,-14.9651,197.8297],[-62.6349,-14.9679,195.2484],[-62.6329,-14.9684,195.8916],[-62.6323,-14.9711,206.5118],[-62.6346,-14.9721,188.9665],[-62.6343,-14.975,197.0886],[-62.6387,-14.9744,194.6581],[-62.6381,-14.9767,190.6758],[-62.6434,-14.978,190.7505],[-62.6437,-14.9803,190.4135],[-62.6399,-14.988,193.3176],[-62.6442,-14.9908,196.6537],[-62.6432,-14.9925,195.7045],[-62.6408,-14.9912,193.9563],[-62.6371,-14.9921,192.1468],[-62.6378,-14.995,195.7574],[-62.6361,-14.9954,194.4334],[-62.6306,-14.9905,195.229],[-62.6267,-14.9923,194.0349],[-62.6262,-14.9907,194.9147],[-62.6194,-14.9906,194.6408],[-62.6143,-14.9938,191.8827],[-62.607,-14.9906,200.8044],[-62.6012,-14.9942,199.381],[-62.6011,-15.0012,194.1408],[-62.5949,-15.0034,195.0539],[-62.5901,-15.0023,189.7063],[-62.5878,-15.006,193.4103],[-62.5845,-15.0068,198.962],[-62.5821,-15.0118,195.719],[-62.5844,-15.014,191.8209],[-62.5844,-15.0172,194.7633],[-62.5818,-15.0213,195.8023],[-62.5827,-15.0233,191.7034],[-62.5808,-15.0246,197.8342],[-62.5817,-15.0257,195.3605],[-62.5804,-15.0281,195.0335],[-62.5826,-15.0296,196.9379],[-62.5844,-15.0283,193.2086],[-62.5849,-15.0301,195.3661],[-62.5758,-15.0403,195.2409],[-62.5606,-15.0462,204.4071],[-62.5606,-15.0479,194.9971],[-62.5589,-15.048,195.8072],[-62.557,-15.0509,195.8813],[-62.5531,-15.0511,213.244],[-62.5485,-15.0604,192.8051],[-62.5507,-15.0666,196.9971],[-62.5545,-15.0699,196.396],[-62.5524,-15.0734,193.7371],[-62.549,-15.0724,199.4002],[-62.548,-15.075,198.0775],[-62.5447,-15.0741,196.6176],[-62.5441,-15.0784,198.0321],[-62.5431,-15.0765,197.911],[-62.5417,-15.0773,199.6787],[-62.5399,-15.0852,196.1288],[-62.5363,-15.0894,203.1621],[-62.5393,-15.0911,201.5871],[-62.5391,-15.0949,199.4451],[-62.5338,-15.0943,196.0072],[-62.5308,-15.0915,197.2752],[-62.5281,-15.0919,200.7906],[-62.5269,-15.0975,201.7705],[-62.5254,-15.0973,200.4428],[-62.5193,-15.1051,202.2182],[-62.5079,-15.1094,200.561],[-62.4996,-15.1026,203.4339],[-62.4979,-15.0935,204.5336],[-62.4891,-15.092,209.2487],[-62.485,-15.0969,200.1231],[-62.4889,-15.0993,207.3187],[-62.4916,-15.1044,204.4277],[-62.4911,-15.1123,207.7899],[-62.4932,-15.1134,204.4305],[-62.4924,-15.1158,204.8474],[-62.4937,-15.1181,209.6418],[-62.4924,-15.1229,210.0791],[-62.4907,-15.1239,205.7313],[-62.4933,-15.1257,204.7912],[-62.4946,-15.1297,204.7685],[-62.4866,-15.1354,202.0265],[-62.4868,-15.1433,202.6461],[-62.493,-15.1517,217.2299],[-62.4942,-15.1648,227.2709],[-62.4982,-15.1711,216.8219],[-62.4987,-15.1769,235.0998],[-62.5145,-15.1822,224.8305],[-62.5213,-15.1913,226.2143],[-62.5249,-15.2025,232.9474],[-62.524,-15.2091,223.3521],[-62.5272,-15.2118,225.5789],[-62.5263,-15.216,236.9698],[-62.5235,-15.2194,231.6738],[-62.5244,-15.2251,229.5157],[-62.5232,-15.2295,232.1532],[-62.5307,-15.2335,232.4033],[-62.5312,-15.2356,232.3924],[-62.5279,-15.2386,232.7534],[-62.5271,-15.2457,235.8165],[-62.5284,-15.247,238.5033],[-62.5254,-15.2483,238.2392],[-62.5236,-15.2516,233.3377],[-62.5231,-15.2565,242.7181],[-62.5261,-15.261,237.2587],[-62.525,-15.2653,241.1201],[-62.5276,-15.2726,241.0464],[-62.525,-15.2807,253.1773],[-62.5262,-15.2929,245.886],[-62.5249,-15.2989,252.9173],[-62.5255,-15.3018,255.8483],[-62.5286,-15.3049,264.9954],[-62.5343,-15.3068,259.8971],[-62.5365,-15.3156,257.2904],[-62.5317,-15.3224,273.6472],[-62.5282,-15.3368,267.0262],[-62.523,-15.3411,273.761],[-62.5208,-15.3467,274.248],[-62.5171,-15.3484,274.8495],[-62.514,-15.3541,278.7396],[-62.5132,-15.3593,278.3233],[-62.5174,-15.3675,283.4861],[-62.5234,-15.374,287.092],[-62.5367,-15.3791,299.3915],[-62.535,-15.3867,305.3706],[-62.5403,-15.3903,319.4998],[-62.5427,-15.4011,323.5293],[-62.5509,-15.4072,331.0485],[-62.55,-15.4179,353.5794],[-62.5589,-15.4316,443.9112],[-62.5577,-15.434,411.7318],[-62.5508,-15.4373,393.907],[-62.5463,-15.4417,387.6335],[-62.5435,-15.4416,381.6301],[-62.5369,-15.4501,361.4019],[-62.5159,-15.4644,332.1081],[-62.5109,-15.4697,323.5999],[-62.5092,-15.4749,321.446],[-62.5093,-15.4877,317.8622],[-62.5115,-15.4928,324.5854],[-62.5147,-15.4958,318.0896],[-62.5153,-15.4998,311.1227],[-62.5096,-15.5174,304.0681],[-62.531,-15.5216,297.3568],[-62.5344,-15.5244,296.0806],[-62.532,-15.5318,295.7394],[-62.5342,-15.5345,298.826],[-62.5426,-15.5344,295.8092],[-62.5406,-15.5402,300.0608],[-62.5349,-15.5447,308.5229],[-62.5344,-15.5476,301.897],[-62.5374,-15.5555,307.8382],[-62.5369,-15.5603,312.6259],[-62.541,-15.577,321.1643],[-62.5447,-15.5868,336.0476],[-62.5871,-15.8477,315.6026],[-62.5808,-15.8483,333.7315],[-62.5759,-15.8589,311.0782],[-62.5687,-15.8521,316.386],[-62.5655,-15.851,321.7484],[-62.5525,-15.8614,327.8017],[-62.5475,-15.8603,340.417],[-62.5349,-15.8664,344.8206],[-62.5169,-15.8701,347.7082],[-62.5122,-15.8674,342.6557],[-62.4996,-15.8744,359.1827],[-62.4878,-15.8749,352.6548],[-62.4778,-15.8809,353.7177],[-62.4743,-15.8799,351.6044],[-62.4738,-15.8824,358.3485],[-62.479,-15.8847,356.5424],[-62.4783,-15.8885,352.1638],[-62.4733,-15.888,356.7203],[-62.4652,-15.8802,358.8691],[-62.4604,-15.8791,365.5827],[-62.4554,-15.8851,361.3459],[-62.4466,-15.881,370.4601],[-62.4426,-15.8869,361.7588],[-62.4364,-15.8861,367.7698],[-62.4372,-15.8896,364.2841],[-62.4415,-15.8944,371.6272],[-62.4409,-15.8985,364.3014],[-62.4381,-15.9005,364.8676],[-62.4335,-15.9008,365.997],[-62.4337,-15.9047,371.2414],[-62.4255,-15.9078,370.8098],[-62.4192,-15.9205,374.626],[-62.4254,-15.9243,379.3165],[-62.4289,-15.9324,376.4404],[-62.4244,-15.9342,376.8646],[-62.4209,-15.9412,378.6076],[-62.4117,-15.9426,373.4113],[-62.407,-15.9462,379.7753],[-62.4097,-15.9473,380.8112],[-62.4093,-15.9507,377.1723],[-62.4139,-15.9534,382.0886],[-62.4229,-15.9659,389.8007],[-62.4191,-15.9763,374.9642],[-62.42,-15.9834,393.4528],[-62.4149,-15.9874,382.1599],[-62.4116,-15.9947,387.1826],[-62.4031,-15.9997,394.2144],[-62.3986,-16.0077,390.4459],[-62.39,-16.0133,383.3473],[-62.3805,-16.017,385.5044],[-62.3789,-16.0197,386.4092],[-62.3815,-16.0245,387.7417],[-62.3812,-16.0272,391.7671],[-62.3721,-16.0301,398.0375],[-62.3726,-16.0319,397.5238],[-62.3777,-16.0327,401.3622],[-62.3779,-16.0368,389.1326],[-62.3878,-16.0364,400.004],[-62.3888,-16.0384,401.6915],[-62.384,-16.0394,407.0641],[-62.3827,-16.0425,399.1958],[-62.3787,-16.0438,398.5772],[-62.3761,-16.047,399.7665],[-62.3706,-16.0476,407.5392],[-62.3753,-16.053,399.6617],[-62.3784,-16.0616,397.8317],[-62.3752,-16.0661,409.3459],[-62.359,-16.0677,412.3801],[-62.3615,-16.0712,418.7652],[-62.36,-16.0755,407.5976],[-62.3554,-16.0773,406.1691],[-62.3562,-16.0816,416.6488],[-62.355,-16.0833,421.909],[-62.3499,-16.0849,418.3254],[-62.3556,-16.0932,419.6642],[-62.3522,-16.0963,429.3264],[-62.352,-16.0996,428.6757],[-62.3496,-16.1004,426.384],[-62.3471,-16.0969,427.1785],[-62.3426,-16.096,430.361],[-62.3457,-16.0997,432.5935],[-62.3435,-16.1038,428.602],[-62.3387,-16.1032,431.8406],[-62.3374,-16.1075,425.3484],[-62.3317,-16.1061,434.0459],[-62.3304,-16.1103,423.2968],[-62.3323,-16.113,432.0264],[-62.3235,-16.1156,425.5736],[-62.3224,-16.1176,421.657],[-62.3151,-16.1172,430.7271],[-62.3131,-16.1216,438.2818],[-62.315,-16.1241,439.1626],[-62.3142,-16.1313,446.1165],[-62.3193,-16.1299,434.6923],[-62.3211,-16.1339,433.3274],[-62.3169,-16.1353,435.2626],[-62.3191,-16.139,443.3437],[-62.3179,-16.1404,449.9831],[-62.3245,-16.1441,442.9662],[-62.3245,-16.1469,452.9367],[-62.3236,-16.1483,450.3],[-62.3187,-16.1491,446.6969],[-62.3186,-16.1542,440.0189],[-62.3148,-16.1547,443.9077],[-62.3129,-16.1587,441.8301],[-62.3136,-16.1612,440.4071],[-62.3091,-16.1612,443.8776],[-62.303,-16.1656,446.7896],[-62.3054,-16.1693,444.8431],[-62.3016,-16.1709,448.1005],[-62.2974,-16.1697,453.6289],[-62.2926,-16.1741,460.3109],[-62.2953,-16.1756,471.0733],[-62.2949,-16.1781,465.3683],[-62.2989,-16.1794,471.9418],[-62.2963,-16.1885,470.3089],[-62.2926,-16.1917,491.3832],[-62.2963,-16.1932,474.7831],[-62.2939,-16.2027,480.1674],[-62.2966,-16.2037,480.013],[-62.2925,-16.2058,486.964],[-62.2977,-16.2063,486.0161],[-62.2957,-16.2099,486.2897],[-62.2973,-16.2144,489.6699],[-62.2862,-16.2326,494.4062],[-62.2867,-16.2376,494.4278],[-62.2823,-16.2371,493.6854],[-62.2837,-16.2403,486.0833],[-62.2795,-16.2452,501.8999],[-62.2788,-16.2491,505.4941],[-62.2718,-16.2539,501.0294],[-62.2733,-16.2577,492.6242],[-62.2801,-16.2627,513.1088],[-62.2816,-16.2656,515.8065],[-62.2864,-16.2669,525.9484],[-62.2885,-16.2656,536.0694],[-62.2849,-16.2995,610.4788],[-62.29,-16.3062,509.4124],[-62.288,-16.3097,468.598],[-62.29,-16.3132,465.9038],[-62.2885,-16.3458,441.6498],[-62.291,-16.3477,438.7672],[-62.2922,-16.3536,423.2736],[-62.2975,-16.3523,428.1924],[-62.2989,-16.3533,425.4848],[-62.3039,-16.3644,423.5003],[-62.3094,-16.364,418.171],[-62.3147,-16.3698,415.6273],[-62.3156,-16.3961,444.5572],[-62.324,-16.4195,415.866],[-62.3234,-16.4254,409.2872],[-62.3309,-16.4365,381.9883],[-62.3307,-16.446,374.6557],[-62.3321,-16.4467,372.7796],[-62.3317,-16.4503,369.1284],[-62.336,-16.4607,362.4801],[-62.3352,-16.478,350.3714],[-62.3412,-16.4906,339.4196],[-62.3382,-16.499,331.3225],[-62.3434,-16.506,324.2186],[-62.3399,-16.5093,333.5747],[-62.3398,-16.5135,327.253],[-62.3355,-16.507,328.0157],[-62.3335,-16.5085,332.5786],[-62.335,-16.5125,326.4798],[-62.3339,-16.5134,337.9279],[-62.3318,-16.5132,335.7713],[-62.3307,-16.5096,333.4288],[-62.3283,-16.5081,329.2174],[-62.3227,-16.5128,333.5797],[-62.3213,-16.5124,333.9863],[-62.3209,-16.5097,331.3803],[-62.3136,-16.5115,330.1868],[-62.3147,-16.5146,330.6179],[-62.3197,-16.5132,336.2339],[-62.3218,-16.5155,337.8101],[-62.3285,-16.5171,345.4516],[-62.3284,-16.5204,328.4208],[-62.3245,-16.5192,343.5385],[-62.3199,-16.521,339.298],[-62.3216,-16.5261,341.755],[-62.324,-16.5246,333.5143],[-62.3251,-16.5285,333.1282],[-62.321,-16.5317,334.6708],[-62.3164,-16.5278,341.781],[-62.3105,-16.5302,340.1173],[-62.308,-16.5285,339.6899],[-62.3063,-16.5311,335.2482],[-62.2977,-16.5327,355.619],[-62.2992,-16.5382,340.6918],[-62.2961,-16.5403,345.4518],[-62.2978,-16.5414,337.7292],[-62.297,-16.5429,346.1049],[-62.2926,-16.5412,352.8998],[-62.2925,-16.5385,348.8941],[-62.2897,-16.5388,353.2143],[-62.2864,-16.546,351.0983],[-62.2833,-16.5438,357.9979],[-62.2816,-16.5471,351.9538],[-62.2764,-16.5456,353.2573],[-62.2789,-16.5518,356.7684],[-62.2753,-16.5551,351.8353],[-62.2756,-16.558,349.1037],[-62.2717,-16.5558,363.4844],[-62.2743,-16.5522,365.3708],[-62.2725,-16.5487,369.4044],[-62.2697,-16.5492,356.1737],[-62.2678,-16.5515,357.6856],[-62.2615,-16.5466,354.9936],[-62.2581,-16.5501,360.3993],[-62.2576,-16.5541,365.7847],[-62.2555,-16.5517,363.8871],[-62.2507,-16.5517,365.1252],[-62.2591,-16.563,435.4305],[-62.2754,-16.5999,522.8522],[-62.2916,-16.6154,462.9944],[-62.3074,-16.6344,472.0233],[-62.3271,-16.6412,530.6776],[-62.3499,-16.6459,541.7727],[-62.3723,-16.6463,447.2467],[-62.3999,-16.6434,366.062],[-62.429,-16.6293,366.609],[-62.4253,-16.6508,284.8354],[-62.4239,-16.682,254.1206],[-62.4292,-16.7074,239.6339],[-62.4277,-16.7097,236.6183],[-62.4338,-16.7099,245.9192],[-62.4313,-16.7119,240.2232],[-62.4297,-16.718,245.8596],[-62.4282,-16.7171,245.2653],[-62.4274,-16.713,240.7522],[-62.4246,-16.7122,244.0068],[-62.4228,-16.7136,240.2612],[-62.4266,-16.7155,241.7472],[-62.4259,-16.7172,242.3154],[-62.4298,-16.7236,241.7587],[-62.4298,-16.7306,241.6072],[-62.4351,-16.733,247.9343],[-62.4337,-16.7348,246.1327],[-62.426,-16.734,240.1261],[-62.428,-16.7354,241.787],[-62.427,-16.7369,241.9891],[-62.4302,-16.7411,242.0615],[-62.4344,-16.744,238.9144],[-62.4329,-16.7455,241.4537],[-62.4305,-16.7423,246.0209],[-62.4306,-16.7455,243.0008],[-62.4266,-16.7466,243.2467],[-62.4242,-16.7515,244.8967],[-62.4202,-16.75,240.7494],[-62.4187,-16.7509,240.7494],[-62.4198,-16.7535,239.4387],[-62.4227,-16.7523,244.8967],[-62.4222,-16.755,247.5143],[-62.4267,-16.7583,243.9921],[-62.4256,-16.7601,241.7263],[-62.4206,-16.7582,244.6216],[-62.42,-16.7611,243.8011],[-62.4259,-16.761,241.7263],[-62.4279,-16.7629,238.935],[-62.4209,-16.7634,241.8301],[-62.4203,-16.7676,242.0007],[-62.4259,-16.7657,245.1572],[-62.4247,-16.7677,243.3909],[-62.426,-16.7707,240.8149],[-62.4301,-16.7708,237.8412],[-62.4275,-16.7733,238.3178],[-62.4277,-16.7782,237.6599],[-62.4254,-16.7768,237.8684],[-62.4213,-16.7791,238.9935],[-62.4235,-16.7802,243.2331],[-62.4227,-16.783,245.1028],[-62.4284,-16.7845,241.3333],[-62.4276,-16.7873,242.8084],[-62.4244,-16.7886,249.6056],[-62.4262,-16.7897,242.1594],[-62.4254,-16.7918,242.2262],[-62.4268,-16.7935,238.1376],[-62.424,-16.7986,244.328],[-62.4171,-16.7954,249.2212],[-62.4179,-16.7998,243.6618],[-62.4219,-16.8023,242.6275],[-62.4196,-16.8063,244.9752],[-62.4215,-16.8083,240.2306],[-62.4179,-16.812,239.7691],[-62.414,-16.8104,244.8603],[-62.4107,-16.8111,244.6706],[-62.4109,-16.8169,239.0431],[-62.4084,-16.8167,243.6258],[-62.4074,-16.8125,248.7742],[-62.4064,-16.8164,242.1465],[-62.4036,-16.815,240.7568],[-62.4028,-16.8171,240.8798],[-62.3973,-16.8169,245.7625],[-62.3987,-16.8195,245.6091],[-62.3933,-16.8196,240.0411],[-62.3892,-16.8165,247.3002],[-62.3855,-16.8206,241.8329],[-62.3842,-16.8251,243.1657],[-62.3888,-16.8279,241.5481],[-62.3884,-16.8295,242.8822],[-62.3923,-16.8343,242.2942],[-62.3915,-16.8491,236.5699],[-62.3888,-16.8582,238.6379],[-62.3833,-16.866,236.8779],[-62.3751,-16.8727,237.4704],[-62.3711,-16.8944,240.0168],[-62.369,-16.8957,239.8781],[-62.3664,-16.8947,239.1082],[-62.3627,-16.8984,238.841],[-62.364,-16.9016,239.5951],[-62.3607,-16.904,239.0609],[-62.3628,-16.9057,239.6037],[-62.3657,-16.9145,240.0386],[-62.3547,-16.9161,240.6184],[-62.3512,-16.922,240.8587],[-62.348,-16.9242,240.3762],[-62.3504,-16.9294,241.1574],[-62.3465,-16.931,241.3316],[-62.348,-16.9329,241.5861],[-62.3444,-16.9423,245.9704],[-62.3419,-16.9454,248.0584],[-62.3382,-16.9457,252.6052],[-62.3349,-16.9504,249.6536],[-62.336,-16.9526,247.8007],[-62.3343,-16.9578,242.0466],[-62.3353,-16.9653,242.0919],[-62.3408,-16.975,243.0811],[-62.3353,-16.9853,242.3188],[-62.3303,-16.9885,242.7849],[-62.3338,-16.9994,242.9863],[-62.3317,-17.0008,243.4813],[-62.3292,-17.007,243.6214],[-62.3292,-17.0135,243.8903],[-62.3239,-17.0189,244.1871],[-62.3257,-17.0252,244.4808],[-62.3236,-17.0284,244.834],[-62.3237,-17.0324,245.1217],[-62.3275,-17.0364,245.3156],[-62.3272,-17.0412,245.5692],[-62.1804,-17.0271,247.7393],[-61.9663,-17.0381,254.7354],[-61.9678,-17.0361,260.683],[-61.9697,-17.037,252.6089],[-61.9693,-17.0351,255.045],[-61.971,-17.0351,250.401],[-61.9721,-17.0374,251.0788],[-61.971,-17.0337,254.4812],[-61.9737,-17.0335,249.7725],[-61.9727,-17.0317,253.3801],[-61.9745,-17.0309,254.3881],[-61.9724,-17.029,250.6103],[-61.9779,-17.0271,248.2574],[-61.9757,-17.0248,272.7556],[-61.9765,-17.0236,249.6154],[-61.9794,-17.0247,249.2909],[-61.9825,-17.0238,248.8614],[-61.9819,-17.0214,251.5316],[-61.9856,-17.0215,251.7711],[-61.9863,-17.0196,249.0116],[-61.9883,-17.0204,253.1231],[-61.9888,-17.0176,258.7425],[-61.9851,-17.0178,248.6378],[-61.9905,-17.0152,248.8722],[-61.9901,-17.0131,245.4907],[-61.9877,-17.0139,246.3519],[-61.9884,-17.0124,249.0119],[-61.9941,-17.0143,255.9448],[-61.996,-17.0129,251.9964],[-61.9957,-17.0099,248.9582],[-61.9976,-17.0122,253.8504],[-62.0003,-17.0086,250.5452],[-61.9969,-17.0071,251.396],[-61.9979,-17.0059,247.7313],[-62.0004,-17.0068,253.3596],[-62.0005,-17.0043,251.0641],[-62.004,-17.0071,253.1405],[-62.0035,-17.0044,252.8142],[-62.0063,-17.0045,249.8042],[-62.0064,-17.003,249.8042],[-61.9998,-17.0025,248.2643],[-62.0027,-17.0004,251.5279],[-62.0006,-16.9984,258.64],[-62.0029,-16.9977,248.2146],[-62.0049,-17.0004,248.5245],[-62.004,-16.9964,248.2146],[-62.0077,-16.9946,249.1389],[-62.0111,-16.9975,248.9949],[-62.0106,-16.9946,253.4795],[-62.0077,-16.9931,247.0963],[-62.0134,-16.9878,253.4768],[-62.02,-16.9861,248.4041],[-62.0225,-16.989,253.9727],[-62.0184,-16.9901,250.1642],[-62.0183,-16.9921,251.6179],[-62.0162,-16.993,247.5196],[-62.018,-16.9937,249.436],[-62.0198,-16.9923,252.8461],[-62.0213,-16.9981,246.8436],[-62.0244,-16.9999,249.486],[-62.0237,-16.995,252.5936],[-62.0269,-17.0005,250.0483],[-62.0296,-16.9991,252.7539],[-62.0287,-16.9966,250.4292],[-62.0265,-16.9961,261.0468],[-62.0339,-16.9972,247.8119],[-62.0354,-17.0019,245.6697],[-62.0415,-17.0005,247.2101],[-62.0391,-16.9986,249.8603],[-62.0415,-16.9968,248.1454],[-62.0381,-16.9969,249.8749],[-62.0387,-16.9939,250.7201],[-62.0436,-16.9967,253.1374],[-62.0479,-16.9944,254.9139],[-62.0473,-16.9979,248.4847],[-62.053,-16.9936,251.9712],[-62.056,-16.9971,251.207],[-62.0581,-16.9942,252.3808],[-62.0535,-16.9917,253.0913],[-62.0583,-16.9872,252.0483],[-62.0597,-16.9892,246.2878],[-62.0628,-16.9866,248.0218],[-62.0639,-16.9879,248.0218],[-62.0656,-16.9862,252.8649],[-62.0709,-16.9866,252.7055],[-62.0698,-16.9848,251.23],[-62.0708,-16.984,246.8316],[-62.0739,-16.9878,251.794],[-62.0752,-16.9859,254.1418],[-62.0764,-16.9875,248.8143],[-62.0788,-16.9868,248.7288],[-62.0776,-16.989,247.1722],[-62.08,-16.9883,251.6691],[-62.0803,-16.9865,249.0833],[-62.0854,-16.9858,252.4557],[-62.0905,-16.9826,252.5997],[-62.09,-16.9808,257.7096],[-62.095,-16.9767,246.4385],[-62.0965,-16.9798,246.0224],[-62.0965,-16.9745,246.3614],[-62.1003,-16.9738,250.2108],[-62.1029,-16.9713,250.1438],[-62.1019,-16.9692,244.9357],[-62.1047,-16.9702,250.5701],[-62.109,-16.9675,245.5951],[-62.1188,-16.9674,247.4671],[-62.1153,-16.9655,249.9393],[-62.1127,-16.9668,249.433],[-62.1126,-16.9602,251.8808],[-62.1066,-16.9616,243.8798],[-62.1102,-16.9569,249.3997],[-62.1128,-16.9575,250.2018],[-62.1157,-16.9555,250.7189],[-62.1145,-16.954,251.1947],[-62.1092,-16.9545,244.8351],[-62.1087,-16.9533,244.8351],[-62.1107,-16.9502,248.3844],[-62.1134,-16.9505,250.0614],[-62.1169,-16.9461,271.8329],[-62.1165,-16.951,249.977],[-62.1196,-16.9532,251.5655],[-62.1229,-16.9521,246.9552],[-62.1217,-16.9493,251.8242],[-62.1265,-16.9472,253.7298],[-62.1287,-16.9425,251.9054],[-62.1342,-16.9433,250.1976],[-62.1344,-16.9386,251.7313],[-62.1293,-16.9397,249.9684],[-62.1311,-16.9357,251.4909],[-62.1372,-16.9345,250.172],[-62.1368,-16.9316,247.4042],[-62.1454,-16.9333,253.1581],[-62.1493,-16.9306,250.9842],[-62.1489,-16.928,250.9013],[-62.1509,-16.9282,247.8641],[-62.1517,-16.9319,253.057],[-62.1541,-16.9299,249.627],[-62.1569,-16.9316,248.9752],[-62.1521,-16.9256,248.5234],[-62.1563,-16.9271,248.0352],[-62.1608,-16.9229,254.3978],[-62.1667,-16.9223,248.1374],[-62.1668,-16.9198,250.945],[-62.1693,-16.9181,250.491],[-62.1718,-16.9185,254.2929],[-62.174,-16.9157,252.7761],[-62.1708,-16.9161,252.5638],[-62.1755,-16.914,254.1223],[-62.1778,-16.9144,251.388],[-62.1769,-16.9165,255.5907],[-62.1783,-16.9166,247.7414],[-62.1795,-16.9147,249.9546],[-62.1772,-16.9126,262.125],[-62.1815,-16.9096,251.4615],[-62.1823,-16.9071,250.5075],[-62.1843,-16.9072,250.4996],[-62.1827,-16.9035,247.8947],[-62.1859,-16.9059,247.649],[-62.1882,-16.9053,254.28],[-62.1863,-16.9023,249.571],[-62.1894,-16.9009,254.0512],[-62.1899,-16.9041,251.6874],[-62.1931,-16.9055,247.4851],[-62.1938,-16.9005,253.7676],[-62.1953,-16.9001,249.4922],[-62.1963,-16.9018,251.2557],[-62.1966,-16.8986,251.1857],[-62.1981,-16.8995,251.1857],[-62.1984,-16.903,253.6297],[-62.2018,-16.9004,247.3997],[-62.2005,-16.9046,247.3146],[-62.2025,-16.906,246.8329],[-62.2073,-16.9027,252.3024],[-62.2088,-16.9045,244.5211],[-62.2113,-16.902,246.3504],[-62.2084,-16.9003,248.098],[-62.2114,-16.8971,245.3089],[-62.2071,-16.8976,245.196],[-62.2078,-16.8947,245.0141],[-62.2102,-16.8943,241.6477],[-62.2135,-16.8971,243.9436],[-62.2155,-16.8953,245.7433],[-62.2157,-16.8968,246.6028],[-62.2129,-16.8985,250.4362],[-62.2143,-16.9004,245.391],[-62.2165,-16.8997,249.1562],[-62.2171,-16.8939,240.5332],[-62.2221,-16.8974,241.7177],[-62.2223,-16.8937,250.9437],[-62.2279,-16.8936,240.3804],[-62.2268,-16.8906,245.8938],[-62.2205,-16.8902,249.3761],[-62.2223,-16.8883,246.148],[-62.2269,-16.8893,243.9441],[-62.2278,-16.8849,241.0434],[-62.2248,-16.8869,244.02],[-62.2235,-16.8822,246.2218],[-62.2211,-16.884,241.3274],[-62.2176,-16.8817,240.4651],[-62.2196,-16.8803,242.0182],[-62.2203,-16.8766,241.6859],[-62.2184,-16.8743,239.0778],[-62.2187,-16.8719,237.8915],[-62.212,-16.8699,239.72],[-62.2051,-16.8746,240.6678],[-62.2026,-16.8784,239.8822],[-62.1989,-16.8792,240.0968],[-62.1987,-16.882,241.8818],[-62.1957,-16.8852,246.6085],[-62.1886,-16.8858,242.7207],[-62.1865,-16.8896,238.7148],[-62.1767,-16.8875,238.8396],[-62.1732,-16.8903,238.7295],[-62.1717,-16.8896,238.7295],[-62.1673,-16.8809,266.0248],[-62.1668,-16.8741,241.0465],[-62.1612,-16.8704,247.3439],[-62.1617,-16.8684,241.2535],[-62.1535,-16.8462,514.9851],[-62.1036,-16.7608,503.9247],[-62.0585,-16.6983,488.5822],[-61.9676,-16.5424,468.1152],[-61.9634,-16.5432,446.2127],[-61.9561,-16.5417,442.6424],[-61.9507,-16.5384,451.031],[-61.9502,-16.5408,442.2212],[-61.9427,-16.5403,440.7315],[-61.9421,-16.5424,436.9856],[-61.9381,-16.5413,431.4776],[-61.935,-16.543,431.8525],[-61.9311,-16.5413,434.1852],[-61.9242,-16.5421,413.8995],[-61.9234,-16.541,421.2228],[-61.9208,-16.5424,417.7579],[-61.9187,-16.5463,412.0781],[-61.9081,-16.5457,416.0268],[-61.8997,-16.5583,393.2993],[-61.8972,-16.5588,410.857],[-61.8877,-16.5676,390.8525],[-61.8855,-16.5661,406.8596],[-61.8846,-16.5687,391.9275],[-61.8817,-16.5696,394.0295],[-61.8826,-16.5763,387.7871],[-61.8788,-16.5805,383.3533],[-61.8675,-16.5854,377.7591],[-61.8601,-16.5835,373.2476],[-61.8486,-16.5928,365.4793],[-61.8454,-16.5936,364.6946],[-61.8427,-16.5981,363.6709],[-61.8399,-16.5968,370.4549],[-61.8336,-16.6002,369.7957],[-61.8335,-16.6038,366.6878],[-61.8295,-16.6054,364.1666],[-61.8279,-16.6097,362.7128],[-61.8261,-16.6099,362.7128],[-61.8259,-16.614,364.2071],[-61.8221,-16.6162,360.8685],[-61.8242,-16.6171,361.4304],[-61.8236,-16.6195,366.5114],[-61.8267,-16.6203,358.9089],[-61.83,-16.6238,358.0738],[-61.8204,-16.6274,355.8513],[-61.8155,-16.6246,353.1238],[-61.8112,-16.6264,352.5013],[-61.8119,-16.629,351.7131],[-61.8088,-16.6356,346.7072],[-61.8057,-16.6341,345.6711],[-61.8059,-16.6316,345.5101],[-61.8012,-16.629,364.5051],[-61.8013,-16.6188,346.0056],[-61.7958,-16.6189,351.4591],[-61.7924,-16.6157,354.107],[-61.7903,-16.6102,357.7744],[-61.7939,-16.6062,349.2724],[-61.793,-16.6023,358.4455],[-61.7896,-16.6,356.2061],[-61.7907,-16.5951,355.1523],[-61.7805,-16.6035,358.3964],[-61.7796,-16.5991,359.9104],[-61.773,-16.5934,355.8595],[-61.7696,-16.5869,357.8796],[-61.7664,-16.5865,356.793],[-61.765,-16.5828,368.4357],[-61.7627,-16.5844,357.7502],[-61.7602,-16.5836,358.6695],[-61.757,-16.5801,371.9565],[-61.7554,-16.5754,359.773],[-61.7469,-16.5752,362.0453],[-61.7441,-16.5715,357.9146],[-61.7439,-16.5687,362.128],[-61.7379,-16.5668,363.5795],[-61.7371,-16.5628,378.2003],[-61.7407,-16.5637,364.83],[-61.742,-16.5622,373.7629],[-61.7394,-16.5611,375.0562],[-61.7384,-16.5574,365.5451],[-61.7338,-16.557,366.912],[-61.7297,-16.5596,370.84],[-61.7288,-16.5552,366.3349],[-61.7189,-16.5589,366.9485],[-61.7152,-16.557,366.9004],[-61.7148,-16.5539,368.4956],[-61.7108,-16.5592,367.3407],[-61.7058,-16.5548,367.5096],[-61.7037,-16.5504,369.3355],[-61.7013,-16.5502,369.7157],[-61.6991,-16.5534,370.2626],[-61.6969,-16.5534,370.583],[-61.6922,-16.5478,379.4832],[-61.6876,-16.5451,370.0938],[-61.683,-16.5448,373.674],[-61.6846,-16.5396,371.4587],[-61.6832,-16.5383,370.976],[-61.6766,-16.5396,373.3416],[-61.6701,-16.5371,374.559],[-61.6689,-16.5345,377.244],[-61.6638,-16.535,375.0084],[-61.656,-16.5271,372.9948],[-61.6547,-16.5221,374.2866],[-61.6525,-16.5218,375.8364],[-61.6546,-16.5168,375.375],[-61.6503,-16.511,376.1093],[-61.6517,-16.5089,375.068],[-61.6449,-16.5083,376.0323],[-61.6443,-16.5054,375.0446],[-61.6398,-16.5021,375.6557],[-61.6407,-16.4976,378.1285],[-61.6389,-16.4895,382.4211],[-61.6406,-16.4808,380.3759],[-61.6457,-16.4744,380.8922],[-61.6496,-16.4734,381.5041],[-61.6497,-16.4673,381.9036],[-61.6515,-16.4638,387.1251],[-61.6517,-16.4536,394.8799],[-61.6499,-16.4455,389.9685],[-61.6531,-16.4441,398.2661],[-61.6539,-16.4394,393.4303],[-61.6573,-16.4375,399.2596],[-61.6593,-16.4329,397.855],[-61.658,-16.419,402.0007],[-61.6553,-16.4107,404.053],[-61.6523,-16.4088,407.2233],[-61.6512,-16.4048,406.2327],[-61.6576,-16.3996,408.4647],[-61.6567,-16.3918,406.9513],[-61.6592,-16.3853,414.1536],[-61.6575,-16.3802,414.5951],[-61.6653,-16.3723,416.4743],[-61.6659,-16.3625,416.4004],[-61.671,-16.3564,419.6838],[-61.6714,-16.3522,419.5762],[-61.6752,-16.3469,421.3078],[-61.6748,-16.3414,429.3049],[-61.6717,-16.335,438.9344],[-61.6695,-16.3192,467.1693],[-61.6712,-16.3152,454.2801],[-61.6709,-16.3025,467.6205],[-61.6735,-16.2984,456.0872],[-61.6791,-16.2969,463.9922],[-61.6837,-16.2933,457.8537],[-61.6867,-16.2885,450.3102],[-61.6884,-16.2739,422.3236],[-61.6974,-16.2653,401.1684],[-61.6928,-16.2555,395.4952],[-61.6929,-16.243,396.435],[-61.6835,-16.2313,393.086],[-61.6865,-16.2256,385.3756],[-61.6849,-16.2212,391.0471],[-61.6865,-16.2174,386.4911],[-61.6851,-16.2093,383.2551],[-61.6813,-16.2053,385.0271],[-61.6798,-16.2004,390.3682],[-61.6769,-16.1986,379.7845],[-61.6752,-16.1921,399.5662],[-61.6765,-16.1889,384.5458],[-61.6757,-16.1829,386.6548],[-61.677,-16.1814,377.7555],[-61.676,-16.1731,379.0983],[-61.6793,-16.1692,374.7896],[-61.6796,-16.1643,379.5078],[-61.6865,-16.156,374.9032],[-61.6839,-16.1549,387.465],[-61.6856,-16.1525,375.677],[-61.6836,-16.1484,378.9675],[-61.6876,-16.1437,372.7095],[-61.6856,-16.1405,367.7511],[-61.6819,-16.1391,369.5128],[-61.6833,-16.1361,367.1982],[-61.6803,-16.1331,368.863],[-61.6838,-16.1125,364.5767],[-61.6817,-16.1069,363.4161],[-61.6837,-16.1044,363.5898],[-61.681399999999996,-16.1031,362.1409],[-61.683,-16.0966,361.7831],[-61.6783,-16.0862,358.3436],[-61.68,-16.0844,354.9471],[-61.6796,-16.0595,370.8406],[-61.6751,-16.0203,400.8682],[-61.6633,-15.9994,425.1114],[-61.6563,-15.9763,416.2978],[-61.6496,-15.9632,423.9554],[-61.6449,-15.9456,400.9504],[-61.6355,-15.9332,399.425],[-61.6185,-15.9236,386.3817],[-61.6091,-15.9212,379.8089],[-61.5969,-15.9138,366.2548],[-61.5883,-15.9047,359.9587],[-61.5812,-15.8947,358.0792],[-61.5787,-15.8877,353.7369],[-61.5814,-15.8788,353.4798],[-61.5771,-15.8734,353.2132],[-61.5762,-15.8687,352.4363],[-61.5739,-15.8663,352.1304],[-61.574,-15.8608,364.4593],[-61.5722,-15.8585,351.4767],[-61.5751,-15.8475,350.3574],[-61.5791,-15.8424,351.3817],[-61.582,-15.835,350.409],[-61.5835,-15.8256,350.8848],[-61.5873,-15.8183,352.5158],[-61.5943,-15.8101,353.9799],[-61.5928,-15.8008,348.4156],[-61.5984,-15.784,349.0356],[-61.6033,-15.7797,347.4132],[-61.6074,-15.7789,347.2034],[-61.6126,-15.7736,345.4193],[-61.5996,-15.7659,369.3262],[-61.5831,-15.7645,350.1153],[-61.5737,-15.769,353.0321],[-61.5709,-15.7772,353.2281],[-61.5657,-15.7821,353.268],[-61.5515,-15.7787,357.0553],[-61.5437,-15.7724,346.6398],[-61.5432,-15.7702,350.3726],[-61.545,-15.7667,352.6931],[-61.5421,-15.7554,351.359],[-61.54,-15.7506,371.7071],[-61.5314,-15.7403,358.0247],[-61.5302,-15.7324,364.2589],[-61.5313,-15.7237,377.744],[-61.5386,-15.7132,366.4182],[-61.5298,-15.6901,415.8152],[-61.5303,-15.6821,412.446],[-61.527,-15.6794,426.244],[-61.526,-15.6763,429.336],[-61.5284,-15.6632,413.3664],[-61.5229,-15.6525,398.5645],[-61.5218,-15.6437,375.3633],[-61.5232,-15.6407,365.8266],[-61.5203,-15.6381,370.496],[-61.5197,-15.6269,352.0731],[-61.5213,-15.6205,377.6014],[-61.5195,-15.6195,366.8119],[-61.5107,-15.5424,295.9368],[-61.4877,-15.3187,245.2021],[-61.4974,-15.3023,239.453],[-61.496,-15.2941,233.3136],[-61.4989,-15.2732,278.1142],[-61.5021,-15.2685,273.9446],[-61.5081,-15.2656,260.003],[-61.5018,-15.2521,279.0975],[-61.5094,-15.2324,308.0682],[-61.5013,-15.2257,298.8786],[-61.4978,-15.2183,280.8049],[-61.4945,-15.2151,277.3154],[-61.4926,-15.1886,258.9426],[-61.494,-15.1832,254.6975],[-61.4904,-15.1696,283.1371],[-61.4891,-15.1532,300.5312],[-61.4821,-15.1416,260.8679],[-61.4813,-15.1313,255.2862],[-61.4834,-15.1227,247.6981],[-61.4794,-15.1132,242.4507],[-61.4876,-15.0932,258.2569],[-61.4934,-15.0852,274.5984],[-61.4923,-15.0299,307.0962],[-61.4948,-15.0156,306.2331],[-61.4927,-15.0052,295.2082],[-61.4916,-14.9772,343.1342],[-61.4966,-14.967,326.4579],[-61.4955,-14.9372,278.0668],[-61.5029,-14.9212,286.0931],[-61.5025,-14.9171,278.4794],[-61.5049,-14.9159,272.8249],[-61.5077,-14.9062,271.4279],[-61.508,-14.9009,277.0582],[-61.503,-14.8916,267.915],[-61.5039,-14.8905,268.7551],[-61.5099,-14.8918,270.3343],[-61.5152,-14.8947,281.4224],[-61.5191,-14.8876,291.4695],[-61.5194,-14.8853,293.0595],[-61.5151,-14.8842,291.2948],[-61.5171,-14.8817,303.1074],[-61.5183,-14.8619,261.3311],[-61.5323,-14.8327,247.3802],[-61.535,-14.8032,237.5263],[-61.5451,-14.8034,233.9044],[-61.5492,-14.7963,237.0301],[-61.5505,-14.7911,241.5677],[-61.5484,-14.7784,234.5828],[-61.5505,-14.7695,232.3293],[-61.5579,-14.7628,230.7926],[-61.5577,-14.7543,228.1531],[-61.5603,-14.7488,226.991],[-61.5602,-14.7429,238.7603],[-61.5644,-14.7365,229.0726],[-61.5648,-14.733,225.8496],[-61.5719,-14.7265,227.4491],[-61.575,-14.7273,222.5089],[-61.5744,-14.7249,223.8582],[-61.5792,-14.722,225.1078],[-61.5798,-14.718,221.2095],[-61.5841,-14.7167,218.4926],[-61.5849,-14.7056,219.5727],[-61.5914,-14.7003,221.3965],[-61.5918,-14.6926,214.5593],[-61.5953,-14.6958,219.6629],[-61.5948,-14.6974,217.2454],[-61.598,-14.7027,228.9319],[-61.6071,-14.7036,216.7578],[-61.6103,-14.701,222.3719],[-61.6154,-14.7019,211.3533],[-61.6202,-14.6999,217.5368],[-61.6274,-14.6929,218.7535],[-61.6321,-14.6909,223.042],[-61.6334,-14.6916,215.5604],[-61.6349,-14.689,215.8695],[-61.6386,-14.6882,213.4457],[-61.6442,-14.6841,209.826],[-61.6454,-14.6773,206.5333],[-61.6443,-14.6658,212.7514],[-61.6478,-14.6633,207.359],[-61.6483,-14.6594,211.3367],[-61.651,-14.657,210.3583],[-61.6499,-14.6556,210.6247],[-61.6513,-14.6518,210.2542],[-61.661,-14.644,206.3553],[-61.6604,-14.6419,211.9931],[-61.6621,-14.6412,208.3483],[-61.6628,-14.6374,210.3273],[-61.6752,-14.6304,203.0663],[-61.6748,-14.627,205.1931],[-61.6779,-14.623,205.6566],[-61.6785,-14.6143,204.7821],[-61.6823,-14.6124,204.0251],[-61.6818,-14.6098,202.4268],[-61.6866,-14.6084,203.1472],[-61.6889,-14.6059,201.9426],[-61.6891,-14.5986,203.7922],[-61.7032,-14.587,200.229],[-61.7049,-14.5871,199.3258],[-61.7309,-14.5263,221.0393],[-61.7442,-14.504,261.9415],[-61.7725,-14.4792,239.0959],[-61.8904,-14.395,201.6309],[-61.9342,-14.3739,218.0281],[-61.9635,-14.3524,202.8561],[-61.9814,-14.3423,194.8406],[-62.0373,-14.3035,212.6818],[-62.0665,-14.2863,235.386],[-62.0917,-14.2679,206.5982],[-62.1222,-14.2427,208.7452],[-62.1289,-14.2332,217.1106],[-62.1368,-14.2157,212.0164],[-62.1409,-14.1984,235.5845],[-62.1424,-14.1419,212.4702],[-62.1447,-14.007,188.1434],[-62.1392,-13.7624,234.4599],[-62.7049,-13.9758,162.6416]]]]}}