{"type":"Feature","properties":{"GID_2":"BOL.1.2_2","GID_0":"BOL","country":"Bolivia","GID_1":"BOL.1_1","province":"Chuquisaca","NL_NAME_1":"NA","county":"BelisarioBoeto","VARNAME_2":"B.Boeto","NL_NAME_2":"NA","TYPE_2":"Provincia","ENGTYPE_2":"Province","CC_2":"NA","HASC_2":"NA","name":"Belisario_Boeto.county"},
"geometry":{"type": "MultiPolygon","coordinates": [[[[-64.4791,-18.8823,1547.333],[-64.4731,-18.8966,2111.6562],[-64.4629,-18.9062,2409.9287],[-64.4441,-18.9462,2610.2065],[-64.446,-18.9488,2422.5237],[-64.4539,-18.9503,2190.1511],[-64.4608,-18.9654,1956.5161],[-64.4608,-18.9725,1973.4866],[-64.4675,-18.9746,1873.1045],[-64.4684,-18.9794,1973.6735],[-64.4655,-18.9899,2406.4365],[-64.4445,-19.0146,2546.9431],[-64.435,-19.0176,2973.9714],[-64.4314,-19.0312,2851.7693],[-64.4202,-19.0517,2983.4028],[-64.4043,-19.0641,3105.4355],[-64.3988,-19.0871,2967.0703],[-64.4034,-19.0982,2839.0603],[-64.403,-19.113,2789.0505],[-64.3984,-19.1191,2815.5149],[-64.3909,-19.1234,2876.71],[-64.3878,-19.1409,2743.9458],[-64.3833,-19.1485,2576.4395],[-64.3616,-19.1438,2273.7646],[-64.3611,-19.1462,2309.1445],[-64.3575,-19.1454,2316.7441],[-64.351,-19.1402,2256.4587],[-64.3465,-19.14,2420.9907],[-64.3432,-19.1429,2465.6428],[-64.3425,-19.1465,2455.0823],[-64.3401,-19.1489,2417.7075],[-64.342,-19.1564,2291.804],[-64.3387,-19.1656,2527.0996],[-64.3414,-19.1788,2471.0532],[-64.3342,-19.1797,2179.4348],[-64.3268,-19.176,2248.2715],[-64.3077,-19.1797,2267.2046],[-64.2906,-19.1764,2109.23],[-64.2783,-19.1714,2032.7113],[-64.2777,-19.1753,2030.5251],[-64.2737,-19.1749,2031.7888],[-64.2736,-19.1768,2021.969],[-64.2709,-19.177,2017.6125],[-64.2738,-19.1791,2036.0424],[-64.2768,-19.1853,2095.2598],[-64.2742,-19.1947,2090.4597],[-64.2779,-19.2037,2218.5103],[-64.2631,-19.2013,1961.2518],[-64.2601,-19.2025,1957.2009],[-64.2576,-19.2073,1952.0441],[-64.2559,-19.2077,1944.6865],[-64.2547,-19.2057,1988.1871],[-64.2551,-19.2111,1929.7792],[-64.2508,-19.21,1947.6317],[-64.2485,-19.2118,1941.7026],[-64.2529,-19.2169,1910.3888],[-64.2515,-19.219,1920.2135],[-64.2526,-19.2209,1921.2346],[-64.2462,-19.2241,1929.468],[-64.2381,-19.221,1853.8782],[-64.2373,-19.2191,1874.5348],[-64.234,-19.219,1883.1241],[-64.2333,-19.2169,1856.7329],[-64.2352,-19.2147,1829.3346],[-64.2328,-19.2141,1825.9167],[-64.2334,-19.2074,1925.9497],[-64.2288,-19.2015,2023.9447],[-64.1837,-19.1997,2230.688],[-64.1702,-19.198,1987.0555],[-64.1644,-19.1956,1787.4113],[-64.1626,-19.1958,1719.7175],[-64.1627,-19.1976,1703.3687],[-64.1559,-19.1972,1463.5461],[-64.1548,-19.1931,1376.0466],[-64.1497,-19.1908,1312.4437],[-64.1482,-19.1881,1244.2513],[-64.1461,-19.1896,1261.3612],[-64.1323,-19.1903,1183.8038],[-64.1238,-19.1954,1108.4783],[-64.1209,-19.1944,1092.8455],[-64.1092,-19.1841,1029.6644],[-64.1078,-19.184,992.4614],[-64.1081,-19.1862,1014.7054],[-64.1038,-19.1833,1090.0416],[-64.1004,-19.1793,1003.2609],[-64.1008,-19.1762,977.9265],[-64.0966,-19.1666,911.6362],[-64.094,-19.1674,894.0463],[-64.0919,-19.1657,880.5386],[-64.0861,-19.1677,856.7711],[-64.0869,-19.1647,858.2127],[-64.0835,-19.1652,869.6674],[-64.0788,-19.1613,848.9117],[-64.0708,-19.1594,791.2523],[-64.0684,-19.1568,790.3475],[-64.066,-19.1584,768.9634],[-64.0604,-19.1586,790.6002],[-64.056,-19.1551,751.5778],[-64.0438,-19.1596,742.1465],[-64.0346,-19.1559,699.88],[-64.0225,-19.1567,672.3127],[-64.0218,-19.1533,673.7473],[-64.023,-19.1511,692.4086],[-64.0298,-19.1487,689.9542],[-64.0323,-19.1321,685.3054],[-64.0394,-19.1311,688.82],[-64.0422,-19.1283,706.9236],[-64.0412,-19.1209,694.3044],[-64.0439,-19.1176,689.0538],[-64.0373,-19.1165,711.8898],[-64.0319,-19.1128,693.3182],[-64.0412,-19.1057,705.9675],[-64.0355,-19.1009,810.9178],[-64.0362,-19.0997,713.5275],[-64.0401,-19.0982,706.9529],[-64.0434,-19.0992,704.1506],[-64.0452,-19.0974,714.8392],[-64.0453,-19.0932,722.7323],[-64.0425,-19.0879,710.9125],[-64.0443,-19.0837,711.3187],[-64.0418,-19.0791,750.3517],[-64.0496,-19.0653,719.7874],[-64.0461,-19.058,823.2126],[-64.0523,-19.0519,795.2566],[-64.058,-19.0492,743.9236],[-64.0551,-19.0463,740.4531],[-64.058,-19.0421,743.1849],[-64.0535,-19.0399,787.8635],[-64.053,-19.0378,767.7922],[-64.0577,-19.0303,743.9939],[-64.0655,-19.0266,782.6465],[-64.0631,-19.0168,770.7101],[-64.0685,-19.0053,801.7204],[-64.0785,-19.0014,789.6981],[-64.082,-18.9959,796.7668],[-64.0897,-19.001,797.375],[-64.0915,-18.9952,842.0168],[-64.0895,-18.9921,779.9993],[-64.098,-18.9902,780.9078],[-64.1002,-18.9862,800.5634],[-64.1012,-18.9764,798.1134],[-64.1033,-18.9734,818.3657],[-64.1063,-18.9735,786.6783],[-64.1111,-18.9707,789.3016],[-64.1197,-18.9722,790.3201],[-64.1226,-18.9685,790.6975],[-64.1304,-18.9643,873.2527],[-64.1406,-18.9689,802.2987],[-64.1453,-18.9669,798.4102],[-64.1528,-18.9696,827.948],[-64.1579,-18.9671,804.3244],[-64.1595,-18.9688,798.6931],[-64.164,-18.9694,800.326],[-64.1719,-18.9664,802.7937],[-64.1759,-18.9579,824.4417],[-64.1846,-18.9612,817.8719],[-64.1876,-18.952,820.7981],[-64.1921,-18.9515,809.7936],[-64.1959,-18.9482,815.6299],[-64.1939,-18.9435,841.5961],[-64.1955,-18.9385,865.0177],[-64.197,-18.9378,825.0233],[-64.1999,-18.9395,817.3599],[-64.2016,-18.9371,818.2997],[-64.1965,-18.9272,821.4688],[-64.1971,-18.9238,819.4868],[-64.2023,-18.9166,826.0331],[-64.2001,-18.9129,823.9615],[-64.2,-18.9081,829.6857],[-64.2061,-18.9003,825.338],[-64.2124,-18.896,837.3959],[-64.2137,-18.8928,847.1416],[-64.2132,-18.8824,831.3585],[-64.2168,-18.8796,833.2812],[-64.2234,-18.8784,871.4568],[-64.2227,-18.8741,838.0718],[-64.2242,-18.8685,838.519],[-64.2288,-18.8652,842.5996],[-64.2331,-18.8589,850.1959],[-64.2388,-18.86,862.2639],[-64.2482,-18.8451,853.9429],[-64.2583,-18.8374,866.9422],[-64.2641,-18.8359,892.0958],[-64.2676,-18.8382,852.2082],[-64.2773,-18.8366,862.9189],[-64.2844,-18.8276,858.5375],[-64.2901,-18.8231,859.0829],[-64.2893,-18.8187,861.6228],[-64.2828,-18.8126,865.1161],[-64.2868,-18.7857,874.202],[-64.2924,-18.7787,875.9163],[-64.2978,-18.7665,881.0473],[-64.316,-18.7606,887.3208],[-64.3176,-18.7567,891.4084],[-64.3164,-18.7542,887.7139],[-64.3111,-18.7522,892.0542],[-64.3094,-18.7498,890.4246],[-64.3175,-18.7387,913.5082],[-64.3198,-18.7267,898.6777],[-64.3123,-18.7153,901.5186],[-64.3096,-18.7018,908.0388],[-64.3102,-18.6862,912.211],[-64.3129,-18.6773,913.8479],[-64.3109,-18.6705,917.3411],[-64.3146,-18.6678,919.74],[-64.3246,-18.6697,956.7964],[-64.3292,-18.6655,922.016],[-64.3407,-18.6676,926.9268],[-64.3432,-18.6659,929.0542],[-64.3583,-18.639,939.0392],[-64.3609,-18.6269,961.9401],[-64.3613,-18.615,953.2],[-64.3642,-18.6165,952.9615],[-64.366,-18.6208,954.3149],[-64.3708,-18.6231,961.5617],[-64.3809,-18.6224,982.0799],[-64.3858,-18.6245,992.4709],[-64.3894,-18.6225,996.2842],[-64.3979,-18.6216,1000.459],[-64.4161,-18.6287,1030.6603],[-64.4239,-18.6278,1081.8369],[-64.4289,-18.6293,1078.5367],[-64.4339,-18.633,1101.2805],[-64.4383,-18.6413,1015.1931],[-64.4403,-18.6499,1018.5139],[-64.446,-18.6532,1024.1305],[-64.453,-18.6526,1036.0249],[-64.4567,-18.6542,1030.7905],[-64.4641,-18.664,1032.5858],[-64.4697,-18.6685,1035.1201],[-64.4795,-18.6683,1038.1616],[-64.4908,-18.6716,1043.8939],[-64.5033,-18.6704,1047.2207],[-64.5018,-18.6802,1062.8448],[-64.5051,-18.6861,1068.9573],[-64.5036,-18.6949,1085.3135],[-64.5055,-18.6993,1091.4917],[-64.5058,-18.7061,1101.9929],[-64.4976,-18.7286,1146.7073],[-64.5001,-18.7384,1164.7042],[-64.5005,-18.7494,1213.7556],[-64.505,-18.7573,1201.063],[-64.5014,-18.7645,1245.9843],[-64.5014,-18.7688,1248.4858],[-64.5052,-18.7747,1241.9032],[-64.5076,-18.7873,1263.0485],[-64.4985,-18.8006,1298.4292],[-64.4984,-18.8042,1320.401],[-64.4958,-18.8072,1328.0256],[-64.5001,-18.8134,1340.6897],[-64.5004,-18.8207,1352.0176],[-64.4984,-18.8236,1368.8151],[-64.4992,-18.826,1358.765],[-64.4916,-18.8307,1478.111],[-64.4877,-18.8412,1564.4114],[-64.4875,-18.8458,1513.9158],[-64.4826,-18.8522,1491.8862],[-64.483,-18.8545,1486.7693],[-64.4797,-18.8627,1502.8885],[-64.4809,-18.8672,1514.184],[-64.4787,-18.873,1527.7103],[-64.4819,-18.8774,1531.8467],[-64.4791,-18.8823,1547.333]]]]}}