{"type": "Feature","bbox": [-65.813,-17.6835,-65.6481,-17.5134],"geometry": {"type": "MultiPolygon","coordinates": [[[[-65.6614,-17.6517,4142.208],[-65.6506,-17.6454,3749.1401],[-65.6481,-17.6409,3682.3047],[-65.6533,-17.6293,3635.7266],[-65.656,-17.6276,3620.8311],[-65.6597,-17.6204,3544.3176],[-65.6712,-17.6087,3475.3987],[-65.6725,-17.6042,3463.7915],[-65.6711,-17.6011,3444.5649],[-65.6754,-17.5952,3438.6736],[-65.6655,-17.5647,3389.5139],[-65.6683,-17.5536,3416.0371],[-65.6689,-17.5438,3421.2908],[-65.6726,-17.5387,3446.6267],[-65.6807,-17.5341,3548.8511],[-65.6822,-17.5316,3553.291],[-65.6884,-17.5297,3605.3843],[-65.6944,-17.5251,3633.6375],[-65.6975,-17.5186,3646.9084],[-65.7154,-17.5134,3572.4395],[-65.735,-17.5208,3368.3333],[-65.7524,-17.5171,3655.2236],[-65.763,-17.5179,3588.9072],[-65.777,-17.5361,3319.3042],[-65.7932,-17.5471,2735.4509],[-65.7955,-17.5472,2726.6729],[-65.7966,-17.5455,2727.3003],[-65.8041,-17.5476,2731.7397],[-65.8026,-17.5588,2721.3069],[-65.8058,-17.5581,2721.3774],[-65.8101,-17.5804,2709.45],[-65.8103,-17.591,2705.6492],[-65.813,-17.5968,2704.2808],[-65.8017,-17.5993,2705.3179],[-65.796,-17.6033,2856.5938],[-65.7958,-17.6079,2771.5588],[-65.7934,-17.6109,2956.2764],[-65.756,-17.6359,3404.9866],[-65.7448,-17.6455,3375.9614],[-65.7347,-17.6672,3476.8005],[-65.7352,-17.6716,3354.7422],[-65.7314,-17.6771,3398.0864],[-65.7268,-17.6785,3528.5173],[-65.7197,-17.6779,3735.6072],[-65.7164,-17.6811,3866.9678],[-65.7078,-17.6835,4090.5195],[-65.7032,-17.6827,3970.4104],[-65.6974,-17.6749,3848.4072],[-65.6891,-17.6736,3926.1553],[-65.6826,-17.6702,3915.4092],[-65.6761,-17.6698,3986.918],[-65.6647,-17.658,4106.5557],[-65.6614,-17.6517,4142.208]]]]}
,"properties": {"GID_3": "BOL.2.1.1_2","GID_0": "BOL","country": "Bolivia","GID_1": "BOL.2_1","province": "Cochabamba","NL_NAME_1": "NA","GID_2": "BOL.2.1_2","county": "Arani","NL_NAME_2": "NA","city": "Arani","VARNAME_3": "NA","NL_NAME_3": "NA","TYPE_3": "District","ENGTYPE_3": "Distrito","CC_3": "NA","HASC_3": "NA","name": "Arani.city","area_km2": 206.4104,"hist_schema_id": "Elevation0-9000","hist_area_km2": {"2700": 4.2847,"2725": 17.686,"2750": 6.3665,"2775": 4.6888,"2800": 3.1932,"2825": 2.9709,"2850": 2.5465,"2875": 2.4859,"2900": 2.1625,"2925": 2.0412,"2950": 2.3848,"2975": 2.0614,"3000": 2.8699,"3025": 3.0719,"3050": 3.557,"3075": 3.6983,"3100": 4.2238,"3125": 3.5973,"3150": 4.0824,"3175": 4.8909,"3200": 4.3047,"3225": 4.8505,"3250": 4.4665,"3275": 4.3657,"3300": 5.5786,"3325": 6.9127,"3350": 7.9235,"3375": 6.9532,"3400": 6.8927,"3425": 6.3267,"3450": 5.6394,"3475": 6.387,"3500": 7.6807,"3525": 6.6295,"3550": 5.4975,"3575": 4.6888,"3600": 4.1025,"3625": 3.011,"3650": 2.3035,"3675": 1.6972,"3700": 1.7578,"3725": 1.677,"3750": 1.3132,"3775": 1.394,"3800": 1.293,"3825": 0.9495,"3850": 1.1314,"3875": 1.1718,"3900": 0.9899,"3925": 1.0303,"3950": 0.6869,"3975": 0.8283,"4000": 0.6465,"4025": 0.6465,"4050": 0.7475,"4075": 0.5657,"4100": 0.3434,"4125": 0.1414,"4150": 0.0202}}}