{"type":"Feature","properties":{"GID_2":"BOL.8.1_2","GID_0":"BOL","country":"Bolivia","GID_1":"BOL.8_1","province":"SantaCruz","NL_NAME_1":"NA","county":"AndrésIbáñez","VARNAME_2":"NA","NL_NAME_2":"NA","TYPE_2":"Provincia","ENGTYPE_2":"Province","CC_2":"NA","HASC_2":"NA","name":"Andrés_Ibáñez.county"},
"geometry":{"type": "MultiPolygon","coordinates": [[[[-63.0861,-18.0264,390.0502],[-62.8909,-18.0226,324.5321],[-62.8906,-18.0267,324.8909],[-62.8242,-18.0262,325.5905],[-62.8104,-18.0181,311.5],[-62.8125,-18.0049,313.1889],[-62.8131,-17.9855,312.968],[-62.8071,-17.9799,312.8094],[-62.7896,-17.9757,312.6707],[-62.7813,-17.9707,316.6479],[-62.7794,-17.9687,315.6196],[-62.7794,-17.966,314.7665],[-62.7809,-17.9576,308.0],[-62.7925,-17.9393,307.3659],[-62.7935,-17.9315,307.4698],[-62.7983,-17.9239,306.5],[-62.8096,-17.917,305.5806],[-62.8114,-17.9147,305.3739],[-62.8112,-17.9113,305.333],[-62.8029,-17.8864,302.5],[-62.7999,-17.8824,302.0],[-62.7887,-17.8793,308.2776],[-62.7821,-17.8741,300.5147],[-62.7825,-17.8611,299.5],[-62.7805,-17.8469,298.443],[-62.7694,-17.8335,299.5588],[-62.7651,-17.8259,296.0],[-62.7655,-17.8148,295.0],[-62.757,-17.8087,296.7792],[-62.756,-17.806,302.6329],[-62.7558,-17.802,296.4185],[-62.7644,-17.7839,301.392],[-62.765,-17.7798,300.8956],[-62.7635,-17.7758,292.7664],[-62.7418,-17.7586,294.8392],[-62.7379,-17.7483,293.9028],[-62.7386,-17.7447,294.1209],[-62.7428,-17.7392,294.58],[-62.743,-17.7283,294.0761],[-62.7458,-17.7217,292.3578],[-62.7648,-17.7078,290.3783],[-62.7707,-17.7064,293.511],[-62.7805,-17.7009,294.7693],[-62.7825,-17.6967,295.1439],[-62.7822,-17.693,288.7362],[-62.7741,-17.6807,294.2452],[-62.7731,-17.6715,293.7505],[-62.7762,-17.6642,286.599],[-62.7872,-17.652,286.8823],[-62.7911,-17.6442,285.942],[-62.7907,-17.6357,289.1185],[-62.7838,-17.6273,288.6364],[-62.7792,-17.61,279.125],[-62.7714,-17.6001,278.5],[-62.7661,-17.5865,281.3608],[-62.7638,-17.5725,280.4914],[-62.7651,-17.5606,279.6482],[-62.7677,-17.5561,279.2086],[-62.7905,-17.5413,281.4038],[-62.7902,-17.5322,274.5],[-62.8415,-17.5376,289.2233],[-62.8493,-17.5397,291.7782],[-62.903,-17.5837,307.7844],[-62.9158,-17.5826,310.8857],[-62.9589,-17.5971,321.6133],[-62.9712,-17.599,325.1714],[-62.9833,-17.607,330.3857],[-62.9856,-17.6132,332.0752],[-63.0025,-17.6238,337.8757],[-63.0117,-17.623,341.5282],[-63.0497,-17.6305,350.4642],[-63.05,-17.6369,353.0509],[-63.0533,-17.6399,353.211],[-63.054,-17.6444,354.3893],[-63.0654,-17.6517,361.5729],[-63.0704,-17.6511,357.9283],[-63.0753,-17.6542,361.4501],[-63.0854,-17.6539,362.2309],[-63.0848,-17.6584,362.5017],[-63.0947,-17.6698,368.3931],[-63.144,-17.6703,381.5255],[-63.1577,-17.6753,382.2142],[-63.1588,-17.6742,381.4106],[-63.1574,-17.6463,372.8616],[-63.1644,-17.6449,371.5579],[-63.1692,-17.6326,372.3474],[-63.1876,-17.6248,368.1235],[-63.1894,-17.6204,372.1184],[-63.1885,-17.6116,370.2323],[-63.1932,-17.6085,363.3613],[-63.1937,-17.5991,363.093],[-63.1983,-17.5931,352.25],[-63.1977,-17.6031,357.7495],[-63.1998,-17.6114,359.941],[-63.2061,-17.6114,365.6555],[-63.2152,-17.6154,370.8575],[-63.239,-17.6078,357.6096],[-63.2481,-17.6033,376.6763],[-63.2569,-17.6068,361.3419],[-63.2605,-17.6109,364.9999],[-63.2601,-17.6132,375.9628],[-63.2634,-17.6153,369.0946],[-63.2665,-17.6202,374.1001],[-63.2957,-17.6334,391.9081],[-63.2994,-17.6308,383.9714],[-63.302,-17.6219,391.3513],[-63.3045,-17.6231,377.8465],[-63.3059,-17.6208,386.6303],[-63.3124,-17.6186,369.5087],[-63.3172,-17.6106,378.5016],[-63.3218,-17.6121,364.6497],[-63.3248,-17.6159,362.2101],[-63.33,-17.6113,355.9259],[-63.3345,-17.6112,353.4044],[-63.3334,-17.6196,355.9673],[-63.3278,-17.6253,374.6433],[-63.3299,-17.6329,361.7295],[-63.3568,-17.6238,360.7902],[-63.3544,-17.6196,359.6287],[-63.3546,-17.6029,354.9051],[-63.3617,-17.5921,351.2265],[-63.364,-17.5788,347.5145],[-63.3675,-17.573,345.8234],[-63.3747,-17.5692,343.6331],[-63.3846,-17.5709,340.8356],[-63.3864,-17.5686,340.4473],[-63.3864,-17.565,339.4865],[-63.403,-17.5662,352.3438],[-63.4038,-17.5613,351.5936],[-63.4059,-17.5606,370.6569],[-63.4141,-17.5627,377.7437],[-63.4191,-17.5659,377.0267],[-63.4297,-17.5604,347.5726],[-63.4348,-17.5607,342.6376],[-63.4337,-17.5711,346.6924],[-63.4352,-17.5771,350.014],[-63.4326,-17.5853,352.2761],[-63.4363,-17.5905,345.5979],[-63.4354,-17.5965,348.5893],[-63.4445,-17.5996,353.4767],[-63.4478,-17.6039,355.3305],[-63.4434,-17.6114,360.4037],[-63.4436,-17.6146,357.8183],[-63.452,-17.6154,361.4283],[-63.4588,-17.622,359.798],[-63.462,-17.6211,365.9032],[-63.4633,-17.6226,361.4296],[-63.4585,-17.6306,372.1124],[-63.4647,-17.635,365.8857],[-63.4628,-17.6517,370.5083],[-63.4648,-17.6524,377.3017],[-63.4645,-17.6546,384.6596],[-63.4673,-17.6584,379.6215],[-63.4641,-17.6596,384.7152],[-63.4637,-17.6617,392.0565],[-63.4652,-17.6625,381.5757],[-63.4634,-17.6677,393.7023],[-63.4677,-17.6698,398.6024],[-63.4673,-17.6732,402.7039],[-63.4693,-17.6728,396.363],[-63.4684,-17.6757,394.6834],[-63.4718,-17.677,399.7043],[-63.4733,-17.6761,408.7082],[-63.4733,-17.6817,396.1285],[-63.4764,-17.684,405.226],[-63.4751,-17.6862,398.6526],[-63.4773,-17.6849,404.516],[-63.4794,-17.6902,407.7526],[-63.4858,-17.6937,406.1247],[-63.4851,-17.6995,410.0842],[-63.4873,-17.7023,414.3345],[-63.4853,-17.7039,417.4835],[-63.4882,-17.7048,416.7573],[-63.4871,-17.7054,416.7573],[-63.4882,-17.7129,425.5821],[-63.4895,-17.7122,426.4221],[-63.4903,-17.714,429.6605],[-63.4911,-17.7211,431.1199],[-63.4944,-17.7234,437.5395],[-63.4943,-17.7276,462.0024],[-63.4995,-17.7318,472.0179],[-63.5024,-17.738,469.7976],[-63.5087,-17.7453,487.1174],[-63.5154,-17.7631,443.489],[-63.5183,-17.7663,439.1398],[-63.5175,-17.7709,439.1622],[-63.5265,-17.7936,866.0453],[-63.5248,-17.8015,734.9221],[-63.5167,-17.8075,480.6281],[-63.5198,-17.8128,499.1468],[-63.5263,-17.8138,495.094],[-63.5372,-17.8241,505.9831],[-63.5329,-17.8332,535.3696],[-63.5371,-17.8383,530.8834],[-63.5365,-17.8415,561.3693],[-63.5384,-17.8463,540.2109],[-63.5414,-17.8466,549.2819],[-63.5433,-17.8492,537.3849],[-63.5431,-17.8509,543.8272],[-63.5413,-17.8495,568.4873],[-63.5412,-17.8526,561.9337],[-63.5437,-17.8531,576.5667],[-63.5469,-17.8578,617.884],[-63.5451,-17.8581,638.7997],[-63.5477,-17.862,578.4117],[-63.5444,-17.8646,572.0638],[-63.5447,-17.8691,595.4061],[-63.5466,-17.8712,624.8506],[-63.5515,-17.8718,594.5937],[-63.5533,-17.8793,618.8555],[-63.5555,-17.8795,643.3015],[-63.5585,-17.8763,649.923],[-63.5626,-17.8767,756.697],[-63.5629,-17.8788,711.4486],[-63.5666,-17.8801,660.6586],[-63.5655,-17.8831,687.8942],[-63.5774,-17.8899,865.1402],[-63.581,-17.8952,952.7504],[-63.5909,-17.8973,987.8506],[-63.5979,-17.9007,1002.8954],[-63.6025,-17.9063,1074.6919],[-63.601,-17.9092,1092.6726],[-63.6012,-17.9144,1127.3894],[-63.6083,-17.919,1212.8507],[-63.6115,-17.919,1241.5979],[-63.6187,-17.9222,1490.6561],[-63.6256,-17.9298,1312.2639],[-63.6311,-17.9315,1163.4052],[-63.6364,-17.9384,1063.2145],[-63.6464,-17.9402,908.4631],[-63.6462,-17.9413,944.827],[-63.6441,-17.942,923.407],[-63.6436,-17.9466,970.8116],[-63.6404,-17.9501,951.7886],[-63.639,-17.95,951.7886],[-63.6394,-17.9482,941.1979],[-63.6351,-17.9473,975.3325],[-63.632,-17.9511,968.2454],[-63.6301,-17.9506,988.6095],[-63.6293,-17.9523,988.8824],[-63.6259,-17.9529,1050.9539],[-63.6219,-17.959,1069.4889],[-63.6216,-17.9784,1120.3297],[-63.6177,-17.9826,1159.2151],[-63.6175,-17.991,1192.7754],[-63.615,-18.0003,1249.9392],[-63.6149,-18.0061,1270.802],[-63.6168,-18.0098,1425.1985],[-63.6156,-18.0181,1460.1305],[-63.5966,-18.032,1440.1526],[-63.5842,-18.0383,1354.1718],[-63.5788,-18.0659,1433.6243],[-63.5739,-18.0779,1586.5564],[-63.5744,-18.0831,1468.577],[-63.5722,-18.0907,1435.255],[-63.5736,-18.0998,1351.9504],[-63.5716,-18.109,1418.7491],[-63.5682,-18.1129,1470.9425],[-63.5695,-18.1237,1519.2834],[-63.5623,-18.1383,1682.5037],[-63.5551,-18.1392,1528.9124],[-63.5483,-18.1579,1370.0452],[-63.5216,-18.1811,1004.6625],[-63.5367,-18.2017,1384.9196],[-63.5365,-18.2143,1484.2085],[-63.5307,-18.2482,1648.983],[-63.5141,-18.28,1710.8351],[-63.491,-18.2655,972.4183],[-63.4869,-18.2675,962.0558],[-63.4668,-18.268,873.2146],[-63.4515,-18.2714,836.4188],[-63.446,-18.2672,816.8971],[-63.4362,-18.2646,811.4081],[-63.4314,-18.2616,801.3173],[-63.4255,-18.263,793.4702],[-63.4039,-18.2504,755.6711],[-63.4002,-18.2489,751.2841],[-63.3969,-18.2496,765.7404],[-63.3853,-18.2384,720.043],[-63.3794,-18.2358,709.12],[-63.3725,-18.2354,707.6754],[-63.3643,-18.2315,693.0302],[-63.3556,-18.2334,682.054],[-63.3477,-18.24,671.38],[-63.3324,-18.2409,655.3873],[-63.3242,-18.252,644.6495],[-63.3144,-18.2499,632.6089],[-63.3093,-18.251,625.4478],[-63.2992,-18.2467,611.7149],[-63.2903,-18.2333,596.9561],[-63.2848,-18.2291,591.6376],[-63.2788,-18.2353,590.3676],[-63.2735,-18.2377,584.1012],[-63.2678,-18.2385,584.2203],[-63.2644,-18.2373,581.2474],[-63.255,-18.2399,565.3823],[-63.2515,-18.2366,567.7191],[-63.2496,-18.237,563.9422],[-63.2418,-18.2422,555.8119],[-63.2393,-18.2463,552.1996],[-63.2346,-18.2464,552.3361],[-63.2332,-18.249,550.4347],[-63.2309,-18.2491,546.7839],[-63.2285,-18.2559,541.7899],[-63.2207,-18.2531,545.076],[-63.2095,-18.2539,537.2603],[-63.2052,-18.2606,531.7844],[-63.1915,-18.2563,516.1584],[-63.1903,-18.2512,516.2488],[-63.1916,-18.2459,509.7137],[-63.1904,-18.2255,506.0062],[-63.1919,-18.2173,503.7697],[-63.1921,-18.1731,496.6429],[-63.131,-18.1719,443.108],[-63.1337,-18.11,434.6615],[-63.1477,-18.1097,437.9651],[-63.1495,-18.072,434.8409],[-63.1731,-18.0719,459.236],[-63.1692,-18.0286,453.5703],[-63.0966,-18.027,394.3615],[-63.0882,-18.0159,388.9316],[-63.0861,-18.0264,390.0502]]]]}}