{"type": "Feature","bbox": [-66.4603,-17.4634,-66.2229,-17.045],"geometry": {"type": "MultiPolygon","coordinates": [[[[-66.4323,-17.0949,3916.6921],[-66.4335,-17.0981,3941.4773],[-66.4365,-17.1001,3949.3804],[-66.439,-17.1095,4007.2671],[-66.4378,-17.1171,4037.8064],[-66.4409,-17.1243,4055.8247],[-66.4395,-17.1268,4048.7881],[-66.4467,-17.1307,4215.7153],[-66.4561,-17.1404,4279.042],[-66.4532,-17.1509,4353.04],[-66.4545,-17.1572,4383.4507],[-66.4603,-17.1637,4523.1592],[-66.4589,-17.1816,4712.5723],[-66.4475,-17.192,4921.8838],[-66.4379,-17.1962,4603.8047],[-66.4338,-17.2008,4616.2021],[-66.4265,-17.2142,4877.6079],[-66.4155,-17.2185,4822.9062],[-66.4,-17.2133,5027.4185],[-66.3979,-17.2225,4774.6162],[-66.3993,-17.2438,4451.5557],[-66.4123,-17.2572,4648.3062],[-66.4072,-17.2595,4670.6045],[-66.4007,-17.2704,4782.7368],[-66.3979,-17.279,4775.8994],[-66.3931,-17.2835,4883.457],[-66.3933,-17.2868,4837.4683],[-66.3883,-17.2851,4977.5127],[-66.3669,-17.2887,4738.1372],[-66.3561,-17.2865,4580.5898],[-66.3356,-17.2906,4458.8003],[-66.3259,-17.2905,4107.4346],[-66.3151,-17.2947,3629.1672],[-66.2994,-17.3096,3074.0454],[-66.2923,-17.3138,2823.9739],[-66.2875,-17.3254,2745.9009],[-66.2872,-17.3345,2719.2354],[-66.2936,-17.3469,2663.0789],[-66.3107,-17.3638,2605.7581],[-66.3092,-17.3828,2554.397],[-66.3037,-17.3845,2549.6841],[-66.3053,-17.426,2761.7212],[-66.3025,-17.4284,2715.8882],[-66.3018,-17.4412,2599.6235],[-66.2829,-17.4548,2678.5522],[-66.2784,-17.4634,2815.4114],[-66.2706,-17.4554,2704.6592],[-66.2525,-17.4431,2693.2715],[-66.2456,-17.4274,2639.1211],[-66.2429,-17.4255,2637.3213],[-66.2518,-17.4229,2611.5159],[-66.2526,-17.42,2606.6416],[-66.251,-17.4147,2539.9846],[-66.2529,-17.4131,2538.8726],[-66.2525,-17.4112,2535.8979],[-66.255,-17.4112,2535.4924],[-66.2524,-17.3931,2542.896],[-66.2509,-17.3933,2543.168],[-66.2526,-17.3687,2570.9878],[-66.249,-17.3689,2570.3325],[-66.2504,-17.3597,2582.1338],[-66.2476,-17.3593,2582.9331],[-66.2483,-17.3504,2595.9417],[-66.2443,-17.353,2592.2627],[-66.2383,-17.3373,2622.7305],[-66.2229,-17.2797,3849.4229],[-66.2407,-17.2688,4148.8789],[-66.2414,-17.2636,4302.8091],[-66.2483,-17.2536,4377.5229],[-66.2546,-17.2563,4213.4458],[-66.2541,-17.2531,4303.2964],[-66.2366,-17.2346,4079.5933],[-66.2307,-17.225,4033.1694],[-66.2376,-17.2141,3994.1453],[-66.2418,-17.2017,3950.4839],[-66.2464,-17.1987,3942.1274],[-66.2485,-17.1906,3934.9363],[-66.2525,-17.184,3917.1152],[-66.2555,-17.1817,3922.6558],[-66.2562,-17.1831,3933.8301],[-66.2623,-17.1824,3891.8828],[-66.2721,-17.1768,3864.8096],[-66.2799,-17.175,3857.7212],[-66.2871,-17.1712,3862.7866],[-66.2937,-17.1717,3829.469],[-66.2986,-17.1683,3822.5415],[-66.2989,-17.1601,4069.0525],[-66.2898,-17.1461,3945.9517],[-66.2898,-17.1401,4003.0125],[-66.2925,-17.1327,4121.2173],[-66.2893,-17.1283,4160.8418],[-66.2778,-17.1212,4313.7432],[-66.2728,-17.1201,4359.0957],[-66.2583,-17.1219,4323.4985],[-66.252,-17.107,4455.624],[-66.2558,-17.0861,4609.3975],[-66.268,-17.0734,4784.5283],[-66.2745,-17.0621,4642.9268],[-66.2819,-17.0595,4694.7769],[-66.29,-17.0531,4640.8218],[-66.3004,-17.0492,4693.9175],[-66.3036,-17.045,4734.4873],[-66.32,-17.0562,4463.5229],[-66.3252,-17.0721,4168.2539],[-66.3271,-17.0739,4144.0327],[-66.3417,-17.0766,3649.6333],[-66.3451,-17.0745,3614.1438],[-66.3468,-17.069,3603.9287],[-66.353,-17.0619,3680.2266],[-66.3524,-17.0586,3518.9238],[-66.3543,-17.0592,3612.8486],[-66.3596,-17.0509,3568.2305],[-66.3656,-17.0466,3572.4878],[-66.3736,-17.0468,3632.7061],[-66.3758,-17.0456,3624.2354],[-66.3776,-17.0469,3666.9834],[-66.3801,-17.0463,3633.7427],[-66.3824,-17.0537,3686.3201],[-66.3851,-17.0544,3687.9517],[-66.3876,-17.0579,3748.9365],[-66.3949,-17.0592,3714.3774],[-66.3967,-17.0632,3751.0947],[-66.4005,-17.0639,3755.3127],[-66.4043,-17.0685,3836.2083],[-66.4084,-17.0693,3775.3608],[-66.4152,-17.0763,3867.4209],[-66.4201,-17.0778,3821.2524],[-66.4284,-17.0865,3868.6189],[-66.4323,-17.0949,3916.6921]]]]}
,"properties": {"GID_3": "BOL.2.14.2_2","GID_0": "BOL","country": "Bolivia","GID_1": "BOL.2_1","province": "Cochabamba","NL_NAME_1": "NA","GID_2": "BOL.2.14_2","county": "Quillacollo","NL_NAME_2": "NA","city": "Quillacollo","VARNAME_3": "NA","NL_NAME_3": "NA","TYPE_3": "District","ENGTYPE_3": "Distrito","CC_3": "NA","HASC_3": "NA","name": "Quillacollo.city","area_km2": 569.4467,"hist_schema_id": "Elevation0-9000","hist_area_km2": {"2525": 12.8058,"2550": 20.5559,"2575": 13.152,"2600": 12.6669,"2625": 8.7418,"2650": 5.7068,"2675": 4.7758,"2700": 3.5414,"2725": 2.1858,"2750": 1.4775,"2775": 1.2144,"2800": 0.8704,"2825": 0.8097,"2850": 0.7692,"2875": 0.4858,"2900": 0.7287,"2925": 0.668,"2950": 0.7085,"2975": 0.6478,"3000": 0.749,"3025": 0.8097,"3050": 0.6478,"3075": 0.83,"3100": 0.9717,"3125": 0.749,"3150": 1.1336,"3175": 0.9919,"3200": 1.1539,"3225": 1.0527,"3250": 1.1337,"3275": 0.9717,"3300": 0.9515,"3325": 1.0932,"3350": 1.1539,"3375": 1.3361,"3400": 1.3361,"3425": 1.4373,"3450": 1.4576,"3475": 1.3969,"3500": 1.7006,"3525": 1.4779,"3550": 1.0125,"3575": 1.3971,"3600": 1.4579,"3625": 1.3566,"3650": 1.6809,"3675": 1.62,"3700": 2.3496,"3725": 2.9979,"3750": 3.0183,"3775": 4.1123,"3800": 3.8895,"3825": 4.2138,"3850": 4.781,"3875": 4.8823,"3900": 5.5914,"3925": 5.9561,"3950": 7.0905,"3975": 7.3133,"4000": 7.5365,"4025": 9.5419,"4050": 10.1092,"4075": 11.7499,"4100": 11.9525,"4125": 10.2506,"4150": 10.7772,"4175": 11.5265,"4200": 11.7291,"4225": 12.2358,"4250": 12.438,"4275": 12.9243,"4300": 12.5798,"4325": 14.4231,"4350": 16.5703,"4375": 17.4004,"4400": 17.7448,"4425": 17.2387,"4450": 18.1097,"4475": 16.7928,"4500": 17.7045,"4525": 16.0435,"4550": 15.6786,"4575": 13.9768,"4600": 12.0117,"4625": 9.8037,"4650": 9.0542,"4675": 7.049,"4700": 6.7449,"4725": 3.9294,"4750": 3.3014,"4775": 2.6533,"4800": 1.6203,"4825": 1.3976,"4850": 1.1747,"4875": 0.6886,"4900": 0.4861,"4925": 0.3443,"4950": 0.2228,"4975": 0.1013,"5000": 0.0405,"5050": 0.0203}}}