{"type": "Feature","bbox": [-64.8424,-20.4732,-57.4544,-13.4759],"geometry": {"type": "MultiPolygon","coordinates": [[[[-63.4923,-20.457,982.4758],[-63.4828,-20.4575,976.1688],[-63.4734,-20.4534,970.4004],[-63.4641,-20.4535,963.3237],[-63.4604,-20.4489,959.91],[-63.4437,-20.4422,943.4022],[-63.4387,-20.4365,950.7656],[-63.4187,-20.4402,920.996],[-63.4152,-20.4382,918.4294],[-63.4124,-20.4283,912.8607],[-63.4067,-20.425,911.5009],[-63.4065,-20.4228,907.7849],[-63.4091,-20.4205,905.8984],[-63.405,-20.4176,900.9988],[-63.403,-20.4108,900.0411],[-63.4044,-20.4071,914.1759],[-63.3995,-20.4035,898.2488],[-63.3997,-20.3986,900.5963],[-63.3902,-20.3996,914.806],[-63.3714,-20.395,925.2546],[-63.3684,-20.396,934.1852],[-63.3571,-20.3925,1034.209],[-63.3568,-20.4014,1196.0479],[-63.3547,-20.4053,1293.7144],[-63.3563,-20.4138,1311.4908],[-63.3517,-20.4178,1404.1479],[-63.3524,-20.4227,1384.9431],[-63.3572,-20.4331,1518.0272],[-63.3609,-20.4356,1597.4421],[-63.3581,-20.4452,1526.9844],[-63.3597,-20.4479,1504.2314],[-63.3576,-20.4601,1399.0175],[-63.2491,-20.4606,869.4868],[-63.0219,-20.4442,684.5654],[-62.6925,-20.4422,494.4824],[-62.1794,-20.4426,369.0851],[-61.9224,-20.0892,347.5981],[-61.8328,-19.8742,383.0629],[-61.7355,-19.6342,504.646],[-61.1222,-19.5391,281.543],[-60.601,-19.4559,205.2628],[-59.9769,-19.2952,180.1538],[-59.9328,-19.2988,178.5443],[-59.8838,-19.3001,175.191],[-59.6457,-19.3125,207.9516],[-59.2497,-19.3408,223.3851],[-59.1145,-19.344,298.3582],[-59.0996,-19.3494,297.8896],[-58.9996,-19.4015,299.1052],[-58.8235,-19.4969,182.2565],[-58.7443,-19.5364,140.8018],[-58.6406,-19.5864,112.2516],[-58.5011,-19.6502,87.8746],[-58.2354,-19.7755,83.6828],[-58.1648,-19.8271,80.47],[-58.1678,-19.8313,80.3548],[-58.1743,-19.8349,80.1214],[-58.1781,-19.8446,80.3499],[-58.1921,-19.8533,79.9078],[-58.1975,-19.8623,80.314],[-58.2019,-19.8648,79.8166],[-58.2037,-19.8815,80.4483],[-58.2051,-19.8838,79.9645],[-58.2048,-19.8977,79.3184],[-58.2003,-19.9052,79.2902],[-58.1959,-19.9282,79.3547],[-58.202,-19.9381,79.3269],[-58.2131,-19.9514,79.2],[-58.2131,-19.9537,78.9637],[-58.2101,-19.9565,79.3056],[-58.2008,-19.9619,79.0369],[-58.192,-19.9615,79.0044],[-58.1855,-19.9712,79.1774],[-58.1765,-20.0048,79.5317],[-58.1774,-20.0136,79.4682],[-58.1737,-20.0216,78.9316],[-58.1751,-20.0284,79.9261],[-58.1679,-20.0359,78.3981],[-58.1568,-20.0439,82.3496],[-58.1617,-20.049,79.6203],[-58.1668,-20.0508,82.0891],[-58.1634,-20.0569,81.9309],[-58.1649,-20.0651,78.8696],[-58.1604,-20.073,83.6253],[-58.1621,-20.0767,79.1061],[-58.1597,-20.0771,79.9777],[-58.1581,-20.0751,79.0073],[-58.1528,-20.0754,80.5229],[-58.1545,-20.0853,79.7065],[-58.1446,-20.0978,81.0103],[-58.1369,-20.1187,77.801],[-58.1376,-20.124,77.9093],[-58.142,-20.1283,80.2172],[-58.1454,-20.1397,80.3184],[-58.1594,-20.1454,80.0533],[-58.1672,-20.1527,79.7824],[-58.1698,-20.1659,77.5],[-58.1627,-20.1606,77.7049],[-58.1561,-20.1508,80.6879],[-58.1371,-20.1483,79.4545],[-58.118,-20.1395,80.4251],[-58.1027,-20.1227,78.0],[-58.0937,-20.1087,78.0],[-58.0655,-20.1012,80.4306],[-58.0503,-20.1004,80.5591],[-58.041,-20.0905,78.0],[-58.039,-20.077,78.0],[-58.0332,-20.0648,80.1913],[-58.0252,-20.0586,78.0],[-58.0117,-20.0578,79.4042],[-57.9977,-20.0532,81.4097],[-57.978,-20.0535,78.0],[-57.9725,-20.0499,78.0],[-57.9669,-20.0331,78.7298],[-57.9569,-20.0226,78.0],[-57.9482,-20.0194,78.0],[-57.9377,-20.0192,78.0],[-57.9245,-20.025,78.0],[-57.9122,-20.034,81.3152],[-57.9093,-20.034,81.4306],[-57.9081,-20.0304,81.0798],[-57.909,-20.0194,80.9432],[-57.905,-20.0114,81.403],[-57.896,-20.002,81.485],[-57.8832,-19.9934,81.9883],[-57.8729,-19.9827,82.4747],[-57.8709,-19.9765,81.7151],[-57.8726,-19.971,81.5743],[-57.8767,-19.9659,81.4358],[-57.8953,-19.9506,81.6107],[-57.916,-19.9371,81.2836],[-57.9535,-19.9092,81.4792],[-57.9873,-19.888,81.3637],[-58.0209,-19.8598,81.0736],[-58.0487,-19.8333,81.1592],[-58.0735,-19.817,80.9571],[-58.1268,-19.7747,81.6313],[-58.1334,-19.7624,81.4704],[-58.1334,-19.7578,81.0973],[-58.122,-19.7318,81.5129],[-58.092,-19.6733,81.6829],[-57.8931,-19.2618,82.4386],[-57.7842,-19.0335,240.5101],[-57.7105,-19.0326,102.59],[-57.7088,-19.029,100.7202],[-57.7052,-19.0015,87.5652],[-57.707,-18.9903,111.6232],[-57.7122,-18.979,83.5],[-57.7197,-18.9781,84.22],[-57.7198,-18.8991,86.0592],[-57.7672,-18.9005,86.029],[-57.5902,-18.3373,102.5251],[-57.5599,-18.2427,96.756],[-57.5578,-18.2404,93.048],[-57.4544,-18.231,88.9088],[-57.4579,-18.2269,91.5392],[-57.4674,-18.2228,90.1261],[-57.4742,-18.217,89.737],[-57.4738,-18.2135,90.2646],[-57.4798,-18.2086,88.5342],[-57.4822,-18.2021,91.2969],[-57.4851,-18.2,90.7507],[-57.4907,-18.2022,90.0979],[-57.5003,-18.1969,89.104],[-57.5051,-18.2003,95.1342],[-57.5076,-18.1992,96.7102],[-57.5748,-18.1319,87.5],[-57.5804,-18.1179,87.5],[-57.6007,-18.0452,87.5],[-57.7229,-17.8302,91.9399],[-57.7193,-17.8303,92.3821],[-57.7206,-17.8279,91.8873],[-57.6887,-17.827,102.0299],[-57.687,-17.8247,105.8803],[-57.6881,-17.8068,88.5],[-57.7022,-17.7893,88.5],[-57.714,-17.7795,88.5],[-57.7201,-17.7717,88.5],[-57.7138,-17.7466,88.5],[-57.7148,-17.7337,88.5],[-57.7231,-17.7256,91.7538],[-57.7351,-17.72,92.1863],[-57.7431,-17.6986,89.5],[-57.7542,-17.6887,88.5],[-57.7649,-17.6684,88.9669],[-57.7796,-17.6565,90.5781],[-57.785,-17.6455,91.5068],[-57.7845,-17.6402,88.9371],[-57.7777,-17.6249,90.321],[-57.786,-17.6159,89.0227],[-57.7826,-17.6144,89.3969],[-57.7843,-17.6082,90.5514],[-57.7821,-17.6057,89.5207],[-57.7905,-17.6032,90.2092],[-57.7861,-17.5966,89.296],[-57.7866,-17.5947,90.0637],[-57.7937,-17.5924,89.5569],[-57.7897,-17.5825,91.1422],[-57.7808,-17.5763,89.5],[-57.7853,-17.5752,90.1009],[-57.7852,-17.57,89.5],[-57.7944,-17.5643,89.5],[-57.7956,-17.56,89.5],[-57.7928,-17.5557,89.5],[-57.7856,-17.5555,89.5],[-57.7523,-17.5645,89.5],[-57.747,-17.5548,89.5],[-57.8878,-17.4528,102.5057],[-57.9695,-17.5145,91.9254],[-57.97,-17.5064,90.9389],[-57.9722,-17.506,91.4197],[-57.9971,-17.5154,91.2342],[-58.0,-17.5128,92.6143],[-57.9999,-17.5064,92.4751],[-58.0069,-17.5063,92.2466],[-58.0116,-17.4992,92.5154],[-58.0144,-17.4986,92.0314],[-58.0172,-17.5,92.352],[-58.0229,-17.4951,92.2535],[-58.0299,-17.4965,92.5008],[-58.0442,-17.4923,92.5924],[-58.0438,-17.4859,92.6063],[-58.0466,-17.4745,94.1434],[-58.051,-17.4626,92.1503],[-58.0559,-17.4582,92.7421],[-58.0673,-17.4538,92.7417],[-58.0676,-17.452,93.2576],[-58.0702,-17.4511,92.8928],[-58.0746,-17.4556,93.6871],[-58.0926,-17.4628,92.6343],[-58.1061,-17.4542,93.096],[-58.1203,-17.4502,93.4402],[-58.1217,-17.4459,95.711],[-58.1199,-17.4246,91.0],[-58.1228,-17.4143,91.0],[-58.128,-17.4121,91.0],[-58.1408,-17.4164,91.0],[-58.1513,-17.4097,91.0],[-58.1555,-17.402,91.0],[-58.1526,-17.389,91.0],[-58.1571,-17.385,91.0],[-58.1813,-17.3921,91.0],[-58.1929,-17.3926,91.0],[-58.1998,-17.3903,91.0],[-58.2013,-17.3878,91.0],[-58.2006,-17.3833,91.0],[-58.194,-17.374,92.748],[-58.1936,-17.3707,91.0],[-58.196,-17.3669,91.858],[-58.1965,-17.3605,91.0],[-58.2029,-17.3543,91.0],[-58.2091,-17.3551,91.0],[-58.2191,-17.3609,92.0076],[-58.2286,-17.3572,91.4408],[-58.2265,-17.3509,92.2869],[-58.229,-17.3482,92.2396],[-58.2341,-17.3515,92.615],[-58.2408,-17.3496,92.3229],[-58.2464,-17.3552,92.95],[-58.2481,-17.3531,91.6295],[-58.2513,-17.3555,93.7164],[-58.2552,-17.354,92.5539],[-58.2575,-17.3467,93.607],[-58.2651,-17.3452,91.7207],[-58.2626,-17.3343,92.5706],[-58.2639,-17.3315,92.6639],[-58.2674,-17.3279,93.0605],[-58.2769,-17.3254,92.5798],[-58.2779,-17.3205,92.447],[-58.2801,-17.3194,91.5532],[-58.2766,-17.305,91.0],[-58.2781,-17.3003,91.9008],[-58.2855,-17.2994,91.9916],[-58.2915,-17.3027,92.6003],[-58.2964,-17.3016,92.5105],[-58.3,-17.2987,92.2847],[-58.2974,-17.2918,92.9406],[-58.2927,-17.2902,94.0782],[-58.2926,-17.2879,93.6898],[-58.2968,-17.2829,92.0508],[-58.3024,-17.2815,91.8201],[-58.3043,-17.2793,91.3688],[-58.3042,-17.2699,91.0],[-58.3082,-17.2675,91.675],[-58.3163,-17.2685,92.0721],[-58.3202,-17.2657,91.8383],[-58.3221,-17.2617,92.2735],[-58.3198,-17.2565,92.6409],[-58.3205,-17.2536,92.626],[-58.3347,-17.2389,93.1718],[-58.3472,-17.2316,92.1249],[-58.3543,-17.2138,93.5704],[-58.3666,-17.2014,93.3105],[-58.3974,-17.1864,94.8524],[-58.4,-17.1507,96.0231],[-58.3995,-17.0838,95.1548],[-58.4313,-17.0656,93.5],[-58.4323,-17.0598,93.5],[-58.422,-17.0508,93.5],[-58.4308,-17.0476,93.5],[-58.4342,-17.0406,93.5],[-58.4339,-17.0377,93.5],[-58.4309,-17.0359,93.5],[-58.4174,-17.0375,93.8808],[-58.418,-17.0325,93.5],[-58.4209,-17.0292,93.5],[-58.431,-17.0297,94.6894],[-58.4348,-17.0283,94.4928],[-58.4323,-17.023,93.5],[-58.4351,-17.008,93.5],[-58.433,-17.0048,93.5],[-58.4268,-17.0024,93.5],[-58.4232,-16.9888,93.5],[-58.4254,-16.9882,93.5],[-58.4312,-16.9917,94.7885],[-58.4378,-16.9862,94.5833],[-58.4449,-16.9855,93.5],[-58.4485,-16.976,93.5],[-58.4471,-16.9689,93.8712],[-58.4492,-16.9679,94.5172],[-58.4557,-16.9691,94.9165],[-58.463,-16.9625,93.5],[-58.4616,-16.9578,94.6147],[-58.4624,-16.9511,94.3242],[-58.458,-16.9464,94.0634],[-58.4575,-16.9401,93.8724],[-58.4598,-16.9389,93.8267],[-58.4688,-16.9428,93.5],[-58.4714,-16.9395,94.8987],[-58.4765,-16.9381,95.0494],[-58.4719,-16.922,94.0],[-58.4771,-16.9137,94.0],[-58.466,-16.9118,94.5176],[-58.4605,-16.902,94.5],[-58.4628,-16.899,94.9563],[-58.4686,-16.8992,95.1494],[-58.4705,-16.8976,95.5379],[-58.4639,-16.8914,96.4503],[-58.4692,-16.8849,96.9617],[-58.4642,-16.8777,95.0],[-58.4675,-16.8719,95.0],[-58.4679,-16.8665,95.0],[-58.4601,-16.8642,95.0],[-58.4606,-16.8623,95.0],[-58.4687,-16.8591,95.0],[-58.4612,-16.8537,95.0],[-58.4619,-16.8511,95.0],[-58.4688,-16.8505,95.0],[-58.462,-16.841,95.4441],[-58.4699,-16.8339,95.0],[-58.4767,-16.8306,95.0],[-58.4787,-16.8228,95.0],[-58.4727,-16.7953,95.0],[-58.4698,-16.7931,95.0],[-58.461,-16.7959,95.0],[-58.4596,-16.7939,95.0],[-58.4612,-16.7905,95.0],[-58.4585,-16.7885,95.5559],[-58.4605,-16.7852,95.2782],[-58.4655,-16.7832,95.0],[-58.4671,-16.7807,95.0],[-58.4661,-16.777,95.0],[-58.4695,-16.7746,95.3945],[-58.4667,-16.7713,95.5597],[-58.4656,-16.7592,96.1799],[-58.4679,-16.7568,95.2399],[-58.4671,-16.7539,95.5994],[-58.4714,-16.7503,95.0],[-58.4703,-16.7317,95.784],[-58.467,-16.7142,95.5],[-58.4689,-16.7121,95.6954],[-58.4671,-16.6949,96.4829],[-58.4608,-16.6683,97.5038],[-58.4593,-16.6528,96.2881],[-58.4352,-16.5945,96.8098],[-58.4279,-16.5867,98.8998],[-58.4219,-16.5752,102.499],[-58.4018,-16.5688,97.0818],[-58.395,-16.5648,99.2197],[-58.3381,-16.5163,96.8696],[-58.3339,-16.4844,97.7925],[-58.3429,-16.4623,99.9859],[-58.3479,-16.4573,99.1307],[-58.3548,-16.4404,100.3132],[-58.3539,-16.4346,101.6229],[-58.3562,-16.4267,101.8771],[-58.3526,-16.4188,101.7832],[-58.3522,-16.4121,102.4843],[-58.3451,-16.3998,108.8389],[-58.3455,-16.3965,113.1083],[-58.3476,-16.3955,108.3353],[-58.3461,-16.3899,116.594],[-58.34,-16.3875,119.7083],[-58.3348,-16.3909,118.5874],[-58.3279,-16.3804,147.5822],[-58.3202,-16.3781,163.1763],[-58.3161,-16.3734,173.7625],[-58.3076,-16.3718,196.8043],[-58.3096,-16.3614,186.9705],[-58.3071,-16.339,170.6542],[-58.304,-16.3304,154.2416],[-58.3037,-16.3097,172.7207],[-58.3174,-16.2926,179.8254],[-58.322,-16.266,202.1463],[-58.3247,-16.2668,206.3465],[-58.3289,-16.2712,216.3722],[-58.3392,-16.2738,136.6509],[-58.3471,-16.2744,130.0446],[-58.3531,-16.2706,127.3185],[-58.3655,-16.2742,119.7211],[-58.3819,-16.2675,112.3147],[-58.389,-16.2628,108.2207],[-58.392,-16.2709,108.1733],[-58.3905,-16.2771,107.841],[-58.3915,-16.2866,107.5303],[-58.3958,-16.2988,107.2099],[-58.4012,-16.3055,107.0614],[-58.4311,-16.3224,106.4238],[-59.0013,-16.2994,134.7384],[-59.0023,-16.3004,131.9923],[-59.1532,-16.2947,176.787],[-59.1841,-16.2922,196.2779],[-59.4956,-16.2793,217.0673],[-59.5371,-16.276,255.1853],[-59.8153,-16.2717,258.2542],[-60.1735,-16.263,303.853],[-60.1799,-15.9977,219.8477],[-60.2376,-15.4735,198.6459],[-60.5749,-15.096,192.2072],[-60.2444,-15.0953,225.923],[-60.25,-14.9983,255.8707],[-60.2516,-14.9944,277.0804],[-60.2564,-14.8799,614.7198],[-60.263,-14.772,471.486],[-60.2666,-14.7405,411.0087],[-60.2678,-14.6894,460.763],[-60.2722,-14.6228,636.6375],[-60.2732,-14.6204,624.5187],[-60.2834,-14.6229,534.173],[-60.2927,-14.6232,507.9108],[-60.3025,-14.6161,468.9147],[-60.3124,-14.6149,457.1367],[-60.3217,-14.6095,445.3195],[-60.3276,-14.596,436.9436],[-60.3289,-14.5882,433.1168],[-60.3274,-14.5811,431.256],[-60.3302,-14.5711,433.4784],[-60.3297,-14.562,425.1494],[-60.3355,-14.5481,423.0154],[-60.3377,-14.5347,400.941],[-60.3438,-14.5309,411.0779],[-60.343,-14.5292,419.4502],[-60.337,-14.5292,406.2154],[-60.3384,-14.526,411.9575],[-60.3434,-14.5218,396.2358],[-60.3421,-14.5147,411.0597],[-60.3393,-14.5123,402.6205],[-60.3395,-14.5095,402.1515],[-60.3467,-14.5042,396.1783],[-60.3475,-14.4986,375.923],[-60.3575,-14.4849,375.8335],[-60.3776,-14.4494,363.263],[-60.3861,-14.4395,351.2724],[-60.3995,-14.412,344.515],[-60.4005,-14.4048,341.4361],[-60.3963,-14.3968,368.5155],[-60.3936,-14.394,362.3062],[-60.3814,-14.3902,364.3205],[-60.3806,-14.3887,377.4034],[-60.3825,-14.3676,357.5405],[-60.3853,-14.3655,364.2289],[-60.3909,-14.3658,354.6559],[-60.3942,-14.3563,336.951],[-60.398,-14.3555,351.6373],[-60.4025,-14.3503,360.9813],[-60.4111,-14.3455,345.1307],[-60.4198,-14.3283,350.5836],[-60.4245,-14.3247,352.5539],[-60.4312,-14.3232,347.8795],[-60.4433,-14.3163,318.6649],[-60.4473,-14.3051,338.946],[-60.4489,-14.2908,340.2971],[-60.4533,-14.2811,343.6294],[-60.4546,-14.2738,326.7891],[-60.4604,-14.2637,322.5092],[-60.46,-14.2526,334.8716],[-60.4511,-14.2431,321.8456],[-60.4508,-14.2383,318.8171],[-60.4525,-14.2351,317.0462],[-60.4589,-14.2314,316.3667],[-60.4611,-14.2281,315.8006],[-60.4633,-14.2182,343.6837],[-60.4646,-14.1969,376.9782],[-60.467,-14.1875,391.6181],[-60.4722,-14.1846,354.8804],[-60.4813,-14.1845,324.1039],[-60.4821,-14.1824,332.7466],[-60.4821,-14.1742,347.3267],[-60.4745,-14.1569,326.3244],[-60.4718,-14.1458,363.96],[-60.4704,-14.1308,325.0753],[-60.4723,-14.1104,319.7289],[-60.4666,-14.0964,315.8362],[-60.4477,-14.0799,195.7408],[-60.4332,-14.063,198.3578],[-60.4266,-14.0474,205.4177],[-60.4115,-14.027,203.0333],[-60.4061,-14.0093,209.0613],[-60.4073,-13.9896,203.335],[-60.4109,-13.9836,182.2376],[-60.4277,-13.9673,195.4451],[-60.4421,-13.9343,185.8104],[-60.4448,-13.9154,190.6702],[-60.4423,-13.9048,185.9115],[-60.4438,-13.8898,180.5038],[-60.4467,-13.8847,179.1808],[-60.4517,-13.8847,186.9872],[-60.4535,-13.8824,181.899],[-60.4501,-13.8676,177.8158],[-60.4507,-13.857,187.4891],[-60.4586,-13.8544,179.1947],[-60.4696,-13.8541,185.3473],[-60.472,-13.8517,183.5433],[-60.4708,-13.8473,183.9159],[-60.4676,-13.8436,187.5556],[-60.467,-13.8378,186.3661],[-60.4678,-13.8361,182.3194],[-60.4723,-13.8351,177.2404],[-60.4737,-13.8328,182.2751],[-60.4699,-13.8302,185.6501],[-60.4666,-13.8302,181.3269],[-60.4622,-13.8237,187.6036],[-60.4624,-13.8119,184.0202],[-60.4593,-13.8041,187.7611],[-60.4606,-13.7993,184.8946],[-60.466,-13.7969,175.7838],[-60.4864,-13.7953,174.9412],[-60.5003,-13.7897,180.9291],[-60.5036,-13.7933,181.9345],[-60.5043,-13.7969,186.4658],[-60.5104,-13.7933,188.5575],[-60.5214,-13.7956,186.1966],[-60.5285,-13.7947,181.5609],[-60.528,-13.7913,175.8601],[-60.5212,-13.7854,176.1321],[-60.5185,-13.7798,181.6665],[-60.5183,-13.7737,172.5],[-60.521,-13.7709,175.5134],[-60.5255,-13.7703,177.3825],[-60.5323,-13.7726,176.7742],[-60.5464,-13.7693,177.421],[-60.5489,-13.7726,178.44],[-60.5463,-13.7823,173.8672],[-60.5514,-13.7817,182.8012],[-60.559,-13.7709,179.6549],[-60.5708,-13.7686,180.4181],[-60.567,-13.7624,172.0071],[-60.567,-13.7595,181.2072],[-60.5764,-13.7588,180.7708],[-60.5791,-13.7572,182.1246],[-60.5757,-13.7513,173.1125],[-60.5765,-13.7464,178.2014],[-60.5869,-13.7477,177.2788],[-60.5893,-13.743,176.2079],[-60.5916,-13.7428,173.9042],[-60.5982,-13.7474,174.5436],[-60.6063,-13.7476,173.0256],[-60.606,-13.7361,172.8993],[-60.6082,-13.7361,178.0607],[-60.6102,-13.7392,171.7175],[-60.6115,-13.7384,171.7175],[-60.6094,-13.7271,175.3261],[-60.6124,-13.7246,181.48],[-60.6191,-13.7244,174.0492],[-60.6209,-13.717,173.9106],[-60.6256,-13.7191,172.9237],[-60.6302,-13.725,171.5829],[-60.6396,-13.7255,175.8464],[-60.6429,-13.7334,173.5244],[-60.6458,-13.7357,176.5438],[-60.6498,-13.7338,169.0],[-60.6518,-13.7282,171.6606],[-60.6547,-13.7283,171.8324],[-60.6563,-13.7353,170.7835],[-60.6713,-13.7222,177.3844],[-60.6783,-13.7196,171.0192],[-60.6833,-13.7155,168.5],[-60.6864,-13.71,171.1347],[-60.6882,-13.6983,175.3345],[-60.6904,-13.6962,173.8189],[-60.6957,-13.6978,176.8185],[-60.6937,-13.7106,168.0],[-60.6944,-13.7134,168.0],[-60.6958,-13.7136,168.0],[-60.7049,-13.7013,175.2305],[-60.7069,-13.6913,173.1158],[-60.7087,-13.6899,168.0],[-60.7198,-13.6907,176.4814],[-60.7404,-13.6826,170.0636],[-60.7557,-13.6871,172.5947],[-60.7634,-13.6862,168.0],[-60.7714,-13.6795,169.1412],[-60.7696,-13.667,168.0],[-60.7735,-13.6605,172.0312],[-60.7822,-13.6582,170.1001],[-60.7878,-13.6548,172.0175],[-60.8019,-13.6563,168.0],[-60.8104,-13.6542,170.8241],[-60.8133,-13.6503,168.7214],[-60.8131,-13.646,170.4043],[-60.8161,-13.6414,172.0076],[-60.8165,-13.637,173.3173],[-60.8231,-13.6303,176.7138],[-60.838,-13.626,167.8893],[-60.8496,-13.6324,173.2086],[-60.8607,-13.6247,166.5],[-60.8778,-13.6192,167.9571],[-60.8803,-13.617,167.8672],[-60.8898,-13.5981,170.023],[-60.9029,-13.5904,166.5],[-60.9103,-13.5838,170.2013],[-60.9234,-13.5665,166.5],[-60.9251,-13.5555,175.515],[-60.9239,-13.5526,166.5],[-60.9178,-13.5475,168.8631],[-60.9187,-13.5425,168.7327],[-60.9296,-13.5383,170.5292],[-60.933,-13.5387,173.3723],[-60.9466,-13.5505,166.5],[-60.9568,-13.5512,171.511],[-60.9608,-13.5489,171.3258],[-60.9651,-13.5367,166.5],[-60.9722,-13.5348,166.9016],[-60.9787,-13.5394,171.6561],[-60.9867,-13.5366,173.9004],[-60.9881,-13.5392,167.7803],[-60.9858,-13.5441,166.6024],[-60.9876,-13.546,169.1659],[-60.9963,-13.5481,171.7828],[-61.0018,-13.5522,165.5584],[-61.0069,-13.5513,168.6272],[-61.0083,-13.549,170.0329],[-61.0075,-13.544,165.0],[-61.009,-13.5368,166.475],[-61.0125,-13.53,167.6461],[-61.0121,-13.5257,168.1895],[-61.0069,-13.5256,169.7235],[-61.0017,-13.5326,168.707],[-60.9997,-13.5309,166.1446],[-60.9997,-13.5274,169.8785],[-61.0097,-13.516,165.0],[-61.0107,-13.5092,165.6055],[-61.0063,-13.5023,167.1983],[-60.998,-13.5018,168.2123],[-60.9934,-13.505,166.3472],[-60.9898,-13.5031,165.5575],[-60.9896,-13.4939,176.6063],[-60.9934,-13.4895,174.6094],[-61.0119,-13.4849,177.6942],[-61.0244,-13.4796,171.4963],[-61.0414,-13.4759,171.788],[-61.0471,-13.4762,172.2069],[-61.0541,-13.4816,169.4848],[-61.0545,-13.4892,177.6784],[-61.0394,-13.4996,171.8961],[-61.0394,-13.5055,167.7318],[-61.0455,-13.5092,164.0],[-61.0581,-13.5118,164.0],[-61.0609,-13.5099,165.6843],[-61.0629,-13.503,163.5],[-61.0657,-13.5002,166.4164],[-61.0821,-13.4985,170.6944],[-61.0879,-13.5001,178.2402],[-61.0894,-13.4938,178.3282],[-61.0915,-13.4929,168.4807],[-61.0937,-13.495,175.9849],[-61.096,-13.5049,165.3463],[-61.0987,-13.5095,164.5746],[-61.106,-13.5155,172.4485],[-61.1057,-13.5215,163.5],[-61.1025,-13.5237,163.5],[-61.1058,-13.531,167.2587],[-61.1142,-13.528,171.365],[-61.1237,-13.5201,162.5],[-61.1305,-13.5214,162.0],[-61.1368,-13.5289,168.288],[-61.1399,-13.5283,162.9073],[-61.1413,-13.5227,170.1649],[-61.1393,-13.5136,167.8992],[-61.1427,-13.5118,162.408],[-61.1462,-13.5139,161.5],[-61.1474,-13.5175,166.7366],[-61.1452,-13.5298,167.7004],[-61.1501,-13.531,166.5343],[-61.1528,-13.5281,163.7324],[-61.1545,-13.5211,163.7633],[-61.1578,-13.5166,165.3026],[-61.1723,-13.5107,161.5],[-61.179,-13.5151,163.1107],[-61.1822,-13.5153,161.5],[-61.1835,-13.5134,162.4977],[-61.182,-13.5094,168.1001],[-61.1832,-13.506,165.9435],[-61.1858,-13.507,162.2662],[-61.1871,-13.5118,161.5],[-61.1907,-13.5159,174.4894],[-61.1899,-13.5196,166.1641],[-61.1843,-13.5237,165.3655],[-61.1843,-13.5267,169.6977],[-61.1935,-13.5355,163.2648],[-61.2002,-13.5329,163.3678],[-61.2091,-13.5246,161.5],[-61.2209,-13.5299,166.7256],[-61.2252,-13.5302,179.4222],[-61.2354,-13.5256,175.1255],[-61.2383,-13.5173,163.2266],[-61.2451,-13.5139,162.8171],[-61.2423,-13.5036,171.4395],[-61.2433,-13.4997,164.7716],[-61.2606,-13.4941,175.0844],[-61.2695,-13.4986,171.0535],[-61.2752,-13.505,164.0249],[-61.2793,-13.5048,165.7592],[-61.2854,-13.5018,162.2358],[-61.289,-13.4972,164.9903],[-61.2934,-13.4969,172.7884],[-61.2997,-13.4997,166.635],[-61.3001,-13.5044,170.2318],[-61.3021,-13.5066,167.0899],[-61.312,-13.503,160.0],[-61.3352,-13.5045,161.7697],[-61.3407,-13.5101,162.1206],[-61.3407,-13.5169,161.6653],[-61.353,-13.5212,167.5416],[-61.3812,-13.5192,162.6408],[-61.3913,-13.5199,159.5],[-61.3988,-13.5224,160.8933],[-61.404,-13.5261,159.5],[-61.4036,-13.538,159.5],[-61.4103,-13.5377,163.3481],[-61.4392,-13.5466,159.5],[-61.449,-13.5471,165.7716],[-61.4695,-13.5546,170.0594],[-61.4768,-13.5543,162.4774],[-61.4906,-13.5479,159.0],[-61.5069,-13.5489,159.0],[-61.5136,-13.5437,159.7291],[-61.518,-13.533,158.875],[-61.5279,-13.5298,158.5],[-62.7049,-13.9758,162.6416],[-63.5612,-14.2959,168.8679],[-63.975,-14.7284,163.1723],[-63.9741,-14.7322,177.5399],[-63.9785,-14.7364,173.8617],[-63.9735,-14.7398,166.6188],[-63.9674,-14.7413,178.4091],[-63.9686,-14.7456,169.7548],[-63.9663,-14.7502,171.4119],[-63.9627,-14.7517,171.3127],[-63.9584,-14.758,180.5713],[-63.956,-14.7586,173.4611],[-63.9534,-14.7565,174.9453],[-63.944,-14.7585,174.6567],[-63.9425,-14.7631,172.5649],[-63.9309,-14.7672,182.2048],[-63.9266,-14.7712,176.797],[-63.926,-14.7797,174.4358],[-63.9301,-14.7872,177.6698],[-63.9304,-14.7921,180.5849],[-63.9328,-14.7945,177.6992],[-63.9274,-14.8027,174.2711],[-63.931,-14.807,174.7474],[-63.9329,-14.8221,186.0963],[-63.937,-14.8268,176.2684],[-63.9378,-14.8312,171.2622],[-63.9367,-14.8326,178.5439],[-63.9399,-14.837,174.9178],[-63.9404,-14.8402,173.7064],[-63.9377,-14.8413,171.2124],[-63.9373,-14.8461,167.9906],[-63.9402,-14.853,172.7782],[-63.9438,-14.8535,168.8657],[-63.9423,-14.8594,170.8008],[-63.9449,-14.8659,170.4825],[-63.9451,-14.8711,169.0566],[-63.9438,-14.8728,170.6492],[-63.9469,-14.8771,174.0883],[-63.9466,-14.8807,171.9429],[-63.9418,-14.8873,169.6959],[-63.9392,-14.8962,178.6751],[-63.9424,-14.8985,171.2363],[-63.9457,-14.9048,168.9707],[-63.9403,-14.9104,176.3182],[-63.9422,-14.9154,173.5729],[-63.9394,-14.914,174.9736],[-63.9385,-14.9149,173.0744],[-63.9388,-14.9201,180.6534],[-63.944,-14.9282,172.9897],[-63.9389,-14.9337,176.3943],[-63.9353,-14.9331,174.8246],[-63.9332,-14.937,173.0992],[-63.9357,-14.9393,171.5218],[-63.9331,-14.9405,175.8274],[-63.9323,-14.9466,176.5652],[-63.9286,-14.9501,180.404],[-63.9343,-14.955,173.9213],[-63.9293,-14.9577,172.7537],[-63.9228,-14.9676,176.3217],[-63.9249,-14.9827,170.7773],[-63.9213,-14.9887,172.3952],[-63.9235,-14.9926,170.2882],[-63.9219,-15.0006,172.8955],[-63.9243,-15.0024,174.2891],[-63.931,-15.0032,175.5749],[-63.9309,-15.0095,180.4547],[-63.9404,-15.013,182.0547],[-63.9406,-15.0143,182.0547],[-63.9387,-15.0196,175.1031],[-63.9343,-15.0213,174.0537],[-63.9303,-15.0269,175.7282],[-63.9236,-15.0265,176.7346],[-63.9178,-15.0327,174.6277],[-63.931,-15.0401,177.1017],[-63.9425,-15.0536,175.9251],[-63.9615,-15.0619,178.765],[-63.9636,-15.069,177.637],[-63.9575,-15.069,178.3521],[-63.9541,-15.0747,175.7504],[-63.9524,-15.0792,174.4848],[-63.9545,-15.0806,179.5489],[-63.9579,-15.08,183.9207],[-63.9581,-15.0828,182.3015],[-63.9468,-15.0925,173.8125],[-63.9516,-15.1018,175.4778],[-63.9482,-15.1034,179.14],[-63.9451,-15.1026,173.406],[-63.9416,-15.11,178.6737],[-63.9447,-15.1159,177.9002],[-63.9406,-15.1223,172.4388],[-63.94,-15.1274,175.7627],[-63.9445,-15.1325,176.0386],[-63.9398,-15.1367,173.954],[-63.9432,-15.141,174.4514],[-63.9393,-15.1429,174.6341],[-63.9401,-15.1475,172.8943],[-63.9377,-15.1498,172.0479],[-63.9436,-15.16,175.2814],[-63.9397,-15.1594,178.1551],[-63.9347,-15.1694,172.9464],[-63.9256,-15.1641,171.9201],[-63.9234,-15.1594,180.2518],[-63.9181,-15.1607,178.088],[-63.9152,-15.1669,177.9775],[-63.9124,-15.1664,184.8212],[-63.9084,-15.1623,175.1691],[-63.9062,-15.169,176.2324],[-63.9011,-15.1667,175.0278],[-63.8999,-15.1758,175.734],[-63.8978,-15.1764,175.0164],[-63.8942,-15.1739,173.609],[-63.8929,-15.1749,174.0432],[-63.8873,-15.1848,175.6034],[-63.8899,-15.1905,175.3264],[-63.8841,-15.1918,177.3315],[-63.8831,-15.1968,174.7228],[-63.8848,-15.1986,176.1854],[-63.8922,-15.1964,175.1553],[-63.8913,-15.2021,176.2118],[-63.8954,-15.2058,176.3216],[-63.8958,-15.2093,176.0283],[-63.893,-15.211,177.3172],[-63.8887,-15.2056,174.5948],[-63.8837,-15.2144,176.9666],[-63.8829,-15.2201,177.2419],[-63.8762,-15.2189,175.5174],[-63.8585,-15.227,177.3806],[-63.867,-15.2356,183.4683],[-63.8609,-15.2418,175.9859],[-63.861,-15.2439,175.3436],[-63.8665,-15.249,178.9496],[-63.8625,-15.2564,178.3661],[-63.8674,-15.2552,178.1273],[-63.8713,-15.2637,177.8205],[-63.8702,-15.2652,177.509],[-63.8636,-15.2613,177.0907],[-63.8619,-15.2621,177.1613],[-63.8611,-15.2645,179.2157],[-63.864,-15.2712,176.3213],[-63.863,-15.2724,179.4871],[-63.8564,-15.2688,176.1142],[-63.8531,-15.2694,176.6158],[-63.8559,-15.2767,177.2441],[-63.8528,-15.2805,178.3053],[-63.8552,-15.2855,175.9311],[-63.8515,-15.293,178.2278],[-63.8564,-15.3023,181.0864],[-63.8422,-15.3186,186.1363],[-63.8425,-15.3257,182.9609],[-63.8348,-15.3248,182.0422],[-63.832,-15.327,185.2366],[-63.8316,-15.3285,181.0896],[-63.8367,-15.3317,182.6165],[-63.8323,-15.3386,180.8259],[-63.838,-15.3417,183.6217],[-63.8343,-15.3452,180.7029],[-63.8338,-15.3504,178.2147],[-63.8318,-15.353,180.3405],[-63.8264,-15.3517,183.2438],[-63.8189,-15.3527,185.1303],[-63.8173,-15.3557,181.9911],[-63.8251,-15.3589,183.1017],[-63.8165,-15.3642,182.6024],[-63.8047,-15.3685,180.7696],[-63.7976,-15.3681,178.5795],[-63.8007,-15.3751,179.9893],[-63.7914,-15.3807,182.3289],[-63.7917,-15.3855,182.8345],[-63.7861,-15.3857,180.1653],[-63.7829,-15.3906,183.3476],[-63.781,-15.3908,179.9308],[-63.7809,-15.3892,177.6898],[-63.7775,-15.392,180.529],[-63.7752,-15.4032,182.7855],[-63.7848,-15.3997,185.9539],[-63.789,-15.4055,183.6819],[-63.7835,-15.404,185.1791],[-63.7799,-15.4051,181.7895],[-63.7792,-15.4072,178.7306],[-63.7901,-15.413,184.4417],[-63.7937,-15.4185,184.0466],[-63.7984,-15.4201,181.944],[-63.7942,-15.4235,182.0181],[-63.7933,-15.4291,178.7719],[-63.7839,-15.4393,179.1081],[-63.7839,-15.4375,183.2599],[-63.7806,-15.4364,182.757],[-63.7771,-15.4384,182.7685],[-63.7651,-15.4382,184.6038],[-63.7628,-15.4417,180.5191],[-63.7661,-15.4491,183.2171],[-63.7658,-15.4535,178.6279],[-63.7612,-15.4515,185.2699],[-63.7554,-15.456,182.2225],[-63.7535,-15.4606,182.9378],[-63.7534,-15.4693,186.9822],[-63.7513,-15.4726,182.5141],[-63.7489,-15.4705,182.76],[-63.7463,-15.4578,182.3368],[-63.7428,-15.455,181.3337],[-63.7417,-15.4556,181.3337],[-63.744,-15.4613,180.4587],[-63.7434,-15.4653,183.9944],[-63.7329,-15.4692,180.3515],[-63.7357,-15.4643,184.6339],[-63.7346,-15.46,183.8389],[-63.7369,-15.4555,186.4038],[-63.7311,-15.453,182.7718],[-63.7283,-15.4547,184.3534],[-63.7266,-15.4597,184.6759],[-63.7224,-15.4611,184.7094],[-63.7227,-15.4636,180.7939],[-63.7253,-15.4657,184.6862],[-63.7183,-15.47,187.353],[-63.7174,-15.4754,184.2948],[-63.7121,-15.4813,189.003],[-63.7135,-15.4839,185.6046],[-63.7121,-15.4899,183.7249],[-63.7068,-15.4887,185.297],[-63.6998,-15.4829,185.3283],[-63.6974,-15.4847,181.1978],[-63.6965,-15.4955,187.102],[-63.695,-15.495,185.3381],[-63.6953,-15.4915,187.4334],[-63.6931,-15.4894,188.1245],[-63.6804,-15.4973,183.5016],[-63.6801,-15.5003,185.4774],[-63.6899,-15.5094,185.2716],[-63.6781,-15.5162,185.3521],[-63.6794,-15.518,188.5929],[-63.6879,-15.5196,188.6096],[-63.6908,-15.5227,184.3618],[-63.6828,-15.5294,189.827],[-63.681,-15.5361,184.7513],[-63.682,-15.5375,183.7515],[-63.686,-15.5325,194.003],[-63.6898,-15.5336,186.3436],[-63.6891,-15.5412,183.6467],[-63.6934,-15.5538,187.4225],[-63.6846,-15.5647,187.4806],[-63.6903,-15.5687,185.7053],[-63.6932,-15.5754,191.0817],[-63.6927,-15.5812,191.0865],[-63.6903,-15.5816,187.8059],[-63.6903,-15.5763,189.1089],[-63.6857,-15.574,183.2478],[-63.6815,-15.5752,192.7472],[-63.6779,-15.5822,188.6045],[-63.6766,-15.5769,191.0446],[-63.6714,-15.5714,188.3728],[-63.6699,-15.5728,188.3728],[-63.6677,-15.5825,188.9242],[-63.6637,-15.5815,188.0146],[-63.6592,-15.5778,194.8411],[-63.6566,-15.5787,191.5863],[-63.6516,-15.5837,192.1704],[-63.6535,-15.5852,191.7168],[-63.655,-15.5833,190.2993],[-63.6575,-15.5835,186.2268],[-63.6567,-15.5858,194.7807],[-63.6429,-15.5942,184.1847],[-63.6483,-15.5973,188.2901],[-63.6444,-15.6015,189.3609],[-63.6474,-15.6051,188.5762],[-63.6465,-15.6093,191.1544],[-63.6345,-15.6094,184.5407],[-63.6346,-15.614,185.3147],[-63.6321,-15.6195,184.2769],[-63.639,-15.6195,192.9602],[-63.6415,-15.6215,191.6341],[-63.642,-15.6245,194.6859],[-63.6395,-15.6266,192.6488],[-63.6344,-15.6247,185.2159],[-63.6321,-15.6256,185.3169],[-63.6306,-15.6282,188.6785],[-63.632,-15.6321,192.5924],[-63.6238,-15.6377,186.2831],[-63.6221,-15.6369,197.5481],[-63.6214,-15.6335,189.8989],[-63.6174,-15.6317,189.3103],[-63.5976,-15.638,186.5413],[-63.5992,-15.6325,186.9931],[-63.5981,-15.6288,187.5471],[-63.5921,-15.6321,187.7111],[-63.5829,-15.634,186.1734],[-63.5819,-15.6362,191.2394],[-63.5863,-15.6367,188.0325],[-63.5848,-15.6466,187.3335],[-63.573,-15.653,192.5258],[-63.5796,-15.6609,190.8173],[-63.574,-15.6653,191.2649],[-63.5669,-15.6667,190.4458],[-63.5677,-15.6625,190.4302],[-63.566,-15.6589,191.1667],[-63.5521,-15.66,187.8737],[-63.5534,-15.6554,188.8709],[-63.5491,-15.6513,187.0197],[-63.5435,-15.6524,189.5567],[-63.5411,-15.6547,190.3096],[-63.5376,-15.6652,191.8443],[-63.5273,-15.658,198.3516],[-63.5252,-15.6549,187.6959],[-63.523,-15.6582,188.8354],[-63.5242,-15.6625,188.1136],[-63.516,-15.6624,192.2126],[-63.5122,-15.6655,185.3323],[-63.5131,-15.6749,190.9131],[-63.5078,-15.6828,192.7213],[-63.5037,-15.681,194.1549],[-63.5005,-15.6867,191.1261],[-63.4923,-15.6877,188.4795],[-63.497,-15.6948,186.9347],[-63.489,-15.6987,188.4735],[-63.4916,-15.702,188.1156],[-63.4914,-15.7065,190.6006],[-63.4875,-15.706,187.2587],[-63.482,-15.7023,189.435],[-63.4818,-15.7001,191.2075],[-63.4754,-15.7064,193.2293],[-63.475,-15.7125,187.9058],[-63.4831,-15.7181,192.8851],[-63.4818,-15.7209,194.1032],[-63.4754,-15.7165,190.2552],[-63.4721,-15.7191,189.4184],[-63.471,-15.7346,190.1649],[-63.4696,-15.735,192.3291],[-63.4624,-15.7292,207.022],[-63.4613,-15.7319,190.2399],[-63.4553,-15.7333,193.4639],[-63.4576,-15.7404,188.1932],[-63.446,-15.7421,190.5179],[-63.443,-15.7366,194.9586],[-63.4343,-15.743,191.8215],[-63.441,-15.7482,194.0742],[-63.4293,-15.7491,195.8963],[-63.4324,-15.7546,191.6203],[-63.4398,-15.7577,192.2441],[-63.4422,-15.7605,193.2104],[-63.442,-15.7638,196.0879],[-63.4365,-15.7596,196.5716],[-63.4319,-15.7604,198.1659],[-63.4298,-15.7628,200.2153],[-63.4313,-15.7646,191.3169],[-63.4369,-15.765,195.7298],[-63.4401,-15.7681,190.7185],[-63.435,-15.7754,192.284],[-63.4352,-15.779,193.0185],[-63.4421,-15.7764,196.1167],[-63.4451,-15.7783,197.6714],[-63.4405,-15.782,190.6747],[-63.4383,-15.78,192.611],[-63.4381,-15.7836,193.8001],[-63.4303,-15.7879,191.2592],[-63.4294,-15.7921,191.7247],[-63.4328,-15.7935,192.8432],[-63.4364,-15.7882,194.5646],[-63.4401,-15.7888,194.8975],[-63.4391,-15.8014,194.0129],[-63.4309,-15.8078,191.2021],[-63.4404,-15.809,191.0098],[-63.4413,-15.8137,194.1172],[-63.4352,-15.8171,193.4743],[-63.4343,-15.8196,191.3315],[-63.4422,-15.8196,192.1965],[-63.4442,-15.8248,196.2583],[-63.4403,-15.8278,195.2974],[-63.4295,-15.8258,196.8632],[-63.43,-15.832,194.9486],[-63.4224,-15.8357,198.7534],[-63.4213,-15.838,197.3556],[-63.4286,-15.8413,200.2238],[-63.4289,-15.8451,203.0929],[-63.4162,-15.8529,200.551],[-63.4145,-15.8519,200.551],[-63.4121,-15.8438,199.0128],[-63.4096,-15.8419,197.6272],[-63.4049,-15.8432,195.4189],[-63.3998,-15.8472,201.2296],[-63.3994,-15.8509,196.9675],[-63.4079,-15.8481,195.36],[-63.4105,-15.8583,197.2683],[-63.394,-15.8548,195.2849],[-63.3884,-15.8589,193.3571],[-63.3868,-15.8569,194.9232],[-63.3856,-15.8614,194.7671],[-63.3894,-15.8633,192.6583],[-63.3839,-15.8659,196.4022],[-63.3868,-15.8683,199.1042],[-63.3895,-15.8746,195.229],[-63.3819,-15.8805,197.4216],[-63.3806,-15.8839,196.9783],[-64.487,-15.8251,182.2975],[-64.7271,-15.802,170.558],[-64.7297,-15.802,165.4082],[-64.729,-15.8139,163.915],[-64.7304,-15.8199,162.8537],[-64.7332,-15.8257,164.8454],[-64.7432,-15.838,163.0],[-64.745,-15.8521,163.0],[-64.7513,-15.8639,167.1141],[-64.7505,-15.8691,163.0],[-64.7463,-15.8723,163.0],[-64.7327,-15.8767,163.9073],[-64.7284,-15.8823,166.5759],[-64.723,-15.8968,163.0],[-64.7252,-15.9019,163.0],[-64.7292,-15.9031,163.0],[-64.74,-15.8922,170.3041],[-64.7459,-15.8912,169.6023],[-64.7466,-15.8971,163.0],[-64.7326,-15.9082,169.1303],[-64.7304,-15.9113,169.2991],[-64.7297,-15.9177,169.5368],[-64.7304,-15.9202,163.5],[-64.7349,-15.9226,163.5],[-64.7456,-15.9221,167.5822],[-64.7508,-15.9259,163.75],[-64.7554,-15.9421,164.0],[-64.7559,-15.9515,164.0],[-64.7537,-15.9531,167.8061],[-64.7331,-15.9488,165.2728],[-64.7268,-15.9512,164.5],[-64.7261,-15.9556,165.0],[-64.7329,-15.9705,165.0],[-64.7417,-15.9794,165.5],[-64.74,-15.9816,168.0376],[-64.7288,-15.9817,166.4134],[-64.7246,-15.9796,165.5],[-64.7241,-15.9685,166.0],[-64.7199,-15.963,169.0429],[-64.7136,-15.9631,169.7345],[-64.7095,-15.9675,166.0],[-64.711,-15.9777,167.0859],[-64.7316,-15.9932,167.0],[-64.7336,-15.9961,168.1202],[-64.7341,-16.0027,167.959],[-64.731,-16.0062,167.0],[-64.7175,-16.0014,168.404],[-64.7087,-16.0009,169.4285],[-64.7024,-16.0046,167.5],[-64.7009,-16.007,168.5423],[-64.7015,-16.0116,167.5],[-64.7057,-16.0125,167.5],[-64.7158,-16.0087,167.5],[-64.7232,-16.0095,169.7051],[-64.7267,-16.0122,173.0273],[-64.7305,-16.0189,171.8748],[-64.7327,-16.0345,168.0],[-64.7316,-16.0369,171.4056],[-64.7268,-16.0391,168.0],[-64.7237,-16.0386,168.0],[-64.7195,-16.0341,168.0],[-64.7204,-16.0284,168.0],[-64.7259,-16.0216,170.224],[-64.7233,-16.0172,168.3888],[-64.7193,-16.0185,171.0509],[-64.7143,-16.0242,168.0],[-64.7025,-16.0287,168.0],[-64.702,-16.0349,172.4023],[-64.7156,-16.0576,168.0],[-64.7155,-16.0607,169.8138],[-64.7118,-16.064,168.8508],[-64.7069,-16.0636,172.0949],[-64.699,-16.0537,170.3252],[-64.6932,-16.0542,173.509],[-64.6951,-16.0683,177.1524],[-64.6899,-16.0786,174.0745],[-64.6929,-16.0847,176.5678],[-64.6973,-16.0865,168.5],[-64.6994,-16.0856,169.2838],[-64.7015,-16.0824,172.0652],[-64.7005,-16.0761,177.9701],[-64.7025,-16.0698,173.9076],[-64.708,-16.0664,172.024],[-64.7116,-16.066,169.1843],[-64.7189,-16.069,169.7029],[-64.7276,-16.0797,169.7878],[-64.7256,-16.0819,169.6958],[-64.7151,-16.0823,170.548],[-64.7079,-16.0889,172.1941],[-64.698,-16.0879,168.5],[-64.6919,-16.0901,172.6158],[-64.6884,-16.0942,175.4043],[-64.6887,-16.0981,170.9101],[-64.6968,-16.1021,173.0548],[-64.6997,-16.1065,170.0126],[-64.6978,-16.1109,170.0422],[-64.6888,-16.1164,169.0],[-64.6864,-16.1165,170.4948],[-64.6829,-16.1138,167.9222],[-64.6822,-16.1034,168.4886],[-64.6779,-16.0987,167.5],[-64.6678,-16.0943,175.482],[-64.6634,-16.0971,173.3896],[-64.6693,-16.1066,169.0234],[-64.6717,-16.1152,168.5],[-64.6749,-16.1184,174.5866],[-64.6827,-16.1215,176.435],[-64.6845,-16.1245,170.9769],[-64.6835,-16.1286,169.52],[-64.6737,-16.1373,172.13],[-64.6724,-16.1419,169.5],[-64.6739,-16.1538,169.5],[-64.6819,-16.1699,169.9206],[-64.6817,-16.1814,170.0],[-64.6842,-16.1848,170.0],[-64.6877,-16.1862,173.1901],[-64.6918,-16.1841,176.5092],[-64.6936,-16.1806,171.1498],[-64.6909,-16.1705,170.5],[-64.6946,-16.1691,177.2041],[-64.6988,-16.1758,172.8362],[-64.7081,-16.1838,170.5],[-64.7066,-16.1898,172.8886],[-64.7037,-16.1918,170.5],[-64.6833,-16.2013,173.4479],[-64.6715,-16.2049,171.0],[-64.67,-16.2084,174.2281],[-64.6721,-16.2236,172.0461],[-64.6774,-16.2356,171.9447],[-64.6745,-16.2398,177.7753],[-64.6659,-16.2418,174.9541],[-64.6663,-16.2502,176.7055],[-64.6648,-16.2568,174.1032],[-64.6734,-16.2611,172.0],[-64.6841,-16.2734,174.2402],[-64.6932,-16.2855,176.1836],[-64.6937,-16.2912,180.9582],[-64.6916,-16.2947,172.5],[-64.6876,-16.2955,172.5],[-64.6808,-16.2879,172.5],[-64.6748,-16.2858,172.5],[-64.658,-16.2876,173.0],[-64.6525,-16.2896,179.7561],[-64.6472,-16.2948,177.1236],[-64.6474,-16.2988,173.0],[-64.674,-16.3099,173.0],[-64.6784,-16.3145,184.1049],[-64.6803,-16.3213,173.5],[-64.6777,-16.3243,173.5],[-64.6721,-16.3244,173.5],[-64.656,-16.3163,181.8258],[-64.6509,-16.3151,175.1016],[-64.6463,-16.3164,175.3722],[-64.644,-16.3208,179.2059],[-64.6453,-16.3257,179.6857],[-64.6481,-16.3288,173.5],[-64.6583,-16.3304,174.9288],[-64.6652,-16.3364,174.4625],[-64.6668,-16.3414,174.0],[-64.6657,-16.3579,174.0],[-64.6735,-16.3651,174.8505],[-64.6768,-16.3631,174.4812],[-64.6791,-16.3536,174.8959],[-64.6847,-16.3494,174.0],[-64.7015,-16.3426,174.0],[-64.7059,-16.3429,174.0],[-64.7088,-16.3464,181.8566],[-64.7088,-16.3509,183.4122],[-64.706,-16.355,174.0],[-64.7009,-16.3568,174.0],[-64.692,-16.3563,181.865],[-64.6867,-16.3597,182.0608],[-64.6872,-16.3648,178.5096],[-64.6932,-16.3678,174.0],[-64.6961,-16.3735,176.2438],[-64.6957,-16.3764,176.7234],[-64.6927,-16.3788,176.2368],[-64.6855,-16.3788,174.0],[-64.6645,-16.3711,174.7607],[-64.6599,-16.3718,177.7],[-64.6563,-16.3748,174.0],[-64.6565,-16.3781,175.8332],[-64.6794,-16.408,174.5],[-64.6832,-16.4108,174.5],[-64.6961,-16.4141,180.9925],[-64.6989,-16.4176,178.034],[-64.6985,-16.4217,176.0107],[-64.6952,-16.425,174.5],[-64.6814,-16.4267,180.7469],[-64.6767,-16.4316,175.0],[-64.6784,-16.4361,178.664],[-64.6869,-16.4423,175.0],[-64.6876,-16.4466,175.0],[-64.6856,-16.4523,175.0],[-64.6759,-16.4643,175.0],[-64.6733,-16.474,175.0],[-64.6775,-16.4787,177.841],[-64.6821,-16.4791,177.0753],[-64.692,-16.4708,179.6354],[-64.7026,-16.4685,176.7718],[-64.709,-16.4718,175.0],[-64.7111,-16.4747,176.8071],[-64.7125,-16.4823,181.1139],[-64.7099,-16.4861,182.0024],[-64.7048,-16.4862,178.0882],[-64.6974,-16.4809,175.0],[-64.6918,-16.4798,184.0217],[-64.6884,-16.4824,183.2503],[-64.6879,-16.485,175.0],[-64.6929,-16.4901,175.5],[-64.7084,-16.4934,176.2345],[-64.7112,-16.4958,178.0522],[-64.7115,-16.5026,175.5],[-64.7026,-16.5108,181.5003],[-64.7014,-16.5161,176.0],[-64.7063,-16.5317,176.0],[-64.7112,-16.5363,183.8998],[-64.7207,-16.5354,178.0349],[-64.7264,-16.5293,176.5],[-64.7264,-16.5262,176.5],[-64.7186,-16.5144,177.0],[-64.7199,-16.5095,180.03809999999999],[-64.7228,-16.5078,177.0],[-64.7396,-16.5053,177.5],[-64.746,-16.507,182.3725],[-64.7508,-16.5126,180.8741],[-64.7503,-16.5178,177.5],[-64.7418,-16.5253,184.8336],[-64.7401,-16.534,186.3456],[-64.7426,-16.5385,182.8135],[-64.7574,-16.5446,180.8465],[-64.7612,-16.5511,182.683],[-64.7593,-16.5538,181.7284],[-64.7538,-16.5535,179.6278],[-64.7502,-16.5558,179.0],[-64.7472,-16.5821,179.5],[-64.7486,-16.5901,179.5],[-64.7505,-16.5934,180.0],[-64.765,-16.6049,180.0],[-64.7783,-16.6106,181.3049],[-64.7811,-16.6132,180.5],[-64.7905,-16.6312,188.2008],[-64.7872,-16.6363,181.0],[-64.7722,-16.6374,186.7704],[-64.7575,-16.6526,181.5],[-64.7553,-16.6574,187.1084],[-64.7584,-16.6687,194.7556],[-64.758,-16.6789,186.025],[-64.759,-16.6817,182.659],[-64.7635,-16.6856,182.0],[-64.7685,-16.6867,182.0],[-64.7725,-16.6849,182.7782],[-64.7735,-16.6806,182.0],[-64.767,-16.6646,182.5],[-64.7676,-16.6584,184.866],[-64.7732,-16.6539,183.1289],[-64.7798,-16.6561,183.532],[-64.7834,-16.6612,188.3611],[-64.7842,-16.6785,183.0],[-64.7875,-16.6857,184.0897],[-64.7928,-16.6905,183.5],[-64.8071,-16.6951,187.1088],[-64.8101,-16.7,184.0],[-64.8093,-16.7074,191.6102],[-64.8065,-16.7115,184.0],[-64.8005,-16.7149,185.5756],[-64.7901,-16.7156,184.5],[-64.7825,-16.7215,184.5],[-64.78,-16.7299,184.5],[-64.7836,-16.7445,192.6303],[-64.7877,-16.7488,190.1686],[-64.7926,-16.75,187.6219],[-64.7971,-16.747,187.9157],[-64.8,-16.739,185.0],[-64.8039,-16.7352,185.0],[-64.8144,-16.7316,185.5],[-64.8245,-16.7252,186.3148],[-64.8318,-16.7251,185.5],[-64.8403,-16.7341,186.0],[-64.8424,-16.7404,193.0095],[-64.841,-16.7456,186.0],[-64.8342,-16.7494,186.0],[-64.8299,-16.7563,186.6116],[-64.8297,-16.7608,186.5],[-64.8357,-16.7731,189.234],[-64.8342,-16.775,188.3801],[-64.8306,-16.7757,188.5431],[-64.8185,-16.767,196.2905],[-64.8074,-16.7625,185.0],[-64.8017,-16.7624,185.0],[-64.7964,-16.7644,188.1319],[-64.794,-16.7683,188.0704],[-64.7969,-16.7737,185.2357],[-64.8017,-16.7744,189.4824],[-64.8083,-16.7682,190.4209],[-64.8123,-16.7672,190.7855],[-64.8161,-16.7693,190.7006],[-64.8166,-16.7715,190.5421],[-64.8154,-16.7759,192.5676],[-64.8086,-16.7801,189.2333],[-64.8045,-16.7852,187.0],[-64.8041,-16.792,188.1595],[-64.8017,-16.797,187.381],[-64.7977,-16.798,191.3645],[-64.7886,-16.796,187.7209],[-64.7814,-16.8003,187.6569],[-64.7789,-16.805,192.9412],[-64.7805,-16.8127,187.5],[-64.7902,-16.8185,193.9949],[-64.7926,-16.8242,187.5],[-64.7894,-16.8447,188.4062],[-64.7778,-16.8531,192.7464],[-64.7693,-16.8615,188.3637],[-64.7669,-16.8608,193.614],[-64.7633,-16.8548,202.84],[-64.759,-16.8522,188.0],[-64.7537,-16.8531,194.4288],[-64.7451,-16.8516,201.6463],[-64.7396,-16.8551,195.6868],[-64.7419,-16.861,200.4232],[-64.7661,-16.8663,212.313],[-64.7691,-16.8679,188.0],[-64.7704,-16.8731,196.7031],[-64.7651,-16.8774,190.7177],[-64.7606,-16.8772,188.5],[-64.7548,-16.8745,191.9988],[-64.7447,-16.8661,188.5],[-64.7418,-16.8656,192.4908],[-64.737,-16.8681,191.14],[-64.7364,-16.8715,190.7372],[-64.7385,-16.8777,192.3125],[-64.7476,-16.8831,200.5878],[-64.7583,-16.8862,198.9855],[-64.7608,-16.8907,189.7734],[-64.7568,-16.8968,196.2146],[-64.7515,-16.8979,195.8224],[-64.7438,-16.8942,193.1939],[-64.7405,-16.8865,196.5746],[-64.7346,-16.8861,194.3844],[-64.7322,-16.8881,196.0887],[-64.7288,-16.8934,200.1652],[-64.7281,-16.8994,194.1413],[-64.7326,-16.9024,190.1809],[-64.7382,-16.9022,191.8534],[-64.7443,-16.9045,193.7133],[-64.7502,-16.9119,190.41],[-64.75,-16.9174,189.0],[-64.7484,-16.919,190.1001],[-64.7421,-16.9195,204.2739],[-64.7355,-16.9138,190.9052],[-64.7319,-16.9146,202.4889],[-64.7217,-16.9209,197.4119],[-64.7203,-16.9264,192.1862],[-64.7233,-16.9299,190.2923],[-64.7264,-16.9295,199.8558],[-64.7318,-16.9237,200.3792],[-64.7364,-16.9234,199.0352],[-64.7394,-16.9278,211.8693],[-64.7349,-16.9322,189.5],[-64.7348,-16.938,191.148],[-64.7394,-16.941,195.9226],[-64.7467,-16.9397,192.9165],[-64.7467,-16.9423,194.8442],[-64.7394,-16.9464,198.9726],[-64.7356,-16.952,191.9318],[-64.7294,-16.9544,196.4578],[-64.7232,-16.9517,190.0],[-64.7159,-16.9424,191.9996],[-64.7133,-16.9419,195.9575],[-64.7102,-16.9438,191.8147],[-64.7087,-16.946,197.0422],[-64.7093,-16.9531,197.9688],[-64.7172,-16.9592,194.6213],[-64.7188,-16.9624,195.6835],[-64.7172,-16.9674,193.4427],[-64.712,-16.9714,193.3888],[-64.7094,-16.9721,196.5675],[-64.7048,-16.9702,198.7931],[-64.704,-16.9673,198.9526],[-64.7074,-16.9564,196.2728],[-64.7039,-16.9525,190.5],[-64.6981,-16.9538,193.5161],[-64.6907,-16.9606,193.1033],[-64.6745,-16.9707,195.3119],[-64.6733,-16.9765,191.0],[-64.6769,-16.9792,196.9107],[-64.6804,-16.9772,195.1017],[-64.6835,-16.9703,191.5],[-64.6856,-16.9689,193.5202],[-64.6897,-16.9695,195.0474],[-64.6927,-16.98,199.9872],[-64.6979,-16.9834,200.4012],[-64.7079,-16.9863,204.9247],[-64.7099,-16.9912,192.0744],[-64.7074,-17.0016,194.5337],[-64.7046,-17.003,198.0766],[-64.7007,-17.0024,197.083],[-64.6954,-16.9986,199.8044],[-64.6982,-16.9879,200.384],[-64.6963,-16.9855,202.2307],[-64.6906,-16.9836,191.5],[-64.682,-16.9855,195.733],[-64.6756,-16.9895,200.4582],[-64.6719,-16.9943,200.6764],[-64.672,-16.9969,202.4336],[-64.6753,-17.0001,192.0],[-64.6805,-16.999,195.2855],[-64.6854,-16.9954,199.4457],[-64.69,-16.9965,203.9805],[-64.6914,-17.0004,193.1502],[-64.6897,-17.0086,194.4486],[-64.6911,-17.0145,197.7121],[-64.6875,-17.0192,196.4235],[-64.6803,-17.0182,195.9831],[-64.6728,-17.0129,194.4845],[-64.6641,-17.0158,205.0025],[-64.6625,-17.0126,195.55],[-64.6661,-17.0067,201.9112],[-64.6645,-17.0028,203.4977],[-64.662,-17.0019,203.9343],[-64.6592,-17.0021,207.6675],[-64.6511,-17.0085,196.7552],[-64.6443,-17.0081,200.4016],[-64.6376,-17.0051,196.3047],[-64.629,-17.0049,208.1712],[-64.6267,-17.0084,208.1864],[-64.6284,-17.0125,195.5967],[-64.6385,-17.0169,204.3027],[-64.6401,-17.0196,204.2079],[-64.6416,-17.0314,201.0361],[-64.6393,-17.0372,198.4037],[-64.6343,-17.0391,200.2145],[-64.6257,-17.0358,201.0496],[-64.6246,-17.0316,204.3458],[-64.6276,-17.028,206.9688],[-64.6289,-17.0228,211.1435],[-64.6259,-17.0179,207.1722],[-64.6195,-17.0145,197.2374],[-64.6175,-17.0152,204.4794],[-64.6159,-17.019,203.7204],[-64.6206,-17.0282,204.4935],[-64.6198,-17.0335,203.2971],[-64.6176,-17.0353,204.7937],[-64.6129,-17.0349,204.2525],[-64.6099,-17.028,211.1495],[-64.604,-17.0258,202.5693],[-64.5938,-17.0308,200.5891],[-64.5872,-17.0363,202.2505],[-64.5881,-17.0415,202.0263],[-64.5898,-17.0423,204.7243],[-64.5926,-17.0422,201.3057],[-64.5988,-17.0376,209.996],[-64.6058,-17.0352,206.028],[-64.6085,-17.035,206.6538],[-64.6116,-17.0378,207.5953],[-64.611,-17.0424,206.5466],[-64.5988,-17.0467,198.9276],[-64.5927,-17.0538,206.6043],[-64.5878,-17.0539,199.566],[-64.5825,-17.0413,201.7083],[-64.5748,-17.0331,213.6841],[-64.5699,-17.0325,198.3426],[-64.5647,-17.0357,203.4069],[-64.5644,-17.0402,207.8874],[-64.5728,-17.0487,210.7682],[-64.5791,-17.0514,212.8993],[-64.5809,-17.0561,213.83],[-64.5775,-17.0602,198.0],[-64.5684,-17.0579,200.567],[-64.5658,-17.0587,200.4765],[-64.5601,-17.0657,205.4659],[-64.5533,-17.0702,208.0106],[-64.5491,-17.0678,204.9511],[-64.5499,-17.0583,214.8833],[-64.5469,-17.0553,201.8562],[-64.5442,-17.0548,203.8862],[-64.5352,-17.0574,201.5],[-64.5188,-17.0568,209.5779],[-64.5157,-17.0604,214.1261],[-64.5171,-17.0643,203.3357],[-64.5279,-17.0641,221.7194],[-64.5344,-17.0721,202.0],[-64.5431,-17.0742,206.9251],[-64.5471,-17.0792,217.2755],[-64.5497,-17.0873,212.1609],[-64.5478,-17.0896,214.6622],[-64.5363,-17.0893,210.2964],[-64.5191,-17.099,204.5],[-64.508,-17.0906,212.9335],[-64.5042,-17.0897,213.44],[-64.5003,-17.0909,225.2127],[-64.4979,-17.1029,206.4428],[-64.4807,-17.114,209.1516],[-64.477,-17.1181,212.9566],[-64.4782,-17.123,209.6304],[-64.4882,-17.1268,213.4546],[-64.4896,-17.1313,207.0],[-64.487,-17.1354,207.125],[-64.4767,-17.1383,207.625],[-64.4695,-17.1336,208.0],[-64.4642,-17.1327,215.2647],[-64.4604,-17.1349,210.8605],[-64.4574,-17.1405,215.4182],[-64.4512,-17.1419,213.7656],[-64.4479,-17.1402,210.5],[-64.4402,-17.1307,211.5],[-64.4354,-17.13,216.5924],[-64.4316,-17.133,212.125],[-64.4303,-17.1375,212.5],[-64.4353,-17.1476,223.0421],[-64.4353,-17.1543,214.5918],[-64.4326,-17.1585,222.8161],[-64.4284,-17.1594,216.1891],[-64.4251,-17.1555,228.8756],[-64.4241,-17.1414,218.3005],[-64.4195,-17.1409,213.5],[-64.4138,-17.1503,220.2805],[-64.4107,-17.1514,226.2019],[-64.4068,-17.1489,214.0],[-64.4023,-17.14,219.4333],[-64.3985,-17.1387,219.9779],[-64.3946,-17.1407,222.4363],[-64.3909,-17.1449,218.9368],[-64.3916,-17.1491,221.2365],[-64.4046,-17.1503,222.4243],[-64.4073,-17.1517,216.577],[-64.4103,-17.1563,228.4957],[-64.4094,-17.1607,223.57],[-64.4049,-17.163,220.7931],[-64.4007,-17.1606,219.7586],[-64.3948,-17.1535,218.9452],[-64.3877,-17.1559,231.2246],[-64.387,-17.1653,215.5],[-64.3988,-17.1691,219.1825],[-64.4001,-17.1727,224.8622],[-64.3984,-17.1765,218.6371],[-64.3851,-17.1744,216.9239],[-64.3753,-17.1895,224.3565],[-64.3643,-17.1841,223.4961],[-64.3593,-17.1847,218.5],[-64.3573,-17.1871,218.5],[-64.3564,-17.1925,219.8132],[-64.3588,-17.198,228.4921],[-64.3728,-17.1971,230.8365],[-64.3749,-17.1998,231.5657],[-64.375,-17.2016,230.0196],[-64.3683,-17.2088,227.6822],[-64.3661,-17.2156,231.1835],[-64.3714,-17.2265,234.7758],[-64.3712,-17.2299,229.6523],[-64.3564,-17.2311,228.5281],[-64.3532,-17.2299,228.9713],[-64.355,-17.2207,232.9105],[-64.3529,-17.214,231.7057],[-64.3362,-17.208,224.5743],[-64.3329,-17.2142,223.5],[-64.3369,-17.2245,225.3052],[-64.3361,-17.2318,230.8268],[-64.3325,-17.2343,228.8074],[-64.3232,-17.2368,229.7832],[-64.3211,-17.2408,230.6211],[-64.3253,-17.2445,225.0],[-64.3338,-17.2432,231.7539],[-64.3373,-17.2445,228.0993],[-64.34,-17.2516,229.2661],[-64.3402,-17.2638,230.8235],[-64.3369,-17.265,231.7531],[-64.3304,-17.2622,229.5912],[-64.3154,-17.2648,231.0571],[-64.3125,-17.2678,233.4429],[-64.3115,-17.2744,232.2816],[-64.3045,-17.2779,232.2591],[-64.3013,-17.2765,235.2686],[-64.3016,-17.2722,230.5],[-64.3113,-17.2649,233.5818],[-64.3122,-17.2619,233.7366],[-64.3105,-17.2587,233.022],[-64.3056,-17.2574,236.7297],[-64.2955,-17.2633,229.5963],[-64.2838,-17.2647,236.5731],[-64.2822,-17.2685,231.3165],[-64.2849,-17.2758,236.7487],[-64.2844,-17.281,237.5395],[-64.2813,-17.2844,237.561],[-64.2749,-17.2851,231.4882],[-64.2787,-17.2908,238.1665],[-64.2745,-17.2911,237.0634],[-64.2709,-17.2944,242.3825],[-64.2669,-17.2924,242.3572],[-64.2652,-17.2939,239.7508],[-64.2661,-17.2974,249.7886],[-64.2646,-17.2995,251.899],[-64.2617,-17.2994,247.7042],[-64.2608,-17.2967,248.345],[-64.2582,-17.296,244.6136],[-64.2473,-17.302,259.0143],[-64.2461,-17.3048,254.2179],[-64.2485,-17.307,257.1989],[-64.246,-17.3103,254.614],[-64.2453,-17.3178,266.5922],[-64.239,-17.3184,254.0089],[-64.2415,-17.3221,256.9074],[-64.2412,-17.3257,262.0132],[-64.2451,-17.3311,263.1207],[-64.2415,-17.3357,265.3705],[-64.2409,-17.3432,271.2763],[-64.2366,-17.3499,278.5106],[-64.2391,-17.3606,287.6442],[-64.2366,-17.3624,286.1158],[-64.2378,-17.3669,282.2754],[-64.2341,-17.3737,281.2933],[-64.2427,-17.3992,292.7249],[-64.2538,-17.4031,324.3688],[-64.2537,-17.4055,334.6375],[-64.2489,-17.4114,312.8168],[-64.2529,-17.4126,340.7284],[-64.2537,-17.4164,468.0161],[-64.2581,-17.4171,322.5399],[-64.254,-17.4231,356.6138],[-64.255,-17.4265,313.2078],[-64.2606,-17.423,316.0417],[-64.2691,-17.4253,319.5714],[-64.2752,-17.4233,323.1158],[-64.2819,-17.4252,328.0138],[-64.2956,-17.4368,346.8874],[-64.3062,-17.4374,349.8252],[-64.3136,-17.4335,352.7084],[-64.316,-17.4273,361.5628],[-64.3238,-17.4221,367.9892],[-64.3335,-17.4226,376.3667],[-64.3354,-17.4264,384.3445],[-64.3402,-17.428,382.5623],[-64.3491,-17.4235,391.9892],[-64.3527,-17.4293,403.4619],[-64.3528,-17.4343,440.4774],[-64.355,-17.4376,445.1525],[-64.3568,-17.4384,460.3062],[-64.3584,-17.4337,488.3672],[-64.3595,-17.4379,468.5945],[-64.3622,-17.4396,475.5258],[-64.3617,-17.4418,479.125],[-64.3574,-17.4416,426.5556],[-64.3575,-17.4446,466.9458],[-64.3659,-17.4435,440.455],[-64.3675,-17.4455,441.2426],[-64.3705,-17.4455,441.9033],[-64.3726,-17.4532,458.2217],[-64.3765,-17.4534,453.6816],[-64.3839,-17.4571,464.7646],[-64.3909,-17.4556,463.9388],[-64.3972,-17.4511,509.7629],[-64.3987,-17.451,478.9398],[-64.4008,-17.4538,500.0568],[-64.4058,-17.4533,500.2725],[-64.4051,-17.4575,500.5167],[-64.3999,-17.4635,525.677],[-64.4015,-17.467,548.1987],[-64.4054,-17.4672,545.4488],[-64.4064,-17.4715,550.0216],[-64.4058,-17.4776,557.38],[-64.4036,-17.4796,565.7727],[-64.4012,-17.4873,570.2414],[-64.4006,-17.4939,591.043],[-64.403,-17.4961,615.043],[-64.4059,-17.4952,627.1843],[-64.4068,-17.4975,634.4042],[-64.4087,-17.4976,664.3113],[-64.4091,-17.5028,676.2001],[-64.411,-17.5038,650.3757],[-64.4094,-17.5061,689.6608],[-64.4106,-17.5089,671.8761],[-64.4089,-17.5159,708.7218],[-64.4112,-17.5187,723.0663],[-64.4276,-17.5235,826.0317],[-64.4281,-17.528,872.0054],[-64.4235,-17.535,1012.2092],[-64.4238,-17.5366,1052.9456],[-64.4298,-17.5397,1259.4567],[-64.4294,-17.5486,1443.7854],[-64.4323,-17.56,1731.4594],[-64.4667,-17.5636,937.9319],[-64.4742,-17.559,922.728],[-64.4781,-17.5596,866.7194],[-64.481,-17.5576,874.9514],[-64.4894,-17.56,865.0174],[-64.4956,-17.5533,857.736],[-64.4992,-17.5548,824.2275],[-64.5087,-17.5484,790.7621],[-64.5141,-17.5433,754.0775],[-64.5149,-17.5381,764.9937],[-64.5198,-17.534,758.1311],[-64.5221,-17.5404,771.1422],[-64.5258,-17.5403,822.7902],[-64.5322,-17.5481,924.7394],[-64.5437,-17.5535,996.4499],[-64.5461,-17.5607,1126.7554],[-64.5502,-17.5658,1224.1422],[-64.5621,-17.5637,1103.0812],[-64.5846,-17.5564,965.4568],[-64.6025,-17.5574,832.9915],[-64.603,-17.5648,834.091],[-64.5997,-17.5727,1031.2429],[-64.5986,-17.5902,841.675],[-64.5941,-17.593,859.7329],[-64.592,-17.5977,882.5176],[-64.5884,-17.6006,905.4613],[-64.5922,-17.6069,993.7703],[-64.5911,-17.6135,985.5629],[-64.5921,-17.619,989.4247],[-64.5974,-17.6347,991.1862],[-64.6019,-17.6362,971.2608],[-64.6016,-17.6408,978.4959],[-64.6141,-17.651,1008.6315],[-64.6143,-17.6587,1033.6718],[-64.6165,-17.664,1056.2384],[-64.6211,-17.6629,1080.8114],[-64.6246,-17.6589,1118.2585],[-64.6275,-17.659,1150.5657],[-64.6295,-17.6663,1254.288],[-64.6333,-17.6698,1279.6542],[-64.6356,-17.6698,1225.7321],[-64.6387,-17.6752,1263.2791],[-64.6409,-17.6758,1242.4083],[-64.6403,-17.6791,1316.5331],[-64.6423,-17.6807,1249.259],[-64.6398,-17.6953,1278.3516],[-64.6402,-17.7009,1308.8656],[-64.6419,-17.7036,1292.4863],[-64.6393,-17.705,1329.7382],[-64.6398,-17.7082,1332.3408],[-64.6485,-17.7089,1341.3069],[-64.652,-17.7144,1358.7811],[-64.6589,-17.7166,1332.696],[-64.6705,-17.714,1361.6659],[-64.6744,-17.7162,1370.2744],[-64.6822,-17.7162,1396.0419],[-64.6878,-17.7187,1406.5476],[-64.699,-17.7154,1437.4814],[-64.7019,-17.7161,1440.5885],[-64.7048,-17.7176,1567.6769],[-64.7052,-17.7225,1655.0361],[-64.7133,-17.7316,1810.6118],[-64.7294,-17.7335,1800.8831],[-64.7324,-17.7357,1793.9192],[-64.74,-17.7374,1817.1426],[-64.7463,-17.736,1847.4269],[-64.7513,-17.7425,1866.3096],[-64.7528,-17.7472,1898.2845],[-64.7562,-17.7501,1958.3331],[-64.7633,-17.7749,2362.4104],[-64.7747,-17.8075,2901.5439],[-64.7777,-17.8116,2718.855],[-64.7743,-17.8156,2849.6807],[-64.774,-17.8211,2876.4402],[-64.7773,-17.8262,2943.3872],[-64.7776,-17.8298,2977.21],[-64.7915,-17.8445,3178.4656],[-64.8064,-17.8931,2318.1851],[-64.8024,-17.8975,2274.1519],[-64.7954,-17.916,2305.6934],[-64.7866,-17.9333,2323.3784],[-64.8106,-17.9447,1612.413],[-64.8074,-17.9469,1615.4041],[-64.8041,-17.9532,1615.2626],[-64.7995,-17.9578,1580.7468],[-64.7988,-17.9637,1575.0265],[-64.7961,-17.9681,1592.1627],[-64.7864,-17.9747,1561.3562],[-64.7851,-17.979,1562.1429],[-64.7826,-17.9796,1557.9469],[-64.7833,-17.9818,1593.7009],[-64.78,-17.9789,1538.4025],[-64.7772,-17.9813,1536.7177],[-64.7744,-17.9772,1773.4048],[-64.7707,-17.9821,1657.4956],[-64.7663,-17.9849,1556.3317],[-64.7668,-17.9898,1545.839],[-64.7633,-18.0015,1514.6714],[-64.7536,-18.015,1487.2064],[-64.7503,-18.0169,1491.3634],[-64.7471,-18.0273,1488.6968],[-64.7369,-18.0393,1494.8845],[-64.7345,-18.038,1464.855],[-64.7254,-18.0406,1452.7523],[-64.7202,-18.0438,1459.3704],[-64.7166,-18.0428,1498.1321],[-64.7156,-18.0569,1439.7759],[-64.7192,-18.061,1425.7927],[-64.7144,-18.0661,1437.2726],[-64.7156,-18.0723,1432.4167],[-64.7143,-18.0736,1415.4414],[-64.7134,-18.0719,1418.8138],[-64.7113,-18.073,1418.2317],[-64.7114,-18.0781,1413.6439],[-64.7097,-18.0814,1419.7025],[-64.7064,-18.085,1403.4818],[-64.7012,-18.0872,1412.5106],[-64.6976,-18.0926,1401.3462],[-64.6935,-18.094,1435.6743],[-64.6919,-18.0988,1403.4817],[-64.6825,-18.0988,1407.3105],[-64.6793,-18.1014,1403.7051],[-64.6698,-18.1004,1391.856],[-64.6661,-18.1045,1384.1246],[-64.6615,-18.1042,1382.3882],[-64.6546,-18.1005,1384.3513],[-64.6447,-18.1029,1374.3129],[-64.6434,-18.1004,1371.5176],[-64.6389,-18.0991,1365.9646],[-64.635,-18.0959,1425.384],[-64.6264,-18.0966,1390.6887],[-64.6236,-18.0944,1385.4054],[-64.6206,-18.0964,1383.6233],[-64.6157,-18.0934,1365.1172],[-64.6112,-18.0962,1397.9231],[-64.6104,-18.1037,1360.6355],[-64.6067,-18.1044,1348.625],[-64.6041,-18.1093,1346.0641],[-64.5963,-18.1084,1341.6244],[-64.5826,-18.1149,1334.8416],[-64.5789,-18.1149,1332.3958],[-64.5732,-18.1209,1329.9564],[-64.5603,-18.1248,1324.3818],[-64.5584,-18.13,1321.9399],[-64.556,-18.132,1321.7655],[-64.5497,-18.1358,1317.5923],[-64.5456,-18.1356,1376.1925],[-64.5429,-18.1386,1314.6711],[-64.5379,-18.1468,1392.7659],[-64.5393,-18.1504,1311.1265],[-64.5374,-18.153,1315.0527],[-64.5297,-18.1552,1312.3788],[-64.5277,-18.1575,1354.5856],[-64.5294,-18.1595,1309.2908],[-64.5222,-18.1604,1320.8242],[-64.5224,-18.1623,1310.4944],[-64.5265,-18.1654,1309.2385],[-64.5196,-18.1723,1308.3245],[-64.5221,-18.176,1304.7345],[-64.5226,-18.1813,1312.7559],[-64.5137,-18.1861,1302.6985],[-64.5117,-18.1855,1304.948],[-64.5081,-18.1893,1337.1769],[-64.5084,-18.1918,1304.3208],[-64.5142,-18.1975,1313.304],[-64.5141,-18.199,1296.4705],[-64.5096,-18.199,1331.1719],[-64.5088,-18.2031,1291.5348],[-64.5036,-18.2053,1301.0562],[-64.4971,-18.2128,1295.2026],[-64.4966,-18.2146,1329.2716],[-64.4991,-18.215699999999998,1304.3142],[-64.5022,-18.2216,1309.8186],[-64.5006,-18.225,1286.6007],[-64.4974,-18.2266,1279.6787],[-64.4996,-18.2324,1278.0488],[-64.4972,-18.2355,1275.6548],[-64.4923,-18.2342,1289.2665],[-64.4943,-18.2371,1272.0184],[-64.4906,-18.2396,1317.6964],[-64.4888,-18.2555,1286.1594],[-64.4848,-18.261,1282.4806],[-64.4817,-18.2609,1299.1467],[-64.4862,-18.2695,1264.2035],[-64.489,-18.27,1292.135],[-64.4889,-18.273,1313.531],[-64.4826,-18.272,1274.8521],[-64.4805,-18.2792,1264.7783],[-64.4835,-18.2841,1261.7443],[-64.4854,-18.2936,1282.6104],[-64.4835,-18.2952,1263.7961],[-64.4729,-18.2955,1290.125],[-64.4732,-18.3008,1257.2538],[-64.4714,-18.3042,1246.9243],[-64.4641,-18.3047,1251.6622],[-64.4637,-18.3061,1306.136],[-64.4665,-18.3096,1272.0431],[-64.4712,-18.3123,1244.9346],[-64.4626,-18.3244,1238.8551],[-64.4615,-18.3233,1256.3552],[-64.4626,-18.321,1256.8416],[-64.461,-18.3195,1303.907],[-64.459,-18.3245,1238.0674],[-64.4526,-18.3231,1234.9769],[-64.4515,-18.3273,1233.2695],[-64.4459,-18.3251,1242.2466],[-64.445,-18.3276,1229.8744],[-64.4392,-18.3291,1250.5264],[-64.4337,-18.3363,1231.2366],[-64.4414,-18.3533,1225.8656],[-64.4454,-18.3559,1220.9817],[-64.4443,-18.3578,1224.0931],[-64.44,-18.3589,1245.3773],[-64.44,-18.3647,1240.5913],[-64.4453,-18.3663,1214.6783],[-64.4484,-18.3735,1213.3914],[-64.4461,-18.3747,1239.0725],[-64.4402,-18.3689,1257.2056],[-64.4362,-18.3722,1206.4441],[-64.4317,-18.373,1214.0269],[-64.4297,-18.3764,1207.9135],[-64.4311,-18.3852,1200.3911],[-64.4293,-18.3922,1203.0039],[-64.4343,-18.4003,1178.9114],[-64.4329,-18.4038,1180.1979],[-64.4296,-18.4053,1201.0516],[-64.4274,-18.4089,1176.2098],[-64.4276,-18.4181,1194.6235],[-64.4214,-18.4233,1183.27],[-64.419,-18.4298,1174.3942],[-64.4166,-18.4306,1232.5071],[-64.4174,-18.4332,1171.7024],[-64.4119,-18.4374,1191.9899],[-64.4105,-18.4427,1158.0715],[-64.4061,-18.4451,1248.3108],[-64.4054,-18.4484,1162.6985],[-64.4026,-18.4507,1142.637],[-64.392,-18.45,1126.6541],[-64.3821,-18.4533,1118.9918],[-64.3811,-18.4572,1117.0586],[-64.3731,-18.4602,1132.1189],[-64.3702,-18.4634,1098.5101],[-64.3642,-18.4641,1104.3434],[-64.3622,-18.4696,1127.6011],[-64.3577,-18.4681,1086.9718],[-64.3499,-18.4747,1092.1597],[-64.344,-18.4741,1076.3394],[-64.3355,-18.476,1156.8921],[-64.3338,-18.4783,1098.4479],[-64.3354,-18.4847,1069.8562],[-64.3281,-18.489,1057.6975],[-64.3251,-18.4974,1050.7209],[-64.3227,-18.4988,1050.0553],[-64.3167,-18.4947,1045.3109],[-64.3102,-18.4972,1040.949],[-64.3072,-18.4946,1051.6565],[-64.3043,-18.4972,1042.4821],[-64.303,-18.5018,1039.5923],[-64.306,-18.5053,1039.4834],[-64.3042,-18.5099,1030.3865],[-64.3043,-18.5183,1039.9498],[-64.3,-18.5181,1026.4668],[-64.2981,-18.52,1036.9336],[-64.3005,-18.5332,1018.6011],[-64.2917,-18.5337,1018.6748],[-64.2894,-18.5361,1018.8583],[-64.2882,-18.5403,1029.8313],[-64.2908,-18.544,1015.1746],[-64.2885,-18.5499,1011.232],[-64.2848,-18.554,1015.8483],[-64.2876,-18.5559,1007.0717],[-64.2914,-18.5514,1035.577],[-64.2938,-18.5557,1004.2201],[-64.2986,-18.5578,1002.0903],[-64.2963,-18.5599,1008.4806],[-64.2929,-18.5596,1011.8854],[-64.2967,-18.5655,997.5604],[-64.2888,-18.5694,996.785],[-64.2872,-18.5742,988.2249],[-64.2876,-18.5806,986.4846],[-64.2923,-18.5845,1023.183],[-64.291,-18.5875,985.6127],[-64.2858,-18.5895,1016.7239],[-64.2844,-18.5946,992.4655],[-64.28,-18.5968,975.2011],[-64.2809,-18.5999,971.345],[-64.2877,-18.606,968.5108],[-64.2902,-18.6152,963.1179],[-64.2932,-18.6155,1005.2656],[-64.2936,-18.6125,957.8483],[-64.2958,-18.6114,963.41],[-64.2982,-18.616,962.6479],[-64.3036,-18.6158,993.1107],[-64.3052,-18.6182,951.7363],[-64.3055,-18.6237,977.425],[-64.3097,-18.6236,945.3784],[-64.3149,-18.6262,944.7059],[-64.3166,-18.6306,941.7061],[-64.3143,-18.6348,938.8729],[-64.3149,-18.6379,937.7981],[-64.3112,-18.6417,935.9734],[-64.31,-18.6458,934.7657],[-64.3134,-18.6464,949.184],[-64.3179,-18.6424,979.9668],[-64.3198,-18.6509,930.3167],[-64.3191,-18.6543,927.929],[-64.3247,-18.6573,943.3316],[-64.3247,-18.6599,982.773],[-64.3292,-18.6655,922.016],[-64.3246,-18.6697,956.7964],[-64.3146,-18.6678,919.74],[-64.3109,-18.6705,917.3411],[-64.3129,-18.6773,913.8479],[-64.3102,-18.6862,912.211],[-64.3096,-18.7018,908.0388],[-64.3123,-18.7153,901.5186],[-64.3198,-18.7267,898.6777],[-64.3175,-18.7387,913.5082],[-64.3094,-18.7498,890.4246],[-64.3111,-18.7522,892.0542],[-64.3164,-18.7542,887.7139],[-64.3176,-18.7567,891.4084],[-64.316,-18.7606,887.3208],[-64.2978,-18.7665,881.0473],[-64.2924,-18.7787,875.9163],[-64.2868,-18.7857,874.202],[-64.2828,-18.8126,865.1161],[-64.2893,-18.8187,861.6228],[-64.2901,-18.8231,859.0829],[-64.2844,-18.8276,858.5375],[-64.2773,-18.8366,862.9189],[-64.2676,-18.8382,852.2082],[-64.2641,-18.8359,892.0958],[-64.2583,-18.8374,866.9422],[-64.2482,-18.8451,853.9429],[-64.2388,-18.86,862.2639],[-64.2331,-18.8589,850.1959],[-64.2288,-18.8652,842.5996],[-64.2242,-18.8685,838.519],[-64.2227,-18.8741,838.0718],[-64.2234,-18.8784,871.4568],[-64.2168,-18.8796,833.2812],[-64.2132,-18.8824,831.3585],[-64.2137,-18.8928,847.1416],[-64.2124,-18.896,837.3959],[-64.2061,-18.9003,825.338],[-64.2,-18.9081,829.6857],[-64.2001,-18.9129,823.9615],[-64.2023,-18.9166,826.0331],[-64.1971,-18.9238,819.4868],[-64.1965,-18.9272,821.4688],[-64.2016,-18.9371,818.2997],[-64.1999,-18.9395,817.3599],[-64.197,-18.9378,825.0233],[-64.1955,-18.9385,865.0177],[-64.1939,-18.9435,841.5961],[-64.1959,-18.9482,815.6299],[-64.1921,-18.9515,809.7936],[-64.1876,-18.952,820.7981],[-64.1846,-18.9612,817.8719],[-64.1759,-18.9579,824.4417],[-64.1719,-18.9664,802.7937],[-64.164,-18.9694,800.326],[-64.1595,-18.9688,798.6931],[-64.1579,-18.9671,804.3244],[-64.1528,-18.9696,827.948],[-64.1453,-18.9669,798.4102],[-64.1406,-18.9689,802.2987],[-64.1304,-18.9643,873.2527],[-64.1226,-18.9685,790.6975],[-64.1197,-18.9722,790.3201],[-64.1111,-18.9707,789.3016],[-64.1063,-18.9735,786.6783],[-64.1033,-18.9734,818.3657],[-64.1012,-18.9764,798.1134],[-64.1002,-18.9862,800.5634],[-64.098,-18.9902,780.9078],[-64.0895,-18.9921,779.9993],[-64.0915,-18.9952,842.0168],[-64.0897,-19.001,797.375],[-64.082,-18.9959,796.7668],[-64.0785,-19.0014,789.6981],[-64.0685,-19.0053,801.7204],[-64.0631,-19.0168,770.7101],[-64.0655,-19.0266,782.6465],[-64.0577,-19.0303,743.9939],[-64.053,-19.0378,767.7922],[-64.0535,-19.0399,787.8635],[-64.058,-19.0421,743.1849],[-64.0551,-19.0463,740.4531],[-64.058,-19.0492,743.9236],[-64.0523,-19.0519,795.2566],[-64.0461,-19.058,823.2126],[-64.0496,-19.0653,719.7874],[-64.0418,-19.0791,750.3517],[-64.0443,-19.0837,711.3187],[-64.0425,-19.0879,710.9125],[-64.0453,-19.0932,722.7323],[-64.0452,-19.0974,714.8392],[-64.0434,-19.0992,704.1506],[-64.0401,-19.0982,706.9529],[-64.0362,-19.0997,713.5275],[-64.0355,-19.1009,810.9178],[-64.0412,-19.1057,705.9675],[-64.0319,-19.1128,693.3182],[-64.0373,-19.1165,711.8898],[-64.0439,-19.1176,689.0538],[-64.0412,-19.1209,694.3044],[-64.0422,-19.1283,706.9236],[-64.0394,-19.1311,688.82],[-64.0319,-19.1328,685.3054],[-64.0298,-19.1487,689.9542],[-64.0281,-19.1503,676.6829],[-64.0238,-19.1502,677.1206],[-64.0218,-19.1533,673.7473],[-64.024,-19.1645,668.1456],[-64.0187,-19.1668,727.8454],[-64.0165,-19.174,661.2655],[-64.0139,-19.1767,677.6697],[-64.0099,-19.1798,676.0062],[-64.0086,-19.1761,750.8902],[-64.0072,-19.1761,750.8902],[-64.0043,-19.1796,711.965],[-64.0006,-19.1795,716.6661],[-63.9948,-19.1821,665.8263],[-63.9782,-19.1787,660.683],[-63.9719,-19.1808,661.1414],[-63.9677,-19.1795,654.9026],[-63.9605,-19.1734,642.1674],[-63.9554,-19.1768,656.7864],[-63.9531,-19.1751,639.7249],[-63.9498,-19.1756,643.0549],[-63.9454,-19.1829,634.9363],[-63.9421,-19.1785,654.3253],[-63.9343,-19.1775,672.2116],[-63.9311,-19.1783,634.6631],[-63.9303,-19.1819,627.6892],[-63.9248,-19.1843,633.8315],[-63.9195,-19.1833,650.9623],[-63.9196,-19.179,626.5415],[-63.9246,-19.1763,620.5632],[-63.9199,-19.1698,624.4836],[-63.9072,-19.1603,621.1082],[-63.908,-19.1557,623.4847],[-63.9132,-19.1528,625.3501],[-63.9087,-19.1332,610.751],[-63.9137,-19.1291,610.7716],[-63.9117,-19.1272,630.8104],[-63.9101,-19.1206,611.5806],[-63.9074,-19.1178,610.9138],[-63.9081,-19.1139,613.8773],[-63.9049,-19.1112,612.6107],[-63.9101,-19.1006,605.2665],[-63.9092,-19.099,616.0853],[-63.9055,-19.0989,645.571],[-63.9043,-19.0956,600.4956],[-63.9107,-19.0882,622.331],[-63.9096,-19.0841,604.6224],[-63.9111,-19.0637,599.0171],[-63.9076,-19.0481,590.5],[-63.9045,-19.0458,600.4494],[-63.8987,-19.0469,592.0142],[-63.8969,-19.0459,642.7301],[-63.898,-19.0422,640.7371],[-63.9043,-19.0366,604.7916],[-63.9017,-19.0317,584.0851],[-63.8952,-19.0355,588.295],[-63.8912,-19.0336,641.1425],[-63.8903,-19.0302,589.3519],[-63.8844,-19.0294,675.4423],[-63.8716,-19.0374,589.1334],[-63.8661,-19.0381,622.5522],[-63.862,-19.0355,581.3471],[-63.8564,-19.037,572.9473],[-63.8477,-19.0366,571.7296],[-63.8452,-19.0399,580.0369],[-63.8419,-19.0411,625.7239],[-63.8389,-19.0496,622.9857],[-63.8327,-19.0512,600.7838],[-63.8305,-19.0494,648.6367],[-63.8232,-19.0493,609.3435],[-63.8141,-19.046,628.9116],[-63.8095,-19.0551,621.6575],[-63.7948,-19.0435,566.7998],[-63.7786,-19.0491,557.9641],[-63.7776,-19.0469,548.5122],[-63.7814,-19.0391,541.6826],[-63.7805,-19.0367,546.6223],[-63.7687,-19.0316,531.9125],[-63.761,-19.0359,530.6423],[-63.7546,-19.0362,542.1573],[-63.7431,-19.0422,526.4753],[-63.7363,-19.0391,527.8803],[-63.7366,-19.032,519.1923],[-63.7306,-19.03,546.3398],[-63.7218,-19.0379,516.4158],[-63.7212,-19.0415,526.0491],[-63.7231,-19.0462,517.2997],[-63.7221,-19.0477,516.3727],[-63.7165,-19.0446,516.8679],[-63.7052,-19.0431,529.7347],[-63.7079,-19.0452,536.4278],[-63.7067,-19.0501,537.3104],[-63.7095,-19.0518,541.0021],[-63.7083,-19.0541,550.1132],[-63.709,-19.0653,571.9411],[-63.7137,-19.0712,589.9471],[-63.7115,-19.0735,569.3528],[-63.711,-19.0767,570.2122],[-63.7154,-19.0852,602.0173],[-63.717,-19.0973,595.9913],[-63.7188,-19.0975,595.9913],[-63.7204,-19.1003,606.9098],[-63.7191,-19.1061,610.6783],[-63.7202,-19.1099,616.7449],[-63.7186,-19.113,657.7507],[-63.7206,-19.1138,624.0139],[-63.7202,-19.1159,627.6201],[-63.7225,-19.1194,640.5036],[-63.7312,-19.1261,659.1759],[-63.7319,-19.1302,743.5061],[-63.7343,-19.1325,838.1977],[-63.7363,-19.1465,1144.5757],[-63.7397,-19.1482,1216.3143],[-63.7438,-19.1592,1330.9696],[-63.7456,-19.175,1299.1215],[-63.7437,-19.1805,1278.9775],[-63.7445,-19.1852,1347.6752],[-63.7356,-19.2034,1401.2253],[-63.7393,-19.2087,1352.4376],[-63.7377,-19.216,1285.438],[-63.728,-19.2271,1292.186],[-63.7228,-19.2433,1239.5254],[-63.7226,-19.2525,1326.3121],[-63.7178,-19.2611,1267.7316],[-63.7145,-19.2721,1241.6396],[-63.7189,-19.2794,1255.6661],[-63.7197,-19.3124,1301.9026],[-63.7179,-19.3168,1302.3558],[-63.7209,-19.3217,1200.9575],[-63.7206,-19.3349,1245.3202],[-63.7253,-19.3399,1208.4462],[-63.7232,-19.3443,1184.8107],[-63.729,-19.3492,1266.7019],[-63.7254,-19.3635,1252.1448],[-63.7201,-19.3655,1234.5365],[-63.7185,-19.3701,1276.8928],[-63.713,-19.3765,1355.1821],[-63.7174,-19.3807,1281.9463],[-63.7245,-19.3931,824.3642],[-63.7182,-19.3981,1160.9847],[-63.7169,-19.4019,1213.7112],[-63.7171,-19.4069,1287.5348],[-63.7209,-19.4173,1308.189],[-63.7183,-19.4221,1359.5568],[-63.7154,-19.4234,1373.6305],[-63.7149,-19.428,1376.5498],[-63.7178,-19.4396,1520.9587],[-63.7061,-19.4693,1458.7365],[-63.708,-19.4735,1460.9921],[-63.7032,-19.4842,1521.2625],[-63.7056,-19.4939,1411.0734],[-63.7045,-19.5029,1379.9536],[-63.7022,-19.5057,1434.6907],[-63.708,-19.5092,1362.1406],[-63.7098,-19.5129,1300.6633],[-63.7072,-19.5281,1253.707],[-63.7105,-19.5362,1233.7312],[-63.7081,-19.5435,1314.8235],[-63.7094,-19.5462,1319.7268],[-63.7115,-19.545,1344.3884],[-63.7116,-19.5482,1311.3533],[-63.7136,-19.5503,1371.4529],[-63.7103,-19.5526,1376.4866],[-63.7119,-19.5561,1424.6077],[-63.7102,-19.5729,1498.8448],[-63.7046,-19.5766,1405.6787],[-63.7022,-19.5867,1465.6296],[-63.6975,-19.5886,1393.0344],[-63.6922,-19.5944,1430.9202],[-63.6936,-19.5954,1467.5541],[-63.6941,-19.6026,1462.3231],[-63.6981,-19.602,1500.9752],[-63.7002,-19.6093,1463.6707],[-63.7055,-19.6136,1477.9307],[-63.7045,-19.6255,1330.9578],[-63.7071,-19.6365,1567.0398],[-63.7014,-19.6451,1542.9312],[-63.7009,-19.6546,1581.318],[-63.7115,-19.6739,1647.9451],[-63.7141,-19.6849,1716.9639],[-63.7141,-19.6914,1589.4901],[-63.717,-19.7001,1532.588],[-63.7179,-19.7237,1493.7729],[-63.7203,-19.7291,1496.9742],[-63.7183,-19.7328,1523.6072],[-63.7182,-19.7426,1608.4095],[-63.7216,-19.7537,1600.2959],[-63.7194,-19.7618,1635.9557],[-63.7197,-19.7779,1603.8116],[-63.7164,-19.7917,1778.12],[-63.72,-19.7991,1747.4235],[-63.7204,-19.8104,1574.4954],[-63.7158,-19.8267,1879.4775],[-63.712,-19.8339,1825.4094],[-63.709,-19.8611,1882.5417],[-63.71,-19.8669,1861.2712],[-63.7132,-19.8729,1791.0708],[-63.7131,-19.8792,1704.0868],[-63.7174,-19.8872,1839.9445],[-63.7198,-19.908,1659.5911],[-63.7159,-19.9156,1707.0405],[-63.7177,-19.9207,1646.3529],[-63.715,-19.9355,1716.6028],[-63.7164,-19.952,1784.1743],[-63.7218,-19.9614,1721.297],[-63.7217,-19.969,1567.2867],[-63.728,-19.9894,1590.2347],[-63.7267,-19.9924,1587.3137],[-63.7278,-19.9954,1619.8958],[-63.7269,-20.0,1621.6975],[-63.7295,-20.0037,1614.9629],[-63.7286,-20.0074,1665.3005],[-63.7305,-20.0133,1615.8628],[-63.7284,-20.021,1596.8235],[-63.7323,-20.0272,1708.7793],[-63.7318,-20.0389,1756.0684],[-63.7294,-20.0406,1716.8954],[-63.728,-20.0471,1534.4583],[-63.7289,-20.058,1568.5001],[-63.7255,-20.0658,1595.907],[-63.7282,-20.0711,1608.9611],[-63.7252,-20.0948,1432.7721],[-63.727,-20.101,1421.5988],[-63.7266,-20.1048,1521.0901],[-63.7229,-20.1074,1412.2603],[-63.7258,-20.1157,1444.2745],[-63.7157,-20.1248,1406.3352],[-63.7058,-20.1264,1489.2863],[-63.7051,-20.1293,1461.4357],[-63.7024,-20.1306,1287.7014],[-63.7021,-20.1347,1322.7148],[-63.6987,-20.14,1324.2336],[-63.6986,-20.1469,1231.0767],[-63.6923,-20.1487,898.5151],[-63.692,-20.1566,1152.1329],[-63.6969,-20.1623,1308.6555],[-63.6963,-20.1728,1076.0918],[-63.6981,-20.187,1096.7593],[-63.692,-20.1902,927.1947],[-63.6875,-20.1891,911.1762],[-63.691,-20.196,918.4636],[-63.6893,-20.1984,916.9354],[-63.6848,-20.1988,951.4139],[-63.6845,-20.205,926.6597],[-63.6808,-20.2084,926.6535],[-63.6835,-20.2161,934.0645],[-63.688,-20.2195,948.0813],[-63.6868,-20.226,943.219],[-63.6921,-20.2295,952.4617],[-63.6936,-20.2341,957.7731],[-63.695,-20.2346,948.3367],[-63.6937,-20.237,959.3867],[-63.695,-20.2405,953.6722],[-63.6985,-20.2401,968.3504],[-63.698,-20.2438,954.4866],[-63.7024,-20.2465,957.4464],[-63.7076,-20.2543,971.5417],[-63.7062,-20.257,961.4171],[-63.7025,-20.2573,986.5411],[-63.7049,-20.2603,990.6366],[-63.6996,-20.2646,969.9693],[-63.7018,-20.2687,980.8192],[-63.6969,-20.2744,980.4602],[-63.6966,-20.277,1017.9985],[-63.6942,-20.2779,1008.1168],[-63.7008,-20.2824,994.4028],[-63.6987,-20.2957,1022.1352],[-63.6963,-20.2987,1023.5748],[-63.6983,-20.3074,1047.0603],[-63.6961,-20.321,1064.9286],[-63.6969,-20.3297,1094.175],[-63.6947,-20.3311,1102.7777],[-63.6924,-20.3454,1153.7625],[-63.6929,-20.3683,1131.2748],[-63.6942,-20.3696,1120.5519],[-63.692,-20.3782,1159.3082],[-63.6934,-20.3793,1138.8744],[-63.6939,-20.3917,1182.4446],[-63.6957,-20.394,1166.2355],[-63.6935,-20.4237,1212.1316],[-63.6908,-20.4288,1238.2501],[-63.6923,-20.4359,1301.7759],[-63.6842,-20.4651,1425.7859],[-63.6672,-20.4732,1640.4336],[-63.6553,-20.4726,1632.1733],[-63.6485,-20.4663,1732.095],[-63.6363,-20.4635,1640.1606],[-63.6227,-20.4646,1230.3875],[-63.6138,-20.4622,1204.5625],[-63.6039,-20.4568,1195.4248],[-63.6026,-20.4546,1186.262],[-63.5986,-20.4532,1158.3416],[-63.597,-20.4541,1151.5782],[-63.595,-20.4494,1130.7491],[-63.5904,-20.4458,1203.3188],[-63.5884,-20.4467,1162.9938],[-63.5898,-20.4442,1243.8505],[-63.5873,-20.4446,1140.3447],[-63.5868,-20.4426,1114.8712],[-63.5838,-20.4426,1122.8342],[-63.5838,-20.4451,1095.2321],[-63.5818,-20.4454,1089.9133],[-63.581,-20.448,1091.707],[-63.5739,-20.4473,1069.759],[-63.5598,-20.4503,1054.1814],[-63.5577,-20.4521,1048.2797],[-63.5475,-20.4511,1039.723],[-63.5407,-20.4543,1031.9541],[-63.5373,-20.4522,1042.4932],[-63.5342,-20.4565,1026.6654],[-63.5287,-20.4565,1017.5067],[-63.524,-20.4599,1013.038],[-63.5195,-20.4601,1011.6001],[-63.5149,-20.4626,1005.6632],[-63.5124,-20.4611,1001.7513],[-63.5138,-20.4586,1014.1551],[-63.5097,-20.4565,997.6506],[-63.5034,-20.4558,1006.2501],[-63.4967,-20.4583,985.5973],[-63.4923,-20.457,982.4758]]]]}
,"properties": {"GID_1": "BOL.8_1","GID_0": "BOL","country": "Bolivia","province": "SantaCruz","VARNAME_1": "NA","NL_NAME_1": "NA","TYPE_1": "Departamento","ENGTYPE_1": "Department","CC_1": "NA","HASC_1": "BO.SC","ISO_1": "BO-S","name": "Santa_Cruz.province","area_km2": 369889.83,"hist_schema_id": "Elevation0-9000","hist_area_km2": {"75": 2525.76,"100": 11334.08,"125": 9698.36,"150": 9391.53,"175": 25467.82,"200": 38734.49,"225": 30780.1,"250": 30594.61,"275": 34461.31,"300": 26181.85,"325": 22826.81,"350": 20812.91,"375": 18102.86,"400": 13862.55,"425": 11283.42,"450": 8640.11,"475": 6228.87,"500": 4288.86,"525": 3508.29,"550": 3069.58,"575": 2657.59,"600": 2339.81,"625": 1984.44,"650": 1679.94,"675": 1529.34,"700": 1384.21,"725": 1170.12,"750": 996.58,"775": 848.13,"800": 776.17,"825": 701.99,"850": 673.83,"875": 671.37,"900": 670.07,"925": 683.69,"950": 688.03,"975": 669.36,"1000": 647.14,"1025": 618.52,"1050": 583.82,"1075": 557.39,"1100": 528.3,"1125": 480.44,"1150": 447.58,"1175": 419.95,"1200": 396.97,"1225": 377.82,"1250": 363.34,"1275": 359.14,"1300": 349.73,"1325": 350.99,"1350": 349.17,"1375": 348.13,"1400": 351.14,"1425": 335.82,"1450": 322.29,"1475": 324.01,"1500": 318.88,"1525": 316.44,"1550": 324.74,"1575": 332.65,"1600": 335.33,"1625": 333.51,"1650": 333.29,"1675": 337.42,"1700": 333.76,"1725": 337.83,"1750": 329.58,"1775": 320.95,"1800": 306.16,"1825": 304.92,"1850": 299.84,"1875": 289.38,"1900": 279.47,"1925": 269.76,"1950": 260.61,"1975": 257.15,"2000": 241.73,"2025": 238.63,"2050": 219.66,"2075": 204.73,"2100": 187.58,"2125": 177.15,"2150": 160.47,"2175": 148.31,"2200": 138.6,"2225": 126.96,"2250": 115.0,"2275": 109.61,"2300": 98.24,"2325": 97.59,"2350": 90.4,"2375": 84.62,"2400": 78.92,"2425": 70.72,"2450": 68.29,"2475": 62.9,"2500": 58.83,"2525": 52.47,"2550": 48.16,"2575": 45.24,"2600": 40.84,"2625": 36.07,"2650": 34.07,"2675": 31.09,"2700": 25.92,"2725": 24.0,"2750": 21.97,"2775": 17.22,"2800": 15.33,"2825": 12.67,"2850": 9.72,"2875": 7.56,"2900": 6.82,"2925": 5.45,"2950": 4.5,"2975": 3.51,"3000": 3.23}}}