{"type": "Feature","bbox": [-67.0016,-11.0033,-66.4462,-9.8962],"geometry": {"type": "MultiPolygon","coordinates": [[[[-66.5921,-9.9022,123.6307],[-66.6156,-9.8962,123.2807],[-66.6236,-9.897,111.5379],[-66.6278,-9.9009,111.4517],[-66.6316,-9.9018,123.9626],[-66.6283,-9.9085,122.658],[-66.6326,-9.9098,125.974],[-66.638,-9.9157,112.4984],[-66.6322,-9.917,124.3584],[-66.6294,-9.9226,123.0713],[-66.6359,-9.9238,114.4502],[-66.6385,-9.9294,125.5246],[-66.6372,-9.9309,122.729],[-66.6341,-9.9287,116.1131],[-66.6349,-9.9316,122.9006],[-66.6291,-9.9329,121.6857],[-66.6281,-9.9358,113.1626],[-66.6327,-9.9391,125.3782],[-66.6353,-9.9375,124.5411],[-66.6391,-9.9522,130.0751],[-66.6456,-9.9513,126.2123],[-66.6427,-9.949,114.8013],[-66.6475,-9.9483,125.6636],[-66.6507,-9.9458,126.5115],[-66.6515,-9.9377,115.3804],[-66.6548,-9.9439,117.1201],[-66.6573,-9.9385,112.9592],[-66.6596,-9.9383,114.7784],[-66.6647,-9.9413,117.9743],[-66.6667,-9.9491,114.0649],[-66.6644,-9.9521,118.0032],[-66.6682,-9.9534,113.0427],[-66.6694,-9.9623,119.3663],[-66.6723,-9.9595,125.2296],[-66.676,-9.9587,128.0808],[-66.678,-9.9616,112.1631],[-66.6759,-9.9646,118.0868],[-66.676,-9.9696,128.9449],[-66.6825,-9.9673,124.445],[-66.6916,-9.9679,123.7023],[-66.6957,-9.9699,117.6362],[-66.6951,-9.9733,121.1018],[-66.7006,-9.9742,123.3161],[-66.7056,-9.9786,126.2252],[-66.7098,-9.9786,127.2259],[-66.7136,-9.9806,129.0221],[-66.7179,-9.9755,126.7579],[-66.7226,-9.9806,126.2163],[-66.7218,-9.9832,120.1019],[-66.7193,-9.983,121.0177],[-66.7199,-9.9844,121.0177],[-66.7235,-9.9855,128.2232],[-66.7282,-9.9831,124.9387],[-66.7327,-9.9856,124.5756],[-66.7359,-9.9933,127.537],[-66.7417,-9.9992,120.7843],[-66.7504,-9.9959,117.8905],[-66.7538,-10.0027,126.061],[-66.7608,-10.0,120.6161],[-66.7635,-10.0013,118.7198],[-66.7651,-10.0079,124.2209],[-66.7717,-10.0105,117.8178],[-66.7734,-10.0128,127.3236],[-66.7711,-10.0185,117.8314],[-66.7722,-10.0225,121.7568],[-66.7805,-10.0181,125.8155],[-66.7916,-10.0228,122.2614],[-66.7943,-10.0266,114.2722],[-66.7939,-10.0283,119.2868],[-66.7989,-10.03,119.5093],[-66.8025,-10.0354,118.5937],[-66.8089,-10.0386,114.7744],[-66.8036,-10.0451,115.2684],[-66.8087,-10.0458,117.856],[-66.8096,-10.05,125.7731],[-66.8181,-10.0522,124.9621],[-66.824,-10.0604,118.6292],[-66.8328,-10.0602,123.7576],[-66.8361,-10.062,117.6657],[-66.8379,-10.0645,120.0343],[-66.835,-10.0677,125.1254],[-66.8416,-10.0716,121.5744],[-66.8385,-10.0813,119.1232],[-66.8392,-10.084,114.5524],[-66.8452,-10.0869,125.65],[-66.8502,-10.0864,127.3518],[-66.8525,-10.0878,113.4593],[-66.8544,-10.0869,123.2789],[-66.8515,-10.0828,116.6635],[-66.8523,-10.0819,116.6635],[-66.8563,-10.0847,128.9951],[-66.8657,-10.0835,120.3323],[-66.8669,-10.0858,119.4998],[-66.8711,-10.0818,127.7153],[-66.8747,-10.0815,119.9473],[-66.8766,-10.0844,117.3028],[-66.8737,-10.0871,125.7383],[-66.875,-10.092,120.1552],[-66.8721,-10.0958,127.7561],[-66.8738,-10.102,121.1802],[-66.8771,-10.102,120.3351],[-66.8807,-10.0966,126.9312],[-66.8822,-10.1009,119.7319],[-66.8815,-10.1067,122.2588],[-66.8848,-10.1091,120.794],[-66.8869,-10.1074,117.3641],[-66.8859,-10.1011,120.903],[-66.888,-10.0994,129.5556],[-66.8897,-10.1027,123.5612],[-66.8897,-10.1156,117.3516],[-66.8939,-10.1132,120.1655],[-66.8952,-10.1104,121.004],[-66.8995,-10.1115,119.7963],[-66.8979,-10.1138,118.8483],[-66.8974,-10.1232,125.0834],[-66.9021,-10.1234,119.2541],[-66.9033,-10.1279,117.6063],[-66.9112,-10.1259,122.2975],[-66.91,-10.1328,121.0975],[-66.9137,-10.1322,119.0179],[-66.9143,-10.1295,127.8948],[-66.9186,-10.1307,118.1622],[-66.9187,-10.1355,118.6632],[-66.9145,-10.1364,121.0848],[-66.9115,-10.1395,121.9094],[-66.911,-10.1467,119.532],[-66.9122,-10.1479,119.532],[-66.9246,-10.1434,118.9417],[-66.9315,-10.149,120.7626],[-66.9348,-10.1477,120.9285],[-66.9336,-10.1556,122.1529],[-66.94,-10.1547,126.036],[-66.9464,-10.1586,120.1638],[-66.9475,-10.1617,124.4333],[-66.9463,-10.1666,117.4365],[-66.9501,-10.1743,130.238],[-66.9515,-10.1847,125.3144],[-66.9561,-10.1902,125.2995],[-66.959,-10.191,120.0106],[-66.9568,-10.1863,127.223],[-66.9599,-10.1847,125.5424],[-66.9611,-10.1819,124.8493],[-66.9647,-10.1846,121.7368],[-66.9655,-10.1885,119.6518],[-66.9697,-10.1916,125.4903],[-66.9766,-10.1901,134.5925],[-66.9733,-10.1874,123.0602],[-66.9753,-10.1848,127.0517],[-66.9824,-10.19,120.7349],[-66.9764,-10.1933,126.6466],[-66.9758,-10.1961,130.1762],[-66.9821,-10.194,126.5165],[-66.9922,-10.2034,125.7046],[-66.9941,-10.2018,127.9995],[-66.9936,-10.198,125.3468],[-66.9974,-10.1996,123.2158],[-66.9976,-10.203,121.3271],[-66.9936,-10.2047,120.5659],[-66.9954,-10.2072,131.4088],[-66.9938,-10.2098,123.5516],[-66.9946,-10.2114,121.7022],[-66.999,-10.2123,122.9052],[-67.0009,-10.2178,117.0],[-66.9972,-10.2192,128.8921],[-66.9927,-10.2172,125.4197],[-66.9893,-10.2208,124.1576],[-66.9957,-10.2226,135.4171],[-66.9954,-10.2285,128.8051],[-66.9995,-10.2327,122.5799],[-67.0001,-10.2296,123.1866],[-67.0016,-10.2293,129.1249],[-67.0016,-10.9701,147.9699],[-66.9984,-10.9689,147.9421],[-66.9975,-10.9728,146.9101],[-66.9884,-10.9647,153.3601],[-66.9894,-10.9617,145.4029],[-66.9931,-10.9612,150.5157],[-66.9937,-10.9596,150.5157],[-66.9854,-10.9594,140.5],[-66.9843,-10.965,142.2528],[-66.9822,-10.9655,150.1551],[-66.9802,-10.9596,152.1112],[-66.9774,-10.9573,142.9256],[-66.9739,-10.9636,145.3839],[-66.972,-10.9645,142.1327],[-66.9706,-10.9631,142.1327],[-66.9698,-10.9544,141.4322],[-66.9666,-10.9561,152.6435],[-66.9623,-10.962,148.3914],[-66.9581,-10.9574,148.2386],[-66.9544,-10.9574,141.6899],[-66.9534,-10.9656,140.0],[-66.951,-10.9649,149.4173],[-66.9499,-10.9563,147.6536],[-66.9467,-10.9537,146.2289],[-66.9442,-10.9556,144.1134],[-66.943,-10.9606,142.0754],[-66.9387,-10.9614,155.4821],[-66.9372,-10.9582,154.7934],[-66.939,-10.9491,143.3284],[-66.9346,-10.9496,154.3928],[-66.9307,-10.9451,140.0],[-66.9306,-10.952,155.0899],[-66.9288,-10.956,154.6387],[-66.924,-10.9577,146.3918],[-66.9172,-10.9565,145.0172],[-66.9163,-10.955,142.6129],[-66.9178,-10.9532,148.06],[-66.9258,-10.953,152.3979],[-66.9248,-10.9505,144.3651],[-66.9213,-10.9493,146.7242],[-66.9124,-10.9543,150.3217],[-66.9124,-10.9619,159.4688],[-66.9089,-10.9659,140.6442],[-66.9019,-10.9638,150.4411],[-66.899,-10.9596,144.431],[-66.8944,-10.9612,141.4461],[-66.8922,-10.9583,140.9256],[-66.8893,-10.9582,147.1643],[-66.8881,-10.9619,147.5844],[-66.8949,-10.9665,150.3179],[-66.896,-10.9684,152.1005],[-66.8944,-10.9701,143.3667],[-66.8816,-10.968,146.1768],[-66.8756,-10.9691,144.0586],[-66.8645,-10.9553,141.8254],[-66.8641,-10.9641,140.8094],[-66.8711,-10.9653,139.0141],[-66.8701,-10.9676,144.2307],[-66.8637,-10.9688,139.8019],[-66.8612,-10.9644,142.3068],[-66.8535,-10.9629,145.6846],[-66.8462,-10.9692,145.6222],[-66.8396,-10.9691,140.7503],[-66.8383,-10.9662,142.1295],[-66.8423,-10.9635,142.0417],[-66.8423,-10.9615,145.9406],[-66.8341,-10.9651,158.9582],[-66.8328,-10.9643,141.8995],[-66.8317,-10.9603,142.2957],[-66.8331,-10.9558,140.6423],[-66.8318,-10.9545,143.4916],[-66.8253,-10.9579,158.9885],[-66.8167,-10.9667,144.7411],[-66.8067,-10.9656,147.4178],[-66.8035,-10.9744,144.2731],[-66.8039,-10.9805,141.3001],[-66.8008,-10.9817,137.5],[-66.7947,-10.9785,141.5817],[-66.7938,-10.9806,145.4547],[-66.7962,-10.986,139.4233],[-66.7902,-10.9861,142.4746],[-66.7884,-10.991,145.851],[-66.7847,-10.99,142.5777],[-66.7877,-10.9838,138.8073],[-66.786,-10.9815,148.7899],[-66.7821,-10.9815,143.299],[-66.7797,-10.9832,140.1543],[-66.7769,-10.9935,143.0931],[-66.7748,-10.9949,143.9987],[-66.7718,-10.9922,147.8872],[-66.772,-10.9869,145.2054],[-66.7703,-10.9842,141.6048],[-66.767,-10.9839,142.8634],[-66.7649,-10.9856,149.7785],[-66.765,-10.9915,149.7612],[-66.7636,-10.9932,142.71],[-66.7606,-10.9902,138.7491],[-66.7623,-10.9843,148.7293],[-66.7594,-10.981,138.3668],[-66.7577,-10.9822,138.8242],[-66.759,-10.9884,136.75],[-66.7578,-10.992,140.3461],[-66.7503,-10.9935,138.3541],[-66.7498,-10.9876,138.2232],[-66.7479,-10.987,148.8563],[-66.7474,-10.9928,145.2085],[-66.7538,-10.9986,140.93],[-66.7461,-11.0033,141.175],[-66.7435,-10.9925,138.2163],[-66.7406,-10.9921,140.2806],[-66.7335,-10.9963,144.8909],[-66.7262,-10.9875,138.6233],[-66.7247,-10.9803,141.1648],[-66.7196,-10.9783,140.3341],[-66.713,-10.9791,154.6299],[-66.7121,-10.977,142.1331],[-66.7132,-10.9706,140.7208],[-66.7072,-10.9641,137.2953],[-66.7038,-10.9654,139.6616],[-66.7038,-10.9755,138.2924],[-66.6992,-10.9766,143.6706],[-66.6938,-10.9732,136.8378],[-66.6917,-10.9748,138.2132],[-66.6923,-10.9792,148.067],[-66.6903,-10.9807,144.2405],[-66.6866,-10.9755,140.8013],[-66.6817,-10.9764,151.1987],[-66.6747,-10.9729,135.389],[-66.6728,-10.9696,136.1452],[-66.6756,-10.9643,141.6733],[-66.674,-10.9616,138.8922],[-66.6719,-10.9615,136.7879],[-66.669,-10.965,137.5445],[-66.6611,-10.9654,140.2668],[-66.659,-10.9614,144.4087],[-66.6637,-10.956,137.3512],[-66.6633,-10.9544,134.4096],[-66.6556,-10.955,138.1195],[-66.6573,-10.9491,135.6524],[-66.6483,-10.9512,142.0802],[-66.6454,-10.9496,135.7941],[-66.6456,-10.9419,132.5],[-66.6477,-10.9372,133.6407],[-66.6409,-10.934,143.2302],[-66.6461,-10.9282,133.3695],[-66.6328,-10.9173,144.3164],[-66.6368,-10.9138,134.0403],[-66.6359,-10.9104,134.5131],[-66.6272,-10.9055,133.9344],[-66.6232,-10.9107,135.9181],[-66.6164,-10.9105,134.8266],[-66.6156,-10.9076,138.0611],[-66.6197,-10.9033,138.2207],[-66.6183,-10.9014,139.8108],[-66.6138,-10.9047,135.5436],[-66.6128,-10.912,133.2599],[-66.6093,-10.9128,134.0576],[-66.6062,-10.9077,144.4611],[-66.6101,-10.9032,132.6304],[-66.6096,-10.9007,132.8153],[-66.6008,-10.8962,133.3239],[-66.5982,-10.8968,140.5161],[-66.5974,-10.9,136.4933],[-66.5952,-10.8989,136.2365],[-66.5949,-10.8961,136.678],[-66.5996,-10.8868,136.0149],[-66.598,-10.8838,134.5652],[-66.5941,-10.8829,132.2203],[-66.5929,-10.8881,130.0],[-66.5893,-10.892,141.4932],[-66.5901,-10.8956,139.958],[-66.5861,-10.8965,132.9208],[-66.5812,-10.9001,136.7631],[-66.5785,-10.9,138.316],[-66.5778,-10.8975,130.5883],[-66.5792,-10.8956,137.824],[-66.5848,-10.894,132.2888],[-66.5828,-10.891,129.25],[-66.5727,-10.8926,131.8983],[-66.5705,-10.896,130.4216],[-66.565,-10.8928,130.5617],[-66.5603,-10.8926,132.3308],[-66.556,-10.8972,129.4761],[-66.5572,-10.8893,129.9166],[-66.562,-10.8869,133.2117],[-66.5631,-10.8839,135.2274],[-66.5559,-10.88,134.1652],[-66.5548,-10.8735,129.642],[-66.5529,-10.875,131.9892],[-66.5489,-10.8853,136.4883],[-66.5437,-10.8832,132.0522],[-66.5411,-10.8853,134.3061],[-66.5391,-10.8846,131.1258],[-66.5384,-10.8808,137.3507],[-66.5421,-10.8778,142.7303],[-66.544,-10.8712,141.627],[-66.5412,-10.8611,130.928],[-66.5381,-10.8605,129.6816],[-66.5335,-10.8626,134.9278],[-66.536,-10.8525,131.4543],[-66.5336,-10.8527,134.4298],[-66.5297,-10.8587,131.6895],[-66.5277,-10.8594,136.4999],[-66.5261,-10.8561,128.0],[-66.5266,-10.8505,132.7865],[-66.5211,-10.8526,129.6271],[-66.5206,-10.8482,133.0257],[-66.5155,-10.847,131.4098],[-66.5126,-10.8503,129.6747],[-66.5144,-10.8566,132.417],[-66.511,-10.8578,129.824],[-66.5092,-10.8569,138.5052],[-66.5072,-10.843,138.8717],[-66.5049,-10.843,133.345],[-66.5012,-10.8462,133.811],[-66.4968,-10.8465,140.5273],[-66.4988,-10.8373,135.1819],[-66.4919,-10.8326,129.4312],[-66.4838,-10.8336,135.0254],[-66.4837,-10.8361,132.6371],[-66.487,-10.8387,130.6215],[-66.4841,-10.8398,139.4481],[-66.478,-10.8306,129.1739],[-66.4714,-10.8294,128.1351],[-66.4716,-10.8258,128.7676],[-66.4705,-10.8254,128.7676],[-66.4691,-10.8308,133.8578],[-66.4605,-10.8281,138.4601],[-66.4601,-10.8301,132.177],[-66.4637,-10.835,138.7212],[-66.4615,-10.8382,135.6024],[-66.4588,-10.8366,129.7042],[-66.4573,-10.8322,140.4835],[-66.4531,-10.8298,134.3789],[-66.4585,-10.827,133.4926],[-66.458,-10.8239,129.9416],[-66.4529,-10.8254,130.3491],[-66.4485,-10.8241,128.9126],[-66.4462,-10.8257,129.0519],[-66.4636,-10.7313,152.7773],[-66.545,-10.1925,163.7956],[-66.5921,-9.9022,123.6307]]]]}
,"properties": {"GID_3": "BOL.6.1.1_2","GID_0": "BOL","country": "Bolivia","GID_1": "BOL.6_1","province": "Pando","NL_NAME_1": "NA","GID_2": "BOL.6.1_2","county": "Abuná","NL_NAME_2": "NA","city": "Ingavi","VARNAME_3": "NA","NL_NAME_3": "NA","TYPE_3": "District","ENGTYPE_3": "Distrito","CC_3": "NA","HASC_3": "NA","name": "Ingavi.city","area_km2": 5435.512,"hist_schema_id": "Elevation0-9000","hist_area_km2": {"100": 1.9,"125": 301.8,"150": 1340.643,"175": 3308.55,"200": 482.619}}}