{"type": "Feature","bbox": [-68.9892,-15.9558,-68.7612,-15.7536],"geometry": {"type": "MultiPolygon","coordinates": [[[[-68.962,-15.8964,3808.5],[-68.9385,-15.8994,3831.8477],[-68.9245,-15.9126,3822.1377],[-68.9141,-15.9195,3820.3545],[-68.9079,-15.9216,3895.4006],[-68.9007,-15.9352,3808.5],[-68.8885,-15.9427,3811.2822],[-68.8822,-15.9418,3809.1262],[-68.878,-15.9381,3810.4331],[-68.8712,-15.9383,3809.1516],[-68.8713,-15.9365,3811.0938],[-68.8754,-15.9371,3814.2356],[-68.876,-15.936,3811.8364],[-68.8717,-15.9341,3812.106],[-68.8683,-15.9365,3811.1677],[-68.8664,-15.9339,3811.3367],[-68.8589,-15.9307,3810.2505],[-68.8555,-15.9269,3811.4417],[-68.8496,-15.927,3811.0452],[-68.8488,-15.9258,3811.0437],[-68.8505,-15.9233,3811.1274],[-68.8491,-15.9226,3812.5164],[-68.843,-15.9267,3810.9968],[-68.84,-15.9261,3839.3706],[-68.8395,-15.9285,3811.1484],[-68.8354,-15.9311,3812.1646],[-68.8319,-15.9301,3811.1372],[-68.8294,-15.9331,3811.3674],[-68.827,-15.9326,3812.2708],[-68.8268,-15.9347,3811.0186],[-68.8297,-15.934,3811.3674],[-68.832,-15.9373,3812.3018],[-68.8245,-15.9339,3812.7048],[-68.818,-15.9356,3811.4189],[-68.8157,-15.9369,3812.1458],[-68.816,-15.9387,3810.9731],[-68.8128,-15.9393,3814.5298],[-68.8094,-15.9453,3811.0022],[-68.8045,-15.9494,3813.335],[-68.7972,-15.9483,3811.0796],[-68.7949,-15.9504,3809.938],[-68.7951,-15.9527,3810.2585],[-68.794,-15.9511,3809.938],[-68.7908,-15.9511,3814.9382],[-68.7838,-15.9558,3809.6968],[-68.778,-15.9501,3810.0308],[-68.7762,-15.9451,3808.5],[-68.774,-15.9455,3808.5],[-68.7721,-15.9483,3808.5],[-68.7705,-15.9145,3829.5986],[-68.7612,-15.8863,4205.8213],[-68.7706,-15.8671,4343.2119],[-68.7814,-15.8695,4401.6357],[-68.7887,-15.8633,4416.1733],[-68.7912,-15.8544,4417.1582],[-68.7996,-15.849,4476.6606],[-68.8011,-15.8446,4485.0869],[-68.8009,-15.8381,4434.0239],[-68.7972,-15.8258,4466.5952],[-68.8027,-15.8203,4442.7534],[-68.805,-15.8104,4304.5088],[-68.807,-15.7985,4361.6826],[-68.806,-15.7849,4097.8745],[-68.8073,-15.7701,4194.3403],[-68.8168,-15.7589,3669.1089],[-68.8261,-15.7536,3364.4175],[-68.8304,-15.754,3441.9602],[-68.8426,-15.7596,3853.1152],[-68.8481,-15.7559,3927.3892],[-68.8521,-15.7558,3987.3831],[-68.8674,-15.7645,4293.5801],[-68.8756,-15.7639,4454.0938],[-68.8779,-15.7613,4530.6025],[-68.8887,-15.7617,4620.0967],[-68.9075,-15.7758,4636.2583],[-68.9179,-15.7726,4672.457],[-68.9073,-15.8031,4271.0757],[-68.9122,-15.8038,4392.6597],[-68.9213,-15.8019,4568.9658],[-68.9268,-15.7982,4626.2852],[-68.9336,-15.7994,4604.418],[-68.9503,-15.7973,4378.8447],[-68.953,-15.7928,4411.9717],[-68.9572,-15.7921,4399.9912],[-68.9693,-15.7997,4187.5322],[-68.9777,-15.8019,4472.4785],[-68.988,-15.8253,4236.0205],[-68.9855,-15.8309,4221.1182],[-68.9892,-15.8411,3935.2695],[-68.9854,-15.845,3986.749],[-68.9749,-15.8501,4157.2837],[-68.9671,-15.8625,4098.0107],[-68.9634,-15.8654,4093.6157],[-68.9533,-15.879,4043.6011],[-68.9535,-15.8832,4048.22],[-68.9573,-15.884,4053.4648],[-68.9595,-15.8886,3962.3555],[-68.9619,-15.89,3938.7051],[-68.962,-15.8964,3808.5]]]]}
,"properties": {"GID_3": "BOL.4.19.7_2","GID_0": "BOL","country": "Bolivia","GID_1": "BOL.4_1","province": "LaPaz","NL_NAME_1": "NA","GID_2": "BOL.4.19_2","county": "Omasuyos","NL_NAME_2": "NA","city": "VillaAncoraimes","VARNAME_3": "NA","NL_NAME_3": "NA","TYPE_3": "District","ENGTYPE_3": "Distrito","CC_3": "NA","HASC_3": "NA","name": "Villa_Ancoraimes.city","area_km2": 336.2225,"hist_schema_id": "Elevation0-9000","hist_area_km2": {"3350": 0.0816,"3375": 0.0408,"3400": 0.0612,"3425": 0.0816,"3450": 0.102,"3475": 0.2041,"3500": 0.1428,"3525": 0.1836,"3550": 0.2653,"3575": 0.3061,"3600": 0.102,"3625": 0.4693,"3650": 0.5101,"3675": 0.204,"3700": 0.3877,"3725": 0.6121,"3750": 0.3265,"3775": 0.4081,"3800": 4.4244,"3825": 28.2381,"3850": 14.7422,"3875": 12.0106,"3900": 10.8897,"3925": 10.3188,"3950": 10.6249,"3975": 10.9718,"4000": 11.3799,"4025": 10.6049,"4050": 11.1557,"4075": 10.6054,"4100": 10.4629,"4125": 10.8711,"4150": 10.7694,"4175": 12.0137,"4200": 13.5437,"4225": 13.0542,"4250": 11.851,"4275": 10.7498,"4300": 10.6276,"4325": 10.7501,"4350": 10.4034,"4375": 10.3219,"4400": 9.0982,"4425": 8.5066,"4450": 8.1395,"4475": 6.2425,"4500": 5.4062,"4525": 4.4679,"4550": 3.6927,"4575": 2.4074,"4600": 1.4282,"4625": 0.5509,"4650": 0.3673,"4675": 0.0408}}}