{"type":"Feature","properties":{"GID_2":"BOL.5.16_2","GID_0":"BOL","country":"Bolivia","GID_1":"BOL.5_1","province":"Oruro","NL_NAME_1":"NA","county":"TomásBarrón","VARNAME_2":"NA","NL_NAME_2":"NA","TYPE_2":"Provincia","ENGTYPE_2":"Province","CC_2":"NA","HASC_2":"NA","name":"Tomás_Barrón.county"},
"geometry":{"type": "MultiPolygon","coordinates": [[[[-67.5489,-17.5864,3722.3015],[-67.547,-17.5889,3721.8428],[-67.5291,-17.5968,3721.1377],[-67.5271,-17.5995,3721.2705],[-67.5307,-17.6103,3722.0745],[-67.5151,-17.6367,3720.6011],[-67.5087,-17.6426,3720.4624],[-67.5077,-17.6473,3718.676],[-67.5162,-17.672,3717.0093],[-67.5174,-17.6805,3718.0076],[-67.512,-17.6852,3716.0],[-67.5105,-17.6909,3717.1479],[-67.5042,-17.6988,3716.5234],[-67.496,-17.7034,3716.2595],[-67.4932,-17.7072,3716.9321],[-67.4914,-17.7149,3717.4434],[-67.4851,-17.724,3715.0],[-67.4843,-17.7337,3715.0],[-67.4499,-17.7366,3712.5439],[-67.4284,-17.7491,3711.811],[-67.4164,-17.7467,3711.0552],[-67.3375,-17.6973,3713.7065],[-67.364,-17.6852,3710.3936],[-67.35,-17.6636,3751.5898],[-67.324,-17.633,4056.9988],[-67.3241,-17.624,4146.7783],[-67.3301,-17.6191,4163.0527],[-67.3295,-17.6116,4156.668],[-67.3326,-17.6102,4127.1294],[-67.3494,-17.6126,4261.8389],[-67.3529,-17.6114,4255.7583],[-67.3582,-17.6004,4132.8286],[-67.3717,-17.5945,4157.7363],[-67.3832,-17.5835,4190.1089],[-67.3858,-17.5676,4022.2549],[-67.3938,-17.5606,4067.8613],[-67.4032,-17.5744,4080.6157],[-67.4127,-17.5713,4071.8296],[-67.4143,-17.5677,4102.7354],[-67.417,-17.5667,4161.3457],[-67.419,-17.5635,4185.8457],[-67.4297,-17.5605,4097.2075],[-67.4304,-17.5576,4068.3403],[-67.4377,-17.5508,4010.1572],[-67.4391,-17.5468,3974.762],[-67.4479,-17.5375,4011.0464],[-67.4486,-17.5334,3970.0625],[-67.4464,-17.5294,3936.7993],[-67.4474,-17.5258,3942.2817],[-67.4644,-17.5119,3869.3691],[-67.4686,-17.5058,3856.635],[-67.4725,-17.5081,3868.3274],[-67.4754,-17.5169,3897.3259],[-67.4818,-17.5214,3960.5537],[-67.4953,-17.5211,4116.3711],[-67.5034,-17.5173,4137.0781],[-67.5054,-17.5182,4128.5186],[-67.5163,-17.5403,3829.3755],[-67.5228,-17.5465,3776.9666],[-67.5203,-17.5509,3758.3181],[-67.5214,-17.5538,3750.9055],[-67.5318,-17.5595,3726.4038],[-67.5463,-17.5754,3722.1912],[-67.5489,-17.5801,3723.2871],[-67.5489,-17.5864,3722.3015]]]]}}