{"type":"Feature","properties":{"GID_3":"BOL.2.7.3_2","GID_0":"BOL","country":"Bolivia","GID_1":"BOL.2_1","province":"Cochabamba","NL_NAME_1":"NA","GID_2":"BOL.2.7_2","county":"Carrasco","NL_NAME_2":"NA","city":"Pocona","VARNAME_3":"NA","NL_NAME_3":"NA","TYPE_3":"District","ENGTYPE_3":"Distrito","CC_3":"NA","HASC_3":"NA","name":"Pocona.city"},
"geometry":{"type": "MultiPolygon","coordinates": [[[[-65.5521,-17.7084,4079.0435],[-65.5491,-17.7149,4091.489],[-65.5398,-17.7201,4041.9697],[-65.5332,-17.7296,4007.5146],[-65.528,-17.7327,3988.0571],[-65.5248,-17.7385,3956.7073],[-65.5033,-17.7544,3871.4727],[-65.4968,-17.774,3429.7871],[-65.4899,-17.7789,3317.9375],[-65.4841,-17.7718,3232.0217],[-65.4741,-17.7694,3123.3926],[-65.4715,-17.7722,3091.2041],[-65.4637,-17.7738,3076.9939],[-65.4594,-17.7765,3044.6367],[-65.4562,-17.774,3042.6982],[-65.4555,-17.7753,3017.7798],[-65.4452,-17.7755,2933.5991],[-65.4408,-17.7789,2787.4922],[-65.4265,-17.7778,2713.948],[-65.4188,-17.7798,2632.9338],[-65.4098,-17.7854,2519.4121],[-65.3905,-17.7823,2439.7288],[-65.3821,-17.7896,2514.8945],[-65.3649,-17.7915,2369.0449],[-65.3573,-17.7828,2182.8438],[-65.3552,-17.784,2184.8074],[-65.3384,-17.784,2157.8418],[-65.3286,-17.788,2152.4902],[-65.3254,-17.7867,2128.6235],[-65.3185,-17.7896,2120.1663],[-65.3073,-17.8081,2089.7295],[-65.3112,-17.8134,2226.2478],[-65.3122,-17.8252,2442.5212],[-65.3041,-17.8375,2377.9551],[-65.2949,-17.8587,2506.9756],[-65.2922,-17.859,2501.5598],[-65.2894,-17.8619,2552.4871],[-65.2883,-17.8688,2484.3955],[-65.2832,-17.8702,2490.6016],[-65.2778,-17.8775,2547.4695],[-65.275,-17.8789,2512.5852],[-65.2716,-17.8843,2464.845],[-65.2713,-17.8878,2496.8193],[-65.2678,-17.8895,2443.6506],[-65.2643,-17.8939,2416.2256],[-65.257,-17.8946,2347.9976],[-65.2471,-17.8981,2283.335],[-65.2418,-17.9061,2285.3755],[-65.2378,-17.9076,2257.0542],[-65.2353,-17.9108,2145.4556],[-65.2335,-17.9189,1899.9042],[-65.2172,-17.9226,1887.7209],[-65.2163,-17.9244,1882.0654],[-65.2185,-17.9281,1903.4889],[-65.2124,-17.9282,1935.5515],[-65.2104,-17.935,1873.7944],[-65.2082,-17.9366,1907.6317],[-65.2047,-17.9361,2005.7955],[-65.2067,-17.9337,1875.7559],[-65.2021,-17.9311,1886.6406],[-65.1992,-17.9321,1855.766],[-65.196,-17.9363,1855.4268],[-65.1898,-17.9323,1929.3555],[-65.1884,-17.9283,1964.3035],[-65.1911,-17.9264,1997.5958],[-65.1934,-17.9216,1982.5172],[-65.1919,-17.9186,2016.7483],[-65.1961,-17.9154,2167.0918],[-65.2053,-17.9145,2068.1646],[-65.2079,-17.9112,2082.0664],[-65.2067,-17.9098,2106.2864],[-65.2087,-17.9095,2103.8926],[-65.2093,-17.9058,2125.6396],[-65.2049,-17.8944,2228.0625],[-65.2063,-17.8903,2218.0178],[-65.2047,-17.889,2296.4697],[-65.2061,-17.8877,2234.8052],[-65.2057,-17.8856,2282.8252],[-65.2036,-17.8851,2314.6006],[-65.2039,-17.8824,2299.9907],[-65.2022,-17.8816,2355.3376],[-65.2032,-17.8789,2279.2598],[-65.2007,-17.8792,2273.4272],[-65.1901,-17.8676,2358.1621],[-65.1897,-17.8636,2378.5186],[-65.1803,-17.8488,2707.7183],[-65.1789,-17.8414,2608.6477],[-65.188,-17.8394,2466.2856],[-65.1896,-17.8307,2421.6597],[-65.193,-17.8258,2372.2793],[-65.2039,-17.825,2291.3711],[-65.2071,-17.8307,2314.0015],[-65.2082,-17.8286,2285.6758],[-65.2116,-17.8275,2299.5278],[-65.212,-17.8289,2296.6555],[-65.2244,-17.831,2211.1348],[-65.2309,-17.8279,2224.0547],[-65.2368,-17.8276,2178.0308],[-65.238,-17.8295,2159.6365],[-65.2418,-17.8299,2147.396],[-65.2456,-17.8269,2247.0879],[-65.2473,-17.82,2417.7983],[-65.246,-17.8158,2724.6641],[-65.2436,-17.815,2650.2046],[-65.245,-17.8117,2799.7207],[-65.2405,-17.81,2728.675],[-65.2387,-17.8047,2827.2878],[-65.2339,-17.8065,2841.6643],[-65.2304,-17.804,2715.5264],[-65.2305,-17.8012,2615.97],[-65.224,-17.7928,2429.7144],[-65.2429,-17.7719,2565.2068],[-65.2429,-17.77,2569.2117],[-65.2374,-17.7661,2634.5127],[-65.2411,-17.7592,2577.0483],[-65.2481,-17.7561,2537.9932],[-65.2502,-17.7502,2542.4951],[-65.2549,-17.7472,2517.0864],[-65.2619,-17.737,2528.1768],[-65.2597,-17.7305,2541.8254],[-65.2533,-17.7269,2585.2327],[-65.2462,-17.7195,2682.5383],[-65.2337,-17.7158,3095.9617],[-65.2336,-17.7135,3070.843],[-65.2378,-17.7086,3105.175],[-65.2356,-17.7009,3149.5466],[-65.2409,-17.6939,3159.8848],[-65.2419,-17.6884,3180.0427],[-65.236,-17.6875,3240.4958],[-65.2371,-17.6834,3163.845],[-65.2349,-17.6795,3145.6006],[-65.2349,-17.6753,3205.9465],[-65.2465,-17.6589,3217.686],[-65.2456,-17.656,3243.0237],[-65.2492,-17.6479,3264.5498],[-65.2548,-17.6438,3249.7856],[-65.2556,-17.6408,3230.54],[-65.2691,-17.6378,2826.0327],[-65.2767,-17.6408,2683.334],[-65.2836,-17.6388,2571.5381],[-65.2839,-17.6359,2631.8975],[-65.281,-17.6302,2698.0823],[-65.2824,-17.6299,2698.0823],[-65.2824,-17.6277,2693.5],[-65.2809,-17.6236,2701.6621],[-65.2849,-17.6142,2746.4993],[-65.2859,-17.6077,2785.4104],[-65.2877,-17.6068,2770.6089],[-65.2933,-17.611,2957.6758],[-65.3064,-17.6066,2857.5471],[-65.3055,-17.5991,3033.4922],[-65.31,-17.5837,2871.4407],[-65.3154,-17.5767,2924.1526],[-65.3164,-17.5691,3030.3208],[-65.314,-17.5624,3140.6914],[-65.2988,-17.5557,3662.7966],[-65.2998,-17.5519,3705.2976],[-65.3418,-17.5275,3009.3413],[-65.3434,-17.5248,3125.5798],[-65.3426,-17.5192,3415.1152],[-65.344,-17.5148,3559.1841],[-65.3566,-17.5084,3515.2112],[-65.3651,-17.499,3786.2432],[-65.3812,-17.491,3966.001],[-65.3912,-17.493,3949.5696],[-65.4002,-17.4875,3932.9587],[-65.436,-17.4923,3259.4878],[-65.4387,-17.4967,3150.114],[-65.4457,-17.4963,3225.9548],[-65.4505,-17.501,3399.3647],[-65.4567,-17.5023,3475.7319],[-65.4694,-17.4992,3446.3235],[-65.472,-17.501,3501.7261],[-65.4769,-17.5013,3722.2395],[-65.4963,-17.4974,3899.7729],[-65.4991,-17.501,3994.1641],[-65.4968,-17.5097,3951.3787],[-65.483,-17.5136,3984.0747],[-65.4803,-17.5166,3993.1001],[-65.475,-17.5189,3979.748],[-65.4714,-17.524,3962.9346],[-65.4418,-17.5427,3546.4397],[-65.4434,-17.5484,3236.2673],[-65.4569,-17.5608,3893.1504],[-65.4743,-17.5508,3848.2441],[-65.4845,-17.5387,3778.3887],[-65.4952,-17.5324,3878.5972],[-65.499,-17.5376,3818.6401],[-65.5182,-17.5518,4298.0503],[-65.5262,-17.5486,4315.4268],[-65.5335,-17.5522,4283.874],[-65.5417,-17.55,4293.667],[-65.5447,-17.5595,4176.1787],[-65.5423,-17.5652,4012.4189],[-65.5417,-17.5724,4015.4841],[-65.5359,-17.5813,3970.7297],[-65.5351,-17.5978,3714.4192],[-65.5269,-17.6033,3727.2375],[-65.5252,-17.6086,3599.0537],[-65.5259,-17.613,3510.2659],[-65.5197,-17.6148,3480.8516],[-65.5105,-17.6217,3614.0613],[-65.4995,-17.6371,3614.6289],[-65.4901,-17.643,3584.1233],[-65.4924,-17.6481,3375.9326],[-65.4999,-17.6525,3357.4314],[-65.5053,-17.6593,3581.9309],[-65.5075,-17.6663,3659.0596],[-65.5084,-17.6827,3883.78],[-65.512,-17.6935,3801.4253],[-65.5181,-17.6975,3868.1045],[-65.5216,-17.6974,3830.3843],[-65.5521,-17.7084,4079.0435]]]]}}