{"type": "Feature","bbox": [-65.5799,-19.6424,-64.8369,-19.2312],"geometry": {"type": "MultiPolygon","coordinates": [[[[-65.3753,-19.2362,2449.3108],[-65.3798,-19.238,2467.5425],[-65.3951,-19.2312,2537.0007],[-65.3987,-19.2313,2463.6724],[-65.4032,-19.234,2460.457],[-65.406,-19.244,2537.6787],[-65.4115,-19.2492,2511.0884],[-65.4077,-19.2594,2554.9111],[-65.4118,-19.2625,2560.3003],[-65.4096,-19.264,2590.7051],[-65.4137,-19.2662,2599.3999],[-65.4146,-19.2704,2689.2498],[-65.4221,-19.2741,2612.9082],[-65.4297,-19.2728,2727.4302],[-65.4332,-19.2764,2734.3657],[-65.4407,-19.2794,2915.2603],[-65.4442,-19.2789,3053.7358],[-65.4634,-19.292,3330.4316],[-65.4572,-19.2985,3622.4746],[-65.4572,-19.3069,3517.2053],[-65.4458,-19.3172,3491.989],[-65.4457,-19.3199,3547.4351],[-65.4491,-19.3205,3525.8281],[-65.4497,-19.3236,3574.7083],[-65.4566,-19.3255,3553.4832],[-65.4624,-19.3293,3296.6558],[-65.4654,-19.3292,3256.4551],[-65.474,-19.3337,3514.9302],[-65.4769,-19.3327,3554.0762],[-65.4825,-19.3349,3626.2114],[-65.4829,-19.3424,3596.6226],[-65.4805,-19.3504,3672.5801],[-65.4693,-19.3595,3268.0156],[-65.468,-19.3646,3300.0625],[-65.4696,-19.3685,3274.571],[-65.4688,-19.3781,3377.6548],[-65.4701,-19.3857,3500.5718],[-65.4689,-19.3933,3548.5134],[-65.4701,-19.3965,3599.9221],[-65.4671,-19.4138,3663.0876],[-65.4696,-19.4154,3682.3882],[-65.4712,-19.419,3632.0847],[-65.4898,-19.4165,3490.6409],[-65.4991,-19.4203,3537.5098],[-65.5075,-19.426,3587.6021],[-65.5125,-19.4239,3586.7173],[-65.5183,-19.423,3612.2715],[-65.519,-19.4249,3656.2122],[-65.529,-19.4219,3715.9951],[-65.533,-19.4235,3751.9045],[-65.5375,-19.4212,3849.3096],[-65.5495,-19.4229,4032.8281],[-65.549,-19.4265,4075.2083],[-65.5458,-19.4307,3872.4883],[-65.5339,-19.4345,3782.2449],[-65.5279,-19.4402,3634.6328],[-65.5271,-19.4448,3571.1443],[-65.5299,-19.4446,3591.5107],[-65.5354,-19.4484,3616.0667],[-65.5381,-19.4539,3646.2249],[-65.5433,-19.4591,3668.9519],[-65.5481,-19.4583,3695.189],[-65.5525,-19.4612,3736.8652],[-65.5569,-19.4613,3756.7588],[-65.564,-19.4642,3870.499],[-65.5782,-19.4652,4143.5557],[-65.5799,-19.4688,4083.1509],[-65.5789,-19.472,4059.4285],[-65.5605,-19.4962,3874.9919],[-65.55,-19.5138,3781.3831],[-65.5489,-19.5235,3713.0312],[-65.5468,-19.5275,3706.7395],[-65.5442,-19.5286,3695.3633],[-65.5436,-19.5326,3638.0559],[-65.5494,-19.5364,3444.2207],[-65.5467,-19.5435,3439.9438],[-65.5369,-19.5544,3441.1113],[-65.5351,-19.5611,3470.6738],[-65.5082,-19.5594,3368.6028],[-65.5005,-19.5692,3305.7678],[-65.4873,-19.5745,3334.4409],[-65.4798,-19.5766,3233.2231],[-65.471,-19.5766,3315.3062],[-65.4693,-19.5786,3367.5366],[-65.4601,-19.577,3593.2393],[-65.4574,-19.5831,3549.4792],[-65.4538,-19.5857,3612.4907],[-65.4485,-19.6005,3445.4265],[-65.4444,-19.6048,3617.6187],[-65.4421,-19.602,3612.8516],[-65.4408,-19.5922,3630.9988],[-65.436,-19.5824,3868.0081],[-65.4342,-19.5819,3929.9053],[-65.4274,-19.5925,3499.5132],[-65.416,-19.601,3167.27],[-65.414,-19.6058,3209.3765],[-65.4088,-19.6058,3206.54],[-65.408,-19.6037,3179.627],[-65.4032,-19.6055,3105.5938],[-65.403,-19.603,3108.8252],[-65.4007,-19.6019,3121.542],[-65.3938,-19.6064,3175.8088],[-65.3916,-19.6048,3178.1689],[-65.3865,-19.6106,3223.0132],[-65.3799,-19.6245,3266.9067],[-65.3727,-19.6172,3309.1904],[-65.3671,-19.6189,3318.1567],[-65.3598,-19.6247,3315.4792],[-65.3493,-19.6299,3272.2461],[-65.3336,-19.6424,3263.043],[-65.3173,-19.625,3270.9595],[-65.3185,-19.6213,3255.7009],[-65.282,-19.6165,3351.2671],[-65.2761,-19.6172,3281.512],[-65.2616,-19.6125,3332.9058],[-65.254,-19.6054,3259.1729],[-65.2533,-19.5977,3130.0251],[-65.248,-19.5908,2856.8213],[-65.2499,-19.5887,2824.7336],[-65.2444,-19.5833,2797.9441],[-65.2445,-19.5787,2774.0361],[-65.2426,-19.5783,2785.7031],[-65.242,-19.5749,2748.042],[-65.2229,-19.5576,2672.2251],[-65.2182,-19.5601,2603.6892],[-65.214,-19.5585,2594.594],[-65.2091,-19.5596,2617.5078],[-65.206,-19.5569,2553.7739],[-65.1961,-19.5612,2532.4678],[-65.1905,-19.5665,2464.9988],[-65.184,-19.5652,2564.9624],[-65.1835,-19.5626,2540.8965],[-65.1867,-19.5587,2444.7168],[-65.184,-19.5542,2455.3799],[-65.1794,-19.5534,2486.5234],[-65.177,-19.547,2512.0635],[-65.1798,-19.5437,2429.8535],[-65.1833,-19.547,2437.5566],[-65.186,-19.5457,2497.0107],[-65.1873,-19.5379,2428.2151],[-65.1915,-19.5361,2395.1504],[-65.1924,-19.5283,2386.0967],[-65.1873,-19.5283,2418.9849],[-65.1881,-19.5263,2441.3538],[-65.1859,-19.523,2614.0386],[-65.181,-19.5206,2879.3762],[-65.1784,-19.5169,3085.4685],[-65.1588,-19.5122,3338.0464],[-65.1398,-19.515,3531.5405],[-65.1372,-19.5176,3518.7261],[-65.1344,-19.5235,3477.3867],[-65.133,-19.5357,3534.2278],[-65.1292,-19.5398,3635.7085],[-65.1308,-19.5419,3635.4226],[-65.1227,-19.5542,3722.7898],[-65.11,-19.5371,3146.6787],[-65.1141,-19.5355,3164.9863],[-65.1101,-19.5283,3066.9712],[-65.1107,-19.5269,3045.6978],[-65.1022,-19.5274,3348.0959],[-65.1003,-19.529,3386.5032],[-65.0827,-19.5257,3969.9893],[-65.0771,-19.5285,4071.2849],[-65.0779,-19.5416,4075.8525],[-65.0737,-19.5446,4050.2764],[-65.0746,-19.5584,4037.0415],[-65.0716,-19.5619,4058.2617],[-65.0588,-19.6083,4059.6067],[-65.0591,-19.624,4207.5791],[-65.0546,-19.625,4152.5967],[-65.0435,-19.6199,4078.9502],[-65.0326,-19.6169,3879.8003],[-65.03,-19.6178,3860.4805],[-65.0279,-19.6146,3836.1418],[-65.0249,-19.6145,3814.3401],[-65.023,-19.6164,3672.5659],[-65.0177,-19.615,3606.0845],[-65.0117,-19.6171,3494.1223],[-65.0073,-19.6232,3307.2847],[-65.0027,-19.6184,3575.5388],[-64.994,-19.6247,3558.1292],[-64.9888,-19.6144,3308.9502],[-64.9865,-19.6158,3307.7148],[-64.9853,-19.6207,3362.4365],[-64.9861,-19.6277,3448.2253],[-64.9824,-19.6316,3500.3723],[-64.9797,-19.6271,3522.647],[-64.9671,-19.6193,3986.6992],[-64.9637,-19.6106,3960.4331],[-64.9665,-19.6001,4022.6116],[-64.9655,-19.5955,4021.1445],[-64.9701,-19.5823,3875.3892],[-64.9713,-19.5693,3855.0935],[-64.9653,-19.569,3853.7935],[-64.9559,-19.5599,3754.0229],[-64.9513,-19.561,3647.8169],[-64.9387,-19.5592,3723.4421],[-64.9368,-19.5558,3802.3892],[-64.929,-19.5584,3677.4924],[-64.9236,-19.5579,3610.3621],[-64.9173,-19.5513,3428.5664],[-64.9122,-19.5495,3251.8315],[-64.8985,-19.5302,2545.6069],[-64.8942,-19.5307,2482.5967],[-64.8912,-19.5289,2391.957],[-64.8922,-19.5197,2341.3296],[-64.891,-19.5151,2306.4358],[-64.8938,-19.501,2225.9985],[-64.893,-19.4932,2178.7134],[-64.8814,-19.4901,2109.4424],[-64.8759,-19.4811,2084.4468],[-64.8625,-19.4866,2046.8972],[-64.8552,-19.4809,2050.1877],[-64.8503,-19.4802,2017.3464],[-64.8482,-19.4773,2007.8442],[-64.8445,-19.4768,2005.1014],[-64.8407,-19.4713,1992.538],[-64.8369,-19.4695,1984.9146],[-64.8412,-19.4598,1987.8163],[-64.8403,-19.4551,1993.2524],[-64.8454,-19.4488,1993.0503],[-64.8487,-19.4333,1998.249],[-64.8518,-19.4288,2002.3387],[-64.85,-19.4229,2004.0898],[-64.8551,-19.4203,2006.5182],[-64.8525,-19.4148,2039.8025],[-64.8526,-19.4102,2019.5742],[-64.8657,-19.4063,2092.0315],[-64.8782,-19.3973,2036.8706],[-64.8893,-19.4022,2028.7224],[-64.8956,-19.3996,2029.8103],[-64.8976,-19.3921,2033.8276],[-64.8934,-19.3842,2038.3706],[-64.8935,-19.3801,2042.0404],[-64.8991,-19.3747,2044.7688],[-64.9098,-19.3702,2051.3027],[-64.9118,-19.3656,2053.8105],[-64.9114,-19.3575,2060.6995],[-64.9133,-19.3544,2068.0342],[-64.9182,-19.3566,2070.0952],[-64.9211,-19.3617,2063.6465],[-64.9293,-19.3627,2067.5198],[-64.9369,-19.3603,2070.5491],[-64.9417,-19.3567,2074.0588],[-64.9474,-19.3585,2075.7817],[-64.9588,-19.3562,2082.4536],[-64.9621,-19.3515,2085.0381],[-64.9704,-19.3468,2089.9685],[-64.9885,-19.3527,2099.4736],[-65.0041,-19.352,2111.1743],[-65.0158,-19.3569,2118.4124],[-65.0256,-19.3678,2127.4197],[-65.0368,-19.3696,2136.8943],[-65.0379,-19.3744,2182.9651],[-65.0443,-19.3773,2143.2754],[-65.044,-19.3813,2186.3455],[-65.0561,-19.3858,2161.3926],[-65.0667,-19.384,2167.2881],[-65.0712,-19.379,2187.0073],[-65.0817,-19.376,2271.2861],[-65.0822,-19.3711,2189.7349],[-65.0882,-19.3668,2191.9075],[-65.1022,-19.3731,2191.061],[-65.1104,-19.3733,2180.1309],[-65.1146,-19.3751,2192.1482],[-65.1219,-19.3741,2198.6995],[-65.1263,-19.3757,2191.2295],[-65.1318,-19.3745,2214.1709],[-65.141,-19.3781,2201.8481],[-65.1484,-19.3756,2215.2292],[-65.1532,-19.3759,2205.8167],[-65.1583,-19.3709,2207.009],[-65.1649,-19.3689,2210.8691],[-65.1668,-19.3629,2226.6221],[-65.175,-19.3557,2236.9968],[-65.1869,-19.3566,2224.2922],[-65.1973,-19.3529,2231.8508],[-65.2009,-19.3496,2233.9844],[-65.2168,-19.3427,2244.3372],[-65.2211,-19.3376,2260.272],[-65.222,-19.3293,2253.9768],[-65.2307,-19.3205,2261.645],[-65.2374,-19.3207,2264.4541],[-65.2417,-19.3184,2267.8213],[-65.2468,-19.3183,2271.6421],[-65.2539,-19.3144,2275.6885],[-65.2605,-19.3159,2281.1021],[-65.2647,-19.3151,2298.9866],[-65.2869,-19.3081,2304.0715],[-65.2946,-19.3085,2306.4736],[-65.301,-19.306,2311.6138],[-65.3104,-19.3062,2318.8447],[-65.3166,-19.3013,2323.6921],[-65.324,-19.2815,2343.522],[-65.3304,-19.2714,2355.2339],[-65.3386,-19.2711,2364.7354],[-65.3412,-19.2676,2368.7781],[-65.3453,-19.2671,2369.8853],[-65.3477,-19.265,2371.8745],[-65.3524,-19.2653,2374.2778],[-65.3611,-19.2628,2404.2793],[-65.3691,-19.2567,2391.5894],[-65.3728,-19.2469,2426.1362],[-65.3721,-19.2406,2435.2756],[-65.3753,-19.2362,2449.3108]]]]}
,"properties": {"GID_3": "BOL.7.5.1_2","GID_0": "BOL","country": "Bolivia","GID_1": "BOL.7_1","province": "Potosí","NL_NAME_1": "NA","GID_2": "BOL.7.5_2","county": "CornelioSaavedra","NL_NAME_2": "NA","city": "Betanzos","VARNAME_3": "NA","NL_NAME_3": "NA","TYPE_3": "District","ENGTYPE_3": "Distrito","CC_3": "NA","HASC_3": "NA","name": "Betanzos.city","area_km2": 1880.074,"hist_schema_id": "Elevation0-9000","hist_area_km2": {"1975": 0.22,"2000": 2.239,"2025": 2.459,"2050": 3.139,"2075": 5.14,"2100": 7.36,"2125": 6.919,"2150": 5.9,"2175": 6.46,"2200": 7.959,"2225": 10.039,"2250": 12.279,"2275": 12.999,"2300": 15.378,"2325": 16.118,"2350": 18.338,"2375": 19.017,"2400": 18.637,"2425": 19.296,"2450": 18.777,"2475": 17.817,"2500": 20.657,"2525": 19.517,"2550": 19.916,"2575": 20.737,"2600": 20.817,"2625": 22.316,"2650": 22.636,"2675": 24.595,"2700": 22.216,"2725": 24.175,"2750": 26.415,"2775": 26.435,"2800": 26.675,"2825": 28.794,"2850": 27.695,"2875": 29.435,"2900": 27.814,"2925": 28.933,"2950": 30.393,"2975": 31.612,"3000": 32.532,"3025": 32.552,"3050": 33.85,"3075": 33.59,"3100": 34.229,"3125": 34.046,"3150": 35.143,"3175": 34.622,"3200": 35.82,"3225": 38.917,"3250": 55.974,"3275": 70.598,"3300": 58.672,"3325": 49.983,"3350": 44.788,"3375": 37.694,"3400": 34.877,"3425": 34.398,"3450": 31.06,"3475": 32.719,"3500": 31.161,"3525": 32.459,"3550": 31.102,"3575": 28.664,"3600": 26.266,"3625": 24.207,"3650": 20.928,"3675": 18.829,"3700": 17.39,"3725": 17.03,"3750": 15.011,"3775": 11.993,"3800": 10.394,"3825": 10.074,"3850": 9.314,"3875": 8.954,"3900": 7.814,"3925": 6.695,"3950": 5.475,"3975": 4.516,"4000": 4.216,"4025": 3.236,"4050": 3.057,"4075": 2.217,"4100": 1.598,"4125": 1.378,"4150": 0.699,"4175": 0.439,"4200": 0.399,"4225": 0.1,"4250": 0.12}}}