{"type":"Feature","properties":{"GID_3":"BOL.4.8.2_2","GID_0":"BOL","country":"Bolivia","GID_1":"BOL.4_1","province":"LaPaz","NL_NAME_1":"NA","GID_2":"BOL.4.8_2","county":"GeneralJoséManuelPando","NL_NAME_2":"NA","city":"SantiagodeMachaca","VARNAME_3":"NA","NL_NAME_3":"NA","TYPE_3":"District","ENGTYPE_3":"Distrito","CC_3":"NA","HASC_3":"NA","name":"Santiagode_Machaca.city"},
"geometry":{"type": "MultiPolygon","coordinates": [[[[-69.4679,-17.4153,4077.4214],[-69.4687,-17.492,4096.686],[-69.4475,-17.4769,4087.4746],[-69.4314,-17.4697,4048.6946],[-69.4179,-17.4656,4109.3457],[-69.4041,-17.4663,4104.3389],[-69.3988,-17.4589,4017.5049],[-69.3975,-17.4507,4128.9985],[-69.3956,-17.449,4190.7241],[-69.3829,-17.4513,4022.4163],[-69.3735,-17.4469,4031.105],[-69.3713,-17.4495,4030.3701],[-69.3548,-17.4508,4079.0308],[-69.3484,-17.4574,4076.4426],[-69.3443,-17.4585,4016.0833],[-69.334,-17.4546,4079.1489],[-69.3315,-17.4461,4087.8884],[-69.3301,-17.4284,4084.1213],[-69.324,-17.4305,4068.5339],[-69.3212,-17.4296,4074.7705],[-69.3144,-17.4308,4061.6807],[-69.3078,-17.4361,4046.3779],[-69.3035,-17.4336,4072.4365],[-69.2956,-17.4323,4093.252],[-69.292,-17.428,4101.4922],[-69.2906,-17.4223,4132.543],[-69.2971,-17.412,4138.9512],[-69.2982,-17.4077,4158.1895],[-69.314,-17.4011,4230.377],[-69.3164,-17.3976,4248.542],[-69.3158,-17.3946,4244.3169],[-69.2962,-17.3797,4183.5967],[-69.2944,-17.3673,4213.4829],[-69.2866,-17.3667,4157.0806],[-69.2779,-17.3633,4125.4678],[-69.269,-17.3656,4109.8301],[-69.2644,-17.3645,4129.6543],[-69.2606,-17.3668,4092.0112],[-69.2525,-17.3658,4088.0569],[-69.2491,-17.368,4110.5107],[-69.2454,-17.3637,4090.1484],[-69.2413,-17.3617,4056.9075],[-69.2415,-17.3572,4083.0078],[-69.238,-17.3522,4105.0488],[-69.2373,-17.3471,4063.8313],[-69.2294,-17.3408,4067.6384],[-69.2313,-17.3359,4051.9946],[-69.2304,-17.333,4051.5195],[-69.2228,-17.3282,4093.8455],[-69.2173,-17.3224,4185.9839],[-69.2157,-17.3128,4426.2246],[-69.212,-17.3084,4480.957],[-69.2017,-17.3024,4130.9678],[-69.1912,-17.3001,4163.3604],[-69.1885,-17.3035,4213.3027],[-69.1843,-17.3032,4180.7603],[-69.1825,-17.3045,4180.7603],[-69.1756,-17.3018,4150.6611],[-69.1784,-17.2909,4077.1899],[-69.1774,-17.289,4057.5752],[-69.1786,-17.2766,4036.6479],[-69.172,-17.2731,4096.2222],[-69.1713,-17.2713,4099.7905],[-69.1733,-17.2638,4292.1899],[-69.1814,-17.2509,4245.3179],[-69.1919,-17.2416,4006.8325],[-69.1895,-17.2384,4023.5229],[-69.1868,-17.2363,4036.4956],[-69.1691,-17.2342,4322.5249],[-69.1575,-17.2295,4171.2744],[-69.153,-17.2316,4244.6733],[-69.1466,-17.2314,4473.6743],[-69.1442,-17.2232,4372.8853],[-69.1491,-17.215,4233.2891],[-69.1494,-17.2109,4206.3833],[-69.1456,-17.2025,4230.8408],[-69.1395,-17.1965,4082.7905],[-69.1335,-17.1962,4019.3818],[-69.1274,-17.1872,3970.4343],[-69.1121,-17.1805,3927.2563],[-69.1025,-17.171,3915.1921],[-69.0999,-17.1625,3902.2153],[-69.0937,-17.1585,3895.3386],[-69.0867,-17.1593,3891.0728],[-69.0809,-17.1547,3885.1108],[-69.0802,-17.1512,3882.5159],[-69.0744,-17.1481,3882.6074],[-69.0632,-17.1519,3903.3838],[-69.0474,-17.1636,3912.9482],[-69.0395,-17.1602,3894.9202],[-69.0348,-17.1552,3883.4702],[-69.0301,-17.1554,3880.6021],[-69.028,-17.1528,3876.8438],[-69.023,-17.1515,3874.9773],[-69.018,-17.1447,3872.5061],[-69.0152,-17.1304,3866.3577],[-69.0172,-17.1269,3868.7349],[-69.0169,-17.1117,3883.6184],[-69.0194,-17.1059,3874.3105],[-69.0568,-17.0801,3857.0557],[-69.1321,-17.0387,3854.6326],[-69.1501,-17.0217,3856.4458],[-69.1707,-17.0117,3856.9895],[-69.2874,-16.9754,4159.0371],[-69.3071,-16.9767,4360.8799],[-69.3127,-16.9733,4217.749],[-69.3203,-16.9609,4041.4531],[-69.3264,-16.9598,4033.7549],[-69.3346,-16.9809,3971.8611],[-69.34,-16.9875,4254.2598],[-69.3686,-16.9889,3956.5444],[-69.3737,-16.9979,3963.9512],[-69.3765,-16.9998,3971.1831],[-69.3807,-17.0071,3974.396],[-69.3833,-17.0075,3977.0798],[-69.3834,-17.0098,4011.6331],[-69.3946,-17.0222,3999.999],[-69.3948,-17.0241,3999.7375],[-69.3844,-17.0314,4029.0032],[-69.3826,-17.0381,4054.0259],[-69.3726,-17.0508,4092.8083],[-69.374,-17.0724,4371.4883],[-69.3936,-17.090699999999998,4599.7461],[-69.4071,-17.1,4758.917],[-69.4325,-17.1103,4901.0952],[-69.4305,-17.1111,4839.1406],[-69.4264,-17.1174,4673.646],[-69.4208,-17.1336,4592.7988],[-69.4147,-17.1381,4509.0728],[-69.3989,-17.145,4485.0244],[-69.39,-17.1459,4430.0547],[-69.388,-17.1479,4418.5195],[-69.3876,-17.1521,4384.1934],[-69.3845,-17.1538,4377.9287],[-69.3761,-17.1503,4354.8701],[-69.3723,-17.1509,4333.1899],[-69.3618,-17.1589,4196.7036],[-69.3632,-17.164,4366.7671],[-69.367,-17.1672,4341.9897],[-69.3841,-17.1954,4838.0996],[-69.3956,-17.2087,4973.1616],[-69.4082,-17.2198,5024.332],[-69.413,-17.2303,4981.7563],[-69.4226,-17.235,4950.2632],[-69.4263,-17.2408,5032.5298],[-69.4243,-17.2457,4998.2422],[-69.4246,-17.2608,4848.7197],[-69.4285,-17.2721,4675.5781],[-69.4147,-17.2871,4692.749],[-69.3984,-17.2957,4886.6802],[-69.401,-17.3129,4774.9287],[-69.3699,-17.3358,4797.3125],[-69.3635,-17.348,5005.0771],[-69.3724,-17.3618,4939.8628],[-69.3779,-17.3637,4771.168],[-69.3974,-17.3785,4452.9985],[-69.3997,-17.3858,4364.7417],[-69.4057,-17.3934,4262.9521],[-69.4162,-17.3987,4185.6699],[-69.4272,-17.4089,4122.0059],[-69.4352,-17.4118,4090.5063],[-69.4371,-17.4162,4078.2175],[-69.4406,-17.4179,4035.2275],[-69.4393,-17.4196,4026.3],[-69.4462,-17.4196,4077.4966],[-69.4493,-17.4179,4074.8152],[-69.4543,-17.4207,4062.4023],[-69.4616,-17.4155,4071.5166],[-69.4679,-17.4153,4077.4214]]]]}}