{"type":"Feature","properties":{"GID_3":"BOL.1.5.4_2","GID_0":"BOL","country":"Bolivia","GID_1":"BOL.1_1","province":"Chuquisaca","NL_NAME_1":"NA","GID_2":"BOL.1.5_2","county":"NorCinti","NL_NAME_2":"NA","city":"VillaCharcas","VARNAME_3":"NA","NL_NAME_3":"NA","TYPE_3":"District","ENGTYPE_3":"Distrito","CC_3":"NA","HASC_3":"NA","name":"Villa_Charcas.city"},
"geometry":{"type": "MultiPolygon","coordinates": [[[[-65.008,-20.6923,4011.3911],[-65.0027,-20.6962,3843.0852],[-64.9879,-20.6979,3596.2273],[-64.9769,-20.7118,3380.5818],[-64.9695,-20.729,3416.8982],[-64.9578,-20.7379,3381.1655],[-64.9451,-20.751,3213.5967],[-64.9422,-20.76,3312.9424],[-64.9326,-20.766,3304.3635],[-64.9323,-20.762,3280.4128],[-64.9255,-20.7466,3158.5247],[-64.9182,-20.7459,2971.2737],[-64.9018,-20.7383,2941.1545],[-64.8892,-20.7474,2931.2502],[-64.8902,-20.7407,2933.614],[-64.8812,-20.7355,2938.3491],[-64.8749,-20.7053,2961.6418],[-64.8449,-20.6907,3029.8589],[-64.8332,-20.6819,3063.312],[-64.8179,-20.6784,3239.5659],[-64.8049,-20.6883,3201.8472],[-64.8015,-20.6831,3146.9426],[-64.8043,-20.6609,2602.2837],[-64.7944,-20.643,2356.8501],[-64.7768,-20.6332,2198.0579],[-64.7592,-20.6126,1985.9518],[-64.7585,-20.6043,1983.7749],[-64.7528,-20.5913,1860.9227],[-64.7276,-20.5828,1709.3439],[-64.7171,-20.5815,1684.5679],[-64.7081,-20.5824,1639.6948],[-64.7051,-20.578,1594.7019],[-64.6866,-20.5764,1531.3204],[-64.6759,-20.5681,1476.9592],[-64.6544,-20.5449,1385.0685],[-64.6508,-20.5314,1368.2664],[-64.644,-20.5225,1323.3406],[-64.6557,-20.5213,1347.0266],[-64.6601,-20.5225,1367.0857],[-64.6589,-20.5105,1428.4458],[-64.6607,-20.5063,1369.6812],[-64.6609,-20.4956,1387.1893],[-64.6643,-20.4811,1411.6239],[-64.6622,-20.4683,1431.9281],[-64.6653,-20.4566,1482.1016],[-64.6639,-20.4526,1468.5837],[-64.664,-20.4394,1495.9463],[-64.6659,-20.4367,1488.3049],[-64.6655,-20.433,1584.8464],[-64.6686,-20.4303,1558.0189],[-64.6701,-20.422,1536.543],[-64.6884,-20.4112,1610.5684],[-64.7045,-20.4085,1595.8202],[-64.7246,-20.4094,1626.7307],[-64.7358,-20.4007,1660.5526],[-64.7665,-20.4018,2266.6133],[-64.7751,-20.4096,1869.5577],[-64.7912,-20.4128,1935.3735],[-64.7953,-20.4114,1966.3574],[-64.8068,-20.4145,2023.4062],[-64.8066,-20.4249,2396.2217],[-64.8144,-20.4553,2835.5591],[-64.8135,-20.4669,3216.2983],[-64.8099,-20.4746,3343.116],[-64.8117,-20.4803,3424.8433],[-64.8107,-20.4906,3704.0303],[-64.8189,-20.4882,3443.5068],[-64.825,-20.494,3363.2317],[-64.8338,-20.4931,3751.3359],[-64.8391,-20.4918,3785.8264],[-64.8588,-20.4792,3767.8877],[-64.8687,-20.5009,4121.0908],[-64.8756,-20.5013,4054.2422],[-64.8813,-20.5098,4106.3872],[-64.8842,-20.5255,4075.5442],[-64.8883,-20.5312,4051.1333],[-64.8872,-20.547,4176.2446],[-64.9022,-20.5621,3961.0796],[-64.9174,-20.5654,4048.5022],[-64.9273,-20.585,3714.6785],[-64.9284,-20.5941,3748.1431],[-64.9338,-20.6074,3806.3057],[-64.948,-20.6009,3742.623],[-64.961,-20.6214,3713.0791],[-64.9628,-20.6297,3888.5085],[-64.9662,-20.635,3792.063],[-64.9704,-20.635,3830.0142],[-64.9743,-20.6322,3868.5986],[-64.9787,-20.6341,3765.4863],[-64.9901,-20.6314,3943.2964],[-64.9921,-20.6334,3988.0386],[-64.9943,-20.6426,3870.8843],[-65.0083,-20.6499,4007.0344],[-65.0042,-20.6637,3925.2441],[-65.0147,-20.6727,4140.8179],[-65.0071,-20.6864,3876.106],[-65.008,-20.6923,4011.3911]]]]}}