{"type":"Feature","properties":{"GID_2":"BOL.5.5_2","GID_0":"BOL","country":"Bolivia","GID_1":"BOL.5_1","province":"Oruro","NL_NAME_1":"NA","county":"Litoral","VARNAME_2":"NA","NL_NAME_2":"NA","TYPE_2":"Provincia","ENGTYPE_2":"Province","CC_2":"NA","HASC_2":"NA","name":"Litoral.county"},
"geometry":{"type": "MultiPolygon","coordinates": [[[[-68.3019,-18.9615,3689.99],[-68.2945,-18.9649,3687.8657],[-68.2774,-18.9918,3683.7312],[-68.2702,-18.9979,3682.4514],[-68.2452,-19.0052,3678.0557],[-68.2196,-19.0403,3672.1418],[-68.2113,-19.0482,3670.5737],[-68.1948,-19.0436,3669.1448],[-68.1035,-18.9997,3671.624],[-68.0827,-18.9986,3671.5],[-68.0673,-19.0004,3670.8843],[-68.0483,-18.9977,3671.613],[-68.0381,-18.9845,3674.0359],[-68.0342,-18.9896,3673.3633],[-68.0228,-18.9931,3673.1572],[-68.0009,-18.9948,3668.9683],[-67.9916,-19.0066,3669.4331],[-67.9846,-19.0076,3669.2336],[-67.9801,-19.0043,3668.6475],[-67.9705,-19.0017,3667.3452],[-67.9669,-19.0045,3666.9285],[-67.9595,-19.0063,3666.3518],[-67.9489,-19.0133,3665.4199],[-67.9362,-19.0087,3666.1152],[-67.9321,-19.0089,3666.4668],[-67.9149,-19.0254,3668.0481],[-67.8982,-19.0284,3668.4771],[-67.895,-19.0285,3667.9792],[-67.8901,-19.0235,3668.5271],[-67.8808,-19.0217,3670.6448],[-67.8748,-19.0106,3670.7358],[-67.8684,-19.0048,3671.6685],[-67.8641,-19.0039,3671.9719],[-67.8595,-19.0052,3673.4697],[-67.8492,-18.9974,3673.8845],[-67.8485,-18.9885,3674.9268],[-67.8882,-18.9526,3677.2522],[-67.9028,-18.9097,3680.0164],[-67.9006,-18.887,3684.8687],[-67.911,-18.8665,3687.5312],[-67.9156,-18.8425,3688.6523],[-67.9231,-18.8454,3703.1995],[-67.933,-18.8358,3690.0952],[-67.9329,-18.8268,3691.1694],[-67.9293,-18.8146,3693.3425],[-67.9335,-18.8152,3695.0576],[-67.9544,-18.8109,3715.8997],[-67.9906,-18.7717,3711.4248],[-68.0342,-18.7148,3742.415],[-68.0492,-18.6239,3731.2852],[-68.0545,-18.6129,3739.5071],[-68.0575,-18.5963,3736.875],[-68.0533,-18.585,3737.8208],[-68.0649,-18.5355,3779.2148],[-68.0849,-18.5046,3814.2922],[-68.1256,-18.4876,3758.666],[-68.1507,-18.4845,3762.7898],[-68.1682,-18.4802,3761.9138],[-68.1734,-18.4812,3762.7803],[-68.1915,-18.4743,3752.0962],[-68.218,-18.4807,3756.3848],[-68.2378,-18.4751,3750.1387],[-68.2587,-18.4879,3745.4805],[-68.2675,-18.4905,3744.0273],[-68.2999,-18.5079,3743.3486],[-68.3215,-18.5247,3740.75],[-68.3325,-18.5256,3741.7546],[-68.3395,-18.5279,3742.3047],[-68.3614,-18.5393,3745.377],[-68.3924,-18.5455,3765.5417],[-68.4037,-18.5628,3755.0779],[-68.4324,-18.5716,3761.5823],[-68.4791,-18.6176,3760.3865],[-68.4777,-18.6185,3760.3762],[-68.4773,-18.6237,3759.5244],[-68.4725,-18.6244,3757.4775],[-68.4846,-18.6433,3761.0059],[-68.4874,-18.6629,3760.2061],[-68.4924,-18.6737,3762.2537],[-68.4964,-18.717,3759.501],[-68.4931,-18.7245,3756.6492],[-68.4908,-18.7375,3753.6218],[-68.4859,-18.7448,3749.3193],[-68.4913,-18.7666,3746.9512],[-68.4648,-18.81,3734.7866],[-68.4512,-18.84,3726.3486],[-68.4469,-18.8569,3722.3633],[-68.4297,-18.868,3717.8044],[-68.4125,-18.8871,3719.0967],[-68.3891,-18.8995,3710.2097],[-68.3661,-18.9031,3708.1311],[-68.3505,-18.9139,3704.4937],[-68.3248,-18.9428,3697.1133],[-68.3207,-18.9505,3693.8774],[-68.31,-18.9594,3690.9087],[-68.3019,-18.9615,3689.99]]]]}}