{"type":"Feature","properties":{"GID_3":"BOL.1.7.3_2","GID_0":"BOL","country":"Bolivia","GID_1":"BOL.1_1","province":"Chuquisaca","NL_NAME_1":"NA","GID_2":"BOL.1.7_2","county":"SurCinti","NL_NAME_2":"NA","city":"VillaAbecia","VARNAME_3":"NA","NL_NAME_3":"NA","TYPE_3":"District","ENGTYPE_3":"Distrito","CC_3":"NA","HASC_3":"NA","name":"Villa_Abecia.city"},
"geometry":{"type": "MultiPolygon","coordinates": [[[[-65.3483,-20.8572,3802.7402],[-65.3462,-20.8633,3824.95],[-65.3523,-20.8669,3837.4673],[-65.3539,-20.8732,3833.8445],[-65.3567,-20.8734,3798.3804],[-65.3597,-20.871,3733.1191],[-65.3625,-20.8717,3807.1631],[-65.3683,-20.8679,3861.5679],[-65.3704,-20.8691,3877.772],[-65.3735,-20.8679,3817.252],[-65.3767,-20.8697,3849.062],[-65.3778,-20.874,3877.4585],[-65.38,-20.8752,3880.5828],[-65.3805,-20.8805,3880.3394],[-65.3945,-20.8917,3977.5422],[-65.3907,-20.8976,3887.2646],[-65.4011,-20.9471,3634.7896],[-65.3983,-20.9701,4003.918],[-65.3999,-21.0069,3275.8354],[-65.4086,-21.0266,3839.7803],[-65.4206,-21.0613,3535.1128],[-65.4186,-21.0958,3829.4209],[-65.4085,-21.1222,3654.9702],[-65.4018,-21.1225,3409.2278],[-65.3957,-21.1255,3108.8359],[-65.3945,-21.128,3105.5054],[-65.3924,-21.1279,3046.9155],[-65.3912,-21.1305,3031.7861],[-65.388,-21.1293,3025.2197],[-65.3838,-21.1318,3016.4644],[-65.3802,-21.1311,2986.2817],[-65.3801,-21.1334,2999.7244],[-65.3784,-21.1315,2944.3611],[-65.3776,-21.1334,2972.6013],[-65.374,-21.1331,2934.0083],[-65.3739,-21.136,2933.8032],[-65.3674,-21.1384,2911.3225],[-65.3668,-21.14,2954.6079],[-65.3684,-21.1412,2903.7056],[-65.3652,-21.1433,2929.7114],[-65.3659,-21.1447,2904.783],[-65.3597,-21.1475,2844.2161],[-65.3576,-21.147,2869.6206],[-65.3576,-21.1415,3006.9043],[-65.3557,-21.1421,3058.3708],[-65.3538,-21.14,3128.55],[-65.3497,-21.1398,3235.1631],[-65.3463,-21.1435,3418.0508],[-65.3418,-21.1421,3569.6414],[-65.3389,-21.1341,3499.801],[-65.34,-21.1286,3348.0464],[-65.339,-21.1262,3281.7437],[-65.3325,-21.1234,3182.019],[-65.3291,-21.1237,3163.6401],[-65.3301,-21.121,3109.7029],[-65.3278,-21.1191,3052.4727],[-65.3236,-21.1207,2924.0981],[-65.3207,-21.1197,2901.4219],[-65.3192,-21.1222,2880.3208],[-65.3138,-21.1195,2836.4988],[-65.3108,-21.1214,2742.8035],[-65.3062,-21.1201,2653.1504],[-65.3029,-21.1158,2627.2825],[-65.2974,-21.1131,2604.1711],[-65.2927,-21.1131,2594.3684],[-65.2898,-21.1148,2591.3682],[-65.2819,-21.1097,2564.5151],[-65.2717,-21.1097,2537.9868],[-65.2689,-21.1084,2532.7903],[-65.2672,-21.1096,2528.418],[-65.2646,-21.1079,2527.2209],[-65.2607,-21.1107,2515.8245],[-65.26,-21.1073,2541.98],[-65.252,-21.1074,2594.1418],[-65.2462,-21.1103,2657.3489],[-65.2382,-21.1094,2793.9512],[-65.2322,-21.094,2861.123],[-65.2294,-21.0808,2689.4622],[-65.2323,-21.0693,2646.439],[-65.2263,-21.0712,2474.9497],[-65.2224,-21.0675,2459.3457],[-65.2151,-21.0655,2460.0752],[-65.2063,-21.0681,2510.1392],[-65.2001,-21.0679,2313.9658],[-65.1992,-21.0664,2313.9658],[-65.2005,-21.0623,2275.6006],[-65.1956,-21.0491,2259.5808],[-65.1976,-21.0471,2246.1086],[-65.1967,-21.0445,2248.6616],[-65.1983,-21.0407,2244.1475],[-65.1962,-21.0324,2293.0481],[-65.1974,-21.029,2269.9756],[-65.1927,-21.0246,2256.7036],[-65.1926,-21.021,2245.3093],[-65.1883,-21.0133,2231.9846],[-65.1917,-21.0064,2225.1282],[-65.1898,-21.0007,2282.3208],[-65.1923,-20.9981,2286.3066],[-65.1914,-20.9933,2280.7354],[-65.1931,-20.9915,2222.9573],[-65.1915,-20.9877,2250.9431],[-65.192,-20.9833,2217.989],[-65.1873,-20.9797,2223.3511],[-65.1893,-20.9758,2225.4319],[-65.1884,-20.971,2316.3879],[-65.1865,-20.9704,2268.5576],[-65.1865,-20.9679,2298.155],[-65.1839,-20.965699999999998,2310.5166],[-65.1858,-20.9617,2213.7168],[-65.1817,-20.9588,2215.7341],[-65.1793,-20.9546,2237.2349],[-65.1761,-20.9566,2208.8452],[-65.1744,-20.9557,2242.0513],[-65.1766,-20.9516,2216.9485],[-65.1757,-20.9495,2257.1523],[-65.1723,-20.9481,2257.0918],[-65.1695,-20.9502,2205.7231],[-65.166,-20.9496,2204.0378],[-65.164,-20.9455,2229.0264],[-65.1623,-20.9451,2229.4968],[-65.1582,-20.9459,2278.2136],[-65.1592,-20.9494,2266.0208],[-65.1568,-20.9526,2305.9883],[-65.1572,-20.9577,2243.856],[-65.1512,-20.9639,2230.7075],[-65.1496,-20.9604,2220.9829],[-65.1502,-20.9557,2190.532],[-65.1476,-20.9534,2223.7476],[-65.1435,-20.9575,2185.4604],[-65.141,-20.9647,2183.7644],[-65.1343,-20.9635,2192.0715],[-65.1299,-20.9575,2221.1045],[-65.1242,-20.9644,2188.6899],[-65.1202,-20.9611,2237.728],[-65.124,-20.941,2667.5129],[-65.1225,-20.9245,3058.8484],[-65.1124,-20.9193,3096.2419],[-65.107,-20.9087,3058.6123],[-65.106,-20.8952,3155.8191],[-65.109,-20.8845,3242.6831],[-65.1089,-20.877,3271.96],[-65.1034,-20.8764,3136.8459],[-65.0996,-20.8782,3175.4299],[-65.0953,-20.8712,3255.9026],[-65.0846,-20.8678,3422.1052],[-65.0826,-20.8638,3524.3176],[-65.0841,-20.8607,3409.6719],[-65.0938,-20.8653,3273.2661],[-65.0976,-20.8648,3291.5881],[-65.0993,-20.8589,3324.3323],[-65.1019,-20.8573,3322.4099],[-65.1037,-20.8573,3322.4099],[-65.1089,-20.8623,3235.657],[-65.1153,-20.8625,3161.7373],[-65.1256,-20.8662,3004.0581],[-65.1417,-20.8619,2753.2004],[-65.1438,-20.8677,2743.0068],[-65.1514,-20.8712,2732.5085],[-65.1511,-20.8774,2709.8525],[-65.1525,-20.8797,2649.7505],[-65.1687,-20.8878,2594.4563],[-65.1714,-20.8909,2571.0623],[-65.18,-20.893,2538.8003],[-65.1865,-20.8987,2526.6504],[-65.1912,-20.9002,2495.8674],[-65.1999,-20.8962,2675.9463],[-65.2117,-20.8877,2533.8804],[-65.2215,-20.8836,2261.4717],[-65.2379,-20.8806,2379.9719],[-65.2504,-20.8755,3072.3459],[-65.2594,-20.8768,3257.228],[-65.273,-20.866,3285.082],[-65.2974,-20.8591,3572.7388],[-65.305,-20.8616,3367.6929],[-65.3115,-20.8571,3448.5317],[-65.3128,-20.8588,3387.9087],[-65.3184,-20.8597,3413.9866],[-65.32,-20.8576,3520.8103],[-65.3289,-20.8582,3527.9707],[-65.3322,-20.8556,3576.8232],[-65.3402,-20.8543,3637.2549],[-65.3452,-20.8572,3780.7451],[-65.3483,-20.8572,3802.7402]]]]}}