{"type": "Feature","bbox": [-65.6732,-20.2461,-65.2223,-19.602],"geometry": {"type": "MultiPolygon","coordinates": [[[[-65.2223,-19.9359,3454.5525],[-65.239,-19.9336,3423.6265],[-65.2543,-19.9002,3290.9724],[-65.2532,-19.8972,3308.3547],[-65.2469,-19.8991,3287.3862],[-65.2448,-19.886,3282.7666],[-65.2465,-19.8859,3246.5173],[-65.2491,-19.8884,3233.9595],[-65.253,-19.8841,3212.5198],[-65.2559,-19.8757,3218.2651],[-65.257,-19.8645,3145.0874],[-65.2594,-19.8625,3136.2207],[-65.2586,-19.8611,3127.4651],[-65.2603,-19.8582,3137.6191],[-65.259,-19.8545,3150.8528],[-65.262,-19.8533,3100.9294],[-65.2608,-19.851,3090.1743],[-65.2642,-19.8464,3085.4187],[-65.2632,-19.8341,3054.0249],[-65.2664,-19.8312,3004.6455],[-65.2649,-19.8281,3004.2852],[-65.2652,-19.8204,3032.0044],[-65.2634,-19.8199,2994.2124],[-65.2658,-19.8102,2966.9053],[-65.2632,-19.8053,2948.4629],[-65.2589,-19.805,2923.9258],[-65.2582,-19.8033,2937.6418],[-65.2584,-19.8001,2912.5056],[-65.2639,-19.8002,2906.2068],[-65.2641,-19.7953,2929.6016],[-65.2541,-19.795,3185.9055],[-65.2377,-19.7985,3417.0645],[-65.2308,-19.796,3431.2036],[-65.2317,-19.7879,3380.2732],[-65.235,-19.7847,3335.8547],[-65.2467,-19.7582,2860.8281],[-65.2452,-19.7559,2822.4868],[-65.2465,-19.7539,2828.9658],[-65.2438,-19.7524,2856.2002],[-65.2459,-19.7502,2798.2742],[-65.2442,-19.7469,2791.27],[-65.2482,-19.7387,2801.7397],[-65.2458,-19.7322,2778.2739],[-65.2475,-19.7252,2740.5],[-65.2666,-19.713,3224.074],[-65.2707,-19.7131,3255.4651],[-65.2717,-19.7106,3336.1733],[-65.279,-19.7047,3334.1646],[-65.2872,-19.701,3315.5161],[-65.3002,-19.689,3295.5151],[-65.3037,-19.6799,3201.7986],[-65.3003,-19.6813,3204.8474],[-65.2968,-19.6738,3320.2871],[-65.2952,-19.6642,3327.9075],[-65.287,-19.6664,3320.3569],[-65.2847,-19.6637,3321.1792],[-65.285,-19.659,3329.9639],[-65.2934,-19.6459,3323.0576],[-65.3104,-19.6436,3278.3784],[-65.3104,-19.6396,3281.3784],[-65.3182,-19.6401,3272.2056],[-65.3153,-19.6259,3281.0049],[-65.3173,-19.625,3270.9595],[-65.3347,-19.6422,3260.7727],[-65.3493,-19.6299,3272.2461],[-65.3598,-19.6247,3315.4792],[-65.3671,-19.6189,3318.1567],[-65.3727,-19.6172,3309.1904],[-65.3799,-19.6245,3266.9067],[-65.3896,-19.6061,3194.1501],[-65.3916,-19.6048,3178.1689],[-65.3938,-19.6064,3175.8088],[-65.4004,-19.602,3121.542],[-65.403,-19.603,3108.8252],[-65.4078,-19.6306,3067.3005],[-65.4056,-19.6307,3101.3843],[-65.4005,-19.6385,3118.5088],[-65.384,-19.6506,3367.948],[-65.3847,-19.6619,3483.5933],[-65.4054,-19.6636,3209.552],[-65.4185,-19.67,3011.3018],[-65.4149,-19.6848,2998.6907],[-65.4171,-19.7024,2996.1411],[-65.416,-19.708,2984.627],[-65.4184,-19.7149,2971.7859],[-65.415,-19.7208,2967.3848],[-65.4149,-19.7266,2959.915],[-65.417,-19.7303,2986.1968],[-65.4207,-19.7308,3021.1401],[-65.4254,-19.7352,3303.1348],[-65.4281,-19.7259,3300.8411],[-65.4275,-19.7193,3134.6648],[-65.4316,-19.713,3189.9094],[-65.431,-19.7004,3387.0144],[-65.4385,-19.6922,3617.2793],[-65.45,-19.6992,3367.3074],[-65.4594,-19.7113,3250.3242],[-65.4636,-19.708,3237.4377],[-65.4771,-19.7069,3174.1375],[-65.4794,-19.7005,3152.7107],[-65.4781,-19.6988,3153.7871],[-65.4751,-19.7003,3201.1289],[-65.4757,-19.6941,3172.3179],[-65.4823,-19.6925,3162.9866],[-65.4827,-19.6939,3171.583],[-65.4886,-19.6959,3170.1272],[-65.4911,-19.6993,3198.3149],[-65.4948,-19.6991,3206.6479],[-65.4973,-19.6951,3222.8071],[-65.5038,-19.6947,3228.4099],[-65.5173,-19.7029,3310.1897],[-65.5184,-19.7005,3351.5972],[-65.5208,-19.7008,3378.7869],[-65.5413,-19.7094,3570.0303],[-65.5506,-19.7097,3700.7964],[-65.5536,-19.7074,3722.8379],[-65.561,-19.7076,3917.1396],[-65.5849,-19.7126,4486.6963],[-65.5869,-19.7144,4457.1133],[-65.5944,-19.7146,4375.0317],[-65.606,-19.7219,4497.2881],[-65.6097,-19.7194,4519.7158],[-65.6379,-19.7142,4723.6104],[-65.64,-19.7237,4627.8267],[-65.6546,-19.7393,4542.7168],[-65.6625,-19.7451,4494.0439],[-65.6732,-19.7478,4420.9741],[-65.6669,-19.7604,4810.6035],[-65.6519,-19.7574,4797.1968],[-65.6315,-19.7627,4656.5327],[-65.6279,-19.7643,4805.2139],[-65.6234,-19.7715,4829.0488],[-65.6142,-19.775,4665.1982],[-65.6113,-19.7808,4615.8208],[-65.6141,-19.8015,4549.9209],[-65.6275,-19.811,4575.2412],[-65.6275,-19.8192,4402.7441],[-65.6357,-19.8458,3870.1477],[-65.6353,-19.8595,3704.802],[-65.6305,-19.8716,3567.4207],[-65.631,-19.8739,3561.9175],[-65.628,-19.8771,3539.8096],[-65.6251,-19.8777,3535.9692],[-65.6209,-19.8673,3581.2793],[-65.606,-19.8645,3582.5347],[-65.5907,-19.883,3530.5376],[-65.5863,-19.8917,3476.8203],[-65.5784,-19.9004,3495.8379],[-65.5754,-19.9067,3463.9819],[-65.5693,-19.9095,3432.436],[-65.5659,-19.9154,3353.3735],[-65.5631,-19.9157,3349.343],[-65.5625,-19.9198,3334.5012],[-65.5603,-19.9191,3344.615],[-65.5599,-19.9155,3338.1836],[-65.5574,-19.9144,3344.324],[-65.5543,-19.9069,3360.9131],[-65.5504,-19.8912,3409.1829],[-65.5503,-19.8825,3430.7986],[-65.5522,-19.8745,3418.8354],[-65.5491,-19.8727,3450.3457],[-65.5253,-19.8719,3413.5078],[-65.5097,-19.8672,3395.7556],[-65.486,-19.8554,3432.3535],[-65.4798,-19.8575,3457.0337],[-65.4809,-19.8736,3451.4236],[-65.4516,-19.8869,3472.1323],[-65.4444,-19.902,3433.2439],[-65.4421,-19.9283,3546.1472],[-65.4438,-19.9319,3561.7617],[-65.4572,-19.9366,3445.3674],[-65.4786,-19.9393,3395.3853],[-65.4807,-19.942,3370.7927],[-65.4816,-19.9539,3312.812],[-65.484,-19.9552,3294.5388],[-65.4865,-19.9528,3299.8938],[-65.4891,-19.9533,3321.2515],[-65.4961,-19.9649,3377.2544],[-65.4976,-19.9736,3465.8604],[-65.4999,-19.976,3474.2869],[-65.5028,-20.0001,3404.0859],[-65.4839,-20.0121,3180.2629],[-65.4827,-20.0145,3179.3125],[-65.4834,-20.0226,3169.7754],[-65.4871,-20.034,3154.6287],[-65.4871,-20.0394,3148.2368],[-65.4892,-20.0426,3144.4316],[-65.4926,-20.0434,3143.0227],[-65.5139,-20.0564,3490.9834],[-65.512,-20.0771,3445.9277],[-65.503,-20.0799,3165.3401],[-65.4928,-20.088,3119.2356],[-65.4767,-20.0894,3382.3882],[-65.4757,-20.079,3391.634],[-65.4747,-20.0753,3402.0928],[-65.473,-20.0746,3428.188],[-65.4733,-20.0688,3381.2405],[-65.4872,-20.0599,3183.2368],[-65.4881,-20.0556,3199.1108],[-65.4657,-20.0455,3252.061],[-65.4552,-20.0465,3291.4282],[-65.4357,-20.0444,3450.0244],[-65.4354,-20.0352,3543.3931],[-65.4235,-20.0326,3643.1794],[-65.4185,-20.0508,3655.2888],[-65.4038,-20.0638,3514.446],[-65.3948,-20.0677,3450.4456],[-65.3855,-20.0788,3420.8167],[-65.3719,-20.0853,3361.9106],[-65.3689,-20.0917,3375.2629],[-65.3587,-20.0997,3343.5081],[-65.3532,-20.1202,3302.4338],[-65.3287,-20.1222,3257.7654],[-65.3299,-20.1315,3287.2251],[-65.3346,-20.1447,3262.8062],[-65.3365,-20.1455,3204.6675],[-65.3358,-20.1477,3266.8911],[-65.3391,-20.1566,3254.8079],[-65.346,-20.1648,3239.323],[-65.3567,-20.1821,3215.9084],[-65.3637,-20.1977,3179.3171],[-65.3711,-20.2059,3055.2397],[-65.3756,-20.2148,3028.6777],[-65.3656,-20.222,3157.5337],[-65.3637,-20.2272,3168.834],[-65.3667,-20.2334,3083.626],[-65.3584,-20.2461,3126.1836],[-65.3329,-20.2419,3179.2981],[-65.3137,-20.2305,3273.7397],[-65.3157,-20.2251,3241.5127],[-65.3152,-20.2153,3223.9778],[-65.3121,-20.207,3267.9299],[-65.3161,-20.1976,3150.1018],[-65.315,-20.1926,3259.2046],[-65.3096,-20.1883,3276.658],[-65.3016,-20.1778,3303.4182],[-65.2882,-20.1695,3338.8574],[-65.2844,-20.1702,3350.8457],[-65.2713,-20.1514,3692.8625],[-65.2643,-20.1576,3794.02],[-65.2571,-20.1586,3839.8633],[-65.235,-20.1464,3912.6953],[-65.2353,-20.1438,3945.9805],[-65.2326,-20.1405,3847.687],[-65.2337,-20.1305,3845.9136],[-65.239,-20.1163,3755.9841],[-65.2432,-20.1131,3818.1328],[-65.2495,-20.1034,3874.1794],[-65.256,-20.1024,3869.3892],[-65.2685,-20.0924,3637.4834],[-65.2722,-20.0795,3544.3652],[-65.2793,-20.0691,3690.886],[-65.283,-20.0597,3741.3374],[-65.283,-20.0522,3651.1572],[-65.2893,-20.0532,3517.741],[-65.2932,-20.0488,3597.71],[-65.3051,-20.0261,3658.866],[-65.305,-20.0093,3960.9019],[-65.2942,-20.0081,4053.9436],[-65.2938,-20.0066,4046.9976],[-65.2869,-20.0033,4096.2549],[-65.2827,-20.004,4002.3916],[-65.2774,-20.009,4068.627],[-65.2751,-20.0052,4104.2036],[-65.2703,-20.0039,4065.0259],[-65.2721,-19.9933,3667.9304],[-65.2683,-19.9916,3810.0811],[-65.2662,-19.9878,3966.1113],[-65.2442,-19.9702,3541.1184],[-65.2381,-19.9589,3525.375],[-65.2329,-19.9556,3520.9819],[-65.2313,-19.95,3547.4097],[-65.2278,-19.9481,3558.5803],[-65.223,-19.9413,3527.2742],[-65.2223,-19.9359,3454.5525]]]]}
,"properties": {"GID_3": "BOL.7.9.3_2","GID_0": "BOL","country": "Bolivia","GID_1": "BOL.7_1","province": "Potosí","NL_NAME_1": "NA","GID_2": "BOL.7.9_2","county": "JoséMaríaLinares","NL_NAME_2": "NA","city": "Puna","VARNAME_3": "NA","NL_NAME_3": "NA","TYPE_3": "District","ENGTYPE_3": "Distrito","CC_3": "NA","HASC_3": "NA","name": "Puna.city","area_km2": 1481.971,"hist_schema_id": "Elevation0-9000","hist_area_km2": {"2750": 0.758,"2775": 1.058,"2800": 1.816,"2825": 2.255,"2850": 2.934,"2875": 4.191,"2900": 5.507,"2925": 6.465,"2950": 7.643,"2975": 9.558,"3000": 10.655,"3025": 11.493,"3050": 13.746,"3075": 16.117,"3100": 20.045,"3125": 24.706,"3150": 30.069,"3175": 37.447,"3200": 41.59,"3225": 56.303,"3250": 77.24,"3275": 102.431,"3300": 88.243,"3325": 83.089,"3350": 76.614,"3375": 82.424,"3400": 95.955,"3425": 86.869,"3450": 69.985,"3475": 56.689,"3500": 47.384,"3525": 39.708,"3550": 31.156,"3575": 23.562,"3600": 20.113,"3625": 16.923,"3650": 14.989,"3675": 13.612,"3700": 10.184,"3725": 8.312,"3750": 7.335,"3775": 6.319,"3800": 5.343,"3825": 5.363,"3850": 4.845,"3875": 4.167,"3900": 4.148,"3925": 3.849,"3950": 3.071,"3975": 2.753,"4000": 2.473,"4025": 2.194,"4050": 2.174,"4075": 2.514,"4100": 2.195,"4125": 1.975,"4150": 1.955,"4175": 2.035,"4200": 2.334,"4225": 2.135,"4250": 2.175,"4275": 1.995,"4300": 2.294,"4325": 2.594,"4350": 2.694,"4375": 2.993,"4400": 2.893,"4425": 4.49,"4450": 3.412,"4475": 3.472,"4500": 3.712,"4525": 3.392,"4550": 3.372,"4575": 3.652,"4600": 2.993,"4625": 2.514,"4650": 3.392,"4675": 2.933,"4700": 2.415,"4725": 1.756,"4750": 1.337,"4775": 1.137,"4800": 0.579,"4825": 0.379,"4850": 0.1,"4875": 0.12,"4900": 0.08,"4925": 0.06,"4950": 0.02}}}