{"type": "Feature","bbox": [-64.3521,-21.0064,-63.8032,-19.4675],"geometry": {"type": "MultiPolygon","coordinates": [[[[-64.1613,-20.8862,664.0154],[-64.1577,-20.8903,644.5491],[-64.1602,-20.9035,635.8893],[-64.1556,-20.9058,636.5482],[-64.1453,-20.9232,636.8494],[-64.1388,-20.9187,723.7107],[-64.132,-20.922,753.2988],[-64.1307,-20.9251,655.4518],[-64.1242,-20.926,637.4082],[-64.1193,-20.9148,622.7891],[-64.1141,-20.9117,651.5543],[-64.0997,-20.9192,616.8605],[-64.0904,-20.9174,616.8582],[-64.0852,-20.919,616.5264],[-64.0776,-20.9234,611.709],[-64.0742,-20.9278,608.3018],[-64.0735,-20.932,608.4424],[-64.0656,-20.9341,606.2032],[-64.0617,-20.9537,611.5298],[-64.0585,-20.9549,598.7015],[-64.0549,-20.9539,623.4736],[-64.0528,-20.9563,598.6517],[-64.0484,-20.954,692.6666],[-64.046,-20.9573,608.748],[-64.0256,-20.9625,619.0137],[-64.0226,-20.962,594.2587],[-64.0186,-20.9561,646.1705],[-64.0124,-20.9557,590.5789],[-64.0115,-20.9472,636.9886],[-64.0093,-20.9459,614.9864],[-64.0064,-20.9467,609.3967],[-64.0056,-20.9508,585.5965],[-64.0108,-20.9688,612.6147],[-64.0033,-20.9797,574.9711],[-64.0034,-20.9816,585.487],[-64.0101,-20.9953,576.6964],[-64.0016,-21.006,591.0271],[-63.9965,-21.0064,567.322],[-63.9874,-21.0037,564.7922],[-63.8677,-21.0037,678.1966],[-63.8768,-20.9692,816.1255],[-63.875,-20.9554,859.7122],[-63.8774,-20.9549,858.2631],[-63.8815,-20.9491,785.0382],[-63.8809,-20.8757,744.9407],[-63.8769,-20.8742,777.0387],[-63.8725,-20.8748,754.9423],[-63.8709,-20.8672,864.7805],[-63.8689,-20.8684,786.239],[-63.8661,-20.8667,804.5127],[-63.8622,-20.8695,857.9142],[-63.8568,-20.8681,815.8032],[-63.8563,-20.863,831.4064],[-63.8533,-20.8571,860.4792],[-63.854,-20.8551,863.5551],[-63.8493,-20.8519,887.6907],[-63.8487,-20.8468,887.3198],[-63.8456,-20.8452,909.3624],[-63.8465,-20.8437,936.9601],[-63.8447,-20.8367,935.8424],[-63.8386,-20.8297,995.5952],[-63.8391,-20.8271,1002.429],[-63.8314,-20.8064,1279.4404],[-63.8254,-20.7505,1344.6851],[-63.8268,-20.6809,1636.3807],[-63.8292,-20.6709,1710.4789],[-63.8276,-20.6497,1745.7147],[-63.8289,-20.6402,1605.0088],[-63.8225,-20.6151,1679.8125],[-63.8189,-20.5801,1691.0449],[-63.8076,-20.5413,1625.9135],[-63.8077,-20.5338,1664.6562],[-63.8144,-20.5264,1668.1171],[-63.8069,-20.4969,1677.328],[-63.8043,-20.4789,1706.6836],[-63.8032,-20.4509,1677.8556],[-63.8052,-20.4267,1595.2765],[-63.8044,-20.4097,1570.9375],[-63.8052,-20.4013,1544.6754],[-63.8098,-20.3866,1338.9744],[-63.8212,-20.3842,1268.0601],[-63.8196,-20.378,1271.2582],[-63.8183,-20.3448,1370.1718],[-63.8168,-20.3437,1319.0421],[-63.8179,-20.3338,1281.4518],[-63.8166,-20.3173,1199.6816],[-63.8202,-20.3129,1199.927],[-63.8244,-20.3129,1193.4954],[-63.8257,-20.3136,1140.8932],[-63.8252,-20.3149,1149.2017],[-63.8312,-20.3173,1130.7115],[-63.8347,-20.3228,1103.676],[-63.8362,-20.2969,1209.0339],[-63.8324,-20.2767,1258.3756],[-63.8362,-20.2273,1180.1606],[-63.8371,-20.1689,1055.9199],[-63.8354,-20.1609,1045.1333],[-63.8395,-20.1467,1221.7698],[-63.8383,-20.1288,1295.6115],[-63.8448,-20.1134,1293.061],[-63.8423,-20.049,1740.0173],[-63.8393,-20.0375,1783.8452],[-63.8406,-19.9936,1633.0693],[-63.8449,-19.9876,1639.6257],[-63.8437,-19.9785,1667.1814],[-63.84,-19.9717,1737.0245],[-63.839,-19.9361,1703.1174],[-63.84,-19.9057,1703.1896],[-63.8381,-19.9016,1733.3422],[-63.8408,-19.8902,1719.6365],[-63.8462,-19.8851,1667.137],[-63.8474,-19.8563,1627.8433],[-63.8643,-19.8371,1392.5734],[-63.8746,-19.8195,1467.9482],[-63.887,-19.7929,1373.0449],[-63.8896,-19.7783,1632.9551],[-63.9029,-19.732,1748.322],[-63.9011,-19.7141,2003.3387],[-63.9049,-19.6605,2146.8164],[-63.9048,-19.6481,2007.314],[-63.9024,-19.635,1953.5105],[-63.9101,-19.6135,2051.8804],[-63.908,-19.6079,1978.6022],[-63.9078,-19.5721,1954.8049],[-63.9108,-19.5525,2006.632],[-63.9103,-19.5414,1888.108],[-63.9155,-19.5216,2129.8091],[-63.913,-19.5063,1788.6807],[-63.9153,-19.4928,1688.9865],[-63.9205,-19.4855,1882.5179],[-63.9225,-19.4772,1827.608],[-63.9272,-19.4764,1792.5311],[-63.9324,-19.4712,1433.8402],[-63.9457,-19.4675,1153.6675],[-63.955,-19.4676,1014.5762],[-63.9625,-19.4729,995.8442],[-63.9688,-19.4729,895.2837],[-63.9722,-19.4711,887.4755],[-63.9775,-19.4759,921.3842],[-63.9771,-19.477,886.8738],[-63.9723,-19.477,891.1074],[-63.9705,-19.4805,890.7685],[-63.9786,-19.4859,974.6284],[-63.9783,-19.4879,892.8285],[-63.9734,-19.4878,954.7125],[-63.9724,-19.4895,887.5955],[-63.9735,-19.4925,889.7675],[-63.9771,-19.4933,901.9363],[-63.9759,-19.4954,908.6434],[-63.9783,-19.4997,897.3439],[-63.9761,-19.5042,1031.2927],[-63.9795,-19.508,914.5659],[-63.9735,-19.5109,921.3225],[-63.9721,-19.5143,960.0488],[-63.9745,-19.5204,915.4816],[-63.9738,-19.5257,1005.8624],[-63.9785,-19.5274,926.4117],[-63.9784,-19.5358,917.5126],[-63.9815,-19.541,923.0519],[-63.9847,-19.5407,980.1638],[-63.9862,-19.5424,930.4198],[-63.9846,-19.5449,947.0988],[-63.9815,-19.5431,929.4563],[-63.9793,-19.5452,932.9291],[-63.9826,-19.5506,926.4312],[-63.9797,-19.5552,946.4512],[-63.9825,-19.5578,975.1796],[-63.9848,-19.5641,936.2309],[-63.9889,-19.5649,936.2076],[-63.9914,-19.5628,994.6218],[-63.994,-19.5629,1036.2218],[-64.0036,-19.5749,946.7974],[-64.011,-19.581,963.7595],[-64.0298,-19.5852,1016.9477],[-64.0378,-19.5847,1003.163],[-64.0403,-19.5828,1085.1925],[-64.0516,-19.5846,984.2629],[-64.0528,-19.5884,995.579],[-64.0502,-19.5902,1030.5361],[-64.05,-19.5926,1005.53],[-64.0585,-19.5957,991.2612],[-64.0592,-19.592,1005.9771],[-64.0612,-19.591,1013.9646],[-64.062,-19.5996,997.9072],[-64.0582,-19.602,1021.4864],[-64.0692,-19.605,1068.3519],[-64.0682,-19.6068,1024.0352],[-64.064,-19.6057,1085.1438],[-64.0651,-19.614,1059.3514],[-64.0685,-19.6132,1020.9081],[-64.0709,-19.6098,1035.1577],[-64.0695,-19.6078,1033.3076],[-64.0726,-19.606,1148.1572],[-64.0731,-19.6086,1060.9261],[-64.0762,-19.6113,1031.0253],[-64.0832,-19.611,1132.5699],[-64.079,-19.6291,1506.6986],[-64.0804,-19.6541,1578.8865],[-64.083,-19.6674,1828.8817],[-64.0806,-19.6704,1712.5024],[-64.0809,-19.6789,1772.8177],[-64.0785,-19.683,1718.4792],[-64.0799,-19.6888,1835.8461],[-64.0941,-19.69,1330.149],[-64.1091,-19.6884,1132.0276],[-64.1175,-19.69,1162.8335],[-64.1222,-19.6882,1186.9197],[-64.1261,-19.6899,1254.3582],[-64.1273,-19.6849,1507.5841],[-64.1342,-19.6865,1413.9565],[-64.1413,-19.6905,1524.4194],[-64.1477,-19.6911,1649.9412],[-64.1549,-19.6879,1875.0767],[-64.1651,-19.6765,2298.2312],[-64.165,-19.6879,2350.7578],[-64.1602,-19.6968,2410.144],[-64.1653,-19.7016,2395.7786],[-64.168,-19.712,2298.1533],[-64.1599,-19.7226,2228.7986],[-64.1638,-19.7259,2174.1013],[-64.1688,-19.7388,2207.7632],[-64.165,-19.7488,2184.1221],[-64.1582,-19.7568,2217.241],[-64.1619,-19.7641,2248.8591],[-64.1641,-19.7923,2228.092],[-64.1603,-19.8229,2038.0662],[-64.1617,-19.8255,2027.9625],[-64.1608,-19.8329,2142.2122],[-64.1622,-19.8372,2103.9487],[-64.1605,-19.8434,2028.771],[-64.1626,-19.8483,2082.5784],[-64.1661,-19.8508,2080.9224],[-64.1674,-19.86,1696.7585],[-64.1749,-19.8628,1515.3977],[-64.1766,-19.8653,1421.8245],[-64.1747,-19.8706,1332.933],[-64.1766,-19.8739,1304.2694],[-64.1817,-19.8749,1321.6305],[-64.1833,-19.8702,1368.5094],[-64.1861,-19.871,1311.7306],[-64.1877,-19.8697,1316.2823],[-64.1882,-19.8733,1372.7423],[-64.1941,-19.8746,1387.583],[-64.2026,-19.8685,1551.8345],[-64.2184,-19.8628,1993.199],[-64.233,-19.855,2739.603],[-64.2415,-19.8569,2609.6133],[-64.247,-19.8671,2432.3857],[-64.2579,-19.8661,2347.7114],[-64.2647,-19.8619,2481.7642],[-64.2786,-19.8585,2729.1677],[-64.287,-19.8612,2917.8743],[-64.2937,-19.8597,3147.7629],[-64.2985,-19.8618,3240.5574],[-64.3103,-19.8603,3354.2256],[-64.3167,-19.8707,3176.1204],[-64.3164,-19.8756,3194.6565],[-64.3186,-19.8815,3045.2886],[-64.3168,-19.8907,3042.259],[-64.3208,-19.91,2976.8574],[-64.3263,-19.9183,3013.228],[-64.3267,-19.9213,2969.7388],[-64.3201,-19.9588,2549.0269],[-64.3208,-19.9754,2883.0776],[-64.3298,-19.9856,2872.1587],[-64.3326,-19.9859,2786.9834],[-64.3352,-19.982,2693.4734],[-64.3503,-19.9861,3050.6902],[-64.3521,-20.0049,3193.9556],[-64.3448,-20.0145,3170.7002],[-64.3427,-20.0241,2985.7151],[-64.3364,-20.0275,2932.9944],[-64.3314,-20.0418,2908.5935],[-64.3177,-20.0454,2798.1255],[-64.3118,-20.0662,2590.0684],[-64.3029,-20.0729,2741.6228],[-64.2984,-20.0802,2685.5049],[-64.2922,-20.1034,2489.0378],[-64.2913,-20.1123,2184.4148],[-64.2994,-20.1301,2256.6367],[-64.3004,-20.141,2358.78],[-64.3148,-20.1508,2611.0044],[-64.3131,-20.1595,2644.8694],[-64.3159,-20.1684,2664.4028],[-64.3148,-20.177,2760.6514],[-64.3162,-20.1834,2761.1511],[-64.3107,-20.1916,2790.1545],[-64.3018,-20.1935,2576.5303],[-64.2979,-20.2142,2431.9165],[-64.2942,-20.221,2476.2646],[-64.296,-20.2295,2345.3909],[-64.2963,-20.2515,1753.2616],[-64.2895,-20.2548,1743.3585],[-64.2853,-20.2588,1686.1245],[-64.2871,-20.2622,1711.1287],[-64.2924,-20.2593,1935.4042],[-64.301,-20.2603,2005.3785],[-64.3134,-20.2778,2574.4634],[-64.3001,-20.2985,1920.2758],[-64.2991,-20.306,1894.6584],[-64.2909,-20.3232,1592.7632],[-64.2897,-20.3286,1552.7789],[-64.2915,-20.3296,1620.0891],[-64.2885,-20.3344,1584.9565],[-64.2902,-20.3374,1479.5059],[-64.2897,-20.3422,1448.0063],[-64.2875,-20.3442,1460.7261],[-64.2897,-20.3479,1437.5699],[-64.2896,-20.3522,1362.3662],[-64.287,-20.3624,1310.3293],[-64.2891,-20.3648,1343.5134],[-64.2899,-20.3699,1309.7773],[-64.2887,-20.3699,1343.1201],[-64.2895,-20.3737,1301.2927],[-64.2877,-20.3754,1298.9927],[-64.2907,-20.3773,1270.386],[-64.2839,-20.3796,1206.9062],[-64.2803,-20.3913,1200.2991],[-64.2828,-20.3921,1177.272],[-64.2829,-20.3946,1167.1599],[-64.2865,-20.3973,1178.5552],[-64.288,-20.3968,1184.5358],[-64.2865,-20.3996,1144.754],[-64.2898,-20.4037,1131.5811],[-64.2911,-20.4098,1168.8428],[-64.2893,-20.4142,1102.9741],[-64.2915,-20.4182,1127.0841],[-64.2917,-20.4296,1099.6069],[-64.2886,-20.4332,1046.4803],[-64.2906,-20.4356,995.9826],[-64.2914,-20.4411,1065.7417],[-64.2881,-20.4462,995.0527],[-64.29,-20.4489,940.188],[-64.2887,-20.4537,999.2158],[-64.2914,-20.4571,914.3146],[-64.2829,-20.4637,914.3267],[-64.2884,-20.4767,930.1406],[-64.2872,-20.4873,920.0587],[-64.2881,-20.4935,904.3457],[-64.2845,-20.4969,890.0781],[-64.275,-20.4974,903.2621],[-64.2729,-20.5034,865.694],[-64.2735,-20.5079,864.7255],[-64.2687,-20.5183,859.6441],[-64.2686,-20.5218,872.8944],[-64.2607,-20.5259,860.8651],[-64.2584,-20.5229,979.3744],[-64.2549,-20.5225,877.1942],[-64.2475,-20.525,844.9674],[-64.2386,-20.5423,837.2949],[-64.2321,-20.5438,869.5583],[-64.2301,-20.546,885.7673],[-64.2312,-20.549,912.212],[-64.2346,-20.5502,832.2556],[-64.2356,-20.5524,866.8888],[-64.2353,-20.5558,827.2518],[-64.2321,-20.558,823.38],[-64.2316,-20.5602,819.9512],[-64.2385,-20.5713,815.1638],[-64.2367,-20.5771,825.7214],[-64.239,-20.5811,812.1032],[-64.2375,-20.5941,875.887],[-64.2412,-20.6023,798.5502],[-64.2419,-20.6136,792.7631],[-64.2396,-20.6186,847.5132],[-64.2442,-20.6259,789.6234],[-64.2392,-20.6276,900.5854],[-64.2383,-20.6296,836.5901],[-64.2433,-20.6325,799.516],[-64.2418,-20.6367,781.3194],[-64.2429,-20.6461,789.4602],[-64.2416,-20.6478,837.7188],[-64.2368,-20.6488,827.702],[-64.2384,-20.653,810.1711],[-64.2418,-20.6522,848.0638],[-64.2395,-20.6613,800.9874],[-64.2414,-20.6678,776.2319],[-64.2404,-20.6702,766.9536],[-64.2367,-20.6718,788.098],[-64.2322,-20.6827,755.4423],[-64.2337,-20.6889,753.7713],[-64.2321,-20.692,747.4388],[-64.2275,-20.6949,745.1663],[-64.2259,-20.6999,755.1414],[-64.2277,-20.7047,740.6716],[-64.2246,-20.7087,746.0314],[-64.2243,-20.7145,735.2656],[-64.2211,-20.7185,733.3579],[-64.2201,-20.7231,735.1569],[-64.2123,-20.729,731.3123],[-64.1953,-20.7263,719.3533],[-64.1893,-20.7273,718.5709],[-64.1869,-20.7307,715.8348],[-64.1844,-20.731,727.1288],[-64.184,-20.7373,714.2375],[-64.1792,-20.7404,710.5721],[-64.184,-20.7457,711.0157],[-64.1823,-20.7467,708.443],[-64.1778,-20.7451,845.3646],[-64.1782,-20.7471,708.4564],[-64.1879,-20.7565,703.2602],[-64.1885,-20.7624,698.494],[-64.1927,-20.7676,696.4402],[-64.1873,-20.7696,701.608],[-64.1828,-20.7639,776.5766],[-64.1807,-20.7676,704.9242],[-64.1831,-20.7817,686.2235],[-64.187,-20.7831,686.5836],[-64.1903,-20.7816,692.668],[-64.193,-20.7855,688.2009],[-64.1916,-20.7882,682.0762],[-64.1855,-20.7901,706.3905],[-64.1837,-20.7922,742.4984],[-64.1895,-20.8038,680.9028],[-64.1883,-20.8104,672.8642],[-64.1893,-20.8164,670.1772],[-64.1882,-20.8246,666.886],[-64.1824,-20.8287,666.0754],[-64.1833,-20.8346,666.9112],[-64.1792,-20.8405,688.2706],[-64.1815,-20.8459,664.6439],[-64.1872,-20.8489,689.3105],[-64.1874,-20.8508,662.585],[-64.1845,-20.8552,655.202],[-64.1747,-20.8619,701.2067],[-64.1713,-20.867,675.902],[-64.1701,-20.8783,645.5375],[-64.167,-20.8827,643.2469],[-64.1613,-20.8862,664.0154]]]]}
,"properties": {"GID_2": "BOL.1.3_2","GID_0": "BOL","country": "Bolivia","GID_1": "BOL.1_1","province": "Chuquisaca","NL_NAME_1": "NA","county": "HernandoSiles","VARNAME_2": "NA","NL_NAME_2": "NA","TYPE_2": "Provincia","ENGTYPE_2": "Province","CC_2": "NA","HASC_2": "NA","name": "Hernando_Siles.county","area_km2": 6362.488,"hist_schema_id": "Elevation0-9000","hist_area_km2": {"575": 1.128,"600": 4.752,"625": 9.03,"650": 16.537,"675": 27.632,"700": 35.102,"725": 44.813,"750": 56.348,"775": 65.089,"800": 76.589,"825": 81.035,"850": 80.51,"875": 77.965,"900": 79.492,"925": 90.112,"950": 100.802,"975": 110.727,"1000": 128.948,"1025": 148.537,"1050": 166.928,"1075": 186.262,"1100": 206.194,"1125": 225.271,"1150": 241.187,"1175": 246.575,"1200": 244.047,"1225": 231.446,"1250": 213.595,"1275": 200.535,"1300": 181.598,"1325": 170.483,"1350": 155.922,"1375": 148.516,"1400": 137.364,"1425": 129.05,"1450": 119.576,"1475": 111.662,"1500": 107.338,"1525": 106.364,"1550": 100.106,"1575": 97.19,"1600": 96.77,"1625": 91.334,"1650": 85.372,"1675": 80.252,"1700": 76.352,"1725": 72.771,"1750": 67.612,"1775": 63.392,"1800": 62.418,"1825": 60.486,"1850": 55.59,"1875": 51.723,"1900": 49.533,"1925": 46.627,"1950": 40.251,"1975": 39.673,"2000": 34.534,"2025": 31.725,"2050": 28.778,"2075": 25.392,"2100": 23.162,"2125": 20.056,"2150": 17.747,"2175": 15.657,"2200": 13.645,"2225": 11.475,"2250": 9.622,"2275": 9.443,"2300": 8.686,"2325": 7.471,"2350": 7.471,"2375": 6.376,"2400": 6.396,"2425": 6.197,"2450": 5.838,"2475": 4.941,"2500": 5.4,"2525": 5.34,"2550": 4.862,"2575": 5.041,"2600": 4.224,"2625": 4.005,"2650": 3.706,"2675": 3.308,"2700": 3.228,"2725": 2.909,"2750": 2.77,"2775": 2.312,"2800": 1.794,"2825": 1.933,"2850": 1.435,"2875": 1.495,"2900": 1.375,"2925": 1.355,"2950": 1.276,"2975": 1.256,"3000": 1.236,"3025": 0.897,"3050": 0.897,"3075": 0.578,"3100": 0.578,"3125": 0.578,"3150": 0.498,"3175": 0.239,"3200": 0.319,"3225": 0.14,"3250": 0.159,"3275": 0.06,"3300": 0.06,"3325": 0.06}}}