{"type": "Feature","bbox": [-68.7894,-16.3957,-68.5671,-16.2397],"geometry": {"type": "MultiPolygon","coordinates": [[[[-68.7198,-16.3957,3811.4409],[-68.717,-16.3952,3811.3691],[-68.715,-16.392,3811.426],[-68.7082,-16.3879,3811.2625],[-68.7088,-16.3798,3809.6248],[-68.7018,-16.3863,3811.2271],[-68.6924,-16.3805,3808.9507],[-68.6923,-16.3776,3808.5],[-68.6897,-16.3781,3808.5],[-68.6897,-16.3736,3808.5],[-68.6834,-16.368,3811.312],[-68.6866,-16.3651,3809.2266],[-68.6859,-16.3618,3825.197],[-68.6764,-16.3542,3808.5],[-68.6763,-16.3488,3808.5],[-68.6788,-16.3477,3808.5],[-68.678,-16.341,3810.7412],[-68.6871,-16.3394,3809.9519],[-68.6924,-16.3358,3816.6597],[-68.695,-16.3312,3838.7214],[-68.7,-16.3319,3809.9644],[-68.7026,-16.3347,3808.5],[-68.7073,-16.3334,3811.4736],[-68.7094,-16.3359,3812.2346],[-68.7139,-16.3345,3812.293],[-68.708,-16.3471,3811.2124],[-68.7122,-16.3507,3813.1528],[-68.717,-16.3502,3811.5388],[-68.7214,-16.3468,3831.825],[-68.7212,-16.339,3832.7417],[-68.7283,-16.3377,3815.1487],[-68.7313,-16.3284,3811.1909],[-68.7269,-16.3281,3824.7529],[-68.7244,-16.3304,3823.4482],[-68.7159,-16.3325,3811.3459],[-68.7196,-16.328,3810.4631],[-68.7156,-16.3211,3808.9956],[-68.7052,-16.3202,3813.9695],[-68.6916,-16.3264,3826.9253],[-68.6897,-16.325,3812.8323],[-68.6919,-16.3227,3813.9236],[-68.6908,-16.3154,3809.6848],[-68.6984,-16.3085,3811.4861],[-68.6938,-16.3062,3808.5],[-68.681,-16.3084,3814.7231],[-68.6679,-16.3185,3812.3325],[-68.6612,-16.3192,3811.0725],[-68.6555,-16.3176,3808.8799],[-68.6431,-16.3271,3823.0308],[-68.6402,-16.3276,3810.2776],[-68.6405,-16.3298,3815.0464],[-68.6342,-16.3358,3810.9866],[-68.6294,-16.3337,3809.2209],[-68.6272,-16.3361,3809.9692],[-68.628,-16.3324,3813.4055],[-68.6318,-16.3274,3810.6775],[-68.6303,-16.3271,3815.3467],[-68.6148,-16.3366,3822.7295],[-68.6071,-16.3358,3811.0286],[-68.5945,-16.3278,3811.0532],[-68.5941,-16.3248,3811.0168],[-68.5925,-16.3255,3810.9661],[-68.5899,-16.3226,3811.0229],[-68.5868,-16.3228,3811.1025],[-68.5852,-16.3215,3811.4277],[-68.5861,-16.315,3811.1377],[-68.5898,-16.3129,3810.1787],[-68.5907,-16.3092,3811.5073],[-68.5952,-16.3032,3810.938],[-68.5944,-16.3075,3811.3901],[-68.5955,-16.3075,3811.3901],[-68.5976,-16.3,3817.2937],[-68.6019,-16.2966,3811.0615],[-68.6041,-16.2889,3812.1096],[-68.6022,-16.2874,3810.6318],[-68.6019,-16.2833,3817.0586],[-68.5998,-16.2814,3813.8044],[-68.598,-16.2827,3813.8044],[-68.5945,-16.2791,3810.5991],[-68.5916,-16.2824,3810.6018],[-68.5941,-16.2852,3814.9622],[-68.5909,-16.2848,3811.9253],[-68.589,-16.2774,3814.2488],[-68.5837,-16.2766,3812.175],[-68.5814,-16.2731,3811.7229],[-68.5805,-16.2792,3811.353],[-68.5823,-16.2824,3814.9023],[-68.5791,-16.2844,3811.5132],[-68.5778,-16.2816,3811.0884],[-68.5795,-16.2776,3811.2954],[-68.5791,-16.2729,3810.6528],[-68.5743,-16.269,3811.2271],[-68.5671,-16.2676,3812.1245],[-68.5688,-16.2642,3813.1343],[-68.5743,-16.2633,3810.7842],[-68.5717,-16.2606,3810.8013],[-68.573,-16.2577,3811.001],[-68.602,-16.2593,3808.5],[-68.6387,-16.2397,3808.5],[-68.6526,-16.2468,3808.5],[-68.6905,-16.2854,3808.5],[-68.7249,-16.3137,3808.5],[-68.7634,-16.2806,3808.5],[-68.7789,-16.2794,3808.5],[-68.7894,-16.2908,3808.5],[-68.7882,-16.3214,3808.5],[-68.756,-16.3604,3808.5],[-68.7254,-16.378,3808.5],[-68.7198,-16.3957,3811.4409]],
[[-68.7611,-16.3107,3813.8042],[-68.7596,-16.3153,3809.0662],[-68.7627,-16.3171,3809.8875],[-68.7681,-16.3134,3809.4802],[-68.7699,-16.3086,3812.0281],[-68.7765,-16.3088,3810.675],[-68.7812,-16.301,3808.5],[-68.7797,-16.2948,3811.7393],[-68.772,-16.2918,3821.8284],[-68.7637,-16.2967,3812.1802],[-68.7518,-16.2988,3808.5],[-68.7513,-16.2999,3808.5],[-68.7556,-16.3025,3810.5098],[-68.7562,-16.3049,3813.0085],[-68.7472,-16.3074,3808.5],[-68.7467,-16.3088,3811.4893],[-68.7552,-16.3108,3812.3965],[-68.7562,-16.3132,3808.5],[-68.7591,-16.3091,3810.2827],[-68.7611,-16.3107,3813.8042]],
[[-68.7547,-16.3302,3808.5],[-68.759,-16.329,3808.5],[-68.7587,-16.3238,3808.5],[-68.7529,-16.3277,3808.5],[-68.7523,-16.3295,3810.0962],[-68.7547,-16.3302,3808.5]],
[[-68.7323,-16.3545,3823.5339],[-68.7345,-16.3568,3814.9307],[-68.7304,-16.3655,3809.0168],[-68.7352,-16.362,3816.3567],[-68.7367,-16.3557,3813.9148],[-68.7438,-16.3505,3819.8545],[-68.7452,-16.346,3826.2539],[-68.7439,-16.3421,3819.2134],[-68.736,-16.3465,3814.2197],[-68.736,-16.3494,3811.8044],[-68.7323,-16.3545,3823.5339]],
[[-68.6933,-16.352,3809.0107],[-68.694,-16.3492,3819.9954],[-68.6926,-16.3467,3821.2261],[-68.6872,-16.3468,3818.7412],[-68.6866,-16.3504,3834.6843],[-68.6881,-16.3531,3808.5],[-68.6933,-16.352,3809.0107]],
[[-68.7014,-16.353,3813.377],[-68.6999,-16.3534,3810.2114],[-68.6998,-16.3578,3809.7937],[-68.7038,-16.3592,3808.5],[-68.7049,-16.3561,3808.5],[-68.7014,-16.353,3813.377]]]]}
,"properties": {"GID_3": "BOL.4.14.2_2","GID_0": "BOL","country": "Bolivia","GID_1": "BOL.4_1","province": "LaPaz","NL_NAME_1": "NA","GID_2": "BOL.4.14_2","county": "LosAndes","NL_NAME_2": "NA","city": "LagoTiticaca","VARNAME_3": "NA","NL_NAME_3": "NA","TYPE_3": "Lago","ENGTYPE_3": "Waterbody","CC_3": "NA","HASC_3": "NA","name": "Lago_Titicaca.city","area_km2": 155.6285,"hist_schema_id": "Elevation0-9000","hist_area_km2": {"3800": 154.896,"3825": 0.7325}}}