{"type": "Feature","bbox": [-67.709,-17.0135,-67.4323,-16.6207],"geometry": {"type": "MultiPolygon","coordinates": [[[[-67.4978,-16.6207,1286.1304],[-67.5035,-16.6223,1332.7286],[-67.5067,-16.6282,1352.7278],[-67.5159,-16.6327,1333.874],[-67.5156,-16.6376,1354.1447],[-67.5176,-16.6393,1398.3102],[-67.517,-16.6412,1477.297],[-67.5187,-16.6438,1360.7015],[-67.5168,-16.65,1390.8041],[-67.5184,-16.6541,1348.6431],[-67.5175,-16.6568,1437.3889],[-67.52,-16.6626,1435.1875],[-67.5243,-16.6665,1380.7839],[-67.5384,-16.6715,1417.8561],[-67.5419,-16.6759,1403.0328],[-67.5465,-16.6743,1413.8657],[-67.5526,-16.6759,1419.0762],[-67.5578,-16.681,1453.3251],[-67.5641,-16.6942,1475.314],[-67.5786,-16.6985,1481.1725],[-67.5919,-16.7129,1608.098],[-67.5939,-16.723,1654.5812],[-67.5967,-16.7229,1578.6405],[-67.5982,-16.7276,1603.4834],[-67.6013,-16.7283,1674.0415],[-67.6005,-16.7317,1579.7471],[-67.6063,-16.7398,1605.8473],[-67.6145,-16.7395,1676.5317],[-67.6197,-16.7431,1724.835],[-67.6228,-16.7434,1636.4647],[-67.6283,-16.7564,1752.515],[-67.6339,-16.763,1715.176],[-67.6386,-16.7653,1688.4594],[-67.6431,-16.764,1700.8617],[-67.6463,-16.7655,1682.67],[-67.6524,-16.7774,1694.1948],[-67.6574,-16.7783,1698.2556],[-67.6624,-16.7825,1713.1672],[-67.6641,-16.7851,1741.9028],[-67.6604,-16.7933,1749.8464],[-67.6619,-16.7981,1750.2858],[-67.6678,-16.8025,1799.3087],[-67.6776,-16.8033,1783.9851],[-67.6828,-16.8055,1808.2065],[-67.6889,-16.8041,1869.7688],[-67.6961,-16.8069,1820.2363],[-67.7082,-16.8208,1878.2314],[-67.7088,-16.8268,1879.5355],[-67.7016,-16.8453,1926.9602],[-67.6992,-16.8579,1951.4882],[-67.7001,-16.8634,1975.719],[-67.7086,-16.8735,2005.0248],[-67.709,-16.8795,2043.1843],[-67.7058,-16.8849,2026.3943],[-67.701,-16.8878,2059.9417],[-67.6949,-16.8986,2060.3706],[-67.6958,-16.9074,2081.1335],[-67.6926,-16.9245,2121.1277],[-67.688,-16.936,2152.5195],[-67.6887,-16.943,2183.4268],[-67.6809,-16.9488,2195.8745],[-67.6818,-16.9595,2216.0278],[-67.6789,-16.9677,2237.7651],[-67.6714,-16.9739,2267.2729],[-67.6681,-16.987,2302.897],[-67.6648,-16.9923,2314.0688],[-67.6581,-16.9985,2338.9854],[-67.6468,-17.0024,2378.9626],[-67.6386,-17.0013,2417.2083],[-67.6209,-17.0032,2531.2776],[-67.6137,-17.0002,2997.0796],[-67.606,-17.0042,3048.7939],[-67.597,-17.0029,3419.2771],[-67.5775,-17.0036,3425.7964],[-67.5704,-17.0094,3698.834],[-67.5607,-17.0135,3672.3088],[-67.5526,-17.0106,3567.7976],[-67.5447,-17.0062,3620.6375],[-67.5443,-16.9963,3443.1541],[-67.5426,-16.9946,3364.6704],[-67.5295,-16.9874,3482.6807],[-67.5181,-16.9844,3616.2312],[-67.5036,-16.9653,3969.2095],[-67.4983,-16.9482,4616.6426],[-67.4988,-16.9412,4487.0078],[-67.4961,-16.9386,4437.2158],[-67.5002,-16.9335,4339.3252],[-67.4946,-16.9178,4461.5483],[-67.4947,-16.9144,4477.2246],[-67.4982,-16.9091,4428.3232],[-67.4956,-16.9045,4364.957],[-67.4824,-16.8969,4426.5322],[-67.4803,-16.8925,4619.208],[-67.4807,-16.8886,4826.1074],[-67.4794,-16.8874,4856.0859],[-67.4702,-16.8875,5023.7153],[-67.4647,-16.8929,5304.6865],[-67.4609,-16.8926,5344.4287],[-67.4583,-16.8949,5256.4189],[-67.4538,-16.8945,5408.7979],[-67.4508,-16.8977,5487.8105],[-67.4416,-16.9017,5352.5],[-67.4341,-16.9007,5300.6743],[-67.4323,-16.8981,5298.2695],[-67.4417,-16.8802,4815.4258],[-67.4542,-16.8749,5074.6304],[-67.4642,-16.8681,5107.1372],[-67.4739,-16.8533,5126.8315],[-67.4844,-16.8436,5150.8506],[-67.5,-16.8337,5015.248],[-67.5064,-16.8111,5061.0127],[-67.5139,-16.8032,5025.5635],[-67.5143,-16.7865,4856.4814],[-67.519,-16.7732,4943.3286],[-67.5135,-16.765,5012.4419],[-67.5083,-16.7607,5071.9478],[-67.504,-16.7618,4952.5664],[-67.4932,-16.7587,4886.3921],[-67.4935,-16.7529,4706.3931],[-67.488,-16.7477,4726.5903],[-67.4892,-16.7425,4730.6904],[-67.4823,-16.7413,4640.4863],[-67.4783,-16.7428,4638.5654],[-67.4756,-16.7357,4333.5049],[-67.4702,-16.7326,4384.3623],[-67.4649,-16.7318,4381.957],[-67.4629,-16.729,4488.1055],[-67.4585,-16.7295,4461.8105],[-67.4526,-16.7203,4426.585],[-67.4531,-16.7181,4375.9492],[-67.446,-16.716,4327.3594],[-67.4506,-16.6949,4111.1348],[-67.4746,-16.6826,3762.9795],[-67.4776,-16.6767,3758.7261],[-67.4785,-16.6685,3691.2715],[-67.4825,-16.6579,3095.9133],[-67.4871,-16.6544,2927.9482],[-67.4932,-16.6437,2754.6101],[-67.4978,-16.6207,1286.1304]]]]}
,"properties": {"GID_3": "BOL.4.13.1_2","GID_0": "BOL","country": "Bolivia","GID_1": "BOL.4_1","province": "LaPaz","NL_NAME_1": "NA","GID_2": "BOL.4.13_2","county": "Loayza","NL_NAME_2": "NA","city": "Cairoma","VARNAME_3": "NA","NL_NAME_3": "NA","TYPE_3": "District","ENGTYPE_3": "Distrito","CC_3": "NA","HASC_3": "NA","name": "Cairoma.city","area_km2": 688.0529,"hist_schema_id": "Elevation0-9000","hist_area_km2": {"1275": 0.0203,"1300": 0.1625,"1325": 0.1219,"1350": 0.2235,"1375": 0.2641,"1400": 0.5078,"1425": 0.5281,"1450": 0.4875,"1475": 0.589,"1500": 0.6499,"1525": 0.4265,"1550": 0.7109,"1575": 0.8124,"1600": 0.7718,"1625": 0.7717,"1650": 0.9139,"1675": 1.1373,"1700": 0.9747,"1725": 1.2794,"1750": 1.1371,"1775": 1.665,"1800": 1.5635,"1825": 1.7259,"1850": 1.9085,"1875": 2.0303,"1900": 2.1115,"1925": 2.5784,"1950": 2.3347,"1975": 2.5377,"2000": 2.7813,"2025": 3.3496,"2050": 3.2074,"2075": 3.3089,"2100": 3.6336,"2125": 4.0798,"2150": 3.8766,"2175": 4.0799,"2200": 4.4858,"2225": 4.8911,"2250": 5.216,"2275": 5.196,"2300": 5.0332,"2325": 4.9721,"2350": 5.3779,"2375": 5.8243,"2400": 5.2562,"2425": 5.9465,"2450": 5.5203,"2475": 5.8245,"2500": 5.4187,"2525": 5.865,"2550": 5.8243,"2575": 5.9663,"2600": 6.088,"2625": 6.3316,"2650": 6.6565,"2675": 5.9053,"2700": 6.3923,"2725": 5.9051,"2750": 5.5604,"2775": 5.6617,"2800": 6.3312,"2825": 5.6618,"2850": 5.3571,"2875": 5.8642,"2900": 5.8846,"2925": 6.4123,"2950": 6.3108,"2975": 6.4121,"3000": 6.0675,"3025": 5.864,"3050": 5.7625,"3075": 6.2294,"3100": 6.2497,"3125": 6.5745,"3150": 6.1885,"3175": 6.3716,"3200": 6.7163,"3225": 5.6001,"3250": 6.8174,"3275": 6.5337,"3300": 6.0059,"3325": 7.0612,"3350": 6.9999,"3375": 6.533,"3400": 7.7708,"3425": 7.3245,"3450": 7.4664,"3475": 7.2839,"3500": 6.9996,"3525": 7.8924,"3550": 6.9183,"3575": 7.223,"3600": 7.9735,"3625": 8.0137,"3650": 8.0141,"3675": 7.5472,"3700": 8.0955,"3725": 7.8519,"3750": 7.7501,"3775": 7.7709,"3800": 7.5071,"3825": 7.3243,"3850": 7.6894,"3875": 7.933,"3900": 7.8111,"3925": 7.9125,"3950": 7.9735,"3975": 7.3855,"4000": 7.4665,"4025": 7.4666,"4050": 7.0196,"4075": 7.2032,"4100": 6.4519,"4125": 6.0057,"4150": 5.5797,"4175": 5.4578,"4200": 5.2959,"4225": 4.9107,"4250": 4.0584,"4275": 4.9107,"4300": 4.2414,"4325": 4.4644,"4350": 3.6529,"4375": 3.2468,"4400": 3.8559,"4425": 3.4293,"4450": 2.7802,"4475": 3.4903,"4500": 3.2674,"4525": 2.7602,"4550": 2.8413,"4575": 2.6181,"4600": 3.0646,"4625": 3.0036,"4650": 2.5776,"4675": 2.8211,"4700": 2.3949,"4725": 2.679,"4750": 2.5167,"4775": 2.3137,"4800": 2.3745,"4825": 2.6992,"4850": 2.2729,"4875": 2.3338,"4900": 1.9888,"4925": 1.867,"4950": 1.9279,"4975": 1.3799,"5000": 1.3595,"5025": 1.0146,"5050": 1.0551,"5075": 0.8522,"5100": 0.8928,"5125": 0.771,"5150": 0.6695,"5175": 0.4869,"5200": 0.5275,"5225": 0.3043,"5250": 0.3449,"5275": 0.2637,"5300": 0.1826,"5325": 0.1217,"5350": 0.1623,"5375": 0.1623,"5400": 0.1623,"5425": 0.2029,"5450": 0.0609,"5475": 0.0811,"5500": 0.0609}}}