{"type": "Feature","bbox": [-65.8829,-20.292,-65.4421,-19.7574],"geometry": {"type": "MultiPolygon","coordinates": [[[[-65.8829,-19.9661,4416.5376],[-65.8763,-19.9816,4516.707],[-65.8574,-19.9906,4339.2734],[-65.8539,-19.9966,4360.2534],[-65.8384,-20.0049,4096.4839],[-65.8102,-20.0126,4475.9854],[-65.8034,-20.0328,4379.2964],[-65.7956,-20.0416,4313.9771],[-65.793,-20.0649,4345.2197],[-65.7853,-20.0905,4447.8823],[-65.7749,-20.0965,4272.3501],[-65.7708,-20.1031,3874.0293],[-65.7722,-20.1104,3779.8291],[-65.7706,-20.1264,3636.4385],[-65.7663,-20.1307,3543.6226],[-65.7616,-20.1326,3466.3333],[-65.76,-20.136,3452.2261],[-65.755,-20.1364,3374.6279],[-65.7511,-20.1447,3308.1379],[-65.7516,-20.1493,3307.7178],[-65.7501,-20.1526,3282.3027],[-65.715,-20.1947,3473.4333],[-65.6818,-20.216,2792.9419],[-65.6713,-20.22,3229.5242],[-65.6601,-20.2202,3338.2546],[-65.6484,-20.2231,3410.7036],[-65.6514,-20.2294,3418.1638],[-65.649,-20.2392,3432.6021],[-65.6503,-20.2482,3431.6614],[-65.6388,-20.247,3257.1287],[-65.6319,-20.2511,3121.3311],[-65.6277,-20.2502,3117.2666],[-65.6168,-20.2559,3152.8667],[-65.6078,-20.2587,3155.9468],[-65.5544,-20.292,3287.8728],[-65.5596,-20.2438,3556.7368],[-65.5563,-20.2399,3590.5034],[-65.5517,-20.1816,3625.2495],[-65.5526,-20.1686,3712.0361],[-65.556,-20.1631,3763.2109],[-65.553,-20.1396,3736.3008],[-65.5677,-20.1248,3936.3845],[-65.5498,-20.1215,3656.2017],[-65.5354,-20.1164,3413.2932],[-65.5158,-20.1159,3540.9192],[-65.5102,-20.111,3473.0654],[-65.5037,-20.1007,3279.2129],[-65.5,-20.0896,3099.998],[-65.5016,-20.0809,3165.3401],[-65.512,-20.0771,3445.9277],[-65.5139,-20.0564,3490.9834],[-65.4926,-20.0434,3143.0227],[-65.4892,-20.0426,3144.4316],[-65.4871,-20.0394,3148.2368],[-65.4871,-20.034,3154.6287],[-65.4834,-20.0223,3169.7754],[-65.4827,-20.0145,3179.3125],[-65.4839,-20.0121,3180.2629],[-65.5028,-20.0001,3404.0859],[-65.4999,-19.976,3474.2869],[-65.4976,-19.9736,3465.8604],[-65.4961,-19.9649,3377.2544],[-65.4891,-19.9533,3321.2515],[-65.4865,-19.9528,3299.8938],[-65.484,-19.9552,3294.5388],[-65.4816,-19.9539,3312.812],[-65.4807,-19.942,3370.7927],[-65.4786,-19.9393,3395.3853],[-65.4572,-19.9366,3445.3674],[-65.4438,-19.9319,3561.7617],[-65.4421,-19.9283,3546.1472],[-65.4444,-19.902,3433.2439],[-65.4516,-19.8869,3472.1323],[-65.4809,-19.8736,3451.4236],[-65.4798,-19.8575,3457.0337],[-65.486,-19.8554,3432.3535],[-65.5097,-19.8672,3395.7556],[-65.5253,-19.8719,3413.5078],[-65.5491,-19.8727,3450.3457],[-65.5522,-19.8745,3418.8354],[-65.5503,-19.8825,3430.7986],[-65.5505,-19.8919,3371.3459],[-65.556,-19.912,3345.0007],[-65.5574,-19.9144,3344.324],[-65.5595,-19.9148,3338.1836],[-65.5603,-19.9191,3344.615],[-65.5625,-19.9198,3334.5012],[-65.5631,-19.9157,3349.343],[-65.5659,-19.9154,3353.3735],[-65.5693,-19.9095,3432.436],[-65.5754,-19.9067,3463.9819],[-65.5784,-19.9004,3495.8379],[-65.5863,-19.8917,3476.8203],[-65.5907,-19.883,3530.5376],[-65.606,-19.8645,3582.5347],[-65.6209,-19.8673,3581.2793],[-65.6251,-19.8777,3535.9692],[-65.628,-19.8771,3539.8096],[-65.631,-19.8739,3561.9175],[-65.6305,-19.8716,3567.4207],[-65.6353,-19.8595,3704.802],[-65.6357,-19.8458,3870.1477],[-65.6275,-19.8192,4402.7441],[-65.6275,-19.811,4575.2412],[-65.6141,-19.8015,4549.9209],[-65.6139,-19.7932,4605.8691],[-65.6115,-19.7876,4620.8101],[-65.6113,-19.7808,4615.8208],[-65.6142,-19.775,4665.1982],[-65.6234,-19.7715,4829.0488],[-65.6279,-19.7643,4805.2139],[-65.6519,-19.7574,4797.1968],[-65.6669,-19.7604,4810.6035],[-65.6652,-19.7645,4840.2207],[-65.666,-19.7676,4955.3599],[-65.6611,-19.7719,4864.3984],[-65.6666,-19.7876,4978.521],[-65.6774,-19.8004,4872.0244],[-65.6799,-19.8159,4671.1816],[-65.6915,-19.8239,4752.2603],[-65.6964,-19.8203,4741.6582],[-65.7055,-19.8224,4483.1421],[-65.7226,-19.8213,4302.5859],[-65.7275,-19.8061,4497.293],[-65.7334,-19.7987,4349.1465],[-65.7483,-19.7942,4223.0659],[-65.7666,-19.783,4606.3789],[-65.7683,-19.7911,4541.8579],[-65.7632,-19.8217,4621.0205],[-65.759,-19.8246,4548.2529],[-65.7561,-19.83,4506.1885],[-65.7582,-19.8337,4564.834],[-65.7562,-19.8364,4534.3154],[-65.7557,-19.8436,4497.1465],[-65.7572,-19.8599,4397.4917],[-65.7548,-19.8653,4367.4541],[-65.7533,-19.8761,4335.0132],[-65.7602,-19.8751,4063.9438],[-65.7665,-19.8816,3801.3594],[-65.7708,-19.8832,3758.429],[-65.775,-19.8956,3661.7068],[-65.7828,-19.8976,3483.2869],[-65.783,-19.9011,3358.9536],[-65.787,-19.9021,3345.2278],[-65.7907,-19.9083,3479.563],[-65.7973,-19.9073,3412.856],[-65.804,-19.9209,3452.1816],[-65.8055,-19.9183,3470.845],[-65.8083,-19.9179,3478.9456],[-65.817,-19.9219,3486.4546],[-65.8221,-19.9165,3507.9556],[-65.8266,-19.9051,3538.5627],[-65.8301,-19.9037,3595.2695],[-65.8342,-19.9045,3599.5215],[-65.8407,-19.9004,3586.3289],[-65.8439,-19.9133,3642.7578],[-65.8469,-19.9149,3674.0659],[-65.8609,-19.9328,4315.4375],[-65.8645,-19.9341,4464.3066],[-65.8734,-19.9315,4387.8862],[-65.8762,-19.9325,4412.9092],[-65.8823,-19.9494,4378.0415],[-65.8829,-19.9661,4416.5376]]]]}
,"properties": {"GID_3": "BOL.7.9.1_2","GID_0": "BOL","country": "Bolivia","GID_1": "BOL.7_1","province": "Potosí","NL_NAME_1": "NA","GID_2": "BOL.7.9_2","county": "JoséMaríaLinares","NL_NAME_2": "NA","city": "Caiza\"D\"","VARNAME_3": "NA","NL_NAME_3": "NA","TYPE_3": "District","ENGTYPE_3": "Distrito","CC_3": "NA","HASC_3": "NA","name": "Caiza_D_.city","area_km2": 1323.663,"hist_schema_id": "Elevation0-9000","hist_area_km2": {"2800": 0.696,"2825": 1.413,"2850": 2.149,"2875": 2.607,"2900": 2.388,"2925": 4.479,"2950": 4.081,"2975": 5.315,"3000": 6.151,"3025": 8.262,"3050": 10.53,"3075": 12.62,"3100": 15.249,"3125": 17.838,"3150": 23.017,"3175": 27.418,"3200": 27.439,"3225": 29.692,"3250": 33.578,"3275": 38.06,"3300": 42.861,"3325": 55.016,"3350": 68.032,"3375": 79.654,"3400": 79.157,"3425": 67.954,"3450": 57.674,"3475": 47.071,"3500": 41.152,"3525": 38.029,"3550": 34.525,"3575": 29.366,"3600": 25.6,"3625": 19.485,"3650": 16.477,"3675": 15.383,"3700": 13.968,"3725": 13.311,"3750": 13.012,"3775": 12.654,"3800": 12.156,"3825": 11.318,"3850": 12.077,"3875": 11.3,"3900": 10.921,"3925": 11.021,"3950": 10.364,"3975": 9.586,"4000": 9.467,"4025": 9.068,"4050": 8.81,"4075": 8.71,"4100": 8.551,"4125": 9.348,"4150": 9.149,"4175": 8.352,"4200": 9.348,"4225": 9.348,"4250": 8.49,"4275": 7.912,"4300": 7.932,"4325": 7.812,"4350": 6.776,"4375": 6.179,"4400": 5.362,"4425": 4.625,"4450": 3.808,"4475": 3.39,"4500": 3.41,"4525": 3.032,"4550": 2.493,"4575": 2.174,"4600": 2.294,"4625": 3.032,"4650": 2.593,"4675": 2.933,"4700": 2.693,"4725": 2.893,"4750": 2.913,"4775": 2.294,"4800": 1.816,"4825": 1.257,"4850": 1.057,"4875": 0.818,"4900": 0.519,"4925": 0.419,"4950": 0.18,"4975": 0.219,"5000": 0.04,"5025": 0.04}}}