{"type":"Feature","properties":{"GID_3":"BOL.4.10.8_2","GID_0":"BOL","country":"Bolivia","GID_1":"BOL.4_1","province":"LaPaz","NL_NAME_1":"NA","GID_2":"BOL.4.10_2","county":"Ingavi","NL_NAME_2":"NA","city":"Viacha","VARNAME_3":"NA","NL_NAME_3":"NA","TYPE_3":"District","ENGTYPE_3":"Distrito","CC_3":"NA","HASC_3":"NA","name":"Viacha.city"},
"geometry":{"type": "MultiPolygon","coordinates": [[[[-68.1526,-16.7589,4011.2183],[-68.1525,-16.7515,3993.2876],[-68.1563,-16.741,3992.9551],[-68.1577,-16.7288,3974.3416],[-68.1604,-16.7261,3973.1587],[-68.1515,-16.7261,4000.9385],[-68.149,-16.724,4028.9287],[-68.1507,-16.7142,4028.2854],[-68.1508,-16.6963,4019.9678],[-68.163,-16.6717,4005.084],[-68.175,-16.6626,3983.6472],[-68.1796,-16.6558,3974.6902],[-68.1811,-16.6332,3938.1331],[-68.2373,-16.6128,3899.6477],[-68.2161,-16.5942,3929.3723],[-68.2197,-16.5894,3929.5315],[-68.2057,-16.5734,3951.6611],[-68.2203,-16.5708,3943.6279],[-68.2212,-16.5722,3942.0229],[-68.2238,-16.5709,3938.5188],[-68.2263,-16.5733,3934.4973],[-68.2608,-16.5627,3913.9006],[-68.2575,-16.5591,3917.3936],[-68.2622,-16.5592,3912.5],[-68.2679,-16.5496,3910.8301],[-68.2775,-16.5466,3902.9009],[-68.2849,-16.5483,3895.6711],[-68.2896,-16.5516,3892.636],[-68.296,-16.5613,3878.6646],[-68.2982,-16.5697,3873.1011],[-68.3162,-16.5854,3862.1404],[-68.32,-16.594,3858.9609],[-68.3239,-16.596,3858.6248],[-68.3248,-16.5921,3859.3267],[-68.3271,-16.5903,3859.634],[-68.3392,-16.6004,3885.761],[-68.3556,-16.611,3845.9512],[-68.384,-16.6226,3851.4858],[-68.392,-16.6511,3847.5544],[-68.4272,-16.6799,3933.4624],[-68.4295,-16.6848,3938.1497],[-68.4375,-16.686,3959.6172],[-68.4495,-16.7078,3953.8782],[-68.4623,-16.7256,3960.8406],[-68.4837,-16.77,4184.7573],[-68.4678,-16.7811,3982.9741],[-68.4453,-16.7939,3973.491],[-68.4383,-16.8012,3920.3525],[-68.4436,-16.8069,3970.7427],[-68.4483,-16.8158,3951.5645],[-68.455,-16.8178,3964.2585],[-68.4676,-16.8293,4094.7739],[-68.4702,-16.8408,4287.25],[-68.462,-16.8404,4238.8804],[-68.4612,-16.8428,4230.9634],[-68.4486,-16.8486,4243.3066],[-68.4398,-16.8446,4084.1218],[-68.4332,-16.839,4052.3169],[-68.4297,-16.84,4016.9458],[-68.423,-16.8381,3937.6414],[-68.4169,-16.8394,3938.1094],[-68.4129,-16.8457,3951.6611],[-68.4109,-16.854,3966.6599],[-68.4082,-16.8556,3971.7271],[-68.4019,-16.8653,3987.998],[-68.3969,-16.8689,4005.9951],[-68.3975,-16.8731,4007.124],[-68.4022,-16.8816,4077.7021],[-68.4018,-16.8884,4124.3057],[-68.3889,-16.8945,4156.9531],[-68.3879,-16.8988,4145.3965],[-68.3814,-16.9018,4145.3164],[-68.3756,-16.9084,4100.1953],[-68.3736,-16.9179,4192.4531],[-68.3704,-16.913,4148.1387],[-68.3438,-16.8933,4188.7754],[-68.3395,-16.8914,4356.7104],[-68.33,-16.8906,4149.291],[-68.3238,-16.8872,4298.9443],[-68.3147,-16.8864,4246.9736],[-68.3098,-16.884,4144.7861],[-68.2912,-16.8803,3903.9111],[-68.2885,-16.8744,3889.1875],[-68.2673,-16.8625,3868.425],[-68.2473,-16.8456,3877.9517],[-68.2444,-16.8305,4002.4604],[-68.2288,-16.8264,3874.0354],[-68.2268,-16.8209,3872.3533],[-68.2195,-16.8187,3875.6685],[-68.1975,-16.802,3908.957],[-68.1867,-16.7908,3923.7612],[-68.1767,-16.786,3938.0513],[-68.1757,-16.7771,3929.0981],[-68.1579,-16.7644,3959.4268],[-68.1526,-16.7589,4011.2183]]]]}}