{"type":"Feature","properties":{"GID_2":"BOL.3.3_2","GID_0":"BOL","country":"Bolivia","GID_1":"BOL.3_1","province":"Beni","NL_NAME_1":"NA","county":"Iténez","VARNAME_2":"NA","NL_NAME_2":"NA","TYPE_2":"Provincia","ENGTYPE_2":"Province","CC_2":"NA","HASC_2":"NA","name":"Iténez.county"},
"geometry":{"type": "MultiPolygon","coordinates": [[[[-64.383,-14.1436,147.9179],[-63.7518,-14.2558,161.8736],[-63.7417,-14.2622,158.63],[-63.7423,-14.2661,159.4491],[-63.7347,-14.269,158.7106],[-63.7385,-14.2755,155.0767],[-63.7356,-14.2777,155.2586],[-63.7348,-14.2819,159.8484],[-63.7293,-14.2802,168.6953],[-63.7281,-14.2849,158.5659],[-63.7254,-14.2881,162.7078],[-63.7224,-14.287,157.2593],[-63.7186,-14.282,162.1689],[-63.7105,-14.287,160.8043],[-63.701,-14.2832,160.9208],[-63.6962,-14.2874,158.1138],[-63.6864,-14.2844,161.0352],[-63.6814,-14.2873,155.9556],[-63.6802,-14.2857,158.1277],[-63.6817,-14.281,159.5175],[-63.6695,-14.2809,168.5521],[-63.6664,-14.2826,163.4485],[-63.6658,-14.2887,157.2181],[-63.6596,-14.2933,158.4429],[-63.6558,-14.2914,162.5372],[-63.651,-14.2932,163.0406],[-63.652,-14.2849,165.0897],[-63.6503,-14.2841,168.6842],[-63.6428,-14.2891,169.0896],[-63.648,-14.2918,160.9305],[-63.6461,-14.2958,162.2073],[-63.6416,-14.2945,171.7498],[-63.6387,-14.2967,171.8927],[-63.6399,-14.3005,164.8976],[-63.6443,-14.3031,156.6591],[-63.643,-14.3061,165.9861],[-63.6458,-14.3105,154.639],[-63.6441,-14.314,158.332],[-63.6264,-14.3128,168.3482],[-63.6218,-14.3138,165.3162],[-63.6172,-14.3082,162.1297],[-63.6193,-14.2994,161.0677],[-63.6152,-14.2964,161.8795],[-63.6108,-14.3071,159.4034],[-63.6075,-14.3084,169.3965],[-63.6059,-14.3066,160.6647],[-63.6059,-14.3024,160.8725],[-63.5985,-14.2937,163.6077],[-63.593,-14.2949,164.312],[-63.5905,-14.2932,156.0997],[-63.5886,-14.2961,166.3455],[-63.5835,-14.2974,162.7585],[-63.5852,-14.3026,169.8239],[-63.5761,-14.3057,167.6093],[-63.5748,-14.3046,166.1986],[-63.5761,-14.303,162.1557],[-63.5745,-14.2977,166.6545],[-63.5728,-14.2969,165.2961],[-63.5676,-14.2986,164.0959],[-63.5612,-14.2966,162.7013],[-62.7049,-13.9758,162.6416],[-61.5279,-13.5298,158.5],[-61.5335,-13.5212,162.3273],[-61.5362,-13.5209,164.7795],[-61.542,-13.5257,158.5],[-61.5536,-13.5181,158.5],[-61.5666,-13.5204,158.5],[-61.5725,-13.5171,163.1753],[-61.5769,-13.5128,164.3625],[-61.5785,-13.5083,161.035],[-61.5782,-13.5043,158.0],[-61.5729,-13.4927,159.9118],[-61.5736,-13.4904,159.6762],[-61.5779,-13.4872,159.2492],[-61.5842,-13.4894,160.3045],[-61.5854,-13.4916,159.7779],[-61.5832,-13.4974,162.2132],[-61.5875,-13.5023,158.4824],[-61.6035,-13.5016,158.0],[-61.6082,-13.5105,163.5792],[-61.6145,-13.5108,159.878],[-61.6187,-13.5078,160.1323],[-61.6239,-13.5152,157.5],[-61.6297,-13.5143,158.7131],[-61.6403,-13.5056,161.7969],[-61.6459,-13.5065,158.5591],[-61.6476,-13.5096,164.3871],[-61.6446,-13.5157,157.0],[-61.6487,-13.5189,157.7851],[-61.6529,-13.5158,160.0144],[-61.66,-13.5139,157.0],[-61.6684,-13.5051,157.2906],[-61.6773,-13.5045,162.1201],[-61.6831,-13.5074,159.2682],[-61.6879,-13.5068,161.1955],[-61.6947,-13.4981,157.858],[-61.6949,-13.509,157.6588],[-61.7026,-13.5096,160.8812],[-61.7039,-13.5107,160.8812],[-61.7029,-13.5146,157.0],[-61.7242,-13.5216,156.0],[-61.727,-13.5209,160.7188],[-61.7306,-13.5163,156.5967],[-61.7326,-13.5167,157.6056],[-61.7347,-13.5193,157.323],[-61.7306,-13.5236,162.2308],[-61.7322,-13.5268,157.9005],[-61.7411,-13.5263,159.4892],[-61.7471,-13.5196,156.19],[-61.7537,-13.5194,159.7838],[-61.7576,-13.5255,166.751],[-61.7527,-13.5343,155.5],[-61.7579,-13.5403,160.6183],[-61.7636,-13.5398,158.1054],[-61.7655,-13.5378,161.2194],[-61.7662,-13.5248,156.1628],[-61.7716,-13.5161,157.2464],[-61.7774,-13.5187,158.2851],[-61.7768,-13.5269,167.9092],[-61.7785,-13.5321,155.5],[-61.7824,-13.5369,167.3394],[-61.7909,-13.537,156.5007],[-61.8065,-13.5284,156.8411],[-61.8184,-13.5266,159.0617],[-61.8239,-13.5219,155.0],[-61.8258,-13.5221,155.0],[-61.8319,-13.5318,154.5591],[-61.8374,-13.5302,154.0929],[-61.8408,-13.5267,153.0],[-61.8458,-13.5265,153.0],[-61.8476,-13.5282,153.5823],[-61.8493,-13.5359,153.0],[-61.8563,-13.5376,156.8006],[-61.8692,-13.5258,153.0],[-61.8734,-13.5095,153.0],[-61.8836,-13.4945,156.4451],[-61.8808,-13.472,157.1953],[-61.8873,-13.4446,153.0],[-61.8914,-13.435,153.0],[-61.8969,-13.4272,153.0],[-61.9028,-13.4273,153.0],[-61.9081,-13.4333,152.5],[-61.9154,-13.433,152.5],[-61.9288,-13.4255,153.9274],[-61.9331,-13.4121,156.3069],[-61.9381,-13.4076,154.4452],[-61.9424,-13.4087,154.07],[-61.9473,-13.4155,152.712],[-61.9501,-13.4145,155.6722],[-61.953,-13.4088,154.0139],[-61.9554,-13.4078,158.9149],[-61.9689,-13.4077,155.1237],[-61.9701,-13.4046,162.2163],[-61.964,-13.395,153.7331],[-61.9624,-13.3863,156.3154],[-61.9712,-13.3837,159.0719],[-61.9719,-13.3752,156.3681],[-61.9747,-13.3681,152.5],[-61.9801,-13.3652,152.5],[-61.9917,-13.3656,155.545],[-61.9979,-13.3628,156.6246],[-61.9996,-13.3633,152.8652],[-61.9999,-13.3656,154.0914],[-61.9949,-13.3679,153.6064],[-61.9941,-13.371,153.7065],[-61.996,-13.3737,152.5],[-62.0003,-13.3736,153.4468],[-62.0019,-13.3672,159.2397],[-62.0104,-13.3624,153.62],[-62.0162,-13.3518,151.5],[-62.0139,-13.3359,151.0],[-62.0146,-13.3314,151.0],[-62.0172,-13.3277,156.5702],[-62.0202,-13.3261,155.5694],[-62.0294,-13.3294,150.5],[-62.0359,-13.3285,150.5],[-62.0455,-13.3165,152.5133],[-62.0545,-13.3137,152.1976],[-62.0584,-13.3102,150.5],[-62.0578,-13.2886,151.0716],[-62.0613,-13.2869,153.1952],[-62.0683,-13.2946,151.5704],[-62.0725,-13.2956,151.7846],[-62.0743,-13.2912,150.5],[-62.0699,-13.2856,150.5],[-62.0706,-13.2828,153.7795],[-62.0809,-13.2804,152.1283],[-62.0848,-13.2823,151.1391],[-62.0925,-13.2814,154.0995],[-62.0959,-13.2738,153.4029],[-62.0999,-13.2696,159.546],[-62.107,-13.2666,151.6629],[-62.1128,-13.2604,152.8362],[-62.1149,-13.2565,155.1227],[-62.1098,-13.2507,150.5],[-62.109,-13.247,153.9017],[-62.1106,-13.2413,150.87],[-62.1087,-13.2345,155.2712],[-62.1092,-13.2206,150.1759],[-62.1142,-13.2047,149.0],[-62.1146,-13.1891,149.0],[-62.118,-13.1773,149.0],[-62.1154,-13.168,156.6017],[-62.1164,-13.159,150.0141],[-62.1202,-13.1523,149.0],[-62.1274,-13.1476,154.0545],[-62.1349,-13.149,150.3224],[-62.1376,-13.1511,150.7895],[-62.1435,-13.1608,156.503],[-62.1509,-13.1608,149.3428],[-62.1506,-13.1494,157.4554],[-62.1546,-13.1451,148.5],[-62.1605,-13.1431,150.4827],[-62.1624,-13.1387,149.4423],[-62.1672,-13.1356,150.2813],[-62.1685,-13.1328,157.0328],[-62.1656,-13.1183,151.4675],[-62.1688,-13.113,148.0],[-62.1758,-13.113,150.0823],[-62.1823,-13.119,148.0],[-62.1828,-13.1256,151.4189],[-62.1769,-13.137,156.077],[-62.1771,-13.1405,160.5446],[-62.1861,-13.1503,147.5],[-62.1922,-13.1527,155.5092],[-62.1981,-13.1506,153.5273],[-62.2004,-13.1464,152.8041],[-62.1997,-13.1262,147.5],[-62.209,-13.1134,147.5],[-62.2172,-13.1105,147.0],[-62.2229,-13.1125,151.6767],[-62.2271,-13.12,147.9478],[-62.2316,-13.1201,147.0],[-62.2376,-13.116,149.5739],[-62.2431,-13.1168,148.3105],[-62.245,-13.1219,151.2584],[-62.2423,-13.1306,147.0],[-62.2442,-13.143,148.3453],[-62.2603,-13.1458,153.0912],[-62.264,-13.1451,148.4603],[-62.2653,-13.1479,146.5977],[-62.2614,-13.1506,147.6647],[-62.264,-13.1526,150.831],[-62.2694,-13.1469,149.9127],[-62.2754,-13.1452,148.9769],[-62.2768,-13.1469,153.5053],[-62.2762,-13.1499,149.1338],[-62.2718,-13.1551,154.3824],[-62.2755,-13.1565,149.8742],[-62.2792,-13.1539,148.8254],[-62.2839,-13.144,149.1517],[-62.2874,-13.1405,151.4855],[-62.2916,-13.1405,149.6552],[-62.2937,-13.1483,147.2762],[-62.2985,-13.1496,152.8655],[-62.3013,-13.1471,155.852],[-62.3041,-13.1393,146.2305],[-62.3081,-13.1384,145.5],[-62.3144,-13.1341,145.5],[-62.3183,-13.1358,147.92],[-62.3192,-13.1488,156.2894],[-62.3212,-13.151,147.3716],[-62.3245,-13.1501,145.9499],[-62.3261,-13.1434,145.0],[-62.3289,-13.1404,148.3513],[-62.3344,-13.1423,146.8303],[-62.3373,-13.1488,145.3577],[-62.3416,-13.1485,145.8714],[-62.3422,-13.1448,154.4866],[-62.3376,-13.1401,144.5],[-62.3411,-13.1373,145.7589],[-62.3465,-13.1379,144.0],[-62.3544,-13.1435,148.7367],[-62.3624,-13.139099999999999,145.6417],[-62.3744,-13.1397,148.7593],[-62.3826,-13.1306,144.7919],[-62.3925,-13.1344,145.5693],[-62.3971,-13.1297,145.8611],[-62.3976,-13.1264,157.1497],[-62.3951,-13.1175,147.3429],[-62.3986,-13.1135,149.7665],[-62.4005,-13.1137,145.3506],[-62.4108,-13.1268,144.7832],[-62.4156,-13.1278,142.5],[-62.4198,-13.1157,144.4128],[-62.4347,-13.1004,142.5],[-62.4357,-13.0962,142.5],[-62.4347,-13.0829,145.7749],[-62.4373,-13.0803,144.0764],[-62.4423,-13.08,146.0902],[-62.4501,-13.0869,142.5],[-62.4561,-13.0874,143.4074],[-62.4586,-13.0853,144.8392],[-62.4603,-13.0776,146.2539],[-62.4624,-13.0767,153.2906],[-62.469,-13.0792,145.9867],[-62.4725,-13.0767,149.738],[-62.4744,-13.0587,142.8002],[-62.4805,-13.0579,142.0],[-62.4835,-13.0593,142.0],[-62.4827,-13.0705,142.0],[-62.4846,-13.0765,143.6634],[-62.4874,-13.0788,142.0],[-62.5003,-13.0821,142.0],[-62.5083,-13.0792,144.9179],[-62.5224,-13.0662,141.5],[-62.5256,-13.0662,151.0146],[-62.5386,-13.0736,141.5],[-62.5438,-13.0733,141.5],[-62.5502,-13.0707,141.5],[-62.5589,-13.0635,141.5],[-62.6087,-13.0431,141.5],[-62.6151,-13.0363,141.0],[-62.6153,-13.0291,142.4527],[-62.6112,-13.0222,141.1479],[-62.6009,-13.0174,141.5563],[-62.5999,-13.0147,143.0573],[-62.6029,-13.0116,142.3649],[-62.6077,-13.01,141.0],[-62.6194,-13.0158,141.0],[-62.627,-13.0164,141.0],[-62.6304,-13.0143,144.6748],[-62.6325,-13.0069,154.5815],[-62.6303,-12.9948,141.0],[-62.6308,-12.9916,141.0],[-62.6339,-12.9881,141.0],[-62.641,-12.9879,145.6867],[-62.6481,-12.9925,140.5],[-62.653,-12.9897,140.5],[-62.6532,-12.9836,140.5],[-62.6479,-12.9762,145.6222],[-62.6459,-12.9694,142.3988],[-62.6468,-12.9665,140.5],[-62.6508,-12.9645,148.9087],[-62.6542,-12.9646,142.0981],[-62.6615,-12.9688,149.2846],[-62.668,-12.9827,143.8125],[-62.6788,-12.9916,140.0],[-62.6949,-12.9903,144.966],[-62.6979,-12.9945,140.0],[-62.6978,-13.0017,140.0],[-62.7079,-13.0002,140.0],[-62.7126,-13.0037,140.0],[-62.7153,-13.0037,140.5986],[-62.7222,-13.0007,154.5549],[-62.727,-13.0013,143.837],[-62.7289,-13.0066,144.7695],[-62.7261,-13.0144,141.9423],[-62.7278,-13.0185,144.3337],[-62.7326,-13.022,141.7072],[-62.7366,-13.0196,146.7496],[-62.7381,-13.0146,142.346],[-62.7436,-13.0083,140.2743],[-62.7442,-13.0012,140.0],[-62.7458,-12.9987,141.5058],[-62.7497,-12.9984,142.688],[-62.7518,-12.9999,144.1888],[-62.7561,-13.016,139.5],[-62.7582,-13.0178,140.9817],[-62.7632,-13.0161,150.1945],[-62.7698,-13.0108,139.0],[-62.7804,-13.0082,140.8048],[-62.7955,-12.9956,139.6633],[-62.7996,-12.9837,139.0],[-62.8045,-12.9781,142.9814],[-62.8077,-12.9708,141.5289],[-62.8097,-12.9608,146.9305],[-62.8051,-12.9482,139.2452],[-62.8067,-12.9404,139.0],[-62.8118,-12.9377,139.0],[-62.8282,-12.934,138.5],[-62.8316,-12.9355,138.5],[-62.839,-12.9471,138.5],[-62.8431,-12.9495,139.2126],[-62.8481,-12.9474,138.5],[-62.8511,-12.9405,138.5],[-62.8445,-12.9324,144.2673],[-62.8432,-12.9287,138.5],[-62.8443,-12.9241,138.5],[-62.8479,-12.921,138.0],[-62.8566,-12.9179,139.396],[-62.8624,-12.9119,138.0],[-62.8694,-12.9116,144.7209],[-62.8731,-12.9082,139.5047],[-62.8807,-12.8893,141.672],[-62.8931,-12.8774,138.0],[-62.8938,-12.8715,143.2074],[-62.8919,-12.8617,138.0],[-62.8946,-12.8567,140.7689],[-62.9101,-12.8522,138.0],[-62.92,-12.8414,139.6394],[-62.9326,-12.8402,138.0],[-62.9405,-12.8445,138.0],[-62.9439,-12.857,139.7271],[-62.9455,-12.8583,138.0],[-62.9483,-12.8587,138.0],[-62.9502,-12.8573,144.6309],[-62.9522,-12.8492,139.9861],[-62.9592,-12.8467,145.3243],[-62.965,-12.8485,138.0],[-62.9726,-12.8594,143.6118],[-62.9771,-12.8598,156.6473],[-62.9834,-12.8527,138.0],[-62.9842,-12.8428,138.0],[-62.9861,-12.838,144.3758],[-62.9893,-12.8375,138.0],[-62.9933,-12.8414,143.0884],[-62.9983,-12.8424,138.0],[-63.0052,-12.8403,138.0],[-63.0108,-12.8357,153.7386],[-63.0132,-12.8316,138.0],[-63.0139,-12.8231,138.0],[-63.0094,-12.8155,140.8235],[-63.0086,-12.8109,149.0769],[-63.0112,-12.8077,138.0],[-63.0183,-12.8067,138.0],[-63.0222,-12.804,138.0],[-63.02,-12.7908,144.3656],[-63.0265,-12.7832,140.1874],[-63.0348,-12.7791,151.2761],[-63.0359,-12.7689,142.6934],[-63.0395,-12.7649,142.1738],[-63.039,-12.7566,142.1827],[-63.0499,-12.7343,139.3691],[-63.0584,-12.7278,141.3807],[-63.0629,-12.7282,138.3018],[-63.0671,-12.7311,138.8202],[-63.0756,-12.7296,142.465],[-63.0809,-12.7239,146.9038],[-63.0824,-12.7128,137.0],[-63.0814,-12.7068,137.0],[-63.0618,-12.6937,137.0],[-63.061,-12.6903,137.0],[-63.0623,-12.6864,137.0],[-63.0671,-12.683,142.4622],[-63.0781,-12.6861,136.5],[-63.0923,-12.6843,136.0],[-63.0977,-12.682,136.0],[-63.0987,-12.6778,138.0021],[-63.0929,-12.6714,142.4412],[-63.0914,-12.6666,152.0505],[-63.0933,-12.6597,136.0],[-63.1013,-12.6551,138.7577],[-63.1127,-12.6586,141.2078],[-63.1162,-12.6578,140.7432],[-63.1212,-12.655,138.1786],[-63.1267,-12.6453,138.3797],[-63.134,-12.6479,138.6495],[-63.1389,-12.646,138.0332],[-63.1374,-12.639099999999999,136.4584],[-63.147,-12.6378,136.0],[-63.1525,-12.6328,139.4603],[-63.1545,-12.618,136.0],[-63.1574,-12.6142,136.0],[-63.1619,-12.6143,136.0],[-63.1682,-12.6233,136.0],[-63.1622,-12.6368,136.0],[-63.1637,-12.6409,136.0],[-63.1711,-12.6424,136.0],[-63.1758,-12.6384,136.0],[-63.179,-12.6319,135.625],[-63.1845,-12.6258,135.9525],[-63.1912,-12.623,136.8596],[-63.1934,-12.6235,138.7112],[-63.1962,-12.6269,144.9819],[-63.1969,-12.6319,135.5],[-63.1904,-12.6415,135.0],[-63.1902,-12.6463,142.3922],[-63.1946,-12.6535,137.78809999999999],[-63.1983,-12.6551,135.0],[-63.2171,-12.6556,134.5],[-63.2292,-12.6632,136.7839],[-63.236,-12.6629,142.1727],[-63.2399,-12.6607,134.5],[-63.2448,-12.6618,135.824],[-63.2459,-12.6652,134.5332],[-63.2409,-12.6697,134.9267],[-63.2398,-12.6748,134.0],[-63.2322,-12.6833,134.0],[-63.2345,-12.6876,134.3816],[-63.2412,-12.6906,134.0],[-63.2643,-12.6844,134.0],[-63.2789,-12.6848,134.0],[-63.2897,-12.6833,134.0],[-63.3259,-12.6725,134.0],[-63.3491,-12.6575,134.0],[-63.3559,-12.6567,134.0],[-63.3638,-12.6594,134.0],[-63.3706,-12.6596,134.0],[-63.39,-12.6476,134.0],[-63.4011,-12.6351,135.4542],[-63.4043,-12.6298,133.5],[-63.4096,-12.612,133.5],[-63.4165,-12.6073,133.5],[-63.4362,-12.6083,133.5],[-63.4421,-12.6051,133.5],[-63.4422,-12.6013,133.5],[-63.4402,-12.599,133.5],[-63.4287,-12.5974,133.375],[-63.4268,-12.5949,139.3632],[-63.4352,-12.5873,133.0],[-63.4376,-12.5829,133.0],[-63.4383,-12.5755,134.0025],[-63.4356,-12.566,133.0],[-63.4369,-12.5645,142.0526],[-63.454,-12.5609,140.8054],[-63.474,-12.5608,133.0],[-63.4933,-12.5664,133.0],[-63.5024,-12.5653,133.0],[-63.5086,-12.5623,136.0953],[-63.5318,-12.5398,133.0],[-63.5462,-12.5146,134.2078],[-63.5513,-12.5085,132.0],[-63.5573,-12.5048,132.0],[-63.5657,-12.5017,132.0],[-63.5797,-12.5001,131.5],[-63.5886,-12.4922,131.5],[-63.6116,-12.4857,131.5],[-63.6193,-12.4791,131.0],[-63.6218,-12.4746,131.0],[-63.6265,-12.4718,135.4246],[-63.6333,-12.4716,131.0],[-63.6533,-12.4641,131.0],[-63.6661,-12.4641,134.2005],[-63.6721,-12.4625,131.0],[-63.6776,-12.4599,131.0],[-63.6839,-12.4528,131.0],[-63.6892,-12.4498,131.0],[-63.7329,-12.4385,131.0],[-63.7664,-12.4415,131.0],[-63.785,-12.4289,138.1653],[-63.788,-12.429,136.8936],[-63.791,-12.4315,141.773],[-63.7992,-12.4452,141.9743],[-63.8055,-12.4484,139.1246],[-63.8167,-12.4464,133.5434],[-63.8226,-12.4527,131.5668],[-63.8263,-12.4598,147.7801],[-63.8349,-12.4641,147.0374],[-63.8571,-12.4585,145.6476],[-63.8704,-12.4513,143.5965],[-63.8764,-12.446,130.5],[-63.8807,-12.4449,130.5],[-63.8872,-12.4457,130.5],[-63.891,-12.4519,130.7641],[-63.8906,-12.4608,132.8759],[-63.8918,-12.4659,130.0],[-63.8947,-12.4711,130.0],[-63.8998,-12.4759,131.787],[-63.8969,-12.5,133.9958],[-63.899,-12.5033,130.3038],[-63.909,-12.509,129.5],[-63.9182,-12.5095,129.5],[-63.9263,-12.5123,129.5],[-63.9454,-12.5283,129.5],[-63.9567,-12.5311,129.5],[-63.9629,-12.5293,129.5],[-63.9708,-12.5234,129.0],[-63.9907,-12.5045,129.0],[-63.9964,-12.501,129.0],[-64.0021,-12.5024,129.0],[-64.0043,-12.5146,129.0],[-64.0071,-12.5171,129.0],[-64.0104,-12.518,129.0],[-64.0154,-12.512,129.657],[-64.0207,-12.5101,130.8885],[-64.0252,-12.5104,130.3875],[-64.0315,-12.5158,129.0],[-64.0352,-12.5166,129.0],[-64.0427,-12.5146,129.0],[-64.05,-12.5009,129.1874],[-64.058,-12.4906,128.5],[-64.0602,-12.49,128.5],[-64.0665,-12.4902,128.5],[-64.0743,-12.4991,128.5],[-64.0788,-12.4999,128.5],[-64.0857,-12.4986,128.5],[-64.0882,-12.4954,128.5],[-64.089,-12.4882,133.4346],[-64.0926,-12.4857,129.1493],[-64.1005,-12.4866,128.5],[-64.1029,-12.4929,129.6223],[-64.1112,-12.4976,128.5],[-64.1162,-12.5033,128.5],[-64.123,-12.5061,128.5],[-64.1248,-12.5047,139.1555],[-64.1251,-12.5019,133.6012],[-64.124,-12.4869,129.7953],[-64.1291,-12.4801,134.9683],[-64.1379,-12.4783,133.7368],[-64.1419,-12.479,129.0863],[-64.1446,-12.4815,128.5],[-64.1463,-12.4877,128.5],[-64.1426,-12.502,137.1678],[-64.1531,-12.511,128.5],[-64.1585,-12.5135,128.5],[-64.1639,-12.5139,128.5],[-64.1702,-12.5118,128.5],[-64.1739,-12.5046,133.4314],[-64.1726,-12.4764,128.5],[-64.1743,-12.4671,128.5],[-64.1824,-12.4658,128.5],[-64.1927,-12.4731,141.9887],[-64.198,-12.473,137.6243],[-64.2105,-12.4625,129.4392],[-64.2232,-12.4598,135.1063],[-64.2306,-12.4539,128.0],[-64.24,-12.4591,129.7116],[-64.2484,-12.4746,129.5064],[-64.2657,-12.4838,128.0],[-64.279,-12.5,128.0],[-64.2838,-12.5031,128.0],[-64.2896,-12.5029,128.0],[-64.2972,-12.4999,128.0],[-64.3001,-12.4916,128.0],[-64.2984,-12.4835,128.0],[-64.2925,-12.4715,128.0],[-64.2918,-12.4602,128.0],[-64.2949,-12.4579,127.625],[-64.3169,-12.4559,127.5],[-64.3438,-12.4566,127.5],[-64.3666,-12.4605,127.0],[-64.3731,-12.4544,126.0],[-64.3778,-12.4529,125.0],[-64.3758,-12.458,129.7796],[-64.3773,-12.462,128.0612],[-64.3801,-12.4645,141.6278],[-64.3872,-12.4663,135.5678],[-64.3937,-12.474,134.1475],[-64.3935,-12.4772,129.7812],[-64.3916,-12.4776,132.5422],[-64.3895,-12.4734,130.5295],[-64.3863,-12.4723,129.0553],[-64.3791,-12.4842,129.2567],[-64.376,-12.4839,128.8533],[-64.3757,-12.4782,128.0652],[-64.3697,-12.4812,132.0375],[-64.3624,-12.4806,130.3448],[-64.3604,-12.4822,132.7023],[-64.3601,-12.4876,128.6947],[-64.356,-12.4966,136.5829],[-64.3455,-12.5037,134.4438],[-64.344,-12.5065,139.2191],[-64.347,-12.5094,131.5402],[-64.3523,-12.5103,131.0934],[-64.3628,-12.5077,127.6412],[-64.3658,-12.5054,131.5239],[-64.3701,-12.5066,141.2296],[-64.373,-12.5109,125.0],[-64.376,-12.5263,129.4764],[-64.3791,-12.5294,131.3702],[-64.3794,-12.5319,135.4729],[-64.364,-12.5434,135.9286],[-64.3619,-12.5458,138.2081],[-64.3621,-12.5491,141.8365],[-64.3559,-12.5532,138.1879],[-64.3546,-12.5571,134.6303],[-64.3495,-12.5607,133.4866],[-64.3532,-12.5668,135.2158],[-64.3583,-12.5685,131.4148],[-64.3569,-12.5721,137.2754],[-64.3505,-12.573,138.273],[-64.3558,-12.5845,134.5892],[-64.3499,-12.584,134.5724],[-64.3487,-12.5907,132.876],[-64.3474,-12.5913,143.5247],[-64.3451,-12.5896,133.426],[-64.3461,-12.5835,133.0657],[-64.3421,-12.584,137.7285],[-64.3409,-12.5869,133.8915],[-64.3424,-12.5922,141.6314],[-64.3409,-12.5949,143.5778],[-64.3346,-12.5878,137.429],[-64.3325,-12.5878,136.8088],[-64.3304,-12.5922,140.7835],[-64.3306,-12.596,139.6307],[-64.3282,-12.5997,139.6433],[-64.3206,-12.6047,141.3326],[-64.3155,-12.6111,136.8955],[-64.3153,-12.6151,142.7095],[-64.3192,-12.619,135.2198],[-64.3213,-12.6191,134.6415],[-64.3245,-12.6146,140.3427],[-64.3292,-12.6191,133.5244],[-64.3296,-12.6217,136.5556],[-64.3271,-12.6251,141.7091],[-64.322,-12.6243,135.3546],[-64.32,-12.6255,133.7407],[-64.324,-12.6269,139.8678],[-64.3265,-12.634,133.0815],[-64.3352,-12.6415,132.14],[-64.3345,-12.6483,136.053],[-64.3318,-12.6457,134.3816],[-64.325,-12.6433,135.6436],[-64.3211,-12.6475,135.5992],[-64.3169,-12.6486,135.2053],[-64.3197,-12.6534,142.1653],[-64.3235,-12.6541,134.2053],[-64.3265,-12.6528,136.012],[-64.3297,-12.6549,134.9709],[-64.33,-12.6573,133.5303],[-64.3263,-12.6604,138.9405],[-64.3295,-12.665,133.004],[-64.3295,-12.6676,132.2604],[-64.3279,-12.6683,141.6016],[-64.3235,-12.6649,141.0297],[-64.3207,-12.6648,142.9787],[-64.3196,-12.662,131.8703],[-64.3166,-12.661,134.3128],[-64.3158,-12.6564,137.3223],[-64.3117,-12.6544,140.2359],[-64.3115,-12.6494,132.7023],[-64.308,-12.6456,133.3992],[-64.3054,-12.6471,135.8458],[-64.2998,-12.6446,139.0535],[-64.2973,-12.6466,136.8948],[-64.2971,-12.6505,137.2594],[-64.301,-12.6531,146.0683],[-64.3065,-12.6519,138.6897],[-64.3081,-12.6539,136.4177],[-64.3057,-12.6574,136.5602],[-64.299,-12.6592,144.5865],[-64.2989,-12.6652,133.1712],[-64.2897,-12.6668,133.4987],[-64.2847,-12.6738,132.5928],[-64.285,-12.676,138.0616],[-64.2908,-12.6822,141.2513],[-64.2933,-12.682,141.9314],[-64.2952,-12.678,133.8787],[-64.2974,-12.6799,142.4902],[-64.2941,-12.6854,141.7972],[-64.2898,-12.6859,135.1131],[-64.2889,-12.6908,135.0542],[-64.2842,-12.6908,134.351],[-64.2824,-12.6976,143.7315],[-64.2849,-12.6961,140.0141],[-64.2896,-12.6965,132.9683],[-64.2911,-12.6921,134.2233],[-64.2959,-12.6911,138.0055],[-64.2972,-12.6928,136.1244],[-64.2951,-12.6967,142.3634],[-64.2974,-12.7013,144.9826],[-64.3034,-12.7014,140.2819],[-64.3043,-12.6983,136.3661],[-64.299,-12.6923,141.6136],[-64.3031,-12.6898,139.563],[-64.3048,-12.6844,138.0656],[-64.3087,-12.6823,135.1692],[-64.3068,-12.6787,133.9995],[-64.3069,-12.6741,138.9603],[-64.3086,-12.6731,140.1815],[-64.3116,-12.6745,135.269],[-64.3125,-12.6781,142.4442],[-64.3181,-12.6802,144.9194],[-64.3158,-12.6845,134.9125],[-64.3182,-12.6859,143.5269],[-64.3181,-12.6903,140.8541],[-64.3208,-12.6948,137.9014],[-64.3201,-12.696,137.9014],[-64.3168,-12.6933,138.1466],[-64.311,-12.6949,132.6024],[-64.3123,-12.6972,137.4803],[-64.3091,-12.6993,147.249],[-64.3105,-12.7027,138.3796],[-64.3076,-12.7054,136.0229],[-64.3085,-12.7149,135.9462],[-64.3062,-12.7185,140.1259],[-64.3009,-12.7159,142.048],[-64.2994,-12.7213,139.6996],[-64.2909,-12.7209,134.991],[-64.2894,-12.7194,133.5569],[-64.2908,-12.7159,136.0978],[-64.2847,-12.7149,136.9644],[-64.2879,-12.7236,134.1651],[-64.2855,-12.7282,133.9208],[-64.2884,-12.7329,136.26],[-64.2873,-12.7358,139.2015],[-64.2825,-12.7363,145.3358],[-64.2745,-12.7298,136.2272],[-64.2696,-12.7327,135.9181],[-64.2706,-12.736,137.128],[-64.2758,-12.7366,133.1972],[-64.2819,-12.741,138.2287],[-64.2977,-12.7424,134.9355],[-64.3024,-12.7451,132.6195],[-64.2992,-12.748,145.9878],[-64.2994,-12.7516,134.6627],[-64.2955,-12.7517,139.1973],[-64.2944,-12.7539,136.3299],[-64.2879,-12.7536,138.226],[-64.2839,-12.7551,137.8286],[-64.2858,-12.7625,135.3095],[-64.2782,-12.7803,139.713],[-64.279,-12.7817,135.308],[-64.2844,-12.7815,137.139],[-64.2846,-12.7788,135.541],[-64.2874,-12.7756,135.9133],[-64.2911,-12.7748,136.8081],[-64.2899,-12.7776,137.1902],[-64.2909,-12.7825,143.8002],[-64.2878,-12.7854,135.6312],[-64.2875,-12.7951,134.2557],[-64.2866,-12.7964,134.8796],[-64.2768,-12.796,138.6025],[-64.2742,-12.7972,142.7698],[-64.276,-12.803,135.0809],[-64.2737,-12.8087,141.2443],[-64.2784,-12.8125,134.3209],[-64.2784,-12.8142,135.2711],[-64.2742,-12.8159,139.9473],[-64.271,-12.8105,137.9731],[-64.2674,-12.8136,141.457],[-64.2644,-12.8096,136.0505],[-64.2624,-12.8101,137.9822],[-64.2621,-12.8149,139.0105],[-64.2706,-12.8212,143.2279],[-64.2681,-12.8249,145.8594],[-64.2554,-12.8232,134.152],[-64.2532,-12.8245,139.5502],[-64.253,-12.828,138.7942],[-64.2485,-12.825,136.0912],[-64.2468,-12.8286,134.1124],[-64.2436,-12.8301,136.8679],[-64.246,-12.8317,136.2476],[-64.2455,-12.8349,144.0407],[-64.2523,-12.8348,135.3295],[-64.2519,-12.8393,137.9809],[-64.2557,-12.8386,134.1803],[-64.2589,-12.8401,135.2179],[-64.2605,-12.8421,132.9467],[-64.2599,-12.8444,135.0447],[-64.2647,-12.8443,133.3818],[-64.2697,-12.8469,133.8353],[-64.2723,-12.8455,133.9806],[-64.2734,-12.8481,134.3321],[-64.2763,-12.8474,133.9602],[-64.2755,-12.851,133.188],[-64.2793,-12.8529,133.3241],[-64.2809,-12.8522,133.7682],[-64.282,-12.855,133.5384],[-64.2847,-12.8548,137.5362],[-64.2841,-12.8513,134.6164],[-64.2897,-12.851,135.4198],[-64.2916,-12.8535,133.6279],[-64.2894,-12.8536,137.9969],[-64.2892,-12.855,139.5176],[-64.2917,-12.8559,134.3831],[-64.2889,-12.8607,138.9023],[-64.2892,-12.8634,138.3571],[-64.2944,-12.8645,135.5798],[-64.295,-12.8625,136.1389],[-64.2988,-12.8632,140.0828],[-64.3027,-12.8616,138.7827],[-64.305,-12.865,135.8877],[-64.3014,-12.8682,135.9982],[-64.2939,-12.8696,139.3067],[-64.2926,-12.8746,138.9197],[-64.2894,-12.8741,136.8501],[-64.2887,-12.8768,136.2118],[-64.285,-12.8801,135.3415],[-64.2876,-12.8838,135.03],[-64.2841,-12.8851,135.8559],[-64.284,-12.8873,136.4699],[-64.2856,-12.8883,136.5479],[-64.2879,-12.8866,136.6188],[-64.2877,-12.8886,136.7136],[-64.2899,-12.8905,136.0191],[-64.2892,-12.892,134.6411],[-64.2873,-12.8906,136.3152],[-64.2854,-12.8952,135.6034],[-64.2828,-12.896,136.109],[-64.2831,-12.8991,135.7414],[-64.2844,-12.9014,135.0826],[-64.2879,-12.9004,134.4446],[-64.2851,-12.9024,135.3311],[-64.2873,-12.9025,134.3101],[-64.2882,-12.9043,134.1237],[-64.2856,-12.9054,134.3445],[-64.2889,-12.9057,134.7284],[-64.2884,-12.9078,134.333],[-64.2905,-12.9087,134.2749],[-64.2886,-12.9099,135.1458],[-64.2919,-12.9137,133.9587],[-64.2905,-12.9164,135.4768],[-64.2927,-12.9178,133.8564],[-64.2948,-12.9167,133.9021],[-64.2966,-12.9187,133.5291],[-64.2947,-12.9212,134.4552],[-64.298,-12.9263,135.1379],[-64.2899,-12.9285,134.6715],[-64.2903,-12.9306,136.2071],[-64.2874,-12.9308,134.9522],[-64.2874,-12.9324,136.1623],[-64.2846,-12.9315,135.43],[-64.2767,-12.9345,137.0548],[-64.2762,-12.943,139.6007],[-64.2783,-12.9424,136.5263],[-64.279,-12.9455,137.1839],[-64.2771,-12.9464,135.9569],[-64.2783,-12.9483,135.1462],[-64.2765,-12.9494,137.1253],[-64.2782,-12.9499,135.4916],[-64.2785,-12.9538,136.9131],[-64.2799,-12.9544,136.2353],[-64.2781,-12.9559,135.7599],[-64.2792,-12.9571,138.0381],[-64.278,-12.9594,137.3983],[-64.2798,-12.9603,138.2889],[-64.2781,-12.9625,134.6958],[-64.2816,-12.9638,139.8509],[-64.2805,-12.9648,136.9615],[-64.2813,-12.9725,138.5152],[-64.2793,-12.9719,135.5697],[-64.2803,-12.9738,139.2986],[-64.2777,-12.9752,136.1642],[-64.2777,-12.9821,135.2913],[-64.2754,-12.9814,137.1482],[-64.2755,-12.9837,135.2566],[-64.2726,-12.9847,136.0775],[-64.2736,-12.9891,138.7357],[-64.2706,-12.9904,135.7312],[-64.2728,-12.9926,137.7146],[-64.2706,-12.9932,136.8646],[-64.2693,-12.9957,137.5013],[-64.2702,-13.0,136.5721],[-64.2639,-13.0186,134.2484],[-64.2525,-13.0289,135.3004],[-64.2492,-13.0342,136.5411],[-64.2488,-13.0404,135.6017],[-64.2528,-13.0461,135.3994],[-64.2506,-13.0534,135.371],[-64.2465,-13.0583,136.6315],[-64.2442,-13.0689,135.9435],[-64.2459,-13.0733,135.4758],[-64.2518,-13.0772,136.5275],[-64.2545,-13.0859,135.3084],[-64.2537,-13.0877,136.4919],[-64.252,-13.0869,136.4919],[-64.2483,-13.0888,136.1512],[-64.2464,-13.0998,135.6666],[-64.2484,-13.1032,135.75],[-64.2476,-13.1123,134.3541],[-64.2493,-13.1154,136.5162],[-64.2525,-13.1166,137.2085],[-64.2494,-13.129,137.088],[-64.2513,-13.1312,135.5464],[-64.2527,-13.1398,138.0868],[-64.2667,-13.1527,136.4601],[-64.2724,-13.154,136.0947],[-64.283,-13.1616,134.8136],[-64.2832,-13.166,135.786],[-64.2783,-13.1705,145.9362],[-64.2805,-13.1842,137.2911],[-64.2878,-13.185,137.1236],[-64.2972,-13.1776,136.1275],[-64.2996,-13.1774,135.6205],[-64.2986,-13.1899,136.246],[-64.2937,-13.2009,135.7778],[-64.2974,-13.199,135.7539],[-64.2956,-13.2069,135.5704],[-64.2969,-13.2087,136.0839],[-64.3105,-13.2132,135.8664],[-64.3087,-13.2155,136.7807],[-64.2985,-13.2145,135.8388],[-64.2968,-13.2157,135.8282],[-64.2929,-13.2222,138.0967],[-64.2915,-13.2288,137.6372],[-64.2942,-13.2358,135.9664],[-64.2962,-13.236,136.2674],[-64.3009,-13.2273,139.0324],[-64.3001,-13.2197,139.1653],[-64.305,-13.2177,138.9265],[-64.3146,-13.2474,136.1295],[-64.314,-13.2488,136.9527],[-64.3106,-13.2489,136.2646],[-64.3013,-13.2461,136.1287],[-64.2964,-13.2464,136.2863],[-64.296,-13.2514,136.3919],[-64.2984,-13.256,136.5408],[-64.3103,-13.2663,136.0861],[-64.3262,-13.2702,136.471],[-64.3316,-13.2816,136.9645],[-64.3282,-13.2943,138.3426],[-64.3297,-13.2995,136.9459],[-64.3384,-13.3105,136.1552],[-64.3398,-13.32,136.1522],[-64.3438,-13.32,136.1499],[-64.353,-13.327,136.0772],[-64.3491,-13.3362,136.1729],[-64.3501,-13.348,136.1399],[-64.3543,-13.3499,136.1349],[-64.3601,-13.3486,136.1941],[-64.3647,-13.3498,136.1216],[-64.3712,-13.3553,137.4964],[-64.3741,-13.3631,136.0438],[-64.3689,-13.3712,136.0835],[-64.3724,-13.3836,140.6021],[-64.3716,-13.4474,137.4723],[-64.383,-14.1436,147.9179]]]]}}