{"type":"Feature","properties":{"GID_3":"BOL.7.8.2_2","GID_0":"BOL","country":"Bolivia","GID_1":"BOL.7_1","province":"Potosí","NL_NAME_1":"NA","GID_2":"BOL.7.8_2","county":"GeneralBilbao","NL_NAME_2":"NA","city":"Arampampa","VARNAME_3":"NA","NL_NAME_3":"NA","TYPE_3":"District","ENGTYPE_3":"Distrito","CC_3":"NA","HASC_3":"NA","name":"Arampampa.city"},
"geometry":{"type": "MultiPolygon","coordinates": [[[[-66.2723,-17.9559,3680.9534],[-66.2615,-17.9741,3569.9775],[-66.2483,-17.9889,3511.4224],[-66.2472,-17.995,3506.0945],[-66.2486,-18.0,3475.45],[-66.2469,-18.0034,3457.4448],[-66.24,-18.0096,3461.0632],[-66.2345,-18.0122,3451.4536],[-66.2269,-18.0218,3455.9067],[-66.2261,-18.0273,3411.5789],[-66.221,-18.0284,3511.1633],[-66.2185,-18.0235,3425.03],[-66.2158,-18.0223,3409.3237],[-66.2099,-18.0246,3457.2524],[-66.2115,-18.0294,3427.8625],[-66.2082,-18.0309,3453.0735],[-66.2036,-18.0367,3463.7678],[-66.2021,-18.0445,3527.2246],[-66.2038,-18.0488,3523.1812],[-66.2024,-18.0504,3486.7654],[-66.201,-18.0624,3629.7395],[-66.1869,-18.075,3707.6001],[-66.1859,-18.0803,3656.5251],[-66.1843,-18.0808,3656.5251],[-66.1804,-18.0774,3708.7354],[-66.1792,-18.0787,3678.9226],[-66.1713,-18.0775,3725.708],[-66.1697,-18.0809,3639.9504],[-66.1628,-18.0764,3539.49],[-66.1534,-18.0754,3422.9314],[-66.1529,-18.0729,3391.6245],[-66.1503,-18.0713,3389.9021],[-66.1506,-18.0695,3327.7292],[-66.1466,-18.0684,3376.3872],[-66.1426,-18.0639,3241.6882],[-66.1365,-18.0486,3139.9883],[-66.1363,-18.046,3238.7305],[-66.141,-18.0374,3388.4434],[-66.1408,-18.0314,3628.7319],[-66.1459,-18.0221,3659.6199],[-66.1477,-18.0117,3471.3408],[-66.1464,-18.0089,3407.6455],[-66.1355,-18.0038,3205.9954],[-66.1282,-18.0036,3151.1853],[-66.126,-17.9998,3095.781],[-66.119,-17.9981,3044.2856],[-66.113,-18.006,3243.311],[-66.1054,-18.0092,3214.426],[-66.1026,-18.0067,3176.3501],[-66.0884,-18.0022,3027.6938],[-66.0883,-18.0001,2999.8291],[-66.0814,-17.994,2869.9646],[-66.0732,-17.9912,2748.1704],[-66.0647,-17.9933,2634.0859],[-66.0578,-17.9903,2656.0149],[-66.0554,-17.9837,2612.8457],[-66.0512,-17.9819,2671.2183],[-66.0502,-17.9774,2544.0608],[-66.0429,-17.9736,2472.6382],[-66.0399,-17.9693,2425.0266],[-66.0345,-17.9678,2420.186],[-66.0286,-17.9613,2356.2104],[-66.0287,-17.9588,2408.8047],[-66.025,-17.9524,2318.1929],[-66.0272,-17.9449,2336.5093],[-66.0264,-17.9421,2320.4597],[-66.0239,-17.9423,2279.416],[-66.0228,-17.9398,2251.6509],[-66.0035,-17.9259,2191.6372],[-65.9914,-17.923,2152.3979],[-65.9928,-17.918,2185.2529],[-66.0018,-17.9107,2162.5459],[-66.0066,-17.9003,2169.594],[-66.01,-17.8976,2171.3594],[-66.0133,-17.8889,2183.5188],[-66.0166,-17.8858,2180.1863],[-66.0169,-17.8752,2198.8774],[-66.0231,-17.874,2188.168],[-66.0257,-17.868,2185.8633],[-66.0254,-17.8636,2206.5291],[-66.0349,-17.8555,2196.0542],[-66.0356,-17.8506,2198.5249],[-66.0411,-17.8464,2211.5117],[-66.0439,-17.8388,2237.0669],[-66.0533,-17.8347,2231.5759],[-66.0594,-17.8273,2228.4312],[-66.0624,-17.8273,2236.2749],[-66.0776,-17.8187,2237.3896],[-66.0809,-17.8192,2241.7312],[-66.0827,-17.8138,2249.1265],[-66.0878,-17.8099,2243.9238],[-66.1005,-17.8071,2339.697],[-66.1042,-17.8155,2488.2441],[-66.1077,-17.8195,2638.7422],[-66.1099,-17.8271,2768.9951],[-66.1124,-17.8272,2763.7317],[-66.1145,-17.8362,2869.0818],[-66.1162,-17.8368,2927.5369],[-66.1156,-17.8424,2935.5249],[-66.1175,-17.8504,2977.6982],[-66.1157,-17.8535,3032.3467],[-66.1165,-17.8583,3051.2307],[-66.1339,-17.8781,3226.4104],[-66.1463,-17.8844,3247.3508],[-66.1586,-17.8993,3470.6936],[-66.1569,-17.9033,3435.7212],[-66.1594,-17.9034,3438.3337],[-66.1639,-17.907,3563.2593],[-66.1617,-17.9116,3586.6602],[-66.166,-17.9152,3490.8889],[-66.1654,-17.9256,3351.9204],[-66.1722,-17.928,3393.4646],[-66.1799,-17.9334,3597.6338],[-66.1903,-17.9305,3723.5098],[-66.197,-17.9262,3748.5327],[-66.2034,-17.9309,3722.1238],[-66.2099,-17.9319,3740.3989],[-66.2107,-17.9353,3649.2935],[-66.2161,-17.9352,3678.8352],[-66.2193,-17.9376,3725.0225],[-66.2192,-17.9414,3699.646],[-66.222,-17.9423,3758.0244],[-66.2233,-17.9493,3730.4111],[-66.226,-17.9526,3760.2532],[-66.2366,-17.9487,3922.582],[-66.2472,-17.9532,4071.6265],[-66.2496,-17.9374,4092.573],[-66.2517,-17.9343,4102.6943],[-66.2608,-17.9392,3847.9277],[-66.2662,-17.9461,3753.7163],[-66.2665,-17.9514,3771.8977],[-66.272,-17.9539,3669.6045],[-66.2723,-17.9559,3680.9534]]]]}}