{"type":"Feature","properties":{"GID_3":"BOL.6.5.4_2","GID_0":"BOL","country":"Bolivia","GID_1":"BOL.6_1","province":"Pando","NL_NAME_1":"NA","GID_2":"BOL.6.5_2","county":"NicolásSuárez","NL_NAME_2":"NA","city":"Porvenir","VARNAME_3":"NA","NL_NAME_3":"NA","TYPE_3":"District","ENGTYPE_3":"Distrito","CC_3":"NA","HASC_3":"NA","name":"Porvenir.city"},
"geometry":{"type": "MultiPolygon","coordinates": [[[[-68.5016,-11.2526,213.9828],[-68.5017,-11.0637,227.2246],[-68.5198,-11.0884,248.8355],[-68.5429,-11.0996,255.0691],[-68.5435,-11.1104,287.7518],[-68.6262,-11.1268,266.0473],[-68.6474,-11.1337,278.0953],[-68.7155,-11.1475,258.9113],[-69.0017,-11.1502,284.1618],[-69.0017,-11.4314,243.2522],[-68.9903,-11.4322,239.1881],[-68.9913,-11.4342,232.0286],[-68.9982,-11.4363,238.8212],[-68.9984,-11.4391,233.018],[-68.9959,-11.4405,234.7327],[-68.9841,-11.4342,232.8116],[-68.9854,-11.4393,230.9951],[-68.9889,-11.4425,245.7115],[-68.9849,-11.4448,236.3088],[-68.9819,-11.4428,232.9024],[-68.981,-11.4375,228.3826],[-68.9762,-11.4338,229.5753],[-68.9775,-11.432,238.3147],[-68.982,-11.432,233.1498],[-68.9819,-11.4292,231.4383],[-68.9785,-11.4291,232.9815],[-68.972,-11.4321,231.6705],[-68.9693,-11.426,231.05],[-68.9598,-11.4218,239.0244],[-68.9581,-11.4227,239.0244],[-68.9571,-11.4269,227.8974],[-68.9548,-11.4274,226.5858],[-68.9477,-11.4182,242.6427],[-68.9526,-11.415,241.5627],[-68.9527,-11.4076,226.0807],[-68.9497,-11.4082,236.9964],[-68.9461,-11.414,225.823],[-68.9403,-11.409,227.1721],[-68.9371,-11.4102,235.8347],[-68.93,-11.4095,229.2703],[-68.9299,-11.4053,227.2596],[-68.9372,-11.406,231.9733],[-68.9402,-11.4042,236.6962],[-68.9405,-11.4021,230.8599],[-68.9341,-11.401,230.6996],[-68.9328,-11.3932,232.246],[-68.9289,-11.3896,244.9806],[-68.9273,-11.3849,223.0],[-68.9229,-11.3865,235.9814],[-68.9176,-11.3814,240.1016],[-68.9193,-11.3796,229.4722],[-68.9242,-11.383,229.0984],[-68.9269,-11.3819,226.6437],[-68.9267,-11.3787,235.4945],[-68.9211,-11.376,230.6903],[-68.911,-11.3771,228.0821],[-68.9061,-11.3715,237.1198],[-68.9009,-11.3807,228.5278],[-68.8938,-11.3837,231.4884],[-68.8892,-11.3803,229.3958],[-68.8891,-11.3746,233.2071],[-68.8861,-11.3743,229.087],[-68.8844,-11.3773,225.5529],[-68.8848,-11.385,224.358],[-68.882,-11.3879,226.0535],[-68.8779,-11.3885,233.2303],[-68.8753,-11.3874,227.7868],[-68.8741,-11.3845,228.4028],[-68.881,-11.3818,224.2643],[-68.879,-11.3765,226.0992],[-68.8752,-11.3758,231.4744],[-68.871,-11.3815,230.0326],[-68.8706,-11.386,228.0929],[-68.8685,-11.3866,233.0724],[-68.8682,-11.3796,229.8247],[-68.8619,-11.375,228.2086],[-68.861,-11.3644,227.8438],[-68.8587,-11.3645,223.5934],[-68.8539,-11.3696,238.8853],[-68.8491,-11.3675,227.5415],[-68.849,-11.3651,226.2694],[-68.8539,-11.3626,221.47559999999999],[-68.8505,-11.3575,230.9561],[-68.8479,-11.3582,227.0732],[-68.846,-11.3662,221.8739],[-68.8413,-11.369,221.0879],[-68.8415,-11.3736,222.5495],[-68.8392,-11.3724,226.1361],[-68.8404,-11.3651,240.3268],[-68.838,-11.3625,225.3937],[-68.833,-11.3632,231.2547],[-68.83,-11.3677,223.6349],[-68.8237,-11.3683,232.4776],[-68.8225,-11.3676,218.2156],[-68.8236,-11.3625,226.9447],[-68.8218,-11.3622,219.1345],[-68.8188,-11.369,231.158],[-68.8168,-11.3702,228.5959],[-68.8143,-11.369,225.946],[-68.8138,-11.3667,224.215],[-68.8151,-11.3648,226.1014],[-68.8196,-11.3636,224.6467],[-68.819,-11.3612,227.3991],[-68.8152,-11.361,229.6148],[-68.8124,-11.3668,224.215],[-68.8076,-11.3684,235.6475],[-68.8056,-11.3591,234.6758],[-68.803,-11.3578,218.6099],[-68.8008,-11.3605,223.359],[-68.8016,-11.3647,229.9272],[-68.7997,-11.3652,229.9272],[-68.7984,-11.3623,226.254],[-68.8041,-11.3465,221.1601],[-68.8023,-11.3456,227.7599],[-68.7951,-11.3494,227.9668],[-68.7948,-11.3539,224.1471],[-68.7923,-11.3489,225.5515],[-68.7953,-11.3465,224.9548],[-68.7963,-11.3415,219.607],[-68.7989,-11.3414,234.4066],[-68.8018,-11.3442,218.0685],[-68.8028,-11.3409,219.7664],[-68.7934,-11.3364,226.8516],[-68.7873,-11.3388,218.3234],[-68.7837,-11.3353,221.1232],[-68.7896,-11.3314,220.3681],[-68.7892,-11.3293,226.933],[-68.7822,-11.33,223.6407],[-68.779,-11.327,217.7408],[-68.7773,-11.3279,217.7408],[-68.7764,-11.3329,216.1168],[-68.7748,-11.3343,220.703],[-68.7666,-11.3302,216.4852],[-68.7681,-11.3418,218.2458],[-68.7668,-11.3434,224.0447],[-68.7607,-11.3368,217.0577],[-68.7607,-11.3318,220.7988],[-68.7638,-11.3284,221.0209],[-68.763,-11.3271,220.334],[-68.7531,-11.3221,220.7787],[-68.7509,-11.3248,218.6346],[-68.7529,-11.33,217.6288],[-68.7506,-11.3315,223.1413],[-68.7486,-11.3306,219.5888],[-68.7479,-11.3237,219.7602],[-68.7503,-11.3167,219.5658],[-68.7461,-11.3159,219.1813],[-68.7422,-11.3182,225.8761],[-68.7409,-11.3175,212.5],[-68.7462,-11.3118,221.6102],[-68.7418,-11.3061,218.6284],[-68.741,-11.2987,216.1222],[-68.7437,-11.2947,218.4353],[-68.7399,-11.2941,218.7475],[-68.7368,-11.2911,215.4225],[-68.7387,-11.2848,219.6285],[-68.7376,-11.2727,217.6926],[-68.7332,-11.271,216.5632],[-68.7301,-11.2759,216.2895],[-68.7274,-11.2751,227.3671],[-68.7255,-11.2732,228.0223],[-68.724,-11.266,216.3082],[-68.7167,-11.262,221.2887],[-68.7114,-11.251,224.3641],[-68.7096,-11.251,210.8292],[-68.7096,-11.2577,213.0693],[-68.7067,-11.2585,220.3955],[-68.6955,-11.2472,214.7392],[-68.6898,-11.245,218.1507],[-68.6881,-11.2402,212.1165],[-68.6833,-11.238,215.792],[-68.6787,-11.2389,220.1238],[-68.6762,-11.2467,221.8044],[-68.6713,-11.2453,216.165],[-68.6687,-11.2425,217.2098],[-68.6648,-11.2441,211.0142],[-68.6639,-11.2456,214.0954],[-68.6658,-11.2507,217.6271],[-68.6636,-11.2519,212.7659],[-68.6588,-11.2492,212.5416],[-68.6604,-11.2442,213.6068],[-68.6591,-11.2418,217.7632],[-68.6495,-11.2461,213.9993],[-68.6419,-11.2431,213.5855],[-68.6363,-11.2462,211.8961],[-68.6334,-11.2434,215.2277],[-68.633,-11.2386,227.1715],[-68.63,-11.238,223.6381],[-68.6224,-11.2402,223.8563],[-68.6175,-11.2356,210.6218],[-68.6148,-11.2403,226.7143],[-68.6092,-11.2447,226.6913],[-68.6056,-11.2444,205.791],[-68.6029,-11.2403,209.2673],[-68.6032,-11.2386,203.5],[-68.6069,-11.2397,223.8904],[-68.6069,-11.2383,212.6676],[-68.6001,-11.236,210.571],[-68.5966,-11.2397,222.4789],[-68.5904,-11.2376,209.1602],[-68.5876,-11.2394,210.1302],[-68.582,-11.2396,224.8873],[-68.5722,-11.2455,219.1984],[-68.5687,-11.2449,205.6486],[-68.5677,-11.25,216.6753],[-68.5662,-11.2506,210.1964],[-68.5643,-11.2494,210.2704],[-68.5605,-11.2363,230.0828],[-68.5553,-11.2344,213.0818],[-68.5528,-11.2295,210.7101],[-68.5438,-11.2298,219.191],[-68.5385,-11.2318,225.8074],[-68.5361,-11.2346,227.9433],[-68.5352,-11.2411,209.5339],[-68.5328,-11.2427,208.1258],[-68.5299,-11.2407,211.3582],[-68.5296,-11.2362,206.6136],[-68.5257,-11.2337,216.5486],[-68.5265,-11.232,204.0179],[-68.5302,-11.2321,213.3999],[-68.5257,-11.23,209.2971],[-68.5088,-11.2479,224.0155],[-68.5016,-11.2526,213.9828]]]]}}