{"type": "Feature","bbox": [-65.3161,-20.5225,-64.5459,-19.7796],"geometry": {"type": "MultiPolygon","coordinates": [[[[-64.6081,-20.0185,1492.701],[-64.613,-20.0131,1522.7904],[-64.6186,-20.01,1514.4276],[-64.6289,-19.9981,1520.3162],[-64.6314,-19.9937,1502.0979],[-64.6282,-19.9872,1551.6423],[-64.633,-19.9811,1535.6393],[-64.6326,-19.9755,1528.6963],[-64.6309,-19.9738,1618.4716],[-64.6358,-19.9705,1617.1013],[-64.637,-19.9667,1569.505],[-64.6395,-19.9648,1573.4613],[-64.64,-19.9612,1608.5748],[-64.6535,-19.9523,1578.0236],[-64.6534,-19.9436,1570.1586],[-64.6573,-19.9415,1569.3474],[-64.6591,-19.9356,1685.755],[-64.6664,-19.9271,1671.2844],[-64.6717,-19.926,1647.0903],[-64.6731,-19.924,1635.6801],[-64.6739,-19.9209,1699.8767],[-64.671,-19.9162,1615.7612],[-64.6751,-19.9079,1742.3218],[-64.6795,-19.9059,1684.0901],[-64.6803,-19.9025,1620.9011],[-64.6883,-19.8975,1649.2065],[-64.6877,-19.8934,1657.9863],[-64.6917,-19.8915,1638.4918],[-64.6902,-19.8863,1677.812],[-64.698,-19.8814,1651.793],[-64.6986,-19.8777,1643.2549],[-64.7031,-19.8742,1647.4529],[-64.7034,-19.8697,1653.3966],[-64.6981,-19.8557,1666.3116],[-64.7016,-19.8514,1680.9567],[-64.7001,-19.8464,1696.5769],[-64.7024,-19.8418,1678.5858],[-64.7035,-19.8317,1691.4553],[-64.7012,-19.8244,1746.0718],[-64.6943,-19.8149,1720.6605],[-64.7053,-19.8072,1737.348],[-64.7063,-19.8027,1788.7585],[-64.7114,-19.7975,1728.9292],[-64.7138,-19.7839,1790.1606],[-64.713,-19.7811,1765.1559],[-64.7144,-19.7796,1765.1559],[-64.7189,-19.7816,1793.5061],[-64.7243,-19.7879,1795.9656],[-64.7349,-19.7878,1876.0679],[-64.7393,-19.7898,1878.7915],[-64.7484,-19.8042,2009.8481],[-64.7607,-19.819,2077.8853],[-64.7617,-19.8247,2140.792],[-64.7665,-19.8269,2147.6675],[-64.7765,-19.841,2231.5994],[-64.78,-19.8492,2277.7021],[-64.7842,-19.8542,2315.4973],[-64.784,-19.8607,2346.4116],[-64.7891,-19.8693,2407.5056],[-64.7876,-19.8766,2428.3508],[-64.7927,-19.8885,2494.3577],[-64.7932,-19.8988,2556.3047],[-64.795,-19.9028,2567.4629],[-64.8056,-19.9123,2678.4563],[-64.8067,-19.9196,2732.8809],[-64.8105,-19.9228,2738.9587],[-64.8107,-19.9252,2760.4497],[-64.8198,-19.9313,2925.4607],[-64.8236,-19.9308,3016.427],[-64.8292,-19.9331,3074.3853],[-64.8373,-19.9474,3337.5239],[-64.8383,-19.9556,3466.7051],[-64.8466,-19.9713,3591.9067],[-64.8472,-19.979,3636.0933],[-64.8508,-19.9811,3677.7888],[-64.8589,-19.9745,3900.5332],[-64.8613,-19.9784,3838.6665],[-64.8665,-19.9781,3915.6594],[-64.8718,-19.981,3902.4229],[-64.8762,-19.9732,3698.1006],[-64.8788,-19.9724,3567.2283],[-64.8813,-19.9686,3293.0286],[-64.8836,-19.968,3194.6624],[-64.8829,-19.9671,3193.2188],[-64.8864,-19.9678,3147.9858],[-64.886,-19.9665,3147.9858],[-64.8888,-19.9654,3206.9746],[-64.8885,-19.9638,3131.1934],[-64.8908,-19.9636,3163.0134],[-64.8887,-19.9604,3017.5464],[-64.8929,-19.9571,3003.6992],[-64.8925,-19.9527,2994.9006],[-64.8947,-19.9495,2973.6565],[-64.8946,-19.9464,2978.5347],[-64.8969,-19.9458,3045.8499],[-64.8958,-19.9379,3021.7473],[-64.897,-19.9339,2927.8477],[-64.8931,-19.9247,2871.8418],[-64.895,-19.9205,2903.0647],[-64.8966,-19.9203,2952.3306],[-64.8948,-19.9142,2853.54],[-64.8969,-19.9088,2784.6509],[-64.9053,-19.8982,2718.4436],[-64.9073,-19.8896,2679.8154],[-64.9159,-19.8742,2604.5103],[-64.9191,-19.8636,2571.9878],[-64.919,-19.86,2564.895],[-64.9155,-19.8548,2536.269],[-64.9159,-19.85,2513.3489],[-64.9133,-19.8452,2496.249],[-64.9143,-19.8422,2504.4062],[-64.928,-19.8438,3095.8179],[-64.9311,-19.8565,3069.5205],[-64.93,-19.8595,3099.5222],[-64.9391,-19.8659,3176.5154],[-64.9416,-19.8765,3313.9204],[-64.9599,-19.869,3102.9531],[-64.9785,-19.8549,2581.1548],[-64.9783,-19.8531,2493.3],[-64.9827,-19.855,2615.6438],[-64.9831,-19.8534,2579.9663],[-64.9849,-19.8546,2673.4412],[-64.9909,-19.8533,2680.1462],[-64.991,-19.8478,2811.5513],[-64.9892,-19.8457,2787.5386],[-64.9902,-19.8433,2792.1492],[-64.9916,-19.8435,2824.8076],[-64.9908,-19.8405,2827.6597],[-64.9931,-19.8388,2936.4199],[-64.995,-19.8323,2930.4097],[-64.996,-19.8329,2930.4097],[-64.9958,-19.8303,2939.2603],[-64.9972,-19.8306,2982.5232],[-64.9988,-19.8278,3041.9568],[-65.0025,-19.8292,2999.4854],[-65.004,-19.8283,3045.4231],[-65.0092,-19.8132,3158.7395],[-65.0117,-19.814,3195.8003],[-65.0207,-19.8035,3247.7747],[-65.0263,-19.8025,3301.7449],[-65.0302,-19.7946,3349.885],[-65.0359,-19.7945,3419.4009],[-65.0398,-19.7968,3470.1328],[-65.0567,-19.7937,4050.1604],[-65.0525,-19.8062,3856.8101],[-65.054,-19.8185,3772.1396],[-65.0527,-19.8204,3768.0461],[-65.057,-19.8277,3787.0271],[-65.0559,-19.8333,3780.6357],[-65.0583,-19.8424,3754.0366],[-65.061,-19.844,3806.9539],[-65.0618,-19.8628,3766.8027],[-65.0648,-19.8707,3729.4229],[-65.0692,-19.8748,3734.854],[-65.0689,-19.8806,3728.3979],[-65.0759,-19.8991,3626.022],[-65.0745,-19.9009,3600.1602],[-65.077,-19.9086,3570.1775],[-65.0775,-19.9183,3581.377],[-65.0831,-19.9319,3543.6533],[-65.0816,-19.9348,3527.8118],[-65.0768,-19.9354,3379.7007],[-65.0717,-19.9388,3031.769],[-65.0696,-19.9423,3039.5317],[-65.0661,-19.9439,2925.4783],[-65.0632,-19.9492,2781.1162],[-65.0597,-19.9501,2728.5066],[-65.0598,-19.9533,2656.8198],[-65.062,-19.957,2713.2002],[-65.0658,-19.9591,2832.0356],[-65.0657,-19.9635,2920.2776],[-65.0714,-19.9671,3082.6882],[-65.075,-19.9745,3198.3455],[-65.0752,-19.9782,3201.9419],[-65.0772,-19.9799,3171.5229],[-65.0775,-19.9838,3184.0547],[-65.0746,-19.9899,3319.5662],[-65.0822,-19.995,3253.4968],[-65.0865,-19.9953,3410.9692],[-65.088,-19.9917,3439.5605],[-65.0906,-20.0094,2981.6787],[-65.1046,-20.0165,3425.6099],[-65.1281,-20.0152,3194.6909],[-65.1445,-20.0112,3183.7703],[-65.1522,-20.0124,3068.7227],[-65.1542,-20.0074,3010.532],[-65.1607,-20.0044,3023.3799],[-65.1709,-19.9956,3117.5181],[-65.2033,-19.938,3377.0811],[-65.214,-19.9393,3435.1748],[-65.2223,-19.9359,3454.5525],[-65.223,-19.9413,3527.2742],[-65.2278,-19.9481,3558.5803],[-65.2313,-19.95,3547.4097],[-65.2329,-19.9556,3520.9819],[-65.2381,-19.9589,3525.375],[-65.2442,-19.9702,3541.1184],[-65.2662,-19.9878,3966.1113],[-65.2683,-19.9916,3810.0811],[-65.2721,-19.9933,3667.9304],[-65.2703,-20.0039,4065.0259],[-65.2751,-20.0052,4104.2036],[-65.2774,-20.009,4068.627],[-65.2827,-20.004,4002.3916],[-65.2869,-20.0033,4096.2549],[-65.2938,-20.0066,4046.9976],[-65.2942,-20.0081,4053.9436],[-65.305,-20.0093,3960.9019],[-65.3051,-20.0261,3658.866],[-65.2932,-20.0488,3597.71],[-65.2893,-20.0532,3517.741],[-65.283,-20.0522,3651.1572],[-65.283,-20.0597,3741.3374],[-65.2793,-20.0691,3690.886],[-65.2722,-20.0795,3544.3652],[-65.2685,-20.0924,3637.4834],[-65.256,-20.1024,3869.3892],[-65.2495,-20.1034,3874.1794],[-65.2432,-20.1131,3818.1328],[-65.239,-20.1163,3755.9841],[-65.2337,-20.1305,3845.9136],[-65.2326,-20.1405,3847.687],[-65.2353,-20.1438,3945.9805],[-65.235,-20.1464,3912.6953],[-65.2571,-20.1586,3839.8633],[-65.2643,-20.1576,3794.02],[-65.2713,-20.1514,3692.8625],[-65.2844,-20.1702,3350.8457],[-65.2882,-20.1695,3338.8574],[-65.3016,-20.1778,3303.4182],[-65.3158,-20.1945,3222.2458],[-65.3161,-20.1976,3150.1018],[-65.3121,-20.207,3267.9299],[-65.3152,-20.2153,3223.9778],[-65.3157,-20.2251,3241.5127],[-65.3137,-20.2305,3273.7397],[-65.2921,-20.2297,3300.0962],[-65.2826,-20.2327,3313.9785],[-65.2796,-20.2398,3306.7556],[-65.2686,-20.2562,3351.2971],[-65.2654,-20.2575,3349.6147],[-65.2451,-20.2761,3890.3564],[-65.2218,-20.3138,4298.3262],[-65.2079,-20.3167,3895.876],[-65.1996,-20.3145,3824.5964],[-65.1955,-20.3113,3725.7986],[-65.1934,-20.3147,3685.0027],[-65.1916,-20.3124,3661.4766],[-65.1881,-20.3136,3644.9338],[-65.186,-20.311,3692.564],[-65.1846,-20.3122,3616.1907],[-65.1804,-20.3104,3611.2422],[-65.1754,-20.3118,3573.9116],[-65.1732,-20.315,3557.3564],[-65.1693,-20.3146,3538.1072],[-65.1675,-20.3166,3560.8799],[-65.1665,-20.3149,3515.21],[-65.163,-20.3157,3490.7544],[-65.1495,-20.306,3536.3931],[-65.1465,-20.3107,3452.0354],[-65.142,-20.3065,3419.9131],[-65.1315,-20.3061,3504.4509],[-65.1292,-20.3098,3569.8337],[-65.0861,-20.3214,3548.8706],[-65.0711,-20.3278,3421.0171],[-65.0702,-20.3335,3357.4102],[-65.0656,-20.3361,3322.811],[-65.0539,-20.3378,3324.2163],[-65.0495,-20.3401,3417.1514],[-65.0516,-20.3473,3405.7817],[-65.0516,-20.3564,3388.8623],[-65.0481,-20.3707,3406.5454],[-65.0478,-20.3831,3394.5471],[-65.0492,-20.388,3507.4868],[-65.0393,-20.3975,3084.7781],[-65.0362,-20.3976,2975.4888],[-65.0292,-20.4031,3036.0688],[-65.0263,-20.4034,3023.1179],[-65.0211,-20.4027,3083.6318],[-65.0175,-20.3986,3076.6897],[-65.0077,-20.4035,3305.6794],[-64.9958,-20.4132,3417.3804],[-64.9892,-20.4158,3421.6436],[-64.9847,-20.4209,3356.592],[-64.9845,-20.4275,3189.1035],[-64.9804,-20.4352,3287.8098],[-64.9721,-20.4426,3416.1218],[-64.9637,-20.4448,3412.7532],[-64.956,-20.4509,3456.269],[-64.948,-20.4541,3528.5535],[-64.9467,-20.4614,3582.0898],[-64.9402,-20.4637,3618.0723],[-64.9336,-20.4635,3477.8115],[-64.927,-20.4585,3364.6116],[-64.916,-20.4639,3456.9216],[-64.9023,-20.4625,3494.1665],[-64.8876,-20.4706,3767.4021],[-64.8798,-20.4727,3777.8083],[-64.8803,-20.4772,3793.2617],[-64.8763,-20.4829,3921.3101],[-64.8734,-20.4833,4002.5347],[-64.8647,-20.4913,4198.5957],[-64.8588,-20.4792,3767.8877],[-64.8391,-20.4918,3785.8264],[-64.8338,-20.4931,3751.3359],[-64.825,-20.494,3363.2317],[-64.8189,-20.4882,3443.5068],[-64.8107,-20.4906,3704.0303],[-64.8117,-20.4803,3424.8433],[-64.8099,-20.4746,3343.116],[-64.8135,-20.4669,3216.2983],[-64.8144,-20.4553,2835.5591],[-64.8066,-20.4249,2396.2217],[-64.8068,-20.4145,2023.4062],[-64.7953,-20.4114,1966.3574],[-64.7912,-20.4128,1935.3735],[-64.7751,-20.4096,1869.5577],[-64.7665,-20.4018,2266.6133],[-64.7499,-20.4011,1733.4329],[-64.7358,-20.4007,1660.5526],[-64.7246,-20.4094,1626.7307],[-64.7045,-20.4085,1595.8202],[-64.6884,-20.4112,1610.5684],[-64.6701,-20.422,1536.543],[-64.6686,-20.4303,1558.0189],[-64.6655,-20.433,1584.8464],[-64.6659,-20.4367,1488.3049],[-64.664,-20.4398,1490.1846],[-64.6639,-20.4526,1468.5837],[-64.6653,-20.4566,1482.1016],[-64.6622,-20.4683,1431.9281],[-64.664,-20.4852,1404.0132],[-64.6589,-20.5105,1428.4458],[-64.6601,-20.5225,1367.0857],[-64.6557,-20.5213,1347.0266],[-64.644,-20.5225,1323.3406],[-64.6411,-20.5207,1331.4077],[-64.6419,-20.5172,1317.0906],[-64.6394,-20.5119,1351.6455],[-64.6333,-20.5072,1315.5514],[-64.6306,-20.4889,1269.4288],[-64.6251,-20.4867,1264.0767],[-64.6205,-20.4822,1252.9502],[-64.6143,-20.4705,1232.772],[-64.597,-20.4583,1223.1841],[-64.5833,-20.4576,1189.5209],[-64.5786,-20.4535,1179.0159],[-64.5724,-20.4511,1170.4712],[-64.5679,-20.444,1158.183],[-64.5577,-20.4366,1143.927],[-64.5459,-20.433,1202.1895],[-64.5475,-20.4288,1151.7578],[-64.5503,-20.4279,1131.0312],[-64.5514,-20.4212,1157.6991],[-64.5579,-20.412,1142.5472],[-64.5619,-20.4018,1149.6648],[-64.5562,-20.3963,1167.2261],[-64.5601,-20.387,1159.7358],[-64.5534,-20.3749,1202.0881],[-64.5545,-20.3729,1170.5026],[-64.5608,-20.3699,1173.5198],[-64.5679,-20.3698,1175.9681],[-64.5717,-20.3644,1202.6581],[-64.5697,-20.3604,1235.178],[-64.5711,-20.3556,1192.2566],[-64.5702,-20.3495,1214.8523],[-64.5755,-20.347,1196.0476],[-64.5725,-20.3427,1251.4164],[-64.5731,-20.3385,1315.4047],[-64.5698,-20.3322,1253.8846],[-64.5727,-20.3305,1296.5865],[-64.5744,-20.3256,1207.4678],[-64.5717,-20.3175,1262.7289],[-64.5725,-20.3113,1308.9769],[-64.5749,-20.3076,1220.5032],[-64.5743,-20.3035,1223.8877],[-64.5779,-20.2869,1235.8813],[-64.5747,-20.2801,1286.4412],[-64.5743,-20.2721,1266.3925],[-64.5799,-20.2719,1248.8645],[-64.587,-20.2665,1257.1918],[-64.5887,-20.2592,1260.4442],[-64.5851,-20.2507,1321.1429],[-64.5905,-20.2441,1284.2026],[-64.5911,-20.2376,1284.9933],[-64.5946,-20.2311,1282.2476],[-64.5931,-20.2274,1384.5712],[-64.589,-20.2274,1288.4451],[-64.5838,-20.2216,1314.1656],[-64.5831,-20.2167,1297.0742],[-64.5854,-20.2126,1391.9275],[-64.5812,-20.2101,1315.7897],[-64.5797,-20.2073,1306.6426],[-64.5797,-20.2033,1316.0034],[-64.5858,-20.1938,1321.7375],[-64.5839,-20.1859,1324.3949],[-64.5862,-20.1781,1330.5354],[-64.5847,-20.1708,1337.2084],[-64.588,-20.1658,1342.3849],[-64.5856,-20.1564,1349.194],[-64.5892,-20.1486,1355.5558],[-64.5821,-20.1443,1361.6012],[-64.5818,-20.1419,1362.5906],[-64.5846,-20.1381,1366.2236],[-64.5818,-20.1334,1369.7217],[-64.5845,-20.1286,1374.2094],[-64.583,-20.1249,1381.7241],[-64.5852,-20.1214,1383.6945],[-64.5848,-20.1185,1383.2505],[-64.5891,-20.1136,1388.0081],[-64.5912,-20.1083,1394.564],[-64.5916,-20.0998,1401.7645],[-64.5948,-20.0945,1407.088],[-64.5913,-20.0858,1420.8707],[-64.595,-20.0777,1507.9487],[-64.5997,-20.0739,1424.2491],[-64.6016,-20.0607,1490.7599],[-64.6048,-20.0557,1453.5588],[-64.6054,-20.0456,1451.5073],[-64.6034,-20.0418,1467.4023],[-64.6055,-20.0366,1457.2542],[-64.6041,-20.0292,1466.9078],[-64.6077,-20.024,1471.8992],[-64.6081,-20.0185,1492.701]]]]}
,"properties": {"GID_3": "BOL.1.5.3_2","GID_0": "BOL","country": "Bolivia","GID_1": "BOL.1_1","province": "Chuquisaca","NL_NAME_1": "NA","GID_2": "BOL.1.5_2","county": "NorCinti","NL_NAME_2": "NA","city": "SanLucas","VARNAME_3": "NA","NL_NAME_3": "NA","TYPE_3": "District","ENGTYPE_3": "Distrito","CC_3": "NA","HASC_3": "NA","name": "San_Lucas.city","area_km2": 3902.972,"hist_schema_id": "Elevation0-9000","hist_area_km2": {"1125": 0.536,"1150": 1.967,"1175": 2.941,"1200": 2.345,"1225": 3.518,"1250": 3.876,"1275": 3.419,"1300": 3.856,"1325": 4.812,"1350": 4.335,"1375": 5.508,"1400": 5.429,"1425": 6.145,"1450": 5.549,"1475": 6.126,"1500": 5.748,"1525": 6.603,"1550": 7.458,"1575": 7.598,"1600": 7.418,"1625": 7.061,"1650": 9.31,"1675": 9.688,"1700": 9.667,"1725": 10.701,"1750": 9.886,"1775": 11.696,"1800": 12.392,"1825": 12.652,"1850": 13.746,"1875": 14.022,"1900": 16.031,"1925": 15.535,"1950": 16.092,"1975": 17.028,"2000": 16.968,"2025": 17.188,"2050": 18.222,"2075": 19.257,"2100": 17.984,"2125": 18.979,"2150": 18.899,"2175": 19.776,"2200": 19.834,"2225": 21.346,"2250": 20.212,"2275": 20.99,"2300": 19.676,"2325": 20.056,"2350": 20.055,"2375": 20.812,"2400": 21.13,"2425": 20.91,"2450": 19.638,"2475": 21.788,"2500": 21.114,"2525": 20.757,"2550": 20.598,"2575": 20.857,"2600": 20.301,"2625": 21.317,"2650": 21.935,"2675": 22.989,"2700": 22.234,"2725": 24.384,"2750": 23.309,"2775": 25.6,"2800": 26.756,"2825": 26.578,"2850": 27.753,"2875": 29.126,"2900": 29.785,"2925": 31.121,"2950": 32.753,"2975": 34.845,"3000": 41.656,"3025": 46.415,"3050": 48.445,"3075": 51.83,"3100": 54.694,"3125": 60.764,"3150": 66.23,"3175": 71.922,"3200": 79.618,"3225": 86.64,"3250": 93.085,"3275": 95.989,"3300": 98.513,"3325": 100.382,"3350": 100.752,"3375": 97.625,"3400": 94.002,"3425": 86.204,"3450": 81.411,"3475": 79.979,"3500": 75.862,"3525": 75.354,"3550": 74.001,"3575": 66.637,"3600": 68.466,"3625": 59.831,"3650": 56.034,"3675": 53.133,"3700": 51.184,"3725": 48.856,"3750": 48.159,"3775": 44.157,"3800": 44.715,"3825": 42.526,"3850": 39.382,"3875": 38.525,"3900": 33.908,"3925": 31.299,"3950": 25.606,"3975": 21.623,"4000": 19.751,"4025": 16.764,"4050": 16.067,"4075": 14.614,"4100": 13.678,"4125": 12.025,"4150": 11.328,"4175": 10.891,"4200": 9.198,"4225": 9.377,"4250": 8.959,"4275": 9.099,"4300": 8.183,"4325": 6.968,"4350": 5.614,"4375": 4.898,"4400": 3.902,"4425": 3.226,"4450": 2.031,"4475": 1.175,"4500": 0.856,"4525": 0.199,"4550": 0.219}}}