{"type":"Feature","properties":{"GID_3":"BOL.3.7.2_2","GID_0":"BOL","country":"Bolivia","GID_1":"BOL.3_1","province":"Beni","NL_NAME_1":"NA","GID_2":"BOL.3.7_2","county":"VacaDiez","NL_NAME_2":"NA","city":"Riberalta","VARNAME_3":"NA","NL_NAME_3":"NA","TYPE_3":"District","ENGTYPE_3":"Distrito","CC_3":"NA","HASC_3":"NA","name":"Riberalta.city"},
"geometry":{"type": "MultiPolygon","coordinates": [[[[-66.6226,-12.0035,144.2133],[-66.2679,-12.0,139.8118],[-65.4607,-12.0,134.8866],[-65.4698,-11.9953,133.5037],[-65.4686,-11.9923,136.77],[-65.4652,-11.9909,133.7064],[-65.4673,-11.9836,134.7126],[-65.4651,-11.9776,131.8845],[-65.4753,-11.9706,131.1476],[-65.4826,-11.9722,136.0026],[-65.4851,-11.9713,140.1576],[-65.4869,-11.9679,138.7013],[-65.4854,-11.9641,133.1856],[-65.4874,-11.9623,132.7643],[-65.5014,-11.9674,131.0867],[-65.499,-11.9626,133.3485],[-65.5066,-11.9608,131.6092],[-65.5018,-11.956,132.6792],[-65.5012,-11.9496,132.3692],[-65.51,-11.9502,135.3355],[-65.5168,-11.9525,130.3173],[-65.5085,-11.9434,138.9324],[-65.5089,-11.937,131.3039],[-65.5046,-11.9408,131.5476],[-65.5019,-11.938,136.4383],[-65.5091,-11.9345,140.8416],[-65.5114,-11.9272,138.3057],[-65.5167,-11.9254,130.2434],[-65.5171,-11.923,134.6402],[-65.5137,-11.9218,130.2335],[-65.5145,-11.9166,131.6057],[-65.5132,-11.9125,133.7137],[-65.5192,-11.9116,133.4282],[-65.5198,-11.9104,143.3976],[-65.5103,-11.9039,133.3005],[-65.5081,-11.8993,132.6837],[-65.5039,-11.8991,131.7399],[-65.5007,-11.8965,142.0223],[-65.5029,-11.8874,140.6306],[-65.4958,-11.8832,133.7701],[-65.4944,-11.8794,129.9645],[-65.4989,-11.8723,136.576],[-65.4993,-11.8604,129.808],[-65.4955,-11.8542,130.9987],[-65.5018,-11.8457,133.6128],[-65.5075,-11.8445,129.7674],[-65.5068,-11.8379,137.2954],[-65.514,-11.8354,133.6496],[-65.5153,-11.8305,132.3376],[-65.5274,-11.8275,134.9087],[-65.5246,-11.8172,129.4792],[-65.5341,-11.8145,129.0054],[-65.5343,-11.8116,129.7331],[-65.5317,-11.8062,134.2918],[-65.5345,-11.7963,130.2883],[-65.5429,-11.7939,130.3535],[-65.5473,-11.7946,132.2648],[-65.5468,-11.7913,126.7913],[-65.5417,-11.7906,129.5601],[-65.5391,-11.7882,127.0445],[-65.544,-11.7821,136.0861],[-65.543,-11.7721,126.7418],[-65.5556,-11.7646,144.0649],[-65.5568,-11.7616,141.0466],[-65.5542,-11.7566,137.2985],[-65.5646,-11.7408,124.9074],[-65.5628,-11.7346,131.0768],[-65.5662,-11.7345,126.2609],[-65.569,-11.7319,124.3765],[-65.5714,-11.7325,121.8743],[-65.5743,-11.7257,126.0644],[-65.5728,-11.7206,127.6524],[-65.5755,-11.72,131.834],[-65.579,-11.7112,137.8172],[-65.588,-11.703,124.8508],[-65.5852,-11.6992,134.622],[-65.5907,-11.6912,130.981],[-65.5851,-11.6893,124.5612],[-65.58,-11.6844,127.9202],[-65.5854,-11.6804,131.2772],[-65.5913,-11.6699,124.7962],[-65.5994,-11.6665,131.9933],[-65.6025,-11.6622,127.4453],[-65.6067,-11.651,126.8908],[-65.6065,-11.6479,128.4075],[-65.6015,-11.6471,128.6066],[-65.5994,-11.6444,129.192],[-65.616,-11.6365,128.9386],[-65.6173,-11.6255,121.7935],[-65.6196,-11.6216,122.4688],[-65.6182,-11.6182,126.0833],[-65.6288,-11.6128,122.2907],[-65.627,-11.609,125.2572],[-65.6281,-11.6067,123.2375],[-65.6414,-11.605,128.238],[-65.6514,-11.6076,119.928],[-65.6576,-11.6033,127.2823],[-65.6582,-11.6004,122.5659],[-65.6552,-11.5944,124.8145],[-65.656,-11.591,120.9035],[-65.6481,-11.5864,123.2114],[-65.6551,-11.5802,121.2297],[-65.6599,-11.5805,128.1736],[-65.661,-11.576599999999999,119.8401],[-65.6633,-11.5763,127.0944],[-65.6656,-11.5738,126.5755],[-65.6614,-11.5715,129.0332],[-65.6567,-11.5719,124.4354],[-65.6529,-11.5688,120.4021],[-65.6573,-11.5584,127.0714],[-65.6565,-11.5427,134.088],[-65.6586,-11.5424,124.0624],[-65.6656,-11.5465,131.1108],[-65.6663,-11.5442,119.6196],[-65.6638,-11.5368,124.1885],[-65.6694,-11.5329,119.9448],[-65.6718,-11.5255,145.6011],[-65.6891,-11.5256,123.2373],[-65.6927,-11.5204,121.9119],[-65.6886,-11.5111,121.7476],[-65.7034,-11.5099,128.9287],[-65.7046,-11.5084,128.0458],[-65.7035,-11.506,124.3928],[-65.6972,-11.5074,119.0082],[-65.6967,-11.5052,129.463],[-65.6992,-11.4999,125.081],[-65.6992,-11.4914,119.7114],[-65.6915,-11.4831,127.6632],[-65.6948,-11.4635,136.1665],[-65.691,-11.4491,118.2842],[-65.6914,-11.4453,119.5981],[-65.6891,-11.4443,121.1704],[-65.6834,-11.4455,120.9777],[-65.6818,-11.4431,130.5723],[-65.6879,-11.4339,121.8891],[-65.6887,-11.4268,123.9992],[-65.6831,-11.4207,121.9444],[-65.6725,-11.4245,119.9282],[-65.6699,-11.4179,130.9877],[-65.6706,-11.4097,120.8236],[-65.6692,-11.4035,119.6022],[-65.6612,-11.3973,121.503],[-65.6589,-11.3981,124.9884],[-65.6571,-11.4019,135.7644],[-65.6559,-11.396,119.6314],[-65.6491,-11.3919,131.5146],[-65.659,-11.3871,121.1013],[-65.6696,-11.3768,123.4739],[-65.6744,-11.3741,119.996],[-65.6713,-11.3708,120.9023],[-65.6656,-11.3748,126.2615],[-65.6604,-11.3743,119.3748],[-65.662,-11.3683,130.7452],[-65.6651,-11.365,117.461],[-65.6711,-11.3625,120.0634],[-65.6712,-11.3608,115.3572],[-65.6688,-11.3581,123.4078],[-65.6608,-11.3595,119.9835],[-65.6597,-11.3578,129.4042],[-65.6726,-11.3445,118.0909],[-65.6722,-11.3425,123.8659],[-65.6652,-11.3398,133.7846],[-65.6639,-11.3377,120.8451],[-65.6665,-11.3346,127.2866],[-65.6707,-11.3341,121.0192],[-65.6761,-11.3303,120.622],[-65.6777,-11.3254,133.8756],[-65.6763,-11.3197,113.0],[-65.681,-11.3082,122.51],[-65.6798,-11.3062,131.0366],[-65.6733,-11.3078,127.4402],[-65.6663,-11.3138,120.6269],[-65.6619,-11.3121,117.8328],[-65.67,-11.3016,134.1641],[-65.6698,-11.2999,134.2319],[-65.6629,-11.2973,117.787],[-65.6654,-11.293,117.7529],[-65.6677,-11.2919,121.3463],[-65.6759,-11.2928,123.3762],[-65.6796,-11.2899,120.0962],[-65.6798,-11.2809,116.5152],[-65.6766,-11.2786,117.5519],[-65.6846,-11.2666,116.1675],[-65.6836,-11.2606,116.2821],[-65.678,-11.2639,128.939],[-65.6772,-11.263,128.939],[-65.6857,-11.2425,128.0826],[-65.6854,-11.2391,121.3554],[-65.6819,-11.2336,123.0698],[-65.6839,-11.2285,124.7718],[-65.6828,-11.2224,115.6487],[-65.6787,-11.221,117.71],[-65.6804,-11.2167,125.1355],[-65.6794,-11.2111,120.4896],[-65.6836,-11.2094,123.5772],[-65.6872,-11.2042,122.378],[-65.6788,-11.1948,119.7902],[-65.683,-11.187,116.1684],[-65.684,-11.1783,124.6547],[-65.686,-11.1751,118.9841],[-65.6849,-11.1739,118.2684],[-65.6775,-11.1766,122.2136],[-65.6721,-11.1733,118.9578],[-65.6685,-11.1775,120.6061],[-65.6641,-11.1784,117.3199],[-65.6623,-11.183,129.0372],[-65.6603,-11.1825,123.1263],[-65.6573,-11.1755,130.1306],[-65.6593,-11.1633,129.9333],[-65.6663,-11.1588,119.9997],[-65.674,-11.1606,119.9454],[-65.6814,-11.1575,118.0298],[-65.6823,-11.1553,122.5718],[-65.6656,-11.1461,124.2424],[-65.6631,-11.1533,121.5451],[-65.6609,-11.1536,117.8173],[-65.6559,-11.1456,116.1437],[-65.66,-11.142,117.8592],[-65.664,-11.1426,117.7353],[-65.6675,-11.1407,121.6484],[-65.6727,-11.1419,119.037],[-65.6743,-11.1343,116.3855],[-65.6796,-11.1312,117.5917],[-65.6763,-11.1296,120.8556],[-65.6715,-11.1339,120.5045],[-65.6684,-11.1342,117.7498],[-65.6646,-11.1299,120.6977],[-65.6648,-11.1252,116.3035],[-65.6706,-11.1214,128.4153],[-65.6719,-11.1166,118.5827],[-65.6639,-11.1215,123.4879],[-65.661,-11.12,116.7087],[-65.6621,-11.1168,123.143],[-65.667,-11.1129,124.8911],[-65.6715,-11.1122,116.0296],[-65.6754,-11.1147,119.8453],[-65.6769,-11.114,114.6802],[-65.6746,-11.1103,114.3175],[-65.6645,-11.1093,118.9083],[-65.6617,-11.1073,122.4519],[-65.665,-11.1011,113.9986],[-65.6695,-11.0971,116.4516],[-65.6684,-11.0926,117.1334],[-65.6745,-11.0926,112.2539],[-65.6707,-11.0878,117.1707],[-65.6712,-11.0861,115.3859],[-65.6779,-11.0844,119.4691],[-65.6794,-11.0816,115.7168],[-65.6738,-11.0735,122.4189],[-65.6697,-11.0732,117.8243],[-65.6653,-11.0762,115.3859],[-65.6635,-11.0751,123.2661],[-65.6636,-11.0719,117.6265],[-65.6682,-11.0644,129.8887],[-65.6599,-11.0595,113.1839],[-65.6555,-11.0636,122.3921],[-65.6535,-11.0628,122.7165],[-65.6576,-11.0559,116.359],[-65.6552,-11.0502,118.4349],[-65.6512,-11.0469,128.3295],[-65.65,-11.0401,114.9274],[-65.6583,-11.0421,115.3506],[-65.6599,-11.0359,138.528],[-65.6579,-11.0273,110.5],[-65.6501,-11.0134,120.8328],[-65.6415,-11.0072,117.0393],[-65.6394,-11.0079,123.8953],[-65.6378,-11.0128,112.8921],[-65.6357,-11.0143,116.1672],[-65.6271,-11.0084,114.6415],[-65.626,-11.0102,113.7964],[-65.6268,-11.018,126.2232],[-65.6238,-11.0218,115.4747],[-65.6216,-11.0219,115.5525],[-65.6168,-11.0144,127.8319],[-65.6124,-11.0127,115.378],[-65.616,-11.0084,122.1767],[-65.6116,-11.0043,117.281],[-65.6079,-11.0026,123.4549],[-65.6059,-11.0034,128.0255],[-65.6075,-11.0099,119.4178],[-65.6035,-11.0117,121.1687],[-65.5999,-11.0097,112.7551],[-65.5962,-11.0042,115.5838],[-65.5881,-11.0031,118.3894],[-65.585,-11.0005,112.5144],[-65.5819,-11.0021,115.2907],[-65.5803,-10.9979,122.0763],[-65.5854,-10.9909,116.6214],[-65.5853,-10.9883,120.353],[-65.5804,-10.9837,115.4767],[-65.5763,-10.9846,127.6786],[-65.5704,-10.9774,123.21],[-65.5674,-10.9686,115.0315],[-65.5679,-10.9551,112.5523],[-65.5658,-10.9475,114.0637],[-65.5709,-10.9472,115.701],[-65.5723,-10.94,123.5573],[-65.5676,-10.9303,111.6624],[-65.5721,-10.9293,117.1083],[-65.5775,-10.9306,115.3508],[-65.579,-10.9271,115.3017],[-65.5832,-10.9291,115.0683],[-65.5855,-10.9269,118.1101],[-65.5833,-10.9232,120.5403],[-65.5719,-10.9176,113.0957],[-65.5713,-10.9159,114.5873],[-65.581,-10.9172,113.589],[-65.5845,-10.9105,113.3275],[-65.5896,-10.9108,122.2307],[-65.5871,-10.9077,112.5848],[-65.5818,-10.9063,114.2447],[-65.5824,-10.9038,114.2725],[-65.5862,-10.9038,112.6088],[-65.5923,-10.9069,118.5661],[-65.5942,-10.9062,110.5641],[-65.5942,-10.9024,115.5435],[-65.5906,-10.896,113.8359],[-65.5923,-10.8901,115.1818],[-65.5959,-10.888,113.2166],[-65.5903,-10.884,115.6305],[-65.5912,-10.8805,109.5],[-65.5838,-10.8642,122.9847],[-65.5751,-10.853,121.0968],[-65.5779,-10.8505,113.3412],[-65.5866,-10.8513,118.0087],[-65.5922,-10.8469,120.262],[-65.5957,-10.8427,125.8296],[-65.5997,-10.8325,118.3354],[-65.5935,-10.8175,114.8155],[-65.5853,-10.8119,122.1541],[-65.5849,-10.8044,116.9134],[-65.5825,-10.8054,113.3276],[-65.5815,-10.8094,124.2055],[-65.5793,-10.8115,117.8413],[-65.577,-10.8082,120.44],[-65.5762,-10.8006,112.0247],[-65.5684,-10.8066,117.7091],[-65.564,-10.8057,114.547],[-65.5631,-10.8027,125.4524],[-65.5665,-10.7957,114.0241],[-65.5618,-10.7867,111.8293],[-65.5513,-10.7944,116.6844],[-65.5543,-10.8007,126.3043],[-65.5533,-10.803,118.2732],[-65.5478,-10.8005,114.3314],[-65.5463,-10.7924,117.8381],[-65.5534,-10.7809,111.6537],[-65.551,-10.7802,110.8733],[-65.5456,-10.7822,119.1922],[-65.5412,-10.7765,111.695],[-65.5411,-10.7702,110.8725],[-65.5444,-10.7648,115.3804],[-65.5486,-10.7626,116.9138],[-65.5541,-10.7646,123.9918],[-65.5536,-10.7697,120.5234],[-65.5561,-10.7706,111.3158],[-65.5541,-10.7532,115.4321],[-65.5631,-10.7512,112.5805],[-65.5683,-10.7483,113.8101],[-65.57,-10.7501,111.9302],[-65.5692,-10.7562,115.2808],[-65.5728,-10.7571,114.4467],[-65.5745,-10.7537,113.4672],[-65.5706,-10.7438,121.9227],[-65.5755,-10.738,119.9612],[-65.5857,-10.7379,115.9483],[-65.5872,-10.7355,110.4002],[-65.5861,-10.7328,115.8295],[-65.6168,-10.7312,140.3292],[-65.6634,-10.7361,152.778],[-65.6984,-10.73,165.6468],[-65.7335,-10.7069,106.0],[-65.7531,-10.7169,106.0],[-65.7877,-10.7306,106.5],[-65.8126,-10.7433,106.5],[-65.8201,-10.7442,106.5],[-65.8271,-10.7418,106.5],[-65.832,-10.7357,106.5],[-65.8405,-10.718,106.5],[-65.8603,-10.6926,106.5],[-65.864,-10.6897,108.0547],[-65.8688,-10.689,106.5],[-65.88,-10.6934,107.0],[-65.8878,-10.7015,107.0],[-65.8958,-10.7138,107.0],[-65.9038,-10.7291,107.0],[-65.9056,-10.7408,107.5431],[-65.903,-10.7456,107.0],[-65.8812,-10.7574,107.0],[-65.8684,-10.7676,107.0],[-65.8518,-10.7844,107.0],[-65.8486,-10.7918,107.5],[-65.8498,-10.823,107.5],[-65.8507,-10.8297,107.5],[-65.854,-10.8339,107.5],[-65.8597,-10.8355,111.2209],[-65.8811,-10.8305,121.4575],[-65.9047,-10.8298,107.5],[-65.9149,-10.8274,107.5],[-65.9354,-10.8135,107.5],[-65.9688,-10.7977,108.0],[-65.9758,-10.797,108.0],[-65.9825,-10.7985,108.0],[-66.0006,-10.8104,108.0],[-66.0103,-10.8131,115.697],[-66.0442,-10.8314,108.0],[-66.0718,-10.8475,108.0],[-66.0763,-10.8517,108.0],[-66.0761,-10.8567,108.0],[-66.071,-10.8631,108.0],[-66.0629,-10.8661,108.0],[-66.056,-10.8671,108.0],[-66.0486,-10.8655,108.0],[-66.0285,-10.8545,108.0],[-66.0215,-10.8549,108.0],[-66.0154,-10.8582,108.0],[-66.0131,-10.8637,108.0],[-66.0154,-10.8719,108.0],[-66.0207,-10.8791,113.4394],[-66.0382,-10.889,137.0689],[-66.0437,-10.8956,114.5262],[-66.0473,-10.903,108.0],[-66.0491,-10.914,108.0],[-66.047,-10.9418,108.5],[-66.0579,-10.9866,113.0],[-66.0609,-10.9898,113.5],[-66.0661,-10.9913,114.0],[-66.0814,-10.9925,117.5387],[-66.0923,-10.9901,122.015],[-66.1066,-11.0228,116.0],[-66.1082,-11.0327,128.2237],[-66.1067,-11.0393,116.0],[-66.1035,-11.0425,116.0],[-66.0985,-11.0432,116.0],[-66.0915,-11.0473,116.0],[-66.0934,-11.0506,116.0],[-66.1043,-11.0514,116.0],[-66.1374,-11.0422,116.5],[-66.1439,-11.0461,117.0],[-66.1433,-11.052,117.0],[-66.127,-11.0758,117.5],[-66.1234,-11.0838,117.5],[-66.1216,-11.1003,117.5],[-66.1264,-11.1183,118.0],[-66.1308,-11.1246,118.0],[-66.1377,-11.1306,118.0],[-66.1529,-11.1355,118.25],[-66.1574,-11.1344,118.5],[-66.1601,-11.1312,118.5],[-66.1703,-11.0974,118.5],[-66.1778,-11.0847,118.5],[-66.1833,-11.0771,121.7288],[-66.1864,-11.0754,119.0],[-66.1938,-11.0749,119.0],[-66.1959,-11.0768,120.526],[-66.2147,-11.1186,119.0],[-66.2143,-11.1224,123.7139],[-66.2004,-11.1284,119.5],[-66.1963,-11.1323,119.5],[-66.1908,-11.1455,119.5],[-66.1858,-11.1818,127.2606],[-66.1888,-11.1876,120.0],[-66.2029,-11.2028,128.444],[-66.2165,-11.2116,120.0],[-66.2409,-11.2204,120.5],[-66.2441,-11.2196,121.3046],[-66.2472,-11.2165,120.5],[-66.2502,-11.209,128.5467],[-66.2534,-11.2066,130.3079],[-66.258,-11.2064,128.8146],[-66.2615,-11.208,121.8074],[-66.267,-11.2172,120.5],[-66.2697,-11.2349,126.0152],[-66.2685,-11.241,127.8957],[-66.2634,-11.2513,120.5],[-66.2551,-11.2578,121.0],[-66.2514,-11.2661,128.0593],[-66.2525,-11.2697,121.0],[-66.2563,-11.2733,121.0],[-66.2661,-11.2748,127.5682],[-66.2754,-11.2726,127.9514],[-66.2776,-11.2745,123.652],[-66.2776,-11.2777,123.5449],[-66.2699,-11.2896,121.5],[-66.243,-11.3033,121.5],[-66.2379,-11.3081,121.5],[-66.2258,-11.3291,123.3368],[-66.2254,-11.3364,122.0],[-66.2281,-11.3404,122.0],[-66.2331,-11.3426,122.0],[-66.2436,-11.3402,122.0],[-66.2722,-11.3229,123.4713],[-66.2903,-11.3155,122.5],[-66.2966,-11.3141,122.5],[-66.3109,-11.3158,122.5],[-66.3315,-11.3235,123.0],[-66.3382,-11.3311,123.0],[-66.3359,-11.3457,123.0],[-66.3297,-11.349,123.0],[-66.3192,-11.3517,129.7905],[-66.3177,-11.3537,127.9534],[-66.3179,-11.3587,123.5],[-66.321,-11.3612,123.5],[-66.327,-11.3635,123.5],[-66.3416,-11.3644,123.5],[-66.3578,-11.3674,123.5],[-66.3737,-11.3746,124.4734],[-66.3896,-11.3782,124.0],[-66.4302,-11.3737,124.0],[-66.4403,-11.3764,124.0],[-66.4614,-11.3921,128.4639],[-66.4646,-11.3963,128.9649],[-66.4671,-11.4057,124.0],[-66.4631,-11.4176,124.0],[-66.464,-11.4238,124.0],[-66.4702,-11.4278,125.6548],[-66.483,-11.4302,124.0],[-66.495,-11.441,132.1129],[-66.5054,-11.4431,129.8577],[-66.5072,-11.442,128.9674],[-66.5107,-11.437,129.7962],[-66.5126,-11.4257,124.0],[-66.519,-11.42,130.7987],[-66.5344,-11.4183,130.0694],[-66.5471,-11.4144,134.6465],[-66.5543,-11.4144,124.5],[-66.5739,-11.4245,135.7955],[-66.5907,-11.4294,132.4272],[-66.6151,-11.428,125.0],[-66.6316,-11.424,125.0],[-66.6374,-11.4255,125.0],[-66.639,-11.4306,125.0],[-66.6335,-11.455,125.5],[-66.6335,-11.462,125.5],[-66.6339,-11.4673,125.5],[-66.6362,-11.4717,125.5],[-66.6395,-11.4733,125.5],[-66.6506,-11.4668,125.5],[-66.6674,-11.4527,127.5544],[-66.6892,-11.4434,126.0],[-66.695,-11.4429,127.2556],[-66.7053,-11.4465,126.0],[-66.7178,-11.4581,126.0],[-66.7333,-11.4799,126.0],[-66.734,-11.4842,126.0],[-66.7295,-11.4879,128.3135],[-66.7196,-11.4862,126.0],[-66.7088,-11.4881,126.0],[-66.6959,-11.4972,126.0],[-66.6864,-11.5122,129.3226],[-66.6791,-11.531,127.0],[-66.6768,-11.5388,127.5],[-66.6758,-11.5617,148.9555],[-66.6778,-11.5654,148.0332],[-66.6804,-11.5658,139.8553],[-66.6922,-11.561,128.0],[-66.6969,-11.5607,128.0],[-66.7214,-11.5662,128.0],[-66.7477,-11.5762,128.0],[-66.7597,-11.5846,128.5],[-66.7624,-11.5878,128.5],[-66.7628,-11.5913,131.0475],[-66.7609,-11.5942,130.8337],[-66.734,-11.6084,129.0],[-66.7205,-11.6067,137.9447],[-66.7128,-11.6105,139.5028],[-66.711,-11.618,140.9395],[-66.7219,-11.6295,129.5],[-66.727,-11.6449,130.0],[-66.7295,-11.6485,130.0],[-66.7353,-11.6523,130.0],[-66.7358,-11.6548,130.0],[-66.7335,-11.6573,130.0],[-66.7294,-11.658,130.0],[-66.7171,-11.6558,137.0433],[-66.7086,-11.6586,148.2488],[-66.7067,-11.6607,143.9199],[-66.7053,-11.6646,149.5141],[-66.706,-11.6713,132.1344],[-66.7117,-11.6818,130.0],[-66.7254,-11.6906,130.0],[-66.762,-11.7085,130.5],[-66.7639,-11.7123,130.5],[-66.7636,-11.7322,138.2885],[-66.7649,-11.7361,130.5],[-66.7721,-11.7423,130.5],[-66.7813,-11.745,130.5],[-66.7907,-11.7427,130.5],[-66.7941,-11.74,130.5],[-66.7959,-11.7309,130.5],[-66.7936,-11.7272,130.5],[-66.7829,-11.7218,130.5],[-66.7741,-11.7134,131.0],[-66.7711,-11.7019,143.1226],[-66.7719,-11.6966,131.0],[-66.7792,-11.6928,139.0597],[-66.8115,-11.6954,136.5666],[-66.8167,-11.6973,131.5],[-66.8261,-11.7062,131.5],[-66.8291,-11.7126,131.5],[-66.8351,-11.7398,132.0],[-66.8377,-11.7646,139.9995],[-66.8398,-11.7664,137.4267],[-66.8521,-11.7629,132.0],[-66.8609,-11.7549,132.5],[-66.8665,-11.7451,132.5],[-66.8702,-11.7429,134.0469],[-66.8796,-11.742,132.5],[-66.9047,-11.7442,133.0],[-66.9105,-11.7471,133.0],[-66.9173,-11.7647,133.0],[-66.9188,-11.7767,133.0],[-66.9179,-11.7806,133.5],[-66.9096,-11.7811,133.5],[-66.8865,-11.7729,133.5],[-66.8804,-11.7739,133.5],[-66.8772,-11.777,133.5],[-66.8718,-11.7886,135.5367],[-66.871,-11.7926,135.9623],[-66.8732,-11.8016,135.9474],[-66.8713,-11.8091,134.0],[-66.8679,-11.8123,134.5],[-66.8564,-11.8172,134.5],[-66.8567,-11.8226,139.9658],[-66.8937,-11.8579,135.5],[-66.9037,-11.8626,136.0],[-66.9188,-11.8655,136.0],[-66.9414,-11.878,153.6134],[-66.9533,-11.8782,140.193],[-66.9555,-11.8802,136.0],[-66.9565,-11.8932,147.0558],[-66.9585,-11.8954,136.0],[-66.9647,-11.8969,139.8904],[-66.9719,-11.8946,151.6955],[-66.9759,-11.8959,151.078],[-66.9791,-11.9,141.8268],[-66.9797,-11.9066,141.3186],[-66.978,-11.914,136.0],[-66.9694,-11.9289,136.5],[-66.9561,-11.9406,136.5],[-66.9523,-11.9401,136.5],[-66.9499,-11.9371,136.5],[-66.9574,-11.917,155.4152],[-66.9538,-11.9112,145.4879],[-66.9497,-11.9096,140.0547],[-66.9407,-11.9118,137.0],[-66.9295,-11.9205,137.0],[-66.9262,-11.9311,137.0],[-66.9309,-11.9442,153.9047],[-66.93,-11.9503,137.0],[-66.9253,-11.9546,144.1719],[-66.9137,-11.9493,152.5975],[-66.9084,-11.9505,137.0],[-66.9059,-11.9529,140.2186],[-66.9019,-11.979,138.0],[-66.8939,-12.0059,140.0],[-66.6226,-12.0035,144.2133]]]]}}