{"type":"Feature","properties":{"GID_2":"BOL.7.1_2","GID_0":"BOL","country":"Bolivia","GID_1":"BOL.7_1","province":"Potosí","NL_NAME_1":"NA","county":"AlonsodeIbáñez","VARNAME_2":"Ibanez","NL_NAME_2":"NA","TYPE_2":"Provincia","ENGTYPE_2":"Province","CC_2":"NA","HASC_2":"NA","name":"Alonsode_Ibáñez.county"},
"geometry":{"type": "MultiPolygon","coordinates": [[[[-66.761,-18.1359,4314.2793],[-66.7852,-18.1357,4579.4946],[-66.7728,-18.1603,4623.7744],[-66.7675,-18.1658,4637.3618],[-66.7597,-18.1699,4651.313],[-66.7576,-18.2062,4494.7998],[-66.7629,-18.2087,4490.8193],[-66.7637,-18.2164,4420.9453],[-66.7577,-18.2274,4374.5039],[-66.7487,-18.2326,4277.1138],[-66.7462,-18.241,4220.7681],[-66.7297,-18.2404,4180.6245],[-66.7257,-18.242,4164.2051],[-66.7246,-18.2446,4155.7031],[-66.7217,-18.2451,4152.6831],[-66.6961,-18.2346,4322.0435],[-66.689,-18.2327,4251.062],[-66.6757,-18.2326,4218.8428],[-66.6675,-18.2384,4092.3604],[-66.656,-18.2357,4063.6809],[-66.6523,-18.2388,4058.8809],[-66.6443,-18.241,3984.1438],[-66.6397,-18.2408,3942.5999],[-66.6315,-18.2367,3940.0435],[-66.6218,-18.2384,3940.7432],[-66.6159,-18.2371,3888.0393],[-66.6053,-18.2384,3855.2808],[-66.5978,-18.2362,3797.8711],[-66.5893,-18.2413,3751.8484],[-66.5846,-18.2461,3725.2881],[-66.5784,-18.2466,3648.3755],[-66.5695,-18.2503,3647.4111],[-66.5667,-18.2481,3574.6753],[-66.5623,-18.2477,3513.731],[-66.559,-18.2436,3466.9919],[-66.5527,-18.2433,3483.6621],[-66.5515,-18.2447,3512.7144],[-66.5495,-18.2428,3456.7827],[-66.5414,-18.2472,3403.9321],[-66.5314,-18.2469,3391.9993],[-66.5282,-18.2493,3392.9373],[-66.5298,-18.2615,3776.6865],[-66.5337,-18.2635,3769.8623],[-66.5346,-18.2666,3814.9072],[-66.5378,-18.2659,3811.1555],[-66.5402,-18.2692,3820.0449],[-66.5428,-18.2682,3836.2341],[-66.543,-18.2657,3836.6973],[-66.5445,-18.2664,3837.3879],[-66.5449,-18.2703,3839.1582],[-66.5343,-18.2754,3758.438],[-66.5317,-18.2735,3740.9775],[-66.5249,-18.2724,3676.228],[-66.5222,-18.2764,3850.7061],[-66.5194,-18.2748,3775.6897],[-66.5159,-18.2753,3740.7021],[-66.5142,-18.2691,3671.6438],[-66.5113,-18.268,3642.7922],[-66.5066,-18.2708,3556.0911],[-66.5024,-18.2699,3518.7441],[-66.4986,-18.2613,3469.698],[-66.4952,-18.2601,3530.9653],[-66.4763,-18.2655,3652.6392],[-66.4692,-18.2713,3599.4573],[-66.4649,-18.2708,3528.9438],[-66.4595,-18.2738,3383.2559],[-66.4517,-18.2725,3322.6958],[-66.4452,-18.2699,3317.6931],[-66.4419,-18.2656,3310.6956],[-66.4379,-18.2673,3316.666],[-66.4343,-18.266,3306.0847],[-66.4314,-18.2564,3301.3674],[-66.4252,-18.2569,3309.1094],[-66.4213,-18.2599,3305.8354],[-66.4165,-18.259,3298.9971],[-66.4172,-18.2579,3298.8882],[-66.4088,-18.2401,3575.4075],[-66.4018,-18.2344,3889.3398],[-66.3926,-18.2356,4054.0439],[-66.3798,-18.2182,3853.8445],[-66.3714,-18.2117,3545.6392],[-66.3659,-18.2104,3704.8242],[-66.3647,-18.2067,3793.26],[-66.3533,-18.2057,3925.6262],[-66.3518,-18.2074,3923.5657],[-66.3437,-18.2052,3916.2461],[-66.3323,-18.2063,4064.8169],[-66.3298,-18.2084,4053.5537],[-66.3209,-18.2095,3893.4565],[-66.3146,-18.2049,3894.5654],[-66.3038,-18.2051,3993.5059],[-66.2994,-18.2114,4087.1941],[-66.2999,-18.2155,3974.2317],[-66.2973,-18.2219,3865.1929],[-66.3009,-18.2261,3783.583],[-66.3049,-18.2257,3728.7449],[-66.3206,-18.2533,3800.8831],[-66.3331,-18.2613,3640.9128],[-66.3389,-18.2697,3875.625],[-66.3449,-18.28,3988.9514],[-66.3454,-18.2901,3717.2048],[-66.3431,-18.293,3640.8254],[-66.3433,-18.2952,3621.0835],[-66.3521,-18.3133,3334.8823],[-66.3558,-18.3166,3269.8137],[-66.3525,-18.3208,3298.8154],[-66.3519,-18.3252,3246.3142],[-66.3483,-18.3268,3247.3101],[-66.3471,-18.3301,3252.2554],[-66.3447,-18.3302,3277.9863],[-66.3323,-18.3408,3202.3113],[-66.3263,-18.3422,3212.7502],[-66.3233,-18.3479,3196.2744],[-66.316,-18.3505,3191.7996],[-66.314,-18.3553,3212.1287],[-66.3111,-18.3568,3197.4924],[-66.3108,-18.3646,3176.4536],[-66.3079,-18.3693,3191.3779],[-66.3001,-18.3746,3166.2373],[-66.2976,-18.3813,3163.1736],[-66.2787,-18.3653,3921.521],[-66.2588,-18.3584,4024.1343],[-66.2553,-18.3587,4168.3833],[-66.2466,-18.3538,4290.3105],[-66.2459,-18.347,4203.4209],[-66.2473,-18.3419,4117.6006],[-66.2444,-18.3345,4045.7178],[-66.2491,-18.3299,4012.1685],[-66.2519,-18.3203,4218.8037],[-66.2558,-18.3156,4211.4609],[-66.2642,-18.2977,4274.644],[-66.285,-18.2759,4152.5361],[-66.2885,-18.2698,4107.0889],[-66.2797,-18.253,4092.0364],[-66.2751,-18.2404,4252.771],[-66.2673,-18.2379,4053.3162],[-66.2568,-18.2257,3958.96],[-66.2427,-18.2177,3958.8635],[-66.2346,-18.2155,3811.5972],[-66.2295,-18.2085,3718.2415],[-66.2291,-18.1992,3698.1797],[-66.2259,-18.201,3688.6772],[-66.2174,-18.1868,4159.3193],[-66.2024,-18.176,4131.9438],[-66.1997,-18.1709,4177.5562],[-66.1996,-18.1598,4146.3955],[-66.2083,-18.1494,4299.7891],[-66.2093,-18.1394,4399.8115],[-66.2139,-18.1342,4401.3574],[-66.213,-18.1228,3863.6597],[-66.2021,-18.1165,3659.8259],[-66.1914,-18.1145,3500.1882],[-66.1819,-18.1065,3330.7896],[-66.1884,-18.1021,3429.7507],[-66.1887,-18.0901,3737.9536],[-66.192,-18.0823,3788.2041],[-66.1853,-18.0805,3656.5251],[-66.187,-18.0791,3691.0381],[-66.1869,-18.075,3707.6001],[-66.2017,-18.0613,3629.7395],[-66.2024,-18.0504,3486.7654],[-66.2038,-18.0488,3523.1812],[-66.2021,-18.0445,3527.2246],[-66.2036,-18.0367,3463.7678],[-66.2082,-18.0309,3453.0735],[-66.2115,-18.0294,3427.8625],[-66.2099,-18.0246,3457.2524],[-66.2158,-18.0223,3409.3237],[-66.2185,-18.0235,3425.03],[-66.221,-18.0284,3511.1633],[-66.2261,-18.0273,3411.5789],[-66.2269,-18.0218,3455.9067],[-66.2345,-18.0122,3451.4536],[-66.24,-18.0096,3461.0632],[-66.2469,-18.0034,3457.4448],[-66.2486,-18.0,3475.45],[-66.2472,-17.995,3506.0945],[-66.2483,-17.9889,3511.4224],[-66.2615,-17.9741,3569.9775],[-66.2723,-17.9559,3680.9534],[-66.2809,-17.966,3744.6006],[-66.2873,-17.9626,3673.4485],[-66.3092,-17.9618,3306.9287],[-66.3202,-17.9495,3125.7373],[-66.3268,-17.9528,3039.4158],[-66.3376,-17.9536,3502.0171],[-66.3427,-17.9569,3413.2307],[-66.3435,-17.9597,3344.4834],[-66.3509,-17.96,3459.1865],[-66.3593,-17.9569,3654.3279],[-66.372,-17.9566,3501.8159],[-66.3721,-17.9581,3527.855],[-66.3811,-17.9599,3700.4771],[-66.3878,-17.9641,3811.821],[-66.3953,-17.9633,3692.0896],[-66.4129,-17.9707,4021.5596],[-66.4193,-17.9757,4063.4819],[-66.4314,-17.9734,4062.2578],[-66.4449,-17.9786,4049.6353],[-66.4462,-17.9811,3924.8025],[-66.4613,-17.9934,4026.0481],[-66.4726,-18.0006,4154.4531],[-66.4718,-18.0037,4128.2617],[-66.4745,-18.0066,4086.5566],[-66.4853,-18.0138,3921.3123],[-66.4934,-18.022,3819.4907],[-66.5121,-18.0363,3703.749],[-66.5184,-18.0466,3738.3921],[-66.5335,-18.0584,3901.6362],[-66.5321,-18.0658,3902.8779],[-66.5243,-18.0821,3586.7],[-66.5234,-18.0895,3525.3035],[-66.5274,-18.0891,3537.208],[-66.5358,-18.0834,3854.7905],[-66.5372,-18.084,3906.1006],[-66.54,-18.0821,3906.4663],[-66.5457,-18.0829,3941.8125],[-66.5485,-18.0803,3942.9998],[-66.5646,-18.076,3966.3821],[-66.5765,-18.0829,3951.7319],[-66.5953,-18.0843,3979.1577],[-66.6011,-18.0823,3991.0972],[-66.6075,-18.0855,3906.3345],[-66.6129,-18.093,3917.9126],[-66.614,-18.0969,3947.0508],[-66.6185,-18.0971,3933.6475],[-66.6204,-18.1056,3949.4932],[-66.6262,-18.1125,4024.3579],[-66.6369,-18.1189,4100.2188],[-66.6595,-18.1178,4120.8594],[-66.6752,-18.1092,4065.4028],[-66.6779,-18.1134,4082.5352],[-66.6803,-18.1134,4108.1592],[-66.6815,-18.1114,4086.8723],[-66.6848,-18.112,4080.0181],[-66.6863,-18.1137,4100.6865],[-66.684,-18.1144,4114.1724],[-66.6839,-18.116,4115.8574],[-66.6886,-18.1195,4154.9277],[-66.6956,-18.1213,4191.5806],[-66.7049,-18.1204,4471.8105],[-66.7124,-18.1166,4566.293],[-66.7247,-18.1159,4703.5186],[-66.761,-18.1359,4314.2793]]]]}}