{"type": "Feature","bbox": [-67.6828,-16.0602,-67.134,-15.331],"geometry": {"type": "MultiPolygon","coordinates": [[[[-67.2476,-15.8248,599.6534],[-67.2432,-15.8227,604.5376],[-67.241,-15.8197,555.6425],[-67.2363,-15.8182,614.6859],[-67.2341,-15.8054,523.0583],[-67.2297,-15.8004,508.6351],[-67.225,-15.7995,563.7143],[-67.2172,-15.7927,561.3507],[-67.2191,-15.7908,512.7123],[-67.2163,-15.7874,519.6569],[-67.2124,-15.7867,658.9747],[-67.1996,-15.7769,496.5709],[-67.1955,-15.778,500.4471],[-67.1913,-15.7819,528.5253],[-67.1884,-15.7802,501.5243],[-67.1817,-15.7804,511.9749],[-67.1735,-15.7725,536.2449],[-67.1653,-15.754,490.1105],[-67.1609,-15.7523,490.9019],[-67.1545,-15.7403,483.9789],[-67.1515,-15.7386,487.7592],[-67.1437,-15.7394,466.225],[-67.1393,-15.737,471.3796],[-67.1388,-15.7336,470.1642],[-67.1416,-15.7242,460.1931],[-67.134,-15.7144,455.8205],[-67.1367,-15.7094,454.3548],[-67.1342,-15.7056,451.5723],[-67.136,-15.7008,450.1567],[-67.134,-15.692,444.1495],[-67.1378,-15.6811,446.1322],[-67.1383,-15.6619,436.3929],[-67.1422,-15.6526,431.1089],[-67.1468,-15.6478,436.797],[-67.1554,-15.6476,429.1952],[-67.1677,-15.6421,429.7243],[-67.1789,-15.6409,425.421],[-67.183,-15.639099999999999,421.0],[-67.188,-15.634,423.0269],[-67.2058,-15.6238,421.9019],[-67.2071,-15.6201,426.105],[-67.204,-15.6155,415.5476],[-67.2048,-15.6133,418.0787],[-67.2076,-15.6125,417.5378],[-67.2134,-15.6166,420.013],[-67.2178,-15.6169,418.4827],[-67.2211,-15.6136,419.6368],[-67.2245,-15.6044,418.556],[-67.2637,-15.5898,416.2531],[-67.2738,-15.583,402.839],[-67.2869,-15.5839,402.7684],[-67.3009,-15.5733,400.8452],[-67.3028,-15.5691,395.6365],[-67.3055,-15.5675,398.8434],[-67.321,-15.5706,393.5705],[-67.3233,-15.5735,391.0],[-67.3302,-15.5707,396.6862],[-67.3398,-15.572,395.7277],[-67.3469,-15.5704,390.507],[-67.3547,-15.5642,392.8135],[-67.3627,-15.5661,383.7747],[-67.3758,-15.5607,393.4794],[-67.3863,-15.5519,379.2565],[-67.3955,-15.5375,381.6881],[-67.3952,-15.5251,380.8279],[-67.3982,-15.5206,375.8409],[-67.4229,-15.5211,368.75],[-67.4298,-15.5198,385.2832],[-67.4345,-15.5169,365.0],[-67.4355,-15.513,380.7047],[-67.4335,-15.507,393.069],[-67.4265,-15.5032,371.3883],[-67.4257,-15.4971,364.4146],[-67.4282,-15.4945,367.952],[-67.434,-15.4935,367.924],[-67.4511,-15.4853,362.7011],[-67.458,-15.4869,373.7016],[-67.4599,-15.4856,368.7821],[-67.4628,-15.4768,363.1848],[-67.464,-15.461,357.0],[-67.468,-15.4572,360.7507],[-67.4684,-15.4535,358.7236],[-67.4725,-15.4488,353.3535],[-67.4738,-15.4437,353.2826],[-67.4735,-15.4408,354.4674],[-67.4671,-15.4353,356.769],[-67.4652,-15.4313,360.5133],[-67.4731,-15.429,349.1083],[-67.4781,-15.4322,349.1632],[-67.4817,-15.4385,361.763],[-67.4875,-15.4391,351.1107],[-67.4895,-15.4324,345.5],[-67.4881,-15.423,354.89],[-67.4845,-15.4167,356.9802],[-67.4854,-15.4134,347.2862],[-67.5057,-15.4062,341.0],[-67.5105,-15.3948,342.8558],[-67.5192,-15.3968,345.5246],[-67.5238,-15.4,351.4362],[-67.5269,-15.3989,339.2662],[-67.5248,-15.3976,338.6039],[-67.5237,-15.3918,337.0],[-67.513,-15.3811,335.3697],[-67.5146,-15.3709,347.2767],[-67.5085,-15.3708,335.656],[-67.4902,-15.3626,333.839],[-67.4939,-15.3526,328.7493],[-67.4972,-15.3484,386.9061],[-67.5108,-15.3522,898.5491],[-67.5289,-15.331,1029.3745],[-67.5473,-15.3375,515.6196],[-67.5556,-15.3475,524.2598],[-67.5511,-15.3517,672.257],[-67.5734,-15.3728,573.2761],[-67.5747,-15.3865,537.6198],[-67.5697,-15.391,529.2826],[-67.5695,-15.4086,446.7785],[-67.5768,-15.4218,373.9359],[-67.5743,-15.4592,531.7383],[-67.6077,-15.5161,1557.2853],[-67.6123,-15.5421,1717.475],[-67.6047,-15.561,1722.3528],[-67.6417,-15.6079,1211.5481],[-67.6134,-15.6324,1537.7588],[-67.6224,-15.6605,1229.1973],[-67.644,-15.687,898.4448],[-67.6518,-15.7033,1416.9731],[-67.6421,-15.7219,1484.2648],[-67.6458,-15.7236,1324.8605],[-67.649,-15.7292,1242.9202],[-67.6546,-15.7319,1012.1339],[-67.6582,-15.7377,780.6643],[-67.6689,-15.7395,636.0874],[-67.6759,-15.7497,531.3593],[-67.6787,-15.7481,504.8497],[-67.6775,-15.7447,498.152],[-67.6828,-15.7493,532.8013],[-67.6794,-15.758,546.0334],[-67.6735,-15.7586,505.1237],[-67.665,-15.7668,522.3904],[-67.6637,-15.7748,526.2043],[-67.6537,-15.7856,550.5901],[-67.6587,-15.7965,808.2748],[-67.6568,-15.8142,798.4021],[-67.6595,-15.8209,886.7466],[-67.6562,-15.8336,638.2397],[-67.6533,-15.8336,622.3873],[-67.6567,-15.8376,646.7643],[-67.6533,-15.8378,670.187],[-67.6539,-15.8397,715.9516],[-67.6521,-15.8432,647.8811],[-67.6545,-15.8448,708.6818],[-67.6538,-15.8482,671.5914],[-67.6556,-15.8488,730.3525],[-67.656,-15.8521,687.1672],[-67.6583,-15.8504,680.5347],[-67.6609,-15.8508,675.5574],[-67.659,-15.8531,769.9014],[-67.6599,-15.8576,863.2997],[-67.6564,-15.8611,715.786],[-67.6528,-15.8629,717.7197],[-67.6511,-15.862,780.2994],[-67.6444,-15.8672,741.6804],[-67.6429,-15.8723,763.2854],[-67.6355,-15.8776,760.9915],[-67.6331,-15.8815,876.8545],[-67.6344,-15.8841,828.7205],[-67.6318,-15.8881,817.6655],[-67.6356,-15.8928,856.3348],[-67.6354,-15.8999,906.2201],[-67.6333,-15.9003,828.3298],[-67.6325,-15.9075,882.0143],[-67.6283,-15.9118,921.822],[-67.6236,-15.9131,939.0978],[-67.6315,-15.9173,1199.9307],[-67.6357,-15.924,1290.0598],[-67.6413,-15.9265,1364.313],[-67.6462,-15.9422,1387.6321],[-67.6424,-15.9467,1363.4788],[-67.6452,-15.9501,1387.8086],[-67.6466,-15.9508,1369.4543],[-67.6473,-15.9493,1414.7151],[-67.6513,-15.9522,1417.9744],[-67.6551,-15.9524,1394.7661],[-67.6568,-15.955,1406.1525],[-67.6636,-15.9582,1458.3911],[-67.6699,-15.9888,1741.1458],[-67.6742,-16.0003,1938.1641],[-67.6736,-16.0066,1780.4725],[-67.6646,-16.0091,1773.611],[-67.6488,-16.0235,1424.1738],[-67.6427,-16.0326,831.7153],[-67.6374,-16.0312,837.3765],[-67.6327,-16.0326,805.1402],[-67.6292,-16.0384,877.2856],[-67.6275,-16.0464,957.2149],[-67.6241,-16.0489,944.8625],[-67.6243,-16.0548,931.8751],[-67.6194,-16.0601,988.3464],[-67.6148,-16.0602,1295.327],[-67.5994,-16.0548,2140.0393],[-67.3404,-16.0105,2112.6631],[-67.2853,-15.8927,1536.751],[-67.2594,-15.856,1313.821],[-67.255,-15.8444,1140.0983],[-67.2454,-15.8352,683.9072],[-67.2485,-15.8301,565.4407],[-67.2476,-15.8248,599.6534]]]]}
,"properties": {"GID_2": "BOL.4.6_2","GID_0": "BOL","country": "Bolivia","GID_1": "BOL.4_1","province": "LaPaz","NL_NAME_1": "NA","county": "Caranavi","VARNAME_2": "NA","NL_NAME_2": "NA","TYPE_2": "Provincia","ENGTYPE_2": "Province","CC_2": "NA","HASC_2": "NA","name": "Caranavi.county","area_km2": 2608.282,"hist_schema_id": "Elevation0-9000","hist_area_km2": {"325": 0.838,"350": 6.336,"375": 14.795,"400": 29.214,"425": 45.754,"450": 51.123,"475": 42.266,"500": 48.558,"525": 50.819,"550": 50.163,"575": 48.361,"600": 45.866,"625": 37.509,"650": 32.647,"675": 32.44,"700": 29.497,"725": 30.964,"750": 30.39,"775": 33.063,"800": 33.979,"825": 35.999,"850": 36.509,"875": 38.772,"900": 39.956,"925": 41.26,"950": 44.995,"975": 45.076,"1000": 49.442,"1025": 50.013,"1050": 50.319,"1075": 51.645,"1100": 50.931,"1125": 51.951,"1150": 52.624,"1175": 53.929,"1200": 52.704,"1225": 54.112,"1250": 53.723,"1275": 55.272,"1300": 54.761,"1325": 52.657,"1350": 56.287,"1375": 55.999,"1400": 53.653,"1425": 52.121,"1450": 51.059,"1475": 49.142,"1500": 46.958,"1525": 44.223,"1550": 40.815,"1575": 40.121,"1600": 36.122,"1625": 37.934,"1650": 33.162,"1675": 30.795,"1700": 28.979,"1725": 27.654,"1750": 28.305,"1775": 23.88,"1800": 23.941,"1825": 22.635,"1850": 19.29,"1875": 18.147,"1900": 15.13,"1925": 11.663,"1950": 10.255,"1975": 7.747,"2000": 6.137,"2025": 5.443,"2050": 5.076,"2075": 5.402,"2100": 4.689,"2125": 1.733,"2150": 0.938,"2175": 0.652,"2200": 0.551,"2225": 0.265,"2250": 0.102,"2275": 0.041}}}