{"type": "Feature","bbox": [-63.0548,-17.8552,-62.7379,-17.6642],"geometry": {"type": "MultiPolygon","coordinates": [[[[-62.7762,-17.6642,286.599],[-63.0547,-17.6642,362.8108],[-63.0548,-17.8367,381.3246],[-63.033,-17.8448,369.0523],[-63.0123,-17.8486,364.0197],[-63.0021,-17.8466,361.0899],[-62.9811,-17.8457,353.4662],[-62.9761,-17.8416,350.6879],[-62.9687,-17.8388,349.9993],[-62.9564,-17.8414,345.8597],[-62.9434,-17.8399,347.2482],[-62.9398,-17.8375,345.4054],[-62.9363,-17.84,347.8613],[-62.9347,-17.8451,345.9734],[-62.9256,-17.8534,341.6227],[-62.89,-17.8552,328.5531],[-62.8787,-17.8511,328.2375],[-62.8712,-17.8533,328.6659],[-62.8691,-17.8479,320.3182],[-62.8669,-17.8495,319.7456],[-62.8571,-17.8497,320.05],[-62.8459,-17.8467,317.1211],[-62.84,-17.844,315.4391],[-62.8332,-17.8361,312.0968],[-62.8323,-17.8377,313.84],[-62.8279,-17.8384,310.1622],[-62.8211,-17.8446,309.4594],[-62.8159,-17.837,309.1269],[-62.811,-17.8337,307.3997],[-62.7966,-17.8361,304.9748],[-62.7826,-17.8302,304.1913],[-62.7682,-17.8311,296.375],[-62.7645,-17.8244,295.5],[-62.7655,-17.8148,295.0],[-62.757,-17.8087,296.7792],[-62.756,-17.806,302.6329],[-62.7558,-17.802,296.4185],[-62.7599,-17.7952,293.5],[-62.765,-17.7798,300.8956],[-62.7607,-17.7728,292.6056],[-62.7418,-17.7586,294.8392],[-62.7379,-17.7483,293.9028],[-62.7386,-17.7447,294.1209],[-62.7428,-17.7392,294.58],[-62.743,-17.7283,294.0761],[-62.7458,-17.7217,292.3578],[-62.7648,-17.7078,290.3783],[-62.7707,-17.7064,293.511],[-62.7805,-17.7009,294.7693],[-62.7825,-17.6967,295.1439],[-62.7822,-17.693,288.7362],[-62.7741,-17.6807,294.2452],[-62.7731,-17.6765,294.0178],[-62.7731,-17.6715,293.7505],[-62.7762,-17.6642,286.599]]]]}
,"properties": {"GID_3": "BOL.8.1.1_2","GID_0": "BOL","country": "Bolivia","GID_1": "BOL.8_1","province": "SantaCruz","NL_NAME_1": "NA","GID_2": "BOL.8.1_2","county": "AndrésIbáñez","NL_NAME_2": "NA","city": "Cotoca","VARNAME_3": "NA","NL_NAME_3": "NA","TYPE_3": "District","ENGTYPE_3": "Distrito","CC_3": "NA","HASC_3": "NA","name": "Cotoca.city","area_km2": 621.2777,"hist_schema_id": "Elevation0-9000","hist_area_km2": {"275": 1.7575,"300": 169.2448,"325": 194.934,"350": 182.3979,"375": 72.9435}}}