{"type": "Feature","bbox": [-67.291,-20.9613,-65.7533,-19.356],"geometry": {"type": "MultiPolygon","coordinates": [[[[-67.0016,-19.3799,3726.8103],[-67.0131,-19.3708,3745.6729],[-67.0188,-19.3688,3755.3005],[-67.0261,-19.3698,3959.1963],[-67.0352,-19.3738,3738.2271],[-67.0416,-19.3808,3728.9419],[-67.0442,-19.3809,3729.0371],[-67.0506,-19.3778,3728.0112],[-67.0551,-19.3697,3726.781],[-67.0586,-19.3709,3726.5405],[-67.0595,-19.3741,3726.5615],[-67.0637,-19.3744,3727.335],[-67.0672,-19.3727,3725.7864],[-67.0746,-19.3603,3724.074],[-67.0808,-19.356,3725.4141],[-67.0855,-19.3582,3725.334],[-67.0892,-19.3756,3726.9185],[-67.1013,-19.3948,3724.3088],[-67.1089,-19.4113,3741.8657],[-67.1434,-19.4204,3837.8079],[-67.162,-19.4386,3898.1399],[-67.1727,-19.4435,3802.9673],[-67.1806,-19.4448,3794.7625],[-67.1929,-19.4496,3870.5737],[-67.2111,-19.4462,3847.2566],[-67.218,-19.4414,3872.5088],[-67.2241,-19.4426,3864.3877],[-67.2344,-19.4363,3828.6143],[-67.2417,-19.4352,3797.1926],[-67.2506,-19.4315,3750.6628],[-67.2677,-19.4286,3720.2925],[-67.2699,-19.4347,3721.446],[-67.2645,-19.4406,3723.6851],[-67.2622,-19.4486,3724.2368],[-67.2592,-19.4493,3725.1626],[-67.2599,-19.455,3726.5083],[-67.2563,-19.4638,3729.1482],[-67.2437,-19.472,3734.1851],[-67.2352,-19.4809,3737.4453],[-67.229,-19.4815,3740.333],[-67.2258,-19.4839,3742.4204],[-67.2254,-19.4911,3748.0735],[-67.2277,-19.4956,3755.7219],[-67.2317,-19.498,3769.8823],[-67.2349,-19.5039,3777.5906],[-67.2372,-19.5045,3776.1655],[-67.2369,-19.5071,3734.4619],[-67.2326,-19.5088,3721.522],[-67.2315,-19.5125,3713.2212],[-67.2291,-19.514,3718.5312],[-67.2307,-19.5245,3697.6152],[-67.2259,-19.5333,3690.4973],[-67.2298,-19.5362,3694.2056],[-67.2233,-19.5502,3682.4067],[-67.2187,-19.5543,3680.5981],[-67.2183,-19.5593,3680.9497],[-67.2248,-19.5656,3694.395],[-67.2309,-19.5672,3715.0649],[-67.2305,-19.5734,3706.561],[-67.2321,-19.5784,3690.814],[-67.2303,-19.5815,3682.0461],[-67.2318,-19.5836,3678.1433],[-67.2092,-19.6011,3669.9399],[-67.2029,-19.6153,3673.2466],[-67.2036,-19.6167,3668.7029],[-67.2081,-19.6171,3668.6284],[-67.2093,-19.6253,3668.1816],[-67.2071,-19.6292,3668.0171],[-67.2103,-19.6318,3667.7949],[-67.2126,-19.6426,3667.6836],[-67.2118,-19.6494,3667.2822],[-67.2072,-19.6581,3667.3718],[-67.2064,-19.6703,3667.0918],[-67.2101,-19.6749,3666.0876],[-67.2123,-19.6744,3667.5337],[-67.2132,-19.6779,3664.9478],[-67.2144,-19.6774,3664.9478],[-67.2139,-19.6818,3664.0496],[-67.2258,-19.6896,3661.9316],[-67.2319,-19.6914,3661.0728],[-67.243,-19.6911,3659.9353],[-67.2566,-19.6993,3658.9851],[-67.2581,-19.7066,3658.6255],[-67.2574,-19.7159,3658.02],[-67.265,-19.7261,3657.1475],[-67.2739,-19.7489,3656.0078],[-67.291,-19.7652,3655.3481],[-67.2846,-19.7642,3655.3682],[-67.2774,-19.7694,3655.4255],[-67.2775,-19.7757,3655.2939],[-67.2748,-19.7792,3655.2886],[-67.2641,-19.7788,3655.281],[-67.2583,-19.7833,3655.3027],[-67.2443,-19.7889,3655.3645],[-67.2367,-19.7951,3655.3701],[-67.2299,-19.8029,3655.3667],[-67.2237,-19.8159,3655.2432],[-67.2241,-19.8235,3655.2068],[-67.2193,-19.8328,3655.2859],[-67.2221,-19.8437,3655.1094],[-67.2203,-19.851,3655.2109],[-67.2154,-19.8523,3655.3311],[-67.2143,-19.8559,3655.2346],[-67.2114,-19.8586,3655.2754],[-67.2053,-19.8591,3655.3164],[-67.204,-19.8614,3655.2161],[-67.2004,-19.8622,3655.5027],[-67.1943,-19.8708,3655.6499],[-67.193,-19.8785,3655.4092],[-67.1942,-19.8817,3655.3994],[-67.1918,-19.885,3655.3711],[-67.1912,-19.8903,3655.3311],[-67.1886,-19.8929,3655.3477],[-67.1885,-19.897,3655.2166],[-67.1822,-19.9068,3655.4182],[-67.1822,-19.9165,3655.3765],[-67.178,-19.9214,3655.6584],[-67.1788,-19.9248,3655.3359],[-67.174,-19.9336,3655.6777],[-67.1753,-19.9376,3655.5771],[-67.1742,-19.9404,3655.5154],[-67.1755,-19.9436,3655.5254],[-67.1751,-19.9508,3655.6392],[-67.1777,-19.952,3655.5596],[-67.1791,-19.9556,3655.5071],[-67.176,-19.9592,3655.8967],[-67.1762,-19.9639,3655.8311],[-67.1799,-19.9672,3655.7949],[-67.1823,-19.9672,3655.6045],[-67.1864,-19.9718,3655.4575],[-67.1802,-19.9728,3655.9629],[-67.1845,-19.9738,3655.6445],[-67.1851,-19.9757,3655.7407],[-67.1811,-19.9754,3655.812],[-67.1803,-19.9783,3655.8013],[-67.1769,-19.9791,3656.0432],[-67.183,-19.9842,3655.8721],[-67.1868,-19.9898,3655.4631],[-67.1843,-19.9903,3655.6804],[-67.1794,-19.9851,3655.8779],[-67.1763,-19.9844,3656.115],[-67.1797,-19.9866,3655.8535],[-67.1796,-19.9891,3655.9124],[-67.1842,-19.9944,3655.6948],[-67.1906,-19.9972,3655.3071],[-67.1884,-19.999,3655.3564],[-67.1893,-20.0018,3655.2466],[-67.1856,-20.0022,3655.571],[-67.1855,-20.0054,3655.4165],[-67.1832,-20.0064,3655.2266],[-67.1789,-20.0027,3655.3491],[-67.1752,-20.0028,3655.3887],[-67.1654,-19.9969,3655.4819],[-67.1603,-19.9983,3655.4185],[-67.1577,-20.0027,3655.6179],[-67.1576,-20.01,3655.4758],[-67.1521,-20.0147,3655.3296],[-67.1528,-20.0215,3655.396],[-67.1548,-20.0237,3655.448],[-67.1525,-20.0258,3655.4531],[-67.1507,-20.0367,3655.5649],[-67.1404,-20.0464,3655.3833],[-67.1414,-20.0504,3655.3213],[-67.1389,-20.0526,3655.47],[-67.1508,-20.0667,3655.343],[-67.1504,-20.0693,3655.3213],[-67.1535,-20.0733,3655.3416],[-67.1532,-20.0795,3655.3535],[-67.1601,-20.0961,3655.23],[-67.1578,-20.1029,3655.3264],[-67.1619,-20.1099,3655.165],[-67.1678,-20.13,3655.1135],[-67.1676,-20.1336,3655.0996],[-67.162,-20.1406,3654.9526],[-67.1599,-20.1483,3655.0305],[-67.1551,-20.1563,3655.0837],[-67.1427,-20.1649,3655.115],[-67.1353,-20.1749,3655.0439],[-67.1247,-20.1797,3655.0703],[-67.1153,-20.1873,3655.2031],[-67.1123,-20.1937,3655.1108],[-67.1062,-20.1986,3655.1719],[-67.0989,-20.2088,3655.166],[-67.0854,-20.2185,3655.1953],[-67.0661,-20.2253,3655.0669],[-67.0346,-20.2278,3655.4397],[-67.0269,-20.2312,3655.5269],[-67.0185,-20.2382,3655.5081],[-67.0135,-20.2451,3655.1604],[-67.0105,-20.2526,3655.9468],[-67.0107,-20.2666,3655.3518],[-66.9991,-20.2873,3655.062],[-66.9913,-20.2935,3655.26],[-66.981,-20.3126,3653.5],[-66.9672,-20.328,3653.5],[-66.9617,-20.3308,3653.5],[-66.9236,-20.3605,3653.5],[-66.9096,-20.3933,3653.5],[-66.9129,-20.3942,3653.5],[-66.9135,-20.3963,3653.5],[-66.9201,-20.3982,3653.5],[-66.9258,-20.3973,3653.5],[-66.9281,-20.3981,3653.5],[-66.9303,-20.4018,3653.5],[-66.9384,-20.4019,3653.5],[-66.9393,-20.4031,3653.5],[-66.9244,-20.418,3653.5],[-66.871,-20.4638,3658.7637],[-66.8677,-20.4871,3658.3433],[-66.8623,-20.5021,3658.2173],[-66.8581,-20.506,3658.803],[-66.846,-20.5258,3659.1882],[-66.8414,-20.5289,3659.4685],[-66.8294,-20.5445,3659.8579],[-66.8207,-20.5529,3659.4951],[-66.8031,-20.5766,3696.3787],[-66.7509,-20.762,3666.395],[-66.7257,-20.7892,3718.2529],[-66.6891,-20.866,3794.3411],[-66.6579,-20.8935,3855.8081],[-66.6149,-20.9084,4012.2498],[-66.5687,-20.9613,4059.5205],[-66.4843,-20.9531,3903.3699],[-66.4827,-20.9286,3903.2407],[-66.4461,-20.9238,3910.7576],[-66.4162,-20.8938,4051.1606],[-66.3369,-20.8636,3997.8169],[-66.3043,-20.8416,4050.0181],[-66.2654,-20.812,4169.4727],[-66.2049,-20.7534,4315.1611],[-66.1946,-20.7454,4333.9229],[-66.1832,-20.7092,4406.6714],[-66.1839,-20.6957,4439.5186],[-66.1868,-20.6764,4518.9287],[-66.1904,-20.6725,4503.666],[-66.195,-20.66,4540.0835],[-66.1958,-20.6447,4626.2881],[-66.2037,-20.638,4730.1533],[-66.2046,-20.6354,4776.1006],[-66.2018,-20.632,4824.3345],[-66.1983,-20.6062,4354.4814],[-66.1946,-20.6019,4255.2886],[-66.1926,-20.5957,4150.918],[-66.1903,-20.5623,3677.3564],[-66.2072,-20.5333,3550.145],[-66.2119,-20.5312,3637.6035],[-66.2182,-20.5228,3900.6101],[-66.2165,-20.5041,3559.9744],[-66.2082,-20.4904,3525.6187],[-66.2038,-20.4898,3520.355],[-66.1996,-20.4822,3502.6606],[-66.1908,-20.4799,3481.9968],[-66.1832,-20.4816,3464.2378],[-66.1681,-20.4802,3437.4038],[-66.1482,-20.4748,3400.0151],[-66.133,-20.473,3365.1558],[-66.1309,-20.4687,3363.8223],[-66.1332,-20.4612,3377.531],[-66.1285,-20.4574,3464.2976],[-66.1293,-20.4518,3700.8433],[-66.1274,-20.4479,3796.9954],[-66.1285,-20.4452,3841.7925],[-66.1232,-20.4441,3862.0042],[-66.12,-20.4391,3791.269],[-66.1152,-20.4367,3820.8818],[-66.1032,-20.4363,3444.5247],[-66.0967,-20.4412,3481.3867],[-66.0914,-20.4488,3429.1724],[-66.0921,-20.4508,3408.8506],[-66.09,-20.4527,3394.2224],[-66.0889,-20.4588,3477.2844],[-66.0924,-20.4651,3372.3223],[-66.0901,-20.4666,3361.1816],[-66.0882,-20.4708,3366.8901],[-66.0736,-20.4833,3295.1431],[-66.0712,-20.4867,3306.6943],[-66.0724,-20.489,3306.8853],[-66.0522,-20.505,3283.531],[-66.0459,-20.5135,3281.6848],[-66.0276,-20.5062,3943.2668],[-66.0075,-20.5041,3677.72],[-66.0009,-20.4987,3742.2324],[-65.9964,-20.4907,4004.385],[-65.9778,-20.4774,3894.2444],[-65.9679,-20.4731,4078.2656],[-65.9666,-20.4646,4177.6396],[-65.9688,-20.4573,4075.686],[-65.9674,-20.4531,4002.5698],[-65.9619,-20.4523,3914.1475],[-65.9413,-20.441,3574.2947],[-65.9401,-20.4347,3424.2781],[-65.9382,-20.4349,3430.8684],[-65.928,-20.4286,3374.1274],[-65.9294,-20.4259,3357.925],[-65.9278,-20.4255,3360.3796],[-65.9281,-20.4234,3348.9832],[-65.9239,-20.4258,3315.9233],[-65.9169,-20.409,3221.8721],[-65.92,-20.4075,3226.8311],[-65.9214,-20.4043,3299.9458],[-65.9248,-20.4031,3236.4141],[-65.9265,-20.3956,3291.6021],[-65.9341,-20.3851,3273.9734],[-65.9302,-20.37,3858.5757],[-65.9339,-20.3474,4115.8115],[-65.9265,-20.3298,4378.1235],[-65.921,-20.3324,4382.7065],[-65.9148,-20.3139,4371.4556],[-65.9045,-20.3086,4120.7393],[-65.9013,-20.3001,4045.4155],[-65.9049,-20.2901,4066.8794],[-65.9306,-20.2784,4301.6968],[-65.9371,-20.2701,4287.7974],[-65.94,-20.2686,4320.6558],[-65.9468,-20.2567,4273.6235],[-65.9481,-20.25,4359.9141],[-65.9409,-20.2198,3926.8916],[-65.9329,-20.2117,3946.3481],[-65.9299,-20.2033,3876.6243],[-65.9251,-20.1968,3784.7173],[-65.9104,-20.185,3032.6919],[-65.9077,-20.1759,3552.106],[-65.9045,-20.1708,3636.2754],[-65.9056,-20.1615,3748.4277],[-65.9191,-20.1364,4060.5291],[-65.9174,-20.133,4035.8452],[-65.9187,-20.1258,3864.1841],[-65.9217,-20.1211,3912.0737],[-65.9065,-20.1155,3730.658],[-65.896,-20.1138,3917.7617],[-65.8946,-20.1121,3973.7773],[-65.9064,-20.0986,3992.3335],[-65.9122,-20.0812,3627.645],[-65.9165,-20.0761,3819.8225],[-65.9208,-20.0666,3777.5679],[-65.9048,-20.0383,4009.2183],[-65.9094,-20.0261,4072.9839],[-65.9024,-20.0214,3917.6079],[-65.8996,-20.0115,3976.0193],[-65.9011,-20.0019,4010.9255],[-65.8991,-19.9831,4146.2832],[-65.8967,-19.9774,4252.1157],[-65.898,-19.9732,4313.7324],[-65.8829,-19.9661,4416.5376],[-65.8823,-19.9494,4378.0415],[-65.8762,-19.9325,4412.9092],[-65.8734,-19.9315,4387.8862],[-65.8645,-19.9341,4464.3066],[-65.8609,-19.9328,4315.4375],[-65.8469,-19.9149,3674.0659],[-65.8439,-19.9133,3642.7578],[-65.8403,-19.9002,3608.2566],[-65.8342,-19.9045,3599.5215],[-65.8301,-19.9037,3595.2695],[-65.8266,-19.9051,3538.5627],[-65.8221,-19.9165,3507.9556],[-65.817,-19.9219,3486.4546],[-65.8083,-19.9179,3478.9456],[-65.8055,-19.9183,3470.845],[-65.804,-19.9209,3452.1816],[-65.7973,-19.9073,3412.856],[-65.7907,-19.9083,3479.563],[-65.787,-19.9021,3345.2278],[-65.783,-19.9011,3358.9536],[-65.7828,-19.8976,3483.2869],[-65.775,-19.8956,3661.7068],[-65.7708,-19.8832,3758.429],[-65.7665,-19.8816,3801.3594],[-65.7602,-19.8751,4063.9438],[-65.7533,-19.8761,4335.0132],[-65.7548,-19.8653,4367.4541],[-65.7572,-19.8599,4397.4917],[-65.7557,-19.8436,4497.1465],[-65.7562,-19.8364,4534.3154],[-65.7582,-19.8337,4564.834],[-65.7561,-19.83,4506.1885],[-65.759,-19.8246,4548.2529],[-65.7632,-19.8217,4621.0205],[-65.7683,-19.7911,4541.8579],[-65.7666,-19.783,4606.3789],[-65.7666,-19.7638,4621.9375],[-65.769,-19.7597,4583.6211],[-65.7755,-19.7553,4673.5444],[-65.7869,-19.7533,4444.8652],[-65.7964,-19.7443,4317.7173],[-65.8005,-19.7432,4216.0039],[-65.8069,-19.7504,4273.9609],[-65.8121,-19.7624,4232.1416],[-65.8206,-19.7621,4156.6787],[-65.8375,-19.7523,4158.5728],[-65.8318,-19.7314,3867.0312],[-65.8299,-19.7294,3919.5911],[-65.831,-19.715,3897.6995],[-65.8357,-19.7059,4078.8721],[-65.8458,-19.7061,4074.0537],[-65.868,-19.7121,3961.6475],[-65.8887,-19.709,3816.7048],[-65.8999,-19.6996,4000.6357],[-65.9038,-19.6932,4314.1348],[-65.9153,-19.6892,4337.4316],[-65.9207,-19.689,4293.0508],[-65.9365,-19.6953,4523.0898],[-65.9405,-19.6945,4499.3574],[-65.9663,-19.6838,4483.7051],[-65.9691,-19.6783,4388.3936],[-65.9692,-19.6742,4284.9062],[-65.9818,-19.6717,4310.7949],[-65.9953,-19.6706,4283.312],[-66.0541,-19.6811,4518.7769],[-66.0791,-19.6776,4683.4409],[-66.1308,-19.6889,4517.5742],[-66.1729,-19.6931,4640.1235],[-66.194,-19.7069,4560.957],[-66.2292,-19.6589,4783.625],[-66.2598,-19.6443,4651.0103],[-66.3088,-19.5937,4575.0381],[-66.3342,-19.5557,4786.3564],[-66.3604,-19.49,4652.6807],[-66.3569,-19.4537,4624.125],[-66.3903,-19.4576,4641.3975],[-66.4291,-19.4063,4906.3823],[-66.4603,-19.3808,4609.7236],[-66.5021,-19.3599,4617.4473],[-66.5458,-19.3862,4982.1992],[-66.5573,-19.3956,4862.2568],[-66.5635,-19.3987,4864.1899],[-66.5756,-19.4013,5164.2837],[-66.584,-19.421,4833.7314],[-66.5906,-19.4262,4735.5205],[-66.6029,-19.4277,4656.6069],[-66.6214,-19.4256,4497.9229],[-66.6391,-19.4273,4425.1968],[-66.6577,-19.4326,4316.6523],[-66.6588,-19.4305,4300.8691],[-66.6621,-19.4302,4203.5562],[-66.669,-19.4342,4178.9854],[-66.68,-19.4444,4166.854],[-66.6998,-19.4484,4126.4453],[-66.7089,-19.4463,4039.0518],[-66.7173,-19.4409,4125.2246],[-66.7264,-19.4373,4030.8196],[-66.7318,-19.4299,4088.9014],[-66.7349,-19.4293,4136.3877],[-66.7413,-19.4369,4067.1545],[-66.7452,-19.4355,3998.7275],[-66.7503,-19.4369,3960.2917],[-66.7533,-19.4314,3893.771],[-66.7521,-19.4273,3876.4966],[-66.7546,-19.4274,3858.7793],[-66.7616,-19.43,3854.376],[-66.7696,-19.4297,3819.6313],[-66.7882,-19.4335,3789.51],[-66.7893,-19.4356,3794.8018],[-66.7932,-19.4364,3787.9966],[-66.7966,-19.4418,3805.2349],[-66.802,-19.4429,3790.4475],[-66.8023,-19.4472,3773.822],[-66.8064,-19.4499,3800.4998],[-66.8144,-19.4494,3765.9175],[-66.8208,-19.4523,3767.769],[-66.8224,-19.4547,3763.9966],[-66.8257,-19.4551,3763.002],[-66.8452,-19.4547,3759.6355],[-66.8494,-19.4477,3760.6655],[-66.8566,-19.4474,3755.2358],[-66.8641,-19.439,3753.0791],[-66.8715,-19.4364,3751.7578],[-66.8734,-19.4303,3749.9927],[-66.877,-19.4274,3749.0723],[-66.8772,-19.4243,3754.6091],[-66.8809,-19.422,3747.521],[-66.8817,-19.4136,3747.4199],[-66.886,-19.4134,3751.9927],[-66.8917,-19.4096,3748.9146],[-66.9011,-19.4077,3764.6353],[-66.914,-19.3977,3843.8928],[-66.923,-19.3934,3762.9658],[-66.927,-19.3887,3755.1289],[-66.9373,-19.3821,3744.2251],[-66.9396,-19.3783,3743.2993],[-66.948,-19.3774,3737.459],[-66.9482,-19.3727,3733.9434],[-66.9522,-19.3696,3731.502],[-66.9601,-19.368,3728.7595],[-66.9751,-19.3708,3730.2969],[-66.9865,-19.3735,3733.0439],[-66.9962,-19.3798,3733.0518],[-67.0016,-19.3799,3726.8103]]]]}
,"properties": {"GID_2": "BOL.7.2_2","GID_0": "BOL","country": "Bolivia","GID_1": "BOL.7_1","province": "Potosí","NL_NAME_1": "NA","county": "AntonioQuijarro","VARNAME_2": "Quijarro","NL_NAME_2": "NA","TYPE_2": "Provincia","ENGTYPE_2": "Province","CC_2": "NA","HASC_2": "NA","name": "Antonio_Quijarro.county","area_km2": 16934.13,"hist_schema_id": "Elevation0-9000","hist_area_km2": {"3025": 0.24,"3050": 0.5,"3075": 0.68,"3100": 0.62,"3125": 1.23,"3150": 1.71,"3175": 2.37,"3200": 3.13,"3225": 3.92,"3250": 4.54,"3275": 5.53,"3300": 8.14,"3325": 12.44,"3350": 16.48,"3375": 22.43,"3400": 29.38,"3425": 33.36,"3450": 37.32,"3475": 41.24,"3500": 44.59,"3525": 50.62,"3550": 58.98,"3575": 72.03,"3600": 86.96,"3625": 102.4,"3650": 590.42,"3675": 891.99,"3700": 621.53,"3725": 635.87,"3750": 826.64,"3775": 850.68,"3800": 871.75,"3825": 939.47,"3850": 861.67,"3875": 757.91,"3900": 670.67,"3925": 649.16,"3950": 634.24,"3975": 544.3,"4000": 460.63,"4025": 401.53,"4050": 373.75,"4075": 328.32,"4100": 285.02,"4125": 257.64,"4150": 231.34,"4175": 202.63,"4200": 179.91,"4225": 162.01,"4250": 150.45,"4275": 139.12,"4300": 140.3,"4325": 134.19,"4350": 132.06,"4375": 141.86,"4400": 138.0,"4425": 132.11,"4450": 134.92,"4475": 133.42,"4500": 126.71,"4525": 123.58,"4550": 130.02,"4575": 135.91,"4600": 134.08,"4625": 121.93,"4650": 114.62,"4675": 97.67,"4700": 88.53,"4725": 87.3,"4750": 77.08,"4775": 73.08,"4800": 62.0,"4825": 49.18,"4850": 40.41,"4875": 32.91,"4900": 27.55,"4925": 22.86,"4950": 22.58,"4975": 18.59,"5000": 15.64,"5025": 11.95,"5050": 10.79,"5075": 9.65,"5100": 8.99,"5125": 8.18,"5150": 7.04,"5175": 6.74,"5200": 5.33,"5225": 3.83,"5250": 3.51,"5275": 1.68,"5300": 1.38,"5325": 1.7,"5350": 1.28,"5375": 1.3,"5400": 1.3,"5425": 0.88}}}