{"type": "Feature","bbox": [-66.5025,-18.5665,-66.1774,-18.2049],"geometry": {"type": "MultiPolygon","coordinates": [[[[-66.4165,-18.259,3298.9971],[-66.4159,-18.2674,3302.1765],[-66.4115,-18.2695,3292.7407],[-66.409,-18.2766,3317.272],[-66.4037,-18.2801,3317.8271],[-66.4042,-18.2889,3315.0266],[-66.4484,-18.3187,3736.0408],[-66.4472,-18.3332,3449.6108],[-66.4414,-18.3418,3536.9946],[-66.4385,-18.3522,3482.1301],[-66.4405,-18.3551,3520.8848],[-66.4449,-18.3539,3557.5522],[-66.4563,-18.3612,3900.4399],[-66.4566,-18.3668,3819.0588],[-66.4537,-18.3722,3809.5415],[-66.449,-18.3756,3767.606],[-66.4426,-18.3938,3728.7822],[-66.4485,-18.4051,3738.0039],[-66.459,-18.4125,3847.6409],[-66.4762,-18.4215,3738.8618],[-66.4812,-18.4305,3885.6885],[-66.4865,-18.4353,4080.9844],[-66.5025,-18.4398,3979.0718],[-66.496,-18.4509,3905.1187],[-66.4986,-18.4587,4047.2854],[-66.4955,-18.4686,4054.3667],[-66.4887,-18.4709,4221.8291],[-66.4879,-18.4684,4232.6118],[-66.4824,-18.4648,4242.9165],[-66.4776,-18.4673,4245.7305],[-66.463,-18.486,4290.9102],[-66.4493,-18.4969,4246.4961],[-66.4428,-18.5052,4309.6357],[-66.4409,-18.5104,4240.4121],[-66.4329,-18.5075,4055.0376],[-66.4304,-18.511,4018.6826],[-66.4275,-18.5118,4029.366],[-66.4223,-18.5101,4029.2224],[-66.4149,-18.5124,3927.9805],[-66.4121,-18.517,3893.9565],[-66.4033,-18.5238,3935.7422],[-66.3975,-18.544,4080.5596],[-66.3947,-18.5624,4009.8076],[-66.3872,-18.5665,3813.2751],[-66.3834,-18.5642,3936.8125],[-66.3812,-18.5603,3999.3313],[-66.3811,-18.5549,4034.022],[-66.385,-18.5437,4113.1499],[-66.3768,-18.5412,3826.1362],[-66.3702,-18.5351,3778.3389],[-66.367,-18.534,3734.3223],[-66.3645,-18.5301,3720.3521],[-66.3582,-18.537,3731.6875],[-66.3542,-18.5312,3655.373],[-66.3531,-18.521,3722.0608],[-66.3481,-18.5227,3605.5598],[-66.3459,-18.5189,3554.7126],[-66.3436,-18.5196,3544.0532],[-66.3398,-18.5265,3551.4299],[-66.3338,-18.53,3505.0154],[-66.318,-18.5442,3435.2856],[-66.3081,-18.5463,3269.7014],[-66.3022,-18.5499,3239.4912],[-66.2986,-18.5491,3241.3533],[-66.2936,-18.5514,3223.0066],[-66.2884,-18.5504,3176.2671],[-66.2787,-18.5536,3109.6943],[-66.2745,-18.5508,3113.4026],[-66.2648,-18.5515,3110.4556],[-66.2615,-18.55,3103.2007],[-66.2528,-18.56,3093.1113],[-66.2501,-18.5586,3108.8804],[-66.2512,-18.5527,3106.894],[-66.2503,-18.5484,3142.4021],[-66.2447,-18.5437,3060.8992],[-66.2384,-18.5262,3060.1965],[-66.235,-18.5255,3035.2158],[-66.2324,-18.5218,3029.8132],[-66.2305,-18.5225,3016.6379],[-66.2258,-18.5169,3024.833],[-66.222,-18.5186,3001.2349],[-66.2151,-18.513,3033.5039],[-66.2104,-18.5148,3060.3677],[-66.2072,-18.513,3037.0356],[-66.2064,-18.518,2986.8623],[-66.2039,-18.5213,3039.4729],[-66.1962,-18.5196,2990.0068],[-66.1928,-18.5208,2989.8809],[-66.1879,-18.5143,2969.2234],[-66.1853,-18.5033,3040.7817],[-66.1774,-18.4941,2903.0244],[-66.1791,-18.4906,2906.491],[-66.1948,-18.4807,2984.7888],[-66.1993,-18.4738,2967.1648],[-66.2042,-18.4701,2992.7666],[-66.2065,-18.4603,3009.3552],[-66.2101,-18.457,3003.8018],[-66.2126,-18.4578,2995.8337],[-66.2173,-18.4515,3032.7275],[-66.2258,-18.4465,3043.4897],[-66.2293,-18.4384,3109.4302],[-66.2359,-18.4333,3081.8757],[-66.2392,-18.4262,3158.4685],[-66.2417,-18.4253,3078.8586],[-66.2427,-18.4204,3108.7124],[-66.2517,-18.4068,3149.001],[-66.2644,-18.3976,3191.6157],[-66.2777,-18.3928,3153.3501],[-66.2796,-18.3897,3144.1201],[-66.2875,-18.3888,3162.8118],[-66.2917,-18.3848,3165.3816],[-66.2972,-18.3839,3158.0942],[-66.3001,-18.3746,3166.2373],[-66.3079,-18.3693,3191.3779],[-66.3108,-18.3646,3176.4536],[-66.3111,-18.3568,3197.4924],[-66.314,-18.3553,3212.1287],[-66.316,-18.3505,3191.7996],[-66.3233,-18.3479,3196.2744],[-66.3263,-18.3422,3212.7502],[-66.3323,-18.3408,3202.3113],[-66.3447,-18.3302,3277.9863],[-66.3471,-18.3301,3252.2554],[-66.3483,-18.3268,3247.3101],[-66.3519,-18.3252,3246.3142],[-66.3525,-18.3208,3298.8154],[-66.3557,-18.3172,3269.8137],[-66.3521,-18.3133,3334.8823],[-66.3433,-18.2952,3621.0835],[-66.3431,-18.293,3640.8254],[-66.3454,-18.2901,3717.2048],[-66.3449,-18.28,3988.9514],[-66.3389,-18.2697,3875.625],[-66.3331,-18.2613,3640.9128],[-66.3206,-18.2533,3800.8831],[-66.3049,-18.2257,3728.7449],[-66.3009,-18.2261,3783.583],[-66.2973,-18.2219,3865.1929],[-66.2999,-18.2155,3974.2317],[-66.2994,-18.2114,4087.1941],[-66.3038,-18.2051,3993.5059],[-66.3146,-18.2049,3894.5654],[-66.3209,-18.2095,3893.4565],[-66.3298,-18.2084,4053.5537],[-66.3323,-18.2063,4064.8169],[-66.3437,-18.2052,3916.2461],[-66.3518,-18.2074,3923.5657],[-66.3533,-18.2057,3925.6262],[-66.3647,-18.2067,3793.26],[-66.3659,-18.2104,3704.8242],[-66.3714,-18.2117,3545.6392],[-66.3798,-18.2182,3853.8445],[-66.3926,-18.2356,4054.0439],[-66.4018,-18.2344,3889.3398],[-66.4088,-18.2401,3575.4075],[-66.4172,-18.2579,3298.8882],[-66.4165,-18.259,3298.9971]]]]}
,"properties": {"GID_3": "BOL.7.13.1_2","GID_0": "BOL","country": "Bolivia","GID_1": "BOL.7_1","province": "Potosí","NL_NAME_1": "NA","GID_2": "BOL.7.13_2","county": "RafaelBustillo","NL_NAME_2": "NA","city": "Chayanta","VARNAME_3": "NA","NL_NAME_3": "NA","TYPE_3": "District","ENGTYPE_3": "Distrito","CC_3": "NA","HASC_3": "NA","name": "Chayanta.city","area_km2": 634.5571,"hist_schema_id": "Elevation0-9000","hist_area_km2": {"2875": 0.0201,"2900": 0.1408,"2925": 0.1609,"2950": 0.3619,"2975": 0.4625,"3000": 0.5831,"3025": 0.7641,"3050": 0.8446,"3075": 1.3271,"3100": 1.85,"3125": 1.7295,"3150": 2.0916,"3175": 3.1376,"3200": 2.5343,"3225": 3.7813,"3250": 3.2586,"3275": 6.7203,"3300": 5.8546,"3325": 6.2371,"3350": 6.9008,"3375": 7.1826,"3400": 6.8205,"3425": 7.283,"3450": 7.5047,"3475": 7.8667,"3500": 8.4701,"3525": 9.4559,"3550": 11.006,"3575": 12.9573,"3600": 13.5206,"3625": 15.1708,"3650": 15.4519,"3675": 17.6244,"3700": 23.0957,"3725": 31.0011,"3750": 28.9895,"3775": 28.6072,"3800": 28.7081,"3825": 26.8571,"3850": 25.649,"3875": 24.4213,"3900": 23.6158,"3925": 23.5152,"3950": 23.3132,"3975": 22.6082,"4000": 20.6765,"4025": 19.5496,"4050": 19.1875,"4075": 16.6939,"4100": 14.3608,"4125": 13.7175,"4150": 10.3992,"4175": 7.0198,"4200": 4.9881,"4225": 3.3788,"4250": 2.1519,"4275": 1.5486,"4300": 0.6436,"4325": 0.4425,"4350": 0.181,"4375": 0.1207,"4400": 0.0402}}}