{"type": "Feature","bbox": [-67.291,-20.9613,-66.1832,-19.356],"geometry": {"type": "MultiPolygon","coordinates": [[[[-67.0025,-19.3793,3726.5977],[-67.0131,-19.3708,3745.6729],[-67.0188,-19.3688,3755.3005],[-67.0261,-19.3698,3959.1963],[-67.0352,-19.3738,3738.2271],[-67.0416,-19.3808,3728.9419],[-67.0442,-19.3809,3729.0371],[-67.0506,-19.3778,3728.0112],[-67.0551,-19.3697,3726.781],[-67.0586,-19.3709,3726.5405],[-67.0595,-19.3741,3726.5615],[-67.0637,-19.3744,3727.335],[-67.0672,-19.3727,3725.7864],[-67.0746,-19.3603,3724.074],[-67.0808,-19.356,3725.4141],[-67.0855,-19.3582,3725.334],[-67.0892,-19.3756,3726.9185],[-67.1013,-19.3948,3724.3088],[-67.1089,-19.4113,3741.8657],[-67.1434,-19.4204,3837.8079],[-67.162,-19.4386,3898.1399],[-67.1727,-19.4435,3802.9673],[-67.1806,-19.4448,3794.7625],[-67.1929,-19.4496,3870.5737],[-67.2111,-19.4462,3847.2566],[-67.218,-19.4414,3872.5088],[-67.2241,-19.4426,3864.3877],[-67.2344,-19.4363,3828.6143],[-67.2417,-19.4352,3797.1926],[-67.2506,-19.4315,3750.6628],[-67.2677,-19.4286,3720.2925],[-67.2699,-19.4347,3721.446],[-67.2645,-19.4406,3723.6851],[-67.2622,-19.4486,3724.2368],[-67.2592,-19.4493,3725.1626],[-67.2599,-19.455,3726.5083],[-67.2563,-19.4638,3729.1482],[-67.2437,-19.472,3734.1851],[-67.2352,-19.4809,3737.4453],[-67.229,-19.4815,3740.333],[-67.2258,-19.4839,3742.4204],[-67.2254,-19.4911,3748.0735],[-67.2277,-19.4956,3755.7219],[-67.2317,-19.498,3769.8823],[-67.2349,-19.5039,3777.5906],[-67.2372,-19.5045,3776.1655],[-67.2369,-19.5071,3734.4619],[-67.2326,-19.5088,3721.522],[-67.2315,-19.5125,3713.2212],[-67.2291,-19.514,3718.5312],[-67.2307,-19.5245,3697.6152],[-67.2259,-19.5333,3690.4973],[-67.2298,-19.5362,3694.2056],[-67.2233,-19.5502,3682.4067],[-67.2187,-19.5543,3680.5981],[-67.2183,-19.5593,3680.9497],[-67.2248,-19.5656,3694.395],[-67.2309,-19.5672,3715.0649],[-67.2305,-19.5734,3706.561],[-67.2321,-19.5784,3690.814],[-67.2303,-19.5815,3682.0461],[-67.2318,-19.5836,3678.1433],[-67.2092,-19.6011,3669.9399],[-67.2029,-19.6153,3673.2466],[-67.2036,-19.6167,3668.7029],[-67.2081,-19.6171,3668.6284],[-67.2093,-19.6253,3668.1816],[-67.2071,-19.6292,3668.0171],[-67.2103,-19.6318,3667.7949],[-67.2126,-19.6426,3667.6836],[-67.2118,-19.6494,3667.2822],[-67.2072,-19.6581,3667.3718],[-67.2064,-19.6703,3667.0918],[-67.2101,-19.6749,3666.0876],[-67.2123,-19.6744,3667.5337],[-67.2132,-19.6779,3664.9478],[-67.2144,-19.6774,3664.9478],[-67.2139,-19.6818,3664.0496],[-67.2258,-19.6896,3661.9316],[-67.2319,-19.6914,3661.0728],[-67.243,-19.6911,3659.9353],[-67.2566,-19.6993,3658.9851],[-67.2581,-19.7066,3658.6255],[-67.2574,-19.7159,3658.02],[-67.265,-19.7261,3657.1475],[-67.2739,-19.7489,3656.0078],[-67.291,-19.7652,3655.3481],[-67.2846,-19.7642,3655.3682],[-67.2774,-19.7694,3655.4255],[-67.2775,-19.7757,3655.2939],[-67.2748,-19.7792,3655.2886],[-67.2641,-19.7788,3655.281],[-67.2583,-19.7833,3655.3027],[-67.2443,-19.7889,3655.3645],[-67.2367,-19.7951,3655.3701],[-67.2299,-19.8029,3655.3667],[-67.2237,-19.8159,3655.2432],[-67.2241,-19.8235,3655.2068],[-67.2193,-19.8328,3655.2859],[-67.2221,-19.8437,3655.1094],[-67.2203,-19.851,3655.2109],[-67.2154,-19.8523,3655.3311],[-67.2143,-19.8559,3655.2346],[-67.2114,-19.8586,3655.2754],[-67.2053,-19.8591,3655.3164],[-67.204,-19.8614,3655.2161],[-67.2004,-19.8622,3655.5027],[-67.1943,-19.8708,3655.6499],[-67.193,-19.8785,3655.4092],[-67.1942,-19.8817,3655.3994],[-67.1918,-19.885,3655.3711],[-67.1912,-19.8903,3655.3311],[-67.1886,-19.8929,3655.3477],[-67.1885,-19.897,3655.2166],[-67.1822,-19.9068,3655.4182],[-67.1822,-19.9165,3655.3765],[-67.178,-19.9214,3655.6584],[-67.1788,-19.9248,3655.3359],[-67.174,-19.9336,3655.6777],[-67.1753,-19.9376,3655.5771],[-67.1742,-19.9404,3655.5154],[-67.1755,-19.9436,3655.5254],[-67.1751,-19.9508,3655.6392],[-67.1777,-19.952,3655.5596],[-67.1791,-19.9556,3655.5071],[-67.176,-19.9592,3655.8967],[-67.1762,-19.9639,3655.8311],[-67.1799,-19.9672,3655.7949],[-67.1823,-19.9672,3655.6045],[-67.1864,-19.9718,3655.4575],[-67.1802,-19.9728,3655.9629],[-67.1845,-19.9738,3655.6445],[-67.1851,-19.9757,3655.7407],[-67.1811,-19.9754,3655.812],[-67.1803,-19.9783,3655.8013],[-67.1769,-19.9791,3656.0432],[-67.183,-19.9842,3655.8721],[-67.1868,-19.9898,3655.4631],[-67.1843,-19.9903,3655.6804],[-67.1794,-19.9851,3655.8779],[-67.1763,-19.9844,3656.115],[-67.1797,-19.9866,3655.8535],[-67.1796,-19.9891,3655.9124],[-67.1842,-19.9944,3655.6948],[-67.1906,-19.9972,3655.3071],[-67.1884,-19.999,3655.3564],[-67.1893,-20.0018,3655.2466],[-67.1856,-20.0022,3655.571],[-67.1855,-20.0054,3655.4165],[-67.1832,-20.0064,3655.2266],[-67.1789,-20.0027,3655.3491],[-67.1752,-20.0028,3655.3887],[-67.1654,-19.9969,3655.4819],[-67.1603,-19.9983,3655.4185],[-67.1577,-20.0027,3655.6179],[-67.1576,-20.01,3655.4758],[-67.1521,-20.0147,3655.3296],[-67.1528,-20.0215,3655.396],[-67.1548,-20.0237,3655.448],[-67.1525,-20.0258,3655.4531],[-67.1507,-20.0367,3655.5649],[-67.1404,-20.0464,3655.3833],[-67.1414,-20.0504,3655.3213],[-67.1389,-20.0526,3655.47],[-67.1508,-20.0667,3655.343],[-67.1504,-20.0693,3655.3213],[-67.1535,-20.0733,3655.3416],[-67.1532,-20.0795,3655.3535],[-67.1601,-20.0961,3655.23],[-67.1578,-20.1029,3655.3264],[-67.1619,-20.1099,3655.165],[-67.1678,-20.13,3655.1135],[-67.1676,-20.1336,3655.0996],[-67.162,-20.1406,3654.9526],[-67.1599,-20.1483,3655.0305],[-67.1551,-20.1563,3655.0837],[-67.1427,-20.1649,3655.115],[-67.1353,-20.1749,3655.0439],[-67.1247,-20.1797,3655.0703],[-67.1153,-20.1873,3655.2031],[-67.1123,-20.1937,3655.1108],[-67.1062,-20.1986,3655.1719],[-67.0989,-20.2088,3655.166],[-67.0854,-20.2185,3655.1953],[-67.0661,-20.2253,3655.0669],[-67.0346,-20.2278,3655.4397],[-67.0269,-20.2312,3655.5269],[-67.0185,-20.2382,3655.5081],[-67.0135,-20.2451,3655.1604],[-67.0105,-20.2526,3655.9468],[-67.0107,-20.2666,3655.3518],[-66.9991,-20.2873,3655.062],[-66.9913,-20.2935,3655.26],[-66.981,-20.3126,3653.5],[-66.9672,-20.328,3653.5],[-66.9617,-20.3308,3653.5],[-66.9236,-20.3605,3653.5],[-66.9096,-20.3933,3653.5],[-66.9129,-20.3942,3653.5],[-66.9135,-20.3963,3653.5],[-66.9201,-20.3982,3653.5],[-66.9258,-20.3973,3653.5],[-66.9281,-20.3981,3653.5],[-66.9303,-20.4018,3653.5],[-66.9384,-20.4019,3653.5],[-66.9393,-20.4031,3653.5],[-66.9244,-20.418,3653.5],[-66.871,-20.4638,3658.7637],[-66.8677,-20.4871,3658.3433],[-66.8623,-20.5021,3658.2173],[-66.8581,-20.506,3658.803],[-66.846,-20.5258,3659.1882],[-66.8414,-20.5289,3659.4685],[-66.8294,-20.5445,3659.8579],[-66.8207,-20.5529,3659.4951],[-66.8031,-20.5766,3696.3787],[-66.7509,-20.762,3666.395],[-66.7257,-20.7892,3718.2529],[-66.6891,-20.866,3794.3411],[-66.6579,-20.8935,3855.8081],[-66.6149,-20.9084,4012.2498],[-66.5687,-20.9613,4059.5205],[-66.4843,-20.9531,3903.3699],[-66.4827,-20.9286,3903.2407],[-66.4461,-20.9238,3910.7576],[-66.4162,-20.8938,4051.1606],[-66.3369,-20.8636,3997.8169],[-66.3043,-20.8416,4050.0181],[-66.2654,-20.812,4169.4727],[-66.2049,-20.7534,4315.1611],[-66.1946,-20.7454,4333.9229],[-66.1832,-20.7092,4406.6714],[-66.1834,-20.7019,4425.8696],[-66.1868,-20.6764,4518.9287],[-66.1904,-20.6725,4503.666],[-66.195,-20.66,4540.0835],[-66.1958,-20.6447,4626.2881],[-66.2037,-20.638,4730.1533],[-66.2046,-20.6354,4776.1006],[-66.2018,-20.632,4824.3345],[-66.2014,-20.6281,5036.8916],[-66.2163,-20.6307,4784.8594],[-66.2386,-20.6266,4175.5908],[-66.2458,-20.6283,4096.687],[-66.255,-20.6234,3998.6621],[-66.2631,-20.6282,4076.4055],[-66.2918,-20.6112,4249.6118],[-66.3096,-20.6101,3984.8696],[-66.3127,-20.6079,3991.6638],[-66.3186,-20.6115,4068.7007],[-66.325,-20.6112,4028.5366],[-66.3314,-20.6072,4025.1877],[-66.3986,-20.5908,3862.1492],[-66.4485,-20.5877,3873.0508],[-66.4722,-20.5835,3800.8804],[-66.5125,-20.5862,3766.2017],[-66.5198,-20.5879,3738.8425],[-66.5409,-20.5865,3699.855],[-66.5512,-20.5959,3695.9968],[-66.5583,-20.595,3694.0693],[-66.5634,-20.5979,3692.261],[-66.5684,-20.5968,3691.4802],[-66.5783,-20.5986,3689.0347],[-66.5887,-20.5923,3686.168],[-66.6041,-20.5926,3682.801],[-66.619,-20.5886,3680.595],[-66.624,-20.5867,3680.1538],[-66.6273,-20.5825,3679.5793],[-66.6318,-20.5803,3679.9138],[-66.6358,-20.5824,3682.4568],[-66.6402,-20.5904,3678.6719],[-66.6493,-20.5957,3680.0667],[-66.659,-20.5914,3701.8511],[-66.667,-20.5849,3738.2051],[-66.6703,-20.5795,3767.3037],[-66.6684,-20.5482,3796.0964],[-66.6648,-20.5336,3850.27],[-66.6687,-20.5287,3840.123],[-66.67,-20.516,3807.6892],[-66.6796,-20.4906,3801.8015],[-66.6901,-20.4736,3903.3171],[-66.687,-20.4527,3967.8677],[-66.6753,-20.4358,4009.8733],[-66.6738,-20.4257,4021.7744],[-66.6657,-20.4144,4085.1177],[-66.6667,-20.4056,4157.9556],[-66.6651,-20.3938,4133.376],[-66.649,-20.3875,4161.6841],[-66.6388,-20.3764,3896.8032],[-66.6316,-20.3729,3926.823],[-66.625,-20.3668,3969.0022],[-66.6182,-20.3553,4022.4238],[-66.6056,-20.3063,3955.8789],[-66.6083,-20.2961,3971.8416],[-66.6076,-20.2903,3985.7656],[-66.6029,-20.285,3987.134],[-66.6047,-20.28,3996.6038],[-66.6021,-20.2734,4017.2368],[-66.6033,-20.2636,4043.2744],[-66.6232,-20.2406,4358.8359],[-66.6236,-20.2247,4649.4116],[-66.6291,-20.2184,4626.5845],[-66.6375,-20.213,4668.5957],[-66.6519,-20.1941,4980.5479],[-66.6826,-20.2185,4731.8003],[-66.693,-20.2237,4680.5146],[-66.7191,-20.2278,4229.5981],[-66.7423,-20.2213,4238.917],[-66.7873,-20.2237,4061.7139],[-66.8247,-20.2278,3952.7856],[-66.8248,-20.2123,3969.3684],[-66.8277,-20.207,3942.4282],[-66.8202,-20.1852,3876.7852],[-66.8164,-20.1785,3923.1919],[-66.791,-20.1777,4083.8801],[-66.7951,-20.1655,3935.6768],[-66.7914,-20.1577,4074.3315],[-66.7658,-20.137,4182.9141],[-66.7148,-20.1256,4252.3975],[-66.7028,-20.1187,4175.6504],[-66.6949,-20.1112,4243.6914],[-66.6951,-20.1001,4381.7822],[-66.7088,-20.0853,4316.1631],[-66.7327,-20.0744,4162.7329],[-66.7456,-20.0764,4085.8354],[-66.7524,-20.0797,4063.3154],[-66.775,-20.0821,3991.877],[-66.805,-20.0739,3954.2324],[-66.8291,-20.081,3849.8018],[-66.8371,-20.0801,3818.1499],[-66.8434,-20.0775,3815.4458],[-66.8505,-20.0718,3811.156],[-66.857,-20.0725,3796.9995],[-66.8635,-20.071,3789.6433],[-66.8701,-20.0668,3783.5908],[-66.8751,-20.0677,3781.9138],[-66.8787,-20.0659,3779.252],[-66.8844,-20.0619,3773.2305],[-66.8886,-20.0534,3767.1692],[-66.8914,-20.0518,3765.6384],[-66.911,-20.0496,3779.1941],[-66.9128,-20.048,3820.9536],[-66.9098,-20.0045,3797.7488],[-66.9139,-19.9971,3781.4587],[-66.9139,-19.9914,3771.2427],[-66.904,-19.9749,3810.9609],[-66.8973,-19.9676,3801.3872],[-66.8923,-19.9661,3805.5957],[-66.8903,-19.9639,3807.0359],[-66.889,-19.9571,3814.6694],[-66.8867,-19.9546,3819.342],[-66.8541,-19.9262,3903.22],[-66.8436,-19.8996,3882.4612],[-66.8405,-19.8858,3897.1616],[-66.8446,-19.8584,3892.073],[-66.8485,-19.8541,3902.4404],[-66.8531,-19.8518,3892.7808],[-66.855,-19.8472,3895.7664],[-66.8601,-19.8441,3906.2659],[-66.8655,-19.8346,3914.739],[-66.8676,-19.8334,3914.675],[-66.8868,-19.8336,3934.3374],[-66.8981,-19.8295,3961.8691],[-66.9055,-19.8245,3851.2788],[-66.9187,-19.8093,3866.6875],[-66.9271,-19.7975,3975.5205],[-66.925,-19.7884,4020.7014],[-66.9269,-19.7723,3840.74],[-66.924,-19.7647,3839.2598],[-66.9203,-19.762,3853.0298],[-66.9071,-19.7568,4015.397],[-66.9014,-19.76,3854.5654],[-66.8949,-19.7544,3815.3403],[-66.8959,-19.7453,3811.6074],[-66.8935,-19.7415,3811.3237],[-66.8941,-19.7377,3810.7576],[-66.8918,-19.7304,3808.1885],[-66.8636,-19.7257,3860.8774],[-66.8396,-19.7161,3872.8374],[-66.8185,-19.7119,3854.3489],[-66.8156,-19.7072,3857.9844],[-66.7934,-19.7023,3835.1152],[-66.7882,-19.6986,3823.5151],[-66.7818,-19.6979,3809.9944],[-66.7659,-19.6847,3814.7871],[-66.7582,-19.6755,3816.5957],[-66.748,-19.6724,3822.2219],[-66.735,-19.6735,3834.0864],[-66.7333,-19.6682,3850.4766],[-66.728,-19.6642,3833.3149],[-66.7275,-19.6599,3829.9531],[-66.724,-19.6613,3831.4597],[-66.7147,-19.6579,3868.5664],[-66.7116,-19.6609,3853.3987],[-66.7077,-19.6594,3837.7024],[-66.7061,-19.6603,3837.531],[-66.7062,-19.6571,3855.3711],[-66.7028,-19.6571,3839.9924],[-66.6954,-19.6531,3852.7891],[-66.6925,-19.6541,3846.5549],[-66.6877,-19.6507,3848.4465],[-66.6874,-19.6488,3872.1084],[-66.6832,-19.6476,3849.2764],[-66.6827,-19.6447,3855.1628],[-66.6785,-19.6422,3872.8525],[-66.6761,-19.638,3867.4834],[-66.67,-19.6395,3857.332],[-66.6646,-19.6342,3915.6382],[-66.6586,-19.6361,3874.5742],[-66.6542,-19.6318,3882.386],[-66.6525,-19.627,3918.4248],[-66.6437,-19.628,3906.8271],[-66.633,-19.6232,3914.6694],[-66.6312,-19.6279,3930.2954],[-66.6268,-19.6264,3907.8267],[-66.6251,-19.6279,3920.3887],[-66.6223,-19.6263,3933.9875],[-66.6219,-19.6351,3941.3369],[-66.6151,-19.6372,3943.1311],[-66.6146,-19.64,3922.1792],[-66.6128,-19.6387,3938.1899],[-66.6089,-19.6432,3925.2734],[-66.598,-19.6396,3936.2698],[-66.5933,-19.6342,3939.4299],[-66.5867,-19.6383,3952.5601],[-66.579,-19.6348,3978.8435],[-66.5678,-19.636,4047.606],[-66.5627,-19.6351,4097.4917],[-66.5589,-19.6324,4135.9399],[-66.5519,-19.6345,4185.0522],[-66.5426,-19.6337,4183.5991],[-66.5385,-19.6288,4250.0776],[-66.5329,-19.6279,4263.96],[-66.5302,-19.6253,4258.2964],[-66.53,-19.6193,4288.875],[-66.5257,-19.6204,4246.6416],[-66.5201,-19.6139,4295.5503],[-66.5156,-19.6134,4249.0039],[-66.5073,-19.619,4295.4043],[-66.5052,-19.6189,4275.4053],[-66.5034,-19.6163,4289.4062],[-66.4987,-19.6161,4324.8159],[-66.4639,-19.6258,4654.8975],[-66.4412,-19.6379,4759.5464],[-66.4349,-19.6427,4823.5918],[-66.353,-19.6067,4632.7402],[-66.3088,-19.5937,4575.0381],[-66.3342,-19.5557,4786.3564],[-66.3604,-19.49,4652.6807],[-66.3569,-19.4537,4624.125],[-66.3903,-19.4576,4641.3975],[-66.4291,-19.4063,4906.3823],[-66.4603,-19.3808,4609.7236],[-66.5021,-19.3599,4617.4473],[-66.5458,-19.3862,4982.1992],[-66.5573,-19.3956,4862.2568],[-66.5635,-19.3987,4864.1899],[-66.5756,-19.4013,5164.2837],[-66.584,-19.421,4833.7314],[-66.5906,-19.4262,4735.5205],[-66.6029,-19.4277,4656.6069],[-66.6214,-19.4256,4497.9229],[-66.6391,-19.4273,4425.1968],[-66.6577,-19.4326,4316.6523],[-66.6588,-19.4305,4300.8691],[-66.6621,-19.4302,4203.5562],[-66.669,-19.4342,4178.9854],[-66.68,-19.4444,4166.854],[-66.6998,-19.4484,4126.4453],[-66.7089,-19.4463,4039.0518],[-66.7173,-19.4409,4125.2246],[-66.7264,-19.4373,4030.8196],[-66.7318,-19.4299,4088.9014],[-66.7349,-19.4293,4136.3877],[-66.7413,-19.4369,4067.1545],[-66.7452,-19.4355,3998.7275],[-66.7503,-19.4369,3960.2917],[-66.7533,-19.4314,3893.771],[-66.7521,-19.4273,3876.4966],[-66.7546,-19.4274,3858.7793],[-66.7616,-19.43,3854.376],[-66.7696,-19.4297,3819.6313],[-66.7882,-19.4335,3789.51],[-66.7893,-19.4356,3794.8018],[-66.7932,-19.4364,3787.9966],[-66.7966,-19.4418,3805.2349],[-66.802,-19.4429,3790.4475],[-66.8023,-19.4472,3773.822],[-66.8064,-19.4499,3800.4998],[-66.8144,-19.4494,3765.9175],[-66.8208,-19.4523,3767.769],[-66.8224,-19.4547,3763.9966],[-66.8257,-19.4551,3763.002],[-66.8452,-19.4547,3759.6355],[-66.8494,-19.4477,3760.6655],[-66.8566,-19.4474,3755.2358],[-66.8641,-19.439,3753.0791],[-66.8715,-19.4364,3751.7578],[-66.8734,-19.4303,3749.9927],[-66.877,-19.4274,3749.0723],[-66.8772,-19.4243,3754.6091],[-66.8809,-19.422,3747.521],[-66.8817,-19.4136,3747.4199],[-66.886,-19.4134,3751.9927],[-66.8917,-19.4096,3748.9146],[-66.9011,-19.4077,3764.6353],[-66.914,-19.3977,3843.8928],[-66.923,-19.3934,3762.9658],[-66.927,-19.3887,3755.1289],[-66.9373,-19.3821,3744.2251],[-66.9396,-19.3783,3743.2993],[-66.948,-19.3774,3737.459],[-66.9482,-19.3727,3733.9434],[-66.9522,-19.3696,3731.502],[-66.9601,-19.368,3728.7595],[-66.9751,-19.3708,3730.2969],[-66.9865,-19.3735,3733.0439],[-66.9962,-19.3798,3733.0518],[-67.0025,-19.3793,3726.5977]]]]}
,"properties": {"GID_3": "BOL.7.2.3_2","GID_0": "BOL","country": "Bolivia","GID_1": "BOL.7_1","province": "Potosí","NL_NAME_1": "NA","GID_2": "BOL.7.2_2","county": "AntonioQuijarro","NL_NAME_2": "NA","city": "Uyuni","VARNAME_3": "NA","NL_NAME_3": "NA","TYPE_3": "District","ENGTYPE_3": "Distrito","CC_3": "NA","HASC_3": "NA","name": "Uyuni.city","area_km2": 7662.992,"hist_schema_id": "Elevation0-9000","hist_area_km2": {"3650": 475.025,"3675": 742.969,"3700": 446.752,"3725": 408.358,"3750": 511.589,"3775": 489.233,"3800": 517.626,"3825": 492.501,"3850": 423.981,"3875": 341.866,"3900": 284.616,"3925": 270.901,"3950": 246.723,"3975": 211.119,"4000": 171.576,"4025": 137.818,"4050": 123.265,"4075": 99.795,"4100": 82.147,"4125": 66.867,"4150": 56.051,"4175": 49.622,"4200": 44.737,"4225": 40.224,"4250": 36.966,"4275": 35.203,"4300": 42.719,"4325": 38.466,"4350": 39.023,"4375": 37.817,"4400": 37.415,"4425": 37.29,"4450": 39.937,"4475": 41.487,"4500": 37.821,"4525": 31.478,"4550": 31.624,"4575": 30.706,"4600": 36.186,"4625": 36.347,"4650": 40.725,"4675": 37.389,"4700": 36.148,"4725": 38.945,"4750": 34.031,"4775": 33.634,"4800": 30.877,"4825": 23.241,"4850": 17.824,"4875": 13.128,"4900": 7.992,"4925": 6.232,"4950": 4.854,"4975": 4.575,"5000": 3.456,"5025": 1.538,"5050": 0.719,"5075": 0.579,"5100": 0.539,"5125": 0.239,"5150": 0.299,"5175": 0.14}}}