{"type":"Feature","properties":{"GID_3":"BOL.7.15.2_2","GID_0":"BOL","country":"Bolivia","GID_1":"BOL.7_1","province":"Potosí","NL_NAME_1":"NA","GID_2":"BOL.7.15_2","county":"SurLipez","NL_NAME_2":"NA","city":"SanAntoniodeEsmoruco","VARNAME_3":"NA","NL_NAME_3":"NA","TYPE_3":"District","ENGTYPE_3":"Distrito","CC_3":"NA","HASC_3":"NA","name":"San_Antoniode_Esmoruco.city"},
"geometry":{"type": "MultiPolygon","coordinates": [[[[-66.7837,-22.43,5081.0386],[-66.7852,-22.4239,5081.1465],[-66.7843,-22.4018,4801.4185],[-66.7616,-22.3459,4746.0044],[-66.7596,-22.3254,4941.3848],[-66.7393,-22.2385,5383.7012],[-66.6862,-22.2095,5405.8691],[-66.6525,-22.2164,5471.3237],[-66.6383,-22.2255,5212.9263],[-66.6232,-22.1974,5491.1973],[-66.4184,-22.146,3815.9722],[-66.357,-22.1322,3606.4539],[-66.3455,-22.1276,3652.9553],[-66.3494,-22.1232,3556.1672],[-66.3475,-22.1196,3534.0767],[-66.3431,-22.1195,3556.6499],[-66.3399,-22.1168,3519.8667],[-66.3365,-22.1201,3606.2793],[-66.332,-22.1188,3552.6555],[-66.3317,-22.1118,3521.6902],[-66.328,-22.1093,3518.6331],[-66.3284,-22.103,3581.7397],[-66.3231,-22.0964,3522.5803],[-66.3227,-22.092,3508.2588],[-66.325,-22.0893,3517.4941],[-66.3247,-22.0872,3573.9341],[-66.3175,-22.0839,3577.8074],[-66.3167,-22.0883,3489.1155],[-66.3142,-22.0882,3501.3638],[-66.3125,-22.0913,3534.252],[-66.3074,-22.0938,3491.7439],[-66.3005,-22.0894,3550.095],[-66.2913,-22.0884,3506.562],[-66.288,-22.0849,3478.4451],[-66.2907,-22.0742,3474.594],[-66.2853,-22.0702,3498.9036],[-66.2846,-22.0677,3474.769],[-66.2893,-22.067,3464.4104],[-66.2934,-22.0625,3508.355],[-66.2834,-22.0497,3445.9502],[-66.2872,-22.0482,3451.2432],[-66.291,-22.0515,3440.7183],[-66.2914,-22.0488,3490.4541],[-66.2858,-22.0411,3437.0757],[-66.2911,-22.0379,3492.2795],[-66.2921,-22.0342,3432.9673],[-66.2896,-22.0305,3439.3669],[-66.2839,-22.0302,3426.4402],[-66.2834,-22.0258,3427.196],[-66.2793,-22.025,3423.1772],[-66.2777,-22.0231,3422.3027],[-66.2819,-22.0146,3418.2239],[-66.2793,-22.0084,3414.8669],[-66.2795,-21.9929,3407.9375],[-66.2832,-21.989,3425.5085],[-66.2839,-21.9851,3455.6816],[-66.2829,-21.9815,3419.2654],[-66.2765,-21.9777,3402.1855],[-66.278,-21.9738,3398.6868],[-66.2773,-21.9703,3405.8455],[-66.275,-21.9671,3418.4807],[-66.2717,-21.9664,3453.0725],[-66.2744,-21.9644,3462.1331],[-66.2751,-21.961,3432.8105],[-66.2728,-21.9545,3428.0708],[-66.2747,-21.951,3461.8052],[-66.2732,-21.9459,3441.6265],[-66.2807,-21.9405,3458.6836],[-66.2819,-21.9369,3432.5566],[-66.2848,-21.9371,3429.8433],[-66.2867,-21.9342,3449.4331],[-66.2899,-21.9345,3439.9763],[-66.2968,-21.9248,3455.9041],[-66.3058,-21.9214,3483.886],[-66.3168,-21.9197,3515.6521],[-66.3318,-21.9121,3576.8455],[-66.3348,-21.9085,3597.2766],[-66.3497,-21.9098,3635.6624],[-66.355,-21.9117,3652.8115],[-66.3642,-21.9054,3775.0835],[-66.3711,-21.9045,3982.9717],[-66.382,-21.891,3949.7461],[-66.3836,-21.882,3882.5078],[-66.3801,-21.8799,3870.1426],[-66.3734,-21.8702,3854.0132],[-66.3627,-21.8627,3818.3472],[-66.3631,-21.8589,3798.29],[-66.3695,-21.8538,3817.2417],[-66.3682,-21.8495,3737.7148],[-66.3753,-21.8509,3799.7358],[-66.3821,-21.8466,3851.6719],[-66.3859,-21.8487,3873.8225],[-66.3951,-21.8504,3939.8528],[-66.403,-21.856,4005.1255],[-66.4156,-21.8517,4012.6396],[-66.42,-21.8481,4019.0276],[-66.4285,-21.8455,4052.7683],[-66.432,-21.8425,4092.4849],[-66.4468,-21.8444,4140.4561],[-66.4539,-21.8431,4138.6309],[-66.4583,-21.8451,4156.7734],[-66.461,-21.8438,4187.7012],[-66.4652,-21.8379,4317.999],[-66.4664,-21.8294,4629.4355],[-66.4797,-21.8087,5022.417],[-66.4792,-21.8016,5015.3662],[-66.4728,-21.7885,4701.311],[-66.4714,-21.7777,4944.8984],[-66.4819,-21.7541,5604.7314],[-66.4959,-21.7565,5357.7676],[-66.4975,-21.7537,5271.6646],[-66.5022,-21.7539,5203.0342],[-66.505,-21.7515,5182.6548],[-66.5195,-21.7474,5213.8022],[-66.5219,-21.7544,5039.1284],[-66.532,-21.7621,5161.3999],[-66.544,-21.768,5211.0771],[-66.5502,-21.7687,5065.0625],[-66.5571,-21.7662,4789.6333],[-66.5778,-21.7681,4597.2964],[-66.5901,-21.7738,4752.7349],[-66.6046,-21.7743,4941.4297],[-66.6083,-21.7713,4987.2046],[-66.6215,-21.7887,4994.0801],[-66.6319,-21.7899,4944.1426],[-66.6411,-21.7879,4888.5889],[-66.6445,-21.7924,4844.5396],[-66.6519,-21.7963,5050.7222],[-66.6534,-21.7992,5076.7822],[-66.6584,-21.8,5162.7827],[-66.663,-21.8053,4928.4375],[-66.6605,-21.8254,4942.0508],[-66.6537,-21.833,4675.1431],[-66.6475,-21.8457,4865.9043],[-66.6424,-21.8487,4868.6475],[-66.6375,-21.8553,5031.5166],[-66.6385,-21.8596,4972.7617],[-66.6459,-21.8612,4916.0117],[-66.6537,-21.8677,4958.8511],[-66.657,-21.8844,4701.5312],[-66.6754,-21.906,4347.2656],[-66.6838,-21.912,4289.0166],[-66.687,-21.9179,4262.083],[-66.6995,-21.9268,4170.6538],[-66.693,-21.9441,4130.9541],[-66.6954,-21.9466,4128.9077],[-66.7006,-21.9483,4135.519],[-66.7011,-21.9501,4131.9795],[-66.7077,-21.9506,4139.1758],[-66.7112,-21.9544,4138.9639],[-66.7168,-21.957,4148.2588],[-66.7252,-21.965699999999998,4163.9321],[-66.7279,-21.965,4170.0332],[-66.7422,-21.9682,4218.4463],[-66.7442,-21.9659,4206.6353],[-66.75,-21.9668,4203.8916],[-66.76,-21.9704,4224.6689],[-66.7611,-21.9731,4205.0723],[-66.7694,-21.9792,4264.749],[-66.7738,-21.9854,4292.6885],[-66.7735,-21.9887,4249.9541],[-66.7763,-21.9907,4260.5942],[-66.7795,-21.9972,4253.2363],[-66.7812,-22.0035,4265.9741],[-66.7798,-22.0081,4278.5146],[-66.7812,-22.0187,4295.1895],[-66.7853,-22.034,4360.5449],[-66.7942,-22.0553,4397.0542],[-66.8031,-22.0632,4509.4043],[-66.8774,-22.1081,4707.7573],[-66.9128,-22.1379,4566.3428],[-66.942,-22.2044,4377.5],[-66.9502,-22.2124,4677.5229],[-66.9864,-22.2639,4486.3027],[-66.9949,-22.3002,4948.2554],[-66.9863,-22.3073,4877.6172],[-66.9808,-22.319,4934.3193],[-66.9561,-22.3344,5012.5674],[-66.9475,-22.3772,4974.6548],[-66.9218,-22.4121,4720.8247],[-66.9128,-22.4166,4787.3032],[-66.9082,-22.4213,4860.1699],[-66.9028,-22.4227,4901.8921],[-66.8884,-22.4432,5301.458],[-66.8804,-22.46,5205.2393],[-66.871,-22.4718,4880.1685],[-66.8018,-22.4473,5411.3286],[-66.7825,-22.4381,5205.3647],[-66.7837,-22.43,5081.0386]]]]}}