{"type":"Feature","properties":{"GID_2":"BOL.7.10_2","GID_0":"BOL","country":"Bolivia","GID_1":"BOL.7_1","province":"Potosí","NL_NAME_1":"NA","county":"ModestoOmiste","VARNAME_2":"NA","NL_NAME_2":"NA","TYPE_2":"Provincia","ENGTYPE_2":"Province","CC_2":"NA","HASC_2":"NA","name":"Modesto_Omiste.county"},
"geometry":{"type": "MultiPolygon","coordinates": [[[[-65.8043,-22.0753,3745.5693],[-65.7942,-22.0747,3679.1445],[-65.7884,-22.0817,3657.9133],[-65.7856,-22.0819,3655.1511],[-65.7833,-22.0869,3653.1758],[-65.7806,-22.0868,3655.0703],[-65.7785,-22.0887,3645.6323],[-65.7757,-22.0937,3624.4985],[-65.7623,-22.101,3601.1194],[-65.7565,-22.1016,3577.5276],[-65.7534,-22.1061,3586.1995],[-65.748,-22.1092,3551.5906],[-65.7348,-22.1091,3533.2097],[-65.7252,-22.1069,3525.9326],[-65.7151,-22.0972,3520.1436],[-65.7086,-22.0995,3508.6392],[-65.7047,-22.0987,3506.4336],[-65.6936,-22.1028,3510.2888],[-65.6856,-22.1095,3493.0444],[-65.6762,-22.1117,3485.688],[-65.6555,-22.1108,3473.3157],[-65.6513,-22.1053,3478.02],[-65.6391,-22.1069,3463.7944],[-65.633,-22.1034,3458.8999],[-65.6274,-22.1035,3454.0273],[-65.6195,-22.0966,3444.1899],[-65.6144,-22.0981,3445.7671],[-65.6125,-22.0954,3441.3469],[-65.6064,-22.0946,3438.1021],[-65.6029,-22.0977,3433.3774],[-65.5928,-22.0959,3426.7615],[-65.5912,-22.0989,3424.0322],[-65.5861,-22.0977,3427.894],[-65.5848,-22.0968,3435.7795],[-65.5853,-22.0949,3420.1692],[-65.5821,-22.0934,3417.3789],[-65.5828,-22.0909,3412.4385],[-65.5849,-22.0909,3409.2656],[-65.583,-22.0896,3412.4385],[-65.5841,-22.0885,3428.1509],[-65.5816,-22.0884,3407.2805],[-65.5834,-22.0847,3444.5518],[-65.5816,-22.0848,3394.4619],[-65.5809,-22.0806,3388.0408],[-65.5792,-22.0807,3428.6997],[-65.5791,-22.0784,3396.2998],[-65.5749,-22.0755,3380.2271],[-65.4848,-22.0955,3513.0547],[-65.4766,-22.0927,3377.5139],[-65.4735,-22.0887,3301.0796],[-65.1866,-22.0853,4400.9966],[-65.1916,-22.077,4470.647],[-65.1807,-22.0194,4307.291],[-65.185,-22.0131,4154.6577],[-65.2007,-22.0117,3875.4141],[-65.2042,-22.0061,3801.3643],[-65.2168,-21.9959,3709.1638],[-65.2351,-21.9907,3675.0334],[-65.2424,-21.9849,3658.6125],[-65.2468,-21.979,3660.2021],[-65.2618,-21.9712,3631.5239],[-65.2673,-21.9702,3623.9983],[-65.2761,-21.9711,3615.9539],[-65.2988,-21.9782,3594.303],[-65.3136,-21.975,3573.8308],[-65.3232,-21.9691,3558.7397],[-65.3349,-21.9654,3532.9614],[-65.3477,-21.9573,3454.8083],[-65.3559,-21.949,3416.3037],[-65.3657,-21.9436,3349.6743],[-65.3686,-21.9441,3335.7925],[-65.3735,-21.9413,3288.5732],[-65.3825,-21.9331,3197.7769],[-65.3871,-21.933,3175.3579],[-65.4086,-21.9156,2922.0613],[-65.4117,-21.9055,2894.811],[-65.4172,-21.897,2775.843],[-65.4199,-21.8956,2739.3586],[-65.4154,-21.8893,2732.8323],[-65.4169,-21.883,2725.4836],[-65.415,-21.8815,2727.675],[-65.4106,-21.8832,2708.7297],[-65.4018,-21.8822,2697.8809],[-65.3967,-21.8793,2723.4146],[-65.396,-21.8773,2778.7407],[-65.3984,-21.8745,2785.9678],[-65.3949,-21.8738,2717.7075],[-65.3926,-21.8679,2665.2139],[-65.3931,-21.8644,2716.5781],[-65.3895,-21.8619,2659.5488],[-65.3909,-21.8579,2656.0112],[-65.3898,-21.8544,2650.7581],[-65.3907,-21.8467,2649.1033],[-65.3948,-21.8492,2710.0413],[-65.3961,-21.8519,2637.2334],[-65.393,-21.8572,2655.5703],[-65.3992,-21.8589,2632.4922],[-65.4017,-21.8581,2633.3928],[-65.4025,-21.8556,2676.1758],[-65.3996,-21.8541,2638.3003],[-65.3993,-21.8513,2643.7212],[-65.4053,-21.8467,2646.6816],[-65.4063,-21.8429,2847.7915],[-65.4089,-21.8442,2640.6245],[-65.4081,-21.84,2673.0896],[-65.4101,-21.8401,2642.6013],[-65.4122,-21.8431,2659.946],[-65.4178,-21.8399,2649.9734],[-65.4189,-21.8347,2646.7188],[-65.4216,-21.8346,2659.6641],[-65.424,-21.8317,2667.3796],[-65.4254,-21.8351,2650.9285],[-65.4345,-21.8326,2712.8887],[-65.4396,-21.8374,2654.0515],[-65.4418,-21.8366,2666.5361],[-65.4456,-21.8379,2657.7935],[-65.4456,-21.8347,2658.6089],[-65.4474,-21.833,2662.1382],[-65.4513,-21.833,2669.5969],[-65.4535,-21.8355,2668.1648],[-65.4554,-21.8332,2702.8457],[-65.461,-21.8334,2666.8142],[-65.4639,-21.8287,2772.3533],[-65.4676,-21.8293,2667.3713],[-65.4666,-21.8263,2670.8364],[-65.4677,-21.8184,2694.3889],[-65.4748,-21.8171,2672.2144],[-65.4717,-21.8081,2710.5474],[-65.4753,-21.8053,2685.9551],[-65.478,-21.7997,2679.4351],[-65.474,-21.7863,2684.8584],[-65.4691,-21.7851,2683.9651],[-65.4669,-21.7753,2688.2981],[-65.4685,-21.7743,2707.2747],[-65.4733,-21.7774,2689.8457],[-65.4771,-21.7763,2690.2649],[-65.4782,-21.7719,2695.1001],[-65.477,-21.7648,2694.3279],[-65.4782,-21.7631,2731.9414],[-65.4833,-21.7658,2695.2246],[-65.4892,-21.765,2697.6714],[-65.4887,-21.7573,2705.4932],[-65.4982,-21.75,2703.7124],[-65.4974,-21.7424,2723.8728],[-65.4989,-21.74,2786.5698],[-65.503,-21.7387,2776.405],[-65.5091,-21.7272,2722.5068],[-65.508,-21.724,2741.7712],[-65.502,-21.7218,2750.063],[-65.5005,-21.7191,2776.8201],[-65.5046,-21.7167,2737.7886],[-65.5081,-21.7195,2721.3525],[-65.5117,-21.7191,2734.1008],[-65.5169,-21.7138,2820.2961],[-65.5191,-21.7134,2734.5635],[-65.5106,-21.7065,2752.3347],[-65.507,-21.6999,2731.0645],[-65.503,-21.6993,2746.8965],[-65.5036,-21.6938,2738.6479],[-65.5068,-21.6913,2736.3303],[-65.5155,-21.6895,2746.4548],[-65.5158,-21.6865,2754.6575],[-65.5185,-21.6855,2757.3918],[-65.5185,-21.6806,2866.4644],[-65.5223,-21.6806,2755.1606],[-65.5217,-21.6759,2766.2673],[-65.5268,-21.6733,2786.2783],[-65.5262,-21.6684,2753.2666],[-65.5301,-21.6651,2821.6665],[-65.5381,-21.6667,3178.1621],[-65.59,-21.6679,3059.8196],[-65.6036,-21.6697,3059.499],[-65.6172,-21.6739,3074.634],[-65.6266,-21.6734,3103.2964],[-65.6414,-21.6666,3176.9143],[-65.6467,-21.666,3277.105],[-65.6523,-21.6661,3372.8254],[-65.6633,-21.6704,3546.4521],[-65.6833,-21.6701,3815.5471],[-65.6861,-21.6725,3831.8201],[-65.6911,-21.6863,3818.4375],[-65.6945,-21.6903,3871.4167],[-65.7007,-21.6888,3875.0688],[-65.7101,-21.6811,3850.4644],[-65.7196,-21.684,3861.0654],[-65.7327,-21.6835,3933.0491],[-65.734,-21.6876,3948.3521],[-65.7299,-21.707,3979.2185],[-65.7314,-21.7106,4000.2666],[-65.7285,-21.718,3979.9492],[-65.7278,-21.7444,3922.1055],[-65.7263,-21.7479,3915.7009],[-65.7304,-21.7548,3747.5139],[-65.7353,-21.755,3729.4902],[-65.7467,-21.7501,3697.7437],[-65.7553,-21.7513,3557.8828],[-65.7475,-21.7619,3660.9084],[-65.7486,-21.7655,3635.1609],[-65.758,-21.7661,3655.4382],[-65.7623,-21.7692,3556.2324],[-65.7676,-21.7703,3520.1218],[-65.7708,-21.7769,3429.4915],[-65.7875,-21.778,3305.6655],[-65.7958,-21.7724,3234.7837],[-65.8096,-21.7686,3163.8623],[-65.8189,-21.7725,3111.6189],[-65.8243,-21.7786,3180.5376],[-65.831,-21.7772,3258.1777],[-65.8428,-21.7827,3528.884],[-65.856,-21.7827,3835.1101],[-65.8731,-21.7868,3885.1096],[-65.8809,-21.7932,3934.5532],[-65.8879,-21.7941,3965.4905],[-65.9112,-21.8066,3867.5625],[-65.9131,-21.8086,3877.353],[-65.9136,-21.8145,3838.8167],[-65.9127,-21.818,3910.6477],[-65.9097,-21.8203,3907.9224],[-65.9091,-21.8298,3866.6143],[-65.9112,-21.8331,3840.4587],[-65.923,-21.8358,3726.8674],[-65.9313,-21.8353,3748.6768],[-65.9448,-21.8301,3780.3301],[-65.948,-21.827,3792.4824],[-65.9654,-21.8217,3847.7693],[-65.9764,-21.8219,3895.8501],[-65.9897,-21.8198,3885.7241],[-66.0038,-21.8105,3919.8796],[-66.0218,-21.8073,3916.7971],[-66.0319,-21.8012,3900.7612],[-66.0475,-21.7648,3718.5181],[-66.0467,-21.7516,3350.4426],[-66.0491,-21.7498,3271.7842],[-66.0521,-21.7503,3211.4072],[-66.0555,-21.7537,3198.2812],[-66.0639,-21.7545,3296.8672],[-66.0679,-21.7593,3236.0806],[-66.0758,-21.7591,3264.2927],[-66.0851,-21.7571,3228.3433],[-66.0961,-21.746,3232.833],[-66.1123,-21.7607,4357.3008],[-66.1181,-21.7597,4324.793],[-66.1199,-21.7664,4308.5371],[-66.1174,-21.7739,4321.8062],[-66.1273,-21.8181,4298.7217],[-66.0763,-21.835,3975.5593],[-66.0433,-21.8719,3907.5703],[-66.0482,-21.919,3845.2305],[-65.9248,-21.9336,3812.1418],[-65.8043,-22.0753,3745.5693]]]]}}