{"type": "Feature","bbox": [-68.1848,-17.2072,-67.8368,-16.9322],"geometry": {"type": "MultiPolygon","coordinates": [[[[-67.8727,-17.0754,4470.3926],[-67.8665,-17.0632,4362.3477],[-67.8629,-17.0485,3965.533],[-67.8465,-17.0512,3690.9148],[-67.8391,-17.054,3851.627],[-67.8368,-17.0347,3241.8752],[-67.8492,-17.0302,3393.3809],[-67.8541,-17.0223,3773.8574],[-67.8647,-17.0117,3054.9639],[-67.8701,-17.0137,3216.5503],[-67.8766,-17.0077,3316.4092],[-67.8897,-17.0115,3624.1089],[-67.8918,-17.0146,3843.5449],[-67.9016,-17.0178,4261.4204],[-67.9305,-17.0024,4206.9429],[-67.9333,-16.9972,4228.9238],[-67.9375,-16.9952,4311.875],[-67.9436,-16.9717,4386.1309],[-67.9494,-16.9694,4366.4707],[-67.9597,-16.9682,4445.4043],[-67.9707,-16.9699,4403.1323],[-67.9819,-16.9532,4424.5283],[-67.9887,-16.9498,4389.9536],[-68.0105,-16.9322,4359.6396],[-68.0202,-16.9479,4164.1572],[-68.0281,-16.954,4237.7388],[-68.0275,-16.9746,4261.6597],[-68.0621,-16.9924,3997.0605],[-68.0587,-16.998,3987.2446],[-68.089,-17.0139,3932.2334],[-68.1031,-17.0195,3923.8213],[-68.1098,-17.0196,3927.2581],[-68.1386,-17.0307,3930.6106],[-68.1478,-17.0361,3944.98],[-68.151,-17.0425,3946.1909],[-68.1548,-17.0452,3951.0217],[-68.1709,-17.0512,3970.3364],[-68.1848,-17.0592,3991.301],[-68.1604,-17.0863,3970.6416],[-68.1645,-17.1154,4094.7156],[-68.128,-17.1233,4098.0376],[-68.125,-17.1221,4095.1089],[-68.1229,-17.1231,4090.5178],[-68.1212,-17.1276,4092.7415],[-68.1186,-17.1288,4103.7241],[-68.1154,-17.1766,3959.5393],[-68.0863,-17.1902,4013.1047],[-68.0746,-17.1992,4016.5222],[-68.0633,-17.2019,4098.6069],[-68.0508,-17.2072,3941.4678],[-68.0467,-17.2044,3958.9546],[-68.0444,-17.1979,4001.4106],[-68.0155,-17.202,3989.5786],[-68.0102,-17.2042,3986.0728],[-68.005,-17.1995,3923.7695],[-67.991,-17.192,4133.6475],[-67.9529,-17.1815,3834.8762],[-67.9549,-17.1711,3845.7029],[-67.9511,-17.1582,3883.085],[-67.9531,-17.1523,3964.2275],[-67.9588,-17.1447,3948.0525],[-67.958,-17.138,3887.7986],[-67.9701,-17.1197,3851.5715],[-67.9645,-17.102,3923.9214],[-67.9526,-17.1007,3946.8604],[-67.9366,-17.1078,3948.8828],[-67.9291,-17.1091,3959.5859],[-67.924,-17.1009,3992.8347],[-67.8969,-17.0859,4128.2446],[-67.8727,-17.0754,4470.3926]]]]}
,"properties": {"GID_3": "BOL.4.3.1_2","GID_0": "BOL","country": "Bolivia","GID_1": "BOL.4_1","province": "LaPaz","NL_NAME_1": "NA","GID_2": "BOL.4.3_2","county": "Aroma","NL_NAME_2": "NA","city": "AyoAyo","VARNAME_3": "NA","NL_NAME_3": "NA","TYPE_3": "District","ENGTYPE_3": "Distrito","CC_3": "NA","HASC_3": "NA","name": "Ayo_Ayo.city","area_km2": 561.2055,"hist_schema_id": "Elevation0-9000","hist_area_km2": {"3075": 0.0203,"3100": 0.0203,"3125": 0.0203,"3150": 0.0811,"3175": 0.0608,"3200": 0.0811,"3225": 0.1014,"3250": 0.223,"3275": 0.1216,"3300": 0.223,"3325": 0.223,"3350": 0.2433,"3375": 0.2027,"3400": 0.3852,"3425": 0.3852,"3450": 0.4055,"3475": 0.5271,"3500": 0.5068,"3525": 0.4866,"3550": 0.4866,"3575": 0.4663,"3600": 0.6487,"3625": 0.446,"3650": 0.5879,"3675": 0.6893,"3700": 0.3446,"3725": 0.7703,"3750": 1.0947,"3775": 0.669,"3800": 0.8109,"3825": 0.7298,"3850": 3.8095,"3875": 29.5259,"3900": 67.7084,"3925": 73.3677,"3950": 56.9094,"3975": 41.0563,"4000": 33.6785,"4025": 35.2793,"4050": 28.7356,"4075": 21.9478,"4100": 19.9226,"4125": 18.748,"4150": 15.6683,"4175": 14.9804,"4200": 14.0891,"4225": 12.6706,"4250": 12.1236,"4275": 9.2041,"4300": 7.3391,"4325": 7.3396,"4350": 6.7516,"4375": 5.6773,"4400": 5.1297,"4425": 3.2644,"4450": 1.6218,"4475": 0.9933,"4500": 0.6892,"4525": 0.5067,"4550": 0.3243,"4575": 0.0811}}}