{"type":"Feature","properties":{"GID_3":"BOL.8.13.4_2","GID_0":"BOL","country":"Bolivia","GID_1":"BOL.8_1","province":"SantaCruz","NL_NAME_1":"NA","GID_2":"BOL.8.13_2","county":"Vallegrande","NL_NAME_2":"NA","city":"Trigal","VARNAME_3":"NA","NL_NAME_3":"NA","TYPE_3":"District","ENGTYPE_3":"Distrito","CC_3":"NA","HASC_3":"NA","name":"Trigal.city"},
"geometry":{"type": "MultiPolygon","coordinates": [[[[-64.2222,-18.1918,2168.7666],[-64.2232,-18.1981,2110.1863],[-64.2208,-18.2046,2252.4001],[-64.2254,-18.2086,2170.7788],[-64.2286,-18.2236,2272.9143],[-64.2489,-18.2356,2341.3535],[-64.2445,-18.2618,2344.9397],[-64.2396,-18.2765,2348.1853],[-64.2333,-18.2864,2497.051],[-64.2274,-18.2925,2539.7927],[-64.2181,-18.2988,2341.0325],[-64.1972,-18.3343,1735.1333],[-64.1928,-18.3363,1726.0215],[-64.1841,-18.3333,1743.0233],[-64.1734,-18.3261,1700.033],[-64.1664,-18.3266,1665.5369],[-64.1687,-18.3345,1634.9675],[-64.1653,-18.3379,1630.209],[-64.1664,-18.3419,1628.1475],[-64.1651,-18.343,1629.3796],[-64.1715,-18.3489,1657.1403],[-64.1705,-18.3551,1654.049],[-64.173,-18.3574,1661.3942],[-64.181,-18.359,1694.577],[-64.1867,-18.362,1783.0004],[-64.1888,-18.3675,1851.9948],[-64.1844,-18.3679,1741.6356],[-64.1835,-18.3711,1732.9358],[-64.1779,-18.374,1700.0437],[-64.1766,-18.3766,1681.5083],[-64.1689,-18.38,1662.0149],[-64.1627,-18.3725,1656.7471],[-64.1649,-18.3684,1649.179],[-64.161,-18.3647,1649.1819],[-64.146,-18.3701,1685.6575],[-64.1397,-18.3697,1693.4225],[-64.1396,-18.3708,1693.4225],[-64.1381,-18.3693,1714.3885],[-64.1374,-18.3711,1696.0256],[-64.1343,-18.3711,1720.8875],[-64.1314,-18.3768,1716.9302],[-64.1301,-18.3769,1722.7209],[-64.1288,-18.3876,1745.3011],[-64.1242,-18.3923,1820.2395],[-64.1231,-18.4089,1810.8727],[-64.1179,-18.4187,1851.0558],[-64.1071,-18.4258,1905.5105],[-64.104,-18.4261,1907.3821],[-64.0958,-18.4337,1983.1642],[-64.092,-18.4394,2040.5967],[-64.0837,-18.4388,2062.9595],[-64.0685,-18.4313,1762.7711],[-64.0632,-18.4245,1723.4438],[-64.0617,-18.4184,1693.2018],[-64.0634,-18.415,1689.1603],[-64.062,-18.4114,1671.8145],[-64.0626,-18.407,1689.4802],[-64.0652,-18.4064,1723.9198],[-64.0633,-18.4033,1676.6406],[-64.0668,-18.4016,1664.906],[-64.0644,-18.3989,1784.1165],[-64.0657,-18.3981,1739.8711],[-64.0651,-18.3958,1753.0332],[-64.0612,-18.3933,1697.8989],[-64.0618,-18.3911,1641.8857],[-64.0574,-18.3867,1634.3831],[-64.0555,-18.382,1616.5956],[-64.0499,-18.3783,1644.5826],[-64.0491,-18.3766,1614.8494],[-64.0508,-18.3755,1662.6802],[-64.0477,-18.3742,1656.2289],[-64.0452,-18.3754,1701.6082],[-64.0455,-18.3714,1612.0117],[-64.0439,-18.3719,1612.7898],[-64.044,-18.3708,1606.0736],[-64.0468,-18.3699,1695.2422],[-64.0454,-18.3684,1620.5139],[-64.0461,-18.3668,1599.3629],[-64.0428,-18.3647,1594.7278],[-64.0452,-18.3631,1577.6172],[-64.0421,-18.3581,1601.6195],[-64.046,-18.3576,1579.8125],[-64.0449,-18.3556,1623.1836],[-64.0477,-18.3564,1600.3723],[-64.0439,-18.3518,1637.3031],[-64.0453,-18.3499,1590.1377],[-64.0484,-18.3509,1593.9969],[-64.0492,-18.3488,1602.911],[-64.0462,-18.3452,1566.7649],[-64.0518,-18.3417,1552.2527],[-64.0482,-18.3383,1550.9269],[-64.0526,-18.3332,1564.2637],[-64.0506,-18.3313,1534.4038],[-64.0509,-18.328,1530.6431],[-64.0541,-18.3258,1535.3965],[-64.0538,-18.323,1529.4269],[-64.0504,-18.3213,1529.2766],[-64.0504,-18.3192,1521.2653],[-64.0538,-18.3146,1517.8359],[-64.0539,-18.3106,1558.8136],[-64.0557,-18.3084,1524.9382],[-64.0554,-18.297,1499.1442],[-64.0581,-18.2956,1492.6895],[-64.055,-18.2935,1486.7501],[-64.0538,-18.2894,1500.495],[-64.0547,-18.2791,1502.856],[-64.0502,-18.2746,1482.4171],[-64.0526,-18.2531,1454.9299],[-64.0582,-18.2489,1436.218],[-64.0579,-18.2426,1426.7661],[-64.0598,-18.24,1425.3611],[-64.0575,-18.2343,1421.6748],[-64.0597,-18.232,1416.7572],[-64.0578,-18.2286,1414.3923],[-64.0621,-18.2253,1408.6111],[-64.0658,-18.2189,1401.7881],[-64.0701,-18.2174,1397.7847],[-64.0742,-18.2118,1391.5525],[-64.0758,-18.1965,1377.2911],[-64.0831,-18.1858,1365.9382],[-64.0836,-18.1798,1367.2568],[-64.0886,-18.1747,1363.1829],[-64.0905,-18.1665,1356.6144],[-64.0935,-18.1657,1353.381],[-64.0997,-18.1772,1425.9838],[-64.1098,-18.1748,1419.4286],[-64.1124,-18.1763,1448.1245],[-64.1225,-18.1757,1530.0588],[-64.1284,-18.1776,1526.4224],[-64.144,-18.1732,1593.5347],[-64.1664,-18.1785,1699.519],[-64.1848,-18.1915,1482.2504],[-64.1885,-18.1892,1476.4722],[-64.1933,-18.1925,1507.0956],[-64.2222,-18.1918,2168.7666]]]]}}