{"type": "Feature","bbox": [-68.3073,-19.0482,-67.8485,-18.811],"geometry": {"type": "MultiPolygon","coordinates": [[[[-68.267,-18.8162,3822.1716],[-68.2712,-18.818,3836.5681],[-68.2758,-18.8175,3912.9932],[-68.2882,-18.8115,4269.9219],[-68.3073,-18.811,4483.8257],[-68.3011,-18.8192,4416.8662],[-68.2973,-18.822,4343.2764],[-68.2909,-18.834,3944.3665],[-68.2891,-18.8552,3721.4639],[-68.2966,-18.8624,3713.626],[-68.3003,-18.8634,3709.4329],[-68.3017,-18.8667,3706.8291],[-68.3008,-18.8724,3705.0215],[-68.2985,-18.8757,3704.3501],[-68.299,-18.8848,3702.2925],[-68.2953,-18.8966,3698.5691],[-68.2891,-18.9068,3700.3022],[-68.2904,-18.9079,3697.9155],[-68.2888,-18.9104,3699.5859],[-68.2902,-18.9112,3696.5991],[-68.2884,-18.9136,3698.1616],[-68.2906,-18.9156,3695.1646],[-68.2872,-18.9182,3695.6289],[-68.2878,-18.9207,3694.5322],[-68.2848,-18.9247,3693.8872],[-68.2821,-18.9247,3693.3384],[-68.283,-18.9258,3693.3384],[-68.2815,-18.926,3693.3384],[-68.2827,-18.9268,3692.6655],[-68.2815,-18.9285,3693.4177],[-68.266,-18.9341,3690.2913],[-68.264,-18.9374,3689.0798],[-68.2577,-18.9392,3688.4419],[-68.2542,-18.9587,3686.0591],[-68.2592,-18.9653,3685.8062],[-68.2649,-18.9662,3686.9482],[-68.2688,-18.9694,3686.2383],[-68.2819,-18.9655,3687.2744],[-68.2945,-18.9649,3687.8657],[-68.2774,-18.9918,3683.7312],[-68.2702,-18.9979,3682.4514],[-68.2452,-19.0052,3678.0557],[-68.2196,-19.0403,3672.1418],[-68.2113,-19.0482,3670.5737],[-68.1948,-19.0436,3669.1448],[-68.1035,-18.9997,3671.624],[-68.0827,-18.9986,3671.5],[-68.0673,-19.0004,3670.8843],[-68.0483,-18.9977,3671.613],[-68.0381,-18.9845,3674.0359],[-68.0342,-18.9896,3673.3633],[-68.0228,-18.9931,3673.1572],[-68.0009,-18.9948,3668.9683],[-67.9916,-19.0066,3669.4331],[-67.9846,-19.0076,3669.2336],[-67.9801,-19.0043,3668.6475],[-67.9705,-19.0017,3667.3452],[-67.9669,-19.0045,3666.9285],[-67.9595,-19.0063,3666.3518],[-67.9489,-19.0133,3665.4199],[-67.9362,-19.0087,3666.1152],[-67.9321,-19.0089,3666.4668],[-67.9149,-19.0254,3668.0481],[-67.8982,-19.0284,3668.4771],[-67.895,-19.0285,3667.9792],[-67.8901,-19.0235,3668.5271],[-67.8808,-19.0217,3670.6448],[-67.8748,-19.0106,3670.7358],[-67.8684,-19.0048,3671.6685],[-67.8641,-19.0039,3671.9719],[-67.8595,-19.0052,3673.4697],[-67.8486,-18.9959,3674.5952],[-67.8485,-18.9885,3674.9268],[-67.8882,-18.9526,3677.2522],[-67.9028,-18.9097,3680.0164],[-67.9006,-18.887,3684.8687],[-67.911,-18.8665,3687.5312],[-67.9156,-18.8425,3688.6523],[-67.9231,-18.8454,3703.1995],[-67.933,-18.8358,3690.0952],[-67.9384,-18.8616,3686.2725],[-67.9411,-18.8633,3686.4255],[-67.9421,-18.8622,3686.6135],[-68.0115,-18.8877,3681.335],[-68.0733,-18.9244,3681.7852],[-68.0912,-18.9297,3682.0015],[-68.1459,-18.9212,3683.0361],[-68.1694,-18.9226,3690.5029],[-68.2014,-18.9089,3718.5002],[-68.2061,-18.8986,3806.3877],[-68.2176,-18.8871,4013.0874],[-68.2225,-18.8699,4433.1094],[-68.2266,-18.8662,4528.2524],[-68.228,-18.8612,4630.751],[-68.2242,-18.8545,4605.4512],[-68.2265,-18.8533,4575.8174],[-68.2297,-18.8453,4585.9619],[-68.2348,-18.843,4554.4375],[-68.2394,-18.8429,4592.5054],[-68.259,-18.825,3853.8481],[-68.2616,-18.8168,3775.2451],[-68.267,-18.8162,3822.1716]]]]}
,"properties": {"GID_3": "BOL.5.5.3_2","GID_0": "BOL","country": "Bolivia","GID_1": "BOL.5_1","province": "Oruro","NL_NAME_1": "NA","GID_2": "BOL.5.5_2","county": "Litoral","NL_NAME_2": "NA","city": "Esmeralda","VARNAME_3": "NA","NL_NAME_3": "NA","TYPE_3": "District","ENGTYPE_3": "Distrito","CC_3": "NA","HASC_3": "NA","name": "Esmeralda.city","area_km2": 588.5734,"hist_schema_id": "Elevation0-9000","hist_area_km2": {"3675": 442.4541,"3700": 79.4301,"3725": 12.197,"3750": 5.0755,"3775": 3.7315,"3800": 3.9122,"3825": 3.4709,"3850": 3.5312,"3875": 2.9092,"3900": 2.4276,"3925": 2.207,"3950": 1.9261,"3975": 1.9261,"4000": 1.906,"4025": 1.7655,"4050": 1.5248,"4075": 1.4847,"4100": 1.4446,"4125": 1.7055,"4150": 1.2038,"4175": 1.0634,"4200": 1.1036,"4225": 1.244,"4250": 0.943,"4275": 0.6621,"4300": 0.6822,"4325": 0.943,"4350": 0.7023,"4375": 0.7424,"4400": 0.6421,"4425": 0.5016,"4450": 0.5217,"4475": 0.6822,"4500": 0.4214,"4525": 0.4816,"4550": 0.301,"4575": 0.301,"4600": 0.2608,"4625": 0.0803,"4650": 0.0602}}}