{"type":"Feature","properties":{"GID_2":"BOL.9.2_2","GID_0":"BOL","country":"Bolivia","GID_1":"BOL.9_1","province":"Tarija","NL_NAME_1":"NA","county":"Avilés","VARNAME_2":"NA","NL_NAME_2":"NA","TYPE_2":"Provincia","ENGTYPE_2":"Province","CC_2":"NA","HASC_2":"NA","name":"Avilés.county"},
"geometry":{"type": "MultiPolygon","coordinates": [[[[-65.1397,-22.0846,4120.0083],[-65.0525,-22.0833,4429.0518],[-65.0507,-22.0616,4392.0479],[-65.0434,-22.0383,4401.8794],[-65.0456,-22.003,4333.7266],[-65.0371,-21.9905,4275.6211],[-65.0422,-21.9746,4157.8135],[-65.0432,-21.9648,4151.4824],[-65.0485,-21.9602,4104.0337],[-65.0488,-21.9525,4058.6243],[-65.0468,-21.9506,4062.6733],[-65.047,-21.9471,4040.0093],[-65.0409,-21.9446,4000.5034],[-65.0333,-21.9454,4071.9268],[-65.0163,-21.921,4188.9014],[-65.016,-21.9053,4281.6719],[-65.0186,-21.9027,4415.2168],[-65.0102,-21.8909,4238.2686],[-65.0085,-21.8834,4180.4741],[-65.0137,-21.8666,4464.1748],[-65.0041,-21.8586,4494.1963],[-64.9971,-21.8625,4436.915],[-64.9947,-21.8574,4308.5498],[-64.9946,-21.8527,4447.4951],[-64.9917,-21.8478,4338.8193],[-64.9883,-21.8461,4204.6138],[-64.9848,-21.8476,4164.2891],[-64.9832,-21.8418,3924.6221],[-64.9777,-21.8388,3694.1506],[-64.9755,-21.8358,3523.0562],[-64.9699,-21.8334,3322.9084],[-64.9629,-21.8349,3062.8125],[-64.9538,-21.8329,3054.5972],[-64.9497,-21.8359,3114.8706],[-64.9391,-21.8374,2592.4231],[-64.9341,-21.8398,2517.8054],[-64.925,-21.8382,2544.6077],[-64.923,-21.836,2486.2664],[-64.9199,-21.8379,2476.46],[-64.9176,-21.8334,2398.4126],[-64.9126,-21.833,2369.666],[-64.9039,-21.8356,2276.4712],[-64.8954,-21.8352,2266.3677],[-64.8908,-21.8383,2288.2544],[-64.8824,-21.840699999999998,2152.4053],[-64.88,-21.837,2151.5974],[-64.8781,-21.8367,2154.9727],[-64.8671,-21.8411,2225.6418],[-64.8647,-21.8388,2240.1074],[-64.8568,-21.8358,2298.2439],[-64.8551,-21.8384,2318.7959],[-64.8487,-21.8381,2364.9373],[-64.8399,-21.8331,2417.0686],[-64.8342,-21.8377,2221.4536],[-64.8336,-21.841,2305.9219],[-64.8277,-21.8393,2261.1313],[-64.8238,-21.836,2254.3506],[-64.8206,-21.8271,2144.3652],[-64.8116,-21.8225,2102.4509],[-64.8045,-21.8148,1895.4302],[-64.7983,-21.8148,1881.5359],[-64.7903,-21.8116,1869.222],[-64.7797,-21.8047,1855.926],[-64.7691,-21.8114,2003.8162],[-64.7683,-21.8165,2020.4114],[-64.7706,-21.8212,2050.3716],[-64.7701,-21.8288,2181.6499],[-64.7669,-21.8349,2127.7981],[-64.7507,-21.8459,2699.979],[-64.7437,-21.846,3011.2639],[-64.7389,-21.8381,2780.5793],[-64.7391,-21.8348,2797.0344],[-64.7365,-21.8346,2773.3896],[-64.7307,-21.8295,2857.0713],[-64.7074,-21.8316,2842.4961],[-64.6986,-21.8232,2807.998],[-64.6939,-21.824,2760.7339],[-64.6907,-21.8204,2810.592],[-64.6807,-21.8234,2413.4846],[-64.6769,-21.827,2174.1931],[-64.6678,-21.8282,2046.9495],[-64.6528,-21.8333,2236.311],[-64.6467,-21.8315,2335.8159],[-64.6357,-21.8352,2310.3569],[-64.6332,-21.8317,2296.2334],[-64.6284,-21.8312,2355.356],[-64.6234,-21.834,2489.6631],[-64.6209,-21.8385,2552.2856],[-64.6148,-21.8433,2850.6858],[-64.6082,-21.8443,3043.02],[-64.5952,-21.818,2622.2104],[-64.5861,-21.8188,2537.5615],[-64.5851,-21.8201,2441.8555],[-64.5813,-21.8188,2466.3372],[-64.5776,-21.8208,2363.2546],[-64.5736,-21.819,2296.3008],[-64.5644,-21.822,1813.1694],[-64.5604,-21.8187,1815.2062],[-64.5598,-21.8159,1737.9753],[-64.5539,-21.8123,1717.6882],[-64.5493,-21.7987,1558.3198],[-64.5466,-21.7947,1506.5779],[-64.5439,-21.7943,1547.1587],[-64.5446,-21.791,1512.8862],[-64.5487,-21.7884,1474.5321],[-64.5348,-21.7856,2003.4335],[-64.5334,-21.7826,2093.2207],[-64.5279,-21.7798,2148.0999],[-64.515,-21.7791,2565.2021],[-64.513,-21.7771,2617.7542],[-64.5131,-21.7734,2597.6145],[-64.5067,-21.7647,2495.4084],[-64.5099,-21.7568,2348.9941],[-64.5075,-21.7427,2482.0071],[-64.4991,-21.7131,2465.0159],[-64.4938,-21.7041,2081.1475],[-64.4844,-21.6965,1859.6372],[-64.4866,-21.6938,1854.9993],[-64.485,-21.6928,1818.8269],[-64.4858,-21.6905,1871.3042],[-64.4835,-21.6919,1864.3708],[-64.4826,-21.6903,1883.3347],[-64.4851,-21.6888,1899.3024],[-64.4848,-21.6871,1937.9338],[-64.4894,-21.6855,2019.6393],[-64.4884,-21.688,1972.6133],[-64.4903,-21.6887,1943.576],[-64.4885,-21.6888,1972.6133],[-64.4883,-21.6906,1937.276],[-64.4945,-21.6898,1984.2047],[-64.4974,-21.6764,2068.9297],[-64.4952,-21.6753,2085.4126],[-64.4959,-21.6727,2119.3796],[-64.4924,-21.6743,2243.2778],[-64.4917,-21.6733,2243.2778],[-64.4964,-21.6675,2129.3088],[-64.5031,-21.6655,2150.6206],[-64.5042,-21.662,2171.771],[-64.5149,-21.6552,2296.0239],[-64.5167,-21.6502,2372.3301],[-64.5275,-21.6412,2614.8403],[-64.542,-21.6326,2151.4783],[-64.5754,-21.6226,1909.3196],[-64.5779,-21.6187,1958.384],[-64.5889,-21.6198,1898.3008],[-64.5914,-21.619,1876.86],[-64.5916,-21.617,1868.4977],[-64.6027,-21.6188,1850.9325],[-64.6101,-21.6151,1838.7206],[-64.6155,-21.6151,1819.359],[-64.6201,-21.6165,1814.0939],[-64.6312,-21.6282,1782.3516],[-64.6438,-21.627,1761.2078],[-64.642,-21.6325,1775.6459],[-64.6457,-21.6347,1764.217],[-64.648,-21.632,1747.7064],[-64.6482,-21.6268,1766.0746],[-64.6516,-21.6186,1759.6625],[-64.655,-21.6151,1766.0486],[-64.6614,-21.6171,1777.9589],[-64.6641,-21.6106,1795.8279],[-64.6843,-21.6102,2165.0967],[-64.69,-21.62,2200.5435],[-64.6933,-21.6212,2188.6501],[-64.6955,-21.6245,2248.8884],[-64.6966,-21.6297,2252.8713],[-64.7001,-21.6309,2230.7886],[-64.7043,-21.6416,2286.1074],[-64.7095,-21.6466,2365.2141],[-64.7154,-21.6437,2217.7739],[-64.7214,-21.6471,2175.7627],[-64.7294,-21.6482,2215.5696],[-64.7328,-21.6443,2158.2007],[-64.7371,-21.6435,2089.3784],[-64.7377,-21.6395,2152.6841],[-64.7402,-21.6375,2211.187],[-64.7506,-21.639,2158.4478],[-64.7525,-21.6412,2166.3699],[-64.7522,-21.6461,2279.2002],[-64.7542,-21.6511,2377.1255],[-64.753,-21.6534,2318.019],[-64.7548,-21.6576,2286.2612],[-64.7626,-21.6684,2324.6948],[-64.7671,-21.6711,2248.4707],[-64.7711,-21.6817,2247.3762],[-64.7801,-21.6883,2279.2119],[-64.7806,-21.6918,2271.5056],[-64.7839,-21.6932,2339.5491],[-64.7868,-21.699,2402.6831],[-64.8071,-21.7034,2255.8276],[-64.8213,-21.7093,2018.7239],[-64.841,-21.7062,2016.09],[-64.8528,-21.7011,2144.8762],[-64.8636,-21.7207,2105.1692],[-64.8561,-21.7264,2155.5454],[-64.8569,-21.7305,2187.7556],[-64.8547,-21.7342,2245.7439],[-64.8604,-21.7395,2236.959],[-64.8663,-21.7562,2301.9241],[-64.8698,-21.7581,2259.3777],[-64.8761,-21.7581,2243.6504],[-64.8853,-21.7628,2220.4419],[-64.9041,-21.7539,2356.4946],[-64.915,-21.7577,2638.6836],[-64.9292,-21.7571,3198.9268],[-64.9461,-21.7751,3441.2788],[-64.9539,-21.7773,3326.9314],[-64.9717,-21.774,3562.3176],[-64.9733,-21.7777,3590.1694],[-64.9849,-21.7832,4301.4839],[-64.9932,-21.7646,4114.7842],[-64.9937,-21.7599,4088.1685],[-64.9918,-21.7536,3920.291],[-64.9935,-21.7494,3854.074],[-64.9977,-21.7461,3812.0745],[-64.9978,-21.735,3937.1438],[-64.9952,-21.7267,4138.2397],[-64.9798,-21.7186,4048.8975],[-64.9798,-21.7135,3896.6025],[-64.9819,-21.7113,3892.0066],[-64.9862,-21.6964,4163.9141],[-64.9838,-21.6908,4141.5771],[-64.9838,-21.6836,4044.5405],[-64.9752,-21.664,4347.3203],[-64.9796,-21.6593,4599.3843],[-64.9794,-21.6567,4534.915],[-64.9683,-21.6531,4368.7456],[-64.9663,-21.6495,4221.1851],[-64.9671,-21.6453,4150.7275],[-64.965,-21.6343,3950.926],[-64.958,-21.6223,3834.0129],[-64.9539,-21.6205,3791.0015],[-64.9574,-21.5998,3716.5171],[-64.9561,-21.5947,3703.5156],[-64.9592,-21.5887,3682.6216],[-64.9591,-21.5822,3661.916],[-64.9624,-21.5777,3652.9338],[-64.9703,-21.5725,3644.7104],[-64.9715,-21.5809,3673.2437],[-64.9737,-21.5853,3712.9453],[-64.9728,-21.5972,3845.6528],[-64.9743,-21.6154,4265.8423],[-65.0222,-21.6118,4181.6523],[-65.0256,-21.6093,4217.8311],[-65.0335,-21.5922,4061.3872],[-65.0379,-21.5702,3976.7854],[-65.0427,-21.5637,4235.3711],[-65.0623,-21.5565,3850.917],[-65.0804,-21.5519,4086.0679],[-65.0819,-21.5481,4083.2],[-65.0817,-21.5364,3958.2625],[-65.0837,-21.5305,3980.4512],[-65.0848,-21.5119,3921.5872],[-65.145,-21.4862,3227.1208],[-65.1737,-21.5142,2960.032],[-65.1804,-21.5076,2925.6614],[-65.1859,-21.5081,2901.8843],[-65.1928,-21.5051,2828.1169],[-65.1954,-21.5064,2826.1545],[-65.1988,-21.5039,2788.3728],[-65.2075,-21.5021,2740.4343],[-65.209,-21.4989,2715.7307],[-65.2166,-21.4985,2675.1626],[-65.2228,-21.4949,2638.1953],[-65.2229,-21.492,2611.1804],[-65.2263,-21.4919,2590.4746],[-65.237,-21.4855,2531.1882],[-65.2409,-21.4845,2488.1614],[-65.2454,-21.487,2446.7356],[-65.247,-21.4886,2428.7734],[-65.2475,-21.4938,2432.4492],[-65.2448,-21.4996,2431.2134],[-65.2454,-21.5059,2446.5696],[-65.2535,-21.5183,2436.0022],[-65.2523,-21.5205,2444.0991],[-65.2495,-21.5199,2437.8018],[-65.248,-21.5229,2463.7192],[-65.2448,-21.5226,2462.5806],[-65.2472,-21.5282,2445.6702],[-65.2448,-21.5303,2450.7974],[-65.2481,-21.5333,2476.4229],[-65.2458,-21.5414,2516.2964],[-65.25,-21.5428,2466.7476],[-65.2521,-21.5465,2485.6653],[-65.2482,-21.5482,2451.437],[-65.2452,-21.5534,2458.1062],[-65.2467,-21.56,2453.0298],[-65.2451,-21.57,2490.6353],[-65.2531,-21.5764,2461.1841],[-65.25,-21.5807,2469.0437],[-65.254,-21.583,2466.2932],[-65.252,-21.5888,2468.8481],[-65.2549,-21.5969,2468.4539],[-65.2538,-21.6005,2470.0491],[-65.2587,-21.6015,2472.3252],[-65.2643,-21.6095,2476.0337],[-65.263,-21.6139,2481.2854],[-65.2663,-21.6213,2482.7046],[-65.2616,-21.6304,2484.3284],[-65.2618,-21.6344,2489.9729],[-65.2634,-21.6375,2485.647],[-65.2674,-21.6392,2510.3848],[-65.2692,-21.6439,2489.7666],[-65.2799,-21.6462,2506.5137],[-65.2795,-21.6491,2495.9863],[-65.2719,-21.6529,2549.9834],[-65.2729,-21.6559,2498.7012],[-65.2772,-21.6568,2499.7717],[-65.277,-21.6642,2507.5381],[-65.2801,-21.6663,2548.1836],[-65.2844,-21.6654,2507.0217],[-65.2856,-21.6702,2507.1499],[-65.2903,-21.6708,2509.2644],[-65.2971,-21.6761,2513.6123],[-65.3003,-21.6857,2517.0918],[-65.3043,-21.6887,2529.0259],[-65.3017,-21.6983,2522.2581],[-65.3073,-21.7052,2527.7896],[-65.3072,-21.7077,2528.114],[-65.3021,-21.7095,2530.3008],[-65.3,-21.7154,2548.4985],[-65.3011,-21.7197,2533.2515],[-65.3002,-21.7214,2556.228],[-65.2938,-21.7232,2532.9143],[-65.2926,-21.7318,2537.0181],[-65.294,-21.7331,2538.542],[-65.3023,-21.7333,2549.1851],[-65.3139,-21.7309,2567.2571],[-65.3146,-21.7336,2546.9495],[-65.3129,-21.737,2548.7273],[-65.3155,-21.7392,2550.7527],[-65.3154,-21.7466,2573.4553],[-65.3238,-21.7562,2558.6045],[-65.3233,-21.7604,2560.2612],[-65.3194,-21.7636,2562.5283],[-65.32,-21.7671,2564.4768],[-65.3246,-21.769,2568.3276],[-65.3295,-21.7768,2578.9033],[-65.33,-21.7799,2570.6377],[-65.3275,-21.7852,2573.0151],[-65.3339,-21.7892,2577.9509],[-65.3335,-21.7947,2582.208],[-65.336,-21.8007,2589.7002],[-65.3361,-21.8057,2597.991],[-65.3478,-21.8122,2605.4155],[-65.3492,-21.8196,2596.4907],[-65.3481,-21.8263,2596.6455],[-65.3539,-21.833,2600.7329],[-65.3546,-21.8376,2603.8655],[-65.3572,-21.8395,2604.9497],[-65.3622,-21.8378,2717.8096],[-65.3651,-21.8403,2620.8188],[-65.3719,-21.8404,2642.3806],[-65.3737,-21.8374,2616.5615],[-65.3785,-21.8356,2620.1824],[-65.382,-21.8367,2620.407],[-65.3848,-21.8418,2628.7268],[-65.3895,-21.8415,2623.7158],[-65.3911,-21.8478,2649.1033],[-65.3895,-21.8619,2659.5488],[-65.3931,-21.8644,2716.5781],[-65.3926,-21.8679,2665.2139],[-65.3949,-21.8738,2717.7075],[-65.3984,-21.8745,2785.9678],[-65.396,-21.8773,2778.7407],[-65.3967,-21.8793,2723.4146],[-65.4018,-21.8822,2697.8809],[-65.4106,-21.8832,2708.7297],[-65.4162,-21.8819,2727.675],[-65.4154,-21.8893,2732.8323],[-65.4199,-21.8956,2739.3586],[-65.4172,-21.897,2775.843],[-65.4117,-21.9055,2894.811],[-65.4086,-21.9156,2922.0613],[-65.3973,-21.9235,3058.4214],[-65.3927,-21.9292,3139.7629],[-65.3871,-21.933,3175.3579],[-65.3825,-21.9331,3197.7769],[-65.3693,-21.9438,3335.7925],[-65.3657,-21.9436,3349.6743],[-65.3559,-21.949,3416.3037],[-65.3517,-21.9541,3457.3469],[-65.3362,-21.9648,3532.9614],[-65.3232,-21.9691,3558.7397],[-65.3136,-21.975,3573.8308],[-65.2988,-21.9782,3594.303],[-65.2761,-21.9711,3615.9539],[-65.2673,-21.9702,3623.9983],[-65.2618,-21.9712,3631.5239],[-65.2468,-21.979,3660.2021],[-65.2424,-21.9849,3658.6125],[-65.2351,-21.9907,3675.0334],[-65.2168,-21.9959,3709.1638],[-65.2042,-22.0061,3801.3643],[-65.2007,-22.0117,3875.4141],[-65.185,-22.0131,4154.6577],[-65.1807,-22.0194,4307.291],[-65.1809,-22.0242,4482.166],[-65.1916,-22.077,4470.647],[-65.1866,-22.0853,4400.9966],[-65.1397,-22.0846,4120.0083]]]]}}