{"type":"Feature","properties":{"GID_3":"BOL.7.9.2_2","GID_0":"BOL","country":"Bolivia","GID_1":"BOL.7_1","province":"Potosí","NL_NAME_1":"NA","GID_2":"BOL.7.9_2","county":"JoséMaríaLinares","NL_NAME_2":"NA","city":"Ckochas","VARNAME_3":"NA","NL_NAME_3":"NA","TYPE_3":"District","ENGTYPE_3":"Distrito","CC_3":"NA","HASC_3":"NA","name":"Ckochas.city"},
"geometry":{"type": "MultiPolygon","coordinates": [[[[-64.7775,-19.6649,1848.4189],[-64.7883,-19.652,1866.2306],[-64.7877,-19.6453,1870.5852],[-64.7895,-19.641,1876.2666],[-64.787,-19.6332,1880.3654],[-64.8106,-19.6255,1895.0851],[-64.814,-19.6218,1898.5757],[-64.8179,-19.6097,1928.639],[-64.8216,-19.6082,1912.4763],[-64.8289,-19.61,1918.2722],[-64.8301,-19.6091,1918.2358],[-64.8301,-19.6027,1924.8765],[-64.8378,-19.5925,1932.1956],[-64.8428,-19.5896,1936.0613],[-64.84,-19.5754,1939.0532],[-64.8328,-19.5616,1942.6307],[-64.8312,-19.5432,1951.9473],[-64.8234,-19.5167,1959.645],[-64.8225,-19.5053,1976.5154],[-64.8184,-19.5013,1968.1802],[-64.823,-19.4895,1973.0533],[-64.8231,-19.4835,1976.516],[-64.8271,-19.4776,1979.3042],[-64.8329,-19.4751,1981.4226],[-64.8369,-19.4695,1984.9146],[-64.8407,-19.4713,1992.538],[-64.8445,-19.4768,2005.1014],[-64.8482,-19.4773,2007.8442],[-64.8503,-19.4802,2017.3464],[-64.8552,-19.4809,2050.1877],[-64.8625,-19.4866,2046.8972],[-64.8759,-19.4811,2084.4468],[-64.8814,-19.4901,2109.4424],[-64.893,-19.4932,2178.7134],[-64.8938,-19.501,2225.9985],[-64.891,-19.5151,2306.4358],[-64.8922,-19.5197,2341.3296],[-64.8912,-19.5289,2391.957],[-64.8942,-19.5307,2482.5967],[-64.8985,-19.5302,2545.6069],[-64.9122,-19.5495,3251.8315],[-64.9173,-19.5513,3428.5664],[-64.9236,-19.5579,3610.3621],[-64.929,-19.5584,3677.4924],[-64.9368,-19.5558,3802.3892],[-64.9387,-19.5592,3723.4421],[-64.9513,-19.561,3647.8169],[-64.9559,-19.5599,3754.0229],[-64.9653,-19.569,3853.7935],[-64.9713,-19.5693,3855.0935],[-64.9701,-19.5823,3875.3892],[-64.9655,-19.5955,4021.1445],[-64.9665,-19.6001,4022.6116],[-64.9637,-19.6106,3960.4331],[-64.9671,-19.6193,3986.6992],[-64.9797,-19.6271,3522.647],[-64.9824,-19.6316,3500.3723],[-64.9861,-19.6277,3448.2253],[-64.9853,-19.6207,3362.4365],[-64.9865,-19.6158,3307.7148],[-64.9888,-19.6144,3308.9502],[-64.994,-19.6247,3558.1292],[-65.0027,-19.6184,3575.5388],[-65.0073,-19.6232,3307.2847],[-65.0117,-19.6171,3494.1223],[-65.0177,-19.615,3606.0845],[-65.023,-19.6164,3672.5659],[-65.0249,-19.6145,3814.3401],[-65.0279,-19.6146,3836.1418],[-65.03,-19.6178,3860.4805],[-65.0326,-19.6169,3879.8003],[-65.0435,-19.6199,4078.9502],[-65.0546,-19.625,4152.5967],[-65.0591,-19.624,4207.5791],[-65.0588,-19.6083,4059.6067],[-65.0716,-19.5619,4058.2617],[-65.0746,-19.5584,4037.0415],[-65.0737,-19.5446,4050.2764],[-65.0779,-19.5416,4075.8525],[-65.0771,-19.5285,4071.2849],[-65.0827,-19.5257,3969.9893],[-65.1003,-19.529,3386.5032],[-65.1022,-19.5274,3348.0959],[-65.1107,-19.5269,3045.6978],[-65.1101,-19.5283,3066.9712],[-65.1141,-19.5355,3164.9863],[-65.11,-19.5371,3146.6787],[-65.1227,-19.5542,3722.7898],[-65.1308,-19.5419,3635.4226],[-65.1292,-19.5398,3635.7085],[-65.133,-19.5357,3534.2278],[-65.1344,-19.5235,3477.3867],[-65.1372,-19.5176,3518.7261],[-65.1398,-19.515,3531.5405],[-65.1588,-19.5122,3338.0464],[-65.1784,-19.5169,3085.4685],[-65.181,-19.5206,2879.3762],[-65.1859,-19.523,2614.0386],[-65.1881,-19.5263,2441.3538],[-65.1873,-19.5283,2418.9849],[-65.1924,-19.5283,2386.0967],[-65.1915,-19.5361,2395.1504],[-65.1873,-19.5379,2428.2151],[-65.186,-19.5457,2497.0107],[-65.1833,-19.547,2437.5566],[-65.1798,-19.5437,2429.8535],[-65.177,-19.547,2512.0635],[-65.1794,-19.5534,2486.5234],[-65.184,-19.5542,2455.3799],[-65.1867,-19.5587,2444.7168],[-65.1835,-19.5626,2540.8965],[-65.184,-19.5652,2564.9624],[-65.1905,-19.5665,2464.9988],[-65.1961,-19.5612,2532.4678],[-65.206,-19.5569,2553.7739],[-65.2091,-19.5596,2617.5078],[-65.214,-19.5585,2594.594],[-65.2182,-19.5601,2603.6892],[-65.2226,-19.5575,2672.2251],[-65.242,-19.5749,2748.042],[-65.2426,-19.5783,2785.7031],[-65.2445,-19.5787,2774.0361],[-65.2444,-19.5833,2797.9441],[-65.2499,-19.5887,2824.7336],[-65.248,-19.5908,2856.8213],[-65.2533,-19.5977,3130.0251],[-65.254,-19.6054,3259.1729],[-65.2616,-19.6125,3332.9058],[-65.2761,-19.6172,3281.512],[-65.282,-19.6165,3351.2671],[-65.3185,-19.6213,3255.7009],[-65.3185,-19.6245,3256.6323],[-65.3153,-19.6259,3281.0049],[-65.3182,-19.6401,3272.2056],[-65.3104,-19.6396,3281.3784],[-65.3104,-19.6436,3278.3784],[-65.2934,-19.6459,3323.0576],[-65.285,-19.659,3329.9639],[-65.2847,-19.6637,3321.1792],[-65.287,-19.6664,3320.3569],[-65.2952,-19.6642,3327.9075],[-65.2968,-19.6738,3320.2871],[-65.3003,-19.6813,3204.8474],[-65.3037,-19.6799,3201.7986],[-65.3002,-19.689,3295.5151],[-65.2872,-19.701,3315.5161],[-65.279,-19.7047,3334.1646],[-65.2717,-19.7106,3336.1733],[-65.2707,-19.7131,3255.4651],[-65.2666,-19.713,3224.074],[-65.2475,-19.7252,2740.5],[-65.2458,-19.7307,2771.0388],[-65.2482,-19.7387,2801.7397],[-65.2442,-19.7469,2791.27],[-65.2459,-19.7502,2798.2742],[-65.2438,-19.7524,2856.2002],[-65.2465,-19.7539,2828.9658],[-65.2452,-19.7559,2822.4868],[-65.2467,-19.7582,2860.8281],[-65.235,-19.7847,3335.8547],[-65.2317,-19.7879,3380.2732],[-65.2308,-19.796,3431.2036],[-65.2377,-19.7985,3417.0645],[-65.2541,-19.795,3185.9055],[-65.2641,-19.7953,2929.6016],[-65.2639,-19.8002,2906.2068],[-65.2584,-19.8001,2912.5056],[-65.2582,-19.8033,2937.6418],[-65.2589,-19.805,2923.9258],[-65.2632,-19.8053,2948.4629],[-65.2658,-19.8102,2966.9053],[-65.2634,-19.8199,2994.2124],[-65.2652,-19.8204,3032.0044],[-65.2649,-19.8281,3004.2852],[-65.2664,-19.8312,3004.6455],[-65.2632,-19.8341,3054.0249],[-65.2642,-19.8464,3085.4187],[-65.2608,-19.851,3090.1743],[-65.262,-19.8533,3100.9294],[-65.259,-19.8545,3150.8528],[-65.2603,-19.8582,3137.6191],[-65.2586,-19.8611,3127.4651],[-65.2594,-19.8625,3136.2207],[-65.257,-19.8645,3145.0874],[-65.2559,-19.8757,3218.2651],[-65.253,-19.8841,3212.5198],[-65.2491,-19.8884,3233.9595],[-65.2448,-19.886,3282.7666],[-65.2469,-19.8991,3287.3862],[-65.2532,-19.8972,3308.3547],[-65.2544,-19.8999,3290.9724],[-65.239,-19.9336,3423.6265],[-65.2223,-19.9359,3454.5525],[-65.214,-19.9393,3435.1748],[-65.2033,-19.938,3377.0811],[-65.1709,-19.9956,3117.5181],[-65.1607,-20.0044,3023.3799],[-65.1542,-20.0074,3010.532],[-65.1522,-20.0124,3068.7227],[-65.1445,-20.0112,3183.7703],[-65.1281,-20.0152,3194.6909],[-65.1046,-20.0165,3425.6099],[-65.0906,-20.0094,2981.6787],[-65.088,-19.9917,3439.5605],[-65.0865,-19.9953,3410.9692],[-65.0822,-19.995,3253.4968],[-65.0746,-19.9899,3319.5662],[-65.0775,-19.9838,3184.0547],[-65.0772,-19.9799,3171.5229],[-65.0752,-19.9782,3201.9419],[-65.075,-19.9745,3198.3455],[-65.0714,-19.9671,3082.6882],[-65.0657,-19.9635,2920.2776],[-65.0658,-19.9591,2832.0356],[-65.062,-19.957,2713.2002],[-65.0598,-19.9533,2656.8198],[-65.0597,-19.9501,2728.5066],[-65.0632,-19.9492,2781.1162],[-65.0661,-19.9439,2925.4783],[-65.0696,-19.9423,3039.5317],[-65.0717,-19.9388,3031.769],[-65.0768,-19.9354,3379.7007],[-65.0816,-19.9348,3527.8118],[-65.0831,-19.9319,3543.6533],[-65.0775,-19.9183,3581.377],[-65.077,-19.9086,3570.1775],[-65.0745,-19.9009,3600.1602],[-65.0759,-19.8991,3626.022],[-65.0689,-19.8806,3728.3979],[-65.0692,-19.8748,3734.854],[-65.0648,-19.8707,3729.4229],[-65.0618,-19.8628,3766.8027],[-65.061,-19.844,3806.9539],[-65.0583,-19.8424,3754.0366],[-65.0559,-19.8333,3780.6357],[-65.057,-19.8277,3787.0271],[-65.0527,-19.8204,3768.0461],[-65.054,-19.8185,3772.1396],[-65.0525,-19.8062,3856.8101],[-65.0567,-19.7937,4050.1604],[-65.0398,-19.7968,3470.1328],[-65.0359,-19.7945,3419.4009],[-65.0302,-19.7946,3349.885],[-65.0263,-19.8025,3301.7449],[-65.0207,-19.8035,3247.7747],[-65.0117,-19.814,3195.8003],[-65.0092,-19.8132,3158.7395],[-65.004,-19.8283,3045.4231],[-65.0025,-19.8292,2999.4854],[-64.9988,-19.8278,3041.9568],[-64.9972,-19.8306,2982.5232],[-64.9958,-19.8303,2939.2603],[-64.996,-19.8329,2930.4097],[-64.995,-19.8323,2930.4097],[-64.9931,-19.8388,2936.4199],[-64.9908,-19.8405,2827.6597],[-64.9916,-19.8435,2824.8076],[-64.9902,-19.8433,2792.1492],[-64.9892,-19.8457,2787.5386],[-64.991,-19.8478,2811.5513],[-64.9909,-19.8533,2680.1462],[-64.9849,-19.8546,2673.4412],[-64.9831,-19.8534,2579.9663],[-64.9827,-19.855,2615.6438],[-64.9783,-19.8531,2493.3],[-64.9785,-19.8549,2581.1548],[-64.9599,-19.869,3102.9531],[-64.9416,-19.8765,3313.9204],[-64.9391,-19.8659,3176.5154],[-64.93,-19.8595,3099.5222],[-64.9311,-19.8565,3069.5205],[-64.928,-19.8438,3095.8179],[-64.9143,-19.8422,2504.4062],[-64.9133,-19.8452,2496.249],[-64.9159,-19.85,2513.3489],[-64.9155,-19.8548,2536.269],[-64.919,-19.86,2564.895],[-64.9191,-19.8636,2571.9878],[-64.9159,-19.8742,2604.5103],[-64.9073,-19.8896,2679.8154],[-64.9053,-19.8982,2718.4436],[-64.8969,-19.9088,2784.6509],[-64.8948,-19.9142,2853.54],[-64.8966,-19.9203,2952.3306],[-64.895,-19.9205,2903.0647],[-64.8931,-19.9247,2871.8418],[-64.897,-19.9339,2927.8477],[-64.8958,-19.9379,3021.7473],[-64.8969,-19.9458,3045.8499],[-64.8946,-19.9464,2978.5347],[-64.8947,-19.9495,2973.6565],[-64.8925,-19.9527,2994.9006],[-64.8929,-19.9571,3003.6992],[-64.8887,-19.9604,3017.5464],[-64.8908,-19.9636,3163.0134],[-64.8885,-19.9638,3131.1934],[-64.8888,-19.9654,3206.9746],[-64.886,-19.9665,3147.9858],[-64.8864,-19.9678,3147.9858],[-64.8829,-19.9671,3193.2188],[-64.8836,-19.968,3194.6624],[-64.8813,-19.9686,3293.0286],[-64.8788,-19.9724,3567.2283],[-64.8762,-19.9732,3698.1006],[-64.8718,-19.981,3902.4229],[-64.8665,-19.9781,3915.6594],[-64.8613,-19.9784,3838.6665],[-64.8589,-19.9745,3900.5332],[-64.8508,-19.9811,3677.7888],[-64.8472,-19.979,3636.0933],[-64.8466,-19.9713,3591.9067],[-64.8383,-19.9556,3466.7051],[-64.8373,-19.9474,3337.5239],[-64.8292,-19.9331,3074.3853],[-64.8236,-19.9308,3016.427],[-64.8198,-19.9313,2925.4607],[-64.8107,-19.9252,2760.4497],[-64.8105,-19.9228,2738.9587],[-64.8067,-19.9196,2732.8809],[-64.8056,-19.9123,2678.4563],[-64.795,-19.9028,2567.4629],[-64.7932,-19.8988,2556.3047],[-64.7927,-19.8885,2494.3577],[-64.7876,-19.8766,2428.3508],[-64.7891,-19.8693,2407.5056],[-64.784,-19.8607,2346.4116],[-64.7842,-19.8542,2315.4973],[-64.78,-19.8492,2277.7021],[-64.7765,-19.841,2231.5994],[-64.7665,-19.8269,2147.6675],[-64.7617,-19.8247,2140.792],[-64.7607,-19.819,2077.8853],[-64.7484,-19.8042,2009.8481],[-64.7393,-19.7898,1878.7915],[-64.7349,-19.7878,1876.0679],[-64.7243,-19.7879,1795.9656],[-64.7189,-19.7816,1793.5061],[-64.7144,-19.7796,1765.1559],[-64.7173,-19.776,1755.4457],[-64.725,-19.7732,1740.0579],[-64.7253,-19.7667,1744.8162],[-64.73,-19.7562,1756.5254],[-64.7273,-19.7514,1807.2106],[-64.7268,-19.7466,1768.514],[-64.7349,-19.7373,1775.313],[-64.736,-19.7228,1791.6591],[-64.7424,-19.7147,1804.1682],[-64.7418,-19.707,1806.9166],[-64.7454,-19.7038,1807.259],[-64.7512,-19.7035,1810.3943],[-64.7616,-19.6862,1827.5031],[-64.7671,-19.6841,1832.9176],[-64.7683,-19.6793,1856.8915],[-64.7733,-19.6737,1840.0593],[-64.7775,-19.6649,1848.4189]]]]}}