{"type":"Feature","properties":{"GID_3":"BOL.7.16.1_2","GID_0":"BOL","country":"Bolivia","GID_1":"BOL.7_1","province":"Potosí","NL_NAME_1":"NA","GID_2":"BOL.7.16_2","county":"TomásFrías","NL_NAME_2":"NA","city":"Potosí","VARNAME_3":"NA","NL_NAME_3":"NA","TYPE_3":"District","ENGTYPE_3":"Distrito","CC_3":"NA","HASC_3":"NA","name":"Potosí.city"},
"geometry":{"type": "MultiPolygon","coordinates": [[[[-65.7666,-19.783,4606.3789],[-65.7483,-19.7942,4223.0659],[-65.7334,-19.7987,4349.1465],[-65.7275,-19.8061,4497.293],[-65.7226,-19.8213,4302.5859],[-65.7055,-19.8224,4483.1421],[-65.6964,-19.8203,4741.6582],[-65.6915,-19.8239,4752.2603],[-65.6799,-19.8159,4671.1816],[-65.6774,-19.8004,4872.0244],[-65.6666,-19.7876,4978.521],[-65.6611,-19.7719,4864.3984],[-65.666,-19.7676,4955.3599],[-65.6657,-19.762,4838.1606],[-65.6732,-19.7478,4420.9741],[-65.6625,-19.7451,4494.0439],[-65.6546,-19.7393,4542.7168],[-65.64,-19.7237,4627.8267],[-65.6379,-19.7142,4723.6104],[-65.6496,-19.7081,4790.793],[-65.661,-19.7047,4880.3877],[-65.6635,-19.6996,4801.9131],[-65.6654,-19.6934,4787.644],[-65.6631,-19.6884,4839.3945],[-65.6649,-19.684,4838.4941],[-65.6642,-19.6727,4834.9297],[-65.6625,-19.6655,4819.4365],[-65.656,-19.6649,4941.7847],[-65.6567,-19.6583,4833.3682],[-65.6554,-19.6555,4865.1089],[-65.6591,-19.6479,4771.5098],[-65.6635,-19.6434,4828.374],[-65.6637,-19.6334,4948.4956],[-65.6715,-19.6313,4880.895],[-65.6748,-19.6202,4913.5527],[-65.6734,-19.6155,4902.1133],[-65.6676,-19.6116,4835.1777],[-65.6623,-19.6118,4908.5781],[-65.6529,-19.6002,4806.938],[-65.6511,-19.595,4707.3037],[-65.6516,-19.5859,4642.0288],[-65.6496,-19.5813,4688.4424],[-65.6531,-19.5786,4660.7148],[-65.6516,-19.574,4622.8911],[-65.6543,-19.5693,4586.1113],[-65.6491,-19.5618,4403.9648],[-65.6428,-19.556,4107.8174],[-65.6363,-19.5436,3855.2415],[-65.6176,-19.5375,3720.1143],[-65.6125,-19.5302,3662.7998],[-65.6079,-19.5273,3641.0625],[-65.602,-19.5261,3640.001],[-65.5997,-19.5287,3588.2393],[-65.5929,-19.5208,3551.5544],[-65.6123,-19.5059,3605.2524],[-65.612,-19.4987,3555.8794],[-65.5989,-19.4977,3583.8794],[-65.5967,-19.4855,3659.3438],[-65.5925,-19.4783,3756.7104],[-65.5789,-19.472,4059.4285],[-65.5799,-19.4688,4083.1509],[-65.5782,-19.4652,4143.5557],[-65.564,-19.4642,3870.499],[-65.5569,-19.4613,3756.7588],[-65.5525,-19.4612,3736.8652],[-65.5481,-19.4583,3695.189],[-65.5433,-19.4591,3668.9519],[-65.5381,-19.4539,3646.2249],[-65.5354,-19.4484,3616.0667],[-65.5299,-19.4446,3591.5107],[-65.5271,-19.4448,3571.1443],[-65.5279,-19.4402,3634.6328],[-65.5339,-19.4345,3782.2449],[-65.5458,-19.4307,3872.4883],[-65.549,-19.4265,4075.2083],[-65.5517,-19.4159,4012.4236],[-65.547,-19.3872,4571.7896],[-65.5495,-19.3827,4546.7822],[-65.5514,-19.369,4447.1118],[-65.5541,-19.3672,4426.6606],[-65.5542,-19.3638,4466.167],[-65.5567,-19.3615,4468.1968],[-65.557,-19.3569,4526.5781],[-65.563,-19.3544,4492.0186],[-65.5645,-19.3493,4422.752],[-65.5676,-19.3465,4401.2915],[-65.5675,-19.344,4433.1528],[-65.5757,-19.3402,4490.5449],[-65.5792,-19.3316,4371.2461],[-65.5878,-19.321,4365.3145],[-65.5975,-19.3203,4150.2681],[-65.606,-19.3217,4346.8271],[-65.6061,-19.3259,4391.1084],[-65.6188,-19.3216,4295.4692],[-65.623,-19.3172,4257.0884],[-65.6262,-19.3176,4207.0327],[-65.6307,-19.3144,4098.3223],[-65.6393,-19.3144,3885.8069],[-65.6475,-19.3103,3850.4321],[-65.6553,-19.3164,4068.533],[-65.6584,-19.3217,4091.6987],[-65.6617,-19.3369,4130.4175],[-65.6587,-19.352,4117.7568],[-65.6614,-19.3543,4200.751],[-65.6621,-19.3581,4166.7603],[-65.6658,-19.3581,4162.5991],[-65.6727,-19.3511,4081.3535],[-65.6718,-19.3407,4097.8438],[-65.6819,-19.327,4042.4824],[-65.6907,-19.3108,3906.9106],[-65.69,-19.3019,3928.2119],[-65.6924,-19.2915,3899.1284],[-65.6993,-19.2945,3682.2388],[-65.7059,-19.2944,3832.7751],[-65.7104,-19.2974,3774.5378],[-65.7161,-19.2965,3866.2539],[-65.7229,-19.2979,3987.8765],[-65.7321,-19.3017,3802.0796],[-65.7399,-19.3004,3949.9382],[-65.7463,-19.3056,3799.6272],[-65.751,-19.3009,3666.2937],[-65.7633,-19.3049,3595.5183],[-65.7643,-19.3099,3574.7632],[-65.7694,-19.3127,3558.7339],[-65.7728,-19.3177,3225.467],[-65.7723,-19.3227,3300.1416],[-65.7694,-19.326,3244.5376],[-65.7731,-19.3288,3202.9995],[-65.7702,-19.3352,3338.9138],[-65.772,-19.3397,3307.929],[-65.7775,-19.3441,3225.1873],[-65.7771,-19.3507,3243.3677],[-65.78,-19.3507,3214.4551],[-65.7775,-19.3544,3233.9292],[-65.7838,-19.3563,3260.8877],[-65.7917,-19.3643,3313.0078],[-65.797,-19.3635,3318.7246],[-65.8015,-19.3654,3448.7583],[-65.8081,-19.3741,3463.1572],[-65.8236,-19.3781,3644.679],[-65.8305,-19.3852,3640.4033],[-65.8335,-19.3855,3643.8438],[-65.8382,-19.3835,3637.6038],[-65.8459,-19.3829,3419.9688],[-65.8451,-19.38,3419.3376],[-65.8476,-19.3697,3393.4294],[-65.8542,-19.3645,3328.2227],[-65.8571,-19.3665,3277.8306],[-65.8582,-19.3714,3313.8999],[-65.8654,-19.3801,3365.4258],[-65.8669,-19.3848,3399.4727],[-65.8646,-19.3857,3411.7937],[-65.8661,-19.3973,3437.6208],[-65.8604,-19.405,3623.9155],[-65.854,-19.4082,3630.7549],[-65.8441,-19.4069,3506.2051],[-65.823,-19.4134,3629.8833],[-65.8218,-19.4155,3585.9751],[-65.8168,-19.4329,3671.9224],[-65.818,-19.4353,3693.1819],[-65.8144,-19.4495,3963.0281],[-65.8355,-19.4975,4262.2349],[-65.8209,-19.5084,3611.4114],[-65.8135,-19.518,3465.9658],[-65.7949,-19.5346,4041.7981],[-65.7853,-19.5478,3974.3369],[-65.7853,-19.5585,3667.1284],[-65.7891,-19.5631,3656.8921],[-65.7917,-19.5633,3648.6753],[-65.7937,-19.5656,3651.7551],[-65.7935,-19.5722,3606.7024],[-65.8008,-19.578,3569.7629],[-65.8001,-19.5844,3576.7747],[-65.802,-19.5856,3651.1523],[-65.8028,-19.5905,3588.2964],[-65.805,-19.5906,3592.3564],[-65.8053,-19.5938,3599.1028],[-65.8062,-19.5925,3627.0952],[-65.8086,-19.5944,3632.376],[-65.8103,-19.5935,3640.2947],[-65.814,-19.5972,3645.9656],[-65.821,-19.5993,3701.6404],[-65.8316,-19.5986,3818.4648],[-65.8401,-19.6003,3888.6663],[-65.847,-19.6047,3881.0],[-65.847,-19.6102,3976.9099],[-65.8523,-19.6165,4061.5298],[-65.8659,-19.6167,3985.762],[-65.879,-19.6193,4042.3584],[-65.8828,-19.6294,4089.7546],[-65.8801,-19.6439,4154.7603],[-65.8839,-19.6479,4084.9421],[-65.8968,-19.6492,4267.6748],[-65.9044,-19.6574,4422.7905],[-65.9116,-19.6585,4498.8428],[-65.9191,-19.6673,4735.4136],[-65.9224,-19.6748,4650.6436],[-65.9284,-19.6828,4628.4668],[-65.9304,-19.6924,4510.4922],[-65.9207,-19.689,4293.0508],[-65.9113,-19.6905,4490.1108],[-65.9038,-19.6932,4314.1348],[-65.8999,-19.6996,4000.6357],[-65.8887,-19.709,3816.7048],[-65.868,-19.7121,3961.6475],[-65.8458,-19.7061,4074.0537],[-65.8357,-19.7059,4078.8721],[-65.831,-19.715,3897.6995],[-65.8299,-19.7294,3919.5911],[-65.8318,-19.7314,3867.0312],[-65.8375,-19.7523,4158.5728],[-65.8206,-19.7621,4156.6787],[-65.8121,-19.7624,4232.1416],[-65.8069,-19.7504,4273.9609],[-65.8005,-19.7432,4216.0039],[-65.7964,-19.7443,4317.7173],[-65.7869,-19.7533,4444.8652],[-65.7755,-19.7553,4673.5444],[-65.769,-19.7597,4583.6211],[-65.7666,-19.7638,4621.9375],[-65.7659,-19.7698,4662.8452],[-65.7666,-19.783,4606.3789]]]]}}