{"type":"Feature","properties":{"GID_3":"BOL.4.19.6_2","GID_0":"BOL","country":"Bolivia","GID_1":"BOL.4_1","province":"LaPaz","NL_NAME_1":"NA","GID_2":"BOL.4.19_2","county":"Omasuyos","NL_NAME_2":"NA","city":"SantiagodeHuata","VARNAME_3":"NA","NL_NAME_3":"NA","TYPE_3":"District","ENGTYPE_3":"Distrito","CC_3":"NA","HASC_3":"NA","name":"Santiagode_Huata.city"},
"geometry":{"type": "MultiPolygon","coordinates": [[[[-68.8176,-16.014,3873.0718],[-68.819,-16.0111,3808.5],[-68.821,-16.0119,3815.1001],[-68.8203,-16.0179,3808.8733],[-68.8236,-16.023,3814.0891],[-68.8348,-16.0318,3808.5],[-68.8362,-16.055,3809.0139],[-68.8374,-16.0566,3810.4453],[-68.8394,-16.0562,3808.5],[-68.8433,-16.0639,3811.085],[-68.8479,-16.0627,3808.5],[-68.8572,-16.0676,3811.2271],[-68.8578,-16.0697,3811.0835],[-68.8556,-16.0706,3811.5098],[-68.8582,-16.0757,3811.5518],[-68.86,-16.0732,3814.8513],[-68.864,-16.0756,3812.0869],[-68.8679,-16.0733,3813.1489],[-68.8737,-16.075,3817.709],[-68.8718,-16.0708,3839.0659],[-68.8723,-16.0678,3817.791],[-68.8669,-16.0661,3809.5239],[-68.8656,-16.057,3818.8091],[-68.8616,-16.053,3816.7778],[-68.8622,-16.049,3834.0161],[-68.8649,-16.047,3825.8242],[-68.8672,-16.0485,3867.2803],[-68.8714,-16.0598,3824.5483],[-68.8757,-16.0635,3843.2896],[-68.8808,-16.0633,3827.0686],[-68.8851,-16.0676,3819.4121],[-68.8875,-16.0665,3810.5481],[-68.89,-16.0678,3810.647],[-68.8945,-16.0771,3812.9465],[-68.8981,-16.0765,3818.127],[-68.8984,-16.0733,3811.3997],[-68.9067,-16.074,3808.5],[-68.9103,-16.0722,3808.5],[-68.9038,-16.0769,3819.2869],[-68.9032,-16.0851,3809.136],[-68.8971,-16.0852,3864.9963],[-68.8889,-16.094,3812.625],[-68.8878,-16.103,3814.7725],[-68.89,-16.1054,3815.8381],[-68.8925,-16.1049,3808.5],[-68.8912,-16.1112,3821.8174],[-68.8826,-16.1165,3808.5],[-68.8798,-16.125,3809.6411],[-68.8754,-16.1277,3816.8901],[-68.8724,-16.1337,3818.1675],[-68.8649,-16.1281,4021.1338],[-68.8676,-16.1234,3992.8188],[-68.8523,-16.1175,3973.4214],[-68.8492,-16.1256,4022.3623],[-68.8453,-16.1273,4035.5798],[-68.8417,-16.1318,3966.2913],[-68.8399,-16.1401,4005.0386],[-68.7999,-16.1209,4238.9834],[-68.7972,-16.1168,4235.9629],[-68.7971,-16.1057,4131.2119],[-68.7907,-16.0995,4114.6465],[-68.7842,-16.0988,4111.4536],[-68.7791,-16.0953,4091.6392],[-68.7788,-16.092,4086.1099],[-68.7828,-16.0814,3988.1902],[-68.78,-16.0721,3954.6846],[-68.781,-16.0697,3970.9214],[-68.7792,-16.0679,3977.5762],[-68.7835,-16.0657,4003.3491],[-68.7824,-16.0556,4189.6533],[-68.7878,-16.0481,4214.8521],[-68.7932,-16.0459,4186.8418],[-68.7934,-16.0469,4190.9902],[-68.8006,-16.0461,4285.9585],[-68.8118,-16.041,4136.0107],[-68.8163,-16.0409,4142.5332],[-68.8215,-16.0361,4057.7192],[-68.8209,-16.0233,3816.7764],[-68.8141,-16.0187,3899.4993],[-68.8176,-16.014,3873.0718]]],
[[[-68.8645,-16.0731,3811.0],[-68.8619,-16.071,3821.6514],[-68.8623,-16.0688,3812.0698],[-68.8658,-16.0705,3810.1038],[-68.8665,-16.0728,3814.4719],[-68.8645,-16.0731,3811.0]]]]}}