{"type": "Feature","bbox": [-66.2337,-21.1736,-65.3462,-19.9661],"geometry": {"type": "MultiPolygon","coordinates": [[[[-65.3878,-20.5576,3480.2957],[-65.4151,-20.5531,3124.8411],[-65.4304,-20.5549,3240.4624],[-65.4357,-20.5608,3274.6934],[-65.4488,-20.5976,3259.7769],[-65.4498,-20.6218,3126.3743],[-65.4862,-20.6362,2515.7251],[-65.4949,-20.6298,2510.8987],[-65.494,-20.6276,2483.3567],[-65.4959,-20.6226,2508.6914],[-65.4905,-20.6158,2604.8164],[-65.4974,-20.6134,2487.2419],[-65.5006,-20.6088,2497.0056],[-65.4962,-20.6068,2496.3508],[-65.4933,-20.6034,2528.4529],[-65.492,-20.5974,2585.4922],[-65.4947,-20.5952,2508.5552],[-65.4942,-20.5914,2496.6731],[-65.4997,-20.5866,2711.4973],[-65.5041,-20.5791,2901.3123],[-65.5033,-20.5758,2920.0034],[-65.5086,-20.5715,2878.1057],[-65.5175,-20.569,2770.7007],[-65.555,-20.6,2684.6172],[-65.5588,-20.6003,2697.175],[-65.5611,-20.5982,2704.1855],[-65.5693,-20.5982,2728.1733],[-65.5835,-20.5904,2770.1196],[-65.5895,-20.5912,2773.4014],[-65.592,-20.5885,2782.4417],[-65.5987,-20.5924,2790.572],[-65.6059,-20.5906,2808.3848],[-65.6095,-20.5936,2802.1362],[-65.6146,-20.5938,2813.9817],[-65.6198,-20.5841,2833.1353],[-65.6187,-20.5816,2836.3147],[-65.6222,-20.5772,2850.9014],[-65.6347,-20.5718,2858.105],[-65.644,-20.5759,2889.3794],[-65.6494,-20.572,2890.1255],[-65.6509,-20.5626,2925.5112],[-65.6496,-20.5493,2972.635],[-65.6544,-20.5414,3003.9202],[-65.6538,-20.5336,3021.4121],[-65.6519,-20.531,2944.0718],[-65.6473,-20.5306,2923.3369],[-65.6441,-20.5281,2872.8057],[-65.6329,-20.533,3029.1877],[-65.6299,-20.5323,3050.2112],[-65.6192,-20.5356,3138.8579],[-65.5856,-20.5331,3085.3643],[-65.5798,-20.5284,2903.1179],[-65.5684,-20.5117,2574.9407],[-65.5696,-20.5042,2760.9678],[-65.5659,-20.4915,2797.2915],[-65.5623,-20.4852,2922.0593],[-65.5649,-20.4727,3021.6069],[-65.5684,-20.4682,3012.791],[-65.573,-20.4684,3051.1519],[-65.5795,-20.4531,3095.6377],[-65.5948,-20.4339,3102.396],[-65.607,-20.4261,3227.3921],[-65.6084,-20.4222,3178.6492],[-65.6072,-20.403199999999998,3116.7429],[-65.5977,-20.3816,3201.7422],[-65.5712,-20.3997,3140.0918],[-65.5723,-20.392,3148.1807],[-65.5661,-20.3822,3212.7698],[-65.5662,-20.3681,3237.873],[-65.5625,-20.356,3279.9465],[-65.556,-20.3469,3332.4946],[-65.5571,-20.3135,3304.9966],[-65.5544,-20.292,3287.8728],[-65.6078,-20.2587,3155.9468],[-65.6168,-20.2559,3152.8667],[-65.6277,-20.2502,3117.2666],[-65.6319,-20.2511,3121.3311],[-65.6388,-20.247,3257.1287],[-65.6503,-20.2482,3431.6614],[-65.649,-20.2392,3432.6021],[-65.6514,-20.2294,3418.1638],[-65.6484,-20.2231,3410.7036],[-65.6601,-20.2202,3338.2546],[-65.6713,-20.22,3229.5242],[-65.6818,-20.216,2792.9419],[-65.715,-20.1947,3473.4333],[-65.7501,-20.1526,3282.3027],[-65.7516,-20.1493,3307.7178],[-65.7511,-20.1447,3308.1379],[-65.755,-20.1364,3374.6279],[-65.76,-20.136,3452.2261],[-65.7616,-20.1326,3466.3333],[-65.7663,-20.1307,3543.6226],[-65.7706,-20.1264,3636.4385],[-65.7722,-20.1104,3779.8291],[-65.7708,-20.1031,3874.0293],[-65.7749,-20.0965,4272.3501],[-65.7853,-20.0905,4447.8823],[-65.793,-20.0649,4345.2197],[-65.7956,-20.0416,4313.9771],[-65.8034,-20.0328,4379.2964],[-65.8102,-20.0126,4475.9854],[-65.8384,-20.0049,4096.4839],[-65.8539,-19.9966,4360.2534],[-65.8574,-19.9906,4339.2734],[-65.8763,-19.9816,4516.707],[-65.8829,-19.9661,4416.5376],[-65.898,-19.9732,4313.7324],[-65.8967,-19.9774,4252.1157],[-65.8991,-19.9831,4146.2832],[-65.9011,-20.0019,4010.9255],[-65.8996,-20.0115,3976.0193],[-65.9024,-20.0214,3917.6079],[-65.9094,-20.0261,4072.9839],[-65.9048,-20.0383,4009.2183],[-65.9208,-20.0666,3777.5679],[-65.9165,-20.0761,3819.8225],[-65.9122,-20.0812,3627.645],[-65.9064,-20.0986,3992.3335],[-65.8946,-20.1121,3973.7773],[-65.896,-20.1138,3917.7617],[-65.9065,-20.1155,3730.658],[-65.9217,-20.1211,3912.0737],[-65.9187,-20.1258,3864.1841],[-65.9174,-20.133,4035.8452],[-65.9191,-20.1364,4060.5291],[-65.9056,-20.1615,3748.4277],[-65.9045,-20.1708,3636.2754],[-65.9077,-20.1759,3552.106],[-65.9104,-20.185,3032.6919],[-65.9251,-20.1968,3784.7173],[-65.9299,-20.2033,3876.6243],[-65.9329,-20.2117,3946.3481],[-65.9409,-20.2198,3926.8916],[-65.9481,-20.25,4359.9141],[-65.9468,-20.2567,4273.6235],[-65.94,-20.2686,4320.6558],[-65.9371,-20.2701,4287.7974],[-65.9306,-20.2784,4301.6968],[-65.9049,-20.2901,4066.8794],[-65.9013,-20.3001,4045.4155],[-65.9045,-20.3086,4120.7393],[-65.9148,-20.3139,4371.4556],[-65.921,-20.3324,4382.7065],[-65.9265,-20.3298,4378.1235],[-65.9339,-20.3474,4115.8115],[-65.9302,-20.37,3858.5757],[-65.9341,-20.3851,3273.9734],[-65.9265,-20.3956,3291.6021],[-65.9248,-20.4031,3236.4141],[-65.9214,-20.4043,3299.9458],[-65.92,-20.4075,3226.8311],[-65.9169,-20.409,3221.8721],[-65.9232,-20.4244,3340.9451],[-65.9244,-20.4259,3315.9233],[-65.9258,-20.4236,3354.4888],[-65.9281,-20.4234,3348.9832],[-65.9278,-20.4255,3360.3796],[-65.9294,-20.4259,3357.925],[-65.928,-20.4286,3374.1274],[-65.9382,-20.4349,3430.8684],[-65.9401,-20.4347,3424.2781],[-65.9413,-20.441,3574.2947],[-65.9619,-20.4523,3914.1475],[-65.9674,-20.4531,4002.5698],[-65.9688,-20.4573,4075.686],[-65.9666,-20.4646,4177.6396],[-65.9679,-20.4731,4078.2656],[-65.9778,-20.4774,3894.2444],[-65.9964,-20.4907,4004.385],[-66.0009,-20.4987,3742.2324],[-66.0075,-20.5041,3677.72],[-66.0276,-20.5062,3943.2668],[-66.0459,-20.5135,3281.6848],[-66.0522,-20.505,3283.531],[-66.0724,-20.489,3306.8853],[-66.0712,-20.4867,3306.6943],[-66.0736,-20.4833,3295.1431],[-66.0882,-20.4708,3366.8901],[-66.0901,-20.4666,3361.1816],[-66.0924,-20.4651,3372.3223],[-66.0889,-20.4588,3477.2844],[-66.09,-20.4527,3394.2224],[-66.0921,-20.4508,3408.8506],[-66.0914,-20.4488,3429.1724],[-66.0967,-20.4412,3481.3867],[-66.1032,-20.4363,3444.5247],[-66.1152,-20.4367,3820.8818],[-66.12,-20.4391,3791.269],[-66.1232,-20.4441,3862.0042],[-66.1285,-20.4452,3841.7925],[-66.1274,-20.4479,3796.9954],[-66.1293,-20.4518,3700.8433],[-66.1285,-20.4574,3464.2976],[-66.1332,-20.4612,3377.531],[-66.1309,-20.4687,3363.8223],[-66.133,-20.473,3365.1558],[-66.1482,-20.4748,3400.0151],[-66.1743,-20.481,3465.251],[-66.1832,-20.4816,3464.2378],[-66.1908,-20.4799,3481.9968],[-66.197,-20.4809,3514.7966],[-66.1996,-20.4822,3502.6606],[-66.2038,-20.4898,3520.355],[-66.2082,-20.4904,3525.6187],[-66.2165,-20.5041,3559.9744],[-66.2182,-20.5228,3900.6101],[-66.2119,-20.5312,3637.6035],[-66.2072,-20.5333,3550.145],[-66.1903,-20.5623,3677.3564],[-66.1926,-20.5957,4150.918],[-66.1946,-20.6019,4255.2886],[-66.1983,-20.6062,4354.4814],[-66.2018,-20.632,4824.3345],[-66.2046,-20.6354,4776.1006],[-66.2037,-20.638,4730.1533],[-66.1958,-20.6447,4626.2881],[-66.195,-20.66,4540.0835],[-66.1904,-20.6725,4503.666],[-66.1868,-20.6764,4518.9287],[-66.1832,-20.7092,4406.6714],[-66.1946,-20.7454,4333.9229],[-66.2049,-20.7534,4315.1611],[-66.2337,-20.7808,3805.5249],[-66.2332,-20.783,3791.9626],[-66.2295,-20.7875,3771.8633],[-66.2242,-20.7906,3743.9734],[-66.2208,-20.7997,3713.8081],[-66.2172,-20.8009,3712.7639],[-66.2116,-20.8079,3711.7629],[-66.2028,-20.8129,3671.9648],[-66.1982,-20.82,3661.21],[-66.1976,-20.8282,3638.4878],[-66.1952,-20.829,3632.4912],[-66.1918,-20.8344,3620.2488],[-66.1866,-20.8353,3605.5737],[-66.1817,-20.8429,3596.0332],[-66.1783,-20.8444,3588.124],[-66.1778,-20.8509,3575.8735],[-66.1729,-20.8572,3579.1282],[-66.171,-20.869,3523.8535],[-66.1667,-20.8727,3526.5735],[-66.0844,-20.9115,4290.2451],[-66.0619,-20.9157,4766.7686],[-66.04,-20.9164,5211.1895],[-66.0248,-20.9206,5049.6592],[-66.0163,-20.9202,4955.5889],[-66.0143,-20.9219,4995.4873],[-66.0119,-20.9293,4865.1914],[-65.9869,-20.9389,4406.4321],[-65.9743,-20.9414,4444.7646],[-65.9473,-20.9423,4198.9487],[-65.9454,-20.9484,4141.7456],[-65.9297,-20.9525,3939.9648],[-65.9141,-20.9701,4274.7441],[-65.8744,-20.9843,3372.1057],[-65.8698,-21.0054,3654.4016],[-65.8709,-21.0128,3854.6011],[-65.8936,-21.0401,4142.2964],[-65.8916,-21.08,4175.5054],[-65.8627,-21.0809,4049.9346],[-65.849,-21.083,3938.2065],[-65.8441,-21.0817,3819.9644],[-65.8419,-21.0789,3855.228],[-65.8377,-21.0788,3826.2109],[-65.8335,-21.0811,3600.0371],[-65.831,-21.0874,3670.0049],[-65.8267,-21.0923,3477.269],[-65.8155,-21.1015,3899.8491],[-65.8105,-21.1028,3752.9409],[-65.8077,-21.1064,3709.9812],[-65.8025,-21.1056,3685.4604],[-65.8027,-21.1114,3657.7944],[-65.7993,-21.1241,3701.0076],[-65.7954,-21.1274,3618.5825],[-65.7909,-21.1294,3571.2869],[-65.7869,-21.1276,3605.2629],[-65.7824,-21.1351,3549.4167],[-65.7788,-21.1358,3555.9238],[-65.775,-21.1399,3468.2947],[-65.7643,-21.135,3592.9956],[-65.7554,-21.1369,3802.7979],[-65.7472,-21.1429,3770.1462],[-65.7451,-21.1548,3843.7476],[-65.7229,-21.1603,3796.7698],[-65.7133,-21.17,3956.6689],[-65.707,-21.1736,3920.2278],[-65.7001,-21.1726,3707.6318],[-65.6883,-21.1592,3968.7429],[-65.686,-21.1538,3935.979],[-65.6754,-21.1516,3726.2546],[-65.6697,-21.155,3755.5303],[-65.6631,-21.1529,3636.7283],[-65.6609,-21.1501,3624.4924],[-65.6546,-21.1502,3465.7034],[-65.65,-21.147,3430.2466],[-65.6398,-21.1369,3354.5088],[-65.6388,-21.1241,3383.51],[-65.6295,-21.1296,3442.564],[-65.6149,-21.1332,3377.4204],[-65.6106,-21.1322,3389.7212],[-65.607,-21.1342,3330.5005],[-65.6056,-21.1311,3383.4343],[-65.6036,-21.1307,3406.1008],[-65.6009,-21.1343,3347.6831],[-65.5939,-21.137,3277.6899],[-65.584,-21.1328,3257.5498],[-65.5787,-21.135,3225.5015],[-65.5764,-21.1324,3219.7717],[-65.5758,-21.127,3213.1533],[-65.5701,-21.1241,3201.6785],[-65.5671,-21.1161,3247.8906],[-65.5621,-21.1152,3216.9507],[-65.5641,-21.1104,3160.2764],[-65.5624,-21.1047,3158.9414],[-65.5576,-21.1051,3219.0771],[-65.5559,-21.1032,3265.4873],[-65.5509,-21.1063,3271.9434],[-65.5473,-21.1024,3379.1306],[-65.5442,-21.1021,3395.6428],[-65.54,-21.1065,3390.3572],[-65.5355,-21.1083,3439.8994],[-65.5343,-21.1121,3414.0215],[-65.5319,-21.1136,3447.6614],[-65.5237,-21.1131,3531.7297],[-65.5222,-21.1151,3522.4976],[-65.5173,-21.1133,3601.0789],[-65.5142,-21.1156,3625.647],[-65.511,-21.1149,3744.853],[-65.5028,-21.1173,3842.1309],[-65.4931,-21.1163,3942.5986],[-65.4853,-21.1199,3807.4038],[-65.482,-21.1269,3769.0667],[-65.4789,-21.1298,3752.6868],[-65.4717,-21.131,3722.8875],[-65.4674,-21.1197,3744.6094],[-65.4578,-21.1206,3897.0347],[-65.455,-21.1166,3841.135],[-65.4469,-21.1143,3763.1892],[-65.4507,-21.1121,3790.0593],[-65.4503,-21.1081,3845.7275],[-65.4373,-21.1009,3724.6838],[-65.4356,-21.1036,3683.7212],[-65.4339,-21.1035,3657.8823],[-65.4285,-21.0988,3768.0515],[-65.4186,-21.0958,3829.4209],[-65.4206,-21.0613,3535.1128],[-65.4086,-21.0266,3839.7803],[-65.3999,-21.0069,3275.8354],[-65.3983,-20.9701,4003.918],[-65.4011,-20.9471,3634.7896],[-65.3907,-20.8976,3887.2646],[-65.3947,-20.8921,3977.5422],[-65.3805,-20.8805,3880.3394],[-65.38,-20.8752,3880.5828],[-65.3778,-20.874,3877.4585],[-65.3758,-20.8691,3837.231],[-65.3685,-20.8679,3861.5679],[-65.3625,-20.8717,3807.1631],[-65.3597,-20.871,3733.1191],[-65.3579,-20.8729,3751.6401],[-65.354,-20.8733,3833.8445],[-65.3523,-20.8669,3837.4673],[-65.3462,-20.8632,3824.95],[-65.3483,-20.8572,3802.7402],[-65.3478,-20.8542,3819.5054],[-65.3506,-20.8518,3800.061],[-65.3497,-20.8475,3645.3247],[-65.3508,-20.8435,3592.3984],[-65.3485,-20.839,3474.5984],[-65.3488,-20.8343,3501.6655],[-65.3468,-20.8324,3455.7747],[-65.3491,-20.8267,3446.6353],[-65.3492,-20.8213,3366.3145],[-65.3524,-20.8109,3378.9954],[-65.3586,-20.8052,3246.5415],[-65.3577,-20.8002,3209.9375],[-65.3644,-20.7918,3164.8086],[-65.3664,-20.7795,3058.2839],[-65.3715,-20.7722,3026.6504],[-65.3695,-20.7636,2900.0671],[-65.3723,-20.7586,2866.0586],[-65.3716,-20.7555,2883.8169],[-65.3763,-20.7512,3085.7471],[-65.3745,-20.7495,3071.4043],[-65.3753,-20.7467,3043.1899],[-65.3697,-20.7398,2984.5447],[-65.3688,-20.7365,2909.5471],[-65.3614,-20.7328,2628.8213],[-65.3607,-20.7299,2587.6116],[-65.3572,-20.7271,2464.522],[-65.358,-20.7146,2620.1113],[-65.3636,-20.7081,2675.8569],[-65.3638,-20.701,2701.106],[-65.3617,-20.6976,2817.0679],[-65.3644,-20.6881,2887.8032],[-65.3645,-20.6772,2929.1584],[-65.3632,-20.672,2935.7437],[-65.3584,-20.6674,2922.593],[-65.3575,-20.6579,2983.1628],[-65.3556,-20.6545,3025.4031],[-65.358,-20.6466,3162.4509],[-65.3564,-20.6451,3179.2402],[-65.356,-20.6398,3234.1887],[-65.3472,-20.6226,3270.6101],[-65.3497,-20.6145,3292.3145],[-65.3556,-20.6061,3354.4036],[-65.3546,-20.6023,3392.1157],[-65.3601,-20.5977,3383.7927],[-65.3642,-20.5989,3407.1902],[-65.3683,-20.5974,3449.7068],[-65.3824,-20.5817,3437.7498],[-65.3819,-20.5753,3435.7969],[-65.3878,-20.5576,3480.2957]]]]}
,"properties": {"GID_3": "BOL.7.11.1_2","GID_0": "BOL","country": "Bolivia","GID_1": "BOL.7_1","province": "Potosí","NL_NAME_1": "NA","GID_2": "BOL.7.11_2","county": "NorChichas","NL_NAME_2": "NA","city": "Cotagaita","VARNAME_3": "NA","NL_NAME_3": "NA","TYPE_3": "District","ENGTYPE_3": "Distrito","CC_3": "NA","HASC_3": "NA","name": "Cotagaita.city","area_km2": 6495.364,"hist_schema_id": "Elevation0-9000","hist_area_km2": {"2400": 2.737,"2425": 4.244,"2450": 5.613,"2475": 6.228,"2500": 6.982,"2525": 7.557,"2550": 10.414,"2575": 13.273,"2600": 18.931,"2625": 24.883,"2650": 30.36,"2675": 36.53,"2700": 44.116,"2725": 52.733,"2750": 63.347,"2775": 74.077,"2800": 85.567,"2825": 93.816,"2850": 102.182,"2875": 111.42,"2900": 114.299,"2925": 110.091,"2950": 113.062,"2975": 122.126,"3000": 128.113,"3025": 130.229,"3050": 132.753,"3075": 136.954,"3100": 143.372,"3125": 126.348,"3150": 126.325,"3175": 128.822,"3200": 127.435,"3225": 117.249,"3250": 111.818,"3275": 111.327,"3300": 111.744,"3325": 113.512,"3350": 114.386,"3375": 111.812,"3400": 113.521,"3425": 110.508,"3450": 112.791,"3475": 111.922,"3500": 109.921,"3525": 110.613,"3550": 109.987,"3575": 111.112,"3600": 114.105,"3625": 115.352,"3650": 117.596,"3675": 119.672,"3700": 117.173,"3725": 119.664,"3750": 119.431,"3775": 119.956,"3800": 117.845,"3825": 113.393,"3850": 109.925,"3875": 102.182,"3900": 95.234,"3925": 91.168,"3950": 84.667,"3975": 79.889,"4000": 75.067,"4025": 67.148,"4050": 60.699,"4075": 55.721,"4100": 49.651,"4125": 42.612,"4150": 41.464,"4175": 35.63,"4200": 31.35,"4225": 27.383,"4250": 24.844,"4275": 21.805,"4300": 17.683,"4325": 16.077,"4350": 13.182,"4375": 11.019,"4400": 8.814,"4425": 6.114,"4450": 5.32,"4475": 3.812,"4500": 3.235,"4525": 2.839,"4550": 2.618,"4575": 2.061,"4600": 1.664,"4625": 1.684,"4650": 1.525,"4675": 1.347,"4700": 1.367,"4725": 1.208,"4750": 0.931,"4775": 0.773,"4800": 0.495,"4825": 0.476,"4850": 0.515,"4875": 0.396,"4900": 0.337,"4925": 0.297,"4950": 0.297,"4975": 0.159,"5000": 0.297,"5025": 0.178,"5050": 0.099,"5075": 0.139,"5100": 0.079,"5125": 0.099,"5175": 0.059,"5250": 0.059,"5275": 0.059}}}