{"type": "Feature","bbox": [-66.3797,-19.1468,-65.3564,-18.4063],"geometry": {"type": "MultiPolygon","coordinates": [[[[-65.6413,-19.0118,3941.7783],[-65.6289,-19.0109,3862.7163],[-65.6241,-19.014,3732.7061],[-65.6171,-19.0138,3694.9175],[-65.6084,-19.0043,3663.2205],[-65.605,-19.0061,3623.6938],[-65.603,-19.0041,3628.4778],[-65.6023,-18.9953,3688.6877],[-65.6003,-18.9942,3764.4363],[-65.5915,-18.9938,4057.0615],[-65.5881,-18.9955,4028.3008],[-65.5873,-18.9978,3985.3894],[-65.584,-18.9984,3962.1929],[-65.5779,-18.994,3538.8799],[-65.57,-18.9924,3265.6494],[-65.5598,-18.9871,3119.1101],[-65.5535,-18.9887,3146.6873],[-65.5524,-18.9863,3120.5837],[-65.5495,-18.9863,3137.1555],[-65.5459,-18.982,3042.4617],[-65.5321,-18.9762,3326.7251],[-65.5271,-18.9678,3428.0303],[-65.5236,-18.9558,3814.5925],[-65.5192,-18.9513,3855.4001],[-65.5128,-18.9499,3856.1372],[-65.5097,-18.9483,3919.3403],[-65.5082,-18.9453,3969.0781],[-65.5025,-18.9436,4024.6587],[-65.5015,-18.9424,3986.0576],[-65.5055,-18.9412,3966.4863],[-65.4994,-18.9378,3890.9668],[-65.4962,-18.9378,3810.1384],[-65.4889,-18.9311,3740.6489],[-65.4861,-18.9317,3690.9888],[-65.4849,-18.9277,3642.8804],[-65.4809,-18.9259,3613.3809],[-65.4681,-18.9233,3167.6887],[-65.4655,-18.9246,3137.9648],[-65.463,-18.9295,3093.9163],[-65.4603,-18.9304,3100.7603],[-65.4531,-18.9275,3391.186],[-65.4535,-18.925,3423.4414],[-65.4495,-18.921,3485.8193],[-65.441,-18.9185,3450.394],[-65.4366,-18.92,3466.2371],[-65.4287,-18.9293,3424.4543],[-65.4255,-18.9274,3270.0122],[-65.4245,-18.9303,3348.0122],[-65.4217,-18.9305,3470.8628],[-65.4138,-18.9454,3569.4976],[-65.4088,-18.9434,3394.4922],[-65.4036,-18.9326,3336.0479],[-65.403,-18.9281,3365.7393],[-65.4047,-18.9257,3345.3523],[-65.3976,-18.9189,3270.7275],[-65.4017,-18.9038,3071.3687],[-65.4049,-18.8994,3075.3],[-65.4071,-18.8993,3065.0845],[-65.4096,-18.8935,3071.2634],[-65.4092,-18.8895,3062.9846],[-65.4117,-18.8888,3062.3101],[-65.4122,-18.8854,3111.5479],[-65.4146,-18.8862,3114.6113],[-65.4191,-18.8802,3110.6895],[-65.4242,-18.8789,3167.978],[-65.4206,-18.8767,3054.8047],[-65.4165,-18.865,2810.1558],[-65.4197,-18.8589,2908.616],[-65.421,-18.8522,3138.5305],[-65.4239,-18.8527,3169.7239],[-65.4287,-18.8372,3118.335],[-65.4378,-18.8344,3110.342],[-65.443,-18.8353,3217.1509],[-65.4437,-18.8314,3203.1475],[-65.4355,-18.8249,3127.6479],[-65.4343,-18.8216,3179.2688],[-65.4384,-18.8143,3209.7202],[-65.4382,-18.8113,3214.0271],[-65.4318,-18.8094,3160.5637],[-65.4306,-18.8073,3148.4072],[-65.4314,-18.8041,3092.3359],[-65.4268,-18.7996,3108.9248],[-65.4278,-18.7957,3140.3052],[-65.4198,-18.7875,2845.2021],[-65.4176,-18.7789,2742.5383],[-65.4135,-18.7789,2736.1326],[-65.412,-18.7769,2867.8667],[-65.4059,-18.7749,3106.4707],[-65.4023,-18.7779,3063.2861],[-65.3911,-18.7949,2924.9033],[-65.3871,-18.7962,2993.0728],[-65.3857,-18.7929,2807.613],[-65.3866,-18.7876,2629.8718],[-65.3825,-18.7864,2625.1023],[-65.3835,-18.7849,2609.021],[-65.3808,-18.7826,2628.9883],[-65.3793,-18.7851,2611.8328],[-65.3749,-18.7839,2610.8281],[-65.3714,-18.7788,2625.0669],[-65.3673,-18.7813,2570.3308],[-65.3687,-18.785,2529.7356],[-65.3666,-18.7867,2544.5588],[-65.3663,-18.7903,2524.6719],[-65.363,-18.7886,2677.292],[-65.3597,-18.7892,2768.9541],[-65.3564,-18.7864,2936.6785],[-65.3601,-18.7827,2829.365],[-65.3594,-18.7803,2808.9114],[-65.3647,-18.7744,2782.3762],[-65.3675,-18.7749,2774.7642],[-65.3702,-18.7733,2798.4775],[-65.3749,-18.7748,2807.5999],[-65.3772,-18.7727,2852.3486],[-65.3829,-18.7718,2884.7769],[-65.3868,-18.7759,2958.3579],[-65.3898,-18.775,2962.8269],[-65.3956,-18.7777,2984.7825],[-65.4033,-18.7707,3133.4426],[-65.4074,-18.773,3103.4624],[-65.4226,-18.7611,3051.4189],[-65.4239,-18.7596,3025.9961],[-65.4226,-18.7569,3011.9446],[-65.4272,-18.7542,3062.1865],[-65.4269,-18.7511,3158.04],[-65.4292,-18.748,3143.7495],[-65.4255,-18.7445,3001.7109],[-65.4242,-18.738,3015.6565],[-65.4174,-18.7338,3150.2002],[-65.4188,-18.7291,3110.4304],[-65.4145,-18.7233,2916.0176],[-65.4138,-18.7186,2848.2913],[-65.4105,-18.7175,2854.2256],[-65.4114,-18.713,2797.2178],[-65.4064,-18.7103,2877.2373],[-65.4006,-18.702,3214.4971],[-65.4085,-18.6975,3133.179],[-65.4145,-18.6897,2967.7866],[-65.4145,-18.6812,2823.3855],[-65.4168,-18.6783,2772.3044],[-65.4163,-18.6747,2708.3074],[-65.4181,-18.6701,2819.0242],[-65.417,-18.6661,2944.2705],[-65.4191,-18.6632,2961.2759],[-65.4143,-18.6598,3078.6536],[-65.411,-18.6518,3430.4346],[-65.4074,-18.6526,3417.9937],[-65.4039,-18.6559,3501.9175],[-65.4028,-18.654,3508.468],[-65.4001,-18.6539,3541.2729],[-65.3933,-18.6562,3420.4197],[-65.3894,-18.6532,3312.062],[-65.3839,-18.6419,2968.9944],[-65.3813,-18.641,3079.9919],[-65.3834,-18.6382,3074.9006],[-65.3902,-18.6355,3111.2722],[-65.3921,-18.6282,3172.6379],[-65.4027,-18.617,3274.7524],[-65.4082,-18.6132,3358.0581],[-65.4124,-18.613,3366.6899],[-65.4163,-18.6106,3467.9214],[-65.4216,-18.605,3463.8945],[-65.4277,-18.6034,3419.6694],[-65.4339,-18.6063,3239.8442],[-65.4357,-18.6099,3326.2544],[-65.434,-18.6131,3400.3181],[-65.4367,-18.616,3402.0913],[-65.4376,-18.6137,3413.2075],[-65.4476,-18.6064,3367.1211],[-65.4621,-18.606,3393.4568],[-65.4668,-18.5977,3254.9751],[-65.4751,-18.5967,3291.8386],[-65.4756,-18.5927,3188.4233],[-65.4811,-18.5928,3214.1667],[-65.486,-18.5908,3323.2373],[-65.4889,-18.5824,3240.8745],[-65.491,-18.5817,3260.5693],[-65.4912,-18.5792,3240.9565],[-65.4951,-18.5758,3168.6445],[-65.4945,-18.5692,3111.5698],[-65.5013,-18.564,3121.1328],[-65.5013,-18.5597,2900.9785],[-65.4965,-18.5496,2558.3457],[-65.4968,-18.5452,2471.9985],[-65.4933,-18.5378,2378.7375],[-65.496,-18.5358,2370.0945],[-65.504,-18.5438,2754.7],[-65.5143,-18.5475,3106.551],[-65.516,-18.5393,3078.3982],[-65.5261,-18.5265,3173.7129],[-65.5299,-18.5274,3125.0896],[-65.5343,-18.5258,3112.9849],[-65.5558,-18.514,3194.489],[-65.5639,-18.5118,3169.2798],[-65.5757,-18.5018,3013.1187],[-65.5839,-18.4983,3059.1689],[-65.6115,-18.4966,2559.3684],[-65.6187,-18.5003,2173.3857],[-65.6238,-18.5011,2019.4591],[-65.6229,-18.5123,2028.7131],[-65.626,-18.5193,2036.5543],[-65.627,-18.5285,2078.0154],[-65.6256,-18.5345,2065.8191],[-65.6187,-18.5447,2062.5686],[-65.6192,-18.5471,2064.137],[-65.6234,-18.5503,2068.9248],[-65.6267,-18.5617,2088.0095],[-65.6255,-18.5717,2091.8057],[-65.6418,-18.5782,2109.7512],[-65.6434,-18.5887,2121.5667],[-65.6497,-18.5918,2129.7688],[-65.6538,-18.5968,2155.6191],[-65.6548,-18.6038,2143.5234],[-65.6531,-18.6077,2230.9912],[-65.6563,-18.6127,2152.0317],[-65.6612,-18.6152,2202.4868],[-65.6666,-18.6141,2162.5359],[-65.6742,-18.6149,2172.74],[-65.6788,-18.6132,2179.613],[-65.6824,-18.6159,2183.3655],[-65.6883,-18.6162,2189.0935],[-65.6957,-18.6121,2200.4932],[-65.6989,-18.6081,2209.0688],[-65.7025,-18.6085,2214.3408],[-65.7045,-18.603,2243.6025],[-65.7096,-18.5978,2265.5562],[-65.716,-18.5965,2246.894],[-65.7167,-18.5913,2223.5791],[-65.7207,-18.5854,2306.2686],[-65.7269,-18.5827,2235.4443],[-65.7284,-18.5793,2241.532],[-65.7339,-18.5773,2265.2686],[-65.7363,-18.5708,2251.4932],[-65.7394,-18.57,2252.1318],[-65.7426,-18.5653,2259.7307],[-65.7495,-18.5622,2267.2983],[-65.7508,-18.5566,2270.6973],[-65.7548,-18.5563,2286.4644],[-65.7576,-18.5541,2277.4724],[-65.7594,-18.5514,2289.3755],[-65.7592,-18.5448,2285.6318],[-65.7631,-18.5402,2291.3093],[-65.7639,-18.5358,2365.5264],[-65.77,-18.525,2326.0105],[-65.7861,-18.5149,2328.6965],[-65.789,-18.5152,2330.5793],[-65.7907,-18.5179,2347.8984],[-65.8048,-18.5128,2352.1064],[-65.8157,-18.5009,2370.8569],[-65.8408,-18.4882,2430.1575],[-65.8542,-18.4771,2432.0996],[-65.8578,-18.4769,2435.439],[-65.86,-18.4808,2439.6577],[-65.8641,-18.4827,2483.8982],[-65.8693,-18.4816,2451.4116],[-65.8707,-18.4787,2527.1768],[-65.8764,-18.4781,2506.8271],[-65.8806,-18.4755,2488.6436],[-65.8827,-18.4771,2480.1807],[-65.8856,-18.4954,2513.7664],[-65.8809,-18.5135,2523.5798],[-65.8865,-18.5248,2548.2261],[-65.8867,-18.5306,2543.479],[-65.8932,-18.5322,2552.0991],[-65.8983,-18.5312,2652.2798],[-65.9004,-18.5336,2565.0942],[-65.9066,-18.5348,2580.9744],[-65.9099,-18.5399,2637.1074],[-65.9205,-18.5431,2611.5688],[-65.923,-18.539,2611.3062],[-65.928,-18.5387,2621.7339],[-65.9344,-18.5352,2622.7764],[-65.9426,-18.5384,2657.6226],[-65.9465,-18.5366,2641.3237],[-65.9488,-18.5332,2638.9448],[-65.9585,-18.5289,2661.02],[-65.9615,-18.5241,2698.6885],[-65.9659,-18.5215,2856.3533],[-65.9847,-18.5219,3522.8345],[-65.9959,-18.5198,3769.7715],[-66.0086,-18.5064,3949.627],[-66.0131,-18.5044,3892.5261],[-66.0186,-18.4986,3953.1157],[-66.0261,-18.4955,4142.8379],[-66.0285,-18.4903,4106.0586],[-66.0326,-18.4873,4161.5688],[-66.0356,-18.4806,4107.9004],[-66.0398,-18.4766,4083.9441],[-66.0411,-18.4711,4063.7915],[-66.0531,-18.4631,4137.5015],[-66.0639,-18.4611,4087.429],[-66.0689,-18.458,4128.5693],[-66.0753,-18.4579,4191.6094],[-66.0826,-18.4542,4173.9629],[-66.0887,-18.4546,4274.5376],[-66.0922,-18.4484,4308.7554],[-66.0953,-18.4474,4334.2266],[-66.0993,-18.442,4303.7065],[-66.1071,-18.4363,4127.2119],[-66.1122,-18.421,4144.3984],[-66.1154,-18.4169,4206.9102],[-66.1315,-18.4077,4157.2383],[-66.1516,-18.4063,4132.7407],[-66.1627,-18.4083,4375.0215],[-66.1679,-18.418,4213.1406],[-66.1745,-18.4257,4038.6191],[-66.1793,-18.4277,4057.9253],[-66.1858,-18.4384,3888.7866],[-66.1876,-18.4453,3640.6396],[-66.186,-18.4505,3505.8179],[-66.1918,-18.4523,3258.2837],[-66.2019,-18.46,3135.1902],[-66.207,-18.4598,2993.1133],[-66.2042,-18.4701,2992.7666],[-66.202,-18.4726,3001.229],[-66.1993,-18.4738,2967.1648],[-66.1944,-18.481,3028.1411],[-66.1825,-18.4894,2938.8423],[-66.1799,-18.4898,2906.491],[-66.1774,-18.4941,2903.0244],[-66.1853,-18.5033,3040.7817],[-66.1898,-18.5176,2948.3252],[-66.1928,-18.5208,2989.8809],[-66.1962,-18.5196,2990.0068],[-66.2037,-18.5213,3039.4729],[-66.2064,-18.518,2986.8623],[-66.2072,-18.513,3037.0356],[-66.2104,-18.5148,3060.3677],[-66.2151,-18.513,3033.5039],[-66.222,-18.5186,3001.2349],[-66.2258,-18.5169,3024.833],[-66.2305,-18.5225,3016.6379],[-66.2324,-18.5218,3029.8132],[-66.235,-18.5255,3035.2158],[-66.2384,-18.5262,3060.1965],[-66.2447,-18.5437,3060.8992],[-66.2503,-18.5484,3142.4021],[-66.2512,-18.5527,3106.894],[-66.2501,-18.5586,3108.8804],[-66.2514,-18.5596,3121.7754],[-66.2545,-18.5593,3090.0447],[-66.2578,-18.553,3082.5054],[-66.2615,-18.55,3103.2007],[-66.2648,-18.5515,3110.4556],[-66.2745,-18.5508,3113.4026],[-66.2787,-18.5536,3109.6943],[-66.2785,-18.5602,3129.5371],[-66.2813,-18.5671,3174.1045],[-66.2866,-18.5735,3184.2935],[-66.2869,-18.5791,3187.2058],[-66.2842,-18.5853,3201.8562],[-66.2847,-18.5916,3220.0491],[-66.2752,-18.5972,3241.9019],[-66.274,-18.5994,3282.8198],[-66.2746,-18.6097,3344.022],[-66.2797,-18.6164,3316.7791],[-66.2857,-18.6176,3284.4478],[-66.2871,-18.6285,3310.9478],[-66.2901,-18.6302,3309.7126],[-66.2914,-18.6348,3303.3945],[-66.2908,-18.6367,3312.6792],[-66.2871,-18.6373,3346.8523],[-66.2871,-18.6414,3306.9836],[-66.2852,-18.6421,3306.9836],[-66.2813,-18.6515,3335.3132],[-66.2795,-18.6511,3345.2446],[-66.2778,-18.6531,3332.4536],[-66.2798,-18.6533,3301.4575],[-66.278,-18.6558,3317.4419],[-66.2793,-18.6574,3327.3982],[-66.277,-18.6591,3310.5139],[-66.276,-18.6632,3349.207],[-66.2853,-18.6665,3754.7952],[-66.2859,-18.6713,3808.5767],[-66.2911,-18.6775,3681.8882],[-66.3022,-18.6805,3552.0637],[-66.3013,-18.6833,3541.5398],[-66.3134,-18.6941,3561.3452],[-66.3139,-18.6965,3556.6445],[-66.3233,-18.7058,4049.4231],[-66.3577,-18.7272,4135.1562],[-66.3663,-18.7274,4050.9089],[-66.3797,-18.7384,4228.9312],[-66.3756,-18.7447,4202.2476],[-66.3743,-18.752,4239.5723],[-66.3644,-18.7653,4176.5981],[-66.3524,-18.7922,4189.1211],[-66.3512,-18.8039,4141.1338],[-66.3461,-18.81,4264.4717],[-66.3417,-18.8231,4407.1743],[-66.3429,-18.8297,4372.9683],[-66.3331,-18.8524,4469.6841],[-66.33,-18.8628,4468.748],[-66.3305,-18.8675,4476.4502],[-66.3221,-18.8848,4435.3218],[-66.3201,-18.8959,4453.0981],[-66.3158,-18.8991,4505.7051],[-66.3113,-18.9096,4635.6919],[-66.3132,-18.9217,4619.1621],[-66.3018,-18.9333,4680.2373],[-66.3017,-18.9478,4685.5591],[-66.2985,-18.9707,4794.8896],[-66.3017,-18.9906,4741.4399],[-66.2951,-18.9961,4714.6074],[-66.2817,-19.0148,4744.6738],[-66.2689,-19.0089,4650.1245],[-66.2485,-19.0082,4478.229],[-66.2415,-19.0052,4568.0444],[-66.2281,-18.9949,4511.0254],[-66.2252,-18.9942,4473.8281],[-66.2214,-18.996,4407.1777],[-66.2152,-18.9938,4326.8965],[-66.2123,-18.9946,4263.9487],[-66.2034,-18.9909,4100.8535],[-66.1983,-18.987,4063.3665],[-66.1934,-18.9867,4011.5898],[-66.1882,-18.9827,3949.7876],[-66.1839,-18.9822,3935.7366],[-66.1839,-18.9849,3916.7087],[-66.1811,-18.9866,3918.2729],[-66.1791,-18.9906,3947.666],[-66.1762,-19.0207,4041.8696],[-66.1719,-19.0199,4043.5815],[-66.1529,-19.0307,4063.0029],[-66.1353,-19.0541,3865.0273],[-66.13,-19.0536,4066.6831],[-66.125,-19.0593,4167.9087],[-66.1204,-19.0618,4236.5659],[-66.1148,-19.0703,4437.6611],[-66.1063,-19.0765,4502.6211],[-66.106,-19.0847,4612.3916],[-66.102,-19.0859,4576.8496],[-66.0883,-19.0835,4364.4297],[-66.0793,-19.0856,4294.3149],[-66.0771,-19.0737,4235.085],[-66.0674,-19.0571,4008.4517],[-66.0689,-19.0517,3975.2297],[-66.0623,-19.0486,3947.5474],[-66.0573,-19.0515,3887.9192],[-66.0493,-19.0474,4120.6875],[-66.0457,-19.0492,4114.499],[-66.0364,-19.0275,4169.2051],[-66.0288,-19.0229,4229.7632],[-66.0242,-19.014,4099.9678],[-66.0123,-19.0091,3937.3594],[-66.0007,-18.9939,3794.3062],[-65.9963,-18.9904,3820.8081],[-65.9757,-18.9841,4068.7583],[-65.9673,-18.9898,4070.8398],[-65.9609,-18.9805,4094.0337],[-65.934,-18.9728,4419.9985],[-65.92,-18.9733,4434.5938],[-65.8864,-18.9689,4518.1289],[-65.8731,-18.9714,4440.8623],[-65.8638,-18.9797,4605.3887],[-65.8543,-19.0027,4470.3789],[-65.8331,-19.0198,4433.832],[-65.8254,-19.0232,4471.3701],[-65.823,-19.027,4442.0762],[-65.8142,-19.0247,4200.167],[-65.8054,-19.0269,4121.4912],[-65.7955,-19.0273,4095.9292],[-65.785,-19.0366,4045.2861],[-65.7802,-19.0387,4013.832],[-65.7689,-19.0307,3972.9211],[-65.7642,-19.0348,3951.175],[-65.758,-19.034,3951.8108],[-65.7481,-19.0425,4276.4873],[-65.7397,-19.046,4230.3159],[-65.7327,-19.0558,4347.0981],[-65.7415,-19.0768,4641.6147],[-65.7337,-19.0788,4477.1973],[-65.7295,-19.094,4399.9185],[-65.7258,-19.1005,4337.4678],[-65.7221,-19.1042,4248.4082],[-65.7168,-19.1049,4093.6714],[-65.7099,-19.1117,3907.7952],[-65.7,-19.1254,3825.9409],[-65.6982,-19.1258,3837.2178],[-65.6959,-19.1325,3839.7148],[-65.6927,-19.1349,3865.3914],[-65.6883,-19.1422,3880.2744],[-65.6622,-19.1436,3167.6758],[-65.6572,-19.1468,2933.0552],[-65.6549,-19.1397,2928.2197],[-65.6561,-19.1341,2923.7988],[-65.6527,-19.1313,2931.2803],[-65.6546,-19.1276,2926.4756],[-65.6519,-19.1242,2964.188],[-65.6495,-19.124,2928.0991],[-65.6477,-19.1166,2921.6975],[-65.6502,-19.1085,2944.4346],[-65.6579,-19.0962,2999.314],[-65.6575,-19.0917,3035.9688],[-65.6512,-19.0833,3155.1462],[-65.653,-19.0768,3108.8398],[-65.6497,-19.0737,3169.3718],[-65.6491,-19.063,3239.6602],[-65.6519,-19.0507,3300.3438],[-65.6558,-19.0456,3346.2434],[-65.656,-19.0401,3467.9795],[-65.6595,-19.0334,3516.02],[-65.6499,-19.0133,4168.2334],[-65.6413,-19.0118,3941.7783]]]]}
,"properties": {"GID_2": "BOL.7.4_2","GID_0": "BOL","country": "Bolivia","GID_1": "BOL.7_1","province": "Potosí","NL_NAME_1": "NA","county": "Chayanta","VARNAME_2": "NA","NL_NAME_2": "NA","TYPE_2": "Provincia","ENGTYPE_2": "Province","CC_2": "NA","HASC_2": "NA","name": "Chayanta.county","area_km2": 5169.616,"hist_schema_id": "Elevation0-9000","hist_area_km2": {"2025": 0.583,"2050": 1.508,"2075": 2.372,"2100": 2.854,"2125": 2.734,"2150": 2.955,"2175": 3.517,"2200": 4.643,"2225": 5.245,"2250": 5.567,"2275": 6.431,"2300": 7.034,"2325": 7.175,"2350": 7.737,"2375": 7.737,"2400": 8.782,"2425": 9.325,"2450": 9.767,"2475": 10.57,"2500": 11.595,"2525": 11.896,"2550": 12.7,"2575": 13.764,"2600": 14.709,"2625": 15.231,"2650": 16.677,"2675": 19.088,"2700": 20.797,"2725": 21.599,"2750": 22.262,"2775": 23.568,"2800": 24.19,"2825": 26.882,"2850": 27.484,"2875": 26.319,"2900": 27.685,"2925": 30.756,"2950": 30.013,"2975": 31.478,"3000": 34.189,"3025": 35.613,"3050": 38.721,"3075": 44.98,"3100": 47.485,"3125": 47.688,"3150": 49.594,"3175": 52.06,"3200": 51.919,"3225": 57.461,"3250": 54.71,"3275": 56.219,"3300": 56.019,"3325": 58.85,"3350": 67.022,"3375": 70.053,"3400": 74.688,"3425": 78.341,"3450": 85.704,"3475": 97.039,"3500": 104.788,"3525": 102.254,"3550": 101.008,"3575": 103.997,"3600": 105.363,"3625": 111.119,"3650": 108.95,"3675": 105.336,"3700": 100.74,"3725": 99.558,"3750": 98.395,"3775": 102.772,"3800": 101.965,"3825": 107.365,"3850": 104.053,"3875": 103.032,"3900": 103.714,"3925": 103.611,"3950": 105.101,"3975": 113.832,"4000": 118.86,"4025": 109.621,"4050": 101.655,"4075": 95.478,"4100": 85.962,"4125": 83.029,"4150": 72.608,"4175": 69.358,"4200": 66.705,"4225": 61.446,"4250": 57.772,"4275": 55.904,"4300": 48.72,"4325": 46.594,"4350": 42.882,"4375": 38.949,"4400": 33.632,"4425": 34.173,"4450": 31.123,"4475": 26.449,"4500": 20.75,"4525": 14.99,"4550": 11.759,"4575": 8.769,"4600": 7.505,"4625": 6.401,"4650": 7.364,"4675": 6.621,"4700": 5.92,"4725": 5.055,"4750": 5.115,"4775": 3.892,"4800": 2.528,"4825": 1.044,"4850": 0.361,"4900": 0.06}}}