{"type": "Feature","bbox": [-68.7894,-16.7727,-68.1537,-15.9714],"geometry": {"type": "MultiPolygon","coordinates": [[[[-68.519,-16.7419,4310.5225],[-68.4946,-16.7727,4190.4102],[-68.4837,-16.77,4184.7573],[-68.4623,-16.7256,3960.8406],[-68.4495,-16.7078,3953.8782],[-68.4375,-16.686,3959.6172],[-68.4295,-16.6848,3938.1497],[-68.4272,-16.6799,3933.4624],[-68.392,-16.6511,3847.5544],[-68.384,-16.6226,3851.4858],[-68.3556,-16.611,3845.9512],[-68.3392,-16.6004,3885.761],[-68.3271,-16.5903,3859.634],[-68.3248,-16.5921,3859.3267],[-68.3239,-16.596,3858.6248],[-68.32,-16.594,3858.9609],[-68.3162,-16.5854,3862.1404],[-68.2982,-16.5697,3873.1011],[-68.296,-16.5613,3878.6646],[-68.2906,-16.5528,3892.636],[-68.2849,-16.5483,3895.6711],[-68.2736,-16.5472,3905.9346],[-68.2669,-16.5505,3910.8301],[-68.2622,-16.5592,3912.5],[-68.2533,-16.5608,3921.3953],[-68.2367,-16.5435,3943.3638],[-68.2663,-16.5246,3924.1514],[-68.283,-16.5363,3902.5044],[-68.2971,-16.5299,3895.1113],[-68.2874,-16.5105,3910.3069],[-68.3005,-16.5102,3896.541],[-68.305,-16.5075,3895.7722],[-68.2974,-16.491,3918.8203],[-68.289,-16.4834,3940.0376],[-68.2824,-16.4717,3963.5474],[-68.2764,-16.4649,3984.5388],[-68.2766,-16.4622,3987.4373],[-68.2705,-16.4559,4007.8589],[-68.2704,-16.4446,4046.6201],[-68.2633,-16.4337,4092.4355],[-68.2434,-16.3927,4248.3013],[-68.2163,-16.3835,4400.0146],[-68.2055,-16.3365,4606.5],[-68.1991,-16.3288,4645.4316],[-68.1931,-16.3246,4711.0513],[-68.1909,-16.3153,4743.4102],[-68.1849,-16.3056,4806.2593],[-68.1853,-16.3026,4831.7661],[-68.1703,-16.2928,5168.6177],[-68.1656,-16.2775,5315.0649],[-68.1537,-16.2626,6003.2451],[-68.1813,-16.2373,5259.124],[-68.2147,-16.2173,4947.9912],[-68.21,-16.2111,4971.9189],[-68.2076,-16.201,5073.2549],[-68.2143,-16.1913,5077.5146],[-68.2174,-16.1892,5293.7974],[-68.2182,-16.184,5137.3662],[-68.2162,-16.181,5177.7554],[-68.2178,-16.1744,5282.0264],[-68.2176,-16.1538,4951.5967],[-68.2251,-16.1246,4799.2852],[-68.2316,-16.1151,4967.1152],[-68.241,-16.1079,5029.0654],[-68.2515,-16.0841,4758.6748],[-68.2682,-16.0723,4598.6587],[-68.3108,-16.048,5177.3672],[-68.339,-16.0387,5454.0771],[-68.3606,-16.0266,5527.686],[-68.3624,-16.009,5344.5684],[-68.3738,-15.9975,5558.5527],[-68.3808,-15.9935,5811.7896],[-68.3838,-15.9833,5913.0469],[-68.3879,-15.9785,5777.8809],[-68.3916,-15.9765,5805.3662],[-68.3957,-15.9765,5844.9551],[-68.3998,-15.9727,5587.2847],[-68.4047,-15.9714,5420.5664],[-68.4067,-15.9777,5351.3828],[-68.4137,-15.9856,5094.1079],[-68.4137,-15.9984,5427.709],[-68.4203,-16.0082,5382.6709],[-68.439,-16.0115,5070.4961],[-68.4456,-16.0108,4940.1699],[-68.4582,-16.0127,4664.4434],[-68.4675,-16.0167,4668.5391],[-68.4908,-16.0167,4527.2275],[-68.4963,-16.0141,4676.5254],[-68.4963,-16.0221,4483.6797],[-68.5043,-16.0292,4480.875],[-68.5074,-16.0362,4494.7764],[-68.5056,-16.0412,4461.3853],[-68.5001,-16.0453,4462.8281],[-68.498,-16.0494,4464.3101],[-68.5014,-16.0623,4346.4316],[-68.501,-16.0667,4280.4829],[-68.5075,-16.0702,4225.3008],[-68.5125,-16.0698,4198.564],[-68.5251,-16.0791,4146.6694],[-68.5466,-16.082,4072.2769],[-68.5398,-16.0871,4091.8164],[-68.5435,-16.0903,4062.7866],[-68.5484,-16.0996,4003.5869],[-68.5498,-16.1059,3988.884],[-68.5396,-16.107,4065.4739],[-68.5229,-16.1157,4022.5022],[-68.507,-16.1187,4064.0657],[-68.5009,-16.1335,4212.1074],[-68.5097,-16.1314,4164.9004],[-68.5187,-16.121,4053.2668],[-68.5274,-16.1282,4027.8376],[-68.5306,-16.1719,3922.1938],[-68.5177,-16.1791,3937.022],[-68.5114,-16.1871,3944.9624],[-68.5243,-16.2071,3934.3582],[-68.5308,-16.1977,3926.8235],[-68.5529,-16.1975,3910.1682],[-68.5691,-16.2252,4031.9448],[-68.558,-16.2354,4085.4033],[-68.5504,-16.2477,4040.7705],[-68.5737,-16.2562,3810.7646],[-68.573,-16.2577,3811.001],[-68.602,-16.2593,3808.5],[-68.6387,-16.2397,3808.5],[-68.6526,-16.2468,3808.5],[-68.6905,-16.2854,3808.5],[-68.7249,-16.3137,3808.5],[-68.7634,-16.2806,3808.5],[-68.7789,-16.2794,3808.5],[-68.7894,-16.2908,3808.5],[-68.7882,-16.3214,3808.5],[-68.756,-16.3604,3808.5],[-68.7254,-16.378,3808.5],[-68.7198,-16.3957,3811.4409],[-68.7215,-16.398,3811.0618],[-68.7141,-16.4011,3811.4111],[-68.715,-16.4042,3811.3208],[-68.7251,-16.4153,3811.4109],[-68.7284,-16.4219,3811.0981],[-68.7166,-16.446,3878.092],[-68.7126,-16.461,3934.5723],[-68.7048,-16.4744,4013.1426],[-68.7053,-16.4909,3972.626],[-68.7039,-16.4978,4030.7988],[-68.7074,-16.5033,4060.7905],[-68.7024,-16.5165,4116.6914],[-68.6991,-16.519,4097.5132],[-68.6808,-16.5239,4110.355],[-68.675,-16.5225,4148.502],[-68.6556,-16.5225,4130.1528],[-68.6527,-16.5209,4132.8828],[-68.6382,-16.5229,4160.8271],[-68.6312,-16.5273,4123.416],[-68.6291,-16.5257,4151.0479],[-68.6177,-16.5304,4156.5063],[-68.6151,-16.5297,4168.6206],[-68.6186,-16.5252,4158.6265],[-68.6199,-16.5201,4153.9746],[-68.6129,-16.5171,4014.7739],[-68.6003,-16.53,3982.3767],[-68.5883,-16.5477,3905.8005],[-68.5932,-16.5573,3873.9714],[-68.5935,-16.5632,3865.5022],[-68.5958,-16.5651,3862.5051],[-68.5955,-16.5707,3850.9075],[-68.5933,-16.5726,3844.8599],[-68.5951,-16.5757,3843.5181],[-68.5886,-16.5811,3845.1448],[-68.6048,-16.6206,3962.614],[-68.608,-16.6423,4383.5063],[-68.6054,-16.643,4300.7207],[-68.5963,-16.6574,4382.7607],[-68.5956,-16.6625,4347.3438],[-68.5928,-16.6664,4433.6763],[-68.5934,-16.6761,4592.0898],[-68.5428,-16.7081,4635.0933],[-68.519,-16.7419,4310.5225]]]]}
,"properties": {"GID_2": "BOL.4.14_2","GID_0": "BOL","country": "Bolivia","GID_1": "BOL.4_1","province": "LaPaz","NL_NAME_1": "NA","county": "LosAndes","VARNAME_2": "NA","NL_NAME_2": "NA","TYPE_2": "Provincia","ENGTYPE_2": "Province","CC_2": "NA","HASC_2": "NA","name": "Los_Andes.county","area_km2": 2970.042,"hist_schema_id": "Elevation0-9000","hist_area_km2": {"3800": 206.582,"3825": 389.213,"3850": 304.517,"3875": 201.846,"3900": 159.663,"3925": 137.3,"3950": 117.919,"3975": 94.076,"4000": 75.254,"4025": 65.637,"4050": 54.37,"4075": 52.378,"4100": 49.292,"4125": 43.759,"4150": 35.133,"4175": 31.414,"4200": 30.459,"4225": 31.721,"4250": 29.933,"4275": 27.411,"4300": 30.652,"4325": 31.243,"4350": 31.937,"4375": 32.425,"4400": 30.718,"4425": 33.754,"4450": 32.736,"4475": 29.336,"4500": 26.914,"4525": 25.631,"4550": 25.408,"4575": 26.305,"4600": 25.183,"4625": 23.394,"4650": 23.416,"4675": 24.496,"4700": 23.05,"4725": 22.073,"4750": 21.422,"4775": 21.157,"4800": 20.2,"4825": 20.872,"4850": 19.59,"4875": 17.859,"4900": 17.311,"4925": 16.232,"4950": 15.214,"4975": 14.4,"5000": 14.706,"5025": 13.077,"5050": 12.283,"5075": 10.816,"5100": 9.961,"5125": 9.676,"5150": 9.961,"5175": 9.065,"5200": 8.372,"5225": 7.109,"5250": 6.804,"5275": 6.234,"5300": 5.215,"5325": 4.665,"5350": 3.993,"5375": 3.239,"5400": 2.954,"5425": 2.221,"5450": 1.752,"5475": 1.1,"5500": 0.998,"5525": 0.591,"5550": 0.326,"5575": 0.408,"5600": 0.489,"5625": 0.224,"5650": 0.265,"5675": 0.326,"5700": 0.387,"5725": 0.428,"5750": 0.347,"5775": 0.367,"5800": 0.224,"5825": 0.326,"5850": 0.122,"5875": 0.102}}}