{"type": "Feature","bbox": [-68.5691,-22.0144,-66.2692,-19.7032],"geometry": {"type": "MultiPolygon","coordinates": [[[[-68.4328,-20.6321,5035.9434],[-68.4391,-20.641,5122.436],[-68.4393,-20.6441,5179.7031],[-68.4505,-20.6477,5140.5278],[-68.4816,-20.6654,4962.2886],[-68.5016,-20.6688,5127.6982],[-68.5032,-20.676,5130.2388],[-68.5262,-20.6967,5062.7993],[-68.5282,-20.7166,4703.1914],[-68.5321,-20.7229,4706.7603],[-68.5516,-20.7281,5054.5117],[-68.555,-20.7367,4890.8511],[-68.5447,-20.7716,5079.8345],[-68.5411,-20.8014,4241.8149],[-68.5458,-20.8198,4852.6924],[-68.5496,-20.8493,4872.9946],[-68.5544,-20.8644,4747.415],[-68.5691,-20.8945,4609.5864],[-68.543,-20.9037,4742.623],[-68.5286,-20.9148,4539.6899],[-68.5035,-20.9429,5247.5142],[-68.4844,-20.947,5303.8208],[-68.4784,-20.9408,5230.7886],[-68.4622,-20.9461,5260.979],[-68.4361,-20.9457,5294.6914],[-68.4226,-20.9413,5276.0708],[-68.4157,-20.9414,5586.3945],[-68.3638,-21.0022,4024.7622],[-68.2951,-21.0978,4413.8955],[-68.1784,-21.3035,5807.5483],[-68.1806,-21.6041,5637.75],[-68.1379,-21.6568,4445.6284],[-68.1179,-21.6786,5480.4463],[-68.1002,-21.7165,4568.6572],[-68.0599,-21.7779,5489.9136],[-68.0631,-21.8528,4458.6104],[-68.0706,-21.962,5318.2236],[-67.9244,-21.959,4974.7036],[-67.8163,-21.9636,5018.1201],[-67.7736,-21.9487,5467.29],[-67.6251,-21.9525,4716.4453],[-67.5634,-21.9819,4442.5747],[-67.4376,-21.9828,4301.6958],[-67.3406,-22.0144,4177.9551],[-67.2434,-22.0045,5259.8193],[-67.2197,-22.0092,5866.3784],[-67.1544,-22.0059,5170.4785],[-67.0513,-21.9762,4838.6958],[-67.0321,-21.9656,4807.4375],[-67.0274,-21.9253,4406.6626],[-67.0371,-21.9108,4326.2842],[-67.038,-21.8953,4306.2988],[-67.0426,-21.8824,4289.2866],[-67.0498,-21.8729,4287.6943],[-67.0586,-21.8652,4266.8984],[-67.0831,-21.8588,4325.2866],[-67.0985,-21.8506,4387.4766],[-67.1556,-21.8335,4267.3447],[-67.1882,-21.8268,4408.228],[-67.279,-21.7864,4119.1807],[-67.3693,-21.7255,3909.458],[-67.3919,-21.694,4048.3774],[-67.4244,-21.686,4336.7319],[-67.445,-21.6691,4184.8037],[-67.5669,-21.5382,4064.7407],[-67.611,-21.518,4142.8164],[-67.6957,-21.3533,3903.2854],[-67.7164,-21.2705,4631.9448],[-67.7412,-21.1404,3899.3491],[-67.7147,-21.1008,3854.585],[-67.6881,-21.082,4040.231],[-67.6274,-21.1116,3793.9124],[-67.5815,-21.0861,4003.9431],[-67.5627,-21.0987,3927.2744],[-67.5321,-21.1554,3993.2278],[-67.5328,-21.1892,4065.5288],[-67.5221,-21.2144,4212.7524],[-67.4827,-21.2671,3889.9241],[-67.4641,-21.3388,3779.6396],[-67.3802,-21.434,3945.4763],[-67.3654,-21.4605,4344.1074],[-67.3468,-21.4752,3846.2671],[-67.2454,-21.5156,3797.1392],[-67.1255,-21.5978,3903.2246],[-67.0244,-21.7023,3969.3977],[-66.9458,-21.6203,4007.9543],[-66.918,-21.6035,3968.8848],[-66.9095,-21.5683,3908.3474],[-66.8752,-21.5326,3933.7876],[-66.8468,-21.5197,3931.6702],[-66.8449,-21.5112,3892.7852],[-66.835,-21.5069,3940.0837],[-66.8105,-21.4315,3933.7129],[-66.7885,-21.3843,3878.7202],[-66.761,-21.3486,3871.2432],[-66.7584,-21.349,3873.1377],[-66.7451,-21.3443,3882.3616],[-66.735,-21.3461,3882.3247],[-66.7304,-21.3417,3886.6885],[-66.7219,-21.3402,3888.2651],[-66.7167,-21.3422,3891.6992],[-66.7137,-21.3479,3896.1282],[-66.7105,-21.3502,3896.5044],[-66.7005,-21.3527,3900.9949],[-66.6917,-21.3512,3908.688],[-66.6886,-21.3537,3905.6816],[-66.6834,-21.3538,3908.2061],[-66.6731,-21.3481,3913.0876],[-66.6698,-21.3411,3917.4702],[-66.6673,-21.3391,3918.3589],[-66.6597,-21.3373,3920.3562],[-66.6543,-21.3308,3927.4851],[-66.6457,-21.3275,3930.2346],[-66.642,-21.3281,3934.1643],[-66.6399,-21.3251,3934.6711],[-66.634,-21.3253,3936.9463],[-66.6312,-21.3231,3938.5928],[-66.6244,-21.3216,3942.4614],[-66.6189,-21.3222,3944.6799],[-66.6103,-21.3148,3952.1255],[-66.6091,-21.3076,3957.8745],[-66.6069,-21.3049,3958.9062],[-66.5986,-21.3032,3964.8511],[-66.5944,-21.2981,3968.5625],[-66.5874,-21.2966,3974.5845],[-66.5803,-21.2972,3978.4146],[-66.57,-21.3007,3985.0115],[-66.563,-21.3065,3992.3203],[-66.5486,-21.3057,4001.8433],[-66.5473,-21.3072,4000.7419],[-66.5425,-21.3077,4010.4434],[-66.5344,-21.3135,4010.3972],[-66.5257,-21.3156,4024.0811],[-66.5236,-21.3183,4020.5659],[-66.5197,-21.3199,4027.1543],[-66.5183,-21.3237,4024.8875],[-66.5069,-21.3301,4033.365],[-66.4998,-21.337,4039.8645],[-66.4969,-21.3409,4052.1733],[-66.4953,-21.3474,4052.3962],[-66.4902,-21.3476,4054.2114],[-66.4857,-21.3534,4070.2656],[-66.4798,-21.3562,4056.7705],[-66.4797,-21.3603,4057.4592],[-66.4709,-21.3611,4068.9385],[-66.4629,-21.3641,4081.3613],[-66.4526,-21.3721,4112.2178],[-66.4483,-21.3778,4091.479],[-66.4428,-21.38,4088.1445],[-66.4319,-21.3787,4096.2759],[-66.4249,-21.382,4102.1426],[-66.4178,-21.3786,4106.3062],[-66.4081,-21.3774,4123.8901],[-66.3987,-21.3814,4119.2778],[-66.3935,-21.3811,4139.6035],[-66.3882,-21.3832,4127.6777],[-66.3819,-21.3822,4142.2695],[-66.3782,-21.3856,4141.3311],[-66.3606,-21.3809,4162.4272],[-66.3558,-21.3832,4161.1953],[-66.3493,-21.3835,4164.0122],[-66.3227,-21.3943,4200.6201],[-66.3086,-21.4071,4209.4824],[-66.3055,-21.4085,4214.0513],[-66.3028,-21.4078,4216.5303],[-66.2692,-21.4262,4422.4136],[-66.2706,-21.4172,4330.5952],[-66.2761,-21.406,4408.0049],[-66.2772,-21.3929,4427.0376],[-66.2723,-21.3764,4415.5474],[-66.2799,-21.3622,4404.4365],[-66.2752,-21.3495,4445.1514],[-66.2776,-21.311,4705.2896],[-66.3145,-21.2931,4495.3408],[-66.3437,-21.2725,4374.1934],[-66.3506,-21.2633,4495.3179],[-66.3573,-21.2411,4369.3721],[-66.3557,-21.2311,4297.2085],[-66.36,-21.225,4279.9351],[-66.3547,-21.2192,4297.1045],[-66.348,-21.2176,4308.3574],[-66.3461,-21.215699999999998,4313.4883],[-66.3458,-21.2102,4340.0928],[-66.343,-21.2056,4375.6279],[-66.3368,-21.2038,4434.291],[-66.3351,-21.188,4479.9888],[-66.3382,-21.1858,4430.2334],[-66.3414,-21.18,4375.5576],[-66.3498,-21.175,4386.4678],[-66.3554,-21.1684,4369.8584],[-66.3681,-21.1408,4302.1357],[-66.3694,-21.1361,4255.9434],[-66.3678,-21.1322,4267.3379],[-66.37,-21.1258,4268.3682],[-66.4029,-21.0607,4125.2881],[-66.4045,-21.0536,4077.5571],[-66.4409,-21.0189,4146.3872],[-66.4428,-21.0081,4147.1401],[-66.4525,-21.0044,4034.4641],[-66.4866,-20.9967,3997.5239],[-66.4843,-20.9531,3903.3699],[-66.5687,-20.9613,4059.5205],[-66.6149,-20.9084,4012.2498],[-66.6579,-20.8935,3855.8081],[-66.6891,-20.866,3794.3411],[-66.7257,-20.7892,3718.2529],[-66.7509,-20.762,3666.395],[-66.8031,-20.5766,3696.3787],[-66.8207,-20.5529,3659.4951],[-66.8294,-20.5445,3659.8579],[-66.8414,-20.5289,3659.4685],[-66.846,-20.5258,3659.1882],[-66.8581,-20.506,3658.803],[-66.8623,-20.5021,3658.2173],[-66.8677,-20.4871,3658.3433],[-66.871,-20.4638,3658.7637],[-66.9244,-20.418,3653.5],[-66.9393,-20.4031,3653.5],[-66.9384,-20.4019,3653.5],[-66.9303,-20.4018,3653.5],[-66.9281,-20.3981,3653.5],[-66.9258,-20.3973,3653.5],[-66.9201,-20.3982,3653.5],[-66.9135,-20.3963,3653.5],[-66.9129,-20.3942,3653.5],[-66.9096,-20.3933,3653.5],[-66.9236,-20.3605,3653.5],[-66.9617,-20.3308,3653.5],[-66.9672,-20.328,3653.5],[-66.981,-20.3126,3653.5],[-66.9913,-20.2935,3655.26],[-66.9991,-20.2873,3655.062],[-67.0107,-20.2666,3655.3518],[-67.0105,-20.2526,3655.9468],[-67.0135,-20.2451,3655.1604],[-67.0185,-20.2382,3655.5081],[-67.0269,-20.2312,3655.5269],[-67.0346,-20.2278,3655.4397],[-67.0661,-20.2253,3655.0669],[-67.0854,-20.2185,3655.1953],[-67.0975,-20.2101,3655.1758],[-67.1038,-20.2036,3655.1614],[-67.1062,-20.1986,3655.1719],[-67.1123,-20.1937,3655.1108],[-67.1153,-20.1873,3655.2031],[-67.1247,-20.1797,3655.0703],[-67.1353,-20.1749,3655.0439],[-67.1427,-20.1649,3655.115],[-67.1551,-20.1563,3655.0837],[-67.1599,-20.1483,3655.0305],[-67.162,-20.1406,3654.9526],[-67.1676,-20.1336,3655.0996],[-67.1619,-20.1099,3655.165],[-67.1578,-20.1029,3655.3264],[-67.1601,-20.0961,3655.23],[-67.1532,-20.0795,3655.3535],[-67.1535,-20.0733,3655.3416],[-67.1504,-20.0693,3655.3213],[-67.1508,-20.0667,3655.343],[-67.1389,-20.0526,3655.47],[-67.1414,-20.0504,3655.3213],[-67.1404,-20.0464,3655.3833],[-67.1507,-20.0367,3655.5649],[-67.1525,-20.0258,3655.4531],[-67.1548,-20.0237,3655.448],[-67.1528,-20.0215,3655.396],[-67.1521,-20.0147,3655.3296],[-67.1576,-20.01,3655.4758],[-67.1577,-20.0027,3655.6179],[-67.1603,-19.9983,3655.4185],[-67.1654,-19.9969,3655.4819],[-67.1752,-20.0028,3655.3887],[-67.1789,-20.0027,3655.3491],[-67.1832,-20.0064,3655.2266],[-67.1855,-20.0054,3655.4165],[-67.1856,-20.0022,3655.571],[-67.1893,-20.0018,3655.2466],[-67.1884,-19.999,3655.3564],[-67.1906,-19.9972,3655.3071],[-67.1842,-19.9944,3655.6948],[-67.1796,-19.9891,3655.9124],[-67.1797,-19.9866,3655.8535],[-67.1763,-19.9844,3656.115],[-67.1794,-19.9851,3655.8779],[-67.1843,-19.9903,3655.6804],[-67.1868,-19.9898,3655.4631],[-67.183,-19.9842,3655.8721],[-67.1769,-19.9791,3656.0432],[-67.1803,-19.9783,3655.8013],[-67.1811,-19.9754,3655.812],[-67.1851,-19.9757,3655.7407],[-67.1845,-19.9738,3655.6445],[-67.1802,-19.9728,3655.9629],[-67.1864,-19.9718,3655.4575],[-67.1823,-19.9672,3655.6045],[-67.1799,-19.9672,3655.7949],[-67.1762,-19.9639,3655.8311],[-67.176,-19.9592,3655.8967],[-67.1791,-19.9556,3655.5071],[-67.1777,-19.952,3655.5596],[-67.1751,-19.9508,3655.6392],[-67.1742,-19.9321,3655.6299],[-67.1788,-19.9248,3655.3359],[-67.1783,-19.9207,3655.418],[-67.1822,-19.9165,3655.3765],[-67.1822,-19.9068,3655.4182],[-67.1885,-19.897,3655.2166],[-67.1886,-19.8929,3655.3477],[-67.1912,-19.8903,3655.3311],[-67.1918,-19.885,3655.3711],[-67.1942,-19.8817,3655.3994],[-67.193,-19.8785,3655.4092],[-67.1947,-19.8698,3655.387],[-67.2004,-19.8622,3655.5027],[-67.204,-19.8614,3655.2161],[-67.2053,-19.8591,3655.3164],[-67.2114,-19.8586,3655.2754],[-67.2143,-19.8559,3655.2346],[-67.2154,-19.8523,3655.3311],[-67.2208,-19.85,3655.2109],[-67.2221,-19.8437,3655.1094],[-67.2195,-19.8309,3655.1738],[-67.2241,-19.8235,3655.2068],[-67.2237,-19.8159,3655.2432],[-67.2299,-19.8029,3655.3667],[-67.2443,-19.7889,3655.3645],[-67.2583,-19.7833,3655.3027],[-67.2662,-19.778,3655.2407],[-67.2748,-19.7792,3655.2886],[-67.2775,-19.7757,3655.2939],[-67.2774,-19.7694,3655.4255],[-67.2846,-19.7642,3655.3682],[-67.291,-19.7652,3655.3481],[-67.291,-19.7594,3655.459],[-67.2994,-19.7544,3655.5969],[-67.3016,-19.7498,3655.5527],[-67.3106,-19.7479,3655.5186],[-67.3151,-19.7442,3655.4709],[-67.3237,-19.7425,3655.3689],[-67.3315,-19.7369,3655.353],[-67.3356,-19.7307,3655.4421],[-67.3497,-19.7212,3655.4189],[-67.3806,-19.713,3655.2847],[-67.4149,-19.7146,3655.2729],[-67.4265,-19.7115,3655.3306],[-67.4348,-19.7121,3655.3691],[-67.4486,-19.7068,3655.335],[-67.4697,-19.7032,3655.1897],[-67.4844,-19.705,3655.1458],[-67.5018,-19.7121,3655.0425],[-67.5144,-19.7139,3654.9536],[-67.5217,-19.7166,3654.9756],[-67.5325,-19.7166,3654.9397],[-67.5387,-19.7147,3654.96],[-67.5398,-19.7127,3655.0371],[-67.5403,-19.7143,3654.9653],[-67.5474,-19.7135,3655.0459],[-67.56,-19.7167,3654.8672],[-67.5623,-19.7152,3654.9771],[-67.5713,-19.7269,3654.8735],[-67.5712,-19.7387,3654.9583],[-67.5678,-19.7468,3654.8423],[-67.5683,-19.7535,3655.0449],[-67.566,-19.7572,3654.8167],[-67.5661,-19.7627,3654.9888],[-67.5677,-19.7643,3655.0105],[-67.5569,-19.7715,3653.5],[-67.5594,-19.7734,3653.5],[-67.5573,-19.7742,3653.5],[-67.5609,-19.7772,3653.842],[-67.5631,-19.7768,3655.7068],[-67.5596,-19.7788,3653.8667],[-67.5557,-19.7855,3655.0625],[-67.5554,-19.7824,3653.5],[-67.5531,-19.7846,3654.6174],[-67.5468,-19.7864,3653.5],[-67.5475,-19.7839,3654.6985],[-67.5496,-19.7807,3654.1072],[-67.5467,-19.7811,3653.5],[-67.5424,-19.7856,3659.0605],[-67.5399,-19.7851,3668.3281],[-67.5378,-19.782,3653.5],[-67.5375,-19.7872,3670.0029],[-67.5345,-19.7898,3654.5657],[-67.5356,-19.794,3653.5],[-67.5474,-19.8048,3654.9097],[-67.5436,-19.8187,3654.5364],[-67.5363,-19.8255,3660.293],[-67.5296,-19.8286,3653.5],[-67.5311,-19.8302,3657.6421],[-67.529,-19.8336,3656.4297],[-67.5234,-19.8336,3657.4722],[-67.5204,-19.8291,3655.3503],[-67.5195,-19.8338,3653.5],[-67.5242,-19.8363,3653.5],[-67.5275,-19.8362,3664.3774],[-67.5301,-19.8394,3659.543],[-67.5279,-19.8491,3653.5],[-67.5333,-19.8484,3654.7566],[-67.5376,-19.8524,3664.4971],[-67.5403,-19.8552,3657.0896],[-67.5445,-19.8648,3653.5],[-67.5567,-19.8646,3653.5],[-67.5594,-19.8658,3654.8872],[-67.5632,-19.8717,3655.3845],[-67.5673,-19.8855,3653.5],[-67.5766,-19.8884,3653.8323],[-67.5831,-19.8946,3653.7515],[-67.8644,-20.5102,3654.1958],[-67.8625,-20.514,3654.25],[-67.8581,-20.5153,3654.2793],[-67.9888,-20.7201,3670.8357],[-68.1216,-20.6418,5266.3804],[-68.1467,-20.6323,4215.9668],[-68.1543,-20.625,4019.7556],[-68.1686,-20.6167,3797.1018],[-68.1774,-20.6132,3733.1414],[-68.1804,-20.6139,3716.7585],[-68.1817,-20.611,3708.5332],[-68.2019,-20.6038,3666.2168],[-68.2087,-20.604,3666.187],[-68.2136,-20.6075,3667.9829],[-68.22,-20.6058,3668.9326],[-68.2321,-20.5971,3671.2869],[-68.2336,-20.5913,3665.7791],[-68.2467,-20.5828,3665.8428],[-68.2533,-20.5703,3665.8765],[-68.2665,-20.574,3732.365],[-68.27,-20.5734,3745.269],[-68.2781,-20.5767,3815.4133],[-68.3023,-20.5801,4510.1318],[-68.3151,-20.5768,4442.2783],[-68.3679,-20.5714,3849.3757],[-68.3748,-20.58,3917.4519],[-68.3823,-20.5857,3982.6729],[-68.3902,-20.5854,4038.3179],[-68.394,-20.5868,4060.093],[-68.4076,-20.5984,4204.1699],[-68.4189,-20.6031,4386.6421],[-68.4238,-20.6088,4523.5991],[-68.4274,-20.6183,4743.1514],[-68.4281,-20.6251,4922.0708],[-68.4328,-20.6321,5035.9434]],
[[-67.5296,-19.8601,3662.7734],[-67.5253,-19.8614,3653.5],[-67.526,-19.8622,3653.5],[-67.5292,-19.8622,3680.8408],[-67.531,-19.8667,3653.5],[-67.5318,-19.8651,3653.5],[-67.5296,-19.8601,3662.7734]]]]}
,"properties": {"GID_2": "BOL.7.12_2","GID_0": "BOL","country": "Bolivia","GID_1": "BOL.7_1","province": "Potosí","NL_NAME_1": "NA","county": "NorLipez","VARNAME_2": "NA","NL_NAME_2": "NA","TYPE_2": "Provincia","ENGTYPE_2": "Province","CC_2": "NA","HASC_2": "NA","name": "Nor_Lipez.county","area_km2": 28505.2,"hist_schema_id": "Elevation0-9000","hist_area_km2": {"3650": 8449.37,"3675": 1873.92,"3700": 1207.04,"3725": 862.3,"3750": 1116.23,"3775": 1127.41,"3800": 930.69,"3825": 805.37,"3850": 698.88,"3875": 599.03,"3900": 548.84,"3925": 487.06,"3950": 462.71,"3975": 466.75,"4000": 441.0,"4025": 432.02,"4050": 369.35,"4075": 367.15,"4100": 352.43,"4125": 357.09,"4150": 350.88,"4175": 338.93,"4200": 331.7,"4225": 305.18,"4250": 270.95,"4275": 248.53,"4300": 225.87,"4325": 203.46,"4350": 190.06,"4375": 168.57,"4400": 156.89,"4425": 264.81,"4450": 226.25,"4475": 169.22,"4500": 180.67,"4525": 199.86,"4550": 195.85,"4575": 192.85,"4600": 183.89,"4625": 168.15,"4650": 165.18,"4675": 156.86,"4700": 158.89,"4725": 156.37,"4750": 141.25,"4775": 141.12,"4800": 130.18,"4825": 123.71,"4850": 110.55,"4875": 89.62,"4900": 72.84,"4925": 58.32,"4950": 51.15,"4975": 43.07,"5000": 40.82,"5025": 36.44,"5050": 33.88,"5075": 28.91,"5100": 25.88,"5125": 23.75,"5150": 22.25,"5175": 18.2,"5200": 17.06,"5225": 13.59,"5250": 12.48,"5275": 10.83,"5300": 10.27,"5325": 9.56,"5350": 7.87,"5375": 7.31,"5400": 6.61,"5425": 6.47,"5450": 5.72,"5475": 5.32,"5500": 4.75,"5525": 4.06,"5550": 4.26,"5575": 3.41,"5600": 3.39,"5625": 2.76,"5650": 2.56,"5675": 2.56,"5700": 2.31,"5725": 1.2,"5750": 1.16,"5775": 0.85,"5800": 0.75,"5825": 0.37,"5850": 0.37,"5875": 0.3,"5900": 0.36}}}