{"type": "Feature","bbox": [-64.8484,-19.3379,-64.5722,-18.9233],"geometry": {"type": "MultiPolygon","coordinates": [[[[-64.5727,-19.2872,2714.6636],[-64.5722,-19.2825,2765.0505],[-64.5746,-19.2788,2807.6113],[-64.5741,-19.2757,2773.3945],[-64.5762,-19.2738,2795.0327],[-64.5754,-19.2714,2787.896],[-64.5779,-19.2687,2807.3296],[-64.5826,-19.2676,2889.2498],[-64.5849,-19.2564,2855.4854],[-64.5894,-19.2519,2796.6294],[-64.5929,-19.251,2848.9956],[-64.5947,-19.2419,2820.8533],[-64.5903,-19.2379,2821.9966],[-64.5777,-19.2185,2480.0374],[-64.5819,-19.2082,2584.7827],[-64.5802,-19.2046,2617.3696],[-64.5882,-19.1871,2663.5054],[-64.59,-19.1793,2542.5439],[-64.5893,-19.1724,2529.0093],[-64.5841,-19.1704,2506.1096],[-64.5863,-19.1655,2452.8052],[-64.584,-19.1631,2386.033],[-64.5848,-19.1606,2373.9688],[-64.5899,-19.1586,2593.48],[-64.5927,-19.1543,2675.5398],[-64.5912,-19.1449,2581.7061],[-64.5934,-19.1423,2531.7349],[-64.5922,-19.1376,2537.7441],[-64.5951,-19.1318,2517.6121],[-64.5904,-19.1276,2271.8381],[-64.5875,-19.1182,2230.9648],[-64.5916,-19.1083,2245.2666],[-64.597,-19.1082,2125.4548],[-64.5968,-19.099,2095.2705],[-64.594,-19.0965,2084.4565],[-64.5956,-19.0929,2094.6655],[-64.599,-19.0905,2066.1299],[-64.6066,-19.0764,2047.9286],[-64.613,-19.071,2218.5447],[-64.6224,-19.0524,2593.3914],[-64.6336,-19.0421,2352.6077],[-64.6362,-19.0331,2722.5225],[-64.6734,-18.9895,2849.53],[-64.68,-18.9748,2724.4961],[-64.6867,-18.9653,2620.9863],[-64.7019,-18.9512,2576.967],[-64.7097,-18.9343,2540.9299],[-64.7165,-18.9268,2385.8167],[-64.7237,-18.9233,2041.3094],[-64.7316,-18.9323,2065.0359],[-64.736,-18.9345,2090.4929],[-64.7367,-18.9377,2151.1719],[-64.7386,-18.9384,2153.0647],[-64.7419,-18.9439,2190.7185],[-64.7488,-18.9495,2139.4946],[-64.7519,-18.9501,2139.5659],[-64.7531,-18.9479,2218.4324],[-64.7538,-18.9498,2147.6865],[-64.7584,-18.9516,2223.7253],[-64.768,-18.9509,2244.9473],[-64.7744,-18.9534,2243.7883],[-64.7765,-18.9566,2260.3486],[-64.7834,-18.9543,2386.2146],[-64.788,-18.9564,2474.0847],[-64.7908,-18.9711,2434.8613],[-64.7994,-18.9782,2422.9155],[-64.8012,-18.9847,2542.4436],[-64.8155,-18.9894,2778.1042],[-64.8166,-18.9941,2835.739],[-64.8269,-18.9929,2851.9143],[-64.8326,-18.9944,2903.3538],[-64.8403,-18.9897,2974.8589],[-64.8472,-18.9922,2939.2378],[-64.8469,-18.9979,3031.6592],[-64.8484,-18.9998,3160.0405],[-64.8357,-19.0121,3170.9717],[-64.8333,-19.036,3162.2764],[-64.8308,-19.0429,3164.6338],[-64.8245,-19.04,3063.9939],[-64.8197,-19.0419,3026.9468],[-64.806,-19.0405,2838.1624],[-64.7882,-19.0491,2722.6248],[-64.7694,-19.0679,2631.6184],[-64.7663,-19.0778,2712.3125],[-64.7779,-19.0891,2909.8867],[-64.7784,-19.0923,2886.4116],[-64.7764,-19.0936,2806.0623],[-64.7718,-19.1031,2939.0117],[-64.7643,-19.1119,3062.8315],[-64.7606,-19.114,3131.103],[-64.7514,-19.1317,3342.7976],[-64.7502,-19.1462,3306.5615],[-64.7473,-19.1496,3285.6133],[-64.7499,-19.1602,3289.6738],[-64.7488,-19.1737,3311.1697],[-64.7448,-19.1805,3324.5242],[-64.745,-19.1846,3350.5408],[-64.7374,-19.1993,3442.6143],[-64.7284,-19.2224,3519.467],[-64.7263,-19.2347,3515.7869],[-64.729,-19.2425,3417.6062],[-64.719,-19.2766,3507.6304],[-64.715,-19.2776,3521.3354],[-64.7112,-19.283,3608.5471],[-64.7114,-19.2894,3593.8689],[-64.701,-19.3026,3648.8313],[-64.7017,-19.3081,3683.1729],[-64.6987,-19.3102,3653.5786],[-64.693,-19.3092,3377.1665],[-64.6895,-19.3128,3392.6406],[-64.689,-19.318,3400.9099],[-64.6813,-19.3281,3462.4419],[-64.6791,-19.3379,3450.5676],[-64.6664,-19.3316,3189.4924],[-64.6536,-19.3216,3337.552],[-64.6462,-19.3209,3124.1487],[-64.6275,-19.3145,2859.2043],[-64.6182,-19.3165,2750.7771],[-64.6168,-19.3143,2750.1606],[-64.6136,-19.3139,2694.7009],[-64.6095,-19.3062,2634.2236],[-64.6038,-19.3031,2612.616],[-64.5994,-19.3035,2658.7107],[-64.5994,-19.306,2589.6899],[-64.5943,-19.306,2570.4976],[-64.5878,-19.3015,2546.0432],[-64.588,-19.3002,2505.2542],[-64.5842,-19.2985,2495.356],[-64.582,-19.2997,2467.2427],[-64.5819,-19.294,2545.6711],[-64.5787,-19.2936,2526.6016],[-64.5727,-19.2872,2714.6636]]]]}
,"properties": {"GID_3": "BOL.1.10.4_2","GID_0": "BOL","country": "Bolivia","GID_1": "BOL.1_1","province": "Chuquisaca","NL_NAME_1": "NA","GID_2": "BOL.1.10_2","county": "Zudáñez","NL_NAME_2": "NA","city": "Zudañez","VARNAME_3": "NA","NL_NAME_3": "NA","TYPE_3": "District","ENGTYPE_3": "Distrito","CC_3": "NA","HASC_3": "NA","name": "Zudañez.city","area_km2": 660.1206,"hist_schema_id": "Elevation0-9000","hist_area_km2": {"2025": 0.1404,"2050": 1.5039,"2075": 3.1077,"2100": 3.0872,"2125": 4.7508,"2150": 6.314,"2175": 6.9157,"2200": 7.597,"2225": 7.7168,"2250": 9.4606,"2275": 10.202,"2300": 12.3864,"2325": 12.9469,"2350": 16.0733,"2375": 16.8544,"2400": 17.7562,"2425": 18.1567,"2450": 18.2159,"2475": 21.2608,"2500": 23.0832,"2525": 24.1436,"2550": 24.4224,"2575": 22.7777,"2600": 22.5358,"2625": 23.4764,"2650": 23.7754,"2675": 25.1964,"2700": 24.8355,"2725": 24.9542,"2750": 23.3119,"2775": 23.7318,"2800": 21.8884,"2825": 17.7217,"2850": 14.8775,"2875": 12.154,"2900": 10.1714,"2925": 8.8502,"2950": 7.6084,"2975": 6.6073,"3000": 6.5876,"3025": 6.1465,"3050": 6.5067,"3075": 6.4064,"3100": 6.1262,"3125": 6.6061,"3150": 5.0044,"3175": 4.8441,"3200": 4.2033,"3225": 3.9829,"3250": 3.2624,"3275": 2.762,"3300": 2.6819,"3325": 2.2816,"3350": 2.1615,"3375": 2.3414,"3400": 1.6411,"3425": 1.1608,"3450": 1.0607,"3475": 0.7606,"3500": 0.7006,"3525": 0.6806,"3550": 0.4403,"3575": 0.2602,"3600": 0.2001,"3625": 0.2602,"3650": 0.2402,"3675": 0.1001,"3700": 0.1001,"3725": 0.04}}}