{"type":"Feature","properties":{"GID_3":"BOL.3.7.1_2","GID_0":"BOL","country":"Bolivia","GID_1":"BOL.3_1","province":"Beni","NL_NAME_1":"NA","GID_2":"BOL.3.7_2","county":"VacaDiez","NL_NAME_2":"NA","city":"Guayaramerín","VARNAME_3":"NA","NL_NAME_3":"NA","TYPE_3":"District","ENGTYPE_3":"Distrito","CC_3":"NA","HASC_3":"NA","name":"Guayaramerín.city"},
"geometry":{"type": "MultiPolygon","coordinates": [[[[-65.0228,-11.9286,122.0],[-65.0173,-11.9084,122.0],[-65.0175,-11.9003,124.0961],[-65.0231,-11.8899,126.9787],[-65.0331,-11.8874,122.0],[-65.0571,-11.8857,122.0],[-65.0693,-11.8753,122.0],[-65.0737,-11.8658,122.0],[-65.0736,-11.8576,122.0],[-65.0627,-11.8292,122.0],[-65.0599,-11.798,122.0],[-65.0606,-11.7861,122.0],[-65.0629,-11.7749,122.0],[-65.0805,-11.7414,122.0],[-65.083,-11.7305,122.0],[-65.0825,-11.7175,122.0],[-65.0882,-11.7094,122.0],[-65.1016,-11.7069,136.3845],[-65.1017,-11.7043,122.0],[-65.1027,-11.7044,122.0],[-65.1116,-11.7084,122.0],[-65.1285,-11.7219,122.0],[-65.133,-11.7407,125.0],[-65.1329,-11.772,130.1614],[-65.1343,-11.7744,135.0487],[-65.1444,-11.7752,143.52],[-65.1699,-11.7662,144.7634],[-65.1845,-11.7591,128.2775],[-65.1883,-11.7554,122.0],[-65.2178,-11.744,122.0],[-65.2456,-11.7249,122.0],[-65.257,-11.7141,122.0],[-65.2608,-11.7082,122.0],[-65.2612,-11.7025,122.0],[-65.2596,-11.6989,122.0],[-65.2339,-11.6775,122.0],[-65.2245,-11.6647,124.8471],[-65.2216,-11.6511,132.3799],[-65.222,-11.6383,133.8423],[-65.2253,-11.6267,131.1509],[-65.232,-11.6169,122.0],[-65.2328,-11.6112,122.0],[-65.2293,-11.5832,122.0],[-65.2326,-11.5672,122.0],[-65.232,-11.5605,122.0],[-65.2289,-11.5553,122.0],[-65.2124,-11.5421,121.5],[-65.2116,-11.5337,121.5],[-65.2175,-11.5198,121.5],[-65.2257,-11.5157,121.5],[-65.2356,-11.514099999999999,121.5],[-65.25,-11.5145,121.5],[-65.2709,-11.5113,121.5],[-65.3046,-11.5014,121.5],[-65.3087,-11.4969,121.5],[-65.3121,-11.4702,121.5],[-65.3237,-11.4202,121.5],[-65.3291,-11.3775,121.5],[-65.3346,-11.3579,121.5],[-65.3336,-11.3567,121.5],[-65.3344,-11.3481,121.5],[-65.3336,-11.3397,121.5],[-65.3304,-11.3347,121.5],[-65.3205,-11.3336,121.5],[-65.3074,-11.3362,121.5],[-65.2964,-11.334,121.5],[-65.2941,-11.3326,121.5],[-65.2918,-11.3242,127.3832],[-65.2987,-11.3161,121.5],[-65.3355,-11.3138,121.5],[-65.3429,-11.3097,121.5],[-65.3462,-11.3049,121.5],[-65.352,-11.2901,121.5],[-65.3597,-11.2612,121.5],[-65.3614,-11.2514,121.5],[-65.3619,-11.2243,121.5],[-65.3595,-11.2189,121.5],[-65.3549,-11.2141,121.5],[-65.3491,-11.2109,121.5],[-65.3222,-11.2075,121.0],[-65.3187,-11.1994,137.3365],[-65.3246,-11.187,139.511],[-65.331,-11.1857,132.0077],[-65.3434,-11.1903,126.7893],[-65.3512,-11.1873,120.5],[-65.3557,-11.1799,120.0],[-65.3568,-11.1682,120.0],[-65.3635,-11.1473,120.0],[-65.3628,-11.1378,121.2617],[-65.3571,-11.1291,119.5],[-65.3399,-11.1127,119.5],[-65.319,-11.1014,119.5],[-65.2864,-11.0922,119.0],[-65.2801,-11.0797,119.0],[-65.2809,-11.0636,118.5],[-65.3006,-11.0393,118.5],[-65.3016,-11.033,118.5],[-65.3005,-11.0295,118.5],[-65.2971,-11.0247,118.5],[-65.27,-11.0004,118.0],[-65.2526,-10.9918,117.5],[-65.2509,-10.9846,117.25],[-65.2681,-10.9638,116.5],[-65.273,-10.9545,116.0],[-65.2743,-10.9442,115.5],[-65.2859,-10.9277,122.9639],[-65.2835,-10.919,115.0],[-65.2668,-10.9218,115.0],[-65.2753,-10.8727,113.5],[-65.3196,-10.8234,111.5],[-65.3422,-10.8075,111.0],[-65.3547,-10.805,110.5],[-65.367,-10.7963,110.5],[-65.3656,-10.7801,110.5],[-65.3525,-10.781,110.0],[-65.3482,-10.7785,110.0],[-65.3453,-10.759,110.0],[-65.3496,-10.7435,109.5],[-65.3438,-10.7107,109.0],[-65.3445,-10.6955,109.0],[-65.3488,-10.6727,108.5],[-65.3584,-10.6574,108.5],[-65.3758,-10.6466,108.0],[-65.3927,-10.6463,108.0],[-65.4043,-10.6423,108.0],[-65.4058,-10.6336,107.5],[-65.4109,-10.6307,107.5],[-65.4168,-10.6187,111.0382],[-65.4099,-10.6148,107.5],[-65.4106,-10.6015,107.125],[-65.4088,-10.5983,107.0],[-65.3979,-10.5892,107.0],[-65.3981,-10.5791,107.0],[-65.402,-10.5682,107.0],[-65.4047,-10.5538,106.5],[-65.4099,-10.5474,106.5],[-65.4172,-10.542,106.5],[-65.4204,-10.536,106.5],[-65.4215,-10.5301,106.0],[-65.4153,-10.5209,106.0],[-65.4108,-10.5086,106.0],[-65.4296,-10.4867,105.5],[-65.4305,-10.4823,105.5],[-65.424,-10.4644,105.0],[-65.4209,-10.4626,105.0],[-65.4146,-10.4637,105.0],[-65.4031,-10.4628,105.0],[-65.3977,-10.4563,105.0],[-65.3959,-10.4483,105.0],[-65.3907,-10.4459,104.5],[-65.3875,-10.4415,106.8522],[-65.3816,-10.4291,104.5],[-65.3878,-10.4299,117.1802],[-65.3849,-10.4176,114.9751],[-65.3895,-10.387,104.0],[-65.3878,-10.3868,104.0],[-65.391,-10.3812,104.0],[-65.3978,-10.3926,104.0],[-65.3977,-10.3985,104.0],[-65.4006,-10.4073,104.0],[-65.4082,-10.414,104.0],[-65.425,-10.4169,104.0],[-65.4382,-10.4131,104.0],[-65.4482,-10.4147,104.5],[-65.4721,-10.4292,104.5],[-65.4838,-10.4381,104.5],[-65.4864,-10.4463,104.5],[-65.4878,-10.4624,104.5],[-65.4939,-10.4785,104.5],[-65.5021,-10.4916,104.5],[-65.5099,-10.4967,104.5],[-65.53,-10.5012,105.0],[-65.536,-10.5042,105.0],[-65.5444,-10.5047,105.0],[-65.5554,-10.5078,105.0],[-65.5748,-10.5202,105.0],[-65.5798,-10.5292,105.0],[-65.5872,-10.5368,105.0],[-65.6181,-10.5399,105.0],[-65.6235,-10.5457,105.0],[-65.6245,-10.5577,105.0],[-65.6333,-10.5636,105.0],[-65.6473,-10.5661,105.5],[-65.6836,-10.5642,105.5],[-65.7099,-10.5657,105.5],[-65.7232,-10.565,105.5],[-65.7279,-10.5669,105.5],[-65.732,-10.5717,105.5],[-65.7343,-10.5777,105.5],[-65.7347,-10.587,105.5],[-65.733,-10.5956,105.5],[-65.7246,-10.6119,105.5],[-65.7041,-10.6446,106.0],[-65.7019,-10.6514,106.0],[-65.7111,-10.6836,121.8875],[-65.7196,-10.6951,106.0],[-65.7335,-10.7069,106.0],[-65.6984,-10.73,165.6468],[-65.6634,-10.7361,152.778],[-65.6168,-10.7312,140.3292],[-65.5861,-10.7328,115.8295],[-65.5872,-10.7355,110.4002],[-65.5857,-10.7379,115.9483],[-65.5755,-10.738,119.9612],[-65.5706,-10.7438,121.9227],[-65.5745,-10.7537,113.4672],[-65.5728,-10.7571,114.4467],[-65.5692,-10.7562,115.2808],[-65.57,-10.7501,111.9302],[-65.5683,-10.7483,113.8101],[-65.5631,-10.7512,112.5805],[-65.5548,-10.7527,111.1021],[-65.5536,-10.756,114.7285],[-65.5561,-10.7706,111.3158],[-65.5536,-10.7697,120.5234],[-65.5535,-10.7641,113.4516],[-65.5473,-10.7627,118.2062],[-65.5411,-10.7702,110.8725],[-65.5408,-10.7745,113.8259],[-65.5456,-10.7822,119.1922],[-65.551,-10.7802,110.8733],[-65.5534,-10.7809,111.6537],[-65.5463,-10.7924,117.8381],[-65.5469,-10.7986,118.9743],[-65.5493,-10.802,115.1303],[-65.5533,-10.803,118.2732],[-65.5543,-10.8007,126.3043],[-65.5513,-10.7944,116.6844],[-65.5618,-10.7867,111.8293],[-65.5665,-10.7957,114.0241],[-65.5631,-10.8027,125.4524],[-65.564,-10.8057,114.547],[-65.5684,-10.8066,117.7091],[-65.5762,-10.8006,112.0247],[-65.577,-10.8082,120.44],[-65.5793,-10.8115,117.8413],[-65.5815,-10.8094,124.2055],[-65.5825,-10.8054,113.3276],[-65.5849,-10.8044,116.9134],[-65.5853,-10.8119,122.1541],[-65.5935,-10.8175,114.8155],[-65.5997,-10.8325,118.3354],[-65.5957,-10.8427,125.8296],[-65.5922,-10.8469,120.262],[-65.5866,-10.8513,118.0087],[-65.5779,-10.8505,113.3412],[-65.5751,-10.853,121.0968],[-65.5838,-10.8642,122.9847],[-65.5912,-10.8805,109.5],[-65.5903,-10.884,115.6305],[-65.5959,-10.888,113.2166],[-65.5923,-10.8901,115.1818],[-65.5906,-10.896,113.8359],[-65.5942,-10.9024,115.5435],[-65.5942,-10.9062,110.5641],[-65.5923,-10.9069,118.5661],[-65.5862,-10.9038,112.6088],[-65.5824,-10.9038,114.2725],[-65.5818,-10.9063,114.2447],[-65.5871,-10.9077,112.5848],[-65.5896,-10.9108,122.2307],[-65.5845,-10.9105,113.3275],[-65.581,-10.9172,113.589],[-65.5713,-10.9159,114.5873],[-65.5719,-10.9176,113.0957],[-65.5833,-10.9232,120.5403],[-65.5852,-10.9281,115.2733],[-65.5819,-10.9291,115.0683],[-65.58,-10.9268,111.4153],[-65.5783,-10.9304,115.3508],[-65.5721,-10.9293,117.1083],[-65.5676,-10.9303,111.6624],[-65.5723,-10.94,123.5573],[-65.5709,-10.9472,115.701],[-65.5658,-10.9475,114.0637],[-65.5679,-10.9551,112.5523],[-65.5674,-10.9686,115.0315],[-65.5737,-10.9822,115.974],[-65.5768,-10.9848,127.6786],[-65.5806,-10.9838,115.4767],[-65.5853,-10.9883,120.353],[-65.5854,-10.9909,116.6214],[-65.5809,-10.9964,122.0763],[-65.5806,-11.0004,129.7394],[-65.5819,-11.0021,115.2907],[-65.585,-11.0005,112.5144],[-65.5881,-11.0031,118.3894],[-65.5962,-11.0042,115.5838],[-65.5999,-11.0097,112.7551],[-65.6035,-11.0117,121.1687],[-65.6075,-11.0099,119.4178],[-65.6059,-11.0034,128.0255],[-65.6079,-11.0026,123.4549],[-65.6116,-11.0043,117.281],[-65.616,-11.0084,122.1767],[-65.6124,-11.0127,115.378],[-65.6168,-11.0144,127.8319],[-65.6192,-11.0198,113.1291],[-65.6224,-11.0221,115.5525],[-65.627,-11.0173,119.5633],[-65.6264,-11.0086,113.1055],[-65.6357,-11.0143,116.1672],[-65.6378,-11.0128,112.8921],[-65.6394,-11.0079,123.8953],[-65.6415,-11.0072,117.0393],[-65.6501,-11.0134,120.8328],[-65.6579,-11.0273,110.5],[-65.6599,-11.0359,138.528],[-65.6583,-11.0421,115.3506],[-65.65,-11.0401,114.9274],[-65.6512,-11.0469,128.3295],[-65.6552,-11.0502,118.4349],[-65.6576,-11.0559,116.359],[-65.6535,-11.0628,122.7165],[-65.6555,-11.0636,122.3921],[-65.6599,-11.0595,113.1839],[-65.6682,-11.0644,129.8887],[-65.6636,-11.0719,117.6265],[-65.6635,-11.0751,123.2661],[-65.6653,-11.0762,115.3859],[-65.6697,-11.0732,117.8243],[-65.6738,-11.0735,122.4189],[-65.6794,-11.0816,115.7168],[-65.6779,-11.0844,119.4691],[-65.6712,-11.0861,115.3859],[-65.6707,-11.0878,117.1707],[-65.6745,-11.0926,112.2539],[-65.6684,-11.0926,117.1334],[-65.6695,-11.0971,116.4516],[-65.665,-11.1011,113.9986],[-65.6617,-11.1073,122.4519],[-65.6645,-11.1093,118.9083],[-65.6746,-11.1103,114.3175],[-65.6769,-11.114,114.6802],[-65.6754,-11.1147,119.8453],[-65.6715,-11.1122,116.0296],[-65.667,-11.1129,124.8911],[-65.6621,-11.1168,123.143],[-65.661,-11.12,116.7087],[-65.6639,-11.1215,123.4879],[-65.6719,-11.1166,118.5827],[-65.6706,-11.1214,128.4153],[-65.6648,-11.1252,116.3035],[-65.6646,-11.1299,120.6977],[-65.6684,-11.1342,117.7498],[-65.6715,-11.1339,120.5045],[-65.6763,-11.1296,120.8556],[-65.6796,-11.1312,117.5917],[-65.6743,-11.1343,116.3855],[-65.6727,-11.1419,119.037],[-65.6675,-11.1407,121.6484],[-65.664,-11.1426,117.7353],[-65.66,-11.142,117.8592],[-65.6559,-11.1456,116.1437],[-65.6609,-11.1536,117.8173],[-65.6631,-11.1533,121.5451],[-65.6656,-11.1461,124.2424],[-65.6823,-11.1553,122.5718],[-65.6814,-11.1575,118.0298],[-65.674,-11.1606,119.9454],[-65.6663,-11.1588,119.9997],[-65.6593,-11.1633,129.9333],[-65.6573,-11.1755,130.1306],[-65.6603,-11.1825,123.1263],[-65.6623,-11.183,129.0372],[-65.6641,-11.1784,117.3199],[-65.6685,-11.1775,120.6061],[-65.6721,-11.1733,118.9578],[-65.6775,-11.1766,122.2136],[-65.6849,-11.1739,118.2684],[-65.686,-11.1751,118.9841],[-65.684,-11.1783,124.6547],[-65.683,-11.187,116.1684],[-65.6788,-11.1948,119.7902],[-65.6872,-11.2042,122.378],[-65.6836,-11.2094,123.5772],[-65.6794,-11.2111,120.4896],[-65.6804,-11.2167,125.1355],[-65.6787,-11.221,117.71],[-65.6828,-11.2224,115.6487],[-65.6839,-11.2285,124.7718],[-65.6819,-11.2336,123.0698],[-65.6854,-11.2391,121.3554],[-65.6857,-11.2425,128.0826],[-65.6772,-11.263,128.939],[-65.678,-11.2639,128.939],[-65.6836,-11.2606,116.2821],[-65.6846,-11.2666,116.1675],[-65.6766,-11.2786,117.5519],[-65.6798,-11.2809,116.5152],[-65.6796,-11.2899,120.0962],[-65.6759,-11.2928,123.3762],[-65.6677,-11.2919,121.3463],[-65.6654,-11.293,117.7529],[-65.6629,-11.2973,117.787],[-65.6698,-11.2999,134.2319],[-65.67,-11.3016,134.1641],[-65.6619,-11.3121,117.8328],[-65.6663,-11.3138,120.6269],[-65.6733,-11.3078,127.4402],[-65.6798,-11.3062,131.0366],[-65.681,-11.3082,122.51],[-65.6763,-11.3197,113.0],[-65.6777,-11.3254,133.8756],[-65.6761,-11.3303,120.622],[-65.6707,-11.3341,121.0192],[-65.6665,-11.3346,127.2866],[-65.6639,-11.3377,120.8451],[-65.6652,-11.3398,133.7846],[-65.6722,-11.3425,123.8659],[-65.6726,-11.3445,118.0909],[-65.6597,-11.3578,129.4042],[-65.6608,-11.3595,119.9835],[-65.6688,-11.3581,123.4078],[-65.6712,-11.3608,115.3572],[-65.6711,-11.3625,120.0634],[-65.6651,-11.365,117.461],[-65.662,-11.3683,130.7452],[-65.6604,-11.3743,119.3748],[-65.6656,-11.3748,126.2615],[-65.6713,-11.3708,120.9023],[-65.6744,-11.3741,119.996],[-65.6696,-11.3768,123.4739],[-65.659,-11.3871,121.1013],[-65.6491,-11.3919,131.5146],[-65.6559,-11.396,119.6314],[-65.6571,-11.4019,135.7644],[-65.6589,-11.3981,124.9884],[-65.6612,-11.3973,121.503],[-65.6692,-11.4035,119.6022],[-65.6706,-11.4097,120.8236],[-65.6699,-11.4179,130.9877],[-65.6725,-11.4245,119.9282],[-65.6831,-11.4207,121.9444],[-65.6887,-11.4268,123.9992],[-65.6879,-11.4339,121.8891],[-65.6818,-11.4431,130.5723],[-65.6834,-11.4455,120.9777],[-65.6891,-11.4443,121.1704],[-65.6914,-11.4453,119.5981],[-65.691,-11.4491,118.2842],[-65.6948,-11.4635,136.1665],[-65.6915,-11.4831,127.6632],[-65.6992,-11.4914,119.7114],[-65.6992,-11.4999,125.081],[-65.6967,-11.5052,129.463],[-65.6972,-11.5074,119.0082],[-65.7035,-11.506,124.3928],[-65.7046,-11.5084,128.0458],[-65.7034,-11.5099,128.9287],[-65.6886,-11.5111,121.7476],[-65.6927,-11.5204,121.9119],[-65.6891,-11.5256,123.2373],[-65.6718,-11.5255,145.6011],[-65.6694,-11.5329,119.9448],[-65.6638,-11.5368,124.1885],[-65.6663,-11.5442,119.6196],[-65.6656,-11.5465,131.1108],[-65.6586,-11.5424,124.0624],[-65.6565,-11.5427,134.088],[-65.6573,-11.5584,127.0714],[-65.6529,-11.5688,120.4021],[-65.6567,-11.5719,124.4354],[-65.6614,-11.5715,129.0332],[-65.6656,-11.5738,126.5755],[-65.6633,-11.5763,127.0944],[-65.661,-11.576599999999999,119.8401],[-65.6599,-11.5805,128.1736],[-65.6551,-11.5802,121.2297],[-65.6481,-11.5864,123.2114],[-65.656,-11.591,120.9035],[-65.6552,-11.5944,124.8145],[-65.658,-11.6027,119.6364],[-65.6514,-11.6076,119.928],[-65.6414,-11.605,128.238],[-65.6281,-11.6067,123.2375],[-65.627,-11.609,125.2572],[-65.6288,-11.6128,122.2907],[-65.6182,-11.6182,126.0833],[-65.6196,-11.6216,122.4688],[-65.6173,-11.6255,121.7935],[-65.616,-11.6365,128.9386],[-65.5994,-11.6444,129.192],[-65.6015,-11.6471,128.6066],[-65.6065,-11.6479,128.4075],[-65.6067,-11.651,126.8908],[-65.6025,-11.6622,127.4453],[-65.5994,-11.6665,131.9933],[-65.5913,-11.6699,124.7962],[-65.5854,-11.6804,131.2772],[-65.58,-11.6844,127.9202],[-65.5851,-11.6893,124.5612],[-65.5907,-11.6912,130.981],[-65.5852,-11.6992,134.622],[-65.588,-11.703,124.8508],[-65.579,-11.7112,137.8172],[-65.5755,-11.72,131.834],[-65.5728,-11.7206,127.6524],[-65.5743,-11.7257,126.0644],[-65.5714,-11.7325,121.8743],[-65.569,-11.7319,124.3765],[-65.5662,-11.7345,126.2609],[-65.5628,-11.7346,131.0768],[-65.5646,-11.7408,124.9074],[-65.5542,-11.7566,137.2985],[-65.5568,-11.7616,141.0466],[-65.5556,-11.7646,144.0649],[-65.543,-11.7721,126.7418],[-65.544,-11.7821,136.0861],[-65.5391,-11.7882,127.0445],[-65.5417,-11.7906,129.5601],[-65.5468,-11.7913,126.7913],[-65.5473,-11.7946,132.2648],[-65.5429,-11.7939,130.3535],[-65.5345,-11.7963,130.2883],[-65.5317,-11.8062,134.2918],[-65.5343,-11.8116,129.7331],[-65.5341,-11.8145,129.0054],[-65.5246,-11.8172,129.4792],[-65.5274,-11.8275,134.9087],[-65.5153,-11.8305,132.3376],[-65.514,-11.8354,133.6496],[-65.5068,-11.8379,137.2954],[-65.5075,-11.8445,129.7674],[-65.5018,-11.8457,133.6128],[-65.4957,-11.8536,130.9987],[-65.4993,-11.8604,129.808],[-65.4989,-11.8723,136.576],[-65.4944,-11.8794,129.9645],[-65.4958,-11.8832,133.7701],[-65.5029,-11.8874,140.6306],[-65.5007,-11.8965,142.0223],[-65.5039,-11.8991,131.7399],[-65.5081,-11.8993,132.6837],[-65.5103,-11.9039,133.3005],[-65.5198,-11.9104,143.3976],[-65.5192,-11.9116,133.4282],[-65.5132,-11.9125,133.7137],[-65.5145,-11.9166,131.6057],[-65.5137,-11.9218,130.2335],[-65.5171,-11.923,134.6402],[-65.5167,-11.9254,130.2434],[-65.5114,-11.9272,138.3057],[-65.5091,-11.9345,140.8416],[-65.5022,-11.9371,132.6679],[-65.502,-11.9388,136.4383],[-65.5055,-11.9406,133.9899],[-65.5089,-11.937,131.3039],[-65.5085,-11.9434,138.9324],[-65.5169,-11.9519,130.3173],[-65.5012,-11.9496,132.3692],[-65.5018,-11.956,132.6792],[-65.5066,-11.9608,131.6092],[-65.499,-11.9626,133.3485],[-65.5014,-11.9674,131.0867],[-65.4874,-11.9623,132.7643],[-65.4854,-11.9641,133.1856],[-65.4869,-11.9679,138.7013],[-65.4851,-11.9713,140.1576],[-65.4826,-11.9722,136.0026],[-65.4753,-11.9706,131.1476],[-65.4651,-11.9776,131.8845],[-65.4673,-11.9836,134.7126],[-65.4652,-11.9909,133.7064],[-65.4694,-11.9931,133.0739],[-65.4687,-11.9962,133.5037],[-65.4607,-12.0,134.8866],[-65.1217,-12.0001,126.0],[-65.1131,-11.9691,125.5],[-65.1094,-11.9628,125.0],[-65.1048,-11.9601,126.4493],[-65.1011,-11.9603,126.7695],[-65.0987,-11.9627,130.3069],[-65.0974,-11.9667,124.5],[-65.0984,-11.9804,124.5],[-65.0936,-11.9927,124.0],[-65.0887,-11.9974,124.0],[-65.0831,-11.9994,126.3225],[-65.0723,-11.994,123.5],[-65.0689,-11.9904,123.5],[-65.0655,-11.9801,123.5],[-65.0652,-11.9665,123.375],[-65.0733,-11.9434,123.0],[-65.0743,-11.937,123.0],[-65.0729,-11.9327,126.3153],[-65.0696,-11.9305,129.8566],[-65.0642,-11.9302,129.1073],[-65.0383,-11.9428,122.0],[-65.0325,-11.9389,124.0092],[-65.0271,-11.9315,123.2523],[-65.0228,-11.9286,122.0]]]]}}