{"type":"Feature","properties":{"GID_3":"BOL.8.4.4_2","GID_0":"BOL","country":"Bolivia","GID_1":"BOL.8_1","province":"SantaCruz","NL_NAME_1":"NA","GID_2":"BOL.8.4_2","county":"Cordillera","NL_NAME_2":"NA","city":"Charagua","VARNAME_3":"NA","NL_NAME_3":"NA","TYPE_3":"District","ENGTYPE_3":"Distrito","CC_3":"NA","HASC_3":"NA","name":"Charagua.city"},
"geometry":{"type": "MultiPolygon","coordinates": [[[[-62.1794,-20.4426,369.0851],[-61.9224,-20.0892,347.5981],[-61.8328,-19.8742,383.0629],[-61.7355,-19.6342,504.646],[-61.1222,-19.5391,281.543],[-60.601,-19.4559,205.2628],[-59.9769,-19.2952,180.1538],[-59.9328,-19.2988,178.5443],[-59.8838,-19.3001,175.191],[-59.6457,-19.3125,207.9516],[-59.2497,-19.3408,223.3851],[-59.1145,-19.344,298.3582],[-59.0996,-19.3494,297.8896],[-58.9864,-18.9853,164.9357],[-58.8704,-18.7968,136.8658],[-58.9614,-18.664,141.2074],[-58.9634,-18.6659,142.7441],[-58.9607,-18.6673,145.4904],[-58.9646,-18.6701,149.5965],[-58.9651,-18.6686,146.8272],[-58.9685,-18.6694,146.4006],[-58.9705,-18.6679,146.5576],[-58.9737,-18.6702,150.8736],[-58.974,-18.6688,145.9527],[-58.9772,-18.6684,148.6317],[-58.9759,-18.6672,147.1586],[-58.9775,-18.6629,144.7387],[-58.983,-18.6645,145.3327],[-58.9856,-18.6641,144.2895],[-58.9878,-18.6609,144.5508],[-58.9911,-18.6631,148.5138],[-58.9952,-18.6602,144.3575],[-58.9951,-18.6619,151.6919],[-58.9969,-18.6615,151.7303],[-58.9995,-18.6583,151.1887],[-58.9976,-18.657,147.4696],[-58.9989,-18.6545,142.9977],[-58.9976,-18.6525,144.8266],[-58.9995,-18.6503,144.2903],[-58.9987,-18.6484,146.498],[-59.0007,-18.6474,148.4487],[-58.9998,-18.6421,144.283],[-59.0021,-18.6414,145.7785],[-59.0051,-18.6431,152.6819],[-59.0064,-18.6397,146.5085],[-59.0131,-18.6362,143.7444],[-59.0212,-18.637,141.9136],[-59.0274,-18.6454,148.0737],[-59.0306,-18.6568,154.4258],[-59.0321,-18.6573,152.4761],[-59.0354,-18.6555,148.5622],[-59.0359,-18.6535,150.2873],[-59.0436,-18.651,150.1138],[-59.0453,-18.6492,148.8403],[-59.0447,-18.6476,146.8294],[-59.0526,-18.6467,147.9371],[-59.0601,-18.6566,156.7147],[-59.0659,-18.6574,151.8831],[-59.066,-18.6519,148.6589],[-59.0737,-18.6518,154.0085],[-59.0806,-18.6554,156.879],[-59.0827,-18.6628,160.1273],[-59.086,-18.6638,151.8632],[-59.0903,-18.6603,157.9681],[-59.0924,-18.6556,151.5773],[-59.097,-18.6524,160.2849],[-59.0999,-18.6468,160.8865],[-59.1084,-18.6429,156.9262],[-59.118,-18.6413,159.9604],[-59.1202,-18.6423,156.183],[-59.1257,-18.6403,160.7137],[-59.1347,-18.6414,162.1712],[-59.1415,-18.6456,165.4718],[-59.1481,-18.6467,165.0633],[-59.1567,-18.6424,162.3045],[-59.1635,-18.6473,163.8021],[-59.1716,-18.6397,165.9651],[-59.1815,-18.641,162.9788],[-59.1887,-18.6456,161.7312],[-59.1921,-18.6535,166.5991],[-59.1951,-18.6554,163.8306],[-59.199,-18.654,169.9574],[-59.2021,-18.6566,170.309],[-59.2077,-18.6559,170.7775],[-59.2132,-18.6498,162.3884],[-59.2168,-18.65,165.1166],[-59.2199,-18.6478,170.8019],[-59.2219,-18.6411,168.7164],[-59.2287,-18.6394,170.4886],[-59.2316,-18.6406,172.216],[-59.2345,-18.639,171.3477],[-59.233,-18.6354,165.8927],[-59.2356,-18.6318,168.1619],[-59.2422,-18.6312,166.7128],[-59.2452,-18.6285,167.3012],[-59.2515,-18.6296,167.5576],[-59.2526,-18.6324,167.2278],[-59.2578,-18.6317,170.8027],[-59.2691,-18.6176,174.9338],[-59.2713,-18.6107,166.7942],[-59.2752,-18.6111,169.0537],[-59.275,-18.6133,171.5737],[-59.2799,-18.6184,171.776],[-59.2818,-18.6261,175.1095],[-59.2835,-18.6269,172.1662],[-59.2947,-18.6217,179.1855],[-59.2987,-18.6238,179.1499],[-59.3015,-18.6218,176.1034],[-59.3043,-18.6225,176.7706],[-59.3125,-18.6203,176.8257],[-59.3203,-18.6132,178.8117],[-59.3235,-18.6045,179.6192],[-59.3335,-18.5997,176.0015],[-59.3385,-18.6001,184.0627],[-59.3444,-18.6044,181.466],[-59.3446,-18.6064,182.8869],[-59.3522,-18.6093,177.0458],[-59.3574,-18.6069,182.3326],[-59.3596,-18.6076,181.8277],[-59.3632,-18.6038,177.9037],[-59.3678,-18.6029,179.9353],[-59.3745,-18.608,185.831],[-59.3796,-18.6041,185.0978],[-59.3842,-18.6062,175.9515],[-59.3931,-18.6051,185.2755],[-59.3974,-18.6088,184.7601],[-59.4017,-18.6082,188.725],[-59.4078,-18.6106,185.731],[-59.4092,-18.6098,183.4107],[-59.4099,-18.6018,185.5649],[-59.4137,-18.5967,188.6409],[-59.4087,-18.5898,188.8853],[-59.4097,-18.5866,188.598],[-59.4144,-18.5897,190.0882],[-59.4195,-18.5853,190.6603],[-59.4305,-18.5873,185.7025],[-59.4342,-18.5832,188.305],[-59.4382,-18.5841,191.419],[-59.4423,-18.5805,187.0425],[-59.4438,-18.582,190.7018],[-59.4475,-18.5811,187.1399],[-59.4507,-18.5781,186.7652],[-59.4565,-18.584,186.4079],[-59.4645,-18.5859,189.7072],[-59.4675,-18.5839,190.1597],[-59.4722,-18.5855,190.4743],[-59.4772,-18.5818,190.2157],[-59.4781,-18.5771,194.9048],[-59.4824,-18.5729,191.5654],[-59.4896,-18.5709,191.9346],[-59.4921,-18.5713,196.2024],[-59.4949,-18.5749,195.154],[-59.4979,-18.5838,197.8456],[-59.4995,-18.5846,199.5105],[-59.5051,-18.5836,197.7231],[-59.5112,-18.5802,196.3774],[-59.5144,-18.5814,202.7271],[-59.5161,-18.5797,200.5565],[-59.5208,-18.582,204.3335],[-59.5283,-18.5809,197.4288],[-59.5331,-18.5847,203.3488],[-59.5378,-18.5837,202.7526],[-59.5406,-18.5809,199.6874],[-59.5456,-18.5831,205.539],[-59.5504,-18.5809,204.8139],[-59.5525,-18.5836,202.8179],[-59.5607,-18.5715,207.503],[-59.56,-18.5701,206.2584],[-59.5622,-18.5694,207.718],[-59.5653,-18.5645,206.9705],[-59.5698,-18.5619,206.0313],[-59.5777,-18.5612,205.009],[-59.5817,-18.5574,208.4677],[-59.585,-18.5579,208.7166],[-59.5856,-18.5539,210.1813],[-59.5931,-18.5463,206.0415],[-59.5948,-18.5375,208.9818],[-59.5968,-18.536,212.1124],[-59.6021,-18.5362,212.079],[-59.6097,-18.5402,214.1372],[-59.6125,-18.5396,216.2528],[-59.6175,-18.5299,208.7469],[-59.6234,-18.5272,215.1238],[-59.6282,-18.5279,214.5541],[-59.6279,-18.525,211.6978],[-59.6324,-18.5213,212.8893],[-59.6408,-18.5176,222.4285],[-59.6476,-18.5095,215.352],[-59.6562,-18.5115,215.0002],[-59.6615,-18.5147,216.9642],[-59.6679,-18.511,217.5941],[-59.6714,-18.5118,216.8511],[-59.6751,-18.5044,221.1633],[-59.6787,-18.5036,219.8575],[-59.6805,-18.4994,216.8988],[-59.6829,-18.4998,220.9282],[-59.687,-18.4959,220.226],[-59.6827,-18.4905,221.5422],[-59.6894,-18.4842,221.9881],[-59.6922,-18.4769,221.506],[-60.1175,-18.4166,461.3408],[-61.2885,-18.2435,276.9876],[-61.6492,-18.1888,285.6182],[-62.3979,-18.0671,309.5836],[-62.8104,-18.0181,311.5],[-62.8076,-18.0329,311.5],[-62.8109,-18.0675,316.692],[-62.8242,-18.0877,318.3871],[-62.8482,-18.1016,324.0393],[-62.8544,-18.1161,322.4131],[-62.8545,-18.1226,321.5],[-62.849,-18.1404,323.0],[-62.8531,-18.1475,323.5],[-62.8548,-18.1551,325.45],[-62.8456,-18.1709,326.125],[-62.8452,-18.1779,327.0],[-62.8509,-18.1877,328.5],[-62.8611,-18.192,329.375],[-62.8645,-18.2018,334.4169],[-62.8798,-18.2194,333.8958],[-62.8803,-18.2246,333.5829],[-62.8881,-18.2383,340.2196],[-62.8882,-18.2428,339.7127],[-62.8747,-18.2711,337.0],[-62.8777,-18.2772,337.5],[-62.8804,-18.2934,340.62],[-62.8832,-18.3006,340.0425],[-62.883,-18.3085,341.7222],[-62.8929,-18.3315,343.0],[-62.8931,-18.3482,344.5],[-62.8957,-18.3563,352.5424],[-62.9002,-18.3622,347.0505],[-62.902,-18.3723,352.4727],[-62.9354,-18.4156,353.3959],[-62.9384,-18.4247,355.9688],[-62.9367,-18.4451,356.0],[-62.9378,-18.4541,360.9388],[-62.9411,-18.4565,362.0812],[-62.9488,-18.4583,363.9051],[-62.9548,-18.4709,361.3696],[-62.985,-18.5038,369.6488],[-62.9976,-18.5095,371.4328],[-63.0013,-18.5096,373.1924],[-63.0083,-18.5145,369.25],[-63.0091,-18.5181,369.5],[-63.0032,-18.5372,374.6701],[-63.0036,-18.5497,373.0],[-63.0062,-18.5533,373.0],[-63.0206,-18.5615,374.5],[-63.042,-18.5772,377.0],[-63.0614,-18.5863,379.0],[-63.0744,-18.5954,380.5],[-63.0938,-18.6015,382.0],[-63.0976,-18.6058,382.5],[-63.1009,-18.6152,383.5],[-63.0969,-18.6305,384.5],[-63.0993,-18.6473,386.5],[-63.111,-18.6555,387.25],[-63.1214,-18.6712,393.4833],[-63.1281,-18.6861,391.0],[-63.1365,-18.6973,392.5],[-63.1398,-18.7062,393.125],[-63.1567,-18.7234,395.5],[-63.1665,-18.7303,397.3592],[-63.1696,-18.741,399.4956],[-63.1746,-18.7484,400.8298],[-63.1794,-18.7523,401.4847],[-63.1916,-18.7566,404.4185],[-63.1971,-18.7669,406.2724],[-63.1963,-18.7753,406.5191],[-63.2074,-18.7956,408.9478],[-63.2267,-18.805,411.394],[-63.2405,-18.8043,408.8154],[-63.2576,-18.8107,409.8997],[-63.2796,-18.8071,413.8388],[-63.2912,-18.8079,412.5],[-63.3162,-18.814,418.0246],[-63.3243,-18.8263,421.3047],[-63.3256,-18.8431,418.8846],[-63.3239,-18.857,417.5],[-63.3257,-18.8635,418.0],[-63.3334,-18.8728,419.0],[-63.3364,-18.8866,423.4735],[-63.344,-18.9055,421.5],[-63.3507,-18.9152,431.5583],[-63.3585,-18.9198,432.0663],[-63.3725,-18.9229,423.5],[-63.3822,-18.9352,466.2723],[-63.3801,-18.9359,454.9624],[-63.3821,-18.9407,474.7027],[-63.3802,-18.9419,477.7748],[-63.3816,-18.944,477.9494],[-63.3798,-18.9472,516.3898],[-63.3868,-18.9695,561.5159],[-63.3866,-19.0165,644.6014],[-63.3955,-19.0441,756.2896],[-63.401,-19.0486,849.6753],[-63.4085,-19.0589,940.1736],[-63.4084,-19.072,1032.6658],[-63.412,-19.0835,885.0981],[-63.4021,-19.0926,794.5034],[-63.4039,-19.0978,799.922],[-63.3966,-19.1027,744.9454],[-63.3942,-19.1106,710.4781],[-63.3903,-19.112,692.8499],[-63.3916,-19.1231,727.7486],[-63.389,-19.1272,747.9064],[-63.3946,-19.143,887.6577],[-63.3894,-19.1571,1038.0299],[-63.3917,-19.1663,845.7164],[-63.3877,-19.1752,994.0767],[-63.3884,-19.1817,910.7355],[-63.3908,-19.1866,941.496],[-63.3996,-19.1946,966.0447],[-63.3997,-19.201,988.9001],[-63.401,-19.2025,943.0569],[-63.4144,-19.2099,956.837],[-63.4205,-19.2166,1043.2235],[-63.4221,-19.2262,1277.3607],[-63.4121,-19.2462,1261.1124],[-63.4102,-19.255,1128.7261],[-63.3949,-19.2926,1187.6426],[-63.3843,-19.2976,959.2788],[-63.3674,-19.3152,978.2498],[-63.3581,-19.331,1238.2539],[-63.3485,-19.3415,1141.9807],[-63.3324,-19.3663,1511.9429],[-63.3252,-19.3736,1567.3439],[-63.3249,-19.3759,1514.1019],[-63.3274,-19.3809,1460.5708],[-63.3347,-19.381,1271.7069],[-63.3448,-19.3856,1228.3523],[-63.3601,-19.3855,1046.6011],[-63.3766,-19.3813,1422.6641],[-63.377,-19.3842,1387.1947],[-63.3718,-19.4017,1366.8544],[-63.3688,-19.4034,1351.2955],[-63.3677,-19.4111,1388.79],[-63.3614,-19.418,1324.8662],[-63.3563,-19.4482,1420.434],[-63.3515,-19.4651,1438.6606],[-63.3511,-19.4749,1433.1976],[-63.3468,-19.4869,1407.0353],[-63.3486,-19.4926,1334.1803],[-63.3486,-19.5187,1272.8296],[-63.3474,-19.5271,1320.6807],[-63.3418,-19.5352,1288.5388],[-63.34,-19.542,1324.887],[-63.3417,-19.5627,1410.501],[-63.3459,-19.5687,1276.2371],[-63.3452,-19.5819,1506.1439],[-63.3409,-19.5942,1606.7181],[-63.3369,-19.6167,1557.0824],[-63.3307,-19.6398,1558.5674],[-63.3273,-19.6449,1559.0881],[-63.3294,-19.6515,1614.5835],[-63.3265,-19.659,1618.0769],[-63.3283,-19.6755,1554.2849],[-63.3235,-19.6869,1607.1757],[-63.3218,-19.6999,1510.9041],[-63.3193,-19.7061,1381.6982],[-63.3192,-19.7142,1317.2594],[-63.3178,-19.7164,1270.9594],[-63.3169,-19.7235,1238.7288],[-63.3219,-19.7363,1278.1562],[-63.3126,-19.8539,1584.2991],[-63.3148,-19.8629,1356.3771],[-63.3144,-19.8743,1456.165],[-63.3116,-19.8772,1401.9982],[-63.3132,-19.8866,1373.9827],[-63.312,-19.8915,1367.5425],[-63.3058,-19.8964,1517.7922],[-63.3015,-19.9132,1384.428],[-63.3007,-19.928,1232.0945],[-63.2978,-19.9395,1161.9246],[-63.2985,-19.9457,1032.9642],[-63.2965,-19.9731,1205.8188],[-63.2945,-19.98,1141.7507],[-63.2929,-20.0097,745.6699],[-63.2933,-20.0132,683.8691],[-63.298,-20.0137,673.191],[-63.2959,-20.0157,682.1312],[-63.298,-20.0227,691.5518],[-63.295,-20.0302,685.1907],[-63.297,-20.0313,699.5859],[-63.2994,-20.0268,690.8116],[-63.3019,-20.0272,712.4462],[-63.3037,-20.0394,687.8267],[-63.3056,-20.04,680.5941],[-63.3068,-20.0349,691.4219],[-63.313,-20.0311,718.2285],[-63.3186,-20.0343,694.0219],[-63.3258,-20.0345,715.6974],[-63.3228,-20.0406,693.7456],[-63.326,-20.0459,692.8746],[-63.3205,-20.0481,687.5215],[-63.3224,-20.0569,686.3339],[-63.3247,-20.0572,693.8145],[-63.3294,-20.0511,697.5604],[-63.3313,-20.0425,724.3564],[-63.3336,-20.0412,744.8791],[-63.3365,-20.0483,775.591],[-63.3323,-20.0519,700.6321],[-63.3321,-20.0538,745.5276],[-63.3376,-20.0537,729.8869],[-63.3423,-20.0614,757.0325],[-63.3459,-20.0616,695.1392],[-63.3407,-20.0666,704.8781],[-63.3404,-20.0688,736.8143],[-63.3465,-20.0665,712.0536],[-63.3506,-20.0669,703.7416],[-63.352,-20.0756,712.8856],[-63.3609,-20.0749,706.5962],[-63.3607,-20.0805,714.3005],[-63.3623,-20.0838,715.6923],[-63.3815,-20.0915,706.325],[-63.3916,-20.1011,708.9285],[-63.4004,-20.0978,709.9755],[-63.4084,-20.0893,716.3967],[-63.4132,-20.089,714.8739],[-63.4199,-20.0855,717.569],[-63.4227,-20.0888,719.828],[-63.4253,-20.0895,719.7843],[-63.4319,-20.0891,722.275],[-63.4478,-20.0837,724.7986],[-63.4558,-20.0859,818.7755],[-63.4587,-20.0912,728.1883],[-63.4632,-20.0947,738.1442],[-63.463,-20.1004,760.4144],[-63.4666,-20.1133,761.2223],[-63.4708,-20.1172,771.6927],[-63.4727,-20.117,805.349],[-63.4758,-20.1209,808.7288],[-63.4759,-20.1293,788.4778],[-63.4776,-20.1341,807.655],[-63.4768,-20.1388,815.5864],[-63.4749,-20.1393,796.5191],[-63.4768,-20.1437,827.1147],[-63.4757,-20.1443,800.2424],[-63.4764,-20.1493,804.5255],[-63.4743,-20.151,805.8206],[-63.476,-20.155,810.3492],[-63.4747,-20.1577,811.4329],[-63.4768,-20.1633,824.8338],[-63.4748,-20.1687,822.4031],[-63.4771,-20.1748,827.4899],[-63.4796,-20.1752,827.0591],[-63.4801,-20.1827,832.001],[-63.4818,-20.1853,834.3279],[-63.4792,-20.1937,838.2222],[-63.4811,-20.1965,840.3151],[-63.4731,-20.2006,868.0883],[-63.4654,-20.201,1066.4362],[-63.4544,-20.1973,965.9063],[-63.4511,-20.1958,934.2947],[-63.4424,-20.1868,1008.5543],[-63.4321,-20.1847,893.3511],[-63.419,-20.1768,857.4362],[-63.4067,-20.1731,836.4687],[-63.3976,-20.1637,815.8274],[-63.3911,-20.1649,810.3727],[-63.3864,-20.1633,808.3522],[-63.3844,-20.1595,806.8056],[-63.3795,-20.1567,796.4697],[-63.3501,-20.1576,854.5314],[-63.3436,-20.1588,884.0914],[-63.339,-20.1622,904.9852],[-63.3264,-20.1611,968.5776],[-63.3095,-20.1664,901.9781],[-63.3019,-20.1668,879.604],[-63.2991,-20.1708,891.1973],[-63.2939,-20.1722,910.4219],[-63.2874,-20.1766,925.2773],[-63.2796,-20.1728,974.1924],[-63.2744,-20.1755,982.6023],[-63.2692,-20.1737,999.5194],[-63.2674,-20.1753,1012.7188],[-63.2554,-20.1764,972.016],[-63.2494,-20.1738,940.9249],[-63.2435,-20.1739,912.4944],[-63.2379,-20.1754,912.7524],[-63.2179,-20.1751,1040.5667],[-63.1981,-20.1801,1389.8687],[-63.1964,-20.1857,1318.6354],[-63.1983,-20.1961,1390.0149],[-63.1908,-20.2306,1236.5585],[-63.1869,-20.266,1082.6921],[-63.1689,-20.2732,897.3129],[-63.141,-20.2753,810.4227],[-63.107,-20.2721,711.5453],[-62.691,-20.2724,491.2816],[-62.6925,-20.4422,494.4824],[-62.1794,-20.4426,369.0851]]]]}}