{"type":"Feature","properties":{"GID_2":"BOL.4.17_2","GID_0":"BOL","country":"Bolivia","GID_1":"BOL.4_1","province":"LaPaz","NL_NAME_1":"NA","county":"Murillo","VARNAME_2":"NA","NL_NAME_2":"NA","TYPE_2":"Provincia","ENGTYPE_2":"Province","CC_2":"NA","HASC_2":"NA","name":"Murillo.county"},
"geometry":{"type": "MultiPolygon","coordinates": [[[[-68.0042,-16.8429,4032.9629],[-67.9921,-16.8455,3780.5474],[-67.9764,-16.8585,3669.009],[-67.9677,-16.8606,3431.6233],[-67.9635,-16.86,3391.9622],[-67.9613,-16.856,3627.6538],[-67.9627,-16.8517,3736.8447],[-67.9606,-16.8466,3957.5713],[-67.961,-16.8395,3934.4712],[-67.9599,-16.8372,3959.51],[-67.9534,-16.8347,4184.2324],[-67.9552,-16.8294,4241.707],[-67.9543,-16.8277,4190.3062],[-67.9485,-16.826,4226.0845],[-67.9399,-16.8293,4106.6792],[-67.9339,-16.824,4135.7021],[-67.9277,-16.8244,4285.1646],[-67.9234,-16.8166,4318.7549],[-67.9169,-16.818,4280.52],[-67.9112,-16.8172,4182.9219],[-67.8969,-16.8264,3932.5913],[-67.8934,-16.8269,3894.6128],[-67.8807,-16.8215,3409.8655],[-67.8759,-16.8167,3203.0847],[-67.869,-16.8043,3769.2385],[-67.8629,-16.8044,3679.5],[-67.845,-16.8072,3777.656],[-67.8281,-16.8158,3832.1758],[-67.8234,-16.8285,3700.9219],[-67.8193,-16.8298,3760.2036],[-67.796,-16.8287,3804.3291],[-67.7872,-16.834,3374.7324],[-67.7684,-16.8346,2935.9084],[-67.7608,-16.8385,2767.8274],[-67.7487,-16.8514,2548.4082],[-67.7438,-16.8526,2468.9153],[-67.7411,-16.8608,2345.0688],[-67.7315,-16.8581,2237.9355],[-67.7195,-16.8607,2112.5447],[-67.7109,-16.8595,2036.7427],[-67.703,-16.8529,1985.2909],[-67.7009,-16.8482,1941.2324],[-67.7088,-16.8268,1879.5355],[-67.7082,-16.8209,1878.2314],[-67.7063,-16.8181,1856.5947],[-67.6951,-16.8064,1820.2363],[-67.6889,-16.8041,1869.7688],[-67.6828,-16.8055,1808.2065],[-67.6776,-16.8033,1783.9851],[-67.6678,-16.8025,1799.3087],[-67.6625,-16.7986,1750.2858],[-67.6603,-16.7941,1749.8464],[-67.6641,-16.7851,1741.9028],[-67.6624,-16.7825,1713.1672],[-67.6574,-16.7783,1698.2556],[-67.6524,-16.7774,1694.1948],[-67.6463,-16.7655,1682.67],[-67.6431,-16.764,1700.8617],[-67.6386,-16.7653,1688.4594],[-67.6339,-16.763,1715.176],[-67.6283,-16.7564,1752.515],[-67.6232,-16.7438,1636.4647],[-67.6197,-16.7431,1724.835],[-67.6265,-16.7327,2395.2898],[-67.6269,-16.7294,2597.7456],[-67.632,-16.7235,3003.1011],[-67.636,-16.7226,3435.675],[-67.6452,-16.7152,3967.6279],[-67.6644,-16.7052,4142.0771],[-67.6748,-16.6961,4162.3228],[-67.6862,-16.69,4448.3745],[-67.6966,-16.6768,4736.5522],[-67.7049,-16.6743,4676.3931],[-67.7121,-16.6692,4562.355],[-67.729,-16.6689,4765.2178],[-67.7625,-16.6568,5712.8359],[-67.7828,-16.6557,6238.123],[-67.7841,-16.6538,6370.5059],[-67.7825,-16.6434,6064.9902],[-67.7871,-16.6382,6217.6113],[-67.7972,-16.6352,6184.105],[-67.8009,-16.6308,6001.6099],[-67.8123,-16.6277,5650.9155],[-67.8132,-16.6247,5654.2578],[-67.8053,-16.6025,4884.8462],[-67.8084,-16.5977,4917.0244],[-67.8074,-16.5932,4783.7612],[-67.8194,-16.5875,4684.5098],[-67.8272,-16.5802,4589.917],[-67.8322,-16.5784,4605.8867],[-67.8428,-16.5768,4712.8672],[-67.8502,-16.5782,4713.8384],[-67.8505,-16.5747,4680.9717],[-67.8551,-16.5699,4518.2471],[-67.8536,-16.5601,4801.5659],[-67.8505,-16.5532,4890.918],[-67.8581,-16.5466,4975.3281],[-67.8586,-16.5444,4872.9985],[-67.8435,-16.5346,5192.3315],[-67.8433,-16.5303,5192.9443],[-67.8397,-16.5277,5294.3999],[-67.8386,-16.5237,5242.5273],[-67.8464,-16.4995,4963.5786],[-67.8508,-16.4969,4961.7104],[-67.8603,-16.4955,4971.0283],[-67.8621,-16.4934,4842.5493],[-67.8715,-16.492,4802.9258],[-67.8755,-16.4942,4767.9058],[-67.8794,-16.4936,4865.6074],[-67.8872,-16.489,4706.0181],[-67.8867,-16.4855,4610.3701],[-67.8895,-16.4801,4782.6582],[-67.9086,-16.4749,4996.2451],[-67.9175,-16.4651,4883.8477],[-67.9224,-16.4618,5027.707],[-67.9288,-16.4613,5065.5352],[-67.9381,-16.4539,5171.498],[-67.9364,-16.4414,5104.3369],[-67.9439,-16.424,4884.0752],[-67.9478,-16.4185,5286.5889],[-67.9477,-16.4115,5318.1802],[-67.9399,-16.4065,5220.6982],[-67.9386,-16.4023,5198.1968],[-67.941,-16.3926,5476.0122],[-67.9355,-16.3842,5239.1719],[-67.9362,-16.3783,5183.6768],[-67.9328,-16.374,5248.5288],[-67.9362,-16.3704,5076.813],[-67.936,-16.366,5150.2544],[-67.9338,-16.3652,5180.3867],[-67.9334,-16.362,5227.0845],[-67.9409,-16.3474,4894.7324],[-67.9497,-16.3398,4384.21],[-67.9546,-16.3303,3620.6138],[-67.957,-16.3191,4014.4131],[-67.956,-16.3149,4114.0986],[-67.9579,-16.3137,4154.5718],[-67.9569,-16.3025,4533.8672],[-67.9517,-16.293,4301.8794],[-67.9448,-16.2847,4438.458],[-67.9439,-16.2611,4096.8184],[-67.9491,-16.2518,3747.0664],[-67.944,-16.2426,3332.1997],[-67.9428,-16.2358,3231.5095],[-67.943,-16.2272,2990.4702],[-67.9514,-16.2029,2528.4902],[-67.9581,-16.1962,2959.7034],[-67.9626,-16.1832,3508.7705],[-67.9657,-16.1805,3604.4878],[-67.962,-16.1723,3249.593],[-67.9592,-16.1712,3166.0396],[-67.9581,-16.1679,3113.5542],[-67.9558,-16.1663,3057.1743],[-67.9571,-16.1622,2810.1753],[-67.9546,-16.1576,2632.7803],[-67.9578,-16.1442,2258.8162],[-67.9611,-16.1422,2374.8892],[-67.9611,-16.1368,2208.4836],[-67.9588,-16.1345,2003.3344],[-67.9602,-16.1299,2058.2451],[-67.957,-16.1309,1937.2644],[-67.9526,-16.1259,1894.957],[-67.9451,-16.1227,1855.3597],[-67.9443,-16.1161,1822.588],[-67.9426,-16.117,1725.9586],[-67.94,-16.1153,1752.2673],[-67.9356,-16.1156,1668.98],[-67.9342,-16.1096,1627.7195],[-67.9319,-16.1079,1701.5088],[-67.9313,-16.1008,1692.406],[-67.9281,-16.101,1507.1844],[-67.926,-16.1031,1522.1375],[-67.9248,-16.1004,1472.7853],[-67.9222,-16.1,1468.8306],[-67.9266,-16.0905,1385.6318],[-67.9247,-16.0891,1366.4434],[-67.9261,-16.086,1353.3906],[-67.9253,-16.0802,1358.228],[-67.9217,-16.0784,1249.2494],[-67.9179,-16.0833,1495.7773],[-67.9183,-16.0852,1612.8896],[-67.9133,-16.0905,1703.25],[-67.911,-16.0897,1784.4891],[-67.9077,-16.0914,1951.9622],[-67.9053,-16.0911,2059.4763],[-67.9004,-16.0861,2333.062],[-67.8962,-16.0868,2781.6455],[-67.8929,-16.0911,2743.2197],[-67.8879,-16.0893,2225.7529],[-67.8756,-16.0898,1497.4912],[-67.8751,-16.0868,1450.7103],[-67.8722,-16.0851,1567.3181],[-67.867,-16.0939,2160.9309],[-67.8626,-16.0968,2542.5244],[-67.8617,-16.084,2110.5352],[-67.863,-16.0705,1989.6351],[-67.8599,-16.0628,2100.4128],[-67.859,-16.0507,2034.2151],[-67.8513,-16.0472,2045.6172],[-67.842,-16.0383,1828.0281],[-67.8333,-16.017,1310.2418],[-67.8097,-16.0019,1830.9836],[-67.7788,-15.9994,1666.9409],[-67.7372,-16.0095,1951.7834],[-67.7335,-16.0089,1811.8],[-67.7291,-16.0113,1767.5927],[-67.7289,-16.0148,1675.8821],[-67.722,-16.0118,1583.5452],[-67.7179,-16.0148,1529.1719],[-67.7149,-16.0133,1513.9888],[-67.7093,-16.0166,1501.6067],[-67.7056,-16.0145,1501.7775],[-67.7019,-16.0166,1510.5596],[-67.6997,-16.0216,1455.2656],[-67.6953,-16.0212,1521.2432],[-67.6935,-16.0195,1453.6378],[-67.6892,-16.0207,1446.1412],[-67.6868,-16.0237,1433.4341],[-67.6844,-16.0221,1432.5389],[-67.6819,-16.0235,1469.1234],[-67.6806,-16.0205,1599.0593],[-67.6789,-16.0215,1583.033],[-67.678,-16.0203,1533.1068],[-67.6775,-16.0137,1627.1554],[-67.6736,-16.0066,1780.4725],[-67.6742,-16.0003,1938.1641],[-67.6699,-15.9888,1741.1458],[-67.6636,-15.9582,1458.3911],[-67.6568,-15.955,1406.1525],[-67.6551,-15.9524,1394.7661],[-67.6513,-15.9522,1417.9744],[-67.6473,-15.9493,1414.7151],[-67.6466,-15.9508,1369.4543],[-67.6452,-15.9501,1387.8086],[-67.6424,-15.9467,1363.4788],[-67.6462,-15.9422,1387.6321],[-67.6413,-15.9265,1364.313],[-67.6357,-15.924,1290.0598],[-67.6315,-15.9173,1199.9307],[-67.6236,-15.9131,939.0978],[-67.6283,-15.9118,921.822],[-67.6325,-15.9075,882.0143],[-67.6333,-15.9003,828.3298],[-67.6354,-15.8999,906.2201],[-67.6356,-15.8928,856.3348],[-67.6318,-15.8881,817.6655],[-67.6344,-15.8841,828.7205],[-67.6331,-15.8815,876.8545],[-67.6355,-15.8776,760.9915],[-67.6429,-15.8723,763.2854],[-67.6444,-15.8672,741.6804],[-67.6511,-15.862,780.2994],[-67.6528,-15.8629,717.7197],[-67.6564,-15.8611,715.786],[-67.6599,-15.8576,863.2997],[-67.659,-15.8531,769.9014],[-67.6609,-15.8508,675.5574],[-67.6583,-15.8504,680.5347],[-67.656,-15.8521,687.1672],[-67.6556,-15.8488,730.3525],[-67.6538,-15.8482,671.5914],[-67.6545,-15.8448,708.6818],[-67.6521,-15.8432,647.8811],[-67.6539,-15.8397,715.9516],[-67.6533,-15.8378,670.187],[-67.6567,-15.8376,646.7643],[-67.6533,-15.8336,622.3873],[-67.6562,-15.8336,638.2397],[-67.6595,-15.8209,886.7466],[-67.6568,-15.8142,798.4021],[-67.6587,-15.7965,808.2748],[-67.6537,-15.7856,550.5901],[-67.6637,-15.7748,526.2043],[-67.665,-15.7668,522.3904],[-67.6735,-15.7586,505.1237],[-67.6794,-15.758,546.0334],[-67.6828,-15.7496,518.4346],[-67.69,-15.7478,734.9056],[-67.7058,-15.7491,1228.2816],[-67.7072,-15.7562,1252.3606],[-67.7052,-15.7588,1257.2451],[-67.7089,-15.765,1256.3518],[-67.7161,-15.7664,1150.6219],[-67.721,-15.7642,1172.2738],[-67.7219,-15.7661,1165.5955],[-67.7173,-15.7848,888.5836],[-67.7255,-15.7851,985.6756],[-67.7325,-15.7901,1106.5261],[-67.7591,-15.7877,1164.9421],[-67.7634,-15.7886,1101.9485],[-67.7815,-15.7824,1028.4927],[-67.7848,-15.7849,1019.6203],[-67.7897,-15.7822,1048.2385],[-67.7926,-15.7857,967.9375],[-67.7954,-15.7822,1016.9054],[-67.8056,-15.7832,1110.736],[-67.8234,-15.8104,1615.2047],[-67.862,-15.8953,2152.7712],[-67.8801,-15.9247,1687.4757],[-67.8918,-15.9523,1581.2533],[-67.8914,-15.9588,1418.0983],[-67.886,-15.969,765.7975],[-67.8891,-15.9747,833.5298],[-67.889,-15.9801,782.1902],[-67.8921,-15.9799,770.1271],[-67.8941,-15.9816,843.4623],[-67.9067,-16.0052,841.3715],[-67.9113,-16.0068,842.6353],[-67.9126,-16.0093,913.8748],[-67.9186,-16.0103,834.2471],[-67.9207,-16.0122,870.7677],[-67.9287,-16.0119,860.4893],[-67.9326,-16.0176,898.3284],[-67.9359,-16.019,926.1807],[-67.9378,-16.029,910.9771],[-67.9419,-16.0342,1022.0856],[-67.9422,-16.0372,961.9116],[-67.9455,-16.0403,980.0767],[-67.9569,-16.0411,966.6136],[-67.9638,-16.0361,1044.9744],[-67.9677,-16.04,1010.1416],[-67.991,-16.0448,1160.4386],[-68.0077,-16.0454,1338.3108],[-68.0203,-16.0434,1888.3303],[-68.0241,-16.0473,1608.7455],[-68.0209,-16.0522,1543.1614],[-68.027,-16.0529,1868.4321],[-68.0319,-16.0554,2020.8333],[-68.048,-16.0511,2756.8149],[-68.0741,-16.0402,4108.0391],[-68.0829,-16.0487,4071.2954],[-68.0873,-16.0479,4089.5686],[-68.0891,-16.0452,4190.8687],[-68.1002,-16.0435,4090.0703],[-68.1026,-16.0392,4073.4731],[-68.1073,-16.0418,4062.0376],[-68.1114,-16.0421,4194.0225],[-68.1165,-16.038,4105.0337],[-68.122,-16.0374,4083.4878],[-68.1252,-16.0486,4198.499],[-68.1301,-16.0467,4097.5601],[-68.1423,-16.0494,4089.5078],[-68.1446,-16.0526,4279.5288],[-68.1604,-16.0593,4658.5093],[-68.1624,-16.0546,4565.3989],[-68.1621,-16.0508,4591.5557],[-68.1663,-16.0446,4611.8413],[-68.1775,-16.0495,4609.9131],[-68.1796,-16.0526,4635.3535],[-68.2044,-16.0551,4615.7773],[-68.2023,-16.058,4594.5552],[-68.2029,-16.0614,4744.29],[-68.2071,-16.0636,4871.5898],[-68.2099,-16.068,4935.0332],[-68.217,-16.0854,4924.7949],[-68.2288,-16.0946,4800.168],[-68.2369,-16.1111,4677.144],[-68.2316,-16.1151,4967.1152],[-68.2251,-16.1246,4799.2852],[-68.2176,-16.1538,4951.5967],[-68.2178,-16.1744,5282.0264],[-68.2162,-16.181,5177.7554],[-68.2182,-16.184,5137.3662],[-68.2174,-16.1892,5293.7974],[-68.2143,-16.1913,5077.5146],[-68.2076,-16.201,5073.2549],[-68.21,-16.2111,4971.9189],[-68.2147,-16.2173,4947.9912],[-68.1813,-16.2373,5259.124],[-68.1537,-16.2626,6003.2451],[-68.1656,-16.2775,5315.0649],[-68.1703,-16.2928,5168.6177],[-68.1853,-16.3026,4831.7661],[-68.1849,-16.3056,4806.2593],[-68.1909,-16.3153,4743.4102],[-68.1931,-16.3246,4711.0513],[-68.1991,-16.3288,4645.4316],[-68.2055,-16.3365,4606.5],[-68.2163,-16.3835,4400.0146],[-68.2434,-16.3927,4248.3013],[-68.2633,-16.4337,4092.4355],[-68.2704,-16.4446,4046.6201],[-68.2705,-16.4559,4007.8589],[-68.2766,-16.4622,3987.4373],[-68.2764,-16.4649,3984.5388],[-68.2824,-16.4717,3963.5474],[-68.289,-16.4834,3940.0376],[-68.2974,-16.491,3918.8203],[-68.305,-16.5075,3895.7722],[-68.3005,-16.5102,3896.541],[-68.2874,-16.5105,3910.3069],[-68.2971,-16.5299,3895.1113],[-68.283,-16.5363,3902.5044],[-68.2663,-16.5246,3924.1514],[-68.2367,-16.5435,3943.3638],[-68.2533,-16.5608,3921.3953],[-68.2575,-16.5591,3917.3936],[-68.2608,-16.5627,3913.9006],[-68.2263,-16.5733,3934.4973],[-68.2238,-16.5709,3938.5188],[-68.2212,-16.5722,3942.0229],[-68.2203,-16.5708,3943.6279],[-68.2057,-16.5734,3951.6611],[-68.2197,-16.5894,3929.5315],[-68.2161,-16.5942,3929.3723],[-68.2373,-16.6128,3899.6477],[-68.1811,-16.6332,3938.1331],[-68.1796,-16.6558,3974.6902],[-68.175,-16.6626,3983.6472],[-68.163,-16.6717,4005.084],[-68.1508,-16.6963,4019.9678],[-68.1507,-16.7142,4028.2854],[-68.149,-16.724,4028.9287],[-68.1515,-16.7261,4000.9385],[-68.1604,-16.7261,3973.1587],[-68.1577,-16.7288,3974.3416],[-68.1563,-16.741,3992.9551],[-68.1525,-16.7515,3993.2876],[-68.1526,-16.7589,4011.2183],[-68.1462,-16.7575,4030.7563],[-68.1381,-16.7581,4033.3103],[-68.1301,-16.7601,4062.9468],[-68.1101,-16.7689,4134.5635],[-68.0964,-16.7684,4253.9658],[-68.0963,-16.7641,4238.3135],[-68.0933,-16.7643,4228.4126],[-68.0865,-16.7546,4127.1089],[-68.0786,-16.7604,4135.8804],[-68.0669,-16.7616,4133.3516],[-68.07,-16.7668,4135.7847],[-68.0686,-16.7753,4125.769],[-68.0663,-16.7779,4107.9673],[-68.0587,-16.7795,4026.2832],[-68.0523,-16.7875,4057.7539],[-68.0436,-16.7929,3950.7051],[-68.0332,-16.8063,3870.4392],[-68.0311,-16.8071,3887.9507],[-68.0241,-16.8177,3799.7175],[-68.025,-16.8213,3778.7],[-68.017,-16.835,3957.6726],[-68.0046,-16.8401,4087.7354],[-68.0042,-16.8429,4032.9629]]]]}}