{"type": "Feature","bbox": [-63.2857,-18.0267,-62.7638,-17.5322],"geometry": {"type": "MultiPolygon","coordinates": [[[[-62.7762,-17.6642,286.599],[-62.7872,-17.652,286.8823],[-62.7911,-17.6442,285.942],[-62.7915,-17.64,286.3267],[-62.7907,-17.6357,289.1185],[-62.7838,-17.6273,288.6364],[-62.7792,-17.61,279.125],[-62.7714,-17.6001,278.5],[-62.7686,-17.5937,278.25],[-62.7638,-17.5725,280.4914],[-62.7642,-17.5666,280.3271],[-62.7651,-17.5606,279.6482],[-62.7677,-17.5561,279.2086],[-62.7905,-17.5413,281.4038],[-62.7902,-17.5322,274.5],[-62.8415,-17.5376,289.2233],[-62.8493,-17.5397,291.7782],[-62.903,-17.5837,307.7844],[-62.9158,-17.5826,310.8857],[-62.9589,-17.5971,321.6133],[-62.9712,-17.599,325.1714],[-62.9833,-17.607,330.3857],[-62.9856,-17.6132,332.0752],[-63.0025,-17.6238,337.8757],[-63.0117,-17.623,341.5282],[-63.0497,-17.6305,350.4642],[-63.05,-17.6369,353.0509],[-63.0533,-17.6399,353.211],[-63.054,-17.6444,354.3893],[-63.0654,-17.6517,361.5729],[-63.0704,-17.6511,357.9283],[-63.0753,-17.6542,361.4501],[-63.0854,-17.6539,362.2309],[-63.0848,-17.6584,362.5017],[-63.0947,-17.6698,368.3931],[-63.144,-17.6703,381.5255],[-63.1577,-17.6753,382.2142],[-63.1588,-17.6742,381.4106],[-63.1574,-17.6463,372.8616],[-63.1644,-17.6449,371.5579],[-63.1692,-17.6326,372.3474],[-63.1876,-17.6248,368.1235],[-63.1894,-17.6204,372.1184],[-63.1885,-17.6116,370.2323],[-63.1932,-17.6085,363.3613],[-63.1937,-17.5991,363.093],[-63.1983,-17.5931,352.25],[-63.1977,-17.6031,357.7495],[-63.2015,-17.6168,361.215],[-63.1974,-17.6374,366.0767],[-63.1958,-17.6574,379.146],[-63.1986,-17.6636,372.4195],[-63.2052,-17.6685,374.61],[-63.2081,-17.6764,376.5667],[-63.1993,-17.6974,386.9276],[-63.1976,-17.7063,384.8892],[-63.2024,-17.7243,391.4431],[-63.2115,-17.7434,396.0128],[-63.2119,-17.7625,401.8846],[-63.2242,-17.7743,410.7424],[-63.2265,-17.7837,415.0019],[-63.2351,-17.7995,417.1336],[-63.2455,-17.8054,417.9247],[-63.2523,-17.8121,420.951],[-63.2615,-17.8155,424.0533],[-63.2725,-17.8236,430.9502],[-63.2774,-17.8324,435.4675],[-63.2833,-17.8373,437.2032],[-63.2857,-17.8468,440.7505],[-63.2819,-17.8471,440.1811],[-63.2755,-17.8444,445.2764],[-63.2678,-17.8368,438.6685],[-63.2632,-17.8348,438.0396],[-63.2571,-17.8361,436.9082],[-63.2502,-17.833,437.3177],[-63.244,-17.8349,434.7886],[-63.228,-17.8479,431.63],[-63.2254,-17.8729,434.0736],[-63.2178,-17.8736,429.0228],[-63.2094,-17.8807,425.366],[-63.2015,-17.8821,421.3468],[-63.1919,-17.8906,413.8665],[-63.1851,-17.8994,409.4458],[-63.1758,-17.9026,405.0392],[-63.1754,-17.9062,408.3849],[-63.1661,-17.9123,399.8467],[-63.1621,-17.9133,399.6673],[-63.1588,-17.9183,398.3735],[-63.1549,-17.9193,396.6624],[-63.1458,-17.9176,396.3548],[-63.1339,-17.9268,395.7593],[-63.1222,-17.9294,392.804],[-63.1186,-17.9337,391.8859],[-63.1029,-17.9359,381.2878],[-63.0824,-17.9487,375.726],[-63.0732,-17.9461,372.5595],[-63.0653,-17.9473,371.2221],[-63.0594,-17.9526,367.8075],[-63.0591,-17.9545,367.0646],[-63.0557,-17.9565,365.9636],[-63.0542,-17.9558,365.9448],[-63.0545,-17.9589,365.9034],[-63.0518,-17.9614,367.3808],[-63.0491,-17.9608,363.2945],[-63.0496,-17.9627,365.3542],[-63.0467,-17.965,363.1586],[-63.0404,-17.9646,363.1437],[-63.041,-17.9683,362.2139],[-63.0354,-17.9696,360.8502],[-63.0337,-17.9735,366.4909],[-63.0302,-17.9721,367.0291],[-63.0297,-17.9731,366.6901],[-63.032,-17.9746,366.6626],[-63.0306,-17.9758,367.2247],[-63.015,-17.9746,364.8077],[-63.0179,-17.9787,360.706],[-63.0119,-17.9805,360.0987],[-63.0081,-17.98,362.7823],[-63.005,-17.9772,359.7806],[-62.9936,-17.9786,355.28],[-62.9939,-17.9807,356.2362],[-62.9923,-17.9832,352.8658],[-62.9902,-17.983,354.8122],[-62.9884,-17.9871,355.5695],[-62.9811,-18.0142,348.2582],[-62.9738,-18.0244,343.0924],[-62.8909,-18.0226,324.5321],[-62.8906,-18.0267,324.8909],[-62.8242,-18.0262,325.5905],[-62.8104,-18.0181,311.5],[-62.8125,-18.0049,313.1889],[-62.8131,-17.9855,312.968],[-62.8071,-17.9799,312.8094],[-62.7896,-17.9757,312.6707],[-62.7794,-17.9687,315.6196],[-62.7809,-17.9576,308.0],[-62.7904,-17.9444,307.0],[-62.7935,-17.9315,307.4698],[-62.7983,-17.9239,306.5],[-62.8096,-17.917,305.5806],[-62.8114,-17.9147,305.3739],[-62.8112,-17.9113,305.333],[-62.8029,-17.8864,302.5],[-62.7999,-17.8824,302.0],[-62.7887,-17.8793,308.2776],[-62.7821,-17.8741,300.5147],[-62.7825,-17.8611,299.5],[-62.7805,-17.8469,298.443],[-62.7682,-17.8311,296.375],[-62.7826,-17.8302,304.1913],[-62.7966,-17.8361,304.9748],[-62.811,-17.8337,307.3997],[-62.8159,-17.837,309.1269],[-62.8211,-17.8446,309.4594],[-62.8279,-17.8384,310.1622],[-62.8323,-17.8377,313.84],[-62.8332,-17.8361,312.0968],[-62.84,-17.844,315.4391],[-62.8459,-17.8467,317.1211],[-62.8571,-17.8497,320.05],[-62.8669,-17.8495,319.7456],[-62.8691,-17.8479,320.3182],[-62.8712,-17.8533,328.6659],[-62.8787,-17.8511,328.2375],[-62.89,-17.8552,328.5531],[-62.9256,-17.8534,341.6227],[-62.9347,-17.8451,345.9734],[-62.9363,-17.84,347.8613],[-62.9398,-17.8375,345.4054],[-62.9434,-17.8399,347.2482],[-62.9564,-17.8414,345.8597],[-62.9687,-17.8388,349.9993],[-62.9761,-17.8416,350.6879],[-62.9811,-17.8457,353.4662],[-63.0021,-17.8466,361.0899],[-63.0123,-17.8486,364.0197],[-63.033,-17.8448,369.0523],[-63.0548,-17.8367,381.3246],[-63.0547,-17.6642,362.8108],[-62.7762,-17.6642,286.599]]]]}
,"properties": {"GID_3": "BOL.8.1.5_2","GID_0": "BOL","country": "Bolivia","GID_1": "BOL.8_1","province": "SantaCruz","NL_NAME_1": "NA","GID_2": "BOL.8.1_2","county": "AndrésIbáñez","NL_NAME_2": "NA","city": "SantaCruzdelaSierra","VARNAME_3": "NA","NL_NAME_3": "NA","TYPE_3": "District","ENGTYPE_3": "Distrito","CC_3": "NA","HASC_3": "NA","name": "Santa_Cruzdela_Sierra.city","area_km2": 1304.91,"hist_schema_id": "Elevation0-9000","hist_area_km2": {"275": 38.707,"300": 155.884,"325": 320.903,"350": 210.906,"375": 260.317,"400": 216.788,"425": 97.813,"450": 3.593}}}