{"type": "Feature","id": "1938","bbox": [-69.57763,-12.4966,-65.28482,-9.67982],"geometry": {"type": "Polygon","coordinates": [[[-65.39465,-10.39207,104.0],[-65.39019,-10.37404,104.0],[-65.37923,-10.35141,103.5],[-65.36502,-10.33218,112.6537],[-65.32782,-10.31441,109.5417],[-65.31562,-10.29126,101.9347],[-65.30536,-10.24216,98.5],[-65.28808,-10.21622,97.0],[-65.28482,-10.20682,97.0],[-65.28684,-10.19648,110.8074],[-65.29681,-10.17333,107.117],[-65.29911,-10.163,106.0724],[-65.30146,-10.11969,95.5],[-65.30557,-10.0984,98.3195],[-65.32415,-10.04641,96.7103],[-65.33293,-10.00838,120.7525],[-65.33683,-9.96725,94.0],[-65.33329,-9.92683,93.5],[-65.32523,-9.90513,93.5],[-65.30358,-9.86451,114.0499],[-65.29911,-9.84126,113.7949],[-65.30438,-9.82565,91.5],[-65.3166,-9.81253,96.4071],[-65.33032,-9.80074,121.0916],[-65.34006,-9.78969,119.0316],[-65.35373,-9.74504,119.6766],[-65.35606,-9.74163,117.0537],[-65.3705,-9.71062,112.2329],[-65.39799,-9.68675,88.5],[-65.41623,-9.68013,88.5],[-65.44249,-9.67982,110.847],[-65.45184,-9.68137,116.9576],[-65.46522,-9.69646,124.5682],[-65.51078,-9.73408,112.4213],[-65.51713,-9.74318,121.5853],[-65.5214,-9.75858,121.0298],[-65.52543,-9.76788,127.0863],[-65.53532,-9.78245,105.5127],[-65.54682,-9.79516,109.2145],[-65.5508,-9.79702,125.4233],[-65.56282,-9.79919,129.1358],[-65.56798,-9.80209,125.1629],[-65.56992,-9.80602,125.2365],[-65.57062,-9.81583,115.97],[-65.57188,-9.81883,124.7748],[-65.57705,-9.82617,127.1622],[-65.57938,-9.83278,124.9977],[-65.58398,-9.83723,121.3563],[-65.59612,-9.83795,117.7645],[-65.61439,-9.83392,122.4245],[-65.62888,-9.82689,122.7415],[-65.65849,-9.80736,127.106],[-65.66371,-9.80291,125.7596],[-65.67263,-9.79258,124.9437],[-65.67896,-9.78938,119.8974],[-65.68361,-9.78989,126.3096],[-65.69436,-9.79372,130.6139],[-65.69707,-9.79434,132.0665],[-65.70505,-9.7933,123.6622],[-65.71312,-9.79423,119.4948],[-65.7173,-9.79124,129.0346],[-65.71374,-9.77873,128.8332],[-65.70996,-9.75599,111.9862],[-65.72549,-9.75682,120.6376],[-65.76319,-9.77232,121.5522],[-65.77244,-9.76881,128.3628],[-65.77735,-9.76343,113.9803],[-65.77996,-9.75599,114.6392],[-65.78221,-9.74628,110.8074],[-65.78856,-9.73305,114.3749],[-65.79451,-9.7377,123.9628],[-65.80265,-9.75734,101.2486],[-65.80389,-9.76478,115.2157],[-65.8037,-9.77553,113.8252],[-65.80642,-9.78441,106.4391],[-65.81652,-9.78596,121.135],[-65.82213,-9.78183,121.2991],[-65.8274,-9.77398,107.4257],[-65.83166,-9.76529,107.4546],[-65.83406,-9.75827,127.7401],[-65.85042,-9.77532,140.1169],[-65.86246,-9.78183,128.0788],[-65.87442,-9.78131,110.954],[-65.91527,-9.7717,115.9295],[-65.92933,-9.77026,112.7807],[-65.94695,-9.77139,120.4647],[-65.96566,-9.77677,109.0985],[-66.01038,-9.80405,124.3324],[-66.02948,-9.80829,105.9747],[-66.04279,-9.80488,134.0268],[-66.06932,-9.7901,114.3949],[-66.08172,-9.78565,111.0224],[-66.08699,-9.78452,126.2672],[-66.10198,-9.78741,115.1078],[-66.10606,-9.79041,116.1626],[-66.11312,-9.8024,116.8799],[-66.11818,-9.80602,124.7775],[-66.12358,-9.80509,122.9228],[-66.12792,-9.80116,121.2077],[-66.1317,-9.79702,120.3064],[-66.13547,-9.79516,122.4411],[-66.19066,-9.80085,124.0957],[-66.20797,-9.80808,124.5552],[-66.23898,-9.82813,122.837],[-66.25732,-9.83485,126.585],[-66.35527,-9.84963,104.5682],[-66.37173,-9.85593,121.5576],[-66.41328,-9.87919,110.5423],[-66.43271,-9.88611,124.4556],[-66.45286,-9.8887,125.8218],[-66.51384,-9.88394,122.6951],[-66.63187,-9.9043,123.8841],[-66.64262,-9.90792,129.9622],[-66.6489,-9.91585,135.0633],[-66.64892,-9.91588,135.0633],[-66.65249,-9.92611,134.2501],[-66.65482,-9.93717,119.6073],[-66.66009,-9.94533,125.2485],[-66.67001,-9.95154,124.6052],[-66.75161,-9.98265,147.385],[-66.77062,-9.99257,144.4526],[-66.90266,-10.09313,132.7641],[-67.0643,-10.25694,151.6929],[-67.11003,-10.28258,130.2511],[-67.12073,-10.28454,138.5963],[-67.14176,-10.28557,141.4847],[-67.15174,-10.28898,142.0557],[-67.15907,-10.29715,148.4384],[-67.16486,-10.30852,135.6365],[-67.1723,-10.31958,129.11],[-67.18471,-10.32671,135.4513],[-67.20176,-10.32681,127.5953],[-67.24103,-10.31637,133.8202],[-67.25917,-10.31368,148.7168],[-67.30067,-10.31513,144.2048],[-67.32351,-10.31885,148.0163],[-67.33782,-10.32609,149.3386],[-67.33943,-10.33487,145.297],[-67.33369,-10.35668,146.1256],[-67.33529,-10.36629,144.1791],[-67.34284,-10.37249,152.1734],[-67.35348,-10.37621,148.0518],[-67.365,-10.37807,152.8554],[-67.40919,-10.3788,155.6854],[-67.41833,-10.38148,152.8885],[-67.42929,-10.39037,156.0552],[-67.43187,-10.39792,172.1651],[-67.43224,-10.40608,154.7778],[-67.43663,-10.41745,169.9491],[-67.45053,-10.43595,155.8601],[-67.46805,-10.45228,172.6967],[-67.4882,-10.46479,162.8116],[-67.52934,-10.47853,180.7365],[-67.5651,-10.4959,174.5158],[-67.58463,-10.50179,176.2815],[-67.59998,-10.51543,171.764],[-67.61114,-10.52876,193.0216],[-67.63083,-10.55956,207.2243],[-67.64349,-10.57455,204.2727],[-67.67382,-10.59935,212.6425],[-67.68468,-10.61051,208.6108],[-67.69604,-10.64049,174.244],[-67.70514,-10.67666,192.4921],[-67.72173,-10.7055,168.8374],[-67.75578,-10.71418,164.7353],[-67.77495,-10.70653,151.6939],[-67.81428,-10.67594,161.7796],[-67.83335,-10.66498,158.3003],[-67.84777,-10.66095,163.8023],[-67.86265,-10.65878,170.2183],[-67.98181,-10.66436,163.2615],[-68.01024,-10.65971,177.4146],[-68.02713,-10.66178,172.009],[-68.04377,-10.66694,167.9911],[-68.07457,-10.68172,181.9244],[-68.09788,-10.69774,179.2148],[-68.11209,-10.71407,180.0963],[-68.14728,-10.7796,199.5134],[-68.20356,-10.83892,189.4205],[-68.21756,-10.85804,181.9205],[-68.24376,-10.91696,203.0489],[-68.25751,-10.93876,207.5256],[-68.27436,-10.96005,208.5258],[-68.29332,-10.97897,194.1418],[-68.31384,-10.99344,221.4097],[-68.33115,-11.00046,215.4015],[-68.37828,-11.00501,225.9273],[-68.39641,-11.01442,218.6896],[-68.4282,-11.04367,212.1435],[-68.44241,-11.0477,216.3542],[-68.45967,-11.0448,213.0087],[-68.47656,-11.0448,227.037],[-68.49331,-11.04739,258.6036],[-68.5361,-11.06155,245.1187],[-68.58803,-11.09865,250.3321],[-68.61573,-11.1125,258.0164],[-68.75833,-11.14113,245.253],[-68.77593,-11.14061,240.2532],[-68.78399,-11.13534,249.8936],[-68.78701,-11.12604,256.1823],[-68.79117,-11.08511,221.1683],[-68.78564,-11.05927,247.8743],[-68.77399,-11.03509,234.1523],[-68.75763,-11.01194,183.4438],[-68.77456,-11.00346,192.9636],[-68.80466,-10.99468,204.1666],[-68.83169,-11.00036,187.4001],[-68.85892,-11.01049,196.9821],[-68.88403,-11.01638,194.6485],[-68.90814,-11.01338,200.9182],[-68.95542,-11.00046,201.4876],[-68.97894,-11.0017,218.6772],[-68.98338,-11.00243,211.5161],[-68.9925,-11.00243,211.7326],[-68.997,-11.0017,202.4991],[-69.07131,-10.96998,220.2314],[-69.08689,-10.96718,227.0541],[-69.12149,-10.9706,218.1911],[-69.15851,-10.96212,229.6393],[-69.2368,-10.95292,229.6638],[-69.29352,-10.95499,248.1727],[-69.32959,-10.94941,239.7366],[-69.36307,-10.94011,222.1541],[-69.39594,-10.93504,232.3278],[-69.46338,-10.95127,247.8946],[-69.50288,-10.9553,243.4736],[-69.57763,-10.9523,236.0139],[-69.57402,-10.9585,248.703],[-69.5705,-10.9646,261.8533],[-69.56683,-10.9707,251.9527],[-69.56327,-10.9769,268.1827],[-69.55973,-10.9831,300.0717],[-69.55611,-10.98941,295.5555],[-69.55249,-10.99561,289.5171],[-69.54895,-11.0017,289.6777],[-69.44457,-11.18268,303.1648],[-69.34034,-11.36375,305.689],[-69.23595,-11.54493,308.9411],[-69.13159,-11.726,283.9547],[-69.02728,-11.90708,242.1376],[-68.92287,-12.08815,236.7472],[-68.81856,-12.26922,238.3582],[-68.71422,-12.4503,180.1304],[-68.68946,-12.49342,182.4719],[-68.67815,-12.49505,164.81],[-68.64557,-12.4966,160.0],[-68.63596,-12.49505,160.0],[-68.62968,-12.49081,182.5059],[-68.61772,-12.47795,187.1948],[-68.61299,-12.47521,180.6967],[-68.59346,-12.42095,173.4269],[-68.58196,-12.40694,179.2173],[-68.55821,-12.40229,160.0],[-68.54106,-12.4102,185.9688],[-68.52638,-12.421569999999999,182.1166],[-68.50995,-12.42741,197.6123],[-68.48933,-12.42472,190.0018],[-68.47687,-12.41671,186.0207],[-68.45843,-12.38705,182.157],[-68.41202,-12.27295,157.0],[-68.39016,-12.24246,164.1621],[-68.27177,-12.18132,177.9103],[-68.24616,-12.15368,177.482],[-68.23834,-12.12035,179.5939],[-68.231,-12.04769,156.5],[-68.21513,-12.01994,184.0851],[-68.18451,-12.00557,166.4608],[-68.10922,-11.99555,177.7809],[-68.0823,-11.98237,178.3302],[-68.06186,-11.98361,176.6206],[-68.0368,-11.97896,175.4765],[-68.01282,-11.97002,156.5],[-67.99571,-11.95818,156.5],[-67.98125,-11.93622,160.8588],[-67.97303,-11.91007,155.8409],[-67.97352,-11.90485,160.7879],[-67.95554,-11.9093,182.4506],[-66.92782,-12.38224,153.6514],[-66.91299,-12.36085,143.5166],[-66.90524,-12.34168,140.5],[-66.90888,-12.32498,152.5638],[-66.91619,-12.30814,153.1766],[-66.91929,-12.28876,140.5],[-66.91191,-12.26674,149.3678],[-66.89904,-12.24525,149.7589],[-66.88935,-12.22318,147.6995],[-66.89162,-12.19926,145.975],[-66.89873,-12.17378,150.3279],[-66.89723,-12.15223,141.6147],[-66.88201,-12.10619,142.7163],[-66.87744,-12.065,146.3414],[-66.88286,-12.01482,140.6278],[-66.89697,-11.96599,149.2968],[-66.91847,-11.92868,149.1514],[-66.93307,-11.91178,153.7612],[-66.93914,-11.90656,150.6722],[-66.94276,-11.90728,153.8409],[-66.94826,-11.91059,140.0547],[-66.95474,-11.91286,158.3628],[-66.96133,-11.91054,147.0618],[-66.97014,-11.89369,143.7839],[-66.97456,-11.8692,180.3391],[-66.97061,-11.84899,187.3731],[-66.95418,-11.84527,190.8351],[-66.93573,-11.84724,139.7666],[-66.91762,-11.84181,159.752],[-66.90129,-11.83132,147.3085],[-66.88837,-11.81814,140.8249],[-66.87684,-11.79556,134.0],[-66.88165,-11.78181,157.8811],[-66.89403,-11.77034,143.8637],[-66.90514,-11.75453,140.516],[-66.90529,-11.73541,152.9635],[-66.8917,-11.72704,136.0],[-66.87222,-11.72611,169.722],[-66.8547,-11.72915,167.9164],[-66.8356,-11.72781,157.784],[-66.82235,-11.71525,157.04],[-66.81077,-11.69872,145.6802],[-66.79677,-11.68575,132.5167],[-66.77974,-11.68135,149.195],[-66.74546,-11.68156,148.2016],[-66.72902,-11.67474,150.2628],[-66.71528,-11.65557,137.0433],[-66.71383,-11.63262,143.2471],[-66.72086,-11.58353,145.5934],[-66.71502,-11.56482,128.0],[-66.69083,-11.53759,132.6303],[-66.68768,-11.51873,149.2115],[-66.6906,-11.49351,148.1265],[-66.68908,-11.46876,142.4967],[-66.679,-11.44938,134.8432],[-66.65608,-11.44018,131.8662],[-66.56479,-11.4346,143.8259],[-66.49702,-11.4423,127.4847],[-66.47139,-11.43362,139.2647],[-66.41672,-11.4008,126.0],[-66.34791,-11.39352,136.453],[-66.31688,-11.38592,136.418],[-66.31173,-11.3654,136.0913],[-66.30892,-11.34448,136.4694],[-66.25463,-11.33166,122.0],[-66.24316,-11.31295,136.8775],[-66.24996,-11.29884,121.5],[-66.26058,-11.28959,137.4708],[-66.26776,-11.2773,127.8054],[-66.26412,-11.25394,120.5],[-66.25541,-11.23771,136.853],[-66.21885,-11.19311,123.174],[-66.21153,-11.17461,135.4825],[-66.21231,-11.15746,126.292],[-66.22066,-11.12118,140.4152],[-66.21784,-11.09772,125.0643],[-66.2051,-11.09431,133.2317],[-66.18776,-11.09927,137.3855],[-66.17118,-11.10082,120.7372],[-66.14722,-11.08062,122.568],[-66.14211,-11.04775,127.394],[-66.14136,-11.01178,129.0104],[-66.13061,-10.98181,138.7418],[-66.12154,-10.96817,130.6707],[-66.10611,-10.9785,128.8558],[-66.09035,-10.96998,116.0],[-66.07805,-10.95111,134.846],[-66.06635,-10.9107,119.1348],[-66.05343,-10.88848,135.3441],[-66.04534,-10.86755,121.3213],[-66.05328,-10.85148,138.202],[-66.06356,-10.84952,135.6678],[-66.08438,-10.85779,119.34],[-66.09485,-10.8583,119.2106],[-66.10195,-10.85407,124.0155],[-66.10777,-10.84714,140.7649],[-66.10792,-10.84068,127.1366],[-66.07578,-10.83076,122.9165],[-66.03462,-10.79841,134.3843],[-66.01168,-10.78942,138.5464],[-65.97359,-10.79598,108.0],[-65.93016,-10.80973,127.7881],[-65.89504,-10.81174,133.187],[-65.88197,-10.78322,129.5004],[-65.88672,-10.76482,131.9164],[-65.89809,-10.74689,107.0],[-65.91424,-10.7334,147.048],[-65.93315,-10.72798,149.855],[-65.94243,-10.7195,153.6349],[-65.93576,-10.70095,148.1926],[-65.92178,-10.6824,152.168],[-65.90928,-10.67397,151.502],[-65.89807,-10.67976,153.7617],[-65.88453,-10.6933,110.4289],[-65.87311,-10.70818,132.556],[-65.8683,-10.71836,128.5939],[-65.85623,-10.72301,131.0461],[-65.82923,-10.71712,127.7117],[-65.78575,-10.70126,140.6842],[-65.76267,-10.6839,132.7682],[-65.75311,-10.667,126.5371],[-65.75151,-10.64736,131.4673],[-65.75223,-10.62214,144.2953],[-65.75709,-10.60049,142.7828],[-65.76399,-10.58003,154.3847],[-65.76143,-10.56411,152.7578],[-65.73797,-10.55667,148.7406],[-65.71725,-10.5606,148.7357],[-65.6957,-10.56861,116.6608],[-65.67392,-10.57155,121.1459],[-65.65229,-10.56039,129.0833],[-65.63232,-10.5423,135.009],[-65.61304,-10.5284,124.315],[-65.52625,-10.48659,150.0207],[-65.51886,-10.47812,151.6513],[-65.51222,-10.45817,161.3692],[-65.49667,-10.43616,127.8785],[-65.4785,-10.41724,165.8819],[-65.46424,-10.40644,152.6767],[-65.44786,-10.40076,136.2386],[-65.39533,-10.39218,104.0],[-65.39465,-10.39207,104.0]]]}
,"properties": {"ISO3166-1-Alpha-3": "BOL","country": "Bolivia","fill": "#FF0","name": "Pando","area_km2": 63953.64,"hist_schema_id": "Elevation0-9000","hist_area_km2": {"100": 185.94,"125": 4467.56,"150": 13588.36,"175": 16531.05,"200": 11122.09,"225": 6675.81,"250": 5890.35,"275": 3445.58,"300": 1809.5,"325": 230.29,"350": 7.09}}}