{"type": "Feature","bbox": [-69.5747,-12.4984,-65.2875,-9.6709],"geometry": {"type": "MultiPolygon","coordinates": [[[[-67.9881,-11.8728,153.5],[-67.997,-11.8588,153.0],[-67.9963,-11.8497,152.5],[-66.9673,-12.4903,141.0],[-66.9679,-12.4865,141.0],[-66.9662,-12.4823,153.3516],[-66.9545,-12.4759,146.8613],[-66.9347,-12.4749,141.0],[-66.9327,-12.4722,141.0],[-66.9338,-12.4675,141.0],[-66.9576,-12.4401,140.5],[-66.9686,-12.4247,140.5],[-66.9698,-12.4186,140.5],[-66.9385,-12.3987,140.5],[-66.9193,-12.3784,140.5],[-66.9129,-12.3756,140.5],[-66.8995,-12.3732,144.3929],[-66.8973,-12.3692,141.1532],[-66.9,-12.3517,140.5],[-66.9066,-12.342,140.5],[-66.9202,-12.3339,140.5],[-66.9371,-12.3317,140.5],[-66.946,-12.3276,140.5],[-66.9486,-12.305,140.5],[-66.9456,-12.2974,153.6427],[-66.9101,-12.2854,140.5],[-66.8967,-12.2627,143.0529],[-66.8869,-12.2512,140.0],[-66.8852,-12.2379,140.0],[-66.8858,-12.2147,140.0],[-66.8892,-12.2,140.0],[-66.8971,-12.1903,140.0],[-66.9181,-12.1861,140.0],[-66.9206,-12.1844,140.0],[-66.9242,-12.1729,140.0],[-66.9253,-12.1615,140.0],[-66.922,-12.1534,140.0],[-66.8761,-12.1135,140.0],[-66.8731,-12.1063,140.0],[-66.8843,-12.076599999999999,140.0],[-66.8886,-12.0581,140.0],[-66.8953,-12.0548,143.9178],[-66.9086,-12.0569,143.6611],[-66.9107,-12.0525,140.0],[-66.91,-12.0473,140.0],[-66.8985,-12.023,140.0],[-66.8937,-12.0074,140.0],[-66.8938,-12.0029,146.7298],[-66.9019,-11.979,138.0],[-66.9059,-11.9529,140.2186],[-66.9084,-11.9505,137.0],[-66.9137,-11.9493,152.5975],[-66.9253,-11.9546,144.1719],[-66.93,-11.9503,137.0],[-66.9309,-11.9442,153.9047],[-66.9264,-11.9345,140.4503],[-66.9266,-11.9278,137.0],[-66.9295,-11.9205,137.0],[-66.9346,-11.9155,137.0],[-66.946,-11.9098,137.0],[-66.9497,-11.9096,140.0547],[-66.9562,-11.9137,158.2195],[-66.9574,-11.917,155.4152],[-66.9565,-11.9211,156.1766],[-66.9504,-11.933,136.5],[-66.9499,-11.9371,136.5],[-66.9523,-11.9401,136.5],[-66.9561,-11.9406,136.5],[-66.9694,-11.9289,136.5],[-66.978,-11.914,136.0],[-66.9797,-11.9066,141.3186],[-66.9791,-11.9,141.8268],[-66.9759,-11.8959,151.078],[-66.9719,-11.8946,151.6955],[-66.9647,-11.8969,139.8904],[-66.9585,-11.8954,136.0],[-66.9565,-11.8932,147.0558],[-66.9555,-11.8802,136.0],[-66.9533,-11.8782,140.193],[-66.9414,-11.878,153.6134],[-66.9188,-11.8655,136.0],[-66.9037,-11.8626,136.0],[-66.8937,-11.8579,135.5],[-66.8567,-11.8226,139.9658],[-66.8564,-11.8172,134.5],[-66.8679,-11.8123,134.5],[-66.8713,-11.8091,134.0],[-66.8732,-11.8016,135.9474],[-66.871,-11.7926,135.9623],[-66.8718,-11.7886,135.5367],[-66.8772,-11.777,133.5],[-66.8804,-11.7739,133.5],[-66.8865,-11.7729,133.5],[-66.9096,-11.7811,133.5],[-66.9179,-11.7806,133.5],[-66.9188,-11.7767,133.0],[-66.9173,-11.7647,133.0],[-66.9105,-11.7471,133.0],[-66.9047,-11.7442,133.0],[-66.8796,-11.742,132.5],[-66.8702,-11.7429,134.0469],[-66.8665,-11.7451,132.5],[-66.8609,-11.7549,132.5],[-66.8521,-11.7629,132.0],[-66.8398,-11.7664,137.4267],[-66.8377,-11.7646,139.9995],[-66.8351,-11.7398,132.0],[-66.8291,-11.7126,131.5],[-66.8261,-11.7062,131.5],[-66.8167,-11.6973,131.5],[-66.8115,-11.6954,136.5666],[-66.7792,-11.6928,139.0597],[-66.7719,-11.6966,131.0],[-66.7711,-11.7019,143.1226],[-66.7741,-11.7134,131.0],[-66.7829,-11.7218,130.5],[-66.7936,-11.7272,130.5],[-66.7959,-11.7309,130.5],[-66.7941,-11.74,130.5],[-66.7907,-11.7427,130.5],[-66.7813,-11.745,130.5],[-66.7721,-11.7423,130.5],[-66.7649,-11.7361,130.5],[-66.7636,-11.7322,138.2885],[-66.7639,-11.7123,130.5],[-66.762,-11.7085,130.5],[-66.7254,-11.6906,130.0],[-66.7117,-11.6818,130.0],[-66.706,-11.6713,132.1344],[-66.7053,-11.6646,149.5141],[-66.7067,-11.6607,143.9199],[-66.7086,-11.6586,148.2488],[-66.7171,-11.6558,137.0433],[-66.7294,-11.658,130.0],[-66.7335,-11.6573,130.0],[-66.7358,-11.6548,130.0],[-66.7353,-11.6523,130.0],[-66.7295,-11.6485,130.0],[-66.727,-11.6449,130.0],[-66.7219,-11.6295,129.5],[-66.711,-11.618,140.9395],[-66.7128,-11.6105,139.5028],[-66.7205,-11.6067,137.9447],[-66.734,-11.6084,129.0],[-66.7609,-11.5942,130.8337],[-66.7628,-11.5913,131.0475],[-66.7624,-11.5878,128.5],[-66.7597,-11.5846,128.5],[-66.7477,-11.5762,128.0],[-66.7214,-11.5662,128.0],[-66.6969,-11.5607,128.0],[-66.6922,-11.561,128.0],[-66.6804,-11.5658,139.8553],[-66.6778,-11.5654,148.0332],[-66.6758,-11.5617,148.9555],[-66.6768,-11.5388,127.5],[-66.6791,-11.531,127.0],[-66.6864,-11.5122,129.3226],[-66.6959,-11.4972,126.0],[-66.7088,-11.4881,126.0],[-66.7196,-11.4862,126.0],[-66.7295,-11.4879,128.3135],[-66.734,-11.4842,126.0],[-66.7333,-11.4799,126.0],[-66.7178,-11.4581,126.0],[-66.7053,-11.4465,126.0],[-66.695,-11.4429,127.2556],[-66.6826,-11.4458,126.0],[-66.6674,-11.4527,127.5544],[-66.6506,-11.4668,125.5],[-66.6395,-11.4733,125.5],[-66.6362,-11.4717,125.5],[-66.6339,-11.4673,125.5],[-66.6335,-11.462,125.5],[-66.6335,-11.455,125.5],[-66.639,-11.4306,125.0],[-66.6374,-11.4255,125.0],[-66.6316,-11.424,125.0],[-66.6151,-11.428,125.0],[-66.5907,-11.4294,132.4272],[-66.5739,-11.4245,135.7955],[-66.5543,-11.4144,124.5],[-66.5471,-11.4144,134.6465],[-66.5344,-11.4183,130.0694],[-66.519,-11.42,130.7987],[-66.5126,-11.4257,124.0],[-66.5094,-11.44,129.6548],[-66.5054,-11.4431,129.8577],[-66.4987,-11.4423,127.4847],[-66.495,-11.441,132.1129],[-66.483,-11.4302,124.0],[-66.4702,-11.4278,125.6548],[-66.464,-11.4238,124.0],[-66.4631,-11.4176,124.0],[-66.4671,-11.4057,124.0],[-66.4646,-11.3963,128.9649],[-66.4614,-11.3921,128.4639],[-66.4403,-11.3764,124.0],[-66.4302,-11.3737,124.0],[-66.3896,-11.3782,124.0],[-66.3737,-11.3746,124.4734],[-66.3578,-11.3674,123.5],[-66.3416,-11.3644,123.5],[-66.327,-11.3635,123.5],[-66.321,-11.3612,123.5],[-66.3179,-11.3587,123.5],[-66.3177,-11.3537,127.9534],[-66.3192,-11.3517,129.7905],[-66.3297,-11.349,123.0],[-66.3359,-11.3457,123.0],[-66.3382,-11.3311,123.0],[-66.3315,-11.3235,123.0],[-66.3109,-11.3158,122.5],[-66.2966,-11.3141,122.5],[-66.2903,-11.3155,122.5],[-66.2722,-11.3229,123.4713],[-66.2436,-11.3402,122.0],[-66.2331,-11.3426,122.0],[-66.2281,-11.3404,122.0],[-66.2254,-11.3364,122.0],[-66.2258,-11.3291,123.3368],[-66.2379,-11.3081,121.5],[-66.243,-11.3033,121.5],[-66.2699,-11.2896,121.5],[-66.2776,-11.2777,123.5449],[-66.2776,-11.2745,123.652],[-66.2754,-11.2726,127.9514],[-66.2661,-11.2748,127.5682],[-66.2563,-11.2733,121.0],[-66.2525,-11.2697,121.0],[-66.2514,-11.2661,128.0593],[-66.2551,-11.2578,121.0],[-66.2634,-11.2513,120.5],[-66.2685,-11.241,127.8957],[-66.2697,-11.2349,126.0152],[-66.267,-11.2172,120.5],[-66.2615,-11.208,121.8074],[-66.258,-11.2064,128.8146],[-66.2534,-11.2066,130.3079],[-66.2502,-11.209,128.5467],[-66.2472,-11.2165,120.5],[-66.2441,-11.2196,121.3046],[-66.2409,-11.2204,120.5],[-66.2165,-11.2116,120.0],[-66.2029,-11.2028,128.444],[-66.1888,-11.1876,120.0],[-66.1858,-11.1818,127.2606],[-66.1908,-11.1455,119.5],[-66.1963,-11.1323,119.5],[-66.2004,-11.1284,119.5],[-66.2143,-11.1224,123.7139],[-66.2147,-11.1186,119.0],[-66.1959,-11.0768,120.526],[-66.1938,-11.0749,119.0],[-66.1864,-11.0754,119.0],[-66.1833,-11.0771,121.7288],[-66.1778,-11.0847,118.5],[-66.1703,-11.0974,118.5],[-66.1601,-11.1312,118.5],[-66.1574,-11.1344,118.5],[-66.1529,-11.1355,118.25],[-66.1377,-11.1306,118.0],[-66.1308,-11.1246,118.0],[-66.1264,-11.1183,118.0],[-66.1216,-11.1003,117.5],[-66.1234,-11.0838,117.5],[-66.127,-11.0758,117.5],[-66.1433,-11.052,117.0],[-66.1439,-11.0461,117.0],[-66.1374,-11.0422,116.5],[-66.1043,-11.0514,116.0],[-66.0934,-11.0506,116.0],[-66.0915,-11.0473,116.0],[-66.0985,-11.0432,116.0],[-66.1035,-11.0425,116.0],[-66.1067,-11.0393,116.0],[-66.1082,-11.0327,128.2237],[-66.1066,-11.0228,116.0],[-66.0923,-10.9901,122.015],[-66.0814,-10.9925,117.5387],[-66.0661,-10.9913,114.0],[-66.0609,-10.9898,113.5],[-66.0579,-10.9866,113.0],[-66.047,-10.9418,108.5],[-66.0491,-10.914,108.0],[-66.0473,-10.903,108.0],[-66.0437,-10.8956,114.5262],[-66.0382,-10.889,137.0689],[-66.0207,-10.8791,113.4394],[-66.0154,-10.8719,108.0],[-66.0131,-10.8637,108.0],[-66.0154,-10.8582,108.0],[-66.0215,-10.8549,108.0],[-66.0285,-10.8545,108.0],[-66.0486,-10.8655,108.0],[-66.056,-10.8671,108.0],[-66.0629,-10.8661,108.0],[-66.071,-10.8631,108.0],[-66.0761,-10.8567,108.0],[-66.0763,-10.8517,108.0],[-66.0718,-10.8475,108.0],[-66.0442,-10.8314,108.0],[-66.0103,-10.8131,115.697],[-66.0006,-10.8104,108.0],[-65.9825,-10.7985,108.0],[-65.9758,-10.797,108.0],[-65.9688,-10.7977,108.0],[-65.9354,-10.8135,107.5],[-65.9149,-10.8274,107.5],[-65.9047,-10.8298,107.5],[-65.8811,-10.8305,121.4575],[-65.8597,-10.8355,111.2209],[-65.854,-10.8339,107.5],[-65.8507,-10.8297,107.5],[-65.8498,-10.823,107.5],[-65.8486,-10.7918,107.5],[-65.8518,-10.7844,107.0],[-65.8684,-10.7676,107.0],[-65.8812,-10.7574,107.0],[-65.903,-10.7456,107.0],[-65.9056,-10.7408,107.5431],[-65.9038,-10.7291,107.0],[-65.8958,-10.7138,107.0],[-65.8878,-10.7015,107.0],[-65.88,-10.6934,107.0],[-65.8688,-10.689,106.5],[-65.864,-10.6897,108.0547],[-65.8603,-10.6926,106.5],[-65.8405,-10.718,106.5],[-65.832,-10.7357,106.5],[-65.8271,-10.7418,106.5],[-65.8201,-10.7442,106.5],[-65.8126,-10.7433,106.5],[-65.7877,-10.7306,106.5],[-65.7531,-10.7169,106.0],[-65.7335,-10.7069,106.0],[-65.7196,-10.6951,106.0],[-65.7111,-10.6836,121.8875],[-65.7019,-10.6514,106.0],[-65.7041,-10.6446,106.0],[-65.7246,-10.6119,105.5],[-65.7342,-10.5917,105.5],[-65.7343,-10.5777,105.5],[-65.732,-10.5717,105.5],[-65.7279,-10.5669,105.5],[-65.7232,-10.565,105.5],[-65.7099,-10.5657,105.5],[-65.6836,-10.5642,105.5],[-65.6473,-10.5661,105.5],[-65.63,-10.5621,105.0],[-65.6245,-10.5577,105.0],[-65.6235,-10.5457,105.0],[-65.6181,-10.5399,105.0],[-65.5872,-10.5368,105.0],[-65.5798,-10.5292,105.0],[-65.5748,-10.5202,105.0],[-65.5554,-10.5078,105.0],[-65.5444,-10.5047,105.0],[-65.536,-10.5042,105.0],[-65.53,-10.5012,105.0],[-65.5099,-10.4967,104.5],[-65.5021,-10.4916,104.5],[-65.4912,-10.4723,104.5],[-65.4878,-10.4624,104.5],[-65.4864,-10.4463,104.5],[-65.4838,-10.4381,104.5],[-65.4721,-10.4292,104.5],[-65.4482,-10.4147,104.5],[-65.4382,-10.4131,104.0],[-65.4292,-10.4163,104.0],[-65.4194,-10.4168,104.0],[-65.4082,-10.414,104.0],[-65.4006,-10.4073,104.0],[-65.3977,-10.3985,104.0],[-65.3978,-10.3926,104.0],[-65.391,-10.3812,104.0],[-65.3919,-10.3743,104.0],[-65.388,-10.3662,103.5],[-65.3835,-10.3609,103.5],[-65.3744,-10.3565,103.5],[-65.3618,-10.3424,103.0],[-65.3498,-10.3215,102.0],[-65.3267,-10.3048,101.0],[-65.3213,-10.2947,100.5],[-65.3126,-10.2634,99.5],[-65.3125,-10.2548,99.0],[-65.3069,-10.2513,98.5],[-65.3005,-10.242,98.5],[-65.2918,-10.2237,97.5],[-65.2936,-10.2146,97.0],[-65.2923,-10.2104,97.0],[-65.2975,-10.2001,96.5],[-65.2996,-10.1915,96.0],[-65.3062,-10.1803,96.0],[-65.3078,-10.1733,96.0],[-65.308,-10.1645,96.0],[-65.302,-10.145,96.0],[-65.3044,-10.1325,95.5],[-65.3027,-10.1064,95.5],[-65.3045,-10.0986,95.5],[-65.3076,-10.0942,95.5],[-65.3165,-10.0877,95.5],[-65.3233,-10.0783,95.5],[-65.3304,-10.0637,95.5],[-65.3312,-10.0497,95.5],[-65.3207,-10.0037,95.0],[-65.3248,-9.9871,95.0],[-65.3336,-9.9727,94.5],[-65.3351,-9.9359,94.0],[-65.3292,-9.9187,93.5],[-65.3203,-9.9043,93.5],[-65.2913,-9.8716,92.5],[-65.2875,-9.8527,92.0],[-65.2916,-9.8405,117.5123],[-65.2957,-9.8359,107.4697],[-65.3178,-9.8224,105.2739],[-65.3229,-9.8157,93.9611],[-65.3255,-9.798,91.0],[-65.332,-9.7771,90.5],[-65.3364,-9.771,90.5],[-65.3509,-9.7332,90.0],[-65.3562,-9.7225,89.5],[-65.3623,-9.7145,89.5],[-65.3841,-9.6948,89.0],[-65.395,-9.6882,89.0],[-65.425,-9.6785,88.0],[-65.4388,-9.6709,88.0],[-65.4396,-9.6774,115.9386],[-65.4364,-9.6805,118.2366],[-65.4353,-9.6842,109.6411],[-65.4356,-9.6897,109.5115],[-65.4388,-9.6963,114.7083],[-65.4675,-9.7151,115.9856],[-65.4867,-9.7177,105.9777],[-65.4833,-9.7241,111.746],[-65.4785,-9.727,115.6067],[-65.4789,-9.7294,115.6957],[-65.4901,-9.7318,119.94],[-65.4996,-9.7382,101.0543],[-65.5026,-9.7475,114.5821],[-65.5043,-9.7677,95.7284],[-65.498,-9.7791,93.2768],[-65.5073,-9.794,125.8298],[-65.5131,-9.7973,101.2896],[-65.5376,-9.7999,108.6016],[-65.5417,-9.8042,88.0],[-65.5548,-9.8061,113.5784],[-65.5574,-9.8108,96.2747],[-65.5627,-9.8123,102.7219],[-65.5611,-9.8246,97.9697],[-65.553,-9.8354,92.509],[-65.5548,-9.8419,101.1752],[-65.5595,-9.8458,88.5],[-65.5615,-9.8457,96.2985],[-65.5701,-9.838,113.7513],[-65.5957,-9.8444,103.7714],[-65.5984,-9.8438,125.8616],[-65.5996,-9.8385,101.6125],[-65.5978,-9.83,106.1291],[-65.599,-9.8265999999999991,119.1645],[-65.6008,-9.8261,102.6645],[-65.6053,-9.8261,98.4671],[-65.6153,-9.8313,111.4751],[-65.6252,-9.8389,105.8618],[-65.6287,-9.839,127.9313],[-65.6326,-9.8324,89.0],[-65.6354,-9.809,120.7924],[-65.6371,-9.8065,111.5918],[-65.6415,-9.8084,92.2037],[-65.6481,-9.8175,91.6822],[-65.6508,-9.8189,97.2858],[-65.6537,-9.8157,113.6564],[-65.6555,-9.81,126.6257],[-65.6483,-9.7997,109.5428],[-65.6501,-9.7935,120.169],[-65.6631,-9.7951,131.4864],[-65.6666,-9.7863,123.2561],[-65.6709,-9.7829,94.9599],[-65.6895,-9.8013,97.0754],[-65.6897,-9.8127,110.1932],[-65.6912,-9.8149,120.4442],[-65.6969,-9.815,122.7201],[-65.7056,-9.8102,121.7542],[-65.7126,-9.8103,128.3759],[-65.712,-9.8056,104.8689],[-65.7024,-9.7924,108.4838],[-65.704,-9.7834,122.7279],[-65.7125,-9.7746,132.2634],[-65.7116,-9.7709,132.2873],[-65.7086,-9.7662,113.2204],[-65.7048,-9.7638,112.9251],[-65.6887,-9.7587,119.8247],[-65.6886,-9.7509,97.5975],[-65.6909,-9.752,115.07],[-65.6974,-9.7508,94.2952],[-65.708,-9.7584,110.4656],[-65.719,-9.7573,109.4272],[-65.7293,-9.7601,106.6468],[-65.7361,-9.7667,91.5],[-65.7374,-9.7798,93.4987],[-65.7403,-9.7828,102.0453],[-65.7473,-9.784,112.8102],[-65.7527,-9.7804,109.3529],[-65.7601,-9.7692,110.657],[-65.7755,-9.762,99.6272],[-65.7747,-9.7533,109.5776],[-65.77,-9.7416,109.5729],[-65.7719,-9.7388,108.7364],[-65.7754,-9.7382,114.0774],[-65.7782,-9.7389,104.7524],[-65.7796,-9.749,99.3017],[-65.7754,-9.7668,108.4951],[-65.7812,-9.7732,99.0647],[-65.7838,-9.7863,100.9163],[-65.798,-9.7952,113.5554],[-65.7997,-9.7889,101.9905],[-65.8043,-9.7921,114.9139],[-65.8089,-9.7902,118.4825],[-65.8098,-9.7856,104.0185],[-65.8149,-9.7785,111.5419],[-65.816,-9.7741,123.9954],[-65.8078,-9.7693,105.8638],[-65.8074,-9.7629,97.9323],[-65.8108,-9.7652,114.4697],[-65.8178,-9.7587,114.1556],[-65.8196,-9.7586,115.242],[-65.8206,-9.7664,97.495],[-65.8225,-9.7666,98.3821],[-65.8231,-9.7697,102.533],[-65.8286,-9.7699,115.1132],[-65.8389,-9.7831,112.9273],[-65.8429,-9.7856,113.6539],[-65.8415,-9.7898,97.019],[-65.8454,-9.7909,99.1448],[-65.8439,-9.7922,105.0403],[-65.8444,-9.7942,116.4498],[-65.851,-9.7934,98.4914],[-65.8573,-9.7985,110.363],[-65.8655,-9.7989,120.6208],[-65.8728,-9.7971,110.5482],[-65.8764,-9.7921,113.9146],[-65.8763,-9.7902,105.5364],[-65.8715,-9.7861,111.7561],[-65.8723,-9.7772,110.8958],[-65.8653,-9.7707,113.5352],[-65.872,-9.7654,111.9138],[-65.8741,-9.7571,114.9104],[-65.89,-9.7556,112.3951],[-65.8936,-9.7612,114.456],[-65.9006,-9.7624,100.3843],[-65.9035,-9.7651,105.5491],[-65.9043,-9.7691,120.8836],[-65.9071,-9.7699,103.5012],[-65.9182,-9.7657,114.2096],[-65.9196,-9.7638,118.1619],[-65.9171,-9.7587,107.4139],[-65.924,-9.756,101.2336],[-65.9253,-9.7598,101.1737],[-65.9229,-9.7637,102.4074],[-65.9267,-9.7625,100.5606],[-65.9276,-9.7633,100.387],[-65.9251,-9.7648,105.2811],[-65.9258,-9.766,105.2811],[-65.9289,-9.7651,101.7354],[-65.9323,-9.7689,109.0365],[-65.9384,-9.7717,123.2499],[-65.9414,-9.7712,119.0211],[-65.942,-9.7653,113.2246],[-65.9458,-9.7629,100.1883],[-65.9574,-9.7718,116.6493],[-65.9709,-9.7741,106.5253],[-65.9726,-9.7769,108.5314],[-65.9742,-9.7979,111.2809],[-65.9638,-9.8026,108.7875],[-65.9687,-9.8066,116.9444],[-65.9814,-9.803,109.0287],[-65.9833,-9.8109,108.6088],[-65.9903,-9.8032,105.9375],[-65.9935,-9.8057,106.4536],[-66.002,-9.8006,107.5116],[-66.0076,-9.8014,122.3914],[-66.021,-9.8153,134.7311],[-66.0262,-9.8161,117.0645],[-66.0288,-9.8139,122.2076],[-66.0363,-9.7919,120.3031],[-66.0385,-9.7901,115.1418],[-66.0436,-9.7908,117.3623],[-66.0521,-9.7885,115.5568],[-66.0617,-9.7901,118.1404],[-66.0709,-9.7881,113.9596],[-66.084,-9.7922,103.1228],[-66.0784,-9.7961,120.3147],[-66.08,-9.7971,119.5808],[-66.0785,-9.7993,118.0308],[-66.0859,-9.8046,120.4654],[-66.0878,-9.8117,126.2256],[-66.0911,-9.8179,125.0171],[-66.093,-9.8186,123.5199],[-66.0982,-9.8156,110.3962],[-66.1007,-9.8093,112.8275],[-66.1032,-9.8071,117.9195],[-66.103,-9.7958,121.3916],[-66.1048,-9.7875,117.8778],[-66.11,-9.7903,115.9635],[-66.1092,-9.794,115.9724],[-66.1124,-9.7929,105.3055],[-66.1213,-9.7962,118.5314],[-66.1228,-9.7921,108.9537],[-66.1263,-9.791,111.4032],[-66.13,-9.7944,118.6985],[-66.1354,-9.7922,118.0745],[-66.1406,-9.7921,116.2239],[-66.1433,-9.7955,120.2457],[-66.145,-9.7914,114.8377],[-66.1502,-9.7894,115.116],[-66.1707,-9.798,118.3974],[-66.1737,-9.8024,118.5796],[-66.1736,-9.8076,113.9348],[-66.1779,-9.8068,110.4356],[-66.1844,-9.8092,105.8422],[-66.1911,-9.8082,121.1466],[-66.1936,-9.8169,116.1424],[-66.1889,-9.8184,110.5146],[-66.1836,-9.8238,117.5997],[-66.1836,-9.8258,118.0823],[-66.1859,-9.827,120.0938],[-66.1925,-9.8222,116.862],[-66.1945,-9.827,105.7857],[-66.1911,-9.832,122.1959],[-66.1971,-9.8348,112.6766],[-66.2025,-9.8395,121.7672],[-66.21,-9.8378,124.2714],[-66.2117,-9.8343,120.1562],[-66.2198,-9.8279,103.142],[-66.2322,-9.8187,119.2673],[-66.2351,-9.8185,119.8769],[-66.2375,-9.8236,121.9149],[-66.2372,-9.8291,124.2151],[-66.2409,-9.8237,112.715],[-66.242,-9.827,112.5069],[-66.2448,-9.8244,118.4256],[-66.244,-9.8283,123.9601],[-66.2508,-9.8353,130.4513],[-66.2592,-9.832,112.3717],[-66.2717,-9.8364,121.021],[-66.2728,-9.834,103.3886],[-66.2749,-9.8348,117.3809],[-66.2753,-9.8293,110.9825],[-66.2766,-9.8291,110.9825],[-66.2779,-9.8321,118.8357],[-66.2809,-9.833,120.2766],[-66.2789,-9.8415,122.7117],[-66.2831,-9.8452,115.8317],[-66.3026,-9.8365,114.6684],[-66.3035,-9.8402,118.3604],[-66.3056,-9.8402,112.5534],[-66.3068,-9.8381,116.0141],[-66.3084,-9.8405,106.002],[-66.3142,-9.8334,116.2381],[-66.315,-9.8354,109.2415],[-66.3196,-9.8369,111.5585],[-66.3466,-9.8402,120.0444],[-66.3512,-9.8431,110.53],[-66.3504,-9.8459,119.9761],[-66.3552,-9.8484,108.0286],[-66.3553,-9.8554,106.7027],[-66.3575,-9.8599,111.4865],[-66.3577,-9.8648,109.3373],[-66.3598,-9.8665,111.3972],[-66.3803,-9.8682,117.509],[-66.397,-9.8658,120.1431],[-66.4073,-9.8723,105.6969],[-66.4086,-9.8751,109.7429],[-66.4112,-9.8755,107.216],[-66.4122,-9.882,114.0317],[-66.4181,-9.8837,114.3212],[-66.419,-9.8916,124.9618],[-66.4217,-9.8951,109.2536],[-66.4133,-9.8933,111.9271],[-66.4126,-9.8946,124.5106],[-66.4267,-9.8997,126.2252],[-66.4289,-9.8996,127.3266],[-66.4335,-9.8942,112.1783],[-66.4312,-9.8894,119.3435],[-66.4309,-9.8795,123.9719],[-66.4324,-9.874,121.0988],[-66.4416,-9.8701,113.4632],[-66.4602,-9.8741,119.1688],[-66.4547,-9.8774,108.4386],[-66.4564,-9.8799,113.878],[-66.4641,-9.8776,115.9552],[-66.4679,-9.8723,116.2039],[-66.472,-9.8723,118.4688],[-66.4817,-9.8735,124.1581],[-66.4907,-9.8791,123.9055],[-66.4913,-9.8825,120.33],[-66.4949,-9.8843,111.2486],[-66.5057,-9.8833,124.7863],[-66.505,-9.8804,119.0591],[-66.5061,-9.8784,120.9797],[-66.5092,-9.8781,122.5449],[-66.5169,-9.8832,119.5895],[-66.5281,-9.887,122.4778],[-66.535,-9.8863,121.4755],[-66.5417,-9.8833,125.4265],[-66.5467,-9.8836,117.9162],[-66.5491,-9.8888,116.4024],[-66.5511,-9.8873,113.7554],[-66.5537,-9.8892,124.591],[-66.5574,-9.8851,123.6227],[-66.5686,-9.8918,119.1142],[-66.5704,-9.8944,113.4169],[-66.573,-9.8941,122.4005],[-66.5824,-9.8995,121.5066],[-66.5841,-9.9063,125.8991],[-66.5909,-9.9026,124.7081],[-66.6128,-9.8964,121.6157],[-66.6236,-9.897,111.5379],[-66.6278,-9.9009,111.4517],[-66.6319,-9.9022,123.9626],[-66.6283,-9.9085,122.658],[-66.6326,-9.9098,125.974],[-66.638,-9.9151,112.4984],[-66.6373,-9.9165,113.2627],[-66.6322,-9.917,124.3584],[-66.6294,-9.9226,123.0713],[-66.6359,-9.9238,114.4502],[-66.6383,-9.9301,122.729],[-66.637,-9.9308,122.729],[-66.6341,-9.9287,116.1131],[-66.6349,-9.9316,122.9006],[-66.6291,-9.9329,121.6857],[-66.6281,-9.9358,113.1626],[-66.6327,-9.9391,125.3782],[-66.6353,-9.9375,124.5411],[-66.6391,-9.9522,130.0751],[-66.6456,-9.9513,126.2123],[-66.6427,-9.949,114.8013],[-66.6475,-9.9483,125.6636],[-66.6507,-9.9458,126.5115],[-66.6515,-9.9377,115.3804],[-66.6548,-9.9439,117.1201],[-66.6583,-9.9378,126.6994],[-66.6639,-9.9406,116.4844],[-66.6667,-9.9472,112.3265],[-66.6644,-9.9521,118.0032],[-66.6682,-9.9534,113.0427],[-66.6694,-9.9623,119.3663],[-66.6723,-9.9595,125.2296],[-66.676,-9.9587,128.0808],[-66.6782,-9.962,123.6101],[-66.6761,-9.9637,118.3076],[-66.676,-9.9696,128.9449],[-66.6825,-9.9673,124.445],[-66.6916,-9.9679,123.7023],[-66.6957,-9.9699,117.6362],[-66.6951,-9.9733,121.1018],[-66.7006,-9.9742,123.3161],[-66.7056,-9.9786,126.2252],[-66.7098,-9.9786,127.2259],[-66.7136,-9.9806,129.0221],[-66.7179,-9.9755,126.7579],[-66.7226,-9.9806,126.2163],[-66.7218,-9.9832,120.1019],[-66.7193,-9.983,121.0177],[-66.7199,-9.9844,121.0177],[-66.7235,-9.9855,128.2232],[-66.7282,-9.9831,124.9387],[-66.7327,-9.9856,124.5756],[-66.7359,-9.9933,127.537],[-66.7417,-9.9992,120.7843],[-66.7504,-9.9959,117.8905],[-66.7538,-10.0027,126.061],[-66.7608,-10.0,120.6161],[-66.7635,-10.0013,118.7198],[-66.7651,-10.0079,124.2209],[-66.7717,-10.0105,117.8178],[-66.7734,-10.0128,127.3236],[-66.7711,-10.0185,117.8314],[-66.7722,-10.0225,121.7568],[-66.7805,-10.0181,125.8155],[-66.7923,-10.0233,119.4257],[-66.7939,-10.0283,119.2868],[-66.7989,-10.03,119.5093],[-66.8025,-10.0354,118.5937],[-66.8089,-10.0386,114.7744],[-66.8036,-10.0451,115.2684],[-66.8087,-10.0458,117.856],[-66.8096,-10.05,125.7731],[-66.8181,-10.0522,124.9621],[-66.824,-10.0604,118.6292],[-66.8343,-10.0605,123.7576],[-66.8375,-10.0636,120.0343],[-66.835,-10.0677,125.1254],[-66.8416,-10.0716,121.5744],[-66.8385,-10.0813,119.1232],[-66.8392,-10.084,114.5524],[-66.8452,-10.0869,125.65],[-66.8502,-10.0864,127.3518],[-66.8525,-10.0878,113.4593],[-66.8544,-10.0869,123.2789],[-66.8515,-10.0828,116.6635],[-66.8523,-10.0819,116.6635],[-66.8563,-10.0847,128.9951],[-66.8657,-10.0835,120.3323],[-66.8669,-10.0858,119.4998],[-66.8711,-10.0818,127.7153],[-66.8747,-10.0815,119.9473],[-66.8766,-10.0844,117.3028],[-66.8737,-10.0871,125.7383],[-66.875,-10.092,120.1552],[-66.8721,-10.0958,127.7561],[-66.8738,-10.102,121.1802],[-66.8771,-10.102,120.3351],[-66.8807,-10.0966,126.9312],[-66.8822,-10.1009,119.7319],[-66.8815,-10.1067,122.2588],[-66.8848,-10.1091,120.794],[-66.8869,-10.1074,117.3641],[-66.8859,-10.1011,120.903],[-66.888,-10.0994,129.5556],[-66.8897,-10.1027,123.5612],[-66.8897,-10.1156,117.3516],[-66.8939,-10.1132,120.1655],[-66.8952,-10.1104,121.004],[-66.8995,-10.1115,119.7963],[-66.8979,-10.1138,118.8483],[-66.8974,-10.1232,125.0834],[-66.9021,-10.1234,119.2541],[-66.9033,-10.1279,117.6063],[-66.9112,-10.1259,122.2975],[-66.91,-10.1328,121.0975],[-66.9137,-10.1322,119.0179],[-66.9143,-10.1295,127.8948],[-66.9186,-10.1307,118.1622],[-66.9187,-10.1355,118.6632],[-66.9145,-10.1364,121.0848],[-66.9115,-10.1395,121.9094],[-66.911,-10.1467,119.532],[-66.9122,-10.1479,119.532],[-66.9246,-10.1434,118.9417],[-66.9315,-10.149,120.7626],[-66.9348,-10.1477,120.9285],[-66.9336,-10.1556,122.1529],[-66.94,-10.1547,126.036],[-66.9464,-10.1586,120.1638],[-66.9475,-10.1617,124.4333],[-66.9463,-10.1666,117.4365],[-66.9501,-10.1743,130.238],[-66.9515,-10.1847,125.3144],[-66.9544,-10.1886,128.5397],[-66.959,-10.191,120.0106],[-66.9568,-10.1863,127.223],[-66.9599,-10.1847,125.5424],[-66.9611,-10.1819,124.8493],[-66.9647,-10.1846,121.7368],[-66.9647,-10.1874,122.168],[-66.9688,-10.191,134.8163],[-66.9737,-10.1914,126.678],[-66.9769,-10.1891,124.3065],[-66.9733,-10.1874,123.0602],[-66.9753,-10.1848,127.0517],[-66.9824,-10.19,120.7349],[-66.9764,-10.1933,126.6466],[-66.9758,-10.1961,130.1762],[-66.9821,-10.194,126.5165],[-66.9922,-10.2034,125.7046],[-66.9941,-10.2018,127.9995],[-66.993,-10.1985,125.3468],[-66.997,-10.1987,122.0944],[-66.9976,-10.203,121.3271],[-66.9933,-10.2053,120.5659],[-66.9954,-10.2072,131.4088],[-66.994,-10.2109,123.5516],[-66.999,-10.2123,122.9052],[-67.0009,-10.2178,117.0],[-66.9972,-10.2192,128.8921],[-66.9927,-10.2172,125.4197],[-66.9893,-10.2208,124.1576],[-66.9957,-10.2226,135.4171],[-66.9954,-10.2285,128.8051],[-66.9995,-10.2327,122.5799],[-67.0009,-10.2291,117.0],[-67.0068,-10.2311,121.5212],[-67.0053,-10.2434,133.4407],[-67.0094,-10.2469,123.3017],[-67.0107,-10.2532,133.0376],[-67.0159,-10.2585,121.3663],[-67.0177,-10.2575,122.8389],[-67.018,-10.2545,138.0709],[-67.0234,-10.2543,128.8659],[-67.0247,-10.2584,129.3555],[-67.031,-10.2571,120.2996],[-67.035,-10.2647,133.7708],[-67.0416,-10.2621,127.551],[-67.0436,-10.2669,131.417],[-67.0462,-10.2653,122.6701],[-67.0523,-10.2696,137.4644],[-67.0525,-10.273,129.7932],[-67.0476,-10.2747,126.1177],[-67.048,-10.276,126.1177],[-67.0527,-10.2769,122.387],[-67.0539,-10.2797,126.4714],[-67.0583,-10.2796,131.0204],[-67.0718,-10.2863,129.9287],[-67.0761,-10.2853,121.9979],[-67.0794,-10.2904,128.3555],[-67.0821,-10.2887,123.5221],[-67.0848,-10.291,128.1971],[-67.0889,-10.2906,126.8307],[-67.0876,-10.2865,126.9809],[-67.0979,-10.2835,124.933],[-67.0988,-10.2875,124.9242],[-67.1044,-10.2867,131.6694],[-67.1055,-10.2892,136.2508],[-67.1095,-10.2898,131.4112],[-67.114,-10.293,134.0231],[-67.1207,-10.2935,131.7419],[-67.1255,-10.2914,130.3496],[-67.1371,-10.2983,124.8665],[-67.1375,-10.3029,126.2467],[-67.1405,-10.3076,134.8727],[-67.1375,-10.3106,129.4292],[-67.1326,-10.3105,125.5835],[-67.1268,-10.3166,126.8848],[-67.1298,-10.3176,126.1389],[-67.133,-10.3165,123.7788],[-67.1346,-10.3198,135.3127],[-67.1378,-10.3158,128.7938],[-67.1385,-10.32,130.9526],[-67.1429,-10.3263,126.7212],[-67.1444,-10.3265,126.0566],[-67.1461,-10.3236,129.6684],[-67.154,-10.3286,126.737],[-67.1618,-10.329,128.8666],[-67.1632,-10.3327,129.6927],[-67.1694,-10.3371,127.5784],[-67.1766,-10.3386,125.5801],[-67.1874,-10.3369,128.0312],[-67.1869,-10.3346,131.3408],[-67.1906,-10.3282,131.5689],[-67.1913,-10.3224,145.4356],[-67.1938,-10.3232,139.4356],[-67.2003,-10.321,139.7288],[-67.2093,-10.3206,136.7637],[-67.2108,-10.3236,135.1277],[-67.2142,-10.3197,149.6193],[-67.2167,-10.3226,135.6155],[-67.2186,-10.3211,132.7708],[-67.2196,-10.3157,147.3264],[-67.2228,-10.3135,150.6194],[-67.2253,-10.3151,136.3347],[-67.2295,-10.3135,163.9113],[-67.2345,-10.3145,163.2207],[-67.2371,-10.3186,138.0738],[-67.2399,-10.3165,133.8202],[-67.2414,-10.3224,140.3922],[-67.2454,-10.3223,142.1284],[-67.252,-10.3268,141.5204],[-67.2535,-10.3296,130.7046],[-67.255,-10.3278,137.1593],[-67.2571,-10.3281,140.0741],[-67.266,-10.3328,143.4933],[-67.2664,-10.3304,142.4476],[-67.2689,-10.3303,131.539],[-67.2697,-10.3274,139.9134],[-67.2745,-10.3259,137.5882],[-67.2771,-10.3244,143.288],[-67.2775,-10.3219,143.0851],[-67.2853,-10.3187,144.6135],[-67.2912,-10.3206,137.533],[-67.2922,-10.3243,144.3614],[-67.2958,-10.3247,146.4978],[-67.2972,-10.3236,144.1985],[-67.2966,-10.3208,136.0767],[-67.3009,-10.3208,143.651],[-67.3019,-10.3236,139.0435],[-67.3038,-10.3237,145.6389],[-67.3105,-10.3208,143.0191],[-67.3115,-10.3228,143.5669],[-67.3123,-10.3198,146.2866],[-67.3175,-10.3198,144.1872],[-67.3162,-10.3215,138.8699],[-67.3234,-10.3236,149.4378],[-67.3219,-10.3271,143.6846],[-67.3255,-10.3277,139.1743],[-67.3281,-10.3369,147.1012],[-67.3272,-10.3397,152.5274],[-67.3196,-10.3427,143.6307],[-67.3168,-10.348,144.898],[-67.318,-10.3497,148.242],[-67.3164,-10.3514,146.8078],[-67.3181,-10.3576,148.3235],[-67.317,-10.3584,148.1802],[-67.3195,-10.3603,145.7223],[-67.3173,-10.3638,144.4342],[-67.3188,-10.3659,146.5866],[-67.3185,-10.3704,146.9984],[-67.3163,-10.3734,140.2743],[-67.3142,-10.3709,149.4059],[-67.3131,-10.3717,151.3107],[-67.3118,-10.3781,148.9947],[-67.3179,-10.3782,148.5802],[-67.3199,-10.3825,146.4443],[-67.3228,-10.3818,149.6211],[-67.3246,-10.3842,152.2095],[-67.3266,-10.3813,149.3416],[-67.3299,-10.3848,152.4731],[-67.3324,-10.3825,148.6849],[-67.3385,-10.3817,154.5008],[-67.3426,-10.3791,146.511],[-67.3435,-10.381,152.2556],[-67.3449,-10.3787,154.7267],[-67.348,-10.3824,158.5563],[-67.3511,-10.3816,154.7841],[-67.3546,-10.3849,152.8345],[-67.3549,-10.3886,146.4924],[-67.3531,-10.3862,152.8345],[-67.3504,-10.3881,145.8645],[-67.3527,-10.3909,153.4945],[-67.3518,-10.3956,148.5886],[-67.3535,-10.3938,152.3518],[-67.3566,-10.3959,153.8568],[-67.3561,-10.3934,148.325],[-67.359,-10.3924,153.6043],[-67.3605,-10.3881,151.174],[-67.3632,-10.387,150.8648],[-67.3634,-10.3823,148.5226],[-67.3687,-10.3789,153.8081],[-67.3729,-10.3842,153.3544],[-67.375,-10.3836,152.0176],[-67.3795,-10.3859,159.1019],[-67.3835,-10.3831,153.5832],[-67.3921,-10.3807,157.0241],[-67.3945,-10.3857,165.2223],[-67.399,-10.3754,159.8131],[-67.4022,-10.3748,156.2751],[-67.4032,-10.3765,161.5653],[-67.4074,-10.3765,152.5677],[-67.4135,-10.3859,157.007],[-67.4176,-10.389,153.8898],[-67.4189,-10.3878,153.5101],[-67.4236,-10.3956,147.9172],[-67.4206,-10.4025,146.6811],[-67.416,-10.4024,153.7224],[-67.4142,-10.4044,162.8938],[-67.416,-10.4097,147.7345],[-67.4142,-10.4095,155.3391],[-67.4137,-10.4154,158.6855],[-67.411,-10.4197,163.2113],[-67.4132,-10.4267,169.5665],[-67.4158,-10.4273,163.1554],[-67.4172,-10.4306,163.0969],[-67.4267,-10.429,160.5709],[-67.4334,-10.4334,151.0025],[-67.4324,-10.4374,159.0426],[-67.4344,-10.4423,163.6575],[-67.4364,-10.4435,155.9231],[-67.4347,-10.4453,157.0226],[-67.4357,-10.4474,154.5876],[-67.4524,-10.4591,152.6664],[-67.4512,-10.4649,165.7154],[-67.4588,-10.4625,156.2042],[-67.4644,-10.4572,161.1315],[-67.4674,-10.4567,164.9537],[-67.4735,-10.4634,160.6137],[-67.4867,-10.4717,170.0111],[-67.4943,-10.4737,168.259],[-67.5031,-10.4727,170.1132],[-67.5081,-10.4766,168.3478],[-67.512,-10.4754,160.6429],[-67.5165,-10.4792,168.455],[-67.5152,-10.4842,174.2363],[-67.5192,-10.4905,170.5079],[-67.5229,-10.4933,173.0875],[-67.5409,-10.4883,173.4357],[-67.5604,-10.4977,175.2438],[-67.5653,-10.4974,175.9821],[-67.57,-10.5027,172.3217],[-67.5684,-10.5086,175.6796],[-67.5715,-10.5149,173.5057],[-67.5741,-10.5158,179.5169],[-67.5756,-10.5183,168.3898],[-67.5798,-10.5188,170.1403],[-67.58,-10.5203,166.5068],[-67.5925,-10.5213,171.9503],[-67.5949,-10.5239,169.2245],[-67.5949,-10.5263,169.7274],[-67.5984,-10.5276,173.6813],[-67.6037,-10.5373,177.2145],[-67.6047,-10.5452,177.4365],[-67.608,-10.5529,183.2546],[-67.6082,-10.5628,183.7322],[-67.6148,-10.5694,188.4315],[-67.6252,-10.5727,195.9048],[-67.6281,-10.5764,183.6999],[-67.6307,-10.5761,197.5315],[-67.637,-10.5853,185.4919],[-67.6356,-10.5872,187.4382],[-67.6376,-10.5955,185.6381],[-67.6434,-10.5954,196.9353],[-67.6433,-10.5966,194.8351],[-67.6398,-10.5969,187.1671],[-67.6409,-10.6011,190.8452],[-67.6469,-10.6034,192.3129],[-67.6519,-10.6105,193.7341],[-67.6613,-10.617,198.7722],[-67.6723,-10.6053,206.9177],[-67.6767,-10.6054,210.5704],[-67.7092,-10.7099,151.8117],[-67.7102,-10.7074,149.4372],[-67.7138,-10.706,172.6492],[-67.7135,-10.7082,152.5399],[-67.7155,-10.707,158.1114],[-67.7178,-10.7091,151.3531],[-67.7207,-10.7089,155.1087],[-67.7218,-10.7109,152.6212],[-67.7268,-10.7064,151.0873],[-67.7289,-10.7125,153.3423],[-67.7308,-10.7101,156.1599],[-67.7324,-10.7109,154.6945],[-67.7309,-10.7127,153.1042],[-67.7328,-10.7126,151.8268],[-67.7334,-10.711,154.6945],[-67.736,-10.7119,150.1003],[-67.7449,-10.7038,155.3313],[-67.7453,-10.6955,158.8649],[-67.7466,-10.6951,152.6511],[-67.7478,-10.6971,150.7758],[-67.756,-10.6944,165.4334],[-67.7564,-10.6883,148.8638],[-67.7579,-10.6883,148.8638],[-67.7602,-10.6841,156.0135],[-67.7625,-10.684,154.4856],[-67.7662,-10.6882,150.9944],[-67.7678,-10.6857,153.9987],[-67.769,-10.6871,147.1508],[-67.7716,-10.6844,155.3816],[-67.7741,-10.6851,148.7956],[-67.7766,-10.6829,153.2751],[-67.7744,-10.6816,152.287],[-67.7773,-10.6812,150.6402],[-67.776,-10.68,156.4839],[-67.7777,-10.6793,154.072],[-67.7797,-10.6816,149.4058],[-67.779,-10.6798,154.636],[-67.7812,-10.6795,153.8102],[-67.782,-10.6763,156.6168],[-67.7859,-10.676,158.5048],[-67.7866,-10.6779,153.6948],[-67.7885,-10.6734,156.4258],[-67.7917,-10.6771,156.3776],[-67.7985,-10.6708,156.3658],[-67.7986,-10.6686,158.9761],[-67.8004,-10.6695,156.2675],[-67.8048,-10.6665,156.9568],[-67.8091,-10.6665,155.7703],[-67.8087,-10.6645,154.0987],[-67.8072,-10.6653,154.2754],[-67.8063,-10.6641,154.9484],[-67.8091,-10.663,154.0987],[-67.8089,-10.6606,154.3889],[-67.8104,-10.6596,151.2959],[-67.8154,-10.664,155.8475],[-67.8179,-10.663,155.6198],[-67.8191,-10.6612,154.5485],[-67.8175,-10.6608,156.9764],[-67.8192,-10.659,154.4652],[-67.8177,-10.6574,157.8732],[-67.8227,-10.6543,158.125],[-67.8222,-10.6518,148.4906],[-67.824,-10.6509,150.0542],[-67.825,-10.6531,156.7578],[-67.8279,-10.65,150.7897],[-67.8331,-10.6515,156.9096],[-67.8342,-10.6494,152.3706],[-67.8345,-10.6506,153.4465],[-67.837,-10.6502,154.7844],[-67.8373,-10.6479,161.4124],[-67.8401,-10.6506,158.4263],[-67.8435,-10.6512,152.6393],[-67.846,-10.6466,153.7874],[-67.8534,-10.6463,150.8762],[-67.854,-10.6492,154.5115],[-67.856,-10.6461,162.9019],[-67.8587,-10.6467,155.9015],[-67.858,-10.6441,153.3847],[-67.8593,-10.6455,154.8069],[-67.8648,-10.6392,180.3506],[-67.8659,-10.6409,162.6059],[-67.8664,-10.6393,180.566],[-67.8696,-10.6411,167.1063],[-67.8743,-10.6409,159.0672],[-67.8762,-10.6433,156.3471],[-67.8779,-10.6408,157.5695],[-67.8767,-10.6387,159.0585],[-67.8807,-10.6399,160.9128],[-67.8828,-10.6384,161.4471],[-67.8859,-10.6404,159.0344],[-67.8863,-10.6382,166.7873],[-67.8919,-10.639099999999999,169.704],[-67.89,-10.6433,161.9252],[-67.8947,-10.6465,155.5301],[-67.8964,-10.6451,160.6371],[-67.898,-10.646,160.6371],[-67.8975,-10.6432,160.8121],[-67.8991,-10.6417,161.5052],[-67.9011,-10.6432,160.4384],[-67.9038,-10.6406,158.1493],[-67.9051,-10.6415,160.1421],[-67.9053,-10.6399,160.9864],[-67.9097,-10.6402,162.5777],[-67.9111,-10.6436,160.6594],[-67.9135,-10.6446,162.4962],[-67.9133,-10.6483,162.0828],[-67.9166,-10.6484,165.1193],[-67.9193,-10.6525,161.8861],[-67.92,-10.65,163.0945],[-67.9236,-10.6491,175.4872],[-67.9237,-10.6516,161.5218],[-67.9264,-10.6513,162.3479],[-67.9293,-10.6547,160.4963],[-67.9305,-10.6535,162.4969],[-67.935,-10.6546,159.5392],[-67.9357,-10.6533,161.5043],[-67.9372,-10.6547,163.3214],[-67.9383,-10.6529,164.3881],[-67.9416,-10.6549,159.7195],[-67.9432,-10.654,164.5972],[-67.9419,-10.6539,164.5972],[-67.9423,-10.6527,167.6785],[-67.9452,-10.6531,165.6575],[-67.9479,-10.6495,178.8793],[-67.9479,-10.6517,163.6251],[-67.9499,-10.6519,165.6119],[-67.9505,-10.6498,171.3832],[-67.9535,-10.6519,167.0102],[-67.9549,-10.6481,183.9059],[-67.957,-10.6499,166.4927],[-67.9579,-10.6484,177.7533],[-67.9626,-10.648,172.1991],[-67.9643,-10.6485,173.6817],[-67.9658,-10.6536,163.5009],[-67.9679,-10.6528,164.2635],[-67.9671,-10.6546,159.1142],[-67.9709,-10.6542,166.3618],[-67.9768,-10.6612,165.0362],[-67.9781,-10.6597,165.0362],[-67.9797,-10.6606,165.2704],[-67.9823,-10.6566,162.3449],[-67.9853,-10.6562,162.5166],[-67.9847,-10.6543,170.03],[-67.9878,-10.6558,164.3656],[-67.9894,-10.6533,164.6128],[-67.9921,-10.654,166.1756],[-67.991,-10.6524,165.2432],[-67.9928,-10.6506,163.2782],[-67.9961,-10.6523,167.4716],[-67.9966,-10.6506,167.0501],[-68.0025,-10.6501,164.1165],[-68.0038,-10.6538,170.6777],[-68.0097,-10.658,178.0213],[-68.0207,-10.6606,173.1409],[-68.028,-10.6685,177.9921],[-68.0502,-10.6748,168.5725],[-68.0598,-10.6794,169.0866],[-68.07,-10.69,168.2022],[-68.0867,-10.6978,170.1246],[-68.0961,-10.708,167.778],[-68.0961,-10.7111,168.2629],[-68.0991,-10.7112,167.1884],[-68.104,-10.7153,169.7493],[-68.1038,-10.7168,166.4712],[-68.1058,-10.7166,172.7285],[-68.1055,-10.7223,173.2038],[-68.1072,-10.7262,173.6212],[-68.1049,-10.7273,167.1476],[-68.1077,-10.7296,174.3754],[-68.1057,-10.7411,178.1654],[-68.1025,-10.741,180.0535],[-68.0986,-10.7496,174.2502],[-68.1027,-10.7538,178.8552],[-68.1034,-10.7612,172.6021],[-68.1068,-10.7676,178.7722],[-68.1042,-10.7758,174.197],[-68.1076,-10.7799,172.9046],[-68.1073,-10.7819,168.8592],[-68.1131,-10.7837,172.3603],[-68.1216,-10.7896,172.6582],[-68.1264,-10.7975,175.0753],[-68.1323,-10.8016,179.9503],[-68.133,-10.8056,178.3786],[-68.1361,-10.8078,179.9123],[-68.1378,-10.8068,186.1754],[-68.1379,-10.8091,179.8821],[-68.1396,-10.8112,178.2905],[-68.1406,-10.8104,178.2905],[-68.1438,-10.8166,177.99],[-68.1485,-10.8203,178.5128],[-68.1535,-10.8211,186.6004],[-68.1538,-10.8244,183.4124],[-68.1598,-10.8297,181.747],[-68.1593,-10.8318,175.5478],[-68.1607,-10.833,177.2509],[-68.1618,-10.8319,176.7944],[-68.1616,-10.8338,177.2509],[-68.1648,-10.8345,177.5636],[-68.1653,-10.8365,172.3119],[-68.1709,-10.8387,179.2423],[-68.1744,-10.8421,191.6121],[-68.1762,-10.8489,179.2893],[-68.1778,-10.8497,183.6362],[-68.1784,-10.8527,187.9982],[-68.1813,-10.8542,179.9112],[-68.1819,-10.8571,182.7394],[-68.1958,-10.8597,179.6197],[-68.1961,-10.8693,176.0699],[-68.1996,-10.872,180.5236],[-68.2042,-10.8838,180.6169],[-68.2032,-10.89,183.902],[-68.2056,-10.8983,183.7803],[-68.2072,-10.8991,180.8496],[-68.2073,-10.9056,183.494],[-68.2192,-10.9086,185.0035],[-68.2208,-10.9094,178.6349],[-68.22,-10.9127,186.3353],[-68.2245,-10.915,182.6872],[-68.2251,-10.9192,194.0916],[-68.2283,-10.9234,178.2357],[-68.227,-10.9262,177.0832],[-68.229,-10.9262,182.5094],[-68.2276,-10.9319,193.4179],[-68.2312,-10.941,193.6776],[-68.2285,-10.9468,211.9035],[-68.2331,-10.9478,185.9111],[-68.2367,-10.961,193.1965],[-68.2406,-10.9605,186.6823],[-68.2458,-10.9644,195.1655],[-68.2525,-10.9668,187.585],[-68.2628,-10.9779,192.5826],[-68.2673,-10.9774,189.1297],[-68.2732,-10.9811,188.9499],[-68.2745,-10.9829,189.9022],[-68.2734,-10.9859,192.4566],[-68.2775,-10.9907,193.1419],[-68.2868,-10.994,191.4441],[-68.2913,-10.9909,186.8465],[-68.3086,-10.995,197.53],[-68.3117,-10.9992,198.6676],[-68.3238,-11.0053,202.88],[-68.3266,-11.0125,199.0206],[-68.3314,-11.0158,199.9421],[-68.336,-11.0155,199.5582],[-68.3366,-11.0107,189.3077],[-68.3425,-11.0126,205.7888],[-68.3523,-11.0074,194.9543],[-68.3652,-11.0105,197.1563],[-68.368,-11.0133,200.8169],[-68.3752,-11.0147,212.5345],[-68.3852,-11.0202,204.5935],[-68.3884,-11.0259,196.0351],[-68.3873,-11.0311,213.8072],[-68.3886,-11.0406,206.352],[-68.3866,-11.0453,225.3792],[-68.3888,-11.0487,215.2228],[-68.4016,-11.0562,212.0242],[-68.4032,-11.0564,213.36],[-68.4088,-11.0515,215.697],[-68.4094,-11.0468,218.0153],[-68.4132,-11.0434,209.9223],[-68.4245,-11.0444,203.3351],[-68.429,-11.0356,216.6022],[-68.4363,-11.0363,227.4597],[-68.438,-11.0436,224.6405],[-68.4467,-11.0493,210.3632],[-68.4522,-11.0477,214.6888],[-68.4588,-11.0524,229.8583],[-68.4722,-11.0543,232.9344],[-68.4811,-11.0525,221.6945],[-68.4919,-11.0573,242.1732],[-68.4945,-11.0612,252.3319],[-68.5017,-11.0637,227.2246],[-68.5198,-11.0884,248.8355],[-68.5429,-11.0996,255.0691],[-68.5435,-11.1104,287.7518],[-68.6262,-11.1268,266.0473],[-68.6474,-11.1337,278.0953],[-68.7156,-11.1475,258.9113],[-68.7151,-11.1448,265.8919],[-68.7168,-11.1452,258.5322],[-68.713,-11.1331,244.0412],[-68.7158,-11.1245,244.9168],[-68.7232,-11.1146,228.9619],[-68.7222,-11.1065,238.5139],[-68.735,-11.096,217.0111],[-68.741,-11.0973,214.9822],[-68.7493,-11.0956,211.3958],[-68.7512,-11.0909,216.4607],[-68.757,-11.0878,213.5462],[-68.7596,-11.0825,219.3907],[-68.7588,-11.0781,218.1591],[-68.7642,-11.0748,217.4702],[-68.7659,-11.0696,223.306],[-68.7661,-11.0665,204.0179],[-68.7628,-11.0608,203.6329],[-68.765,-11.0581,204.1658],[-68.7649,-11.0518,201.6805],[-68.7672,-11.0494,209.4947],[-68.7602,-11.0394,194.6647],[-68.752,-11.0373,192.5044],[-68.7529,-11.0335,192.9229],[-68.7517,-11.0309,195.7191],[-68.7534,-11.0291,191.1322],[-68.7516,-11.0286,189.9586],[-68.7515,-11.024,198.3343],[-68.7547,-11.023,193.9021],[-68.7505,-11.0209,189.9851],[-68.7514,-11.0171,183.2911],[-68.7489,-11.0109,189.6682],[-68.7556,-11.0119,190.1828],[-68.76,-11.0183,200.742],[-68.7631,-11.0195,190.5344],[-68.7638,-11.0131,185.6775],[-68.7624,-11.0111,183.368],[-68.7578,-11.0099,181.1734],[-68.7593,-11.0036,183.2671],[-68.763,-11.0036,192.8047],[-68.771,-11.0083,197.1405],[-68.7803,-11.0055,197.3865],[-68.7793,-11.0004,191.8623],[-68.782,-10.9998,186.6706],[-68.7825,-11.002,188.1437],[-68.7873,-11.0059,186.3515],[-68.7859,-11.0129,186.5693],[-68.7888,-11.0151,196.6438],[-68.7907,-11.0123,191.6613],[-68.7903,-11.0011,188.7449],[-68.7969,-11.0008,190.6566],[-68.7993,-10.9989,193.7729],[-68.7983,-10.9963,196.206],[-68.7926,-10.9913,187.6747],[-68.7983,-10.9918,202.6829],[-68.8027,-11.0016,201.1732],[-68.8067,-11.0036,199.0611],[-68.8127,-11.0033,195.2113],[-68.817,-11.0062,194.9464],[-68.8235,-11.0042,193.0387],[-68.8248,-11.0065,204.2047],[-68.8295,-11.0085,200.0422],[-68.8317,-11.003,194.3077],[-68.8361,-10.9984,190.298],[-68.8385,-11.0025,195.2039],[-68.8418,-11.0033,206.1462],[-68.8438,-11.0013,204.5212],[-68.8468,-11.0171,207.113],[-68.8633,-11.0177,199.088],[-68.8674,-11.0237,219.0795],[-68.8707,-11.0234,213.0673],[-68.8759,-11.018,195.1317],[-68.8773,-11.0214,199.7726],[-68.8823,-11.0226,206.6097],[-68.8884,-11.0189,212.2612],[-68.8898,-11.0136,205.8217],[-68.8954,-11.0167,206.2991],[-68.9049,-11.0156,194.8604],[-68.9076,-11.0214,205.483],[-68.9102,-11.0228,197.4039],[-68.9221,-11.0149,216.3237],[-68.9251,-11.0189,195.564],[-68.9296,-11.0132,203.7631],[-68.9311,-11.0136,203.7631],[-68.9351,-11.0059,201.3066],[-68.9449,-11.0127,199.8178],[-68.9483,-11.0129,203.7943],[-68.9484,-11.0053,218.7382],[-68.9546,-11.0045,201.2312],[-68.9574,-11.0019,198.5202],[-68.955,-10.9956,197.3251],[-68.9569,-10.9949,220.1753],[-68.9637,-10.995,218.7488],[-68.9746,-11.004,217.2708],[-68.9797,-11.0046,215.3192],[-68.9876,-10.9995,197.6306],[-68.9836,-11.0087,200.8275],[-68.9918,-11.0121,215.2695],[-68.9956,-11.0111,214.2218],[-68.9957,-11.004,216.47],[-69.0011,-11.0092,214.3561],[-69.0042,-11.0071,202.4976],[-69.0141,-11.0052,212.6843],[-69.0166,-11.0023,201.5208],[-69.0116,-10.9959,220.1783],[-69.0126,-10.9926,211.7594],[-69.0196,-10.9918,209.8843],[-69.0237,-10.994,206.3454],[-69.0262,-10.9912,201.8928],[-69.0267,-10.9879,203.5789],[-69.0302,-10.9863,213.1121],[-69.0336,-10.9869,207.8558],[-69.0375,-10.983,217.0843],[-69.0485,-10.9819,212.9719],[-69.0534,-10.9791,213.0138],[-69.0556,-10.9829,204.3605],[-69.0609,-10.9864,212.3289],[-69.0682,-10.9773,206.1439],[-69.0894,-10.983,224.5244],[-69.0962,-10.9827,228.2614],[-69.0987,-10.9809,213.0898],[-69.1029,-10.9818,221.3911],[-69.1058,-10.9774,218.9289],[-69.1152,-10.976,213.6213],[-69.1179,-10.9812,212.4882],[-69.1205,-10.9818,216.7318],[-69.1224,-10.9748,207.1917],[-69.1316,-10.9711,216.4577],[-69.1374,-10.9748,221.2882],[-69.1385,-10.9684,213.1493],[-69.1475,-10.9725,216.7101],[-69.1509,-10.9719,226.6692],[-69.151,-10.969,213.0968],[-69.1468,-10.965,214.0454],[-69.1485,-10.9643,222.0128],[-69.1548,-10.9659,219.4339],[-69.1562,-10.9633,214.3557],[-69.1594,-10.963,227.7907],[-69.1609,-10.9662,213.8514],[-69.1633,-10.9666,226.4714],[-69.1699,-10.9637,213.4549],[-69.1829,-10.9676,244.5092],[-69.1887,-10.9672,235.2605],[-69.1979,-10.9638,239.0057],[-69.2038,-10.9579,224.8453],[-69.2159,-10.96,221.9253],[-69.2227,-10.9562,218.3383],[-69.2399,-10.9589,237.2883],[-69.2497,-10.9557,233.8987],[-69.2713,-10.9534,226.2048],[-69.2742,-10.9553,217.5246],[-69.2759,-10.9537,219.7209],[-69.3121,-10.9564,251.7574],[-69.3266,-10.9539,240.013],[-69.3414,-10.9487,224.6873],[-69.3418,-10.9521,228.0246],[-69.3438,-10.9524,232.1693],[-69.3476,-10.9475,228.2268],[-69.3472,-10.9451,234.1716],[-69.3524,-10.9401,239.1393],[-69.3559,-10.9395,236.8971],[-69.3543,-10.944,221.1537],[-69.3563,-10.9457,222.2068],[-69.3736,-10.9404,225.8253],[-69.3727,-10.9545,222.496],[-69.3751,-10.9564,225.54],[-69.3781,-10.9525,234.7494],[-69.3797,-10.9413,236.6912],[-69.3843,-10.943,237.5488],[-69.3865,-10.9423,236.7053],[-69.3888,-10.9393,232.9276],[-69.3887,-10.9341,229.4362],[-69.3937,-10.9347,237.9332],[-69.3936,-10.941,233.6404],[-69.3902,-10.943,228.6534],[-69.3934,-10.9458,226.8081],[-69.397,-10.9424,230.4421],[-69.4027,-10.93,232.7789],[-69.4057,-10.9298,222.2424],[-69.4108,-10.9379,230.5313],[-69.4128,-10.9371,230.5313],[-69.4141,-10.9388,241.8102],[-69.4168,-10.9275,243.8202],[-69.4236,-10.9272,229.7711],[-69.4255,-10.9309,229.911],[-69.425,-10.9351,231.8706],[-69.429,-10.9382,233.271],[-69.4509,-10.9364,236.998],[-69.4537,-10.949,240.5462],[-69.4552,-10.9501,227.9326],[-69.4585,-10.947,230.4651],[-69.4607,-10.9503,232.1743],[-69.465,-10.9509,236.0761],[-69.4756,-10.9448,239.9217],[-69.4784,-10.9475,233.1234],[-69.4761,-10.9517,229.18],[-69.4782,-10.955,230.7931],[-69.4811,-10.9549,238.0423],[-69.4833,-10.9527,243.1932],[-69.5035,-10.9524,253.6586],[-69.5333,-10.9597,262.4365],[-69.5652,-10.9555,257.4161],[-69.5677,-10.9518,251.34],[-69.5703,-10.9522,239.567],[-69.5689,-10.9507,242.5251],[-69.5692,-10.9476,237.2701],[-69.5723,-10.9494,246.3755],[-69.4682,-11.117,309.4272],[-69.3232,-11.3555,302.901],[-69.2556,-11.4575,256.8242],[-69.1485,-11.6364,257.2394],[-68.97,-11.9125,248.9105],[-68.6522,-12.4977,160.0],[-68.6375,-12.4984,160.0],[-68.6183,-12.4954,160.0],[-68.5626,-12.4591,160.0],[-68.5586,-12.4543,160.0],[-68.5581,-12.4478,160.0],[-68.5597,-12.4443,160.0],[-68.5826,-12.4182,160.0],[-68.5911,-12.4036,160.0],[-68.5882,-12.3969,160.0],[-68.5837,-12.3936,160.0],[-68.5724,-12.3899,160.0],[-68.5639,-12.3897,165.2153],[-68.5196,-12.3952,160.0],[-68.5082,-12.3993,160.0],[-68.5022,-12.4033,160.0],[-68.4922,-12.4168,160.0],[-68.4856,-12.4203,160.0],[-68.472,-12.4232,159.5],[-68.4609,-12.4203,159.5],[-68.4502,-12.4109,159.0],[-68.4385,-12.3975,159.0],[-68.4193,-12.382,158.5],[-68.4046,-12.3636,158.0],[-68.4017,-12.3498,187.4219],[-68.4002,-12.3323,157.5],[-68.4029,-12.3027,157.0],[-68.4144,-12.2812,157.0],[-68.415,-12.2746,157.0],[-68.4117,-12.264099999999999,157.0],[-68.4041,-12.2542,157.0],[-68.3782,-12.2312,157.0],[-68.3582,-12.2225,157.0],[-68.339,-12.22,157.0],[-68.3106,-12.2289,157.0],[-68.3015,-12.2281,157.0],[-68.2929,-12.2246,157.0],[-68.2829,-12.2172,157.0],[-68.2712,-12.2048,157.0],[-68.2498,-12.1923,157.0],[-68.2443,-12.1874,157.0],[-68.2342,-12.1693,157.0],[-68.2253,-12.1383,157.0],[-68.2253,-12.1271,157.0],[-68.2311,-12.1048,157.0],[-68.2306,-12.0983,157.0],[-68.2264,-12.0842,157.0],[-68.2311,-12.0563,156.5],[-68.2317,-12.041,156.5],[-68.2386,-12.0211,156.5],[-68.2366,-12.0128,156.5],[-68.2334,-12.0108,156.5],[-68.2086,-12.0098,156.5],[-68.1842,-12.0111,156.5],[-68.1564,-12.0221,156.5],[-68.1333,-12.0219,156.5],[-68.1281,-12.0244,156.5],[-68.1171,-12.0343,156.5],[-68.1107,-12.0367,156.5],[-68.1036,-12.0373,156.5],[-68.0983,-12.0348,156.5],[-68.0614,-11.9982,156.5],[-68.0393,-11.9848,156.5],[-68.0178,-11.9767,156.5],[-67.9811,-11.9414,155.5],[-67.9776,-11.9359,155.5],[-67.9746,-11.9193,155.0],[-67.9776,-11.8995,154.5],[-67.9881,-11.8728,153.5]]],
[[[-68.8804,-11.014,200.3155],[-68.8798,-11.0125,192.6281],[-68.8832,-11.0107,213.8414],[-68.8851,-11.0146,198.5541],[-68.8843,-11.0169,194.6485],[-68.8814,-11.0176,193.9408],[-68.8811,-11.0129,207.4302],[-68.8804,-11.014,200.3155]]],
[[[-69.5735,-10.9465,235.7906],[-69.5735,-10.9458,235.4781],[-69.5747,-10.9451,235.4781],[-69.5738,-10.9468,235.7906],[-69.5735,-10.9465,235.7906]]]]}
,"properties": {"GID_1": "BOL.6_1","GID_0": "BOL","country": "Bolivia","province": "Pando","VARNAME_1": "colonialterritories|madrededi","NL_NAME_1": "NA","TYPE_1": "Departamento","ENGTYPE_1": "Department","CC_1": "NA","HASC_1": "BO.PA","ISO_1": "BO-N","name": "Pando.province","area_km2": 63896.99,"hist_schema_id": "Elevation0-9000","hist_area_km2": {"100": 209.47,"125": 4504.26,"150": 13730.32,"175": 16829.95,"200": 11215.77,"225": 6547.57,"250": 5721.15,"275": 3294.6,"300": 1659.63,"325": 179.64,"350": 4.64}}}