{"type":"Feature","properties":{"featurecla":"River","scalerank":6,"rivernum":291,"dissolve":"291River","name":"Madre4","name_alt":null,"note":null,"min_zoom":5.0,"strokeweig":0.3,"name_en":"Madre de Dios","min_label":6.0},
"geometry":{"type": "LineString","coordinates": [[-66.976245117187489,-11.344268487505886,164.2229],[-66.970751953124989,-11.33416106563088,166.3959],[-66.967333984374989,-11.32244231563088,144.9026],[-66.965185546874991,-11.293487237505886,136.382],[-66.955175781249991,-11.277178643755889,153.3142],[-66.932177734374989,-11.278838800005886,151.7219],[-66.868994140624991,-11.305205987505886,175.2189],[-66.861181640624991,-11.305987237505889,173.5639],[-66.847900390625,-11.30339934688088,167.0975],[-66.837988281249991,-11.298858331255886,173.7436],[-66.820166015624991,-11.286163018755886,145.7971],[-66.810644531249991,-11.28362395625588,166.3655],[-66.798876953124989,-11.27361419063088,176.6783],[-66.803808593749991,-11.251788018755889,135.5573],[-66.814624023437489,-11.230498956255886,146.8603],[-66.820556640625,-11.22210051875588,146.0234],[-66.81640625,-11.19500090938088,140.0371],[-66.80224609375,-11.190459893755886,130.0],[-66.782641601562489,-11.201006768755889,143.3652],[-66.742236328124989,-11.236163018755889,134.2222],[-66.726245117187489,-11.241241143755886,180.9454],[-66.710498046874989,-11.23406340938088,174.427],[-66.690844726562489,-11.21526458125588,166.8385],[-66.66171875,-11.17400481563088,146.2493],[-66.649267578124991,-11.16497161250588,140.7467],[-66.638769531249991,-11.16033294063088,143.4375],[-66.627734374999989,-11.15837981563088,146.6326],[-66.62255859375,-11.16375090938088,148.3929],[-66.617138671875,-11.16692473750588,147.3593],[-66.590625,-11.16838958125588,165.9856],[-66.580981445312489,-11.167510675005886,150.8906],[-66.561938476562489,-11.15862395625588,138.7108],[-66.548266601562489,-11.14495208125588,124.5],[-66.518798828125,-11.10027434688088,123.0],[-66.513769531249991,-11.09514739375588,122.5],[-66.505224609374991,-11.09172942500588,122.5],[-66.495458984374991,-11.09221770625588,122.5],[-66.490966796875,-11.096709893755886,134.4788],[-66.488427734375,-11.102080987505886,136.3714],[-66.484790039062489,-11.10540130000588,136.0497],[-66.47333984375,-11.11199309688088,129.2556],[-66.465625,-11.114288018755886,136.6737],[-66.457446289062489,-11.11223723750588,136.386],[-66.45458984375,-11.10686614375588,127.8142],[-66.4533203125,-11.089873956255886,132.6409],[-66.451269531249991,-11.08489348750588,135.1412],[-66.437109374999991,-11.080108331255886,121.0],[-66.4306640625,-11.08733489375588,121.0],[-66.424072265625,-11.098467706255889,131.4529],[-66.40966796875,-11.10540130000588,121.0],[-66.379687499999989,-11.095049737505889,124.9784],[-66.362060546875,-11.06438567500588,142.259],[-66.341064453125,-10.96428801875588,129.7013],[-66.332080078124989,-10.96282317500588,129.8425],[-66.3134765625,-10.97503020625588,134.8753],[-66.299853515624989,-10.990069268755889,127.2945],[-66.300146484374991,-11.000811456255889,138.2667],[-66.3203125,-11.023467706255886,139.3112],[-66.306567382812489,-11.03606536250588,118.5],[-66.287768554687489,-11.033721612505886,134.5488],[-66.26904296875,-11.023760675005889,117.0],[-66.255419921874989,-11.01262786250588,135.8487],[-66.220947265625,-10.99553801875588,135.8218],[-66.2150390625,-10.991241143755886,134.8459],[-66.2119140625,-10.98186614375588,141.6598],[-66.2099609375,-10.972491143755889,135.5782],[-66.207324218749989,-10.968291925005886,122.9777],[-66.196630859374991,-10.939776300005889,129.4773],[-66.183447265624991,-10.92083098750588,129.5386],[-66.163256835937489,-10.913604425005886,125.4178],[-66.147265624999989,-10.921709893755889,138.5715],[-66.13828125,-10.93743255000588,131.8917],[-66.131445312499991,-10.954913018755889,130.7083],[-66.121679687499991,-10.968291925005886,130.6707]]}}