{"type": "Feature","bbox": [-62.8131,-18.6702,-58.9607,-17.0091],"geometry": {"type": "MultiPolygon","coordinates": [[[[-59.5259,-17.6567,279.7051],[-59.5202,-17.0091,216.325],[-60.3846,-17.2096,341.2686],[-60.4448,-17.2219,327.2277],[-60.4472,-17.2264,352.0721],[-60.4566,-17.2291,320.2575],[-60.4623,-17.2344,312.8293],[-60.474,-17.2313,306.1086],[-60.4804,-17.2356,293.9515],[-60.489,-17.236,290.2935],[-60.4989,-17.2321,287.8107],[-60.5029,-17.2266,289.4294],[-60.5107,-17.2203,284.4126],[-60.5178,-17.22,278.8726],[-60.5257,-17.2251,276.334],[-60.5264,-17.2301,277.2469],[-60.5289,-17.2318,279.1474],[-60.5399,-17.2288,276.0175],[-60.547,-17.2316,277.6913],[-60.5483,-17.2336,282.835],[-60.5533,-17.233,272.5775],[-60.5563,-17.237,275.7607],[-60.5647,-17.233,273.0641],[-60.5674,-17.2347,269.5515],[-60.5664,-17.2369,281.3911],[-60.5708,-17.2366,272.8749],[-60.5728,-17.2402,271.9985],[-60.5737,-17.2472,266.1377],[-60.5684,-17.2531,267.2502],[-60.5711,-17.2562,266.044],[-60.5795,-17.2605,265.6284],[-60.6009,-17.2676,268.1596],[-60.6096,-17.2679,267.5635],[-60.611,-17.2616,268.3105],[-60.615,-17.2578,275.324],[-60.6199,-17.2587,278.3714],[-60.6382,-17.2571,284.4244],[-60.6439,-17.248,294.5477],[-60.6527,-17.2423,297.7799],[-60.6596,-17.2428,303.8132],[-60.6686,-17.2408,316.6008],[-60.6756,-17.2345,323.3349],[-60.6829,-17.2227,382.7112],[-60.6818,-17.2189,395.6425],[-60.6784,-17.2167,414.7617],[-60.6932,-17.2068,340.2697],[-60.7026,-17.2091,318.5821],[-60.714,-17.2053,306.8098],[-60.7329,-17.2046,296.1881],[-60.7422,-17.201,293.354],[-60.7456,-17.1975,293.1696],[-60.7568,-17.1979,291.0832],[-60.7674,-17.1889,285.481],[-60.7744,-17.187,284.402],[-60.7772,-17.1845,284.8271],[-60.7836,-17.1838,283.7529],[-60.7873,-17.1866,280.7999],[-60.7909,-17.1844,280.1656],[-60.7936,-17.1867,279.8526],[-60.8039,-17.1876,279.6552],[-60.8078,-17.1844,274.3374],[-60.8135,-17.1851,266.8912],[-60.813,-17.1772,266.9366],[-60.8177,-17.1774,267.2621],[-60.8226,-17.1806,268.2113],[-60.8263,-17.1773,268.6945],[-60.8347,-17.1785,268.3986],[-60.8402,-17.1764,266.5414],[-60.8452,-17.1794,265.5621],[-60.8417,-17.185,265.4493],[-60.8428,-17.1907,265.6846],[-60.8565,-17.1963,272.1012],[-60.8555,-17.1999,265.382],[-60.8572,-17.216,264.1345],[-60.8637,-17.2192,267.4448],[-60.8749,-17.2352,262.6695],[-60.8836,-17.2398,264.537],[-60.8966,-17.2394,262.496],[-60.9044,-17.2424,262.3513],[-60.9076,-17.2421,263.9003],[-60.9092,-17.2457,261.3235],[-60.913,-17.2458,261.6327],[-60.9176,-17.2507,261.5658],[-60.922,-17.2499,265.7783],[-60.9256,-17.255,262.3723],[-60.9332,-17.2589,260.6117],[-60.933,-17.2657,260.6233],[-60.9353,-17.2676,263.7317],[-60.9363,-17.2721,261.263],[-60.9343,-17.2763,260.3204],[-60.9348,-17.2825,259.7884],[-60.9325,-17.2867,261.305],[-60.9371,-17.2971,259.3694],[-60.94,-17.2975,259.2074],[-60.9439,-17.2954,258.7407],[-60.9531,-17.2977,258.1241],[-60.9628,-17.2947,257.8073],[-60.9714,-17.2941,257.3513],[-60.9835,-17.298,258.434],[-60.9907,-17.2961,259.5912],[-60.9957,-17.303,257.2883],[-60.9955,-17.3049,256.8216],[-61.0053,-17.3158,256.2138],[-61.0141,-17.33,255.3178],[-61.0208,-17.3349,257.9165],[-61.0288,-17.3369,254.9512],[-61.0328,-17.3413,259.7951],[-61.0459,-17.3382,254.637],[-61.05,-17.3399,253.7487],[-61.0574,-17.3398,253.873],[-61.0637,-17.3439,256.308],[-61.0719,-17.3417,254.0694],[-61.0767,-17.3374,254.4276],[-61.0775,-17.3469,256.119],[-61.0813,-17.3504,253.81],[-61.0905,-17.3489,254.7848],[-61.095,-17.3542,251.9448],[-61.0987,-17.3552,251.8542],[-61.1029,-17.3538,251.7529],[-61.1056,-17.3553,253.7871],[-61.1108,-17.3498,252.8153],[-61.1141,-17.3495,253.0571],[-61.1164,-17.3514,252.7198],[-61.1239,-17.3495,250.8951],[-61.1249,-17.3515,251.5017],[-61.1228,-17.356,250.6426],[-61.1274,-17.358,250.7236],[-61.1358,-17.3579,251.1516],[-61.1404,-17.3664,260.0392],[-61.1525,-17.364,250.8963],[-61.1662,-17.3666,253.7899],[-61.1764,-17.3646,253.6048],[-61.1863,-17.3664,251.9432],[-61.1901,-17.3648,250.5963],[-61.1956,-17.3684,257.7341],[-61.2134,-17.3689,252.0169],[-61.2178,-17.3729,251.3447],[-61.2147,-17.3795,265.1687],[-61.2156,-17.3867,254.4146],[-61.22,-17.3887,252.9739],[-61.231,-17.388,250.8389],[-61.2347,-17.3938,252.9831],[-61.241,-17.3958,252.669],[-61.2423,-17.3985,250.772],[-61.2492,-17.4024,250.3133],[-61.2543,-17.4025,250.2293],[-61.2566,-17.397,250.2162],[-61.2637,-17.4009,250.1714],[-61.2672,-17.398,250.8474],[-61.2665,-17.3945,250.1845],[-61.2679,-17.3931,250.1845],[-61.2745,-17.398,250.0735],[-61.2813,-17.3974,250.0141],[-61.2847,-17.3924,251.8034],[-61.2861,-17.3942,249.947],[-61.2882,-17.393,250.0485],[-61.2922,-17.3891,250.7955],[-61.2913,-17.3881,250.7955],[-61.2925,-17.3865,253.0293],[-61.2971,-17.386,251.3344],[-61.2979,-17.3835,251.0872],[-61.3005,-17.3853,250.3576],[-61.3026,-17.3801,249.9638],[-61.3069,-17.3797,249.5159],[-61.3083,-17.3759,249.2102],[-61.3073,-17.3728,248.9622],[-61.3107,-17.3706,251.4001],[-61.3173,-17.3689,249.5304],[-61.3255,-17.3694,250.9859],[-61.328,-17.3708,249.827],[-61.327,-17.3731,253.8148],[-61.3323,-17.3749,253.1248],[-61.3399,-17.3711,249.2991],[-61.3406,-17.3682,249.3186],[-61.3447,-17.368,249.1209],[-61.3471,-17.3716,250.9641],[-61.3492,-17.372,250.8745],[-61.3525,-17.3647,249.9734],[-61.3516,-17.3624,250.2201],[-61.3533,-17.3578,252.0612],[-61.352,-17.3555,253.5336],[-61.3545,-17.3544,254.6896],[-61.3574,-17.3561,252.7979],[-61.3662,-17.3498,253.3635],[-61.368,-17.3456,254.6351],[-61.3784,-17.3447,257.0716],[-61.3838,-17.3412,256.0655],[-61.3907,-17.3447,256.7697],[-61.3949,-17.3432,254.4008],[-61.3966,-17.3483,261.4708],[-61.3992,-17.3489,257.6174],[-61.3996,-17.3421,253.772],[-61.4027,-17.3405,255.1291],[-61.4107,-17.3399,254.3768],[-61.4121,-17.3416,257.1972],[-61.4209,-17.3441,256.3179],[-61.4242,-17.3431,258.2509],[-61.4255,-17.3464,255.6991],[-61.4211,-17.3519,254.8937],[-61.4222,-17.3542,255.5698],[-61.4254,-17.3538,255.9135],[-61.4259,-17.3562,254.9487],[-61.4298,-17.3589,254.0657],[-61.4395,-17.3601,253.7674],[-61.4418,-17.3565,253.4142],[-61.4461,-17.3544,256.0977],[-61.4481,-17.3499,252.0946],[-61.4416,-17.3443,255.3504],[-61.4375,-17.3374,258.2178],[-61.4416,-17.336,259.6417],[-61.4389,-17.3308,262.65],[-61.4412,-17.3268,260.7281],[-61.4447,-17.3251,257.8993],[-61.4484,-17.326,256.5521],[-61.4535,-17.3321,255.8193],[-61.4558,-17.3303,257.4041],[-61.4701,-17.3302,256.1023],[-61.4686,-17.3334,257.1509],[-61.4717,-17.3339,258.098],[-61.4716,-17.3354,260.1391],[-61.4681,-17.3411,256.1411],[-61.4718,-17.3425,255.819],[-61.4724,-17.3405,256.9213],[-61.4742,-17.3418,257.394],[-61.4749,-17.34,258.7851],[-61.479,-17.3402,255.7782],[-61.4809,-17.3422,255.8027],[-61.4803,-17.3465,253.6449],[-61.4889,-17.3467,252.3307],[-61.4929,-17.3379,252.7342],[-61.4918,-17.3221,251.4193],[-61.4957,-17.3208,253.8502],[-61.4958,-17.3238,252.5558],[-61.5008,-17.3272,255.0943],[-61.5096,-17.3261,255.8828],[-61.5104,-17.3145,255.8165],[-61.5066,-17.3085,254.8922],[-61.5071,-17.3033,252.9262],[-61.4971,-17.3008,255.1776],[-61.4972,-17.2981,254.1512],[-61.495,-17.2955,253.6526],[-61.4985,-17.2944,252.5917],[-61.5005,-17.2896,252.639],[-61.5052,-17.2892,253.1557],[-61.5103,-17.2859,251.6986],[-61.5132,-17.2876,252.961],[-61.516,-17.2852,253.6464],[-61.5189,-17.2885,252.7782],[-61.5224,-17.2847,253.3778],[-61.526,-17.2855,252.6925],[-61.5266,-17.2827,252.0594],[-61.5308,-17.2843,251.3868],[-61.5326,-17.2832,252.0845],[-61.535,-17.2873,250.2014],[-61.5376,-17.278,251.3635],[-61.5364,-17.2755,251.5831],[-61.5442,-17.27,251.9313],[-61.5454,-17.2675,252.5355],[-61.5499,-17.2706,251.5394],[-61.5508,-17.2691,253.9035],[-61.5494,-17.2658,252.3564],[-61.5686,-17.2575,253.0439],[-61.7795,-17.3415,269.7838],[-62.0471,-17.3807,261.5604],[-62.5403,-17.4614,267.1406],[-62.6207,-17.466,268.5196],[-62.7152,-17.4903,278.6549],[-62.7862,-17.5019,275.8231],[-62.7895,-17.5061,276.7253],[-62.7923,-17.5171,276.6652],[-62.7899,-17.5313,274.5],[-62.7913,-17.5389,279.465],[-62.788,-17.5434,282.8197],[-62.7677,-17.5561,279.2086],[-62.7651,-17.5606,279.6482],[-62.7638,-17.5725,280.4914],[-62.7686,-17.5937,278.25],[-62.7714,-17.6001,278.5],[-62.7792,-17.61,279.125],[-62.7838,-17.6273,288.6364],[-62.7907,-17.6357,289.1185],[-62.7915,-17.64,286.3267],[-62.7911,-17.6442,285.942],[-62.7872,-17.652,286.8823],[-62.7762,-17.6642,286.599],[-62.7731,-17.6715,293.7505],[-62.7741,-17.6807,294.2452],[-62.7822,-17.693,288.7362],[-62.7825,-17.6967,295.1439],[-62.7805,-17.7009,294.7693],[-62.7707,-17.7064,293.511],[-62.7648,-17.7078,290.3783],[-62.7458,-17.7217,292.3578],[-62.743,-17.7283,294.0761],[-62.7428,-17.7392,294.58],[-62.7386,-17.7447,294.1209],[-62.7379,-17.7483,293.9028],[-62.7418,-17.7586,294.8392],[-62.7635,-17.7758,292.7664],[-62.765,-17.7798,300.8956],[-62.7644,-17.7839,301.392],[-62.7558,-17.802,296.4185],[-62.756,-17.806,302.6329],[-62.757,-17.8087,296.7792],[-62.7655,-17.8148,295.0],[-62.7651,-17.8259,296.0],[-62.7694,-17.8335,299.5588],[-62.7805,-17.8469,298.443],[-62.7825,-17.8611,299.5],[-62.7821,-17.8741,300.5147],[-62.7887,-17.8793,308.2776],[-62.7999,-17.8824,302.0],[-62.8029,-17.8864,302.5],[-62.8112,-17.9113,305.333],[-62.8114,-17.9147,305.3739],[-62.8096,-17.917,305.5806],[-62.7983,-17.9239,306.5],[-62.7935,-17.9315,307.4698],[-62.7904,-17.9444,307.0],[-62.7809,-17.9576,308.0],[-62.7794,-17.9687,315.6196],[-62.7896,-17.9757,312.6707],[-62.8071,-17.9799,312.8094],[-62.8104,-17.9822,312.8514],[-62.8131,-17.9855,312.968],[-62.8125,-18.0049,313.1889],[-62.8104,-18.0181,311.5],[-62.3979,-18.0671,309.5836],[-61.6492,-18.1888,285.6182],[-61.2885,-18.2435,276.9876],[-60.1175,-18.4166,461.3408],[-59.6922,-18.4769,221.506],[-59.6894,-18.4842,221.9881],[-59.6827,-18.4905,221.5422],[-59.687,-18.4959,220.226],[-59.6829,-18.4998,220.9282],[-59.6805,-18.4994,216.8988],[-59.6787,-18.5036,219.8575],[-59.6751,-18.5044,221.1633],[-59.6714,-18.5118,216.8511],[-59.6679,-18.511,217.5941],[-59.6615,-18.5147,216.9642],[-59.6562,-18.5115,215.0002],[-59.6476,-18.5095,215.352],[-59.6408,-18.5176,222.4285],[-59.6324,-18.5213,212.8893],[-59.6279,-18.525,211.6978],[-59.6282,-18.5279,214.5541],[-59.6234,-18.5272,215.1238],[-59.6175,-18.5299,208.7469],[-59.6125,-18.5396,216.2528],[-59.6097,-18.5402,214.1372],[-59.6021,-18.5362,212.079],[-59.5968,-18.536,212.1124],[-59.5948,-18.5375,208.9818],[-59.5931,-18.5463,206.0415],[-59.5856,-18.5539,210.1813],[-59.585,-18.5579,208.7166],[-59.5817,-18.5574,208.4677],[-59.5777,-18.5612,205.009],[-59.5698,-18.5619,206.0313],[-59.5653,-18.5645,206.9705],[-59.5622,-18.5694,207.718],[-59.56,-18.5701,206.2584],[-59.5607,-18.5715,207.503],[-59.5525,-18.5836,202.8179],[-59.5504,-18.5809,204.8139],[-59.5456,-18.5831,205.539],[-59.5406,-18.5809,199.6874],[-59.5378,-18.5837,202.7526],[-59.5331,-18.5847,203.3488],[-59.5283,-18.5809,197.4288],[-59.5208,-18.582,204.3335],[-59.5161,-18.5797,200.5565],[-59.5144,-18.5814,202.7271],[-59.5112,-18.5802,196.3774],[-59.5051,-18.5836,197.7231],[-59.4995,-18.5846,199.5105],[-59.4979,-18.5838,197.8456],[-59.4949,-18.5749,195.154],[-59.4921,-18.5713,196.2024],[-59.4896,-18.5709,191.9346],[-59.4824,-18.5729,191.5654],[-59.4781,-18.5771,194.9048],[-59.4772,-18.5818,190.2157],[-59.4722,-18.5855,190.4743],[-59.4675,-18.5839,190.1597],[-59.4645,-18.5859,189.7072],[-59.4565,-18.584,186.4079],[-59.4507,-18.5781,186.7652],[-59.4475,-18.5811,187.1399],[-59.4438,-18.582,190.7018],[-59.4423,-18.5805,187.0425],[-59.4382,-18.5841,191.419],[-59.4342,-18.5832,188.305],[-59.4305,-18.5873,185.7025],[-59.4195,-18.5853,190.6603],[-59.4144,-18.5897,190.0882],[-59.4097,-18.5866,188.598],[-59.4087,-18.5898,188.8853],[-59.4137,-18.5967,188.6409],[-59.4099,-18.6018,185.5649],[-59.4092,-18.6098,183.4107],[-59.4078,-18.6106,185.731],[-59.4017,-18.6082,188.725],[-59.3974,-18.6088,184.7601],[-59.3931,-18.6051,185.2755],[-59.3842,-18.6062,175.9515],[-59.3796,-18.6041,185.0978],[-59.3745,-18.608,185.831],[-59.3678,-18.6029,179.9353],[-59.3632,-18.6038,177.9037],[-59.3596,-18.6076,181.8277],[-59.3574,-18.6069,182.3326],[-59.3522,-18.6093,177.0458],[-59.3446,-18.6064,182.8869],[-59.3444,-18.6044,181.466],[-59.3385,-18.6001,184.0627],[-59.3335,-18.5997,176.0015],[-59.3235,-18.6045,179.6192],[-59.3203,-18.6132,178.8117],[-59.3125,-18.6203,176.8257],[-59.3043,-18.6225,176.7706],[-59.3015,-18.6218,176.1034],[-59.2987,-18.6238,179.1499],[-59.2947,-18.6217,179.1855],[-59.2835,-18.6269,172.1662],[-59.2818,-18.6261,175.1095],[-59.2799,-18.6184,171.776],[-59.275,-18.6133,171.5737],[-59.2752,-18.6111,169.0537],[-59.2713,-18.6107,166.7942],[-59.2691,-18.6176,174.9338],[-59.2578,-18.6317,170.8027],[-59.2526,-18.6324,167.2278],[-59.2515,-18.6296,167.5576],[-59.2452,-18.6285,167.3012],[-59.2422,-18.6312,166.7128],[-59.2356,-18.6318,168.1619],[-59.233,-18.6354,165.8927],[-59.2345,-18.639,171.3477],[-59.2316,-18.6406,172.216],[-59.2287,-18.6394,170.4886],[-59.2219,-18.6411,168.7164],[-59.2199,-18.6478,170.8019],[-59.2168,-18.65,165.1166],[-59.2132,-18.6498,162.3884],[-59.2077,-18.6559,170.7775],[-59.2021,-18.6566,170.309],[-59.199,-18.654,169.9574],[-59.1951,-18.6554,163.8306],[-59.1921,-18.6535,166.5991],[-59.1887,-18.6456,161.7312],[-59.1815,-18.641,162.9788],[-59.1716,-18.6397,165.9651],[-59.1635,-18.6473,163.8021],[-59.1567,-18.6424,162.3045],[-59.1481,-18.6467,165.0633],[-59.1415,-18.6456,165.4718],[-59.1347,-18.6414,162.1712],[-59.1257,-18.6403,160.7137],[-59.1202,-18.6423,156.183],[-59.118,-18.6413,159.9604],[-59.1084,-18.6429,156.9262],[-59.0999,-18.6468,160.8865],[-59.097,-18.6524,160.2849],[-59.0924,-18.6556,151.5773],[-59.0903,-18.6603,157.9681],[-59.086,-18.6638,151.8632],[-59.0827,-18.6628,160.1273],[-59.0806,-18.6554,156.879],[-59.0737,-18.6518,154.0085],[-59.066,-18.6519,148.6589],[-59.0659,-18.6574,151.8831],[-59.0601,-18.6566,156.7147],[-59.0526,-18.6467,147.9371],[-59.0447,-18.6476,146.8294],[-59.0453,-18.6492,148.8403],[-59.0436,-18.651,150.1138],[-59.0359,-18.6535,150.2873],[-59.0354,-18.6555,148.5622],[-59.0321,-18.6573,152.4761],[-59.0306,-18.6568,154.4258],[-59.0274,-18.6454,148.0737],[-59.0212,-18.637,141.9136],[-59.0131,-18.6362,143.7444],[-59.0064,-18.6397,146.5085],[-59.0051,-18.6431,152.6819],[-59.0021,-18.6414,145.7785],[-58.9998,-18.6421,144.283],[-59.0007,-18.6474,148.4487],[-58.9987,-18.6484,146.498],[-58.9995,-18.6503,144.2903],[-58.9976,-18.6525,144.8266],[-58.9989,-18.6545,142.9977],[-58.9976,-18.657,147.4696],[-58.9995,-18.6583,151.1887],[-58.9969,-18.6615,151.7303],[-58.9951,-18.6619,151.6919],[-58.9952,-18.6602,144.3575],[-58.9911,-18.6631,148.5138],[-58.9878,-18.6609,144.5508],[-58.9856,-18.6641,144.2895],[-58.983,-18.6645,145.3327],[-58.9775,-18.6629,144.7387],[-58.9763,-18.6637,147.5074],[-58.9764,-18.6695,148.6317],[-58.974,-18.6688,145.9527],[-58.9734,-18.6702,150.8736],[-58.9691,-18.6679,145.4846],[-58.9685,-18.6694,146.4006],[-58.9651,-18.6686,146.8272],[-58.9646,-18.6701,149.5965],[-58.9607,-18.6673,145.4904],[-58.9634,-18.6659,142.7441],[-58.9614,-18.664,141.2074],[-58.9888,-18.624,147.5096],[-59.2503,-18.1152,265.8065],[-59.5261,-18.0213,302.7462],[-59.5279,-18.0178,310.008],[-59.5279,-18.0061,338.2159],[-59.5259,-17.6567,279.7051]]]]}
,"properties": {"GID_2": "BOL.8.3_2","GID_0": "BOL","country": "Bolivia","GID_1": "BOL.8_1","province": "SantaCruz","NL_NAME_1": "NA","county": "Chiquitos","VARNAME_2": "NA","NL_NAME_2": "NA","TYPE_2": "Provincia","ENGTYPE_2": "Province","CC_2": "NA","HASC_2": "NA","name": "Chiquitos.county","area_km2": 40194.11,"hist_schema_id": "Elevation0-9000","hist_area_km2": {"150": 83.46,"175": 370.61,"200": 920.21,"225": 1111.66,"250": 3882.8,"275": 14297.95,"300": 5963.71,"325": 2665.64,"350": 2202.47,"375": 2007.19,"400": 1753.97,"425": 1537.1,"450": 958.42,"475": 618.44,"500": 405.64,"525": 319.13,"550": 259.33,"575": 191.42,"600": 141.39,"625": 120.35,"650": 93.61,"675": 72.91,"700": 56.85,"725": 38.5,"750": 26.11,"775": 21.19,"800": 16.23,"825": 11.88,"850": 9.91,"875": 7.83,"900": 5.05,"925": 3.18,"950": 2.5,"975": 2.38,"1000": 2.62,"1025": 1.81,"1050": 1.61,"1075": 2.11,"1100": 1.41,"1125": 1.17,"1150": 0.81,"1175": 0.69,"1200": 0.73,"1225": 0.54,"1250": 0.66,"1275": 0.71}}}