{"type":"Feature","properties":{"GID_3":"BOL.5.10.1_2","GID_0":"BOL","country":"Bolivia","GID_1":"BOL.5_1","province":"Oruro","NL_NAME_1":"NA","GID_2":"BOL.5.10_2","county":"Sabaya","NL_NAME_2":"NA","city":"Chipaya","VARNAME_3":"NA","NL_NAME_3":"NA","TYPE_3":"District","ENGTYPE_3":"Distrito","CC_3":"NA","HASC_3":"NA","name":"Chipaya.city"},
"geometry":{"type": "MultiPolygon","coordinates": [[[[-67.8935,-19.0573,3664.8237],[-67.895,-19.0285,3667.9792],[-67.9149,-19.0254,3668.0481],[-67.9321,-19.0089,3666.4668],[-67.9362,-19.0087,3666.1152],[-67.9489,-19.0133,3665.4199],[-67.9595,-19.0063,3666.3518],[-67.9669,-19.0045,3666.9285],[-67.9705,-19.0017,3667.3452],[-67.9801,-19.0043,3668.6475],[-67.9846,-19.0076,3669.2336],[-67.9916,-19.0066,3669.4331],[-68.0009,-18.9948,3668.9683],[-68.0228,-18.9931,3673.1572],[-68.0342,-18.9896,3673.3633],[-68.0381,-18.9845,3674.0359],[-68.0483,-18.9977,3671.613],[-68.0673,-19.0004,3670.8843],[-68.0827,-18.9986,3671.5],[-68.1035,-18.9997,3671.624],[-68.1705,-19.0315,3668.802],[-68.1825,-19.0455,3667.4685],[-68.1856,-19.052,3666.7546],[-68.1794,-19.0744,3663.9585],[-68.181,-19.0842,3662.9382],[-68.1783,-19.0904,3662.6829],[-68.1704,-19.0901,3662.0591],[-68.1682,-19.0946,3661.875],[-68.1741,-19.1114,3660.5818],[-68.1743,-19.1133,3660.5256],[-68.1708,-19.1178,3660.198],[-68.1719,-19.1213,3659.9636],[-68.1755,-19.1239,3659.8289],[-68.1747,-19.1353,3658.9951],[-68.1766,-19.1424,3658.5693],[-68.1687,-19.1426,3658.6394],[-68.1669,-19.141,3658.7148],[-68.1616,-19.1423,3658.5269],[-68.154,-19.1389,3658.7944],[-68.1257,-19.1134,3660.0015],[-68.1074,-19.1196,3659.8926],[-68.1051,-19.1328,3659.3447],[-68.1021,-19.1372,3659.1001],[-68.1021,-19.1436,3658.7681],[-68.0982,-19.1463,3658.5767],[-68.0968,-19.1497,3658.4739],[-68.0911,-19.1495,3658.5298],[-68.089,-19.1434,3658.5872],[-68.0853,-19.1393,3658.7744],[-68.0793,-19.1365,3658.7295],[-68.0774,-19.1334,3658.8572],[-68.0679,-19.1289,3658.8677],[-68.0674,-19.1238,3659.0547],[-68.0623,-19.1183,3659.2026],[-68.059,-19.1242,3658.8999],[-68.0562,-19.1175,3659.2849],[-68.0538,-19.0981,3659.9773],[-68.0509,-19.0952,3660.1445],[-68.0536,-19.0927,3660.1396],[-68.0518,-19.0879,3660.5254],[-68.0536,-19.0855,3660.6912],[-68.0526,-19.0848,3660.6384],[-68.0503,-19.086,3660.7085],[-68.0423,-19.1048,3659.6523],[-68.0424,-19.1089,3659.5283],[-68.0384,-19.112,3659.4827],[-68.0389,-19.1065,3659.6123],[-68.0374,-19.1047,3659.7053],[-68.0364,-19.1054,3659.7053],[-68.0312,-19.1177,3659.3489],[-68.0263,-19.1175,3659.4512],[-68.0226,-19.1203,3659.408],[-68.0188,-19.1206,3659.439],[-68.0216,-19.1217,3659.45],[-68.0212,-19.1227,3659.45],[-68.0096,-19.1265,3659.7283],[-68.0,-19.1211,3660.0388],[-67.9934,-19.1226,3660.2676],[-67.9844,-19.12,3660.5776],[-67.97,-19.1106,3660.9871],[-67.9645,-19.1119,3661.082],[-67.9602,-19.1076,3661.3076],[-67.9539,-19.1076,3661.5356],[-67.9226,-19.0935,3662.7051],[-67.9139,-19.0716,3664.9558],[-67.8935,-19.0573,3664.8237]]]]}}