{"type": "Feature","bbox": [-66.8988,-18.6594,-66.6958,-18.4112],"geometry": {"type": "MultiPolygon","coordinates": [[[[-66.7082,-18.4996,4617.0186],[-66.72,-18.471,4651.834],[-66.7329,-18.4536,4603.4893],[-66.7355,-18.443,4546.3008],[-66.7385,-18.4397,4564.7422],[-66.7403,-18.4255,4614.5845],[-66.7584,-18.4241,4597.5317],[-66.7809,-18.4384,4250.8774],[-66.7944,-18.4396,4161.1431],[-66.7942,-18.4475,4164.4263],[-66.8064,-18.4452,4238.5771],[-66.8207,-18.438,4567.624],[-66.8222,-18.4344,4624.9707],[-66.8283,-18.4293,4603.5908],[-66.8296,-18.4234,4609.0654],[-66.8363,-18.4112,4629.8115],[-66.8434,-18.4152,4539.6826],[-66.8607,-18.4175,4194.9346],[-66.8623,-18.4223,4243.814],[-66.8668,-18.4228,4156.8428],[-66.8715,-18.4265,4066.0366],[-66.8718,-18.4293,4053.1016],[-66.8755,-18.4322,4062.7205],[-66.873,-18.4369,4041.5664],[-66.8747,-18.4472,3949.353],[-66.882,-18.4512,3942.8296],[-66.887,-18.452,3949.9663],[-66.8934,-18.4571,3973.0989],[-66.8963,-18.4619,4004.0945],[-66.8986,-18.473,4130.5337],[-66.8988,-18.4787,4222.4248],[-66.8942,-18.4839,4527.7417],[-66.8873,-18.4829,4568.1025],[-66.8847,-18.4862,4522.5723],[-66.8597,-18.4838,4022.9487],[-66.8443,-18.4875,4153.1216],[-66.8255,-18.4946,4065.2668],[-66.8223,-18.4918,4065.8281],[-66.816,-18.4939,4132.4062],[-66.8102,-18.4887,4235.4966],[-66.8029,-18.4877,4451.9487],[-66.8013,-18.4925,4425.6274],[-66.8027,-18.499,4444.666],[-66.8061,-18.5039,4524.9756],[-66.8062,-18.509,4589.3975],[-66.8083,-18.5098,4593.5859],[-66.8096,-18.5132,4565.1426],[-66.8106,-18.5266,4470.2397],[-66.8076,-18.5302,4483.9868],[-66.8062,-18.5356,4481.0249],[-66.8052,-18.5485,4410.0464],[-66.8027,-18.5517,4476.5552],[-66.7946,-18.5556,4587.9927],[-66.79,-18.5627,4590.853],[-66.7896,-18.5657,4610.8047],[-66.7866,-18.5686,4512.6123],[-66.7862,-18.5741,4475.4316],[-66.7828,-18.5766,4357.8179],[-66.7815,-18.5801,4413.0083],[-66.7814,-18.586,4486.9448],[-66.7816,-18.5882,4498.7798],[-66.7862,-18.5925,4541.5747],[-66.7964,-18.6255,4361.9082],[-66.8019,-18.6347,4472.8369],[-66.8,-18.6385,4419.3721],[-66.8023,-18.6503,4405.1191],[-66.7732,-18.6521,3923.5928],[-66.7603,-18.6594,3854.376],[-66.743,-18.6567,3970.7534],[-66.7393,-18.6581,3991.4136],[-66.7322,-18.6555,4189.0166],[-66.7216,-18.6584,4259.6318],[-66.7175,-18.6539,4408.7617],[-66.7183,-18.6428,4358.1543],[-66.7219,-18.6382,4395.4541],[-66.7212,-18.6272,4320.6387],[-66.7248,-18.6225,4394.3032],[-66.7254,-18.6176,4430.5928],[-66.7198,-18.6041,4562.1191],[-66.7141,-18.5976,4656.0986],[-66.6997,-18.5911,4577.4395],[-66.6958,-18.5871,4575.9209],[-66.6962,-18.5835,4589.1533],[-66.6993,-18.5792,4586.1943],[-66.6976,-18.5741,4570.3999],[-66.6994,-18.5627,4540.2871],[-66.7028,-18.5587,4512.7109],[-66.706,-18.5462,4612.1895],[-66.7163,-18.5235,4774.9961],[-66.7016,-18.5128,4649.46],[-66.7016,-18.5082,4679.8418],[-66.7082,-18.4996,4617.0186]]]]}
,"properties": {"GID_3": "BOL.5.9.1_2","GID_0": "BOL","country": "Bolivia","GID_1": "BOL.5_1","province": "Oruro","NL_NAME_1": "NA","GID_2": "BOL.5.9_2","county": "Poopó","NL_NAME_2": "NA","city": "Antequera","VARNAME_3": "NA","NL_NAME_3": "NA","TYPE_3": "District","ENGTYPE_3": "Distrito","CC_3": "NA","HASC_3": "NA","name": "Antequera.city","area_km2": 280.2039,"hist_schema_id": "Elevation0-9000","hist_area_km2": {"3850": 1.2254,"3875": 3.5157,"3900": 5.1444,"3925": 7.0746,"3950": 9.2463,"3975": 8.2615,"4000": 8.2011,"4025": 9.6689,"4050": 11.257,"4075": 11.257,"4100": 10.3524,"4125": 10.272,"4150": 10.3727,"4175": 10.9366,"4200": 12.0028,"4225": 12.5251,"4250": 11.0776,"4275": 11.8617,"4300": 11.1179,"4325": 10.8165,"4350": 9.9318,"4375": 10.1731,"4400": 10.0128,"4425": 9.671,"4450": 9.5506,"4475": 8.4851,"4500": 8.4048,"4525": 7.1983,"4550": 6.6354,"4575": 5.1072,"4600": 3.6595,"4625": 2.4731,"4650": 1.327,"4675": 0.8042,"4700": 0.3418,"4725": 0.1407,"4750": 0.0603,"4775": 0.0402}}}