{"type":"Feature","properties":{"GID_3":"BOL.5.1.2_2","GID_0":"BOL","country":"Bolivia","GID_1":"BOL.5_1","province":"Oruro","NL_NAME_1":"NA","GID_2":"BOL.5.1_2","county":"Abaroa","NL_NAME_2":"NA","city":"SantuariodeQuillacas","VARNAME_3":"NA","NL_NAME_3":"NA","TYPE_3":"District","ENGTYPE_3":"Distrito","CC_3":"NA","HASC_3":"NA","name":"Santuariode_Quillacas.city"},
"geometry":{"type": "MultiPolygon","coordinates": [[[[-66.5021,-19.3599,4617.4473],[-66.5329,-19.3364,4367.6201],[-66.5392,-19.3335,4361.627],[-66.5583,-19.3268,4345.7002],[-66.5627,-19.3324,4347.7441],[-66.5688,-19.3342,4346.5952],[-66.5824,-19.3231,4792.7339],[-66.6101,-19.3155,4599.3359],[-66.6227,-19.3191,4624.5283],[-66.6511,-19.3322,4569.8721],[-66.6677,-19.328,4495.9893],[-66.6893,-19.3161,4181.1206],[-66.6941,-19.3162,4153.4092],[-66.6945,-19.3128,4148.9683],[-66.7007,-19.3113,4110.6621],[-66.7076,-19.3117,3990.3809],[-66.7103,-19.3085,3985.1716],[-66.7217,-19.3028,3896.843],[-66.7291,-19.3011,3857.3259],[-66.7485,-19.2891,3744.4543],[-66.7638,-19.288,3736.498],[-66.7682,-19.2837,3734.2864],[-66.7786,-19.2784,3730.3486],[-66.7795,-19.2743,3728.5637],[-66.7819,-19.2722,3728.1777],[-66.812,-19.2599,3718.6973],[-66.8225,-19.2381,3712.1448],[-66.81,-19.1872,3704.749],[-66.8291,-19.171,3698.8506],[-66.8687,-19.159,3692.4526],[-66.9205,-19.1395,3685.5],[-66.92,-19.1381,3685.5],[-66.9151,-19.1381,3685.5],[-66.9042,-19.1219,3685.5],[-66.9272,-19.0993,3685.5],[-66.9744,-19.0949,3685.5],[-67.0171,-19.172,3687.6123],[-67.0149,-19.1725,3687.5874],[-67.015,-19.1749,3687.8882],[-67.0251,-19.1877,3690.2466],[-67.0251,-19.1902,3690.6787],[-67.0225,-19.1898,3690.7061],[-67.0197,-19.1862,3689.8896],[-67.0153,-19.1842,3689.032],[-67.0171,-19.1949,3690.7495],[-67.0161,-19.1963,3691.2188],[-67.0137,-19.1954,3690.8367],[-67.0139,-19.2168,3694.3127],[-67.0084,-19.2269,3695.7764],[-67.0143,-19.2365,3699.2048],[-67.0094,-19.2451,3700.6018],[-67.0086,-19.2527,3702.6177],[-67.0157,-19.2585,3701.8896],[-67.0152,-19.263,3702.7266],[-67.0016,-19.2759,3706.9629],[-66.9922,-19.2812,3708.8833],[-66.989,-19.2871,3709.9514],[-66.9894,-19.2947,3711.4238],[-66.9929,-19.3049,3714.3738],[-66.9925,-19.3196,3717.1746],[-66.9947,-19.3253,3715.5498],[-66.9931,-19.3314,3717.5923],[-66.9943,-19.3372,3718.603],[-66.9884,-19.3416,3718.8953],[-66.9874,-19.3442,3719.4878],[-66.9907,-19.3552,3723.2024],[-67.0012,-19.3681,3733.6431],[-67.0025,-19.3793,3726.5977],[-66.9962,-19.3798,3733.0518],[-66.9865,-19.3735,3733.0439],[-66.9751,-19.3708,3730.2969],[-66.9601,-19.368,3728.7595],[-66.9522,-19.3696,3731.502],[-66.9482,-19.3727,3733.9434],[-66.948,-19.3774,3737.459],[-66.9396,-19.3783,3743.2993],[-66.9373,-19.3821,3744.2251],[-66.927,-19.3887,3755.1289],[-66.923,-19.3934,3762.9658],[-66.914,-19.3977,3843.8928],[-66.9011,-19.4077,3764.6353],[-66.8917,-19.4096,3748.9146],[-66.886,-19.4134,3751.9927],[-66.8817,-19.4136,3747.4199],[-66.8809,-19.422,3747.521],[-66.8772,-19.4243,3754.6091],[-66.877,-19.4274,3749.0723],[-66.8734,-19.4303,3749.9927],[-66.8715,-19.4364,3751.7578],[-66.8641,-19.439,3753.0791],[-66.8566,-19.4474,3755.2358],[-66.8494,-19.4477,3760.6655],[-66.8452,-19.4547,3759.6355],[-66.8231,-19.455,3763.9966],[-66.8144,-19.4494,3765.9175],[-66.8073,-19.4502,3800.4998],[-66.8024,-19.4473,3773.822],[-66.802,-19.4429,3790.4475],[-66.7966,-19.4418,3805.2349],[-66.7932,-19.4364,3787.9966],[-66.7893,-19.4356,3794.8018],[-66.7882,-19.4335,3789.51],[-66.7696,-19.4297,3819.6313],[-66.7616,-19.43,3854.376],[-66.7546,-19.4274,3858.7793],[-66.7521,-19.4273,3876.4966],[-66.7533,-19.4314,3893.771],[-66.7503,-19.4369,3960.2917],[-66.7452,-19.4355,3998.7275],[-66.7413,-19.4369,4067.1545],[-66.7349,-19.4293,4136.3877],[-66.7318,-19.4299,4088.9014],[-66.7264,-19.4373,4030.8196],[-66.7173,-19.4409,4125.2246],[-66.7089,-19.4463,4039.0518],[-66.6998,-19.4484,4126.4453],[-66.68,-19.4444,4166.854],[-66.669,-19.4342,4178.9854],[-66.6621,-19.4302,4203.5562],[-66.6588,-19.4305,4300.8691],[-66.6577,-19.4326,4316.6523],[-66.6391,-19.4273,4425.1968],[-66.6214,-19.4256,4497.9229],[-66.6029,-19.4277,4656.6069],[-66.5906,-19.4262,4735.5205],[-66.584,-19.421,4833.7314],[-66.5756,-19.4013,5164.2837],[-66.5635,-19.3987,4864.1899],[-66.5573,-19.3956,4862.2568],[-66.5458,-19.3862,4982.1992],[-66.5021,-19.3599,4617.4473]]]]}}