{"type":"Feature","properties":{"GID_3":"BOL.1.1.2_2","GID_0":"BOL","country":"Bolivia","GID_1":"BOL.1_1","province":"Chuquisaca","NL_NAME_1":"NA","GID_2":"BOL.1.1_2","county":"Azurduy","NL_NAME_2":"NA","city":"Tarvita","VARNAME_3":"NA","NL_NAME_3":"NA","TYPE_3":"District","ENGTYPE_3":"Distrito","CC_3":"NA","HASC_3":"NA","name":"Tarvita.city"},
"geometry":{"type": "MultiPolygon","coordinates": [[[[-64.4139,-19.8224,2724.8696],[-64.4143,-19.8093,2666.6165],[-64.4089,-19.8077,2550.2754],[-64.4036,-19.8024,2593.2224],[-64.4031,-19.8,2645.4702],[-64.4089,-19.7933,2581.2729],[-64.4095,-19.7905,2590.7529],[-64.4051,-19.7861,2544.9365],[-64.404,-19.7795,2678.9421],[-64.4017,-19.776,2747.6458],[-64.3911,-19.7749,2565.1948],[-64.389,-19.7705,2554.583],[-64.383,-19.7653,2533.7832],[-64.3786,-19.7651,2405.2402],[-64.3708,-19.7605,2531.9639],[-64.3749,-19.7543,2524.8003],[-64.3757,-19.7487,2601.21],[-64.3705,-19.7462,2549.9507],[-64.3764,-19.7371,2533.0442],[-64.3752,-19.7312,2467.2266],[-64.3711,-19.7262,2385.0027],[-64.3736,-19.7158,2444.3679],[-64.3691,-19.7118,2424.0391],[-64.3766,-19.708,2158.3003],[-64.3982,-19.7045,1932.1807],[-64.4065,-19.699,2112.7041],[-64.4082,-19.6895,2278.7598],[-64.4143,-19.6741,2316.636],[-64.4177,-19.6598,2352.2295],[-64.417,-19.651,2517.6597],[-64.4278,-19.6122,2668.6777],[-64.4269,-19.5929,2553.6345],[-64.4231,-19.5839,2357.293],[-64.4347,-19.5819,2198.9507],[-64.4484,-19.5845,1895.8879],[-64.4494,-19.5782,1903.2037],[-64.4471,-19.5713,1974.0121],[-64.453,-19.5662,1923.7997],[-64.4528,-19.5631,1932.4047],[-64.4548,-19.5613,1927.937],[-64.4702,-19.5648,2078.3027],[-64.4756,-19.5692,2150.9958],[-64.4807,-19.5767,2308.999],[-64.4975,-19.576,2574.9214],[-64.5051,-19.5686,2482.1904],[-64.5072,-19.565,2479.1396],[-64.5068,-19.5609,2544.3188],[-64.5102,-19.5562,2586.7112],[-64.5132,-19.5567,2504.9321],[-64.5184,-19.5523,2457.8054],[-64.5225,-19.5556,2470.854],[-64.5315,-19.55,2479.3293],[-64.5371,-19.5525,2561.7129],[-64.5511,-19.5683,2787.2529],[-64.5825,-19.5645,3332.1475],[-64.5932,-19.5645,3441.4478],[-64.5942,-19.5661,3462.1729],[-64.5994,-19.5671,3512.4414],[-64.6028,-19.5636,3619.0398],[-64.6151,-19.5638,3809.0024],[-64.6231,-19.5692,3986.3232],[-64.6285,-19.5662,4117.4897],[-64.6275,-19.6024,3925.9973],[-64.629,-19.6214,4103.271],[-64.6302,-19.6276,4088.8472],[-64.6339,-19.6316,3937.3118],[-64.639,-19.634,4009.1748],[-64.6458,-19.6339,4041.136],[-64.6525,-19.6245,3851.2056],[-64.6629,-19.6164,4065.2026],[-64.6751,-19.6137,4050.719],[-64.682,-19.6143,4104.8022],[-64.6937,-19.6219,4063.5518],[-64.7054,-19.6432,3461.0498],[-64.7159,-19.6547,3240.5525],[-64.7263,-19.6587,3236.6353],[-64.7409,-19.6555,2917.2561],[-64.7519,-19.6552,2728.2156],[-64.7775,-19.6649,1848.4189],[-64.7733,-19.6737,1840.0593],[-64.7683,-19.6793,1856.8915],[-64.7671,-19.6841,1832.9176],[-64.7616,-19.6862,1827.5031],[-64.7512,-19.7035,1810.3943],[-64.7454,-19.7038,1807.259],[-64.7418,-19.707,1806.9166],[-64.7424,-19.7147,1804.1682],[-64.736,-19.7228,1791.6591],[-64.7349,-19.7373,1775.313],[-64.7268,-19.7466,1768.514],[-64.7273,-19.7514,1807.2106],[-64.73,-19.7562,1756.5254],[-64.7253,-19.7667,1744.8162],[-64.725,-19.7732,1740.0579],[-64.7173,-19.776,1755.4457],[-64.713,-19.7811,1765.1559],[-64.7138,-19.7839,1790.1606],[-64.7114,-19.7975,1728.9292],[-64.7063,-19.8027,1788.7585],[-64.7053,-19.8072,1737.348],[-64.6943,-19.8149,1720.6605],[-64.7012,-19.8244,1746.0718],[-64.7035,-19.8317,1691.4553],[-64.7024,-19.8418,1678.5858],[-64.7001,-19.8464,1696.5769],[-64.7016,-19.8514,1680.9567],[-64.6981,-19.8557,1666.3116],[-64.7034,-19.8697,1653.3966],[-64.7028,-19.8748,1645.6877],[-64.6986,-19.8777,1643.2549],[-64.698,-19.8814,1651.793],[-64.6902,-19.8863,1677.812],[-64.6917,-19.8915,1638.4918],[-64.6877,-19.8934,1657.9863],[-64.6883,-19.8975,1649.2065],[-64.6803,-19.9025,1620.9011],[-64.6795,-19.9059,1684.0901],[-64.6751,-19.9079,1742.3218],[-64.671,-19.9162,1615.7612],[-64.6739,-19.9209,1699.8767],[-64.6731,-19.924,1635.6801],[-64.6717,-19.926,1647.0903],[-64.6664,-19.9271,1671.2844],[-64.6591,-19.9356,1685.755],[-64.6573,-19.9415,1569.3474],[-64.6534,-19.9436,1570.1586],[-64.6535,-19.9523,1578.0236],[-64.64,-19.9612,1608.5748],[-64.6395,-19.9648,1573.4613],[-64.637,-19.9667,1569.505],[-64.6358,-19.9705,1617.1013],[-64.6309,-19.9738,1618.4716],[-64.6326,-19.9755,1528.6963],[-64.633,-19.9811,1535.6393],[-64.6282,-19.9872,1551.6423],[-64.6314,-19.9937,1502.0979],[-64.6289,-19.9981,1520.3162],[-64.6186,-20.01,1514.4276],[-64.613,-20.0131,1522.7904],[-64.6081,-20.0185,1492.701],[-64.6063,-20.0184,1507.8052],[-64.5995,-20.0115,1567.1918],[-64.5919,-20.0096,1604.4993],[-64.5881,-20.007,1648.5894],[-64.5752,-20.0047,1741.0747],[-64.5503,-20.0052,2011.4824],[-64.5482,-20.0036,2086.2695],[-64.5457,-20.0045,2115.4578],[-64.5427,-20.0014,2137.5222],[-64.5395,-20.0008,2254.0076],[-64.5297,-20.0018,2295.2966],[-64.5227,-20.0001,2379.5769],[-64.5211,-19.9968,2433.7012],[-64.515,-19.9945,2575.7378],[-64.5113,-19.9961,2593.7678],[-64.5003,-19.9955,3078.085],[-64.4977,-19.9966,3088.7791],[-64.4987,-20.0112,3111.2107],[-64.4854,-20.0098,2880.4507],[-64.4798,-20.0144,2956.5884],[-64.4776,-20.0145,2975.7622],[-64.4764,-20.0184,2919.9111],[-64.4707,-20.0221,3001.0488],[-64.4667,-20.0188,3098.4155],[-64.4653,-20.0075,3137.9438],[-64.4626,-20.0053,3160.4092],[-64.4644,-20.0029,3113.3464],[-64.4632,-19.9976,3143.3459],[-64.4615,-19.9935,3082.0767],[-64.4584,-19.9916,3074.0149],[-64.4646,-19.9748,2930.7546],[-64.4599,-19.967,2950.1221],[-64.4632,-19.9581,2972.3882],[-64.4541,-19.9437,3092.9771],[-64.4569,-19.9242,3036.0361],[-64.4558,-19.8924,2888.6431],[-64.4602,-19.8853,2822.656],[-64.4571,-19.8809,2914.1138],[-64.4601,-19.8695,2966.9097],[-64.4573,-19.8648,2978.511],[-64.4587,-19.8606,2954.2112],[-64.4555,-19.8524,2558.1838],[-64.4584,-19.8468,2517.6619],[-64.4577,-19.8433,2443.5054],[-64.4461,-19.8243,2245.6047],[-64.4435,-19.8285,2388.1519],[-64.4428,-19.8369,2771.1865],[-64.4409,-19.8402,2863.7676],[-64.4343,-19.8441,2996.9883],[-64.4315,-19.8353,2709.9771],[-64.4268,-19.8306,2807.6091],[-64.4236,-19.8306,2753.9556],[-64.4188,-19.8281,2580.5806],[-64.4165,-19.8229,2624.6704],[-64.4139,-19.8224,2724.8696]]]]}}