{"type":"Feature","properties":{"GID_2":"BOL.3.8_2","GID_0":"BOL","country":"Bolivia","GID_1":"BOL.3_1","province":"Beni","NL_NAME_1":"NA","county":"Yacuma","VARNAME_2":"NA","NL_NAME_2":"NA","TYPE_2":"Provincia","ENGTYPE_2":"Province","CC_2":"NA","HASC_2":"NA","name":"Yacuma.county"},
"geometry":{"type": "MultiPolygon","coordinates": [[[[-65.1054,-14.0218,140.46],[-65.1059,-14.0124,134.5],[-65.1133,-13.9997,140.1946],[-65.1143,-13.995,139.5872],[-65.1126,-13.983,142.682],[-65.1138,-13.9788,141.9768],[-65.1328,-13.9728,141.1684],[-65.1374,-13.9683,140.4345],[-65.1419,-13.9564,141.6678],[-65.143,-13.9491,140.5017],[-65.1428,-13.9423,134.5],[-65.1379,-13.9303,134.5],[-65.1384,-13.9265,134.5],[-65.1556,-13.9008,134.5],[-65.171,-13.8709,134.5],[-65.1743,-13.8702,140.649],[-65.178,-13.8721,144.2289],[-65.1807,-13.8761,140.9666],[-65.1884,-13.8983,136.1223],[-65.1913,-13.9008,135.6465],[-65.1945,-13.9005,136.8061],[-65.1977,-13.8971,142.2431],[-65.2002,-13.8873,134.5],[-65.1996,-13.8829,134.5],[-65.1895,-13.8635,135.3441],[-65.1863,-13.8415,145.0195],[-65.1791,-13.8222,133.5],[-65.1722,-13.8097,133.5],[-65.173,-13.8029,133.5],[-65.1765,-13.8023,133.5],[-65.1805,-13.8044,133.0],[-65.2154,-13.828,132.75],[-65.2223,-13.8313,132.5],[-65.2292,-13.8313,136.2737],[-65.2366,-13.8173,132.5],[-65.2468,-13.8102,141.7124],[-65.2495,-13.8017,135.6643],[-65.2479,-13.7979,142.5908],[-65.2439,-13.7949,142.0818],[-65.2295,-13.7961,132.0],[-65.2172,-13.7928,141.4273],[-65.2137,-13.7896,132.0],[-65.2128,-13.7857,132.0],[-65.2142,-13.7821,142.8487],[-65.2216,-13.7781,141.9066],[-65.2433,-13.7827,139.0613],[-65.2677,-13.7844,132.0],[-65.2739,-13.783,132.0],[-65.2905,-13.7744,132.0],[-65.2968,-13.7679,132.0],[-65.3052,-13.7306,132.0],[-65.3043,-13.7244,132.0],[-65.2992,-13.722,134.0],[-65.2842,-13.7235,134.0],[-65.28,-13.7204,134.0],[-65.2792,-13.7118,134.0],[-65.281,-13.7056,134.0],[-65.2812,-13.6849,134.0],[-65.2847,-13.6814,135.9122],[-65.2884,-13.6815,134.0],[-65.2914,-13.6847,134.0],[-65.296,-13.7097,136.1348],[-65.305,-13.7195,133.278],[-65.3128,-13.7203,141.1554],[-65.319,-13.7322,140.0974],[-65.3219,-13.7347,139.2121],[-65.3255,-13.7331,132.0],[-65.3279,-13.7294,132.0],[-65.3347,-13.7107,132.0],[-65.335,-13.6953,132.0],[-65.3298,-13.6872,132.9904],[-65.2921,-13.6737,132.5434],[-65.2827,-13.6682,131.0],[-65.2769,-13.6646,131.0],[-65.274,-13.6599,131.0],[-65.2743,-13.6545,131.0],[-65.2779,-13.6504,132.9069],[-65.283,-13.6496,139.8286],[-65.3101,-13.6514,131.0],[-65.3333,-13.6579,131.0],[-65.3387,-13.6574,131.0],[-65.342,-13.6535,131.0],[-65.3394,-13.6433,131.0],[-65.3332,-13.6367,131.0],[-65.3255,-13.633,140.5294],[-65.3127,-13.6334,138.16309999999999],[-65.2991,-13.6305,130.0],[-65.2906,-13.6278,138.3946],[-65.2815,-13.6204,130.0],[-65.2853,-13.6131,137.0774],[-65.2952,-13.607,130.0],[-65.3049,-13.6054,130.0],[-65.3174,-13.6066,137.2],[-65.3323,-13.615,137.4843],[-65.3381,-13.6146,132.75],[-65.3408,-13.612,130.0],[-65.3414,-13.6082,130.0],[-65.3384,-13.594,130.0],[-65.3328,-13.5886,130.0],[-65.3233,-13.5829,130.0],[-65.3,-13.5791,130.0],[-65.2824,-13.5736,130.0],[-65.271,-13.5658,132.8683],[-65.2636,-13.5573,130.0],[-65.2601,-13.55,130.0],[-65.259,-13.5415,133.7333],[-65.2607,-13.5345,138.8042],[-65.2703,-13.5122,132.3173],[-65.2804,-13.4967,130.0],[-65.2859,-13.4937,131.1096],[-65.2912,-13.4951,138.3342],[-65.2941,-13.4987,140.4857],[-65.2947,-13.5049,139.3283],[-65.293,-13.5197,130.0],[-65.2966,-13.5229,133.7915],[-65.2999,-13.5233,130.75],[-65.3045,-13.52,130.0],[-65.3061,-13.5158,130.0],[-65.3064,-13.5048,130.0],[-65.3057,-13.4977,130.0],[-65.3017,-13.4893,132.4247],[-65.2702,-13.4663,130.0],[-65.2268,-13.4282,130.0],[-65.2181,-13.4177,130.0],[-65.217,-13.4101,130.0],[-65.2204,-13.4045,132.6311],[-65.2295,-13.3976,137.2082],[-65.2379,-13.3936,130.0],[-65.2472,-13.3926,130.0],[-65.2549,-13.3953,131.4881],[-65.2655,-13.4036,133.7977],[-65.2717,-13.4033,130.0],[-65.2756,-13.3998,131.2879],[-65.2767,-13.3962,138.3721],[-65.2758,-13.3908,130.7628],[-65.2707,-13.3781,130.0],[-65.2693,-13.3677,131.3268],[-65.2608,-13.3574,130.0],[-65.2292,-13.3405,130.0],[-65.2175,-13.3359,130.0],[-65.2,-13.3238,130.0],[-65.191,-13.3137,130.0],[-65.1894,-13.3076,133.8318],[-65.1904,-13.3007,137.6547],[-65.1948,-13.2999,136.4096],[-65.2356,-13.3029,130.1919],[-65.2408,-13.3026,129.0],[-65.2425,-13.3005,129.0],[-65.2364,-13.2758,129.0],[-65.2184,-13.2396,129.0],[-65.2078,-13.2238,129.0],[-65.1811,-13.2008,128.0],[-65.1765,-13.1943,129.6762],[-65.1751,-13.1864,132.4231],[-65.1775,-13.181,131.4816],[-65.1879,-13.1708,128.0],[-65.1899,-13.1641,134.1783],[-65.188,-13.1583,137.7393],[-65.1775,-13.1452,137.87],[-65.1788,-13.1397,128.0],[-65.1821,-13.1366,140.2636],[-65.1879,-13.1363,135.4268],[-65.2132,-13.1453,128.0],[-65.2199,-13.1452,128.0],[-65.224,-13.1413,128.0],[-65.2208,-13.1248,128.0],[-65.2093,-13.1134,135.3703],[-65.2009,-13.1096,128.0],[-65.1764,-13.1087,128.0],[-65.1669,-13.1102,128.0],[-65.1495,-13.12,128.0],[-65.14,-13.1276,127.0],[-65.1342,-13.1298,127.0],[-65.1293,-13.129,127.0],[-65.1033,-13.1046,128.5645],[-65.0762,-13.0624,127.0],[-65.0635,-13.0464,127.0],[-65.0283,-13.0308,127.0],[-65.0246,-13.0258,129.6015],[-65.0233,-13.0184,136.4729],[-65.026,-13.0124,134.5766],[-65.034,-13.003,129.905],[-65.0347,-12.9962,134.3073],[-65.0237,-12.9757,133.8087],[-65.0195,-12.9564,133.1537],[-65.0192,-12.9474,133.1637],[-65.0243,-12.9347,135.1387],[-65.0379,-12.9184,127.0],[-65.0337,-12.8952,127.0],[-65.0352,-12.8923,127.0],[-65.0474,-12.8876,134.6114],[-65.0568,-12.857,127.0],[-65.0567,-12.8466,127.0],[-65.0322,-12.8364,127.0],[-65.0107,-12.8391,127.0],[-64.9979,-12.8385,127.0],[-64.9971,-12.8321,127.0],[-65.0054,-12.8145,127.0],[-65.0051,-12.8004,134.2582],[-65.0201,-12.7889,129.3713],[-65.0233,-12.7828,127.0],[-65.0177,-12.7696,127.0],[-65.0178,-12.7492,131.0502],[-65.0241,-12.7424,127.0],[-65.0248,-12.7384,127.0],[-65.0248,-12.7367,127.0],[-65.0219,-12.7345,141.8981],[-65.0211,-12.7274,127.0],[-65.0269,-12.7234,130.614],[-65.0429,-12.7168,127.0],[-65.0543,-12.6938,135.5069],[-65.0504,-12.6758,142.2885],[-65.0535,-12.6504,127.0],[-65.0525,-12.6446,127.0],[-65.0282,-12.6196,127.0],[-65.0249,-12.605,127.0],[-65.0244,-12.5903,127.0],[-65.0272,-12.5838,127.0],[-65.0642,-12.556,127.0],[-65.0761,-12.5416,127.0],[-65.089,-12.5207,127.0],[-65.0981,-12.5026,127.0],[-65.1327,-12.4522,131.9913],[-65.1613,-12.4256,126.5],[-65.1635,-12.4161,126.5],[-65.1591,-12.4069,135.9365],[-65.1594,-12.4002,133.8246],[-65.1775,-12.3855,130.4067],[-65.1788,-12.3757,126.5],[-65.1725,-12.3651,126.5],[-65.1659,-12.3584,126.5],[-65.1579,-12.3557,126.5],[-65.1467,-12.3544,126.5],[-65.1111,-12.3544,126.5],[-65.1091,-12.3505,126.5],[-65.1091,-12.3454,126.5],[-65.1163,-12.326599999999999,126.5],[-65.1246,-12.3229,126.5],[-65.1513,-12.3179,126.5],[-65.1578,-12.3154,126.5],[-65.1609,-12.3106,126.5],[-65.1623,-12.3055,126.5],[-65.1588,-12.2953,126.5],[-65.1574,-12.2921,126.5],[-65.1528,-12.2894,130.8566],[-65.1437,-12.2905,126.5],[-65.1312,-12.2965,126.5],[-65.1192,-12.2997,126.5],[-65.113,-12.2956,127.5951],[-65.1113,-12.2868,140.8171],[-65.1169,-12.2589,126.5],[-65.1217,-12.2454,126.5],[-65.1404,-12.206,128.5592],[-65.1489,-12.1948,126.0],[-65.1687,-12.1787,126.0],[-65.1823,-12.165,126.0],[-65.1866,-12.1571,128.7449],[-65.1873,-12.1471,126.0],[-65.1855,-12.1436,127.2338],[-65.1717,-12.1327,126.0],[-65.1621,-12.1322,126.0],[-65.1587,-12.1354,126.0],[-65.1561,-12.1412,126.0],[-65.1523,-12.16,126.0],[-65.1475,-12.1723,126.0],[-65.1382,-12.187,126.0],[-65.1333,-12.1896,126.0],[-65.1253,-12.1887,126.0],[-65.1145,-12.1813,128.5031],[-65.103,-12.1628,126.0],[-65.1002,-12.1534,126.0],[-65.1021,-12.1452,131.7009],[-65.1054,-12.1397,126.0],[-65.1193,-12.1334,126.0],[-65.1211,-12.1289,126.0],[-65.1157,-12.1139,126.0],[-65.1129,-12.1093,126.0],[-65.1079,-12.1069,128.1458],[-65.1011,-12.1063,130.0751],[-65.0727,-12.1118,127.4655],[-65.0688,-12.1079,126.0],[-65.0672,-12.102,126.0],[-65.0726,-12.0887,126.0],[-65.0783,-12.0866,133.2049],[-65.0831,-12.0875,129.5034],[-65.0893,-12.092,129.0614],[-65.0939,-12.0918,129.4527],[-65.0957,-12.0873,126.0],[-65.0947,-12.0767,126.0],[-65.0921,-12.0717,126.0],[-65.0767,-12.0626,128.9745],[-65.074,-12.0572,126.0],[-65.075,-12.0475,126.0],[-65.0789,-12.0401,126.0],[-65.0845,-12.0327,126.0],[-65.0978,-12.027,126.0],[-65.1055,-12.026,126.0],[-65.1229,-12.0308,126.0],[-65.1278,-12.0297,130.1453],[-65.1282,-12.0259,126.0],[-65.1217,-12.0001,126.0],[-66.2679,-12.0,139.8118],[-66.267,-12.0025,143.8965],[-66.2615,-12.0047,141.9797],[-66.2616,-12.0081,143.121],[-66.2631,-12.0086,139.184],[-66.2631,-12.0066,141.6758],[-66.2649,-12.0059,143.6865],[-66.2694,-12.007,139.0119],[-66.2714,-12.0109,133.8922],[-66.271,-12.0088,137.1205],[-66.2736,-12.0077,141.8603],[-66.2798,-12.0093,135.7437],[-66.2772,-12.0111,137.5683],[-66.2794,-12.0146,139.4529],[-66.2837,-12.017,140.0521],[-66.2844,-12.0204,140.4691],[-66.2823,-12.0207,137.1801],[-66.2845,-12.0242,138.9973],[-66.2832,-12.0252,141.22],[-66.2802,-12.0233,137.8615],[-66.2784,-12.0256,137.6257],[-66.286,-12.0277,143.4681],[-66.2868,-12.0295,136.9718],[-66.2828,-12.0315,142.2889],[-66.282,-12.0345,140.7192],[-66.2863,-12.032,138.1438],[-66.288,-12.036,136.6694],[-66.2915,-12.0369,141.0938],[-66.2896,-12.0391,137.9522],[-66.2867,-12.0371,139.6478],[-66.2834,-12.0372,139.4653],[-66.2881,-12.0412,137.8695],[-66.2836,-12.0484,135.7596],[-66.2867,-12.0501,136.938],[-66.2887,-12.0568,137.6589],[-66.288,-12.0586,134.4773],[-66.2847,-12.055,137.9794],[-66.2827,-12.0566,144.3671],[-66.2831,-12.0617,141.0818],[-66.2857,-12.0646,144.8843],[-66.2821,-12.0677,140.9087],[-66.2859,-12.0685,142.9418],[-66.2856,-12.076599999999999,139.6996],[-66.293,-12.0799,143.0213],[-66.2915,-12.0805,143.0213],[-66.2891,-12.0783,140.3751],[-66.2865,-12.0807,143.3123],[-66.2923,-12.0861,146.8155],[-66.2869,-12.0867,139.9435],[-66.2861,-12.0886,140.9924],[-66.2895,-12.0878,139.3233],[-66.2883,-12.091,140.9369],[-66.2958,-12.0936,142.6839],[-66.2972,-12.0923,141.5929],[-66.2955,-12.0893,144.2939],[-66.3007,-12.0915,143.8034],[-66.2975,-12.0943,141.8726],[-66.2999,-12.0964,141.8521],[-66.3007,-12.1002,140.3226],[-66.3032,-12.1018,139.467],[-66.3028,-12.1032,143.7172],[-66.299,-12.1023,144.2023],[-66.297,-12.1042,147.2588],[-66.3012,-12.1059,141.325],[-66.3025,-12.1094,140.1585],[-66.305,-12.1108,138.3799],[-66.3045,-12.1123,142.1573],[-66.302,-12.1107,140.3642],[-66.2977,-12.1133,143.9547],[-66.3009,-12.1173,141.1854],[-66.3044,-12.1164,140.3022],[-66.303,-12.1177,138.9565],[-66.3044,-12.1204,141.9656],[-66.3023,-12.1218,139.3546],[-66.3041,-12.1245,142.2862],[-66.3012,-12.1248,139.6321],[-66.3021,-12.1284,142.8534],[-66.2979,-12.1295,140.5289],[-66.2998,-12.133,143.4966],[-66.2977,-12.1362,139.5807],[-66.3008,-12.1348,141.77],[-66.3026,-12.14,141.2692],[-66.2998,-12.1388,141.7914],[-66.2982,-12.1422,140.1178],[-66.3017,-12.1422,142.9503],[-66.3042,-12.1472,142.4786],[-66.3031,-12.1478,140.5386],[-66.3017,-12.1454,138.7874],[-66.3012,-12.1471,141.1018],[-66.2969,-12.1469,138.0728],[-66.2997,-12.1491,142.3763],[-66.2988,-12.1525,141.5077],[-66.3025,-12.1536,141.3825],[-66.3006,-12.1556,140.7657],[-66.3006,-12.1591,142.2738],[-66.2964,-12.1587,140.6434],[-66.2995,-12.163,143.6911],[-66.2965,-12.1637,141.2769],[-66.2985,-12.1661,141.9547],[-66.2957,-12.1662,142.2702],[-66.2973,-12.1678,140.546],[-66.2951,-12.1686,141.9809],[-66.2972,-12.1713,141.8365],[-66.2964,-12.173,143.9706],[-66.2956,-12.1715,141.8365],[-66.292,-12.1718,140.9579],[-66.2948,-12.1759,142.5936],[-66.2982,-12.1752,142.219],[-66.2976,-12.1787,142.3375],[-66.302,-12.1788,143.4954],[-66.3007,-12.1828,142.7032],[-66.3027,-12.1868,141.8562],[-66.2998,-12.1869,141.8165],[-66.3038,-12.1887,142.6991],[-66.3002,-12.189,141.2888],[-66.3019,-12.1939,142.2562],[-66.2983,-12.1955,143.0644],[-66.3011,-12.1969,141.3836],[-66.2995,-12.1997,141.4665],[-66.3022,-12.2014,143.4429],[-66.2999,-12.201599999999999,143.145],[-66.2999,-12.2028,143.145],[-66.3053,-12.204,141.2181],[-66.3035,-12.206,141.8778],[-66.3074,-12.2095,139.703],[-66.3052,-12.2103,146.8005],[-66.3099,-12.214,142.4767],[-66.3079,-12.2154,142.2523],[-66.3069,-12.2137,142.2861],[-66.3051,-12.2157,148.1166],[-66.3068,-12.2172,141.6518],[-66.3051,-12.218,144.6859],[-66.3092,-12.2203,141.1403],[-66.3058,-12.2202,142.0163],[-66.3065,-12.2225,143.1629],[-66.3086,-12.2228,144.5287],[-66.3077,-12.2244,143.594],[-66.3039,-12.2242,144.4089],[-66.3072,-12.2271,143.2648],[-66.3067,-12.2283,144.0434],[-66.3038,-12.2264,143.0739],[-66.3061,-12.2309,143.7303],[-66.3021,-12.2286,144.6712],[-66.3018,-12.2299,145.06],[-66.3002,-12.2287,142.2972],[-66.2978,-12.2309,144.0798],[-66.2988,-12.2409,144.0334],[-66.294,-12.2415,143.1706],[-66.2949,-12.2439,143.7348],[-66.293,-12.2428,143.9277],[-66.2896,-12.2443,146.2672],[-66.2899,-12.2461,144.1303],[-66.2878,-12.2457,143.6701],[-66.2872,-12.2485,146.5979],[-66.2852,-12.2477,144.4222],[-66.2852,-12.2503,144.8066],[-66.2794,-12.2483,144.7625],[-66.2784,-12.2511,143.8378],[-66.2746,-12.2494,146.9449],[-66.2741,-12.2527,145.7979],[-66.2717,-12.2502,143.8753],[-66.2719,-12.2537,143.0407],[-66.2699,-12.2538,139.8515],[-66.271,-12.2565,144.4722],[-66.2697,-12.2578,141.8818],[-66.2735,-12.2603,140.3754],[-66.2711,-12.2605,143.6448],[-66.2717,-12.2628,143.7505],[-66.2678,-12.2623,143.6729],[-66.2687,-12.2664,146.5951],[-66.2668,-12.2649,144.2618],[-66.2653,-12.2669,145.6067],[-66.264,-12.2654,145.1335],[-66.2648,-12.2677,145.6067],[-66.2674,-12.2672,145.8253],[-66.2671,-12.2697,145.6937],[-66.2644,-12.2693,143.8198],[-66.2663,-12.2716,145.4102],[-66.265,-12.2729,145.4102],[-66.2689,-12.276,146.5295],[-66.2683,-12.2808,142.2744],[-66.2702,-12.2826,144.5126],[-66.2691,-12.2884,144.7844],[-66.2712,-12.2902,144.6717],[-66.2696,-12.2924,142.8018],[-66.2727,-12.2957,142.8062],[-66.2707,-12.2961,142.8062],[-66.2716,-12.2975,142.6808],[-66.2682,-12.3025,142.5522],[-66.2703,-12.3062,143.9124],[-66.268,-12.3073,144.8179],[-66.269,-12.3099,143.805],[-66.2711,-12.3104,142.0952],[-66.2696,-12.3128,140.3245],[-66.2718,-12.3126,141.1307],[-66.2715,-12.3173,145.0177],[-66.2738,-12.3164,145.3245],[-66.2738,-12.3184,146.4437],[-66.2758,-12.3183,142.2466],[-66.2761,-12.3214,142.4972],[-66.2801,-12.3252,140.6307],[-66.2798,-12.3278,142.4161],[-66.2838,-12.3281,140.7551],[-66.2814,-12.3296,142.1705],[-66.2848,-12.3364,140.6478],[-66.2851,-12.3399,141.9818],[-66.283,-12.3402,141.4997],[-66.2854,-12.3415,142.3142],[-66.2851,-12.3456,143.3786],[-66.2892,-12.3456,143.9482],[-66.2899,-12.3485,141.8114],[-66.2921,-12.3471,144.721],[-66.2955,-12.3505,144.3475],[-66.2972,-12.3485,143.4845],[-66.298,-12.3512,144.4138],[-66.3001,-12.351,145.1373],[-66.2995,-12.3527,145.4881],[-66.3026,-12.3519,143.8795],[-66.303,-12.3545,144.1672],[-66.3058,-12.3548,148.6252],[-66.3042,-12.3601,144.0513],[-66.3073,-12.3602,144.4757],[-66.3088,-12.3642,142.614],[-66.3073,-12.3674,143.0066],[-66.3091,-12.3718,142.4697],[-66.3066,-12.376,146.4698],[-66.3079,-12.3765,146.5069],[-66.3082,-12.3801,145.1022],[-66.3114,-12.3809,144.2849],[-66.3131,-12.3787,145.5263],[-66.3143,-12.3865,141.7767],[-66.3168,-12.3857,146.0622],[-66.3235,-12.3928,147.4647],[-66.3268,-12.3911,148.6271],[-66.3272,-12.3925,147.9443],[-66.3297,-12.3922,149.6213],[-66.3308,-12.3947,149.3049],[-66.3338,-12.3952,147.4997],[-66.3329,-12.4,149.6233],[-66.3391,-12.3989,149.2709],[-66.3388,-12.4014,150.2568],[-66.3418,-12.4044,150.1168],[-66.342,-12.4076,151.344],[-66.3464,-12.4094,146.7105],[-66.3448,-12.4147,150.4146],[-66.3466,-12.418,149.8046],[-66.3461,-12.4204,148.9657],[-66.3495,-12.4247,147.5106],[-66.3537,-12.4256,138.9059],[-66.3537,-12.4291,148.0436],[-66.3577,-12.4355,148.1551],[-66.3577,-12.438,149.707],[-66.3629,-12.4385,149.1238],[-66.3659,-12.4458,149.7121],[-66.3834,-12.4569,153.0732],[-66.3911,-12.4582,155.5764],[-66.3868,-12.4679,151.8907],[-66.3914,-12.4698,151.5413],[-66.3911,-12.4726,151.4132],[-66.3923,-12.4718,154.7689],[-66.3933,-12.4745,152.8113],[-66.3923,-12.477,152.301],[-66.3949,-12.478,151.1523],[-66.3959,-12.4824,150.7411],[-66.3978,-12.483,156.2262],[-66.402,-12.4955,152.0747],[-66.4079,-12.5015,156.3245],[-66.4058,-12.5071,156.9235],[-66.4106,-12.5076,153.4438],[-66.4131,-12.5102,155.7133],[-66.4146,-12.5169,161.1887],[-66.4176,-12.5202,159.8936],[-66.4207,-12.5202,162.0768],[-66.4213,-12.5257,161.6885],[-66.4245,-12.5234,155.8108],[-66.428,-12.5285,154.2403],[-66.4315,-12.5286,154.5699],[-66.4359,-12.5408,157.0906],[-66.4385,-12.5423,150.786],[-66.4326,-12.5551,156.4473],[-66.4371,-12.56,157.8221],[-66.4367,-12.5633,156.9278],[-66.4399,-12.5653,152.3283],[-66.4422,-12.5719,149.8366],[-66.4405,-12.577,158.7744],[-66.4403,-12.5889,159.7677],[-66.4434,-12.5936,163.141],[-66.4467,-12.6075,148.8193],[-66.4539,-12.6207,149.9927],[-66.453,-12.6242,163.3921],[-66.4586,-12.6294,157.6374],[-66.467,-12.6534,164.7159],[-66.4736,-12.6585,154.8147],[-66.4727,-12.6607,156.626],[-66.4766,-12.6676,156.4064],[-66.4772,-12.6744,158.8615],[-66.4791,-12.6753,159.0103],[-66.4832,-12.6837,159.1382],[-66.4831,-12.6889,159.2661],[-66.4858,-12.6933,158.4607],[-66.4886,-12.7073,164.3637],[-66.497,-12.7196,167.6286],[-66.5061,-12.725,171.5405],[-66.5137,-12.7257,172.5451],[-66.5158,-13.5711,160.7471],[-66.5315,-15.5655,326.2152],[-66.276,-15.417,231.0623],[-66.2739,-15.4174,236.5453],[-66.2652,-15.4123,231.3267],[-66.2667,-15.4101,239.1569],[-66.2627,-15.4106,233.5331],[-66.2616,-15.4073,233.5163],[-66.252,-15.4107,234.0439],[-66.2397,-15.408,225.7201],[-66.2394,-15.41,229.6348],[-66.2368,-15.4116,225.0158],[-66.2343,-15.4082,222.6895],[-66.2294,-15.4059,226.3431],[-66.2293,-15.4036,226.3273],[-66.2271,-15.404,227.8058],[-66.2265,-15.3992,226.073],[-66.2277,-15.3972,223.8536],[-66.2249,-15.3955,221.5557],[-66.2243,-15.3907,221.2408],[-66.2203,-15.3889,219.5648],[-66.218,-15.3852,216.7157],[-66.214,-15.3841,215.4366],[-66.2116,-15.3789,211.3434],[-66.2071,-15.3782,214.7517],[-66.2018,-15.3705,213.9978],[-66.1961,-15.3733,218.7699],[-66.191,-15.3724,218.1474],[-66.1629,-15.3563,208.8755],[-66.1546,-15.3485,210.9878],[-66.1505,-15.342,209.6333],[-66.1434,-15.3458,209.1679],[-66.1416,-15.3429,205.9952],[-66.1375,-15.3419,205.2257],[-66.128,-15.3457,202.2296],[-66.1266,-15.3428,203.608],[-66.1273,-15.3392,202.7033],[-66.1238,-15.3364,204.4944],[-66.1223,-15.3304,200.0319],[-66.1168,-15.3267,200.7653],[-66.1106,-15.3182,196.9012],[-66.1093,-15.3134,188.1646],[-66.1014,-15.3115,187.8847],[-66.0986,-15.3078,181.9756],[-66.0908,-15.3056,193.5952],[-66.0785,-15.2948,190.8967],[-66.0775,-15.2916,194.6981],[-66.068,-15.2853,193.5535],[-66.0607,-15.2859,191.1784],[-66.0566,-15.2833,192.3722],[-66.0486,-15.2831,191.9531],[-66.045,-15.2813,189.7234],[-66.0284,-15.2818,181.4592],[-66.0205,-15.2756,182.2241],[-66.0184,-15.2704,179.806],[-66.0124,-15.2684,180.6865],[-66.0103,-15.2653,174.7365],[-66.0039,-15.2688,174.6324],[-65.995,-15.2619,177.7902],[-65.9876,-15.2644,172.8021],[-65.9867,-15.2622,172.4309],[-65.9848,-15.2649,176.6883],[-65.9829,-15.2643,171.8733],[-65.9818,-15.2657,178.7383],[-65.98,-15.263,174.2658],[-65.9776,-15.2657,174.4815],[-65.9775,-15.2637,176.7171],[-65.9759,-15.2637,170.7718],[-65.9766,-15.262,171.8471],[-65.9745,-15.2611,172.7565],[-65.975,-15.2586,169.5618],[-65.9721,-15.2591,168.8123],[-65.9706,-15.2565,169.0339],[-65.9686,-15.2574,168.8973],[-65.9687,-15.259,168.8418],[-65.9655,-15.2558,177.7655],[-65.9622,-15.2565,174.2688],[-65.9623,-15.2583,171.6696],[-65.9604,-15.2557,179.1313],[-65.958,-15.2564,174.5901],[-65.9599,-15.2535,177.4991],[-65.9574,-15.252,181.0649],[-65.9606,-15.2515,180.1481],[-65.9606,-15.2476,179.9404],[-65.9618,-15.2474,179.9404],[-65.9587,-15.2451,181.6322],[-65.9594,-15.2434,180.0697],[-65.958,-15.242,178.8722],[-65.962,-15.2419,177.5775],[-65.9603,-15.2392,174.6248],[-65.9589,-15.2397,177.6971],[-65.9522,-15.2335,175.6823],[-65.953,-15.2311,172.3952],[-65.951,-15.231,174.4384],[-65.9502,-15.2328,174.4356],[-65.9493,-15.2311,171.06],[-65.9483,-15.2317,174.5503],[-65.9461,-15.2301,176.0913],[-65.9459,-15.2262,173.1359],[-65.9438,-15.2256,172.5542],[-65.9466,-15.2246,173.1359],[-65.9439,-15.2231,173.1826],[-65.9463,-15.2223,172.3071],[-65.947,-15.2174,175.5555],[-65.949,-15.2168,172.9093],[-65.9482,-15.2157,172.0363],[-65.9508,-15.2158,172.944],[-65.9493,-15.2143,174.8375],[-65.9509,-15.2141,172.0356],[-65.9516,-15.2091,168.7167],[-65.9474,-15.2087,174.578],[-65.9477,-15.202,172.8134],[-65.9451,-15.2014,170.2322],[-65.9439,-15.2035,174.2926],[-65.9421,-15.2024,172.433],[-65.9441,-15.198,171.6179],[-65.9424,-15.1978,170.2272],[-65.9392,-15.2014,176.7223],[-65.9406,-15.1958,169.9431],[-65.9375,-15.1974,172.8453],[-65.9362,-15.1966,171.2638],[-65.9376,-15.1941,170.6746],[-65.9364,-15.1918,171.3792],[-65.9393,-15.1893,179.2628],[-65.9369,-15.1882,178.1176],[-65.9358,-15.1835,172.4258],[-65.938,-15.1845,169.6002],[-65.9395,-15.1834,170.5658],[-65.9383,-15.181,169.9907],[-65.9339,-15.1823,169.4453],[-65.9354,-15.1757,172.934],[-65.9327,-15.1751,170.3985],[-65.9285,-15.177,175.4899],[-65.9256,-15.1738,171.3439],[-65.9284,-15.1721,167.8032],[-65.927,-15.1709,170.6015],[-65.9229,-15.1722,173.4824],[-65.9231,-15.1686,173.3359],[-65.9209,-15.1696,167.5863],[-65.9197,-15.1726,170.9087],[-65.9218,-15.1745,170.2153],[-65.9212,-15.1757,169.7609],[-65.9171,-15.1741,173.8972],[-65.9152,-15.1766,169.2831],[-65.9142,-15.173,168.8624],[-65.9078,-15.1748,169.3146],[-65.9054,-15.1734,179.062],[-65.906,-15.1685,176.8068],[-65.9011,-15.1668,172.0909],[-65.897,-15.167,171.2695],[-65.8982,-15.1715,169.806],[-65.8942,-15.168,167.1947],[-65.8931,-15.1721,170.6828],[-65.8911,-15.1689,170.5956],[-65.8892,-15.1733,171.9095],[-65.8879,-15.1736,175.9311],[-65.887,-15.1711,174.0621],[-65.8841,-15.1737,171.2862],[-65.8824,-15.1715,169.1659],[-65.8844,-15.1702,172.1681],[-65.8836,-15.1673,175.5665],[-65.879,-15.1628,182.7183],[-65.8835,-15.1587,175.875],[-65.8846,-15.1507,171.4536],[-65.8818,-15.1466,176.8829],[-65.8773,-15.1453,171.5904],[-65.8738,-15.1346,165.1444],[-65.8708,-15.1336,177.6085],[-65.8665,-15.136,171.6241],[-65.8595,-15.1339,167.3807],[-65.8572,-15.1347,176.8224],[-65.8562,-15.1318,165.2985],[-65.8613,-15.1302,177.7121],[-65.8608,-15.1283,180.7647],[-65.8565,-15.1261,168.2624],[-65.8466,-15.1253,169.6666],[-65.8474,-15.1229,168.8913],[-65.8457,-15.117,164.972],[-65.8442,-15.1189,177.2227],[-65.8456,-15.1238,164.6744],[-65.8441,-15.1266,170.7275],[-65.8409,-15.1265,166.2973],[-65.8414,-15.1291,167.9355],[-65.8394,-15.1305,172.2063],[-65.839,-15.1262,177.8531],[-65.8368,-15.1252,167.794],[-65.8337,-15.1307,164.6771],[-65.8323,-15.1309,175.6814],[-65.8312,-15.127,167.7569],[-65.8338,-15.122,175.2801],[-65.8272,-15.1176,168.1243],[-65.8182,-15.1065,164.7842],[-65.8144,-15.1095,166.0476],[-65.8134,-15.1085,175.3429],[-65.8142,-15.1046,170.7056],[-65.8197,-15.1012,172.6746],[-65.8269,-15.0907,166.2518],[-65.8293,-15.0902,163.3158],[-65.8298,-15.0926,163.2446],[-65.8331,-15.0927,172.0252],[-65.8344,-15.0959,178.414],[-65.8365,-15.0948,166.3112],[-65.8316,-15.0843,166.3228],[-65.8299,-15.0835,167.3779],[-65.8279,-15.0851,174.7213],[-65.8248,-15.0832,168.7856],[-65.8267,-15.0802,174.6477],[-65.8338,-15.0768,170.0072],[-65.8357,-15.0771,158.5891],[-65.835,-15.0803,166.3865],[-65.8368,-15.0808,177.9622],[-65.8379,-15.0701,166.7788],[-65.8338,-15.0667,166.7416],[-65.827,-15.0695,172.896],[-65.823,-15.0693,167.5121],[-65.829,-15.0608,171.6157],[-65.8318,-15.0516,171.0384],[-65.8301,-15.0472,165.8125],[-65.8244,-15.0461,169.3446],[-65.8205,-15.0433,167.8152],[-65.8226,-15.041,170.0878],[-65.8282,-15.0391,174.3495],[-65.8277,-15.034,168.9168],[-65.8294,-15.0322,170.345],[-65.8375,-15.0323,167.8289],[-65.833,-15.029,163.7012],[-65.8335,-15.0236,169.8875],[-65.8312,-15.021,163.0495],[-65.8312,-15.0181,166.6426],[-65.8449,-15.0184,173.8644],[-65.8453,-15.0171,164.8228],[-65.8383,-15.0115,170.5018],[-65.8345,-15.0122,163.938],[-65.8342,-15.0084,182.183],[-65.8322,-15.0071,172.0332],[-65.8283,-15.009,167.3002],[-65.831,-15.0113,167.0477],[-65.8293,-15.0142,168.4564],[-65.8244,-15.0169,169.7762],[-65.8247,-15.0093,167.2942],[-65.8228,-15.0067,167.8546],[-65.8274,-14.9977,171.6755],[-65.8228,-14.9968,165.9485],[-65.8208,-15.0035,169.9289],[-65.816,-15.0043,168.8867],[-65.8169,-15.0003,167.4309],[-65.8154,-14.9965,165.9277],[-65.8208,-14.9954,167.1313],[-65.8235,-14.9922,168.9452],[-65.8222,-14.9866,165.2142],[-65.8194,-14.9833,171.3584],[-65.8178,-14.9825,171.8367],[-65.8167,-14.9842,171.2102],[-65.8167,-14.9895,169.0315],[-65.8096,-14.9913,161.6563],[-65.8047,-14.9837,165.1143],[-65.7998,-14.9847,164.0761],[-65.7978,-14.9869,161.5862],[-65.7952,-14.986,161.7936],[-65.7983,-14.9811,161.1655],[-65.7983,-14.9778,164.4147],[-65.7892,-14.9783,157.3012],[-65.7902,-14.9814,159.0803],[-65.7874,-14.9823,159.159],[-65.7858,-14.98,159.0362],[-65.787,-14.9756,162.0618],[-65.791,-14.9739,160.0242],[-65.7934,-14.9752,164.7321],[-65.7949,-14.9733,158.8839],[-65.793,-14.9618,159.4497],[-65.7912,-14.9589,166.8315],[-65.7929,-14.9572,161.4093],[-65.7896,-14.9558,162.7146],[-65.7898,-14.9542,166.0048],[-65.7921,-14.9529,167.8912],[-65.7985,-14.9558,164.1019],[-65.7987,-14.9517,170.8378],[-65.7904,-14.9453,165.9948],[-65.7881,-14.9477,166.587],[-65.7835,-14.9484,171.3307],[-65.7837,-14.9432,162.061],[-65.7719,-14.9402,171.5887],[-65.7779,-14.9381,171.659],[-65.7778,-14.9362,163.8379],[-65.7738,-14.9338,164.9208],[-65.7637,-14.9342,168.173],[-65.7654,-14.9288,168.1813],[-65.7647,-14.9257,173.0432],[-65.7546,-14.9247,166.7032],[-65.756,-14.918,173.6582],[-65.7616,-14.9176,155.6611],[-65.7563,-14.9104,170.8513],[-65.7589,-14.9056,163.782],[-65.7643,-14.9018,171.1947],[-65.7618,-14.8998,166.2447],[-65.7558,-14.8997,170.6047],[-65.7574,-14.8931,161.6143],[-65.7522,-14.8912,160.6301],[-65.752,-14.889099999999999,169.2182],[-65.7567,-14.8882,170.5237],[-65.7578,-14.8784,159.5288],[-65.7597,-14.8784,161.3246],[-65.7625,-14.8837,158.5145],[-65.764,-14.8838,158.5145],[-65.7651,-14.8807,165.9678],[-65.7624,-14.8752,158.8445],[-65.7701,-14.8652,164.4007],[-65.7727,-14.8645,165.8576],[-65.7756,-14.867,163.1618],[-65.7778,-14.8655,162.3532],[-65.781,-14.8672,160.9373],[-65.7806,-14.8653,160.7957],[-65.7729,-14.8599,163.6548],[-65.7732,-14.8562,159.528],[-65.77,-14.8513,167.696],[-65.7704,-14.8495,169.7161],[-65.7737,-14.8491,162.1516],[-65.7766,-14.8522,162.7616],[-65.7824,-14.8542,159.562],[-65.7845,-14.8514,157.9107],[-65.7842,-14.8494,161.4915],[-65.7812,-14.848,169.194],[-65.7712,-14.8468,163.6547],[-65.7826,-14.8401,160.3377],[-65.7833,-14.8383,163.5327],[-65.7809,-14.8358,161.7601],[-65.773,-14.8365,164.1508],[-65.7799,-14.8276,160.226],[-65.7797,-14.8253,157.7503],[-65.7669,-14.8254,160.381],[-65.7632,-14.8214,163.3918],[-65.7628,-14.8196,156.4595],[-65.7682,-14.8089,154.832],[-65.764,-14.8082,157.337],[-65.7555,-14.8113,169.5078],[-65.752,-14.8105,165.6766],[-65.7506,-14.8086,155.6439],[-65.7507,-14.7997,158.8792],[-65.76,-14.7919,154.5944],[-65.7499,-14.7855,164.8535],[-65.751,-14.779,157.4491],[-65.7529,-14.7776,160.5854],[-65.7581,-14.7812,157.5451],[-65.7612,-14.7785,155.3246],[-65.7553,-14.7665,167.9072],[-65.7532,-14.7576,159.5392],[-65.7535,-14.7546,157.3079],[-65.7585,-14.7518,162.2393],[-65.7518,-14.7464,164.477],[-65.7503,-14.7353,158.3878],[-65.7549,-14.7328,158.9863],[-65.7653,-14.7347,166.8446],[-65.7669,-14.7209,161.4491],[-65.7593,-14.7206,151.4846],[-65.7664,-14.7156,159.2794],[-65.7671,-14.7129,163.7713],[-65.7559,-14.7091,170.0289],[-65.7581,-14.7033,154.931],[-65.7565,-14.7005,160.5616],[-65.7505,-14.7006,163.2047],[-65.7437,-14.7034,164.3122],[-65.7447,-14.6975,158.7393],[-65.7519,-14.6899,155.5575],[-65.7466,-14.6796,162.4488],[-65.7374,-14.6884,156.5845],[-65.729,-14.6887,159.4083],[-65.7297,-14.685,164.5759],[-65.7381,-14.6803,155.6084],[-65.7337,-14.6744,162.1555],[-65.7322,-14.6742,157.5032],[-65.7292,-14.6804,159.9424],[-65.7251,-14.6817,163.4433],[-65.7174,-14.673,161.1083],[-65.7078,-14.6679,158.5346],[-65.707,-14.6707,151.4124],[-65.7121,-14.679,164.8609],[-65.7118,-14.6814,158.9199],[-65.7096,-14.6817,162.171],[-65.7062,-14.68,155.4091],[-65.7025,-14.6683,156.8824],[-65.6927,-14.6774,155.1914],[-65.6917,-14.6744,159.1512],[-65.6931,-14.6668,155.045],[-65.6912,-14.6657,155.7489],[-65.688,-14.6684,161.3147],[-65.6784,-14.6682,166.2429],[-65.6747,-14.676,154.8281],[-65.6729,-14.6748,160.2652],[-65.6727,-14.6719,153.1081],[-65.6785,-14.6618,157.0905],[-65.676,-14.6602,163.2169],[-65.6703,-14.6654,158.5865],[-65.6666,-14.6727,158.1141],[-65.6642,-14.6727,151.5431],[-65.6634,-14.6653,154.6169],[-65.6579,-14.6664,165.9368],[-65.6566,-14.6641,155.183],[-65.6656,-14.6556,161.633],[-65.6683,-14.6432,158.6881],[-65.6559,-14.645,160.7268],[-65.6406,-14.6422,165.438],[-65.64,-14.6361,157.4584],[-65.6345,-14.6255,152.1693],[-65.6371,-14.6234,159.8053],[-65.6381,-14.6167,154.6436],[-65.6251,-14.6165,154.5706],[-65.6237,-14.613,156.4884],[-65.6273,-14.6059,151.4982],[-65.6245,-14.6034,156.1212],[-65.6172,-14.603,164.3337],[-65.6138,-14.6044,162.7032],[-65.6126,-14.5925,151.8709],[-65.6136,-14.5884,162.2425],[-65.6112,-14.5866,156.4778],[-65.6074,-14.5869,161.3417],[-65.5961,-14.5763,158.1187],[-65.5962,-14.5728,156.4653],[-65.6037,-14.5706,153.8595],[-65.6042,-14.5687,149.8305],[-65.5999,-14.5657,156.8865],[-65.5883,-14.5659,155.2709],[-65.5863,-14.5626,153.5226],[-65.5878,-14.5586,154.9377],[-65.5856,-14.5574,152.9842],[-65.582,-14.5589,156.1992],[-65.579,-14.5669,153.0152],[-65.5755,-14.5668,154.4645],[-65.5746,-14.5652,156.555],[-65.5761,-14.5624,154.5392],[-65.5763,-14.5548,158.0432],[-65.5725,-14.5468,162.0881],[-65.5697,-14.5447,158.2817],[-65.5667,-14.5458,157.5418],[-65.5662,-14.5529,152.4539],[-65.562,-14.5501,165.4325],[-65.5627,-14.5444,164.529],[-65.5609,-14.5379,154.1443],[-65.5671,-14.5366,156.6619],[-65.5668,-14.5318,160.9345],[-65.5647,-14.5306,153.8642],[-65.5577,-14.5315,154.3644],[-65.5558,-14.536,152.7644],[-65.5528,-14.5366,152.9074],[-65.5518,-14.5303,156.7968],[-65.5482,-14.5298,166.3871],[-65.5419,-14.5221,154.8699],[-65.5423,-14.5194,150.4355],[-65.5474,-14.5154,149.105],[-65.5392,-14.5152,150.7325],[-65.5341,-14.5219,151.6437],[-65.5316,-14.5236,156.5022],[-65.5298,-14.5229,156.741],[-65.5301,-14.5177,153.0913],[-65.5381,-14.5058,154.287],[-65.5381,-14.5027,163.1749],[-65.5363,-14.501,155.4391],[-65.5284,-14.5014,161.6349],[-65.5226,-14.5069,149.6952],[-65.5203,-14.5042,152.0793],[-65.5349,-14.4939,149.5187],[-65.5246,-14.492,158.705],[-65.5251,-14.4898,150.278],[-65.5308,-14.4874,148.3888],[-65.529,-14.485,153.6496],[-65.5229,-14.4846,157.2685],[-65.5179,-14.4901,152.1801],[-65.5142,-14.4846,151.3195],[-65.5179,-14.4791,152.367],[-65.525,-14.4744,157.4197],[-65.521,-14.4734,159.1746],[-65.5192,-14.4698,152.397],[-65.5267,-14.4694,157.6085],[-65.5311,-14.4552,150.136],[-65.5272,-14.4532,164.8622],[-65.5181,-14.4533,154.2755],[-65.5069,-14.45,156.9148],[-65.5131,-14.441,152.1523],[-65.5124,-14.4379,150.0688],[-65.5083,-14.4334,155.8661],[-65.5094,-14.4288,151.9335],[-65.514,-14.4218,148.9999],[-65.5144,-14.4183,154.5459],[-65.5021,-14.416,151.1315],[-65.5046,-14.4121,153.3569],[-65.5091,-14.4103,156.1758],[-65.5092,-14.4082,163.7078],[-65.5041,-14.4058,156.2864],[-65.4946,-14.4068,155.5647],[-65.4929,-14.4033,159.9445],[-65.498,-14.401,153.3455],[-65.4989,-14.3939,155.6649],[-65.4948,-14.3819,154.7117],[-65.4894,-14.3822,148.234],[-65.4967,-14.3761,165.7433],[-65.4972,-14.3722,149.333],[-65.4825,-14.3666,151.3239],[-65.4852,-14.361,150.3121],[-65.4843,-14.3596,162.2692],[-65.4731,-14.3581,150.8232],[-65.4742,-14.3544,151.4105],[-65.4804,-14.35,157.83],[-65.4688,-14.3447,149.931],[-65.4664,-14.3409,159.6012],[-65.4678,-14.3395,150.5604],[-65.4742,-14.3409,153.9658],[-65.4762,-14.3401,154.5522],[-65.4753,-14.3331,164.7753],[-65.4524,-14.3351,148.659],[-65.4507,-14.325,149.6965],[-65.4611,-14.3255,153.4482],[-65.4641,-14.3245,149.4734],[-65.4642,-14.3219,148.8581],[-65.459,-14.3188,152.5196],[-65.4442,-14.3189,152.168],[-65.4421,-14.3173,151.5072],[-65.4432,-14.3147,151.0],[-65.4475,-14.3124,150.6257],[-65.4564,-14.3135,157.2575],[-65.457,-14.3117,155.871],[-65.455,-14.3087,158.7475],[-65.445,-14.3075,154.2173],[-65.4412,-14.3103,148.2272],[-65.4381,-14.3098,149.0647],[-65.4401,-14.3057,148.5816],[-65.4452,-14.3039,153.2757],[-65.4486,-14.3008,156.771],[-65.4502,-14.2929,149.5269],[-65.4462,-14.2916,158.4791],[-65.4343,-14.2938,148.3223],[-65.4332,-14.293,148.3223],[-65.4341,-14.2911,147.5331],[-65.4387,-14.2881,157.7617],[-65.4501,-14.2893,148.8708],[-65.4458,-14.2786,145.6819],[-65.4471,-14.276,150.692],[-65.4505,-14.2743,149.7332],[-65.4528,-14.2742,148.4292],[-65.4524,-14.2793,145.3071],[-65.4567,-14.2872,154.5101],[-65.4585,-14.2875,146.0886],[-65.4591,-14.2847,143.4174],[-65.4578,-14.278,155.731],[-65.4528,-14.2714,154.6061],[-65.4437,-14.267,143.8244],[-65.4413,-14.263,157.2911],[-65.4341,-14.2625,143.9526],[-65.4393,-14.2491,153.9573],[-65.4508,-14.2402,145.8165],[-65.4383,-14.2305,151.295],[-65.4338,-14.2334,157.1431],[-65.4316,-14.2375,153.2109],[-65.4299,-14.2375,148.3054],[-65.4293,-14.2345,145.6214],[-65.4328,-14.2251,149.2309],[-65.4267,-14.2157,145.1784],[-65.4324,-14.2132,151.7183],[-65.43,-14.2052,147.2276],[-65.4347,-14.2011,145.0533],[-65.4245,-14.1974,143.5429],[-65.4104,-14.182,154.9062],[-65.4122,-14.1781,150.5496],[-65.4182,-14.1775,149.5936],[-65.4155,-14.1746,158.3456],[-65.4072,-14.1783,153.7461],[-65.3965,-14.1799,151.7615],[-65.3896,-14.1786,149.4472],[-65.3886,-14.1768,159.5693],[-65.3906,-14.1664,143.4748],[-65.3793,-14.1703,143.957],[-65.3769,-14.1696,147.1523],[-65.3749,-14.1651,142.5865],[-65.3785,-14.1634,149.2229],[-65.3831,-14.154,154.7537],[-65.0471,-14.1576,146.2485],[-65.0571,-14.1496,141.4276],[-65.0575,-14.1474,143.485],[-65.0415,-14.1395,138.4269],[-65.0317,-14.132,135.9942],[-65.025,-14.1231,137.0919],[-65.0247,-14.1143,135.4846],[-65.0266,-14.1106,139.174],[-65.0327,-14.1075,146.2371],[-65.049,-14.1101,139.0131],[-65.0633,-14.1068,140.3778],[-65.0722,-14.1089,141.7209],[-65.0799,-14.1173,135.0],[-65.0848,-14.1163,140.5502],[-65.0863,-14.1109,142.492],[-65.0852,-14.1086,140.9135],[-65.0722,-14.0936,134.5],[-65.0666,-14.0853,134.5],[-65.0634,-14.076599999999999,137.446],[-65.0627,-14.064,134.5],[-65.064,-14.0575,138.6814],[-65.0689,-14.0411,134.5],[-65.071,-14.037,134.5],[-65.0748,-14.0348,136.1909],[-65.0811,-14.0362,146.1368],[-65.0936,-14.045,145.2923],[-65.1033,-14.0407,144.9372],[-65.1066,-14.0322,143.6566],[-65.1054,-14.0218,140.46]]]]}}