{"type":"Feature","properties":{"GID_2":"BOL.2.15_2","GID_0":"BOL","country":"Bolivia","GID_1":"BOL.2_1","province":"Cochabamba","NL_NAME_1":"NA","county":"Tapacarí","VARNAME_2":"NA","NL_NAME_2":"NA","TYPE_2":"Provincia","ENGTYPE_2":"Province","CC_2":"NA","HASC_2":"NA","name":"Tapacarí.county"},
"geometry":{"type": "MultiPolygon","coordinates": [[[[-66.3998,-17.679,3078.6382],[-66.3972,-17.6773,3056.6384],[-66.3959,-17.672,3036.7173],[-66.3938,-17.6708,3045.4082],[-66.393,-17.6652,2986.0825],[-66.3893,-17.6649,2981.4702],[-66.3808,-17.6577,3083.7959],[-66.3798,-17.6512,2955.3093],[-66.3873,-17.6483,2940.0933],[-66.3952,-17.6401,2928.4126],[-66.3968,-17.6334,2836.8003],[-66.4019,-17.6238,2798.1965],[-66.4015,-17.6197,2776.6733],[-66.4046,-17.6145,2804.3665],[-66.4139,-17.6124,2850.2158],[-66.4175,-17.6137,2862.2964],[-66.4228,-17.6195,2919.394],[-66.4278,-17.6159,3128.1902],[-66.4307,-17.6105,3321.0525],[-66.4277,-17.6068,3305.1697],[-66.429,-17.5928,3266.968],[-66.4351,-17.5923,3150.457],[-66.4392,-17.5845,3126.3147],[-66.4749,-17.5576,2629.1182],[-66.4715,-17.5546,2618.6877],[-66.4685,-17.5579,2615.8623],[-66.4624,-17.5574,2611.7383],[-66.4548,-17.5637,2620.5205],[-66.452,-17.5609,2604.6836],[-66.4466,-17.5611,2593.812],[-66.4387,-17.5495,2572.9104],[-66.4272,-17.5445,2559.0723],[-66.4215,-17.5442,2552.9766],[-66.4127,-17.5479,2542.915],[-66.401,-17.5485,2530.2036],[-66.3892,-17.5534,2515.8396],[-66.3849,-17.5583,2511.7212],[-66.3811,-17.5571,2513.6914],[-66.3803,-17.5543,2622.3315],[-66.3854,-17.5343,2866.1543],[-66.3884,-17.5299,2950.584],[-66.3877,-17.5265,2939.6438],[-66.391,-17.5127,3014.6272],[-66.3882,-17.5022,2910.2402],[-66.394,-17.4954,3061.8831],[-66.3945,-17.4899,3211.5825],[-66.3965,-17.4876,3253.085],[-66.4092,-17.4872,3440.5991],[-66.4119,-17.4813,3545.3499],[-66.416,-17.4818,3614.5864],[-66.4191,-17.4867,3626.9109],[-66.4234,-17.4893,3643.0752],[-66.428,-17.4861,3647.325],[-66.4296,-17.4866,3617.5325],[-66.4334,-17.483,3668.7791],[-66.4377,-17.4824,3667.842],[-66.4533,-17.4716,3700.2168],[-66.4611,-17.4688,3764.7317],[-66.464,-17.4696,3745.9236],[-66.4717,-17.4656,3862.8215],[-66.4816,-17.457,3966.0994],[-66.4877,-17.459,3909.812],[-66.4937,-17.4567,3946.7734],[-66.4967,-17.4448,3985.2131],[-66.4974,-17.4319,4159.3101],[-66.4903,-17.4119,4497.1646],[-66.4957,-17.4109,4503.2212],[-66.4999,-17.4043,4485.7798],[-66.5085,-17.4102,4453.4971],[-66.5113,-17.4098,4485.0269],[-66.5174,-17.4003,4510.7554],[-66.5343,-17.3922,4502.0063],[-66.5388,-17.3873,4458.4683],[-66.5517,-17.3821,4504.4097],[-66.5538,-17.3763,4496.8833],[-66.5655,-17.3674,4570.7871],[-66.5714,-17.3768,4442.6484],[-66.5767,-17.3766,4325.5332],[-66.5842,-17.3846,4131.7588],[-66.5891,-17.3862,4185.1147],[-66.5909,-17.3895,4160.0425],[-66.6052,-17.3952,4077.7246],[-66.6063,-17.3986,4153.436],[-66.6109,-17.4035,4138.0146],[-66.6088,-17.407,4155.0508],[-66.6121,-17.4114,4059.9746],[-66.6122,-17.4208,4025.6448],[-66.6164,-17.4265,4035.2642],[-66.6249,-17.4273,4077.3035],[-66.6391,-17.4244,4094.9321],[-66.6459,-17.4209,4198.7026],[-66.6492,-17.4156,4148.2959],[-66.6538,-17.4141,4227.6821],[-66.6587,-17.4147,4195.5176],[-66.6649,-17.4093,4200.7656],[-66.6813,-17.4057,4212.3564],[-66.7165,-17.4094,4232.1924],[-66.7198,-17.4124,4157.5703],[-66.72,-17.4177,4120.6196],[-66.7153,-17.4403,3992.3477],[-66.7331,-17.4485,4024.3909],[-66.7459,-17.4445,4056.4292],[-66.7755,-17.4411,4179.3896],[-66.7834,-17.4319,4178.8579],[-66.7946,-17.4306,3815.2996],[-66.7967,-17.4201,3770.0813],[-66.8081,-17.4157,3641.4927],[-66.8138,-17.4038,3578.4175],[-66.8158,-17.4035,3511.6641],[-66.8164,-17.399,3426.6638],[-66.8246,-17.3929,3328.7896],[-66.8337,-17.3957,3212.519],[-66.8454,-17.3867,3040.6094],[-66.8464,-17.3843,2930.5217],[-66.8474,-17.386,2899.2412],[-66.8533,-17.3846,2937.4441],[-66.8649,-17.3887,2915.5959],[-66.8669,-17.4026,2937.2297],[-66.8739,-17.4102,2968.3281],[-66.877,-17.4161,2998.2761],[-66.8753,-17.4219,3002.2407],[-66.872,-17.4259,3013.5593],[-66.8685,-17.4274,3016.3281],[-66.8629,-17.4361,3026.5557],[-66.8439,-17.4415,3062.8447],[-66.8404,-17.4472,3088.0457],[-66.8357,-17.4511,3091.5105],[-66.8372,-17.4634,3139.9849],[-66.8347,-17.4767,3226.7922],[-66.8314,-17.4798,3186.439],[-66.8274,-17.4892,3200.1057],[-66.8228,-17.493,3218.4668],[-66.8219,-17.499,3244.4763],[-66.8163,-17.5035,3246.968],[-66.8174,-17.507,3267.8687],[-66.8157,-17.5116,3372.1577],[-66.8175,-17.5166,3394.1758],[-66.8249,-17.5256,3406.4258],[-66.8291,-17.5278,3422.9497],[-66.8346,-17.5269,3507.1345],[-66.8403,-17.5336,3650.7925],[-66.8477,-17.5339,3717.4531],[-66.8613,-17.5399,3934.6028],[-66.8699,-17.5394,3982.6482],[-66.8777,-17.5415,3960.7825],[-66.8735,-17.557,4056.4761],[-66.8758,-17.5597,4013.9932],[-66.8799,-17.5608,4066.5225],[-66.883,-17.5675,4101.4443],[-66.8856,-17.5687,4112.9556],[-66.8849,-17.5749,4157.436],[-66.8916,-17.5855,4290.3188],[-66.8999,-17.5905,4576.0781],[-66.886,-17.5997,4543.5693],[-66.8728,-17.6173,4596.1938],[-66.8724,-17.6248,4595.7603],[-66.8833,-17.6333,4449.7617],[-66.8876,-17.6392,4374.7207],[-66.892,-17.6661,4507.3345],[-66.879,-17.6789,4522.9834],[-66.8772,-17.6896,4509.8652],[-66.8714,-17.6925,4550.8281],[-66.8697,-17.7017,4465.8154],[-66.8608,-17.7126,4500.833],[-66.8513,-17.7191,4562.6035],[-66.8345,-17.7264,4499.8955],[-66.8216,-17.7373,4505.4409],[-66.8157,-17.7567,4338.1646],[-66.7967,-17.7767,4384.4238],[-66.7957,-17.7818,4422.1162],[-66.7819,-17.781,4311.7983],[-66.7791,-17.7844,4344.8892],[-66.772,-17.7818,4365.3906],[-66.7729,-17.7761,4216.8521],[-66.7694,-17.7672,4087.3989],[-66.7674,-17.7655,4079.3252],[-66.7583,-17.7407,3921.4929],[-66.7558,-17.7382,3841.229],[-66.7546,-17.7387,3841.229],[-66.7515,-17.7335,3988.2292],[-66.7454,-17.7301,4308.291],[-66.7508,-17.7206,4381.2544],[-66.755,-17.7186,4434.9209],[-66.7556,-17.7077,4165.1064],[-66.7461,-17.6975,4107.9521],[-66.7406,-17.695,4182.7827],[-66.7415,-17.6898,4140.6172],[-66.7398,-17.6878,4091.5701],[-66.7316,-17.688,4214.6768],[-66.7281,-17.6841,4363.0396],[-66.7238,-17.6833,4297.3716],[-66.7079,-17.6916,4299.7251],[-66.6973,-17.7104,4216.6768],[-66.6698,-17.7388,4157.4966],[-66.6641,-17.7341,4079.7078],[-66.6513,-17.734,4009.3579],[-66.6381,-17.7281,3994.1567],[-66.6349,-17.7281,4018.5293],[-66.6294,-17.723,3869.1921],[-66.6264,-17.7172,3953.8987],[-66.6156,-17.7259,4028.894],[-66.6074,-17.7288,4019.624],[-66.606,-17.7307,3945.0713],[-66.5963,-17.7306,4126.8501],[-66.591,-17.7355,4012.1465],[-66.5864,-17.733,3924.428],[-66.5841,-17.7291,3921.3608],[-66.5683,-17.7213,3830.9468],[-66.5587,-17.7206,3934.8179],[-66.548,-17.7098,4021.2646],[-66.5473,-17.7067,4009.7271],[-66.5413,-17.7079,4011.8735],[-66.5385,-17.7062,4019.9585],[-66.5311,-17.7102,4038.9697],[-66.5276,-17.709,4076.9319],[-66.5242,-17.7017,4069.0647],[-66.5169,-17.6944,4053.2744],[-66.4994,-17.6846,3778.9709],[-66.4854,-17.6746,3905.8811],[-66.479,-17.6678,3854.7507],[-66.4756,-17.6673,3866.0652],[-66.4719,-17.6639,3802.8516],[-66.4673,-17.6548,3730.1328],[-66.4641,-17.6542,3769.6172],[-66.4574,-17.6582,3830.96],[-66.4395,-17.6774,3893.4048],[-66.4267,-17.6873,3797.6147],[-66.4201,-17.6832,3591.3342],[-66.4115,-17.6841,3405.5381],[-66.4049,-17.6797,3232.9033],[-66.3998,-17.679,3078.6382]]]]}}