{"type":"Feature","properties":{"GID_3":"BOL.4.6.1_2","GID_0":"BOL","country":"Bolivia","GID_1":"BOL.4_1","province":"LaPaz","NL_NAME_1":"NA","GID_2":"BOL.4.6_2","county":"Caranavi","NL_NAME_2":"NA","city":"AltoBeni","VARNAME_3":"NA","NL_NAME_3":"NA","TYPE_3":"District","ENGTYPE_3":"Distrito","CC_3":"NA","HASC_3":"NA","name":"Alto_Beni.city"},
"geometry":{"type": "MultiPolygon","coordinates": [[[[-67.4972,-15.3484,386.9061],[-67.5108,-15.3522,898.5491],[-67.5289,-15.331,1029.3745],[-67.5475,-15.3377,515.6196],[-67.5556,-15.3475,524.2598],[-67.5511,-15.3517,672.257],[-67.5734,-15.3728,573.2761],[-67.5747,-15.3865,537.6198],[-67.5697,-15.391,529.2826],[-67.5695,-15.4086,446.7785],[-67.5768,-15.4218,373.9359],[-67.5743,-15.4592,531.7383],[-67.6077,-15.5161,1557.2853],[-67.6123,-15.5421,1717.475],[-67.6047,-15.561,1722.3528],[-67.5936,-15.5745,1738.4631],[-67.5798,-15.5807,1907.5273],[-67.5709,-15.6051,1884.4314],[-67.5601,-15.6229,1719.4692],[-67.5507,-15.6313,1696.9471],[-67.531,-15.6367,2061.719],[-67.4893,-15.6596,1633.1552],[-67.4864,-15.6844,1887.3972],[-67.4284,-15.697,1268.2966],[-67.4118,-15.6833,1321.451],[-67.3903,-15.6924,1601.1604],[-67.4023,-15.7044,1181.3469],[-67.391,-15.7125,1405.7816],[-67.3798,-15.7125,1545.1696],[-67.364,-15.7183,1515.9],[-67.3446,-15.7385,1492.5105],[-67.3297,-15.7438,1344.5142],[-67.2929,-15.7515,1044.3346],[-67.263,-15.7536,1314.8297],[-67.2652,-15.7797,656.4923],[-67.2813,-15.7951,1395.5751],[-67.2834,-15.805,836.5889],[-67.2578,-15.822,619.4666],[-67.2501,-15.8217,561.1419],[-67.2451,-15.824,608.1809],[-67.241,-15.8197,555.6425],[-67.2363,-15.8182,614.6859],[-67.2341,-15.8054,523.0583],[-67.2297,-15.8004,508.6351],[-67.225,-15.7995,563.7143],[-67.2172,-15.7927,561.3507],[-67.2191,-15.7908,512.7123],[-67.2163,-15.7874,519.6569],[-67.2124,-15.7867,658.9747],[-67.1996,-15.7769,496.5709],[-67.1955,-15.778,500.4471],[-67.1913,-15.7819,528.5253],[-67.1884,-15.7802,501.5243],[-67.1817,-15.7804,511.9749],[-67.1735,-15.7725,536.2449],[-67.1653,-15.754,490.1105],[-67.1609,-15.7523,490.9019],[-67.1545,-15.7403,483.9789],[-67.1515,-15.7386,487.7592],[-67.1437,-15.7394,466.225],[-67.1393,-15.737,471.3796],[-67.1388,-15.7336,470.1642],[-67.1416,-15.7242,460.1931],[-67.134,-15.7144,455.8205],[-67.1367,-15.7094,454.3548],[-67.1342,-15.7056,451.5723],[-67.136,-15.7008,450.1567],[-67.134,-15.692,444.1495],[-67.1378,-15.6811,446.1322],[-67.1383,-15.6619,436.3929],[-67.1422,-15.6526,431.1089],[-67.1468,-15.6478,436.797],[-67.1554,-15.6476,429.1952],[-67.1677,-15.6421,429.7243],[-67.1789,-15.6409,425.421],[-67.183,-15.639099999999999,421.0],[-67.188,-15.634,423.0269],[-67.2058,-15.6238,421.9019],[-67.2071,-15.6201,426.105],[-67.204,-15.6155,415.5476],[-67.2048,-15.6133,418.0787],[-67.2076,-15.6125,417.5378],[-67.2134,-15.6166,420.013],[-67.2178,-15.6169,418.4827],[-67.2211,-15.6136,419.6368],[-67.2245,-15.6044,418.556],[-67.2637,-15.5898,416.2531],[-67.2738,-15.583,402.839],[-67.2869,-15.5839,402.7684],[-67.3009,-15.5733,400.8452],[-67.3028,-15.5691,395.6365],[-67.3055,-15.5675,398.8434],[-67.321,-15.5706,393.5705],[-67.3233,-15.5735,391.0],[-67.3302,-15.5707,396.6862],[-67.3398,-15.572,395.7277],[-67.3469,-15.5704,390.507],[-67.3547,-15.5642,392.8135],[-67.3627,-15.5661,383.7747],[-67.3758,-15.5607,393.4794],[-67.3863,-15.5519,379.2565],[-67.3955,-15.5375,381.6881],[-67.3952,-15.5251,380.8279],[-67.3982,-15.5206,375.8409],[-67.4229,-15.5211,368.75],[-67.4298,-15.5198,385.2832],[-67.4345,-15.5169,365.0],[-67.4355,-15.513,380.7047],[-67.4335,-15.507,393.069],[-67.4265,-15.5032,371.3883],[-67.4257,-15.4971,364.4146],[-67.4282,-15.4945,367.952],[-67.434,-15.4935,367.924],[-67.4511,-15.4853,362.7011],[-67.458,-15.4869,373.7016],[-67.4599,-15.4856,368.7821],[-67.4628,-15.4768,363.1848],[-67.464,-15.461,357.0],[-67.468,-15.4572,360.7507],[-67.4684,-15.4535,358.7236],[-67.4725,-15.4488,353.3535],[-67.4738,-15.4437,353.2826],[-67.4735,-15.4408,354.4674],[-67.4671,-15.4353,356.769],[-67.4652,-15.4313,360.5133],[-67.4731,-15.429,349.1083],[-67.4781,-15.4322,349.1632],[-67.4817,-15.4385,361.763],[-67.4875,-15.4391,351.1107],[-67.4895,-15.4324,345.5],[-67.4881,-15.423,354.89],[-67.4845,-15.4167,356.9802],[-67.4854,-15.4134,347.2862],[-67.5057,-15.4062,341.0],[-67.5105,-15.3948,342.8558],[-67.5192,-15.3968,345.5246],[-67.5238,-15.4,351.4362],[-67.5269,-15.3989,339.2662],[-67.5248,-15.3976,338.6039],[-67.5237,-15.3918,337.0],[-67.513,-15.3811,335.3697],[-67.5146,-15.3709,347.2767],[-67.5085,-15.3708,335.656],[-67.4902,-15.3626,333.839],[-67.4939,-15.3526,328.7493],[-67.4972,-15.3484,386.9061]]]]}}