{"type": "Feature","bbox": [-66.255,-17.4255,-66.207,-17.3504],"geometry": {"type": "MultiPolygon","coordinates": [[[[-66.207,-17.3704,2562.4504],[-66.2265,-17.3616,2573.9775],[-66.236,-17.36,2574.6997],[-66.2483,-17.3504,2595.9417],[-66.2476,-17.3593,2582.9331],[-66.2504,-17.3597,2582.1338],[-66.249,-17.3689,2570.3325],[-66.2526,-17.3687,2570.9878],[-66.2509,-17.3933,2543.168],[-66.2524,-17.3931,2542.896],[-66.255,-17.4112,2535.4924],[-66.2525,-17.4112,2535.8979],[-66.2529,-17.4131,2538.8726],[-66.251,-17.4147,2539.9846],[-66.2526,-17.42,2606.6416],[-66.2507,-17.424,2608.3687],[-66.2429,-17.4255,2637.3213],[-66.2376,-17.4235,2653.5225],[-66.2312,-17.4168,2543.4238],[-66.2273,-17.4166,2544.5769],[-66.2251,-17.4185,2540.563],[-66.2233,-17.4249,2541.4695],[-66.2179,-17.425,2539.292],[-66.2144,-17.3972,2540.6311],[-66.2082,-17.3959,2541.4185],[-66.207,-17.3704,2562.4504]]]]}
,"properties": {"GID_3": "BOL.2.14.1_2","GID_0": "BOL","country": "Bolivia","GID_1": "BOL.2_1","province": "Cochabamba","NL_NAME_1": "NA","GID_2": "BOL.2.14_2","county": "Quillacollo","NL_NAME_2": "NA","city": "Colcapirhua","VARNAME_3": "NA","NL_NAME_3": "NA","TYPE_3": "District","ENGTYPE_3": "Distrito","CC_3": "NA","HASC_3": "NA","name": "Colcapirhua.city","area_km2": 29.49982,"hist_schema_id": "Elevation0-9000","hist_area_km2": {"2525": 4.30921,"2550": 18.79651,"2575": 5.09934,"2600": 0.52603,"2625": 0.30344,"2650": 0.36413,"2675": 0.10115}}}