{"type":"Feature","properties":{"GID_3":"BOL.8.8.2_2","GID_0":"BOL","country":"Bolivia","GID_1":"BOL.8_1","province":"SantaCruz","NL_NAME_1":"NA","GID_2":"BOL.8.8_2","county":"Ichilo","NL_NAME_2":"NA","city":"SanCarlos","VARNAME_3":"NA","NL_NAME_3":"NA","TYPE_3":"District","ENGTYPE_3":"Distrito","CC_3":"NA","HASC_3":"NA","name":"San_Carlos.city"},
"geometry":{"type": "MultiPolygon","coordinates": [[[[-63.6016,-17.3297,280.2839],[-63.6004,-17.3256,277.5526],[-63.6022,-17.326,279.4461],[-63.6043,-17.3239,277.9422],[-63.6044,-17.3197,275.9937],[-63.6117,-17.3067,273.2169],[-63.6136,-17.3059,278.5811],[-63.6122,-17.302,273.8645],[-63.6105,-17.3023,274.3284],[-63.6073,-17.2994,275.6169],[-63.6073,-17.297,275.7475],[-63.6055,-17.2972,276.5986],[-63.6055,-17.2938,276.3679],[-63.6014,-17.2931,271.6706],[-63.6029,-17.2914,276.6961],[-63.6022,-17.2896,274.7233],[-63.5957,-17.2866,272.8514],[-63.5926,-17.2803,271.3073],[-63.5955,-17.2762,268.3441],[-63.5985,-17.2759,279.5449],[-63.5978,-17.2723,270.7323],[-63.6035,-17.2652,272.6517],[-63.6015,-17.2548,270.6225],[-63.5964,-17.2496,267.683],[-63.5997,-17.2487,267.3708],[-63.5994,-17.2452,264.5637],[-63.601,-17.244,265.3224],[-63.602,-17.2353,263.8156],[-63.6006,-17.2288,261.518],[-63.6025,-17.2238,259.255],[-63.602,-17.2191,258.331],[-63.6071,-17.205,256.8325],[-63.6054,-17.2018,254.9111],[-63.6115,-17.1984,258.9816],[-63.6104,-17.1964,256.4101],[-63.6126,-17.1892,259.4126],[-63.6117,-17.1857,261.9984],[-63.6164,-17.1742,259.5961],[-63.6191,-17.1719,254.1615],[-63.6129,-17.1637,263.4453],[-63.616,-17.1619,260.6544],[-63.6171,-17.1591,259.0657],[-63.616,-17.1578,258.6691],[-63.6187,-17.1565,258.876],[-63.6168,-17.155,255.7701],[-63.6177,-17.1521,253.998],[-63.6161,-17.1511,255.9698],[-63.6155,-17.147,253.5323],[-63.611,-17.1436,254.1429],[-63.6128,-17.1426,254.3071],[-63.6123,-17.1395,253.1597],[-63.6143,-17.1381,253.8313],[-63.6163,-17.1388,251.1662],[-63.6184,-17.1351,251.675],[-63.6245,-17.1335,253.2366],[-63.6282,-17.1281,252.2252],[-63.6306,-17.1286,248.9202],[-63.6311,-17.1266,250.8035],[-63.6332,-17.1261,252.506],[-63.6324,-17.1232,250.2656],[-63.6336,-17.1213,252.5395],[-63.638,-17.1204,250.7815],[-63.6382,-17.1181,252.259],[-63.642,-17.1141,250.1436],[-63.6408,-17.1111,249.3344],[-63.6383,-17.11,247.8093],[-63.64,-17.1098,249.3344],[-63.6395,-17.1089,247.8724],[-63.6416,-17.1098,249.903],[-63.6419,-17.1054,246.2962],[-63.6465,-17.1049,248.9761],[-63.6453,-17.1013,247.6404],[-63.6475,-17.0998,246.7418],[-63.6504,-17.101,249.1532],[-63.6527,-17.098,250.055],[-63.6551,-17.0978,250.934],[-63.6549,-17.0995,250.8068],[-63.6595,-17.0992,251.2079],[-63.6597,-17.1005,250.5351],[-63.6631,-17.0984,250.732],[-63.6646,-17.0952,250.4005],[-63.6629,-17.0923,247.0218],[-63.6669,-17.0898,248.6732],[-63.6648,-17.0835,251.7573],[-63.6665,-17.0828,248.0716],[-63.6663,-17.0784,250.4499],[-63.6697,-17.0767,247.4729],[-63.6688,-17.0756,250.9554],[-63.6734,-17.068,246.5587],[-63.6774,-17.068,246.9767],[-63.6785,-17.0656,243.4825],[-63.6808,-17.0671,248.1799],[-63.6828,-17.0651,247.8644],[-63.6823,-17.0632,247.0043],[-63.6852,-17.0653,247.5663],[-63.6861,-17.0628,244.3715],[-63.6849,-17.062,244.3715],[-63.6878,-17.0595,250.1666],[-63.6869,-17.0565,247.2107],[-63.689,-17.0546,249.4723],[-63.6943,-17.0547,244.5739],[-63.6956,-17.0529,250.5785],[-63.6972,-17.056,247.2177],[-63.7,-17.0568,243.1748],[-63.7011,-17.0538,244.4824],[-63.7073,-17.0532,247.441],[-63.7079,-17.055,244.7549],[-63.7098,-17.0549,244.1077],[-63.7126,-17.053,247.3333],[-63.7157,-17.0555,242.6039],[-63.7213,-17.0453,247.3393],[-63.7276,-17.0508,244.4539],[-63.7272,-17.0468,243.6344],[-63.7296,-17.046,246.9041],[-63.7333,-17.0409,242.1338],[-63.7361,-17.0401,239.5155],[-63.7363,-17.0377,239.516],[-63.7338,-17.0353,242.0844],[-63.7353,-17.0335,242.6281],[-63.7335,-17.0317,240.7104],[-63.7379,-17.0292,240.4941],[-63.7366,-17.0267,240.3657],[-63.7386,-17.0227,235.0153],[-63.742,-17.0219,237.1839],[-63.7441,-17.0192,238.9799],[-63.7433,-17.0163,236.4188],[-63.7451,-17.0105,243.3207],[-63.7477,-17.009,236.4038],[-63.7465,-17.0064,237.7184],[-63.748,-17.0039,239.4174],[-63.7474,-17.0001,240.9544],[-63.7501,-16.9989,239.7176],[-63.753,-17.0005,240.8146],[-63.7554,-16.9997,239.9677],[-63.7569,-17.0029,236.8002],[-63.7561,-17.0062,233.5],[-63.7593,-17.0075,233.5],[-63.7633,-16.9961,234.0569],[-63.7671,-16.994,239.1428],[-63.7713,-16.995,240.0198],[-63.772,-16.9939,236.7552],[-63.7728,-16.9969,239.0291],[-63.7757,-16.9964,238.5803],[-63.7751,-16.9953,240.2299],[-63.7772,-16.9954,239.0725],[-63.7801,-16.9887,238.7147],[-63.7826,-16.9886,240.5681],[-63.7829,-16.99,238.8463],[-63.7837,-16.989,240.8121],[-63.7845,-16.9907,238.8463],[-63.7862,-16.9892,241.41309999999999],[-63.7867,-16.9908,239.4287],[-63.7881,-16.9901,238.9781],[-63.7878,-16.9917,238.8306],[-63.7916,-16.9889,239.14],[-63.7915,-16.9872,238.1638],[-63.7963,-16.9874,238.0872],[-63.7973,-16.9851,237.1438],[-63.7997,-16.9853,237.9606],[-63.7994,-16.987,237.9859],[-63.8017,-16.9862,236.7199],[-63.8006,-16.9883,237.9526],[-63.8018,-16.9891,238.1756],[-63.8065,-16.9893,237.1879],[-63.8065,-16.9874,239.3412],[-63.809,-16.9876,238.465],[-63.8088,-16.986,240.129],[-63.813,-16.986,240.6802],[-63.8137,-16.9875,237.2237],[-63.8149,-16.986,242.8215],[-63.8146,-16.9889,235.7377],[-63.8164,-16.9876,239.1227],[-63.8173,-16.9885,236.7625],[-63.8165,-16.9917,236.7812],[-63.8556,-17.0654,246.1371],[-63.8759,-17.0745,253.3791],[-63.882,-17.079,250.0472],[-63.885,-17.0826,250.5748],[-63.8858,-17.0881,251.9516],[-63.8812,-17.0939,253.0666],[-63.8812,-17.0969,254.4404],[-63.8863,-17.1011,251.4376],[-63.898,-17.1045,256.4225],[-63.9007,-17.1082,252.7993],[-63.8969,-17.1125,255.5167],[-63.8794,-17.1111,253.483],[-63.8703,-17.1138,254.6813],[-63.8666,-17.1184,254.4778],[-63.8641,-17.1315,255.4882],[-63.8778,-17.1461,258.3585],[-63.8303,-17.1574,255.9038],[-63.8298,-17.1841,258.1068],[-63.793,-17.182,258.8772],[-63.79,-17.286,285.8949],[-63.7904,-17.3774,299.9571],[-63.8287,-17.3879,293.6631],[-63.8282,-17.3827,291.937],[-63.8578,-17.3827,275.0],[-63.8522,-17.3958,279.7241],[-63.8476,-17.3993,277.0],[-63.8442,-17.4047,283.6571],[-63.8435,-17.4086,281.1174],[-63.8485,-17.4167,286.0759],[-63.849,-17.4205,280.9302],[-63.8397,-17.4312,284.0436],[-63.838,-17.436,290.88],[-63.843,-17.4426,282.3543],[-63.8522,-17.4491,291.443],[-63.8703,-17.4812,299.7913],[-63.869,-17.4871,304.9635],[-63.866,-17.4899,302.9987],[-63.8652,-17.4957,315.1079],[-63.8613,-17.5047,312.3098],[-63.8621,-17.5083,314.3983],[-63.8565,-17.5208,311.5634],[-63.8605,-17.5228,322.3231],[-63.8669,-17.5208,315.0737],[-63.8688,-17.5173,330.6586],[-63.8784,-17.5101,320.6233],[-63.8837,-17.5086,323.4673],[-63.8864,-17.5086,324.4639],[-63.9005,-17.5172,331.2065],[-63.9062,-17.5239,342.7795],[-63.9086,-17.5312,359.6893],[-63.9089,-17.5336,337.8364],[-63.9042,-17.5375,344.981],[-63.903,-17.5409,344.5553],[-63.9061,-17.5534,408.6448],[-63.9102,-17.5572,366.4341],[-63.9062,-17.5597,387.2182],[-63.9112,-17.5631,360.2667],[-63.9116,-17.5672,360.9435],[-63.9177,-17.5678,360.0299],[-63.9192,-17.5694,362.0815],[-63.9184,-17.5733,368.5743],[-63.9131,-17.5784,365.5439],[-63.9111,-17.5865,440.7393],[-63.9053,-17.5865,389.979],[-63.9041,-17.5935,381.0868],[-63.8994,-17.5939,403.7259],[-63.8879,-17.6049,403.0421],[-63.8877,-17.6074,423.5849],[-63.8915,-17.6087,384.644],[-63.8794,-17.6286,441.0304],[-63.8812,-17.6345,400.5928],[-63.877,-17.6407,420.7313],[-63.8823,-17.6496,414.6032],[-63.8818,-17.6514,462.9852],[-63.8779,-17.651,400.77],[-63.8719,-17.6474,416.3754],[-63.8675,-17.649,406.0546],[-63.8498,-17.6319,734.4872],[-63.829,-17.6203,497.0355],[-63.8155,-17.6078,810.4491],[-63.7995,-17.5995,444.1983],[-63.7952,-17.5987,425.5902],[-63.7927,-17.595,411.7375],[-63.7921,-17.5887,413.0229],[-63.7908,-17.5889,414.1428],[-63.7943,-17.584,407.0691],[-63.7907,-17.5776,389.1014],[-63.7839,-17.5775,430.3854],[-63.7678,-17.5631,358.7214],[-63.7667,-17.5594,372.5739],[-63.7636,-17.5562,347.5368],[-63.7634,-17.5527,353.9178],[-63.7575,-17.5493,346.7998],[-63.7541,-17.5449,346.7542],[-63.7499,-17.5459,338.1063],[-63.7529,-17.5428,338.5878],[-63.7535,-17.5334,338.6879],[-63.7569,-17.5306,349.3956],[-63.7546,-17.5278,327.7236],[-63.7535,-17.5228,323.658],[-63.7505,-17.5224,325.4767],[-63.7492,-17.5204,320.5778],[-63.738,-17.5152,382.5042],[-63.737,-17.5043,337.9988],[-63.7347,-17.5019,348.1638],[-63.7371,-17.4973,337.716],[-63.7364,-17.488,331.1873],[-63.7394,-17.4845,328.602],[-63.7385,-17.4835,328.602],[-63.7407,-17.479,329.9325],[-63.7383,-17.4738,332.7309],[-63.7412,-17.4703,321.2871],[-63.7274,-17.465699999999998,324.3461],[-63.721,-17.4592,317.1599],[-63.7138,-17.4556,317.3349],[-63.714,-17.4527,316.0251],[-63.7103,-17.4461,324.3951],[-63.7053,-17.4455,360.6203],[-63.7045,-17.442,350.8748],[-63.701,-17.4397,340.041],[-63.6752,-17.4275,330.8627],[-63.6743,-17.4258,327.6961],[-63.6748,-17.4239,321.4029],[-63.6713,-17.4174,303.4294],[-63.6703,-17.4042,296.3288],[-63.6727,-17.402,296.7368],[-63.6723,-17.3966,295.9377],[-63.6748,-17.3917,292.7705],[-63.6794,-17.3886,292.7791],[-63.6818,-17.3842,289.4496],[-63.6797,-17.3824,289.8944],[-63.6793,-17.3791,289.8724],[-63.6759,-17.3779,290.126],[-63.6763,-17.3752,291.3111],[-63.6703,-17.3745,294.1009],[-63.6704,-17.3701,293.1863],[-63.6669,-17.3648,292.1114],[-63.6666,-17.3613,291.395],[-63.67,-17.3558,287.0895],[-63.6682,-17.3498,288.9233],[-63.6662,-17.3501,288.8546],[-63.6668,-17.3524,288.3682],[-63.6629,-17.3578,289.8559],[-63.6577,-17.3551,287.7877],[-63.6549,-17.3575,290.3116],[-63.6506,-17.3543,287.2551],[-63.6453,-17.3544,284.8583],[-63.6379,-17.357,285.5364],[-63.6386,-17.3599,287.6276],[-63.635,-17.362,286.5875],[-63.6329,-17.3591,287.1031],[-63.6342,-17.3555,287.7799],[-63.6327,-17.3541,284.1542],[-63.6275,-17.356,285.1899],[-63.6267,-17.3531,282.9445],[-63.6221,-17.353,281.9874],[-63.6183,-17.3494,279.7591],[-63.6144,-17.3501,281.6322],[-63.6124,-17.3486,282.4239],[-63.612,-17.3428,281.0467],[-63.6091,-17.3358,278.7549],[-63.6067,-17.3355,279.2005],[-63.6068,-17.3338,279.4067],[-63.6046,-17.3322,277.4897],[-63.6025,-17.3324,278.0113],[-63.6016,-17.3297,280.2839]]]]}}