{"type":"Feature","properties":{"GID_3":"BOL.4.16.2_2","GID_0":"BOL","country":"Bolivia","GID_1":"BOL.4_1","province":"LaPaz","NL_NAME_1":"NA","GID_2":"BOL.4.16_2","county":"Muñecas","NL_NAME_2":"NA","city":"Ayata","VARNAME_3":"NA","NL_NAME_3":"NA","TYPE_3":"District","ENGTYPE_3":"Distrito","CC_3":"NA","HASC_3":"NA","name":"Ayata.city"},
"geometry":{"type": "MultiPolygon","coordinates": [[[[-68.9142,-15.3579,4677.3306],[-68.909,-15.3629,4699.0117],[-68.8918,-15.3694,4547.2451],[-68.886,-15.3747,4590.4507],[-68.8666,-15.3964,4670.7603],[-68.8545,-15.4161,4401.6055],[-68.862,-15.4274,4044.9448],[-68.8562,-15.4642,3902.6426],[-68.8188,-15.5013,3611.4092],[-68.7919,-15.5249,2575.4458],[-68.7439,-15.5556,1434.3523],[-68.7273,-15.5504,1411.3268],[-68.7078,-15.5416,1385.5635],[-68.7003,-15.5252,1393.2966],[-68.7212,-15.5243,2242.0566],[-68.7339,-15.5207,2461.0925],[-68.7436,-15.5093,2853.6538],[-68.756,-15.4896,3029.7461],[-68.7589,-15.4779,3253.9805],[-68.7691,-15.4552,3706.0896],[-68.7713,-15.436,4036.5205],[-68.7773,-15.43,4202.792],[-68.7935,-15.4242,4445.8975],[-68.8036,-15.4151,4465.4214],[-68.8008,-15.3973,4448.5962],[-68.7929,-15.391,4387.3936],[-68.7869,-15.3836,4438.3193],[-68.7711,-15.39,4174.3164],[-68.7625,-15.3903,4164.3516],[-68.7604,-15.3874,4008.3972],[-68.7553,-15.3854,3914.6624],[-68.7532,-15.3811,3606.2998],[-68.7488,-15.3786,3492.415],[-68.7079,-15.383,3055.4746],[-68.7049,-15.3851,3034.8057],[-68.6955,-15.3826,3031.301],[-68.6843,-15.3829,3189.332],[-68.6783,-15.3763,3122.2153],[-68.6746,-15.3666,2864.0796],[-68.6693,-15.3652,2839.2703],[-68.6654,-15.3615,2850.5701],[-68.654,-15.3632,2746.7451],[-68.6358,-15.3433,4182.9688],[-68.6308,-15.3296,4113.6982],[-68.6094,-15.332,3369.8789],[-68.5796,-15.3176,3564.6274],[-68.5681,-15.3013,2669.1909],[-68.5594,-15.2934,2109.4265],[-68.5498,-15.2727,1805.7146],[-68.5377,-15.265,1626.3311],[-68.5345,-15.2556,1461.3909],[-68.52,-15.2436,1395.0298],[-68.5183,-15.2373,1223.241],[-68.5198,-15.2329,1274.7268],[-68.5164,-15.2204,1109.2848],[-68.5071,-15.2157,1058.9271],[-68.501,-15.2145,1078.5334],[-68.4991,-15.2133,1034.1621],[-68.4987,-15.2099,986.1409],[-68.4934,-15.2077,1134.2036],[-68.4904,-15.204,1015.9889],[-68.4843,-15.2026,931.7354],[-68.4814,-15.1996,902.8429],[-68.4691,-15.1947,856.8154],[-68.4544,-15.2,790.5769],[-68.4511,-15.1985,835.1975],[-68.4479,-15.1943,916.7922],[-68.448,-15.1893,858.2519],[-68.4593,-15.1761,735.6334],[-68.4659,-15.1719,749.2312],[-68.4651,-15.1607,787.5577],[-68.467,-15.158,902.3208],[-68.4701,-15.1577,778.1971],[-68.4778,-15.1527,783.8099],[-68.4861,-15.1534,782.9551],[-68.4938,-15.1585,890.0252],[-68.5019,-15.1542,772.256],[-68.5115,-15.1524,820.4608],[-68.5189,-15.1571,883.2996],[-68.5204,-15.1617,869.0159],[-68.5365,-15.1675,836.1127],[-68.5413,-15.1721,914.782],[-68.5435,-15.1719,871.2732],[-68.5452,-15.1748,944.4341],[-68.5641,-15.1796,929.4799],[-68.5781,-15.1904,991.5021],[-68.5925,-15.1972,968.6096],[-68.6025,-15.1982,1034.7665],[-68.6105,-15.2036,1034.6906],[-68.6254,-15.2047,1135.6569],[-68.6504,-15.2204,1205.3396],[-68.6717,-15.2201,1242.1425],[-68.6763,-15.2167,1260.9667],[-68.687,-15.2152,1278.6844],[-68.6931,-15.2105,1284.1659],[-68.7047,-15.2073,1315.4308],[-68.7129,-15.2101,1356.719],[-68.7264,-15.2264,1389.0647],[-68.7372,-15.2325,1377.9281],[-68.7447,-15.2343,1398.9817],[-68.7539,-15.2324,1431.5239],[-68.7606,-15.2271,1478.2947],[-68.7698,-15.2308,1571.416],[-68.7768,-15.2314,1700.0459],[-68.7796,-15.2347,1788.5724],[-68.7858,-15.2317,1732.4978],[-68.7891,-15.233,1795.1519],[-68.7903,-15.2367,1875.2185],[-68.7963,-15.2421,1901.1006],[-68.7984,-15.248,2066.8616],[-68.8083,-15.248,2101.6384],[-68.8202,-15.2507,2303.0779],[-68.8225,-15.253,2362.0627],[-68.8266,-15.2532,2368.2358],[-68.8315,-15.256,2406.9121],[-68.8404,-15.2639,2579.9773],[-68.8424,-15.2781,2895.1111],[-68.8488,-15.2903,3074.4905],[-68.8528,-15.3116,3490.2864],[-68.8612,-15.331,3873.4746],[-68.8635,-15.3326,3826.9011],[-68.871,-15.332,3963.8271],[-68.8761,-15.3345,4045.1792],[-68.8828,-15.333,4210.5688],[-68.8924,-15.3352,4301.8848],[-68.905,-15.3432,4676.6221],[-68.9142,-15.3579,4677.3306]]]]}}