{"type":"Feature","properties":{"GID_3":"BOL.4.17.1_2","GID_0":"BOL","country":"Bolivia","GID_1":"BOL.4_1","province":"LaPaz","NL_NAME_1":"NA","GID_2":"BOL.4.17_2","county":"Murillo","NL_NAME_2":"NA","city":"Achocalla","VARNAME_3":"NA","NL_NAME_3":"NA","TYPE_3":"District","ENGTYPE_3":"Distrito","CC_3":"NA","HASC_3":"NA","name":"Achocalla.city"},
"geometry":{"type": "MultiPolygon","coordinates": [[[[-68.0865,-16.7546,4127.1089],[-68.081,-16.746,4186.5107],[-68.0767,-16.7352,4228.5498],[-68.0776,-16.7222,4089.0195],[-68.0735,-16.7127,3974.0461],[-68.0741,-16.7086,3924.3069],[-68.0771,-16.7066,3881.8713],[-68.0687,-16.695,3457.5098],[-68.0698,-16.6827,3886.7324],[-68.0755,-16.6765,3896.9922],[-68.0803,-16.6765,3817.3994],[-68.0884,-16.6634,3851.5103],[-68.0946,-16.6498,3751.9531],[-68.0911,-16.6434,3704.9934],[-68.0867,-16.64,3619.7568],[-68.0833,-16.6269,3405.9229],[-68.0864,-16.6222,3425.248],[-68.0842,-16.6151,3240.4404],[-68.0862,-16.6109,3366.0771],[-68.0902,-16.6094,3460.5388],[-68.1035,-16.6114,3679.0107],[-68.107,-16.6051,3803.7502],[-68.1016,-16.5984,3740.3086],[-68.1014,-16.5867,3679.54],[-68.1229,-16.5658,3398.356],[-68.1445,-16.5541,3844.4229],[-68.152,-16.542,4033.0757],[-68.1547,-16.5402,4052.7061],[-68.1607,-16.542,4039.5256],[-68.1635,-16.5466,3980.4534],[-68.165,-16.5444,4030.957],[-68.1694,-16.5429,4027.7705],[-68.1743,-16.5468,4008.636],[-68.1743,-16.5549,3976.4573],[-68.1818,-16.5628,3978.9597],[-68.1793,-16.5648,3958.4158],[-68.1835,-16.5696,3933.1423],[-68.1848,-16.5749,3967.4453],[-68.1788,-16.5802,3963.386],[-68.1752,-16.5809,3907.5649],[-68.1742,-16.5838,3963.314],[-68.1701,-16.5865,3968.3103],[-68.1696,-16.5928,3931.3176],[-68.1634,-16.5968,3962.2246],[-68.1586,-16.5974,3913.8862],[-68.1527,-16.6075,3970.8865],[-68.1485,-16.611,3917.2378],[-68.1493,-16.6124,3953.2944],[-68.1402,-16.6147,3946.406],[-68.1401,-16.6165,3981.085],[-68.1312,-16.6191,3958.6021],[-68.1279,-16.622,3966.4412],[-68.129,-16.6266,3981.8291],[-68.1315,-16.629,3986.1484],[-68.1307,-16.6345,3931.5225],[-68.1811,-16.6332,3938.1331],[-68.1796,-16.6558,3974.6902],[-68.175,-16.6626,3983.6472],[-68.163,-16.6717,4005.084],[-68.1508,-16.6963,4019.9678],[-68.1507,-16.7142,4028.2854],[-68.149,-16.724,4028.9287],[-68.1515,-16.7261,4000.9385],[-68.1604,-16.7261,3973.1587],[-68.1577,-16.7288,3974.3416],[-68.1563,-16.741,3992.9551],[-68.1525,-16.7515,3993.2876],[-68.1526,-16.7589,4011.2183],[-68.1462,-16.7575,4030.7563],[-68.1381,-16.7581,4033.3103],[-68.1301,-16.7601,4062.9468],[-68.1128,-16.7684,4139.8506],[-68.101,-16.7689,4184.3989],[-68.0964,-16.7684,4253.9658],[-68.0963,-16.7641,4238.3135],[-68.0933,-16.7643,4228.4126],[-68.0865,-16.7546,4127.1089]]]]}}