{"type":"Feature","properties":{"GID_3":"BOL.4.12.2_2","GID_0":"BOL","country":"Bolivia","GID_1":"BOL.4_1","province":"LaPaz","NL_NAME_1":"NA","GID_2":"BOL.4.12_2","county":"Larecaja","NL_NAME_2":"NA","city":"Guanay","VARNAME_3":"NA","NL_NAME_3":"NA","TYPE_3":"District","ENGTYPE_3":"Distrito","CC_3":"NA","HASC_3":"NA","name":"Guanay.city"},
"geometry":{"type": "MultiPolygon","coordinates": [[[[-67.6775,-15.7447,498.152],[-67.6754,-15.7414,557.1691],[-67.6758,-15.7371,569.4128],[-67.6805,-15.7307,492.505],[-67.6808,-15.7277,527.473],[-67.6753,-15.7223,516.6232],[-67.6786,-15.7139,525.1391],[-67.6878,-15.7011,484.119],[-67.6925,-15.6844,550.1681],[-67.6953,-15.681,478.6587],[-67.7011,-15.6812,476.2682],[-67.705,-15.6783,495.7698],[-67.7075,-15.6738,516.3286],[-67.7037,-15.6722,469.0595],[-67.7069,-15.6667,471.2404],[-67.7093,-15.667,489.2794],[-67.7101,-15.6713,519.8098],[-67.713,-15.6705,468.6512],[-67.713,-15.6644,480.8362],[-67.7204,-15.6582,461.2792],[-67.7253,-15.65,460.7837],[-67.7322,-15.6526,471.7328],[-67.7338,-15.6507,524.3922],[-67.733,-15.6462,475.4908],[-67.7366,-15.6436,449.9271],[-67.7396,-15.6449,487.8771],[-67.7407,-15.639099999999999,446.9016],[-67.7427,-15.6369,445.531],[-67.7491,-15.635,463.0455],[-67.7531,-15.6309,457.454],[-67.7599,-15.6325,442.1123],[-67.7627,-15.6311,457.2426],[-67.7575,-15.6198,433.7948],[-67.7614,-15.6167,440.3852],[-67.7623,-15.612,474.7092],[-67.7814,-15.6011,442.3463],[-67.7868,-15.5926,438.87],[-67.7849,-15.5864,426.8326],[-67.7903,-15.5834,430.0628],[-67.8049,-15.5621,424.0404],[-67.8292,-15.5431,428.7024],[-67.8293,-15.5403,419.8388],[-67.8338,-15.5359,440.0182],[-67.8351,-15.5304,469.9843],[-67.8331,-15.5278,431.5556],[-67.8322,-15.5197,542.786],[-67.8381,-15.5114,429.8718],[-67.8459,-15.5044,406.6892],[-67.8467,-15.5009,393.3663],[-67.8593,-15.4821,1000.1079],[-67.8445,-15.4663,533.2734],[-67.8188,-15.4205,507.3887],[-67.7876,-15.3832,1496.4044],[-67.7893,-15.3782,1476.0089],[-67.7935,-15.3785,1419.8525],[-67.7968,-15.3763,1478.3008],[-67.7989,-15.3708,1471.3469],[-67.8063,-15.3647,1577.8486],[-67.8074,-15.3601,1633.9476],[-67.8123,-15.3537,1758.1252],[-67.8129,-15.3498,1792.2954],[-67.8211,-15.3437,1827.5048],[-67.8237,-15.3348,1796.6953],[-67.8269,-15.3324,1761.6105],[-67.8346,-15.3196,1473.9968],[-67.8363,-15.3127,1657.7407],[-67.8419,-15.3047,1758.4445],[-67.8419,-15.3011,1770.2423],[-67.8446,-15.2974,1711.4531],[-67.8468,-15.2828,1801.8229],[-67.8565,-15.2689,1722.0746],[-67.8621,-15.2571,1697.5337],[-67.9515,-15.2747,1410.5994],[-68.0346,-15.297,1647.7137],[-68.0511,-15.3084,1139.3795],[-68.0542,-15.3237,729.9072],[-68.0612,-15.3326,506.8279],[-68.0602,-15.3341,504.8636],[-68.0576,-15.3338,496.9918],[-68.0557,-15.3382,522.1122],[-68.0563,-15.3421,554.626],[-68.062,-15.3469,567.7523],[-68.0561,-15.3623,490.5749],[-68.0513,-15.3618,503.5224],[-68.0478,-15.3647,516.7421],[-68.0472,-15.37,511.5952],[-68.0512,-15.3767,498.6165],[-68.047,-15.3783,485.8226],[-68.0462,-15.3807,484.1459],[-68.0542,-15.3882,555.9424],[-68.0639,-15.3849,481.0186],[-68.0653,-15.3862,513.4441],[-68.0646,-15.3914,539.6996],[-68.0773,-15.3943,468.125],[-68.0712,-15.3973,468.5129],[-68.0642,-15.3948,467.655],[-68.0607,-15.3958,585.0713],[-68.0604,-15.4075,472.4469],[-68.0567,-15.4117,473.3234],[-68.0572,-15.4138,515.2942],[-68.063,-15.4147,576.6327],[-68.0635,-15.4163,563.1102],[-68.058,-15.4186,534.303],[-68.0569,-15.4227,490.3734],[-68.0585,-15.4243,491.0042],[-68.0611,-15.4234,484.0466],[-68.0653,-15.4251,495.9976],[-68.0637,-15.4317,563.884],[-68.0655,-15.4362,521.6316],[-68.0679,-15.4361,559.4706],[-68.0677,-15.4395,503.2772],[-68.0706,-15.4419,505.2068],[-68.0673,-15.4435,531.4228],[-68.0657,-15.4518,578.6468],[-68.0629,-15.4532,623.5767],[-68.0629,-15.4568,582.7922],[-68.0587,-15.4585,607.7229],[-68.0556,-15.4626,601.262],[-68.0581,-15.4729,637.2753],[-68.0635,-15.4738,636.5852],[-68.066,-15.4795,656.6321],[-68.0661,-15.4888,608.3036],[-68.0649,-15.4915,641.8088],[-68.0662,-15.497,651.5074],[-68.0697,-15.4969,630.0765],[-68.0706,-15.4996,679.8447],[-68.0688,-15.5053,700.6732],[-68.0692,-15.5112,614.4548],[-68.0757,-15.5133,694.5906],[-68.0759,-15.5165,671.0339],[-68.078,-15.5171,662.0767],[-68.0779,-15.5185,716.0928],[-68.0803,-15.5169,665.5861],[-68.0809,-15.518,773.218],[-68.0818,-15.5153,733.1918],[-68.0824,-15.517,679.9172],[-68.0881,-15.5161,654.7618],[-68.0899,-15.5139,722.548],[-68.088,-15.5121,673.2585],[-68.0882,-15.5077,694.7015],[-68.0921,-15.5049,671.0413],[-68.0907,-15.5047,656.8713],[-68.0905,-15.5022,659.879],[-68.0916,-15.5012,707.8115],[-68.0944,-15.5036,686.5353],[-68.0974,-15.5019,678.4886],[-68.096,-15.4996,688.6162],[-68.1013,-15.4991,702.7917],[-68.1004,-15.4976,682.8412],[-68.1023,-15.4949,678.7327],[-68.104,-15.4967,733.829],[-68.1114,-15.4944,763.9397],[-68.1216,-15.4961,715.9651],[-68.127,-15.4953,713.1868],[-68.1298,-15.4972,717.8408],[-68.1282,-15.4979,723.0551],[-68.13,-15.5006,712.8732],[-68.1332,-15.4971,750.7358],[-68.1349,-15.4975,750.7358],[-68.135,-15.4945,849.1744],[-68.1374,-15.4975,756.8026],[-68.1406,-15.4959,801.3618],[-68.1427,-15.4971,749.7913],[-68.1443,-15.4948,775.3524],[-68.1439,-15.491,783.5012],[-68.1461,-15.4883,779.9114],[-68.1507,-15.4872,774.3079],[-68.1521,-15.4884,757.6755],[-68.1544,-15.487,752.7457],[-68.1559,-15.4883,831.3027],[-68.1551,-15.4854,786.8196],[-68.1578,-15.4858,779.3521],[-68.1586,-15.4845,807.1414],[-68.1602,-15.4865,823.2354],[-68.1588,-15.4878,797.0532],[-68.1609,-15.4891,812.122],[-68.1698,-15.4868,884.4216],[-68.1735,-15.4926,926.3751],[-68.1731,-15.4958,878.2457],[-68.1751,-15.4955,880.437],[-68.1766,-15.4973,1082.8505],[-68.1756,-15.4997,978.4161],[-68.1787,-15.501,1031.2456],[-68.1821,-15.5094,1000.2715],[-68.1861,-15.5113,1027.0837],[-68.1858,-15.5154,1017.1736],[-68.1928,-15.5179,992.5736],[-68.1991,-15.5277,1110.0498],[-68.2099,-15.5379,1141.8386],[-68.2103,-15.5434,1211.4163],[-68.2166,-15.5544,1274.3793],[-68.2185,-15.5557,1267.4854],[-68.221,-15.5539,1355.2958],[-68.2229,-15.5545,1379.3767],[-68.2343,-15.5704,1965.3053],[-68.238,-15.571,2115.4446],[-68.2379,-15.5724,2134.1985],[-68.1832,-15.5665,1761.5649],[-68.168,-15.581,1191.4963],[-68.1639,-15.5776,1479.1898],[-68.1576,-15.5765,1588.321],[-68.1543,-15.573,1666.0388],[-68.1551,-15.561,1757.9763],[-68.1537,-15.5581,1799.4867],[-68.1401,-15.5542,1672.3235],[-68.1376,-15.549,1583.6689],[-68.1295,-15.5465,1524.9347],[-68.1206,-15.5572,1450.2786],[-68.1188,-15.5623,1514.7111],[-68.1119,-15.5637,1476.7637],[-68.1048,-15.5619,1471.7021],[-68.101,-15.5563,1417.2927],[-68.0939,-15.5523,1283.7668],[-68.089,-15.5513,1424.2615],[-68.0853,-15.548,1422.1144],[-68.0677,-15.5528,1248.6873],[-68.0598,-15.5502,1327.0928],[-68.0576,-15.5427,1159.26],[-68.0376,-15.5318,1121.4978],[-68.0333,-15.5271,1173.7654],[-68.008,-15.5098,883.6786],[-68.0028,-15.5188,1155.4304],[-67.99,-15.5186,1225.1144],[-67.9845,-15.52,1267.6973],[-67.9821,-15.5272,1322.8654],[-67.9763,-15.5249,1307.431],[-67.9568,-15.5115,1221.7025],[-67.9406,-15.5135,962.9645],[-67.9397,-15.5176,785.7281],[-67.9409,-15.5248,495.9176],[-67.9327,-15.5359,669.8195],[-67.9331,-15.5388,692.971],[-67.9279,-15.5418,531.0173],[-67.9277,-15.5437,535.4138],[-67.9331,-15.5546,568.9995],[-67.933,-15.5591,582.0894],[-67.941,-15.5656,622.8746],[-67.94,-15.5732,721.463],[-67.9381,-15.5762,731.7822],[-67.9548,-15.5871,1010.1364],[-67.9844,-15.6132,1385.203],[-67.9996,-15.6182,1537.4729],[-68.0174,-15.6153,1542.5142],[-68.034,-15.6165,1511.6918],[-68.0368,-15.619,1562.006],[-68.0415,-15.6193,1539.6799],[-68.0447,-15.6246,1527.1194],[-68.0565,-15.6308,1631.6973],[-68.0571,-15.6367,1560.7515],[-68.0663,-15.6426,1623.7136],[-68.0685,-15.6468,1726.911],[-68.0776,-15.6492,1651.092],[-68.0864,-15.6483,1718.8684],[-68.0941,-15.644,1789.9824],[-68.1024,-15.6422,1897.4183],[-68.1109,-15.6481,1990.5072],[-68.1355,-15.6455,2135.531],[-68.1492,-15.6515,1655.5991],[-68.1889,-15.6566,2097.2542],[-68.2029,-15.6725,2082.5706],[-68.2126,-15.6757,2162.093],[-68.2194,-15.681,2253.4653],[-68.2264,-15.6808,2299.9812],[-68.2406,-15.6845,2931.979],[-68.247,-15.694,2744.2476],[-68.2504,-15.7043,2453.3633],[-68.2552,-15.7097,2611.6182],[-68.2597,-15.7127,2864.8708],[-68.2694,-15.7147,3353.8081],[-68.2796,-15.721,3560.8228],[-68.2826,-15.7289,3648.6677],[-68.2887,-15.7358,4038.4131],[-68.2875,-15.742,4320.4478],[-68.2946,-15.7468,4466.5039],[-68.3107,-15.7508,3860.2212],[-68.3172,-15.7563,3832.9583],[-68.3205,-15.7572,3754.7529],[-68.326,-15.7672,3401.9976],[-68.3208,-15.7769,3575.4365],[-68.3262,-15.7935,4067.3354],[-68.3234,-15.8001,4088.752],[-68.324,-15.8042,4118.8076],[-68.3309,-15.8139,4526.8164],[-68.3303,-15.8325,4844.0127],[-68.3315,-15.8354,4804.3779],[-68.3446,-15.8438,4691.1992],[-68.3449,-15.8513,4802.022],[-68.3502,-15.858,4883.7129],[-68.3558,-15.8576,4952.3022],[-68.3579,-15.8598,4741.231],[-68.3583,-15.8642,4777.6982],[-68.3633,-15.8684,4703.7349],[-68.3657,-15.8741,4883.7793],[-68.3713,-15.8809,5045.6934],[-68.3688,-15.8886,5168.1895],[-68.3704,-15.8912,5097.6108],[-68.3664,-15.9085,5332.4517],[-68.3764,-15.9108,4931.1582],[-68.3846,-15.9097,5135.9429],[-68.3903,-15.912,5155.1567],[-68.3954,-15.9157,5279.0537],[-68.4033,-15.9261,5529.5088],[-68.4062,-15.9254,5495.8457],[-68.4119,-15.9318,5308.7759],[-68.4137,-15.9369,5296.6055],[-68.4227,-15.9436,5357.7207],[-68.4272,-15.9442,5239.4438],[-68.5195,-15.9332,4879.8882],[-68.487,-15.9681,4989.2109],[-68.4874,-15.9747,4834.8364],[-68.4924,-15.9822,4792.7891],[-68.4938,-15.9894,4822.9316],[-68.4921,-15.9967,4785.2861],[-68.4888,-15.9994,4718.1113],[-68.4963,-16.014,4676.5254],[-68.4945,-16.0153,4619.0308],[-68.4908,-16.0167,4527.2275],[-68.4675,-16.0167,4668.5391],[-68.4582,-16.0127,4664.4434],[-68.4456,-16.0108,4940.1699],[-68.439,-16.0115,5070.4961],[-68.4203,-16.0082,5382.6709],[-68.4137,-15.9984,5427.709],[-68.4132,-15.9845,5092.9473],[-68.4067,-15.9777,5351.3828],[-68.4047,-15.9714,5420.5664],[-68.3998,-15.9727,5587.2847],[-68.3957,-15.9765,5844.9551],[-68.3916,-15.9765,5805.3662],[-68.3879,-15.9785,5777.8809],[-68.3838,-15.9833,5913.0469],[-68.3808,-15.9935,5811.7896],[-68.3738,-15.9975,5558.5527],[-68.3624,-16.009,5344.5684],[-68.3606,-16.0266,5527.686],[-68.339,-16.0387,5454.0771],[-68.3108,-16.048,5177.3672],[-68.2682,-16.0723,4598.6587],[-68.2515,-16.0841,4758.6748],[-68.241,-16.1079,5029.0654],[-68.2369,-16.1111,4677.144],[-68.2288,-16.0946,4800.168],[-68.217,-16.0854,4924.7949],[-68.2099,-16.068,4935.0332],[-68.2071,-16.0636,4871.5898],[-68.2029,-16.0614,4744.29],[-68.2023,-16.058,4594.5552],[-68.2044,-16.0551,4615.7773],[-68.1796,-16.0526,4635.3535],[-68.1775,-16.0495,4609.9131],[-68.1663,-16.0446,4611.8413],[-68.1621,-16.0508,4591.5557],[-68.1624,-16.0546,4565.3989],[-68.1604,-16.0593,4658.5093],[-68.1446,-16.0526,4279.5288],[-68.1423,-16.0494,4089.5078],[-68.1301,-16.0467,4097.5601],[-68.1252,-16.0486,4198.499],[-68.122,-16.0374,4083.4878],[-68.1165,-16.038,4105.0337],[-68.1114,-16.0421,4194.0225],[-68.1073,-16.0418,4062.0376],[-68.1026,-16.0392,4073.4731],[-68.1002,-16.0435,4090.0703],[-68.0891,-16.0452,4190.8687],[-68.0873,-16.0479,4089.5686],[-68.0829,-16.0487,4071.2954],[-68.0741,-16.0402,4108.0391],[-68.048,-16.0511,2756.8149],[-68.0319,-16.0554,2020.8333],[-68.027,-16.0529,1868.4321],[-68.0209,-16.0522,1543.1614],[-68.0241,-16.0473,1608.7455],[-68.0203,-16.0434,1888.3303],[-68.0077,-16.0454,1338.3108],[-67.991,-16.0448,1160.4386],[-67.9677,-16.04,1010.1416],[-67.9638,-16.0361,1044.9744],[-67.9569,-16.0411,966.6136],[-67.9455,-16.0403,980.0767],[-67.9422,-16.0372,961.9116],[-67.9419,-16.0342,1022.0856],[-67.9378,-16.029,910.9771],[-67.9359,-16.019,926.1807],[-67.9326,-16.0176,898.3284],[-67.9287,-16.0119,860.4893],[-67.9207,-16.0122,870.7677],[-67.9186,-16.0103,834.2471],[-67.9126,-16.0093,913.8748],[-67.9113,-16.0068,842.6353],[-67.9067,-16.0052,841.3715],[-67.8941,-15.9816,843.4623],[-67.8921,-15.9799,770.1271],[-67.889,-15.9801,782.1902],[-67.8891,-15.9747,833.5298],[-67.886,-15.969,765.7975],[-67.8914,-15.9588,1418.0983],[-67.8918,-15.9523,1581.2533],[-67.8801,-15.9247,1687.4757],[-67.862,-15.8953,2152.7712],[-67.8234,-15.8104,1615.2047],[-67.8056,-15.7832,1110.736],[-67.7954,-15.7822,1016.9054],[-67.7926,-15.7857,967.9375],[-67.7897,-15.7822,1048.2385],[-67.7848,-15.7849,1019.6203],[-67.7815,-15.7824,1028.4927],[-67.7634,-15.7886,1101.9485],[-67.7591,-15.7877,1164.9421],[-67.7325,-15.7901,1106.5261],[-67.7255,-15.7851,985.6756],[-67.7173,-15.7848,888.5836],[-67.7219,-15.7661,1165.5955],[-67.721,-15.7642,1172.2738],[-67.7161,-15.7664,1150.6219],[-67.7089,-15.765,1256.3518],[-67.7052,-15.7588,1257.2451],[-67.7072,-15.7562,1252.3606],[-67.7058,-15.7491,1228.2816],[-67.69,-15.7478,734.9056],[-67.6828,-15.7496,518.4346],[-67.6775,-15.7447,498.152]]]]}}