{"type": "Feature","bbox": [-67.9657,-16.3505,-67.549,-15.9994],"geometry": {"type": "MultiPolygon","coordinates": [[[[-67.6736,-16.0066,1780.4725],[-67.6775,-16.0137,1627.1554],[-67.6789,-16.0215,1583.033],[-67.6806,-16.0205,1599.0593],[-67.6819,-16.0235,1469.1234],[-67.6844,-16.0221,1432.5389],[-67.6868,-16.0237,1433.4341],[-67.6892,-16.0207,1446.1412],[-67.6927,-16.0196,1421.0383],[-67.6997,-16.0216,1455.2656],[-67.7019,-16.0166,1510.5596],[-67.7056,-16.0145,1501.7775],[-67.7093,-16.0166,1501.6067],[-67.7149,-16.0133,1513.9888],[-67.7179,-16.0148,1529.1719],[-67.722,-16.0118,1583.5452],[-67.7289,-16.0148,1675.8821],[-67.7291,-16.0113,1767.5927],[-67.7335,-16.0089,1811.8],[-67.7372,-16.0095,1951.7834],[-67.7788,-15.9994,1666.9409],[-67.8097,-16.0019,1830.9836],[-67.8333,-16.017,1310.2418],[-67.842,-16.0383,1828.0281],[-67.8513,-16.0472,2045.6172],[-67.859,-16.0507,2034.2151],[-67.8599,-16.0628,2100.4128],[-67.863,-16.0705,1989.6351],[-67.8617,-16.084,2110.5352],[-67.8626,-16.0968,2542.5244],[-67.867,-16.0939,2160.9309],[-67.8722,-16.0851,1567.3181],[-67.8751,-16.0868,1450.7103],[-67.8756,-16.0898,1497.4912],[-67.8879,-16.0893,2225.7529],[-67.8929,-16.0911,2743.2197],[-67.8962,-16.0868,2781.6455],[-67.9004,-16.0861,2333.062],[-67.9053,-16.0911,2059.4763],[-67.9077,-16.0914,1951.9622],[-67.911,-16.0897,1784.4891],[-67.9133,-16.0905,1703.25],[-67.9183,-16.0852,1612.8896],[-67.9179,-16.0833,1495.7773],[-67.9217,-16.0784,1249.2494],[-67.9253,-16.0802,1358.228],[-67.9261,-16.086,1353.3906],[-67.9247,-16.0891,1366.4434],[-67.9266,-16.0905,1385.6318],[-67.9222,-16.1,1468.8306],[-67.9248,-16.1004,1472.7853],[-67.926,-16.1031,1522.1375],[-67.9281,-16.101,1507.1844],[-67.9313,-16.1008,1692.406],[-67.9319,-16.1079,1701.5088],[-67.9342,-16.1096,1627.7195],[-67.9344,-16.1143,1705.5972],[-67.9362,-16.1157,1668.98],[-67.9405,-16.1154,1752.2673],[-67.9416,-16.1169,1725.9586],[-67.9443,-16.1161,1822.588],[-67.9451,-16.1227,1855.3597],[-67.9526,-16.1259,1894.957],[-67.957,-16.1309,1937.2644],[-67.96,-16.1294,1992.5933],[-67.9588,-16.1345,2003.3344],[-67.9611,-16.1368,2208.4836],[-67.9611,-16.1422,2374.8892],[-67.9578,-16.1442,2258.8162],[-67.9546,-16.1576,2632.7803],[-67.9571,-16.1622,2810.1753],[-67.9558,-16.1663,3057.1743],[-67.9581,-16.1679,3113.5542],[-67.9592,-16.1712,3166.0396],[-67.962,-16.1723,3249.593],[-67.9657,-16.1805,3604.4878],[-67.9626,-16.1832,3508.7705],[-67.9581,-16.1962,2959.7034],[-67.9514,-16.2029,2528.4902],[-67.943,-16.2272,2990.4702],[-67.944,-16.2426,3332.1997],[-67.9491,-16.2518,3747.0664],[-67.9439,-16.2611,4096.8184],[-67.9448,-16.2847,4438.458],[-67.9517,-16.293,4301.8794],[-67.9572,-16.3036,4579.752],[-67.9579,-16.3137,4154.5718],[-67.956,-16.3149,4114.0986],[-67.9565,-16.3246,3799.0959],[-67.954,-16.3312,3620.6138],[-67.9391,-16.3276,3477.1077],[-67.9219,-16.3167,3275.4287],[-67.8908,-16.3098,2834.3442],[-67.8864,-16.3017,2714.8762],[-67.8809,-16.2991,2654.2725],[-67.8689,-16.3025,2536.0732],[-67.8617,-16.3014,2589.2532],[-67.8567,-16.304,2453.447],[-67.8473,-16.3,2392.6719],[-67.84,-16.2988,2342.5769],[-67.8334,-16.3011,2344.9863],[-67.8323,-16.3055,2285.9465],[-67.8264,-16.3122,2256.0059],[-67.8268,-16.3295,2184.2324],[-67.8252,-16.3362,2065.0283],[-67.8187,-16.3478,1937.9897],[-67.813,-16.3505,1884.212],[-67.8069,-16.346,2428.6807],[-67.7985,-16.3426,3013.3091],[-67.7952,-16.334,3540.7871],[-67.7972,-16.3283,3625.7834],[-67.792,-16.3245,3421.8296],[-67.7882,-16.3252,3320.2915],[-67.7803,-16.3177,3071.355],[-67.7673,-16.3145,2251.1926],[-67.7589,-16.3073,1964.7589],[-67.7527,-16.3158,2132.9138],[-67.7456,-16.3198,2391.3682],[-67.736,-16.3154,2666.7134],[-67.7331,-16.3128,3027.4128],[-67.7335,-16.3109,3109.425],[-67.7209,-16.3013,2732.4839],[-67.7149,-16.299,2857.1855],[-67.7059,-16.2982,2606.1094],[-67.6788,-16.255,2442.2234],[-67.6804,-16.2476,2665.675],[-67.6571,-16.2416,1986.9158],[-67.6524,-16.2346,2017.7468],[-67.6511,-16.2272,1861.0642],[-67.6537,-16.2237,1866.0911],[-67.6561,-16.2115,1603.8063],[-67.6585,-16.2118,1559.5221],[-67.6574,-16.2081,1390.4175],[-67.6551,-16.2087,1444.5063],[-67.6487,-16.2048,1574.6776],[-67.6439,-16.2046,1574.4789],[-67.6365,-16.2013,1658.7819],[-67.6223,-16.2002,1944.0688],[-67.6158,-16.1931,2261.2656],[-67.6127,-16.1926,2300.0742],[-67.6119,-16.1904,2406.1848],[-67.6059,-16.1875,2703.0928],[-67.6024,-16.1813,2966.8208],[-67.603,-16.1758,2406.5708],[-67.5832,-16.161,1698.5298],[-67.5831,-16.1583,1684.5107],[-67.58,-16.1538,1607.7655],[-67.581,-16.1506,1562.6174],[-67.5764,-16.147,1573.6293],[-67.5762,-16.1443,1630.3195],[-67.5661,-16.1286,1427.8217],[-67.5638,-16.1115,1633.925],[-67.5595,-16.0956,1790.1385],[-67.5556,-16.0876,2309.0105],[-67.5557,-16.0746,1798.8228],[-67.549,-16.0457,1347.9967],[-67.5994,-16.0548,2140.0393],[-67.6117,-16.0596,1511.679],[-67.6194,-16.0601,988.3464],[-67.6243,-16.0548,931.8751],[-67.6241,-16.0489,944.8625],[-67.6275,-16.0464,957.2149],[-67.6292,-16.0384,877.2856],[-67.6327,-16.0326,805.1402],[-67.6374,-16.0312,837.3765],[-67.6427,-16.0326,831.7153],[-67.6488,-16.0235,1424.1738],[-67.6646,-16.0091,1773.611],[-67.6736,-16.0066,1780.4725]]]]}
,"properties": {"GID_3": "BOL.4.18.2_2","GID_0": "BOL","country": "Bolivia","GID_1": "BOL.4_1","province": "LaPaz","NL_NAME_1": "NA","GID_2": "BOL.4.18_2","county": "NorYungas","NL_NAME_2": "NA","city": "Coroico","VARNAME_3": "NA","NL_NAME_3": "NA","TYPE_3": "District","ENGTYPE_3": "Distrito","CC_3": "NA","HASC_3": "NA","name": "Coroico.city","area_km2": 1095.0642,"hist_schema_id": "Elevation0-9000","hist_area_km2": {"775": 0.0204,"800": 0.1834,"825": 0.326,"850": 0.6724,"875": 0.5909,"900": 1.2224,"925": 1.5891,"950": 1.9558,"975": 2.7908,"1000": 2.913,"1025": 3.3206,"1050": 4.0534,"1075": 4.1962,"1100": 4.8682,"1125": 6.5384,"1150": 6.2124,"1175": 6.3754,"1200": 7.6995,"1225": 8.3306,"1250": 9.5933,"1275": 9.3083,"1300": 10.6933,"1325": 10.7341,"1350": 12.1596,"1375": 12.4245,"1400": 13.2392,"1425": 14.0743,"1450": 16.0091,"1475": 15.2763,"1500": 17.1093,"1525": 17.761,"1550": 18.0053,"1575": 18.8403,"1600": 19.838,"1625": 19.268,"1650": 21.9971,"1675": 20.1843,"1700": 20.0618,"1725": 19.5121,"1750": 18.7992,"1775": 18.8803,"1800": 20.6523,"1825": 19.3279,"1850": 19.002,"1875": 18.9,"1900": 18.1258,"1925": 18.0848,"1950": 17.1681,"1975": 17.8201,"2000": 16.3939,"2025": 17.1883,"2050": 15.5996,"2075": 16.3323,"2100": 14.9476,"2125": 15.8837,"2150": 14.9062,"2175": 14.356,"2200": 13.5622,"2225": 13.5411,"2250": 13.7448,"2275": 14.0505,"2300": 13.1132,"2325": 12.8686,"2350": 13.0313,"2375": 11.2194,"2400": 12.3596,"2425": 11.8094,"2450": 12.3186,"2475": 11.2798,"2500": 11.7077,"2525": 11.4631,"2550": 11.4425,"2575": 10.7504,"2600": 9.5289,"2625": 10.0173,"2650": 9.0602,"2675": 7.9198,"2700": 8.3883,"2725": 8.3067,"2750": 7.8586,"2775": 7.818,"2800": 7.1255,"2825": 6.6573,"2850": 6.1889,"2875": 5.7816,"2900": 5.3744,"2925": 4.6211,"2950": 5.1912,"2975": 4.6007,"3000": 4.0511,"3025": 4.3564,"3050": 4.1121,"3075": 4.1933,"3100": 3.4402,"3125": 3.5621,"3150": 2.972,"3175": 3.5214,"3200": 3.1143,"3225": 2.8293,"3250": 2.9516,"3275": 2.7684,"3300": 2.4425,"3325": 2.2594,"3350": 2.3001,"3375": 1.8319,"3400": 2.2798,"3425": 1.7098,"3450": 2.1372,"3475": 1.9336,"3500": 1.7505,"3525": 1.9133,"3550": 1.608,"3575": 1.3434,"3600": 1.5673,"3625": 1.2618,"3650": 1.2211,"3675": 1.0583,"3700": 0.8344,"3725": 0.6512,"3750": 0.8547,"3775": 0.7937,"3800": 0.5902,"3825": 0.7937,"3850": 0.6512,"3875": 0.7326,"3900": 0.8547,"3925": 0.8547,"3950": 0.6105,"3975": 0.6512,"4000": 0.4884,"4025": 0.7937,"4050": 0.7937,"4075": 0.6716,"4100": 0.7326,"4125": 0.5291,"4150": 0.4884,"4175": 0.5495,"4200": 0.6309,"4225": 0.4274,"4250": 0.4477,"4275": 0.5087,"4300": 0.5902,"4325": 0.2849,"4350": 0.3256,"4375": 0.3867,"4400": 0.2239,"4425": 0.4477,"4450": 0.2645,"4475": 0.2442,"4500": 0.1221,"4525": 0.2035,"4550": 0.1831,"4575": 0.0814,"4600": 0.1424,"4625": 0.0814,"4650": 0.0203,"4675": 0.0203}}}