{"type": "Feature","bbox": [-65.9012,-17.7223,-65.7934,-17.5848],"geometry": {"type": "MultiPolygon","coordinates": [[[[-65.813,-17.5968,2704.2808],[-65.8243,-17.5984,2703.2739],[-65.83,-17.5908,2702.6282],[-65.8357,-17.5888,2701.8657],[-65.8447,-17.5942,2699.9829],[-65.8545,-17.5931,2699.124],[-65.8662,-17.5973,2698.126],[-65.8733,-17.5938,2697.3147],[-65.8796,-17.5949,2697.0115],[-65.8873,-17.5848,2696.7954],[-65.887,-17.6042,2702.4888],[-65.8721,-17.6064,2705.1941],[-65.8814,-17.6248,2723.4868],[-65.8879,-17.6245,2722.5681],[-65.8889,-17.6259,2725.6272],[-65.889,-17.6317,2735.0176],[-65.8947,-17.6395,2747.9656],[-65.8956,-17.6454,2759.7583],[-65.9012,-17.6565,2783.7859],[-65.8994,-17.6625,2799.9131],[-65.8999,-17.6707,2826.72],[-65.8931,-17.6784,2856.5254],[-65.8942,-17.6836,2857.1758],[-65.8911,-17.688,2882.2402],[-65.8915,-17.6916,2903.7368],[-65.883,-17.6971,2927.6772],[-65.8779,-17.6977,2964.572],[-65.8778,-17.7019,2987.3352],[-65.8649,-17.7188,2979.7939],[-65.8578,-17.7201,2988.9072],[-65.855,-17.7223,2999.085],[-65.8523,-17.7218,3012.8872],[-65.8505,-17.72,3014.8633],[-65.8487,-17.7117,3119.2085],[-65.8369,-17.7078,3162.3252],[-65.835,-17.7027,3090.0122],[-65.8325,-17.7023,3156.8403],[-65.8289,-17.6962,3209.8328],[-65.8251,-17.6952,3235.426],[-65.8226,-17.6917,3210.448],[-65.8249,-17.6923,3232.3018],[-65.833,-17.6899,2997.2209],[-65.8343,-17.6863,2983.79],[-65.8326,-17.6778,3016.5488],[-65.8283,-17.6748,3031.0366],[-65.8228,-17.6662,3211.2041],[-65.8236,-17.6583,2937.7798],[-65.8191,-17.6415,2783.646],[-65.8165,-17.6392,2771.8811],[-65.8136,-17.641,2784.3464],[-65.806,-17.6384,2792.8862],[-65.8076,-17.6359,2782.7595],[-65.8062,-17.6327,2771.9553],[-65.8069,-17.6275,2846.5132],[-65.799,-17.616,2851.6155],[-65.7934,-17.6109,2956.2764],[-65.7958,-17.6079,2771.5588],[-65.796,-17.6033,2856.5938],[-65.8017,-17.5993,2705.3179],[-65.813,-17.5968,2704.2808]]]]}
,"properties": {"GID_3": "BOL.2.13.5_2","GID_0": "BOL","country": "Bolivia","GID_1": "BOL.2_1","province": "Cochabamba","NL_NAME_1": "NA","GID_2": "BOL.2.13_2","county": "Punata","NL_NAME_2": "NA","city": "VillaRivero","VARNAME_3": "NA","NL_NAME_3": "NA","TYPE_3": "District","ENGTYPE_3": "Distrito","CC_3": "NA","HASC_3": "NA","name": "Villa_Rivero.city","area_km2": 100.13275,"hist_schema_id": "Elevation0-9000","hist_area_km2": {"2700": 17.31946,"2725": 13.25609,"2750": 9.94132,"2775": 6.99097,"2800": 4.08135,"2825": 3.3741,"2850": 2.80836,"2875": 2.80828,"2900": 3.3132,"2925": 3.67676,"2950": 4.1817,"2975": 5.5148,"3000": 5.55495,"3025": 5.29236,"3050": 4.20156,"3075": 1.91902,"3100": 1.33321,"3125": 1.21202,"3150": 0.94942,"3175": 0.78781,"3200": 0.3838,"3225": 0.2626,"3250": 0.3434,"3275": 0.4444,"3300": 0.101,"3325": 0.0808}}}