{"type":"Feature","properties":{"GID_2":"BOL.1.8_2","GID_0":"BOL","country":"Bolivia","GID_1":"BOL.1_1","province":"Chuquisaca","NL_NAME_1":"NA","county":"Tomina","VARNAME_2":"NA","NL_NAME_2":"NA","TYPE_2":"Provincia","ENGTYPE_2":"Province","CC_2":"NA","HASC_2":"NA","name":"Tomina.county"},
"geometry":{"type": "MultiPolygon","coordinates": [[[[-64.3112,-19.8525,3143.2307],[-64.3132,-19.8576,3289.1514],[-64.3103,-19.8603,3354.2256],[-64.2985,-19.8618,3240.5574],[-64.2937,-19.8597,3147.7629],[-64.287,-19.8612,2917.8743],[-64.2786,-19.8585,2729.1677],[-64.2647,-19.8619,2481.7642],[-64.2579,-19.8661,2347.7114],[-64.247,-19.8671,2432.3857],[-64.2415,-19.8569,2609.6133],[-64.233,-19.855,2739.603],[-64.2184,-19.8628,1993.199],[-64.2026,-19.8685,1551.8345],[-64.1941,-19.8746,1387.583],[-64.1882,-19.8733,1372.7423],[-64.1877,-19.8697,1316.2823],[-64.1861,-19.871,1311.7306],[-64.1833,-19.8702,1368.5094],[-64.1817,-19.8749,1321.6305],[-64.1766,-19.8739,1304.2694],[-64.1747,-19.8706,1332.933],[-64.1766,-19.8653,1421.8245],[-64.1749,-19.8628,1515.3977],[-64.1674,-19.86,1696.7585],[-64.1661,-19.8508,2080.9224],[-64.1626,-19.8483,2082.5784],[-64.1605,-19.8434,2028.771],[-64.1622,-19.8372,2103.9487],[-64.1608,-19.8329,2142.2122],[-64.1617,-19.8255,2027.9625],[-64.1603,-19.8229,2038.0662],[-64.1641,-19.7923,2228.092],[-64.1619,-19.7641,2248.8591],[-64.1582,-19.7568,2217.241],[-64.165,-19.7488,2184.1221],[-64.1688,-19.7388,2207.7632],[-64.1638,-19.7259,2174.1013],[-64.1599,-19.7226,2228.7986],[-64.168,-19.712,2298.1533],[-64.1653,-19.7016,2395.7786],[-64.1602,-19.6968,2410.144],[-64.165,-19.6879,2350.7578],[-64.1651,-19.6765,2298.2312],[-64.1549,-19.6879,1875.0767],[-64.1477,-19.6911,1649.9412],[-64.1413,-19.6905,1524.4194],[-64.1342,-19.6865,1413.9565],[-64.1273,-19.6849,1507.5841],[-64.1261,-19.6899,1254.3582],[-64.1222,-19.6882,1186.9197],[-64.1175,-19.69,1162.8335],[-64.1091,-19.6884,1132.0276],[-64.0941,-19.69,1330.149],[-64.0799,-19.6888,1835.8461],[-64.0785,-19.683,1718.4792],[-64.0809,-19.6789,1772.8177],[-64.0806,-19.6704,1712.5024],[-64.083,-19.6674,1828.8817],[-64.0804,-19.6541,1578.8865],[-64.079,-19.6291,1506.6986],[-64.0832,-19.611,1132.5699],[-64.0762,-19.6113,1031.0253],[-64.0731,-19.6086,1060.9261],[-64.0726,-19.606,1148.1572],[-64.0695,-19.6078,1033.3076],[-64.0709,-19.6098,1035.1577],[-64.0685,-19.6132,1020.9081],[-64.0651,-19.614,1059.3514],[-64.064,-19.6057,1085.1438],[-64.0682,-19.6068,1024.0352],[-64.0692,-19.605,1068.3519],[-64.0582,-19.602,1021.4864],[-64.062,-19.5996,997.9072],[-64.0612,-19.591,1013.9646],[-64.0592,-19.592,1005.9771],[-64.0585,-19.5957,991.2612],[-64.05,-19.5926,1005.53],[-64.0502,-19.5902,1030.5361],[-64.0528,-19.5884,995.579],[-64.0516,-19.5846,984.2629],[-64.0403,-19.5828,1085.1925],[-64.0378,-19.5847,1003.163],[-64.0298,-19.5852,1016.9477],[-64.011,-19.581,963.7595],[-64.0036,-19.5749,946.7974],[-63.994,-19.5629,1036.2218],[-63.9914,-19.5628,994.6218],[-63.9889,-19.5649,936.2076],[-63.9848,-19.5641,936.2309],[-63.9825,-19.5578,975.1796],[-63.9797,-19.5552,946.4512],[-63.9826,-19.5506,926.4312],[-63.9793,-19.5452,932.9291],[-63.9815,-19.5431,929.4563],[-63.9846,-19.5449,947.0988],[-63.9862,-19.5424,930.4198],[-63.9847,-19.5407,980.1638],[-63.9815,-19.541,923.0519],[-63.9784,-19.5358,917.5126],[-63.9785,-19.5274,926.4117],[-63.9738,-19.5257,1005.8624],[-63.9745,-19.5204,915.4816],[-63.9721,-19.5143,960.0488],[-63.9735,-19.5109,921.3225],[-63.9795,-19.508,914.5659],[-63.9761,-19.5042,1031.2927],[-63.9783,-19.4997,897.3439],[-63.9759,-19.4954,908.6434],[-63.9771,-19.4933,901.9363],[-63.9735,-19.4925,889.7675],[-63.9724,-19.4895,887.5955],[-63.9734,-19.4878,954.7125],[-63.9783,-19.4879,892.8285],[-63.9786,-19.4859,974.6284],[-63.9705,-19.4805,890.7685],[-63.9723,-19.477,891.1074],[-63.9771,-19.477,886.8738],[-63.9775,-19.4759,921.3842],[-63.969,-19.4684,884.272],[-63.9707,-19.4619,895.4151],[-63.97,-19.4606,921.846],[-63.9675,-19.4615,990.4449],[-63.9666,-19.4551,895.3512],[-63.9612,-19.4528,905.8538],[-63.9629,-19.447,872.3603],[-63.962,-19.4444,938.7438],[-63.9562,-19.4423,867.7787],[-63.9552,-19.4405,936.9724],[-63.9572,-19.4376,887.7872],[-63.9601,-19.439,889.5746],[-63.9643,-19.4341,898.0786],[-63.9673,-19.4335,891.411],[-63.9631,-19.4261,924.0537],[-63.9647,-19.4248,865.8737],[-63.9667,-19.4268,890.4225],[-63.9696,-19.4266,881.4406],[-63.9717,-19.4223,869.9021],[-63.9696,-19.419,918.5505],[-63.9753,-19.4167,867.7025],[-63.973,-19.4102,890.6125],[-63.976,-19.4011,921.7111],[-63.9848,-19.3994,844.5375],[-63.9868,-19.3969,879.233],[-63.9877,-19.3873,851.4669],[-63.9863,-19.3875,857.1243],[-63.9838,-19.392,824.8333],[-63.98,-19.3908,836.5786],[-63.9774,-19.3858,827.2935],[-63.98,-19.3826,827.5559],[-63.9867,-19.3823,853.9564],[-63.9852,-19.3709,828.6528],[-63.9808,-19.3718,805.8221],[-63.979,-19.3701,807.5414],[-63.9821,-19.3688,803.5312],[-63.9847,-19.3627,798.9564],[-63.9914,-19.3557,791.2806],[-63.9895,-19.3514,790.9705],[-63.99,-19.3459,869.5616],[-63.9924,-19.3442,840.9589],[-63.9941,-19.3458,784.4319],[-63.9959,-19.3446,809.6357],[-63.9936,-19.3414,781.7139],[-63.9937,-19.3352,814.9453],[-63.9882,-19.336,805.1515],[-63.9923,-19.3266,784.3055],[-63.9919,-19.3243,772.7948],[-63.9878,-19.3216,784.564],[-63.9956,-19.3206,769.7043],[-63.9997,-19.3223,779.5891],[-63.9981,-19.3132,752.7432],[-63.9967,-19.3124,770.8392],[-63.994,-19.3159,749.5715],[-63.9941,-19.312,755.1064],[-63.9957,-19.3082,749.9501],[-63.9993,-19.3095,800.0664],[-64.0029,-19.3058,765.0013],[-64.0008,-19.2942,745.8608],[-64.0038,-19.2869,780.6104],[-64.0027,-19.286,767.2339],[-63.9984,-19.2878,752.7278],[-64.0002,-19.2834,744.6186],[-63.9957,-19.2827,739.7695],[-63.9966,-19.2777,743.1062],[-63.9951,-19.2749,742.9951],[-64.0026,-19.2704,742.9001],[-63.9989,-19.2586,777.4741],[-63.9953,-19.2556,719.8405],[-63.9956,-19.2541,738.0426],[-63.9997,-19.2528,787.9891],[-63.9971,-19.2444,726.3975],[-63.9988,-19.2365,710.3536],[-63.9967,-19.2338,716.4135],[-63.9972,-19.2326,710.3266],[-64.0003,-19.2327,702.8076],[-64.0005,-19.2287,690.5],[-63.9981,-19.2258,740.6583],[-63.9988,-19.2212,733.1664],[-64.0013,-19.217,695.4506],[-64.0045,-19.2154,693.4133],[-64.0033,-19.2138,723.718],[-64.001,-19.2143,684.3125],[-63.9993,-19.2104,687.2557],[-64.0042,-19.2017,677.6911],[-64.0089,-19.2007,679.1097],[-64.0095,-19.1931,673.2078],[-64.0081,-19.1884,694.9044],[-64.013,-19.1833,670.204],[-64.0099,-19.1798,676.0062],[-64.0165,-19.174,661.2655],[-64.0187,-19.1668,727.8454],[-64.024,-19.1645,668.1456],[-64.0225,-19.1567,672.3127],[-64.0346,-19.1559,699.88],[-64.0438,-19.1596,742.1465],[-64.056,-19.1551,751.5778],[-64.0604,-19.1586,790.6002],[-64.066,-19.1584,768.9634],[-64.0684,-19.1568,790.3475],[-64.0708,-19.1594,791.2523],[-64.0788,-19.1613,848.9117],[-64.0835,-19.1652,869.6674],[-64.0869,-19.1647,858.2127],[-64.0861,-19.1677,856.7711],[-64.0919,-19.1657,880.5386],[-64.094,-19.1674,894.0463],[-64.0966,-19.1666,911.6362],[-64.1008,-19.1762,977.9265],[-64.1004,-19.1793,1003.2609],[-64.1038,-19.1833,1090.0416],[-64.1081,-19.1862,1014.7054],[-64.1078,-19.184,992.4614],[-64.1092,-19.1841,1029.6644],[-64.1209,-19.1944,1092.8455],[-64.1238,-19.1954,1108.4783],[-64.1323,-19.1903,1183.8038],[-64.1461,-19.1896,1261.3612],[-64.1482,-19.1881,1244.2513],[-64.1497,-19.1908,1312.4437],[-64.1548,-19.1931,1376.0466],[-64.1559,-19.1972,1463.5461],[-64.1627,-19.1976,1703.3687],[-64.1626,-19.1958,1719.7175],[-64.1644,-19.1956,1787.4113],[-64.1702,-19.198,1987.0555],[-64.1837,-19.1997,2230.688],[-64.2288,-19.2015,2023.9447],[-64.2334,-19.2074,1925.9497],[-64.2328,-19.2141,1825.9167],[-64.2352,-19.2147,1829.3346],[-64.2333,-19.2169,1856.7329],[-64.234,-19.219,1883.1241],[-64.2373,-19.2191,1874.5348],[-64.2381,-19.221,1853.8782],[-64.2462,-19.2241,1929.468],[-64.2526,-19.2209,1921.2346],[-64.2515,-19.219,1920.2135],[-64.2529,-19.2169,1910.3888],[-64.2485,-19.2118,1941.7026],[-64.2508,-19.21,1947.6317],[-64.2551,-19.2111,1929.7792],[-64.2547,-19.2057,1988.1871],[-64.2559,-19.2077,1944.6865],[-64.2576,-19.2073,1952.0441],[-64.2601,-19.2025,1957.2009],[-64.2631,-19.2013,1961.2518],[-64.2779,-19.2037,2218.5103],[-64.2742,-19.1947,2090.4597],[-64.2768,-19.1853,2095.2598],[-64.2738,-19.1791,2036.0424],[-64.2709,-19.177,2017.6125],[-64.2736,-19.1768,2021.969],[-64.2737,-19.1749,2031.7888],[-64.2777,-19.1753,2030.5251],[-64.2783,-19.1714,2032.7113],[-64.2906,-19.1764,2109.23],[-64.3077,-19.1797,2267.2046],[-64.3268,-19.176,2248.2715],[-64.3342,-19.1797,2179.4348],[-64.3414,-19.1788,2471.0532],[-64.3387,-19.1656,2527.0996],[-64.342,-19.1564,2291.804],[-64.3401,-19.1489,2417.7075],[-64.3425,-19.1465,2455.0823],[-64.3432,-19.1429,2465.6428],[-64.3465,-19.14,2420.9907],[-64.351,-19.1402,2256.4587],[-64.3575,-19.1454,2316.7441],[-64.3611,-19.1462,2309.1445],[-64.3616,-19.1438,2273.7646],[-64.3833,-19.1485,2576.4395],[-64.3878,-19.1409,2743.9458],[-64.3909,-19.1234,2876.71],[-64.3984,-19.1191,2815.5149],[-64.403,-19.113,2789.0505],[-64.4034,-19.0982,2839.0603],[-64.3988,-19.0871,2967.0703],[-64.4043,-19.0641,3105.4355],[-64.4202,-19.0517,2983.4028],[-64.4314,-19.0312,2851.7693],[-64.435,-19.0176,2973.9714],[-64.4445,-19.0146,2546.9431],[-64.4655,-18.9899,2406.4365],[-64.4684,-18.9794,1973.6735],[-64.4675,-18.9746,1873.1045],[-64.4608,-18.9725,1973.4866],[-64.4608,-18.9654,1956.5161],[-64.4539,-18.9503,2190.1511],[-64.446,-18.9488,2422.5237],[-64.4441,-18.9462,2610.2065],[-64.4629,-18.9062,2409.9287],[-64.4731,-18.8966,2111.6562],[-64.4791,-18.8823,1547.333],[-64.4855,-18.8813,1618.0828],[-64.4856,-18.8846,1623.4921],[-64.488,-18.8844,1707.5946],[-64.4871,-18.8878,1581.9023],[-64.4894,-18.8878,1670.4978],[-64.49,-18.8909,1646.1177],[-64.4987,-18.8925,1586.5709],[-64.5014,-18.8945,1593.6134],[-64.5021,-18.8998,1604.4753],[-64.5054,-18.9027,1619.7136],[-64.5065,-18.9069,1609.1803],[-64.505,-18.914,1687.9736],[-64.5075,-18.9252,1637.6416],[-64.5039,-18.9295,1656.4591],[-64.5042,-18.9456,1666.9004],[-64.4997,-18.9614,1692.6305],[-64.4994,-18.9698,1703.4105],[-64.501,-18.9731,1708.162],[-64.4994,-18.981,1715.1958],[-64.5008,-18.9852,1722.0718],[-64.4987,-19.0028,1744.218],[-64.503,-19.0038,1761.6356],[-64.5032,-19.0071,1766.2712],[-64.5064,-19.0071,1766.3243],[-64.5057,-19.0037,1788.4702],[-64.5181,-18.999,1892.8619],[-64.5223,-19.0026,1837.7495],[-64.526,-19.0028,1839.468],[-64.5302,-18.9995,1847.6523],[-64.5403,-19.0003,1873.4796],[-64.5432,-18.9985,1877.9508],[-64.5609,-18.9966,1936.9143],[-64.5676,-18.9985,1974.3259],[-64.5707,-19.0017,2017.5676],[-64.5769,-19.0022,2029.9834],[-64.5788,-19.0058,2053.2363],[-64.5859,-19.0066,2119.8367],[-64.5916,-19.0096,2239.6665],[-64.5856,-19.0169,2472.7148],[-64.6196,-19.0562,2630.175],[-64.613,-19.071,2218.5447],[-64.6066,-19.0764,2047.9286],[-64.599,-19.0905,2066.1299],[-64.5953,-19.0934,2073.5425],[-64.594,-19.0965,2084.4565],[-64.5968,-19.099,2095.2705],[-64.597,-19.1082,2125.4548],[-64.5916,-19.1083,2245.2666],[-64.5875,-19.1182,2230.9648],[-64.5904,-19.1276,2271.8381],[-64.5951,-19.1318,2517.6121],[-64.5922,-19.1376,2537.7441],[-64.5934,-19.1423,2531.7349],[-64.5912,-19.1449,2581.7061],[-64.5927,-19.1543,2675.5398],[-64.5899,-19.1586,2593.48],[-64.5848,-19.1606,2373.9688],[-64.584,-19.1631,2386.033],[-64.5863,-19.1655,2452.8052],[-64.5841,-19.1704,2506.1096],[-64.5893,-19.1724,2529.0093],[-64.59,-19.1793,2542.5439],[-64.5882,-19.1871,2663.5054],[-64.5802,-19.2046,2617.3696],[-64.5819,-19.2082,2584.7827],[-64.5777,-19.2185,2480.0374],[-64.5903,-19.2379,2821.9966],[-64.5947,-19.2419,2820.8533],[-64.5929,-19.251,2848.9956],[-64.5894,-19.2519,2796.6294],[-64.5849,-19.2564,2855.4854],[-64.5826,-19.2676,2889.2498],[-64.5779,-19.2687,2807.3296],[-64.5754,-19.2714,2787.896],[-64.5762,-19.2738,2795.0327],[-64.5741,-19.2757,2773.3945],[-64.5746,-19.2788,2807.6113],[-64.5722,-19.2825,2765.0505],[-64.5727,-19.2872,2714.6636],[-64.5787,-19.2936,2526.6016],[-64.5819,-19.294,2545.6711],[-64.582,-19.2997,2467.2427],[-64.5842,-19.2985,2495.356],[-64.588,-19.3002,2505.2542],[-64.5878,-19.3015,2546.0432],[-64.5943,-19.306,2570.4976],[-64.5994,-19.306,2589.6899],[-64.5994,-19.3035,2658.7107],[-64.605,-19.3035,2600.6348],[-64.6095,-19.3062,2634.2236],[-64.6136,-19.3139,2694.7009],[-64.6168,-19.3143,2750.1606],[-64.6182,-19.3165,2750.7771],[-64.6275,-19.3145,2859.2043],[-64.6296,-19.3161,2879.6453],[-64.632,-19.3156,2932.6411],[-64.6462,-19.3209,3124.1487],[-64.6536,-19.3216,3337.552],[-64.6629,-19.3285,3366.9724],[-64.6603,-19.3368,3259.6755],[-64.6572,-19.3408,3130.1255],[-64.652,-19.3442,3041.3496],[-64.6389,-19.3459,2844.7095],[-64.632,-19.3552,3174.7649],[-64.6382,-19.3658,3121.7402],[-64.6403,-19.382,3180.6562],[-64.6581,-19.3954,3550.3784],[-64.6633,-19.4028,3566.1411],[-64.6638,-19.4237,3707.8464],[-64.66,-19.4262,3715.6968],[-64.6567,-19.432,3542.866],[-64.6567,-19.4388,3485.8425],[-64.6598,-19.4465,3654.512],[-64.6573,-19.4521,3626.709],[-64.6513,-19.4562,3558.3521],[-64.6413,-19.4716,3496.55],[-64.631,-19.4775,3390.7832],[-64.6295,-19.4817,3410.2007],[-64.6346,-19.5064,3321.9165],[-64.6349,-19.5334,3637.9272],[-64.6329,-19.545,3957.446],[-64.6332,-19.5596,3977.4771],[-64.6289,-19.5625,4087.1909],[-64.6285,-19.5662,4117.4897],[-64.6231,-19.5692,3986.3232],[-64.6151,-19.5638,3809.0024],[-64.6028,-19.5636,3619.0398],[-64.5994,-19.5671,3512.4414],[-64.5942,-19.5661,3462.1729],[-64.5932,-19.5645,3441.4478],[-64.5825,-19.5645,3332.1475],[-64.5511,-19.5683,2787.2529],[-64.5371,-19.5525,2561.7129],[-64.5315,-19.55,2479.3293],[-64.5225,-19.5556,2470.854],[-64.5184,-19.5523,2457.8054],[-64.5132,-19.5567,2504.9321],[-64.5102,-19.5562,2586.7112],[-64.5068,-19.5609,2544.3188],[-64.5072,-19.565,2479.1396],[-64.5051,-19.5686,2482.1904],[-64.4975,-19.576,2574.9214],[-64.4807,-19.5767,2308.999],[-64.4756,-19.5692,2150.9958],[-64.4702,-19.5648,2078.3027],[-64.4548,-19.5613,1927.937],[-64.4528,-19.5631,1932.4047],[-64.453,-19.5662,1923.7997],[-64.4471,-19.5713,1974.0121],[-64.4494,-19.5782,1903.2037],[-64.4484,-19.5845,1895.8879],[-64.4347,-19.5819,2198.9507],[-64.4231,-19.5839,2357.293],[-64.4269,-19.5929,2553.6345],[-64.4278,-19.6122,2668.6777],[-64.417,-19.651,2517.6597],[-64.4177,-19.6598,2352.2295],[-64.4143,-19.6741,2316.636],[-64.4082,-19.6895,2278.7598],[-64.4065,-19.699,2112.7041],[-64.3982,-19.7045,1932.1807],[-64.3766,-19.708,2158.3003],[-64.3691,-19.7118,2424.0391],[-64.3736,-19.7158,2444.3679],[-64.3711,-19.7262,2385.0027],[-64.3752,-19.7312,2467.2266],[-64.3764,-19.7371,2533.0442],[-64.3705,-19.7462,2549.9507],[-64.3757,-19.7487,2601.21],[-64.3749,-19.7543,2524.8003],[-64.3708,-19.7605,2531.9639],[-64.3786,-19.7651,2405.2402],[-64.383,-19.7653,2533.7832],[-64.389,-19.7705,2554.583],[-64.3911,-19.7749,2565.1948],[-64.4017,-19.776,2747.6458],[-64.404,-19.7795,2678.9421],[-64.4051,-19.7861,2544.9365],[-64.4095,-19.7905,2590.7529],[-64.4089,-19.7933,2581.2729],[-64.4031,-19.8,2645.4702],[-64.4036,-19.8024,2593.2224],[-64.4089,-19.8077,2550.2754],[-64.4143,-19.8093,2666.6165],[-64.4139,-19.8224,2724.8696],[-64.4028,-19.8269,2634.2788],[-64.3617,-19.8297,2033.3363],[-64.3368,-19.8394,1900.2048],[-64.3309,-19.8476,2058.7688],[-64.3112,-19.8525,3143.2307]]]]}}