{"type":"Feature","properties":{"GID_3":"BOL.5.6.2_2","GID_0":"BOL","country":"Bolivia","GID_1":"BOL.5_1","province":"Oruro","NL_NAME_1":"NA","GID_2":"BOL.5.6_2","county":"Mejillones","NL_NAME_2":"NA","city":"LaRivera","VARNAME_3":"NA","NL_NAME_3":"NA","TYPE_3":"District","ENGTYPE_3":"Distrito","CC_3":"NA","HASC_3":"NA","name":"La_Rivera.city"},
"geometry":{"type": "MultiPolygon","coordinates": [[[[-68.6876,-18.9561,4525.5449],[-68.687,-18.9742,4268.5454],[-68.6852,-18.9757,4253.3164],[-68.6837,-18.9837,4091.9702],[-68.6807,-18.9892,4049.7456],[-68.6813,-18.999,3897.3135],[-68.6758,-19.0089,3872.3774],[-68.6787,-19.0103,3872.9426],[-68.6824,-19.0092,3875.7769],[-68.6859,-19.0127,3891.4529],[-68.6892,-19.0198,3933.623],[-68.6964,-19.026,4009.5793],[-68.6997,-19.0311,4053.8486],[-68.7043,-19.0643,4982.4062],[-68.7019,-19.0706,5168.5088],[-68.7081,-19.0745,4995.5039],[-68.7105,-19.0923,4624.2964],[-68.7509,-19.133,4476.1953],[-68.7364,-19.1556,4654.6982],[-68.7131,-19.1702,4755.8169],[-68.6981,-19.1461,5833.6802],[-68.6898,-19.1463,5550.3906],[-68.6689,-19.1404,5442.4629],[-68.6506,-19.1439,5450.894],[-68.6382,-19.1442,5429.7959],[-68.6348,-19.1374,5419.0605],[-68.6269,-19.1316,5263.147],[-68.6178,-19.1308,5457.0264],[-68.6197,-19.1216,5140.1709],[-68.6028,-19.0547,3939.6626],[-68.5957,-19.0553,3999.5234],[-68.5991,-19.0495,3831.8384],[-68.5973,-19.0298,3802.4409],[-68.5915,-19.0149,3894.3853],[-68.5975,-19.0039,4295.7822],[-68.5966,-18.9963,4286.2686],[-68.5916,-18.9926,4166.209],[-68.5871,-18.9837,4067.6445],[-68.5925,-18.9774,4324.0332],[-68.6071,-18.9705,4132.9023],[-68.6126,-18.9641,3986.0635],[-68.626,-18.9716,3951.9385],[-68.6341,-18.9694,3860.2671],[-68.646,-18.9692,4057.7563],[-68.6579,-18.96,4351.9575],[-68.6655,-18.9567,4479.0186],[-68.6733,-18.9571,4620.3003],[-68.6762,-18.9535,4571.666],[-68.6807,-18.9527,4560.2329],[-68.6876,-18.9561,4525.5449]]]]}}