{"type": "Feature","bbox": [-67.2917,-15.8077,-66.5211,-14.3107],"geometry": {"type": "MultiPolygon","coordinates": [[[[-67.2883,-15.0299,301.8818],[-67.2917,-15.0343,312.2701],[-67.2898,-15.038,322.9313],[-67.2857,-15.0369,298.908],[-67.2844,-15.0298,301.0622],[-67.2793,-15.0289,304.3815],[-67.281,-15.0408,307.8798],[-67.28,-15.0427,301.9042],[-67.2751,-15.0414,312.7259],[-67.2668,-15.0469,314.2108],[-67.264,-15.0466,311.5538],[-67.2604,-15.0513,325.9441],[-67.2615,-15.0535,309.9621],[-67.259,-15.054,301.6754],[-67.2568,-15.0525,317.2395],[-67.2551,-15.0543,320.0109],[-67.2565,-15.0566,332.6111],[-67.2531,-15.0577,303.9217],[-67.2518,-15.0568,333.1044],[-67.2507,-15.047,305.6116],[-67.2494,-15.047,307.5623],[-67.2475,-15.0486,364.0656],[-67.2462,-15.054,312.7917],[-67.2443,-15.0553,321.8522],[-67.243,-15.0523,323.0896],[-67.2412,-15.0573,314.171],[-67.2379,-15.0586,314.2023],[-67.2408,-15.0601,318.6978],[-67.2379,-15.0626,315.2546],[-67.2388,-15.0699,318.2628],[-67.2447,-15.0731,321.6189],[-67.2433,-15.0763,329.8307],[-67.2386,-15.0749,322.197],[-67.2356,-15.0767,329.8734],[-67.2359,-15.0783,321.4059],[-67.239,-15.0793,328.8048],[-67.2332,-15.0853,324.3368],[-67.2347,-15.0868,329.3745],[-67.2377,-15.0858,323.8431],[-67.2389,-15.0893,330.4354],[-67.238,-15.0922,323.0886],[-67.2394,-15.0923,323.0886],[-67.2418,-15.0886,321.3205],[-67.245,-15.0918,323.5656],[-67.2432,-15.0994,327.3482],[-67.2395,-15.101,337.0015],[-67.2379,-15.1047,352.7331],[-67.2332,-15.1085,336.4875],[-67.2346,-15.11,349.9651],[-67.2371,-15.1083,321.8092],[-67.2385,-15.1146,356.9582],[-67.2317,-15.1124,341.0884],[-67.2291,-15.1169,331.0841],[-67.2255,-15.1174,330.1243],[-67.2243,-15.1163,351.8184],[-67.2257,-15.1096,338.2794],[-67.2238,-15.1084,334.1482],[-67.2188,-15.1132,356.9982],[-67.2194,-15.1157,330.635],[-67.2181,-15.1175,331.317],[-67.2161,-15.112,331.8354],[-67.2132,-15.1126,339.0725],[-67.2054,-15.1222,340.7413],[-67.2037,-15.1275,339.8157],[-67.2056,-15.1301,368.0059],[-67.1992,-15.1299,343.3106],[-67.1967,-15.1321,355.187],[-67.1969,-15.1341,368.8802],[-67.1909,-15.1383,341.3525],[-67.191,-15.1404,348.2892],[-67.1943,-15.1395,363.3163],[-67.196,-15.143,355.7824],[-67.1942,-15.1451,380.5817],[-67.1944,-15.1489,371.6982],[-67.1977,-15.1505,349.7477],[-67.1965,-15.1546,378.691],[-67.1925,-15.1522,369.8571],[-67.19,-15.148,354.881],[-67.1862,-15.1512,447.1005],[-67.1864,-15.1579,371.4359],[-67.1801,-15.1563,368.5007],[-67.1774,-15.1625,363.9809],[-67.1757,-15.1634,375.7087],[-67.1736,-15.162,387.1311],[-67.1708,-15.1645,380.2696],[-67.1726,-15.1706,375.6077],[-67.1678,-15.1707,414.6881],[-67.1691,-15.1738,369.4981],[-67.1675,-15.1767,393.4942],[-67.1671,-15.1844,382.4507],[-67.1621,-15.1861,376.1332],[-67.1593,-15.1835,372.1143],[-67.1573,-15.1837,410.9727],[-67.1579,-15.1886,390.2045],[-67.1603,-15.1892,387.7699],[-67.161,-15.1918,393.6907],[-67.1569,-15.1908,409.5484],[-67.1549,-15.2006,377.4189],[-67.1514,-15.1968,385.7197],[-67.1494,-15.2024,387.5828],[-67.1474,-15.2039,388.7247],[-67.1474,-15.2074,400.3917],[-67.1446,-15.2085,385.8195],[-67.1449,-15.2123,392.2586],[-67.1419,-15.2154,388.2038],[-67.1436,-15.218,419.4619],[-67.1384,-15.2186,410.7213],[-67.1369,-15.2213,415.3842],[-67.1353,-15.2307,398.5329],[-67.138,-15.2307,408.3888],[-67.1391,-15.2343,410.5805],[-67.1371,-15.2353,430.4663],[-67.1339,-15.2328,414.9988],[-67.1268,-15.2506,410.2138],[-67.1278,-15.2518,437.1108],[-67.1308,-15.25,433.0871],[-67.1365,-15.2502,419.9679],[-67.1354,-15.2535,432.1317],[-67.1303,-15.2581,455.6396],[-67.1325,-15.2603,447.8399],[-67.1339,-15.2589,429.2162],[-67.1375,-15.2596,425.9264],[-67.1374,-15.2648,447.4423],[-67.1322,-15.2629,459.2693],[-67.1293,-15.2696,444.36],[-67.1298,-15.272,445.2988],[-67.1342,-15.271,440.8116],[-67.1357,-15.2747,482.4374],[-67.1269,-15.2738,448.0398],[-67.1256,-15.2772,454.7122],[-67.1184,-15.2771,456.3373],[-67.1143,-15.2794,472.8745],[-67.109,-15.2898,492.4612],[-67.1044,-15.2901,476.3631],[-67.106,-15.296,485.1989],[-67.1021,-15.3005,476.3684],[-67.09,-15.3009,485.2907],[-67.0858,-15.3057,475.05],[-67.0845,-15.3116,480.6831],[-67.0823,-15.3122,489.9193],[-67.0805,-15.3208,529.8142],[-67.0861,-15.3223,488.2331],[-67.0841,-15.3274,493.8846],[-67.0833,-15.3374,506.7304],[-67.0883,-15.3454,520.8903],[-67.0886,-15.3529,558.5059],[-67.0937,-15.3558,543.4729],[-67.0945,-15.3609,545.2546],[-67.0995,-15.3602,551.0856],[-67.103,-15.3626,555.2589],[-67.1056,-15.3668,636.8204],[-67.1058,-15.3718,660.7699],[-67.1165,-15.3871,640.8322],[-67.1155,-15.3902,661.5486],[-67.1183,-15.3933,629.5207],[-67.1104,-15.3924,636.604],[-67.1098,-15.3946,681.8528],[-67.1129,-15.3957,642.8851],[-67.1127,-15.3986,645.9719],[-67.1108,-15.4004,651.1413],[-67.1065,-15.3994,654.1863],[-67.1045,-15.4056,654.6577],[-67.101,-15.4048,661.514],[-67.0997,-15.407,690.8852],[-67.1004,-15.4112,664.7976],[-67.0966,-15.4109,705.2238],[-67.0957,-15.4071,686.4031],[-67.0907,-15.4072,687.3599],[-67.0931,-15.4107,683.7669],[-67.0888,-15.4123,707.7643],[-67.087,-15.4114,701.9775],[-67.0845,-15.4136,717.1802],[-67.0862,-15.4145,704.6084],[-67.0866,-15.4187,713.6088],[-67.0844,-15.4226,709.7112],[-67.0806,-15.4239,753.726],[-67.081,-15.4275,738.6093],[-67.0702,-15.428,738.0122],[-67.0671,-15.431,745.1462],[-67.0701,-15.4332,761.0789],[-67.0654,-15.4374,755.813],[-67.0659,-15.4398,767.988],[-67.0589,-15.4409,769.9521],[-67.0592,-15.442,769.2957],[-67.0638,-15.4417,779.9255],[-67.0619,-15.4441,777.4563],[-67.0554,-15.4464,791.1558],[-67.0518,-15.445,785.4086],[-67.0505,-15.4506,781.7483],[-67.0473,-15.4491,785.1028],[-67.0467,-15.4464,791.8619],[-67.0435,-15.45,801.4017],[-67.04,-15.4499,814.0557],[-67.0399,-15.4525,810.8292],[-67.0434,-15.453,802.4236],[-67.0437,-15.4544,802.4236],[-67.0366,-15.4554,803.941],[-67.0358,-15.4573,835.0126],[-67.0372,-15.4587,808.4898],[-67.0323,-15.459,810.3668],[-67.0306,-15.4626,797.8173],[-67.0276,-15.4616,833.5151],[-67.0286,-15.4644,817.6761],[-67.026,-15.4639,807.3124],[-67.0254,-15.4676,800.5729],[-67.0218,-15.4661,824.1549],[-67.0159,-15.4728,802.418],[-67.0135,-15.4719,805.9373],[-67.0078,-15.4766,805.6083],[-67.0025,-15.4766,806.1899],[-67.0015,-15.4792,816.2557],[-67.0031,-15.4812,809.9509],[-67.0028,-15.4851,811.5104],[-67.001,-15.487,805.6245],[-66.9933,-15.4863,816.6397],[-66.9921,-15.4903,819.8781],[-66.9884,-15.4896,816.9198],[-66.9839,-15.4931,846.8913],[-66.9864,-15.495,819.8839],[-66.9854,-15.4973,834.0146],[-66.9785,-15.4976,861.1321],[-66.9781,-15.5019,836.064],[-66.9746,-15.4995,847.4404],[-66.9657,-15.5084,856.4875],[-66.9623,-15.5068,836.8031],[-66.9628,-15.5111,846.5596],[-66.959,-15.5158,852.2405],[-66.9591,-15.5195,838.4162],[-66.9559,-15.5222,848.2591],[-66.9565,-15.5253,847.1938],[-66.9545,-15.5238,845.6972],[-66.9497,-15.5258,924.3752],[-66.9496,-15.5324,839.448],[-66.9473,-15.5313,863.8938],[-66.9462,-15.5343,843.2872],[-66.9431,-15.5353,864.0459],[-66.9411,-15.5412,844.1201],[-66.9364,-15.5462,884.2563],[-66.9369,-15.5486,850.3956],[-66.9338,-15.5492,860.6566],[-66.9318,-15.5515,849.2024],[-66.9311,-15.5537,884.7003],[-66.9333,-15.5539,852.1287],[-66.9366,-15.5591,851.3264],[-66.9345,-15.5609,873.065],[-66.9346,-15.5656,856.5322],[-66.9324,-15.5657,858.8346],[-66.9309,-15.5684,869.8575],[-66.9289,-15.5672,865.1298],[-66.9235,-15.5688,868.5062],[-66.9217,-15.5723,905.2577],[-66.9231,-15.5752,877.9337],[-66.9188,-15.5768,926.1899],[-66.9197,-15.579,889.3172],[-66.9174,-15.58,887.0343],[-66.9147,-15.5847,897.0096],[-66.9112,-15.5858,950.2737],[-66.9124,-15.5874,938.9955],[-66.9111,-15.5919,915.4448],[-66.9071,-15.5936,933.5327],[-66.9067,-15.5984,945.2081],[-66.9042,-15.5997,988.9921],[-66.9027,-15.6036,958.3192],[-66.8996,-15.6041,982.1774],[-66.8992,-15.6152,1013.6117],[-66.9029,-15.6198,1062.9915],[-66.904,-15.619,1038.1157],[-66.9067,-15.6212,1128.0793],[-66.9044,-15.6271,1262.7471],[-66.9069,-15.6402,1441.1306],[-66.8897,-15.6625,1353.5634],[-66.8735,-15.694,1340.0522],[-66.7954,-15.7851,1097.2786],[-66.7961,-15.7801,1051.9928],[-66.7926,-15.7804,1039.4011],[-66.7945,-15.7821,1032.0762],[-66.7921,-15.7833,1051.6444],[-66.7892,-15.7786,990.1601],[-66.784,-15.7816,1003.793],[-66.7812,-15.7785,971.142],[-66.7714,-15.7852,950.061],[-66.765,-15.7932,971.34],[-66.7616,-15.7925,963.2059],[-66.7609,-15.795,938.6746],[-66.7587,-15.7942,941.0184],[-66.7567,-15.7967,958.2386],[-66.7543,-15.797,937.3424],[-66.753,-15.8007,924.3468],[-66.7498,-15.8014,924.6442],[-66.7439,-15.7971,927.249],[-66.736,-15.804,854.0441],[-66.7292,-15.8072,833.5453],[-66.7278,-15.8069,833.5453],[-66.7273,-15.8043,833.132],[-66.7231,-15.8047,836.4796],[-66.7215,-15.801,808.5394],[-66.7199,-15.8037,815.2051],[-66.7206,-15.8074,749.7609],[-66.7193,-15.8077,749.7609],[-66.719,-15.806,744.1058],[-66.715,-15.8037,778.967],[-66.7157,-15.7979,723.7836],[-66.7201,-15.7991,706.2142],[-66.7216,-15.7956,709.9117],[-66.7263,-15.793,699.4083],[-66.7257,-15.7902,688.0651],[-66.728,-15.7892,674.8095],[-66.7275,-15.786,682.1831],[-66.7295,-15.7832,719.802],[-66.7283,-15.7815,685.0662],[-66.7254,-15.7812,761.3938],[-66.7279,-15.7793,643.5521],[-66.7278,-15.7775,659.1957],[-66.7266,-15.7751,662.338],[-66.7226,-15.7757,617.2084],[-66.7209,-15.7735,635.0512],[-66.7191,-15.7759,599.0501],[-66.7167,-15.7756,636.969],[-66.7167,-15.7731,625.2681],[-66.7214,-15.77,620.6628],[-66.7229,-15.7659,604.7297],[-66.7131,-15.7657,533.5163],[-66.715,-15.7624,541.6166],[-66.7115,-15.7587,576.7442],[-66.71,-15.7537,506.1144],[-66.7057,-15.7554,501.6036],[-66.705,-15.75,521.4701],[-66.6972,-15.7497,643.4166],[-66.6968,-15.7469,489.5581],[-66.6999,-15.7419,472.7661],[-66.6952,-15.7396,455.3848],[-66.6967,-15.7368,446.692],[-66.7023,-15.7366,448.735],[-66.7024,-15.7346,446.3817],[-66.6988,-15.7329,472.6449],[-66.702,-15.7301,448.5482],[-66.7012,-15.7267,442.9993],[-66.7062,-15.7255,417.8242],[-66.7103,-15.7208,453.1755],[-66.7144,-15.7191,412.3763],[-66.7204,-15.7127,408.7032],[-66.719,-15.7104,441.202],[-66.7211,-15.709,425.9864],[-66.7218,-15.7056,393.0086],[-66.7158,-15.7002,442.0407],[-66.7131,-15.7003,408.9212],[-66.7128,-15.7036,402.6082],[-66.7101,-15.7033,449.9991],[-66.7069,-15.6953,342.0582],[-66.6948,-15.6953,327.3619],[-66.6963,-15.6893,348.9091],[-66.7008,-15.6877,321.1559],[-66.701,-15.6852,321.2727],[-66.6973,-15.6825,318.6574],[-66.6915,-15.6845,341.9352],[-66.693,-15.679,313.0078],[-66.6905,-15.6783,328.579],[-66.6862,-15.6738,433.4136],[-66.6824,-15.6688,319.4406],[-66.6826,-15.6655,309.4244],[-66.679,-15.6649,343.5926],[-66.6788,-15.6612,318.6574],[-66.6762,-15.6613,306.7211],[-66.6734,-15.6645,324.2205],[-66.6704,-15.6608,317.5599],[-66.6669,-15.662,333.4761],[-66.6628,-15.6504,303.5745],[-66.6664,-15.6448,300.8621],[-66.6636,-15.6424,337.449],[-66.6622,-15.6463,304.3221],[-66.6599,-15.6471,293.7796],[-66.6575,-15.6444,316.7376],[-66.6577,-15.6425,303.3876],[-66.661,-15.64,289.4457],[-66.6595,-15.6365,297.9958],[-66.6553,-15.6341,294.9098],[-66.6503,-15.6344,291.0448],[-66.5315,-15.5655,326.2152],[-66.5211,-14.3107,168.74],[-66.8228,-14.3203,168.4644],[-66.8209,-14.3596,169.7183],[-66.9858,-14.3659,177.3767],[-66.9851,-14.4962,183.3584],[-67.0737,-14.6361,200.9069],[-67.0757,-14.6421,202.012],[-67.0753,-14.6613,212.6594],[-67.0789,-14.6645,205.2926],[-67.0798,-14.6731,211.8393],[-67.0863,-14.6804,216.3989],[-67.0882,-14.6858,214.5778],[-67.0866,-14.6908,218.0204],[-67.0885,-14.6953,218.2908],[-67.0863,-14.6974,218.0887],[-67.0867,-14.7035,218.3658],[-67.0846,-14.7085,217.0444],[-67.0865,-14.7135,221.6518],[-67.0855,-14.7163,225.8612],[-67.0876,-14.7173,220.7994],[-67.0859,-14.7209,214.6056],[-67.0884,-14.7238,216.7025],[-67.087,-14.7271,221.3841],[-67.0881,-14.7315,218.288],[-67.0928,-14.7354,217.2789],[-67.0965,-14.7355,218.2517],[-67.0985,-14.7414,225.6881],[-67.0978,-14.7475,225.3079],[-67.0942,-14.7498,220.1115],[-67.0963,-14.7517,222.7786],[-67.0952,-14.7543,235.9096],[-67.0998,-14.7616,233.2776],[-67.0996,-14.7728,234.3755],[-67.1036,-14.7726,240.3894],[-67.1042,-14.7787,238.5957],[-67.1066,-14.7796,237.9026],[-67.1107,-14.7783,239.4413],[-67.1125,-14.7792,243.3675],[-67.1135,-14.7828,242.9571],[-67.1158,-14.7821,243.8665],[-67.124,-14.7852,247.6304],[-67.1307,-14.7805,252.3896],[-67.1319,-14.7825,244.683],[-67.1339,-14.7806,243.1092],[-67.1404,-14.7805,246.0797],[-67.1403,-14.7821,242.7852],[-67.1429,-14.7825,248.8049],[-67.1429,-14.7839,247.5628],[-67.1444,-14.7833,247.6398],[-67.1462,-14.7852,250.4577],[-67.1502,-14.7845,256.0142],[-67.1529,-14.7874,248.1129],[-67.1453,-14.7983,250.7235],[-67.1271,-14.8137,239.7653],[-67.118,-14.8274,239.0139],[-67.1163,-14.8589,254.4863],[-67.1182,-14.8688,245.7639],[-67.1155,-14.8772,250.0685],[-67.1148,-14.8954,254.6858],[-67.0958,-14.9551,243.5004],[-67.1008,-14.9543,245.2599],[-67.1024,-14.9556,247.0362],[-67.1125,-14.9481,258.42],[-67.1179,-14.9532,257.9035],[-67.1219,-14.9531,252.6036],[-67.121,-14.9546,252.4229],[-67.1231,-14.956,251.5157],[-67.1282,-14.9553,254.0173],[-67.1337,-14.9668,271.3936],[-67.1329,-14.9715,267.29],[-67.1372,-14.9736,270.8736],[-67.1402,-14.9832,280.8391],[-67.1454,-14.9861,281.7992],[-67.1435,-14.9892,281.99],[-67.1432,-14.9938,296.3473],[-67.144,-14.9978,287.2194],[-67.1463,-14.9983,291.5175],[-67.145,-15.0007,292.6591],[-67.1469,-15.0033,300.6636],[-67.152,-15.0032,310.6048],[-67.1525,-15.0069,311.3451],[-67.1614,-15.0132,322.6613],[-67.1794,-15.0141,679.1038],[-67.1905,-15.0184,787.473],[-67.2025,-15.0157,955.6539],[-67.2113,-15.0024,880.3017],[-67.2229,-15.0011,871.9937],[-67.2235,-14.9984,892.0819],[-67.2282,-14.9974,836.7502],[-67.2349,-14.9976,730.6612],[-67.2425,-14.9994,646.7075],[-67.2458,-15.0034,585.7168],[-67.252,-15.0024,516.8807],[-67.2567,-15.0058,432.7453],[-67.261,-15.006,408.6023],[-67.265,-15.01,380.6106],[-67.2701,-15.0119,348.0569],[-67.2722,-15.0161,340.6389],[-67.2739,-15.0163,330.1656],[-67.2747,-15.0145,348.6669],[-67.2773,-15.0175,330.4175],[-67.2786,-15.0159,325.6429],[-67.2826,-15.0193,332.1494],[-67.2836,-15.0275,313.5724],[-67.2883,-15.0299,301.8818]]]]}
,"properties": {"GID_3": "BOL.3.2.3_2","GID_0": "BOL","country": "Bolivia","GID_1": "BOL.3_1","province": "Beni","NL_NAME_1": "NA","GID_2": "BOL.3.2_2","county": "GeneralJoséBallivián","NL_NAME_2": "NA","city": "SanBorja","VARNAME_3": "NA","NL_NAME_3": "NA","TYPE_3": "District","ENGTYPE_3": "Distrito","CC_3": "NA","HASC_3": "NA","name": "San_Borja.city","area_km2": 8828.775,"hist_schema_id": "Elevation0-9000","hist_area_km2": {"175": 2121.614,"200": 1776.689,"225": 1010.315,"250": 797.373,"275": 545.211,"300": 407.741,"325": 306.966,"350": 238.846,"375": 154.298,"400": 103.445,"425": 85.164,"450": 78.986,"475": 71.808,"500": 70.374,"525": 64.403,"550": 62.172,"575": 56.465,"600": 56.484,"625": 52.782,"650": 48.343,"675": 47.484,"700": 42.844,"725": 41.148,"750": 39.799,"775": 37.793,"800": 37.548,"825": 38.344,"850": 36.77,"875": 34.026,"900": 32.144,"925": 30.425,"950": 30.648,"975": 27.907,"1000": 27.477,"1025": 25.453,"1050": 22.755,"1075": 21.404,"1100": 20.564,"1125": 18.869,"1150": 17.744,"1175": 15.109,"1200": 12.802,"1225": 11.617,"1250": 9.738,"1275": 8.288,"1300": 8.002,"1325": 6.307,"1350": 5.103,"1375": 3.592,"1400": 2.939,"1425": 1.878,"1450": 1.02,"1475": 0.775,"1500": 0.694,"1525": 0.184}}}