{"type":"Feature","properties":{"GID_2":"BOL.4.11_2","GID_0":"BOL","country":"Bolivia","GID_1":"BOL.4_1","province":"LaPaz","NL_NAME_1":"NA","county":"Inquisivi","VARNAME_2":"NA","NL_NAME_2":"NA","TYPE_2":"Provincia","ENGTYPE_2":"Province","CC_2":"NA","HASC_2":"NA","name":"Inquisivi.county"},
"geometry":{"type": "MultiPolygon","coordinates": [[[[-66.8771,-17.2983,2319.5471],[-66.883,-17.2916,2295.1587],[-66.8875,-17.29,2292.9399],[-66.8894,-17.2777,2253.9619],[-66.888,-17.2757,2250.7708],[-66.8889,-17.2728,2242.4243],[-66.8866,-17.2709,2236.8787],[-66.8886,-17.2661,2234.9624],[-66.8787,-17.2484,2247.165],[-66.8772,-17.2368,2174.5339],[-66.8775,-17.2332,2172.657],[-66.8823,-17.2256,2153.2734],[-66.8822,-17.2203,2140.4236],[-66.8876,-17.2156,2131.949],[-66.89,-17.2061,2119.8394],[-66.8886,-17.2004,2124.6692],[-66.8888,-17.1962,2106.0576],[-66.8905,-17.1946,2113.8887],[-66.8898,-17.1898,2079.4314],[-66.8853,-17.1852,2072.2573],[-66.8863,-17.1781,2043.5439],[-66.8852,-17.1659,2012.5803],[-66.8831,-17.1613,2005.1953],[-66.8839,-17.1566,1994.7249],[-66.8892,-17.1478,1970.502],[-66.8904,-17.1398,1961.7554],[-66.8971,-17.1336,1949.2134],[-66.9047,-17.1229,1923.1346],[-66.9154,-17.1135,1907.9923],[-66.9256,-17.1109,1893.0906],[-66.9306,-17.1071,1887.4246],[-66.9403,-17.0943,1875.6857],[-66.9444,-17.0845,1848.8138],[-66.9565,-17.0718,1830.4111],[-66.9573,-17.0656,1816.8586],[-66.9695,-17.0572,1792.9148],[-66.9736,-17.0515,1787.8607],[-66.9807,-17.0468,1806.3347],[-66.9849,-17.0388,1797.7112],[-66.984,-17.0344,1756.3801],[-66.9867,-17.0256,1749.9666],[-66.9907,-17.0196,1753.761],[-66.9906,-17.0144,1744.2452],[-67.0018,-16.9893,1701.3628],[-67.0022,-16.9767,1690.6295],[-67.0,-16.9684,1689.1527],[-67.001,-16.9616,1678.0801],[-67.0044,-16.9593,1675.6477],[-67.0057,-16.9549,1670.9982],[-67.0031,-16.9477,1666.8015],[-66.9922,-16.9416,1669.2234],[-66.9917,-16.9333,1650.4907],[-66.9779,-16.9285,1663.5706],[-66.9705,-16.9243,1638.948],[-66.9702,-16.921,1635.0186],[-66.9762,-16.9064,1607.4846],[-66.9736,-16.8921,1604.7067],[-66.972,-16.89,1585.853],[-66.9652,-16.8873,1588.2845],[-66.956,-16.8776,1560.8431],[-66.9525,-16.8761,1560.8921],[-66.9466,-16.8685,1576.2272],[-66.9416,-16.8561,1538.2222],[-66.9355,-16.8524,1524.3724],[-66.924,-16.8358,1507.811],[-66.9155,-16.8362,1515.2163],[-66.9107,-16.8329,1565.186],[-66.9073,-16.8364,1565.874],[-66.9043,-16.8368,1557.4109],[-66.9015,-16.8339,1501.0282],[-66.8947,-16.8336,1482.8867],[-66.8911,-16.8351,1499.7727],[-66.8875,-16.834,1513.676],[-66.885,-16.8375,1475.7823],[-66.8819,-16.836,1465.2404],[-66.8703,-16.8352,1506.4189],[-66.8664,-16.8331,1486.5844],[-66.8577,-16.8358,1449.139],[-66.8544,-16.8344,1470.9552],[-66.8415,-16.8403,1460.1631],[-66.8393,-16.8389,1440.5278],[-66.8374,-16.8408,1447.8787],[-66.833,-16.8397,1468.5847],[-66.8305,-16.8373,1428.6718],[-66.8272,-16.837,1411.7338],[-66.8261,-16.8347,1418.8695],[-66.8222,-16.8338,1383.929],[-66.8212,-16.8313,1377.02],[-66.8149,-16.8293,1366.1707],[-66.8067,-16.821,1356.9575],[-66.8003,-16.818,1365.3853],[-66.7969,-16.8117,1376.6755],[-66.7926,-16.8104,1359.5759],[-66.7892,-16.8067,1347.7617],[-66.7848,-16.8065,1432.4176],[-66.784,-16.8031,1337.8206],[-66.7806,-16.7999,1446.4871],[-66.7849,-16.7957,1330.2543],[-66.7841,-16.7931,1328.4807],[-66.7759,-16.7841,1312.1387],[-66.7691,-16.7858,1307.7385],[-66.7623,-16.7821,1335.1738],[-66.7593,-16.7704,1291.713],[-66.7516,-16.7687,1290.1998],[-66.7412,-16.7552,1270.6481],[-66.7412,-16.75,1264.4408],[-66.7456,-16.7406,1278.9883],[-66.7447,-16.7382,1256.9703],[-66.7409,-16.7363,1275.9984],[-66.7445,-16.7309,1252.1868],[-66.7436,-16.7203,1250.8271],[-66.7532,-16.7065,1231.566],[-66.7577,-16.7032,1229.0879],[-66.7566,-16.6971,1217.2971],[-66.7587,-16.6938,1231.9991],[-66.7543,-16.6843,1197.4513],[-66.7542,-16.6762,1217.9437],[-66.747,-16.6669,1276.1436],[-66.7469,-16.6621,1207.0911],[-66.741,-16.6567,1193.4545],[-66.7427,-16.6488,1164.8562],[-66.742,-16.6438,1173.9038],[-66.7447,-16.64,1196.8065],[-66.7466,-16.6321,1174.1432],[-66.7423,-16.6281,1153.7057],[-66.7414,-16.6246,1155.3015],[-66.7369,-16.6228,1210.396],[-66.7373,-16.617,1161.8313],[-66.734,-16.6129,1134.6426],[-66.7378,-16.6074,1255.9172],[-66.7367,-16.6048,1238.2775],[-66.7382,-16.6001,1192.1843],[-66.7338,-16.5964,1156.8904],[-66.7321,-16.5901,1124.965],[-66.7381,-16.5784,1099.1714],[-66.7426,-16.5776,1081.3223],[-66.7421,-16.5713,1064.6532],[-66.7484,-16.564,1078.3954],[-66.7597,-16.5444,1078.6641],[-66.765,-16.543,1028.6893],[-66.7649,-16.5356,1007.6779],[-66.769,-16.5339,1006.3037],[-66.7765,-16.5218,1000.9589],[-66.7768,-16.5174,1013.126],[-66.7688,-16.5121,1000.5378],[-66.7691,-16.5049,953.92],[-66.7731,-16.5,961.9312],[-66.7816,-16.4941,938.7285],[-66.7888,-16.4845,965.2108],[-66.7882,-16.4735,922.5886],[-66.7845,-16.4721,958.3277],[-66.7825,-16.4679,1010.8889],[-66.7825,-16.4618,1031.1731],[-66.786,-16.4565,904.8835],[-66.7851,-16.4505,905.022],[-66.7882,-16.4434,912.5629],[-66.7874,-16.436,914.5917],[-66.7853,-16.4323,891.1746],[-66.786,-16.4283,899.6951],[-66.783,-16.4198,1044.2549],[-66.7857,-16.4142,887.6636],[-66.7913,-16.4121,1005.6657],[-66.7892,-16.4088,884.4299],[-66.7946,-16.3983,864.4362],[-66.7942,-16.3906,864.5402],[-66.7968,-16.3762,864.2659],[-66.7956,-16.3656,860.2856],[-66.7989,-16.3535,918.3804],[-66.7949,-16.3443,899.5167],[-66.7991,-16.3286,883.2786],[-66.7987,-16.3209,884.4648],[-66.8029,-16.3119,842.9132],[-66.8022,-16.3085,858.1342],[-66.804,-16.3035,822.3332],[-66.8038,-16.3019,826.0642],[-66.801,-16.3016,803.3688],[-66.8003,-16.3,792.8279],[-66.8004,-16.2956,791.5245],[-66.807,-16.2877,798.1582],[-66.809,-16.2831,827.3624],[-66.8163,-16.2812,782.7812],[-66.8198,-16.2749,772.8201],[-66.8195,-16.2695,863.4748],[-66.8277,-16.2686,767.9927],[-66.8341,-16.2606,778.455],[-66.8446,-16.257,763.1655],[-66.8485,-16.2535,756.0374],[-66.8533,-16.2451,824.3873],[-66.9284,-16.2814,2346.1519],[-66.9457,-16.2876,1723.2941],[-66.9754,-16.295,1842.0992],[-66.9998,-16.3117,2616.9792],[-67.0892,-16.3474,2214.9355],[-67.1208,-16.3658,2910.958],[-67.2543,-16.4217,900.2727],[-67.2539,-16.4203,969.8731],[-67.2556,-16.4194,913.3621],[-67.2581,-16.4252,892.4946],[-67.2553,-16.4281,981.0251],[-67.2569,-16.4339,992.2488],[-67.2542,-16.4371,1056.0691],[-67.2575,-16.439,982.587],[-67.2581,-16.445,1001.2645],[-67.2615,-16.4455,935.4718],[-67.2628,-16.449,935.5177],[-67.2677,-16.4516,934.4346],[-67.27,-16.4553,934.3882],[-67.2714,-16.4658,1024.583],[-67.2778,-16.468,991.6294],[-67.2858,-16.479,1036.0886],[-67.2908,-16.481,950.5392],[-67.2922,-16.4832,1108.7784],[-67.2974,-16.4821,989.7457],[-67.3052,-16.483,1076.2295],[-67.3199,-16.4879,986.9902],[-67.3273,-16.499,1035.0121],[-67.3318,-16.4988,985.8639],[-67.337,-16.507,995.9968],[-67.3413,-16.5086,1005.1794],[-67.3407,-16.5124,1025.0825],[-67.3428,-16.5159,1007.0626],[-67.3507,-16.5164,1013.4789],[-67.3587,-16.5215,1139.8054],[-67.3696,-16.5209,1090.6003],[-67.376,-16.5236,1053.7163],[-67.3829,-16.5304,1067.8134],[-67.3833,-16.5414,1150.3542],[-67.3896,-16.5471,1104.9568],[-67.396,-16.5482,1094.3309],[-67.4015,-16.5615,1170.322],[-67.4065,-16.5642,1133.2003],[-67.4169,-16.5805,1160.2926],[-67.4206,-16.5824,1166.0416],[-67.4219,-16.585,1232.7043],[-67.429,-16.5843,1232.8699],[-67.4384,-16.5913,1181.5938],[-67.4395,-16.5956,1187.151],[-67.4431,-16.5981,1192.8992],[-67.4452,-16.6049,1281.8271],[-67.4498,-16.6061,1317.1189],[-67.4552,-16.6126,1219.5903],[-67.4659,-16.6144,1265.4049],[-67.4706,-16.6213,1318.8254],[-67.4755,-16.6232,1281.5082],[-67.4887,-16.6232,1343.3284],[-67.4942,-16.6203,1281.6586],[-67.4978,-16.6207,1286.1304],[-67.4932,-16.6437,2754.6101],[-67.4871,-16.6544,2927.9482],[-67.4825,-16.6579,3095.9133],[-67.4785,-16.6685,3691.2715],[-67.4776,-16.6767,3758.7261],[-67.4746,-16.6826,3762.9795],[-67.4506,-16.6949,4111.1348],[-67.446,-16.716,4327.3594],[-67.4531,-16.7181,4375.9492],[-67.4526,-16.7203,4426.585],[-67.4585,-16.7295,4461.8105],[-67.4629,-16.729,4488.1055],[-67.4649,-16.7318,4381.957],[-67.4702,-16.7326,4384.3623],[-67.4756,-16.7357,4333.5049],[-67.4783,-16.7428,4638.5654],[-67.4823,-16.7413,4640.4863],[-67.4892,-16.7425,4730.6904],[-67.488,-16.7477,4726.5903],[-67.4935,-16.7529,4706.3931],[-67.4932,-16.7587,4886.3921],[-67.504,-16.7618,4952.5664],[-67.5083,-16.7607,5071.9478],[-67.5135,-16.765,5012.4419],[-67.519,-16.7732,4943.3286],[-67.5143,-16.7865,4856.4814],[-67.5139,-16.8032,5025.5635],[-67.5064,-16.8111,5061.0127],[-67.5,-16.8337,5015.248],[-67.4844,-16.8436,5150.8506],[-67.4739,-16.8533,5126.8315],[-67.4642,-16.8681,5107.1372],[-67.4542,-16.8749,5074.6304],[-67.4417,-16.8802,4815.4258],[-67.4323,-16.8981,5298.2695],[-67.4249,-16.9076,5426.6372],[-67.4157,-16.9089,5487.9385],[-67.4018,-16.9281,5376.7949],[-67.3965,-16.9402,5088.9741],[-67.3915,-16.9587,5298.6704],[-67.3695,-16.9784,5453.9644],[-67.3659,-16.985,5131.4385],[-67.3546,-16.9926,5345.2871],[-67.3405,-17.0098,5134.5859],[-67.3295,-17.0342,5276.3999],[-67.3207,-17.0587,4900.3984],[-67.3044,-17.0732,4720.563],[-67.3023,-17.0874,4758.3379],[-67.3084,-17.0887,4620.9385],[-67.3098,-17.0919,4649.3374],[-67.3138,-17.0943,4784.4688],[-67.318,-17.0946,4697.1104],[-67.3217,-17.0985,4738.7739],[-67.3223,-17.1087,4666.6133],[-67.3374,-17.0976,4202.9473],[-67.3421,-17.099,4150.3115],[-67.3418,-17.1047,4359.27],[-67.3477,-17.1038,4274.6089],[-67.3497,-17.1093,4386.2314],[-67.344,-17.1169,4503.4937],[-67.3475,-17.1203,4520.1489],[-67.3516,-17.1312,4428.2363],[-67.341,-17.133,4572.2241],[-67.3379,-17.1349,4518.7642],[-67.3314,-17.1319,4668.0991],[-67.3271,-17.1375,4645.9766],[-67.3233,-17.1397,4630.5229],[-67.3215,-17.1448,4614.5781],[-67.3061,-17.1577,4567.5659],[-67.3122,-17.1667,4354.2153],[-67.3134,-17.171,4310.2432],[-67.32,-17.1731,4309.1846],[-67.3298,-17.1808,4246.1699],[-67.3304,-17.1849,4241.1074],[-67.3286,-17.1879,4232.0225],[-67.3314,-17.1917,4224.2827],[-67.3294,-17.2016,4215.061],[-67.3197,-17.2159,4181.8809],[-67.3253,-17.223,4177.689],[-67.3201,-17.2291,4150.0947],[-67.3196,-17.239,4137.9341],[-67.3167,-17.2409,4129.1357],[-67.3128,-17.2474,4116.3623],[-67.314,-17.2582,4099.4204],[-67.3191,-17.2631,4107.2266],[-67.3199,-17.2663,4089.9531],[-67.3161,-17.2757,4076.1157],[-67.3147,-17.2756,4075.479],[-67.3144,-17.2779,4073.0623],[-67.3093,-17.2814,4063.811],[-67.3098,-17.2841,4061.9988],[-67.3065,-17.2907,4053.4878],[-67.3102,-17.3056,4038.397],[-67.3041,-17.3176,4031.1731],[-67.2937,-17.3755,3975.8586],[-67.2858,-17.3683,3987.436],[-67.2851,-17.357,4034.8499],[-67.2775,-17.3448,4110.1631],[-67.2567,-17.3325,4181.7578],[-67.2535,-17.3282,4117.9155],[-67.2535,-17.324,4089.4583],[-67.2482,-17.324,4093.4446],[-67.2433,-17.3283,4107.4326],[-67.2344,-17.3326,4109.626],[-67.2328,-17.3353,4114.6582],[-67.2285,-17.3367,4120.7046],[-67.2273,-17.3342,4122.3994],[-67.223,-17.3322,4134.3745],[-67.2181,-17.3373,4134.603],[-67.2155,-17.3351,4141.8193],[-67.2132,-17.3361,4141.9116],[-67.2092,-17.3348,4156.2422],[-67.2026,-17.3369,4179.7134],[-67.1982,-17.3464,4253.1904],[-67.194,-17.3486,4211.5884],[-67.1968,-17.3516,4211.7129],[-67.1962,-17.3559,4203.9272],[-67.1982,-17.3573,4209.6914],[-67.1996,-17.3658,4257.6729],[-67.1937,-17.3695,4219.8574],[-67.1915,-17.3749,4256.7715],[-67.1873,-17.3791,4283.3433],[-67.1886,-17.3864,4328.6157],[-67.1869,-17.4074,4355.5957],[-67.1913,-17.4139,4476.0254],[-67.1888,-17.4184,4559.5815],[-67.1712,-17.4327,4603.2393],[-67.1566,-17.4413,4635.9253],[-67.1509,-17.4494,4647.749],[-67.1421,-17.4534,4650.4531],[-67.1359,-17.4543,4671.646],[-67.1245,-17.4654,4639.4077],[-67.0877,-17.466,4404.6836],[-67.0842,-17.4647,4470.6128],[-67.0774,-17.47,4534.8906],[-67.0674,-17.4701,4424.1426],[-67.059,-17.476,4456.6758],[-67.0599,-17.4791,4482.2466],[-67.0498,-17.4957,4559.7881],[-67.036,-17.5002,4509.915],[-67.0261,-17.5119,4416.5591],[-67.0198,-17.5281,4428.4678],[-67.0213,-17.539,4504.335],[-67.051,-17.5877,4384.3311],[-67.0414,-17.6023,4394.8516],[-67.0358,-17.6069,4366.8789],[-67.014,-17.6182,4510.1475],[-67.0104,-17.6294,4315.5996],[-67.0068,-17.6319,4296.7876],[-66.9747,-17.6209,4221.2852],[-66.9365,-17.6109,4393.3091],[-66.8916,-17.5855,4290.3188],[-66.8849,-17.5749,4157.436],[-66.8856,-17.5687,4112.9556],[-66.883,-17.5675,4101.4443],[-66.8799,-17.5608,4066.5225],[-66.8758,-17.5597,4013.9932],[-66.8735,-17.557,4056.4761],[-66.8777,-17.5415,3960.7825],[-66.8699,-17.5394,3982.6482],[-66.8613,-17.5399,3934.6028],[-66.8477,-17.5339,3717.4531],[-66.8403,-17.5336,3650.7925],[-66.8346,-17.5269,3507.1345],[-66.8291,-17.5278,3422.9497],[-66.8249,-17.5256,3406.4258],[-66.8175,-17.5166,3394.1758],[-66.8157,-17.5116,3372.1577],[-66.8174,-17.507,3267.8687],[-66.8163,-17.5035,3246.968],[-66.8219,-17.499,3244.4763],[-66.8228,-17.493,3218.4668],[-66.8274,-17.4892,3200.1057],[-66.8314,-17.4798,3186.439],[-66.8347,-17.4767,3226.7922],[-66.8372,-17.4634,3139.9849],[-66.8357,-17.4511,3091.5105],[-66.8404,-17.4472,3088.0457],[-66.8439,-17.4415,3062.8447],[-66.8629,-17.4361,3026.5557],[-66.8685,-17.4274,3016.3281],[-66.872,-17.4259,3013.5593],[-66.8753,-17.4219,3002.2407],[-66.8769,-17.4168,2985.4197],[-66.8739,-17.4102,2968.3281],[-66.8669,-17.4026,2937.2297],[-66.8649,-17.3887,2915.5959],[-66.8533,-17.3846,2937.4441],[-66.8474,-17.386,2899.2412],[-66.8464,-17.3843,2930.5217],[-66.8498,-17.3819,2861.8804],[-66.8515,-17.378,2868.9116],[-66.8458,-17.365,2761.4924],[-66.8468,-17.3606,2740.6643],[-66.8454,-17.354,2734.5613],[-66.8497,-17.3486,2697.675],[-66.8578,-17.3478,2717.8203],[-66.8595,-17.3412,2715.4812],[-66.8559,-17.3378,2742.4565],[-66.8492,-17.3381,2708.6577],[-66.8472,-17.3365,2665.7185],[-66.8455,-17.3278,2647.9551],[-66.8438,-17.3266,2672.3401],[-66.8442,-17.3211,2525.8491],[-66.8425,-17.3186,2570.8682],[-66.8437,-17.3159,2505.2981],[-66.8574,-17.3107,2406.9338],[-66.8669,-17.3039,2357.5552],[-66.8732,-17.3021,2334.4407],[-66.8771,-17.2983,2319.5471]]]]}}