{"type": "Feature","bbox": [-69.1919,-17.3084,-68.4814,-16.8064],"geometry": {"type": "MultiPolygon","coordinates": [[[[-69.1794,-17.3033,4169.0537],[-69.1703,-17.3031,4213.251],[-69.1626,-17.3054,4193.5967],[-69.1385,-17.3084,4334.2075],[-69.1187,-17.3066,4178.4712],[-69.1155,-17.308,4184.1982],[-69.1026,-17.3065,4144.9951],[-69.097,-17.3075,4146.6943],[-69.0878,-17.3055,4073.0903],[-69.0837,-17.3066,4064.366],[-69.0722,-17.3008,4014.2234],[-69.0677,-17.3003,4002.75],[-69.0611,-17.3035,3987.8809],[-69.057,-17.303,3984.1782],[-69.0552,-17.301,3980.3501],[-69.0505,-17.3,3976.0962],[-69.0492,-17.2967,3971.2429],[-69.0371,-17.2892,3959.8726],[-69.0344,-17.2899,3957.4087],[-69.0286,-17.286,3952.8865],[-69.0237,-17.2869,3947.8955],[-69.0132,-17.2851,3940.9443],[-69.0085,-17.3027,4133.2764],[-68.9833,-17.3015,4056.4805],[-68.9804,-17.2987,4010.4104],[-68.9701,-17.2981,3950.9624],[-68.9641,-17.2937,3935.5735],[-68.9535,-17.2947,3920.0681],[-68.9439,-17.2916,3909.1174],[-68.9387,-17.2917,3903.0774],[-68.9313,-17.2871,3898.8152],[-68.9153,-17.2848,3889.8289],[-68.9105,-17.278,3887.0085],[-68.9045,-17.2742,3886.3542],[-68.8991,-17.2601,3882.8577],[-68.8747,-17.2592,3883.9805],[-68.8672,-17.2602,3904.9038],[-68.857,-17.2585,3897.9146],[-68.8442,-17.2643,3914.5974],[-68.8356,-17.2732,3924.8638],[-68.8323,-17.2728,3906.688],[-68.8302,-17.2637,3970.6504],[-68.8338,-17.2589,3996.7642],[-68.84,-17.2552,3969.6025],[-68.8475,-17.2431,3984.1987],[-68.8544,-17.2185,3974.2432],[-68.8609,-17.2071,4023.3767],[-68.8606,-17.2048,4001.1113],[-68.867,-17.1969,3987.8594],[-68.8696,-17.1911,3958.0901],[-68.8566,-17.1883,3911.749],[-68.8543,-17.1838,3873.2039],[-68.8495,-17.1797,3855.4539],[-68.8384,-17.1742,3837.5637],[-68.8308,-17.1738,3836.0515],[-68.8314,-17.1666,3828.8542],[-68.8331,-17.1639,3829.72],[-68.8367,-17.1633,3831.5735],[-68.8378,-17.1605,3826.3647],[-68.8368,-17.1516,3824.1431],[-68.8343,-17.1474,3834.8179],[-68.8239,-17.1468,3843.855],[-68.8198,-17.1488,3837.4121],[-68.8179,-17.1522,3835.78],[-68.7887,-17.1625,3851.5083],[-68.7743,-17.1635,3847.0115],[-68.7583,-17.1681,3808.1824],[-68.7535,-17.1723,3802.8499],[-68.7517,-17.1809,3802.5156],[-68.7487,-17.1851,3808.5378],[-68.7352,-17.1795,3805.6211],[-68.7327,-17.1806,3805.5811],[-68.731,-17.1776,3806.4111],[-68.7324,-17.1752,3806.4165],[-68.7293,-17.1707,3809.0151],[-68.73,-17.1681,3809.5371],[-68.7228,-17.1661,3811.3281],[-68.7206,-17.1603,3813.5117],[-68.7169,-17.1561,3815.7427],[-68.7145,-17.1559,3816.3447],[-68.7142,-17.1518,3817.3574],[-68.7098,-17.151,3819.6821],[-68.7061,-17.1468,3821.1897],[-68.7018,-17.1486,3824.292],[-68.6962,-17.148,3826.7273],[-68.695,-17.1434,3826.8896],[-68.6886,-17.1409,3829.1929],[-68.6781,-17.1437,3844.7717],[-68.6752,-17.1397,3836.9509],[-68.664,-17.1335,3842.2195],[-68.6648,-17.1215,3855.1458],[-68.6585,-17.1073,3865.4866],[-68.6615,-17.0933,3879.012],[-68.6547,-17.0842,3978.0054],[-68.6321,-17.0875,4347.5166],[-68.6277,-17.0896,4415.6992],[-68.599,-17.0872,3940.6577],[-68.5923,-17.088,4010.2473],[-68.5876,-17.0911,3896.3455],[-68.5862,-17.0894,3906.8254],[-68.5838,-17.0913,3898.1829],[-68.5824,-17.0901,3897.9653],[-68.5823,-17.0857,3912.2327],[-68.5891,-17.0774,3932.8955],[-68.594,-17.0746,3996.2871],[-68.5954,-17.0658,4106.1357],[-68.6044,-17.066,3988.4814],[-68.6067,-17.0609,4012.8906],[-68.6009,-17.0532,4217.6553],[-68.5823,-17.0452,4227.2075],[-68.5667,-17.0429,4241.5586],[-68.5608,-17.0445,4200.873],[-68.5565,-17.0429,4103.7612],[-68.5469,-17.0445,4077.6714],[-68.5312,-17.0442,3970.4771],[-68.5284,-17.0482,3963.2498],[-68.5247,-17.048,3965.0779],[-68.5122,-17.0396,4012.158],[-68.5113,-17.0354,4037.8679],[-68.5037,-17.0284,4180.4629],[-68.4882,-17.0206,4445.626],[-68.4832,-17.0196,4525.9438],[-68.4814,-17.0013,4456.8047],[-68.4855,-16.9917,4287.1704],[-68.4949,-16.9896,4264.2314],[-68.508,-16.9832,4323.5713],[-68.5149,-16.9757,4352.1567],[-68.5184,-16.977,4309.3594],[-68.5253,-16.9762,4355.541],[-68.5384,-16.9714,4329.6353],[-68.5424,-16.9646,4215.6396],[-68.5715,-16.9476,4078.6567],[-68.5707,-16.9387,4059.5088],[-68.5624,-16.9202,4000.2236],[-68.5423,-16.8988,4050.3628],[-68.5244,-16.9048,4142.3223],[-68.5197,-16.903,4186.9404],[-68.5184,-16.8987,4234.4385],[-68.5238,-16.8921,4105.1357],[-68.5239,-16.8877,4061.7124],[-68.5305,-16.8836,4033.135],[-68.5361,-16.8718,4010.1492],[-68.5456,-16.8643,3949.9478],[-68.5521,-16.8519,3926.093],[-68.5577,-16.8531,3922.7261],[-68.5923,-16.8696,3926.5923],[-68.6023,-16.8791,3960.3906],[-68.6162,-16.8829,3976.5347],[-68.6308,-16.9015,4249.2715],[-68.639,-16.885,4155.0322],[-68.6445,-16.8694,4106.4902],[-68.6431,-16.8584,3973.7822],[-68.6493,-16.8495,3918.1382],[-68.6389,-16.8477,3924.3242],[-68.6381,-16.8376,3892.9001],[-68.6327,-16.8257,3880.7874],[-68.6244,-16.8128,3873.2068],[-68.6226,-16.8064,3873.1719],[-68.625,-16.8074,3872.6763],[-68.6258,-16.8126,3868.8882],[-68.6285,-16.8158,3867.9087],[-68.6358,-16.8136,3864.158],[-68.6379,-16.8147,3863.0522],[-68.637,-16.8165,3864.7805],[-68.6383,-16.818,3863.7483],[-68.641,-16.8177,3862.0762],[-68.6424,-16.8151,3860.9331],[-68.6486,-16.8174,3859.3804],[-68.6528,-16.8165,3856.9124],[-68.6551,-16.8208,3856.2354],[-68.6675,-16.8202,3852.7822],[-68.6691,-16.8213,3854.7327],[-68.6721,-16.819,3850.8667],[-68.6724,-16.8229,3851.3271],[-68.6738,-16.8232,3858.9731],[-68.6749,-16.8206,3850.5498],[-68.673,-16.8182,3850.8667],[-68.675,-16.8147,3849.3076],[-68.6803,-16.8151,3847.832],[-68.6818,-16.8169,3849.5789],[-68.6882,-16.8134,3846.1333],[-68.6911,-16.8155,3845.3179],[-68.694,-16.8133,3844.5308],[-68.6958,-16.8158,3843.4746],[-68.6988,-16.815,3843.6577],[-68.7002,-16.8189,3843.9548],[-68.7029,-16.8188,3841.8074],[-68.7078,-16.8238,3841.1138],[-68.7109,-16.8234,3840.2439],[-68.713,-16.8248,3840.2622],[-68.7141,-16.8233,3839.3169],[-68.7243,-16.822,3836.9951],[-68.7255,-16.8264,3837.073],[-68.7289,-16.8265,3836.1333],[-68.7301,-16.8289,3836.4658],[-68.7318,-16.825,3834.7725],[-68.7388,-16.8281,3833.616],[-68.7397,-16.8309,3833.4358],[-68.7412,-16.8307,3833.657],[-68.7417,-16.8273,3833.3767],[-68.7436,-16.8268,3833.0029],[-68.7437,-16.8721,3858.833],[-68.7576,-16.9078,3814.5168],[-68.7485,-16.9105,3815.5105],[-68.7397,-16.9195,3824.0239],[-68.7357,-16.9286,3839.4014],[-68.722,-16.9429,3844.0845],[-68.7351,-16.9472,3836.0381],[-68.7407,-16.9475,3831.0273],[-68.7466,-16.9457,3827.5317],[-68.7477,-16.9426,3828.8203],[-68.7499,-16.9436,3824.9373],[-68.7514,-16.9408,3822.4712],[-68.7621,-16.9426,3822.2239],[-68.7665,-16.9372,3809.1643],[-68.7707,-16.9452,3809.6069],[-68.7718,-16.9512,3808.9121],[-68.7652,-16.9556,3809.0925],[-68.7648,-16.9587,3808.5347],[-68.7742,-16.9575,3808.9404],[-68.778,-16.952,3808.5337],[-68.783,-16.9546,3808.7405],[-68.7886,-16.9545,3808.321],[-68.7926,-16.96,3810.1326],[-68.7889,-16.9705,3808.3071],[-68.7912,-16.9754,3808.1318],[-68.7963,-16.9802,3807.7046],[-68.8066,-16.9839,3808.9067],[-68.8205,-16.9839,3807.9048],[-68.8332,-16.9914,3809.9292],[-68.8369,-16.9916,3808.675],[-68.8396,-16.9889,3808.9507],[-68.848,-16.9935,3807.0928],[-68.8584,-17.0092,3806.9985],[-68.858,-17.0174,3806.8687],[-68.8519,-17.0239,3807.0801],[-68.8526,-17.0272,3809.1565],[-68.8558,-17.0293,3806.9167],[-68.8586,-17.0382,3806.4785],[-68.8529,-17.0415,3806.5801],[-68.8533,-17.0465,3806.8857],[-68.8512,-17.0492,3806.1025],[-68.9059,-17.0497,3925.6353],[-68.9337,-17.0669,4011.7263],[-68.9406,-17.0635,3920.2273],[-68.9454,-17.0636,3904.2832],[-68.9511,-17.0693,3882.2319],[-68.9556,-17.0702,3874.8735],[-68.9637,-17.1006,3855.7791],[-68.966,-17.1015,3854.7148],[-68.981,-17.1012,3851.4492],[-68.9825,-17.0999,3851.4492],[-68.9845,-17.1018,3850.8018],[-68.9901,-17.0997,3850.2866],[-68.9957,-17.0955,3849.7266],[-69.0037,-17.0831,3848.6321],[-69.0071,-17.082,3848.6545],[-69.0092,-17.0839,3848.9407],[-69.0117,-17.0831,3848.573],[-69.0139,-17.0783,3848.2097],[-69.0164,-17.0774,3848.085],[-69.0174,-17.0701,3847.876],[-69.0193,-17.068,3847.6646],[-69.0576,-17.0797,3857.1204],[-69.0194,-17.1059,3874.3105],[-69.0169,-17.1117,3883.6184],[-69.0172,-17.1269,3868.7349],[-69.0152,-17.1304,3866.3577],[-69.018,-17.1447,3872.5061],[-69.023,-17.1515,3874.9773],[-69.028,-17.1528,3876.8438],[-69.0301,-17.1554,3880.6021],[-69.0348,-17.1552,3883.4702],[-69.0395,-17.1602,3894.9202],[-69.0474,-17.1636,3912.9482],[-69.0632,-17.1519,3903.3838],[-69.0744,-17.1481,3882.6074],[-69.0802,-17.1512,3882.5159],[-69.0809,-17.1547,3885.1108],[-69.0867,-17.1593,3891.0728],[-69.0937,-17.1585,3895.3386],[-69.0999,-17.1625,3902.2153],[-69.1025,-17.171,3915.1921],[-69.1121,-17.1805,3927.2563],[-69.1274,-17.1872,3970.4343],[-69.1335,-17.1962,4019.3818],[-69.1395,-17.1965,4082.7905],[-69.1456,-17.2025,4230.8408],[-69.1494,-17.2109,4206.3833],[-69.1491,-17.215,4233.2891],[-69.1442,-17.2232,4372.8853],[-69.1466,-17.2314,4473.6743],[-69.153,-17.2316,4244.6733],[-69.1575,-17.2295,4171.2744],[-69.1691,-17.2342,4322.5249],[-69.1881,-17.2368,4036.4956],[-69.1919,-17.2416,4006.8325],[-69.1814,-17.2509,4245.3179],[-69.1733,-17.2638,4292.1899],[-69.1712,-17.2719,4099.7905],[-69.1786,-17.2766,4036.6479],[-69.1774,-17.289,4057.5752],[-69.1784,-17.2909,4077.1899],[-69.1755,-17.3006,4122.4531],[-69.1762,-17.3024,4144.5908],[-69.1794,-17.3033,4169.0537]]]]}
,"properties": {"GID_3": "BOL.4.20.2_2","GID_0": "BOL","country": "Bolivia","GID_1": "BOL.4_1","province": "LaPaz","NL_NAME_1": "NA","GID_2": "BOL.4.20_2","county": "Pacajes","NL_NAME_2": "NA","city": "Caquiaviri","VARNAME_3": "NA","NL_NAME_3": "NA","TYPE_3": "District","ENGTYPE_3": "Distrito","CC_3": "NA","HASC_3": "NA","name": "Caquiaviri.city","area_km2": 1554.602,"hist_schema_id": "Elevation0-9000","hist_area_km2": {"3800": 39.037,"3825": 217.977,"3850": 291.375,"3875": 287.879,"3900": 117.799,"3925": 89.284,"3950": 83.437,"3975": 75.594,"4000": 63.455,"4025": 50.181,"4050": 40.553,"4075": 33.277,"4100": 27.336,"4125": 21.905,"4150": 19.41,"4175": 18.112,"4200": 17.909,"4225": 14.951,"4250": 12.013,"4275": 9.5,"4300": 7.332,"4325": 4.962,"4350": 3.443,"4375": 2.593,"4400": 1.54,"4425": 0.77,"4450": 0.912,"4475": 0.77,"4500": 0.547,"4525": 0.365,"4550": 0.182,"4575": 0.081,"4600": 0.101,"4625": 0.02}}}