{"type":"Feature","properties":{"GID_3":"BOL.4.8.1_2","GID_0":"BOL","country":"Bolivia","GID_1":"BOL.4_1","province":"LaPaz","NL_NAME_1":"NA","GID_2":"BOL.4.8_2","county":"GeneralJoséManuelPando","NL_NAME_2":"NA","city":"Catacora","VARNAME_3":"NA","NL_NAME_3":"NA","TYPE_3":"District","ENGTYPE_3":"Distrito","CC_3":"NA","HASC_3":"NA","name":"Catacora.city"},
"geometry":{"type": "MultiPolygon","coordinates": [[[[-69.4679,-17.4153,4077.4214],[-69.4616,-17.4155,4071.5166],[-69.4543,-17.4207,4062.4023],[-69.4493,-17.4179,4074.8152],[-69.4462,-17.4196,4077.4966],[-69.4393,-17.4196,4026.3],[-69.4406,-17.4179,4035.2275],[-69.4371,-17.4162,4078.2175],[-69.4352,-17.4118,4090.5063],[-69.4272,-17.4089,4122.0059],[-69.4162,-17.3987,4185.6699],[-69.4057,-17.3934,4262.9521],[-69.3997,-17.3858,4364.7417],[-69.3974,-17.3785,4452.9985],[-69.3779,-17.3637,4771.168],[-69.3724,-17.3618,4939.8628],[-69.3635,-17.348,5005.0771],[-69.3699,-17.3358,4797.3125],[-69.401,-17.3129,4774.9287],[-69.3984,-17.2957,4886.6802],[-69.4147,-17.2871,4692.749],[-69.4285,-17.2721,4675.5781],[-69.4246,-17.2608,4848.7197],[-69.4243,-17.2457,4998.2422],[-69.4263,-17.2408,5032.5298],[-69.4226,-17.235,4950.2632],[-69.413,-17.2303,4981.7563],[-69.4082,-17.2198,5024.332],[-69.3956,-17.2087,4973.1616],[-69.3841,-17.1954,4838.0996],[-69.367,-17.1672,4341.9897],[-69.3632,-17.164,4366.7671],[-69.3618,-17.1589,4196.7036],[-69.3723,-17.1509,4333.1899],[-69.3761,-17.1503,4354.8701],[-69.3845,-17.1538,4377.9287],[-69.3876,-17.1521,4384.1934],[-69.388,-17.1479,4418.5195],[-69.39,-17.1459,4430.0547],[-69.3989,-17.145,4485.0244],[-69.4147,-17.1381,4509.0728],[-69.4208,-17.1336,4592.7988],[-69.4264,-17.1174,4673.646],[-69.4305,-17.1111,4839.1406],[-69.4511,-17.094,4592.478],[-69.4791,-17.1152,4234.8604],[-69.5155,-17.1497,4192.042],[-69.547,-17.1631,4248.4561],[-69.558,-17.1656,4209.335],[-69.5626,-17.1755,4358.2515],[-69.5721,-17.1862,4199.5195],[-69.5692,-17.1945,4198.5],[-69.577,-17.2019,4198.3433],[-69.5784,-17.2065,4195.0391],[-69.5839,-17.2092,4191.5645],[-69.5904,-17.2101,4189.6846],[-69.5924,-17.209,4201.0513],[-69.5949,-17.2131,4188.751],[-69.5994,-17.2147,4185.1445],[-69.6037,-17.2197,4185.3828],[-69.6041,-17.2261,4183.9463],[-69.6069,-17.2276,4192.3911],[-69.6059,-17.2292,4183.7778],[-69.6168,-17.2617,4191.1064],[-69.6284,-17.2739,4182.9551],[-69.6363,-17.2708,4175.0454],[-69.639,-17.2767,4191.5127],[-69.6452,-17.2814,4175.813],[-69.6417,-17.2869,4171.9316],[-69.5759,-17.2914,4570.5405],[-69.5133,-17.3424,4214.4883],[-69.4692,-17.3735,4279.5791],[-69.4679,-17.4153,4077.4214]]]]}}