{"type":"Feature","properties":{"featurecla":"Alkaline Lake","scalerank":7,"name":"Lago Poopó","name_abb":"L. Poopó","name_alt":null,"note":null,"delta":null,"dam_name":null,"year":-99,"admin":null,"min_zoom":5.7,"min_label":6.7},
"geometry":{"type": "Polygon","coordinates": [[[-66.888798142443164,-18.953403639681881,3685.5],[-66.937221041356324,-18.896885727272604,3685.5],[-66.956649073747016,-18.85979584725402,3685.5],[-66.991825586939242,-18.732336180206005,3685.5],[-67.003600152024518,-18.716440517340885,3685.5],[-67.033625292991943,-18.692302658916105,3685.5],[-67.044811129822946,-18.67258026239827,3685.5],[-67.05688005903535,-18.665515523347125,3685.5],[-67.080576371269444,-18.656684599533151,3685.5],[-67.092645300481848,-18.656978963660293,3685.5],[-67.098826947151608,-18.661100061440123,3685.5],[-67.102948044931452,-18.661394425567266,3685.5],[-67.108540963346954,-18.64991422460912,3685.5],[-67.109276873664783,-18.632252376981228,3685.5],[-67.088229838574875,-18.545120595350255,3685.5],[-67.066299711103568,-18.504203981678955,3687.668],[-67.067624349675654,-18.492723780720809,3686.5],[-67.056291330781079,-18.457988813719282,3689.3164],[-67.039659757598145,-18.279898516804622,3693.2817],[-67.026560553940783,-18.256055022506956,3694.2144],[-67.028621102830712,-18.24634100631161,3694.2756],[-67.033625292991943,-18.243691729167438,3694.4563],[-67.0402484858524,-18.242514272658894,3694.5649],[-67.04716604284,-18.238981903133322,3694.9414],[-67.091173479846191,-18.187468180885276,3697.041],[-67.091173479846191,-18.171278153893041,3695.3289],[-67.0601180644338,-18.101808219889961,3696.1133],[-67.042897762996589,-18.079730910355096,3696.0],[-67.035833023945429,-18.067073252888434,3697.105],[-67.0368632983904,-18.057064872565945,3697.1426],[-67.046577314585747,-18.049411405260514,3697.1265],[-67.068801806184183,-18.037048111920996,3696.8096],[-67.077485547934572,-18.029689008742707,3698.8813],[-67.095147395562464,-18.024390454454334,3697.4893],[-67.121051438750058,-18.02910028048845,3697.4641],[-67.146808299874067,-18.03822556842951,3697.9709],[-67.163145508929887,-18.0464677639892,3696.9407],[-67.176244712587234,-18.061185970345804,3697.9358],[-67.182131995129879,-18.076787269083781,3698.4209],[-67.1897854624353,-18.0891505624233,3698.8159],[-67.207888856253888,-18.094449116711672,3699.094],[-67.214512049114362,-18.098864578618645,3699.5098],[-67.220840877847692,-18.109461687195392,3700.2749],[-67.224961975627537,-18.121236252280653,3701.1321],[-67.225256339754665,-18.1291840837132,3701.738],[-67.184339726083365,-18.143607925942661,3698.9736],[-67.137094283678735,-18.18364144723256,3698.2578],[-67.1289992701826,-18.194532919936449,3698.085],[-67.120757074622915,-18.196593468826364,3697.991],[-67.074394724599685,-18.232211528209291,3695.3357],[-67.0596765182431,-18.270773228863533,3693.6809],[-67.054377963954735,-18.317871489204606,3692.3247],[-67.059087789988837,-18.363203564782879,3691.0803],[-67.074394724599685,-18.397349803530147,3690.1567],[-67.086905200002775,-18.407063819725494,3690.104],[-67.100298767787265,-18.415306015285182,3689.709],[-67.111043058427569,-18.427080580370472,3685.5],[-67.120168346368658,-18.467997194041772,3688.24],[-67.13209009351749,-18.490368867703779,3687.521],[-67.1475442101919,-18.511563084857244,3685.5],[-67.163145508929887,-18.52716438359522,3685.5],[-67.238208361348455,-18.56719790488512,3685.5],[-67.262493401836821,-18.595456861089787,3685.5],[-67.252485021514346,-18.636373474761086,3685.5],[-67.242035095001171,-18.648736768100605,3685.5],[-67.235117538013569,-18.654329686516121,3685.5],[-67.228641527216681,-18.656684599533151,3685.5],[-67.194200924342269,-18.660216969058752,3685.5],[-67.18640027497328,-18.666104251601382,3685.5],[-67.163145508929887,-18.677290088432386,3685.5],[-67.162115234484915,-18.6811168220851,3685.5],[-67.163881419247716,-18.69348011542462,3685.5],[-67.163145508929887,-18.69760121320445,3685.5],[-67.159024411150043,-18.698484305585851,3685.5],[-67.146366753683381,-18.696718120823078,3685.5],[-67.142687202094237,-18.69760121320445,3685.5],[-67.137977376060121,-18.706432137018425,3685.5],[-67.1303239087547,-18.727920718299032,3685.5],[-67.1289992701826,-18.735868549731578,3685.5],[-67.132531639708191,-18.744110745291266,3685.5],[-67.140921017331436,-18.747937478943982,3685.5],[-67.150929397653911,-18.750881120215297,3685.5],[-67.169768701790346,-18.7638331418091,3685.5],[-67.189049552117467,-18.771780973241647,3685.5],[-67.197880475931413,-18.78031753292845,3685.5],[-67.2065642176818,-18.792386462140854,3685.5],[-67.208477584508159,-18.797390652302084,3685.5],[-67.197880475931413,-18.807399032624573,3685.5],[-67.182720723384136,-18.819173597709835,3685.5],[-67.139007650505079,-18.83889599422767,3685.5],[-67.091320661909748,-18.873925325356339,3685.5],[-67.080870735396573,-18.888054803458658,3685.5],[-67.074394724599685,-18.910426477120666,3685.5],[-67.0768968196803,-18.908954656485008,3685.5],[-67.081459463650845,-18.91072084124778,3685.5],[-67.086022107621389,-18.915136303154753,3685.5],[-67.0880826565113,-18.921023585697412,3685.5],[-67.086905200002775,-18.927205232367157,3685.5],[-67.08440310492216,-18.929854509511358,3685.5],[-67.081753827777973,-18.93162069427413,3685.5],[-67.080576371269444,-18.934858699672589,3685.5],[-67.079693278888058,-18.94251216697802,3685.5],[-67.075424999044643,-18.958113465715996,3685.5],[-67.07189262951907,-18.992554068590408,3685.5],[-67.066299711103568,-19.0110990085997,3685.5],[-67.053347689509764,-19.040829785439996,3685.5],[-67.0527589612555,-19.047894524491142,3685.5],[-67.055261056336121,-19.051721258143857,3685.5],[-67.05849906173458,-19.054370535288058,3685.5],[-67.0601180644338,-19.057608540686488,3685.5],[-67.058057515543879,-19.063790187356261,3685.5],[-67.049226591729919,-19.07291547529735,3685.5],[-67.04716604284,-19.078802757839981,3685.5],[-67.04716604284,-19.119425007384137,3685.5],[-67.039218211407444,-19.143268501681803,3685.5],[-67.0053663367873,-19.172410550267841,3685.5],[-66.998743143926845,-19.192427310912791,3689.2363],[-66.979020747409024,-19.172704914394984,3688.021],[-66.924269019762534,-19.142679773427545,3685.5],[-66.902486074354783,-19.121779920401195,3685.5],[-66.8868847756168,-19.091754779433757,3685.5],[-66.869075745925343,-19.020518660667904,3685.5],[-66.871872205133087,-18.984017508903577,3685.5],[-66.888798142443164,-18.953403639681881,3685.5]]]}}