{"type":"Feature","properties":{"GID_2":"BOL.9.6_2","GID_0":"BOL","country":"Bolivia","GID_1":"BOL.9_1","province":"Tarija","NL_NAME_1":"NA","county":"O'Connor","VARNAME_2":"NA","NL_NAME_2":"NA","TYPE_2":"Provincia","ENGTYPE_2":"Province","CC_2":"NA","HASC_2":"NA","name":"O'Connor.county"},
"geometry":{"type": "MultiPolygon","coordinates": [[[[-64.1604,-20.8874,640.581],[-64.1732,-20.8859,658.0001],[-64.1787,-20.887,684.8806],[-64.1805,-20.8892,726.1226],[-64.1808,-20.8916,659.0723],[-64.1749,-20.8984,651.6473],[-64.1774,-20.9042,655.3258],[-64.1814,-20.9085,659.7222],[-64.1827,-20.9135,662.0505],[-64.1811,-20.9186,691.762],[-64.1873,-20.9309,668.4512],[-64.1873,-20.9342,674.0529],[-64.1835,-20.9365,700.193],[-64.1822,-20.9408,675.6686],[-64.1875,-20.9442,717.9671],[-64.1872,-20.9494,682.3524],[-64.1902,-20.9532,679.3606],[-64.1976,-20.9574,691.1686],[-64.1973,-20.9592,689.6578],[-64.195,-20.9595,739.9619],[-64.1853,-20.9558,798.4153],[-64.1808,-20.9614,702.1241],[-64.1842,-20.9666,693.3548],[-64.1905,-20.9683,748.9114],[-64.1915,-20.9703,697.38],[-64.1898,-20.9777,695.5664],[-64.1928,-20.9849,701.3912],[-64.1855,-20.9889,709.6263],[-64.1835,-20.9927,710.3584],[-64.1864,-21.0008,771.2494],[-64.1859,-21.0036,830.0853],[-64.1957,-21.0053,729.1077],[-64.1934,-21.0101,766.7368],[-64.1871,-21.0117,750.9938],[-64.1817,-21.0209,856.2194],[-64.1832,-21.0239,743.3773],[-64.1794,-21.0274,734.1209],[-64.1817,-21.0308,737.0481],[-64.1854,-21.0324,733.5759],[-64.1993,-21.0336,767.8035],[-64.2001,-21.0368,812.2225],[-64.1986,-21.0421,769.3732],[-64.1949,-21.0443,847.0737],[-64.194,-21.0498,798.6929],[-64.1955,-21.0572,830.2957],[-64.1995,-21.0619,756.0715],[-64.1997,-21.0662,772.0151],[-64.1939,-21.0763,804.8716],[-64.1935,-21.084,790.1298],[-64.189,-21.0902,793.1624],[-64.1958,-21.1092,824.8157],[-64.1993,-21.1132,804.6931],[-64.1981,-21.1194,801.3707],[-64.2015,-21.1223,822.132],[-64.2005,-21.1277,826.0949],[-64.2032,-21.1349,800.5343],[-64.201,-21.1385,803.2256],[-64.2108,-21.1396,808.4879],[-64.2192,-21.1439,806.7618],[-64.2223,-21.149,805.2133],[-64.2291,-21.152,810.343],[-64.2446,-21.1493,847.3085],[-64.2468,-21.1451,867.9703],[-64.2569,-21.1428,834.9254],[-64.2618,-21.1389,855.8254],[-64.2695,-21.1368,836.5219],[-64.273,-21.1384,846.1783],[-64.2762,-21.1346,880.5258],[-64.2817,-21.1333,901.0179],[-64.2869,-21.1342,862.8596],[-64.2903,-21.1325,974.2468],[-64.2971,-21.1353,869.8995],[-64.3056,-21.1337,949.6152],[-64.3108,-21.1374,870.8527],[-64.3144,-21.1353,900.1545],[-64.3233,-21.1361,995.9111],[-64.3301,-21.1415,898.9219],[-64.3368,-21.1406,945.339],[-64.3413,-21.1457,892.1375],[-64.3437,-21.146,974.6013],[-64.3643,-21.1428,919.1545],[-64.3763,-21.1363,933.8721],[-64.3797,-21.1368,920.1609],[-64.3825,-21.1279,1007.7906],[-64.391,-21.124,977.8383],[-64.3921,-21.1311,954.2468],[-64.391,-21.1414,996.0266],[-64.3925,-21.145,1011.5884],[-64.3981,-21.1486,1065.8636],[-64.4002,-21.1546,1073.6488],[-64.4038,-21.1573,1071.8319],[-64.4057,-21.1661,1105.4694],[-64.4091,-21.1707,1145.708],[-64.4187,-21.174,1260.5045],[-64.4213,-21.1772,1210.094],[-64.4196,-21.1809,1249.8],[-64.4209,-21.1879,1224.9172],[-64.4196,-21.1957,1258.3462],[-64.4203,-21.1989,1271.5792],[-64.4233,-21.2011,1359.7285],[-64.4244,-21.2088,1319.6018],[-64.4215,-21.2167,1362.4169],[-64.425,-21.2244,1455.4828],[-64.4236,-21.2342,1421.5483],[-64.4248,-21.2369,1433.1954],[-64.4304,-21.2394,1469.1129],[-64.432,-21.2419,1474.4348],[-64.4295,-21.2625,1554.7777],[-64.4345,-21.2748,1619.4806],[-64.4403,-21.2828,1661.0046],[-64.4354,-21.2949,1715.418],[-64.4375,-21.3111,1786.9194],[-64.4322,-21.3208,1867.8821],[-64.4236,-21.3255,1925.7369],[-64.4226,-21.328,1953.2568],[-64.4199,-21.328,1973.0372],[-64.4188,-21.3304,1981.0695],[-64.4135,-21.3309,2081.0811],[-64.4082,-21.3266,2077.2856],[-64.4025,-21.3267,2109.3345],[-64.4031,-21.3242,2252.197],[-64.4009,-21.3247,2145.2603],[-64.399,-21.3218,2225.0137],[-64.3934,-21.324,2308.6338],[-64.3885,-21.3227,2343.1499],[-64.3827,-21.3247,2396.792],[-64.3781,-21.3212,2485.084],[-64.3593,-21.32,3141.5825],[-64.3585,-21.318,3185.355],[-64.3464,-21.3129,3266.9348],[-64.3495,-21.3231,3321.5237],[-64.354,-21.3249,3308.0938],[-64.3538,-21.3338,3209.6086],[-64.3576,-21.3361,3234.0842],[-64.3581,-21.3455,3325.6648],[-64.3616,-21.3515,3196.7012],[-64.3601,-21.3608,3050.7185],[-64.3548,-21.3656,2975.7759],[-64.3678,-21.3861,3045.7402],[-64.3973,-21.3874,2766.3618],[-64.3976,-21.3955,2706.7639],[-64.4012,-21.3958,2668.5356],[-64.3993,-21.3995,2673.3335],[-64.403,-21.3998,2617.449],[-64.407,-21.4041,2576.689],[-64.4088,-21.404,2557.6387],[-64.4089,-21.4058,2561.8223],[-64.4063,-21.4083,2635.0469],[-64.4088,-21.4108,2572.4087],[-64.4061,-21.4164,2496.3223],[-64.4121,-21.4169,2618.0479],[-64.4166,-21.422,2573.4614],[-64.4227,-21.4215,2637.3416],[-64.4277,-21.4353,2623.3521],[-64.4272,-21.4399,2634.8005],[-64.4327,-21.4466,2575.0474],[-64.4321,-21.4615,2379.2117],[-64.425,-21.4703,2437.259],[-64.4206,-21.4709,2568.5144],[-64.4161,-21.4686,2619.9097],[-64.4123,-21.4699,2457.8682],[-64.4047,-21.4491,2772.3792],[-64.3911,-21.4519,2703.6257],[-64.3852,-21.4566,2798.0386],[-64.382,-21.4691,2907.7168],[-64.3628,-21.4822,2854.0718],[-64.3609,-21.5,2495.7954],[-64.3655,-21.5065,2645.6987],[-64.3673,-21.519,2528.1021],[-64.3643,-21.5244,2622.1353],[-64.3319,-21.5533,2335.8906],[-64.3259,-21.5781,2466.9944],[-64.329,-21.5922,2349.0645],[-64.3506,-21.619,2232.5752],[-64.3413,-21.6355,1912.7067],[-64.3409,-21.639,1856.9873],[-64.3458,-21.6472,1637.4257],[-64.347,-21.6629,1521.7529],[-64.3451,-21.6679,1431.6222],[-64.3483,-21.6705,1379.7565],[-64.3517,-21.6798,1316.9353],[-64.3503,-21.6826,1344.7749],[-64.3489,-21.7012,1156.4546],[-64.345,-21.7076,1140.1566],[-64.3489,-21.715,1124.3739],[-64.3523,-21.7178,1113.8605],[-64.353,-21.7223,1156.5787],[-64.3555,-21.7237,1142.1895],[-64.3551,-21.726,1124.5135],[-64.3579,-21.7279,1130.3538],[-64.3554,-21.7305,1071.2361],[-64.3584,-21.7309,1080.1439],[-64.3586,-21.7325,1071.6166],[-64.3571,-21.7324,1071.6166],[-64.3579,-21.7355,1075.8911],[-64.3617,-21.7377,1059.9211],[-64.3611,-21.7423,1061.3683],[-64.3644,-21.7467,1038.8513],[-64.3625,-21.7512,1040.3464],[-64.3657,-21.7588,1041.4702],[-64.3631,-21.7624,1038.9039],[-64.3629,-21.7666,1016.2386],[-64.3667,-21.7689,1017.9962],[-64.3686,-21.7726,1004.7065],[-64.3645,-21.7737,1021.4327],[-64.3637,-21.7764,995.2427],[-64.3616,-21.7772,996.2243],[-64.3618,-21.7796,1022.5225],[-64.3568,-21.7873,1013.0568],[-64.3567,-21.7905,982.8203],[-64.3505,-21.7985,999.7208],[-64.3556,-21.8038,991.2673],[-64.3522,-21.8067,994.2737],[-64.3558,-21.8099,1007.9468],[-64.3537,-21.8137,964.864],[-64.3556,-21.8158,1008.9507],[-64.3532,-21.8186,962.4106],[-64.3579,-21.8183,967.4279],[-64.3604,-21.8216,956.3826],[-64.3571,-21.8258,932.6864],[-64.3592,-21.8354,928.5574],[-64.3533,-21.8374,920.7731],[-64.3524,-21.8503,947.495],[-64.3542,-21.853,914.3469],[-64.3606,-21.8553,907.4835],[-64.359,-21.8607,901.7245],[-64.3616,-21.8649,959.8275],[-64.3612,-21.867,926.2286],[-64.356,-21.8723,894.4768],[-64.3594,-21.8776,888.8546],[-64.3582,-21.8907,884.0404],[-64.3622,-21.8986,889.4776],[-64.3606,-21.9125,915.9659],[-64.3565,-21.9158,888.168],[-64.3557,-21.9223,859.9845],[-64.3517,-21.924,854.1239],[-64.3508,-21.931,865.9681],[-64.3439,-21.9379,972.0338],[-64.3423,-21.9434,892.9609],[-64.3354,-21.9438,948.861],[-64.3353,-21.9528,867.8239],[-64.3339,-21.9545,885.5562],[-64.3258,-21.9538,842.7484],[-64.3199,-21.9472,835.9635],[-64.3156,-21.9479,885.655],[-64.3141,-21.9509,843.9009],[-64.3102,-21.9465,829.0374],[-64.306,-21.951,845.3512],[-64.3018,-21.9495,826.1193],[-64.2985,-21.9519,846.2792],[-64.3029,-21.9567,817.5082],[-64.2998,-21.9602,835.9315],[-64.291,-21.9593,963.5304],[-64.2855,-21.9607,907.7443],[-64.2603,-21.9605,1241.2874],[-64.254,-21.9618,1349.9541],[-64.25,-21.9596,1389.6715],[-64.2461,-21.9609,1595.3823],[-64.2364,-21.96,1660.41],[-64.2222,-21.9555,1195.0657],[-64.219,-21.9531,1117.8491],[-64.2129,-21.9545,1085.4812],[-64.2114,-21.9528,1184.1733],[-64.2052,-21.9563,1003.7839],[-64.2056,-21.9606,987.0176],[-64.1999,-21.9671,941.9559],[-64.1889,-21.9641,914.646],[-64.1806,-21.9647,851.4982],[-64.173,-21.9719,870.5446],[-64.1712,-21.9765,806.0931],[-64.1649,-21.9786,793.7593],[-64.1627,-21.9821,814.8264],[-64.1571,-21.9843,925.0939],[-64.1543,-21.9884,926.6965],[-64.1415,-21.9902,871.8168],[-64.1344,-21.988,931.4202],[-64.1335,-21.9833,866.343],[-64.1256,-21.9781,877.7144],[-64.1233,-21.9727,879.3251],[-64.115,-21.9628,938.3773],[-64.0989,-21.9491,964.7292],[-64.0933,-21.9488,957.3657],[-64.0891,-21.9583,991.2852],[-64.0713,-21.958,1248.5918],[-64.0505,-21.9522,1679.0394],[-64.0329,-21.9319,1841.4355],[-64.0225,-21.9116,1785.3469],[-64.0186,-21.8924,1465.2007],[-64.0201,-21.8532,1884.3716],[-64.0097,-21.8194,1901.0178],[-64.0069,-21.7955,1953.913],[-63.9963,-21.763,1940.5566],[-64.0053,-21.7445,1999.3689],[-64.0036,-21.7361,2001.8486],[-63.9945,-21.7266,2100.6045],[-63.9842,-21.6881,2017.1151],[-63.9759,-21.6649,2000.8872],[-63.9674,-21.6483,1842.5826],[-63.9675,-21.6394,2027.6521],[-63.9598,-21.6313,1993.0648],[-63.9603,-21.6118,1924.1187],[-63.9573,-21.6022,1917.0779],[-63.9572,-21.593,1825.3766],[-63.9521,-21.5811,1906.0371],[-63.9459,-21.5799,1919.1345],[-63.9426,-21.5762,1884.2625],[-63.9431,-21.5714,1852.8428],[-63.9472,-21.5665,1763.2845],[-63.9489,-21.5615,1951.571],[-63.9471,-21.5561,1896.1664],[-63.9473,-21.5483,2031.1045],[-63.9496,-21.5404,1944.6176],[-63.9471,-21.535,1881.881],[-63.9464,-21.5271,2001.8049],[-63.9434,-21.5257,1923.4683],[-63.9373,-21.5154,1935.2971],[-63.9329,-21.5136,1813.4734],[-63.9241,-21.5222,1755.4534],[-63.9207,-21.5208,1616.3492],[-63.9138,-21.5227,1416.5275],[-63.9047,-21.5207,1280.3486],[-63.8986,-21.5171,1283.4558],[-63.8862,-21.5217,1188.5908],[-63.8823,-21.5208,1215.8829],[-63.8794,-21.5226,1140.4962],[-63.8778,-21.5218,1140.4962],[-63.8751,-21.5239,1084.4873],[-63.8679,-21.5249,1060.1777],[-63.8247,-21.5144,907.0126],[-63.8183,-21.5146,889.2845],[-63.8097,-21.5197,872.8824],[-63.8029,-21.5125,843.491],[-63.7924,-21.5152,831.9459],[-63.7892,-21.5124,827.2863],[-63.7898,-21.509,833.4263],[-63.7837,-21.5059,822.5863],[-63.7844,-21.5005,821.7583],[-63.7822,-21.4991,824.2438],[-63.784,-21.4973,810.646],[-63.7831,-21.4964,810.646],[-63.7865,-21.4954,805.7778],[-63.7863,-21.494,821.9442],[-63.784,-21.4938,803.8689],[-63.7852,-21.4931,821.9442],[-63.7841,-21.4908,801.7358],[-63.7856,-21.4895,792.2635],[-63.7851,-21.4877,791.7229],[-63.7871,-21.4865,793.7225],[-63.7869,-21.4831,786.6546],[-63.7843,-21.4794,796.6603],[-63.7906,-21.4756,772.6112],[-63.7869,-21.4717,772.2582],[-63.7886,-21.4667,771.2803],[-63.7829,-21.4577,758.0737],[-63.7835,-21.454,767.3596],[-63.7816,-21.4532,756.9221],[-63.7836,-21.4477,760.101],[-63.7809,-21.4483,744.4801],[-63.7802,-21.4465,752.7621],[-63.7853,-21.4384,748.3569],[-63.7849,-21.4368,747.5227],[-63.7826,-21.4363,749.4581],[-63.7839,-21.4235,721.075],[-63.782,-21.4179,710.6214],[-63.7782,-21.4138,708.9078],[-63.7799,-21.4088,708.6427],[-63.7748,-21.4078,707.1149],[-63.7719,-21.4025,702.3965],[-63.7725,-21.4005,694.2579],[-63.7701,-21.3997,698.6036],[-63.7695,-21.3975,699.2844],[-63.7712,-21.3948,692.8108],[-63.7683,-21.386,689.0043],[-63.7693,-21.384,705.3342],[-63.765,-21.3827,684.3977],[-63.766,-21.3786,673.3243],[-63.7637,-21.379,671.0446],[-63.7622,-21.3834,697.4232],[-63.756,-21.3887,714.379],[-63.7413,-21.3937,747.6169],[-63.7348,-21.3945,767.6806],[-63.7314,-21.3927,777.0953],[-63.7238,-21.3969,812.0928],[-63.7201,-21.4015,817.0261],[-63.7163,-21.4015,830.4757],[-63.7147,-21.3986,845.611],[-63.7129,-21.3991,845.611],[-63.7114,-21.3969,921.0612],[-63.7078,-21.3984,924.3809],[-63.7063,-21.3961,1037.3969],[-63.7041,-21.3971,1047.8315],[-63.7024,-21.3955,1142.4568],[-63.6987,-21.3969,1225.5817],[-63.6967,-21.3851,1320.4961],[-63.6914,-21.374,1327.8981],[-63.6888,-21.3552,1528.2009],[-63.6813,-21.3369,1409.1333],[-63.6803,-21.3301,1333.6627],[-63.6772,-21.3248,1416.4392],[-63.6733,-21.3243,1373.9302],[-63.6745,-21.3161,1405.7385],[-63.6692,-21.3037,1195.4271],[-63.6663,-21.2919,1461.8818],[-63.6631,-21.2923,1510.6166],[-63.6628,-21.2911,1502.5305],[-63.6625,-21.274,1422.7526],[-63.6599,-21.271,1362.197],[-63.6564,-21.258,1275.8102],[-63.6552,-21.2479,1176.4587],[-63.6567,-21.2434,1139.9098],[-63.6546,-21.2414,1098.8143],[-63.6535,-21.2346,1012.4744],[-63.6512,-21.2335,1025.2511],[-63.6494,-21.2297,888.316],[-63.6484,-21.221,507.175],[-63.6419,-21.1987,1094.934],[-63.6369,-21.1867,1049.6521],[-63.6356,-21.1721,1161.3901],[-63.6338,-21.1701,1230.4597],[-63.6273,-21.1357,1287.141],[-63.6249,-21.1331,1310.6619],[-63.6245,-21.1286,1314.301],[-63.6214,-21.1255,1310.8042],[-63.6209,-21.1213,1286.7147],[-63.6227,-21.1162,1320.5823],[-63.6213,-21.1051,1418.781],[-63.6097,-21.0749,1422.3057],[-63.6018,-21.0388,1434.0491],[-63.6015,-21.0255,1404.8291],[-63.5954,-21.0037,1253.8358],[-63.9874,-21.0037,564.7922],[-63.9965,-21.0064,567.322],[-64.0016,-21.006,591.0271],[-64.0101,-20.9953,576.6964],[-64.0034,-20.9816,585.487],[-64.0033,-20.9797,574.9711],[-64.0108,-20.9688,612.6147],[-64.0056,-20.9508,585.5965],[-64.0064,-20.9467,609.3967],[-64.0093,-20.9459,614.9864],[-64.0115,-20.9472,636.9886],[-64.0124,-20.9557,590.5789],[-64.0186,-20.9561,646.1705],[-64.0226,-20.962,594.2587],[-64.0256,-20.9625,619.0137],[-64.046,-20.9573,608.748],[-64.0484,-20.954,692.6666],[-64.0528,-20.9563,598.6517],[-64.0549,-20.9539,623.4736],[-64.0585,-20.9549,598.7015],[-64.0617,-20.9537,611.5298],[-64.0656,-20.9341,606.2032],[-64.0735,-20.932,608.4424],[-64.0742,-20.9278,608.3018],[-64.0776,-20.9234,611.709],[-64.0852,-20.919,616.5264],[-64.0904,-20.9174,616.8582],[-64.0997,-20.9192,616.8605],[-64.1141,-20.9117,651.5543],[-64.1193,-20.9148,622.7891],[-64.1242,-20.926,637.4082],[-64.1307,-20.9251,655.4518],[-64.132,-20.922,753.2988],[-64.1388,-20.9187,723.7107],[-64.1453,-20.9232,636.8494],[-64.1556,-20.9058,636.5482],[-64.1602,-20.9035,635.8893],[-64.1576,-20.8915,637.8691],[-64.1579,-20.8889,674.6843],[-64.1604,-20.8874,640.581]]]]}}