{"type":"Feature","properties":{"GID_2":"BOL.3.2_2","GID_0":"BOL","country":"Bolivia","GID_1":"BOL.3_1","province":"Beni","NL_NAME_1":"NA","county":"GeneralJoséBallivián","VARNAME_2":"NA","NL_NAME_2":"NA","TYPE_2":"Provincia","ENGTYPE_2":"Province","CC_2":"NA","HASC_2":"NA","name":"General_José_Ballivián.county"},
"geometry":{"type": "MultiPolygon","coordinates": [[[[-66.5315,-15.5655,326.2152],[-66.5158,-13.5711,160.7471],[-66.5137,-12.7257,172.5451],[-66.5061,-12.725,171.5405],[-66.497,-12.7196,167.6286],[-66.4886,-12.7073,164.3637],[-66.4858,-12.6933,158.4607],[-66.4831,-12.6889,159.2661],[-66.4832,-12.6837,159.1382],[-66.4791,-12.6753,159.0103],[-66.4772,-12.6744,158.8615],[-66.4766,-12.6676,156.4064],[-66.4727,-12.6607,156.626],[-66.4736,-12.6585,154.8147],[-66.467,-12.6534,164.7159],[-66.4586,-12.6294,157.6374],[-66.453,-12.6242,163.3921],[-66.4539,-12.6207,149.9927],[-66.4467,-12.6075,148.8193],[-66.4434,-12.5936,163.141],[-66.4403,-12.5889,159.7677],[-66.4405,-12.577,158.7744],[-66.4422,-12.5719,149.8366],[-66.4399,-12.5653,152.3283],[-66.4367,-12.5633,156.9278],[-66.4371,-12.56,157.8221],[-66.4326,-12.5551,156.4473],[-66.4385,-12.5423,150.786],[-66.4359,-12.5408,157.0906],[-66.4315,-12.5286,154.5699],[-66.428,-12.5285,154.2403],[-66.4245,-12.5234,155.8108],[-66.4213,-12.5257,161.6885],[-66.4207,-12.5202,162.0768],[-66.4176,-12.5202,159.8936],[-66.4146,-12.5169,161.1887],[-66.4131,-12.5102,155.7133],[-66.4106,-12.5076,153.4438],[-66.4058,-12.5071,156.9235],[-66.4079,-12.5015,156.3245],[-66.402,-12.4955,152.0747],[-66.3978,-12.483,156.2262],[-66.3959,-12.4824,150.7411],[-66.3949,-12.478,151.1523],[-66.3923,-12.477,152.301],[-66.3933,-12.4745,152.8113],[-66.3923,-12.4718,154.7689],[-66.3911,-12.4726,151.4132],[-66.3914,-12.4698,151.5413],[-66.3868,-12.4679,151.8907],[-66.3911,-12.4582,155.5764],[-66.3834,-12.4569,153.0732],[-66.3659,-12.4458,149.7121],[-66.3629,-12.4385,149.1238],[-66.3577,-12.438,149.707],[-66.3577,-12.4355,148.1551],[-66.3537,-12.4291,148.0436],[-66.3537,-12.4256,138.9059],[-66.3495,-12.4247,147.5106],[-66.3461,-12.4204,148.9657],[-66.3466,-12.418,149.8046],[-66.3448,-12.4147,150.4146],[-66.3464,-12.4094,146.7105],[-66.342,-12.4076,151.344],[-66.3418,-12.4044,150.1168],[-66.3388,-12.4014,150.2568],[-66.3391,-12.3989,149.2709],[-66.3329,-12.4,149.6233],[-66.3338,-12.3952,147.4997],[-66.3308,-12.3947,149.3049],[-66.3297,-12.3922,149.6213],[-66.3272,-12.3925,147.9443],[-66.3268,-12.3911,148.6271],[-66.3235,-12.3928,147.4647],[-66.3168,-12.3857,146.0622],[-66.3143,-12.3865,141.7767],[-66.3131,-12.3787,145.5263],[-66.3114,-12.3809,144.2849],[-66.3082,-12.3801,145.1022],[-66.3079,-12.3765,146.5069],[-66.3066,-12.376,146.4698],[-66.3091,-12.3718,142.4697],[-66.3073,-12.3674,143.0066],[-66.3088,-12.3642,142.614],[-66.3073,-12.3602,144.4757],[-66.3042,-12.3601,144.0513],[-66.3058,-12.3548,148.6252],[-66.303,-12.3545,144.1672],[-66.3026,-12.3519,143.8795],[-66.2995,-12.3527,145.4881],[-66.3001,-12.351,145.1373],[-66.298,-12.3512,144.4138],[-66.2972,-12.3485,143.4845],[-66.2955,-12.3505,144.3475],[-66.2921,-12.3471,144.721],[-66.2899,-12.3485,141.8114],[-66.2892,-12.3456,143.9482],[-66.2851,-12.3456,143.3786],[-66.2854,-12.3415,142.3142],[-66.283,-12.3402,141.4997],[-66.2851,-12.3399,141.9818],[-66.2848,-12.3364,140.6478],[-66.2814,-12.3296,142.1705],[-66.2838,-12.3281,140.7551],[-66.2798,-12.3278,142.4161],[-66.2801,-12.3252,140.6307],[-66.2761,-12.3214,142.4972],[-66.2758,-12.3183,142.2466],[-66.2738,-12.3184,146.4437],[-66.2738,-12.3164,145.3245],[-66.2715,-12.3173,145.0177],[-66.2718,-12.3126,141.1307],[-66.2696,-12.3128,140.3245],[-66.2711,-12.3104,142.0952],[-66.269,-12.3099,143.805],[-66.268,-12.3073,144.8179],[-66.2703,-12.3062,143.9124],[-66.2682,-12.3025,142.5522],[-66.2716,-12.2975,142.6808],[-66.2707,-12.2961,142.8062],[-66.2727,-12.2957,142.8062],[-66.2696,-12.2924,142.8018],[-66.2712,-12.2902,144.6717],[-66.2691,-12.2884,144.7844],[-66.2702,-12.2826,144.5126],[-66.2683,-12.2808,142.2744],[-66.2689,-12.276,146.5295],[-66.265,-12.2729,145.4102],[-66.2663,-12.2716,145.4102],[-66.2644,-12.2693,143.8198],[-66.2671,-12.2697,145.6937],[-66.2674,-12.2672,145.8253],[-66.2648,-12.2677,145.6067],[-66.264,-12.2654,145.1335],[-66.2653,-12.2669,145.6067],[-66.2668,-12.2649,144.2618],[-66.2687,-12.2664,146.5951],[-66.2678,-12.2623,143.6729],[-66.2717,-12.2628,143.7505],[-66.2711,-12.2605,143.6448],[-66.2735,-12.2603,140.3754],[-66.2697,-12.2578,141.8818],[-66.271,-12.2565,144.4722],[-66.2699,-12.2538,139.8515],[-66.2719,-12.2537,143.0407],[-66.2717,-12.2502,143.8753],[-66.2741,-12.2527,145.7979],[-66.2746,-12.2494,146.9449],[-66.2784,-12.2511,143.8378],[-66.2794,-12.2483,144.7625],[-66.2852,-12.2503,144.8066],[-66.2852,-12.2477,144.4222],[-66.2872,-12.2485,146.5979],[-66.2878,-12.2457,143.6701],[-66.2899,-12.2461,144.1303],[-66.2896,-12.2443,146.2672],[-66.293,-12.2428,143.9277],[-66.2949,-12.2439,143.7348],[-66.294,-12.2415,143.1706],[-66.2988,-12.2409,144.0334],[-66.2978,-12.2309,144.0798],[-66.3002,-12.2287,142.2972],[-66.3018,-12.2299,145.06],[-66.3021,-12.2286,144.6712],[-66.3061,-12.2309,143.7303],[-66.3038,-12.2264,143.0739],[-66.3067,-12.2283,144.0434],[-66.3072,-12.2271,143.2648],[-66.3039,-12.2242,144.4089],[-66.3077,-12.2244,143.594],[-66.3086,-12.2228,144.5287],[-66.3065,-12.2225,143.1629],[-66.3058,-12.2202,142.0163],[-66.3092,-12.2203,141.1403],[-66.3051,-12.218,144.6859],[-66.3068,-12.2172,141.6518],[-66.3051,-12.2157,148.1166],[-66.3069,-12.2137,142.2861],[-66.3079,-12.2154,142.2523],[-66.3099,-12.214,142.4767],[-66.3052,-12.2103,146.8005],[-66.3074,-12.2095,139.703],[-66.3035,-12.206,141.8778],[-66.3053,-12.204,141.2181],[-66.2999,-12.2028,143.145],[-66.2999,-12.201599999999999,143.145],[-66.3022,-12.2014,143.4429],[-66.2995,-12.1997,141.4665],[-66.3011,-12.1969,141.3836],[-66.2983,-12.1955,143.0644],[-66.3019,-12.1939,142.2562],[-66.3002,-12.189,141.2888],[-66.3038,-12.1887,142.6991],[-66.2998,-12.1869,141.8165],[-66.3027,-12.1868,141.8562],[-66.3007,-12.1828,142.7032],[-66.302,-12.1788,143.4954],[-66.2976,-12.1787,142.3375],[-66.2982,-12.1752,142.219],[-66.2948,-12.1759,142.5936],[-66.292,-12.1718,140.9579],[-66.2956,-12.1715,141.8365],[-66.2964,-12.173,143.9706],[-66.2972,-12.1713,141.8365],[-66.2951,-12.1686,141.9809],[-66.2973,-12.1678,140.546],[-66.2957,-12.1662,142.2702],[-66.2985,-12.1661,141.9547],[-66.2965,-12.1637,141.2769],[-66.2995,-12.163,143.6911],[-66.2964,-12.1587,140.6434],[-66.3006,-12.1591,142.2738],[-66.3006,-12.1556,140.7657],[-66.3025,-12.1536,141.3825],[-66.2988,-12.1525,141.5077],[-66.2997,-12.1491,142.3763],[-66.2969,-12.1469,138.0728],[-66.3012,-12.1471,141.1018],[-66.3017,-12.1454,138.7874],[-66.3031,-12.1478,140.5386],[-66.3042,-12.1472,142.4786],[-66.3017,-12.1422,142.9503],[-66.2982,-12.1422,140.1178],[-66.2998,-12.1388,141.7914],[-66.3026,-12.14,141.2692],[-66.3008,-12.1348,141.77],[-66.2977,-12.1362,139.5807],[-66.2998,-12.133,143.4966],[-66.2979,-12.1295,140.5289],[-66.3021,-12.1284,142.8534],[-66.3012,-12.1248,139.6321],[-66.3041,-12.1245,142.2862],[-66.3023,-12.1218,139.3546],[-66.3044,-12.1204,141.9656],[-66.303,-12.1177,138.9565],[-66.3044,-12.1164,140.3022],[-66.3009,-12.1173,141.1854],[-66.2977,-12.1133,143.9547],[-66.302,-12.1107,140.3642],[-66.3045,-12.1123,142.1573],[-66.305,-12.1108,138.3799],[-66.3025,-12.1094,140.1585],[-66.3012,-12.1059,141.325],[-66.297,-12.1042,147.2588],[-66.299,-12.1023,144.2023],[-66.3028,-12.1032,143.7172],[-66.3032,-12.1018,139.467],[-66.3007,-12.1002,140.3226],[-66.2999,-12.0964,141.8521],[-66.2975,-12.0943,141.8726],[-66.3007,-12.0915,143.8034],[-66.2955,-12.0893,144.2939],[-66.2972,-12.0923,141.5929],[-66.2958,-12.0936,142.6839],[-66.2883,-12.091,140.9369],[-66.2895,-12.0878,139.3233],[-66.2861,-12.0886,140.9924],[-66.2869,-12.0867,139.9435],[-66.2923,-12.0861,146.8155],[-66.2865,-12.0807,143.3123],[-66.2891,-12.0783,140.3751],[-66.2915,-12.0805,143.0213],[-66.293,-12.0799,143.0213],[-66.2856,-12.076599999999999,139.6996],[-66.2859,-12.0685,142.9418],[-66.2821,-12.0677,140.9087],[-66.2857,-12.0646,144.8843],[-66.2831,-12.0617,141.0818],[-66.2827,-12.0566,144.3671],[-66.2847,-12.055,137.9794],[-66.288,-12.0586,134.4773],[-66.2887,-12.0568,137.6589],[-66.2867,-12.0501,136.938],[-66.2836,-12.0484,135.7596],[-66.2881,-12.0412,137.8695],[-66.2834,-12.0372,139.4653],[-66.2867,-12.0371,139.6478],[-66.2896,-12.0391,137.9522],[-66.2915,-12.0369,141.0938],[-66.288,-12.036,136.6694],[-66.2863,-12.032,138.1438],[-66.282,-12.0345,140.7192],[-66.2828,-12.0315,142.2889],[-66.2868,-12.0295,136.9718],[-66.286,-12.0277,143.4681],[-66.2784,-12.0256,137.6257],[-66.2802,-12.0233,137.8615],[-66.2832,-12.0252,141.22],[-66.2845,-12.0242,138.9973],[-66.2823,-12.0207,137.1801],[-66.2844,-12.0204,140.4691],[-66.2837,-12.017,140.0521],[-66.2794,-12.0146,139.4529],[-66.2772,-12.0111,137.5683],[-66.2801,-12.0097,132.2483],[-66.2736,-12.0077,141.8603],[-66.271,-12.0088,137.1205],[-66.2714,-12.0109,133.8922],[-66.2691,-12.0069,139.0119],[-66.2646,-12.0059,143.6865],[-66.2625,-12.0087,139.184],[-66.2613,-12.0059,141.9797],[-66.267,-12.0025,143.8965],[-66.2679,-12.0,139.8118],[-66.8939,-12.0059,140.0],[-66.8952,-12.0143,140.0],[-66.91,-12.0473,140.0],[-66.9107,-12.0525,140.0],[-66.9086,-12.0569,143.6611],[-66.8953,-12.0548,143.9178],[-66.8886,-12.0581,140.0],[-66.8843,-12.076599999999999,140.0],[-66.8766,-12.0953,140.0],[-66.8731,-12.1079,140.0],[-66.8761,-12.1135,140.0],[-66.922,-12.1534,140.0],[-66.9247,-12.1579,140.0],[-66.9253,-12.1649,140.0],[-66.9206,-12.1844,140.0],[-66.9181,-12.1861,140.0],[-66.8971,-12.1903,140.0],[-66.8892,-12.2,140.0],[-66.8858,-12.2147,140.0],[-66.8861,-12.247,140.0],[-66.8885,-12.2541,141.2843],[-66.8967,-12.2627,143.0529],[-66.9093,-12.2847,140.5],[-66.9456,-12.2974,153.6427],[-66.9482,-12.3023,140.5],[-66.9489,-12.3094,140.5],[-66.946,-12.3276,140.5],[-66.9371,-12.3317,140.5],[-66.9202,-12.3339,140.5],[-66.9066,-12.342,140.5],[-66.9,-12.3517,140.5],[-66.8973,-12.3692,141.1532],[-66.8995,-12.3732,144.3929],[-66.9129,-12.3756,140.5],[-66.9193,-12.3784,140.5],[-66.9385,-12.3987,140.5],[-66.9698,-12.4186,140.5],[-66.9692,-12.4233,140.5],[-66.9653,-12.4296,140.5],[-66.9352,-12.4655,144.4993],[-66.9327,-12.4722,141.0],[-66.9366,-12.4756,141.0],[-66.9526,-12.4751,141.0],[-66.9643,-12.4809,145.2948],[-66.9679,-12.4865,141.0],[-66.9663,-12.493,152.0542],[-66.9607,-12.5039,141.0],[-66.9555,-12.5085,141.0],[-66.9205,-12.5284,141.0],[-66.9174,-12.5338,141.0],[-66.919,-12.5385,147.1792],[-66.9279,-12.5394,141.0],[-66.9356,-12.5432,141.0],[-66.9437,-12.5573,141.0],[-66.9469,-12.5596,141.0],[-66.9695,-12.5678,141.0],[-66.973,-12.5716,141.0],[-66.9746,-12.5765,142.2166],[-66.9769,-12.5927,141.0],[-66.9731,-12.5958,143.1892],[-66.9564,-12.5969,150.1266],[-66.9468,-12.5994,146.654],[-66.9395,-12.6105,141.0],[-66.929,-12.6193,141.0],[-66.9265,-12.6256,151.7395],[-66.9273,-12.63,148.4656],[-66.93,-12.6323,145.6908],[-66.9368,-12.6341,142.0312],[-66.9406,-12.6326,145.0273],[-66.9459,-12.6244,151.1228],[-66.9511,-12.6236,142.4909],[-66.9546,-12.6298,141.0],[-66.9566,-12.6453,141.5],[-66.9628,-12.6503,151.0883],[-66.9708,-12.6518,141.5],[-66.9753,-12.6569,141.5],[-66.9732,-12.6632,141.5],[-66.9688,-12.6652,143.2549],[-66.9515,-12.668,141.5],[-66.9471,-12.6709,143.8943],[-66.9394,-12.685,149.276],[-66.9397,-12.6875,145.3098],[-66.9452,-12.6898,142.0],[-66.9582,-12.6874,142.0],[-66.9693,-12.6887,142.0],[-66.9713,-12.6903,142.0],[-66.9707,-12.697,142.0],[-66.9608,-12.7085,142.0],[-66.9538,-12.7206,149.7551],[-66.9533,-12.7281,142.5],[-66.9588,-12.7353,142.5],[-66.9616,-12.7351,143.3477],[-66.9708,-12.7281,146.3264],[-66.9738,-12.7276,143.0066],[-66.9804,-12.7296,159.6016],[-66.9831,-12.7333,146.1657],[-66.9806,-12.7406,142.5],[-66.9687,-12.7538,147.9052],[-66.967,-12.7606,145.4098],[-66.9689,-12.769,144.735],[-66.9682,-12.7716,143.0],[-66.9524,-12.7816,155.8447],[-66.9478,-12.7903,143.5],[-66.95,-12.8004,143.5],[-66.954,-12.8022,143.5],[-66.9834,-12.7831,147.0954],[-66.9856,-12.7846,144.0],[-66.9869,-12.7918,151.8398],[-66.9831,-12.8097,152.3647],[-66.9739,-12.8186,144.5],[-66.9576,-12.8201,146.0498],[-66.9439,-12.8234,145.0],[-66.9429,-12.826,155.7517],[-66.9452,-12.8346,158.9588],[-66.9492,-12.8435,148.1888],[-66.9536,-12.843,147.2473],[-66.9582,-12.8373,149.6818],[-66.9609,-12.8362,151.7905],[-66.9668,-12.8363,151.3117],[-66.9729,-12.84,148.7309],[-66.9734,-12.8472,155.4781],[-66.9762,-12.8511,158.1949],[-66.9791,-12.8517,152.8969],[-66.9865,-12.8495,147.9506],[-66.9902,-12.8512,156.8752],[-66.9941,-12.8629,147.0],[-66.9932,-12.8808,155.0459],[-66.9951,-12.8885,148.7949],[-67.001,-12.8898,147.0],[-67.0119,-12.8852,149.1876],[-67.0189,-12.884,147.5],[-67.0275,-12.8865,152.1528],[-67.0348,-12.8924,147.5],[-67.0363,-12.9009,147.75],[-67.0336,-12.9089,149.7512],[-67.024,-12.9115,148.0],[-67.0112,-12.9099,148.5],[-67.0004,-12.9127,156.7471],[-66.9981,-12.9166,148.5],[-67.0003,-12.9208,148.5],[-67.0121,-12.9294,153.7768],[-67.0206,-12.9308,156.614],[-67.0312,-12.929,155.3904],[-67.0366,-12.9319,149.0],[-67.0424,-12.9422,150.0036],[-67.0469,-12.9567,149.5],[-67.0444,-12.9627,149.5],[-67.0394,-12.9669,158.8833],[-67.0384,-12.9741,153.7212],[-67.0435,-12.9779,149.5],[-67.0599,-12.9828,150.0],[-67.068,-12.9897,150.0],[-67.0702,-12.9944,151.4909],[-67.0694,-12.9997,150.0],[-67.0653,-13.0038,150.0],[-67.0434,-13.0131,159.5071],[-67.0429,-13.0415,150.0],[-67.0467,-13.0513,160.0993],[-67.0531,-13.0533,163.2548],[-67.0576,-13.0511,150.0],[-67.0606,-13.0466,150.0],[-67.0589,-13.0329,160.9052],[-67.0611,-13.0298,151.0],[-67.0654,-13.0287,151.5],[-67.0896,-13.0456,155.5242],[-67.0934,-13.0457,163.7585],[-67.098,-13.0416,153.0],[-67.0978,-13.0375,153.0],[-67.092,-13.0309,165.1151],[-67.0923,-13.0269,153.0],[-67.096,-13.0255,153.0],[-67.1045,-13.0269,162.7874],[-67.1113,-13.0312,158.9727],[-67.1123,-13.0369,153.0],[-67.1109,-13.0404,153.0],[-67.1009,-13.0531,165.3722],[-67.1019,-13.0649,153.5],[-67.1064,-13.0685,158.225],[-67.1167,-13.0657,156.3217],[-67.117,-13.0608,161.6518],[-67.1114,-13.0509,154.5],[-67.1148,-13.0479,161.9385],[-67.1405,-13.0468,155.0],[-67.1481,-13.0529,155.0],[-67.1465,-13.0748,158.9192],[-67.1441,-13.082,161.9715],[-67.135,-13.0888,165.4967],[-67.1344,-13.0922,166.2323],[-67.1389,-13.0983,155.5],[-67.1591,-13.1029,159.8615],[-67.1631,-13.1115,156.0],[-67.1659,-13.1238,156.8456],[-67.1704,-13.1256,156.0],[-67.1834,-13.1209,167.0486],[-67.1862,-13.1225,167.3476],[-67.1874,-13.1258,156.0],[-67.1871,-13.1278,162.9676],[-67.1844,-13.1294,163.4083],[-67.1694,-13.1348,156.0],[-67.161,-13.1543,157.2197],[-67.1593,-13.163,160.0683],[-67.1603,-13.1664,157.0],[-67.1662,-13.1674,157.0],[-67.1942,-13.1622,160.0349],[-67.2207,-13.1662,166.1808],[-67.2256,-13.1684,160.7755],[-67.2281,-13.1711,162.4781],[-67.2282,-13.1749,159.1161],[-67.2256,-13.1783,157.5],[-67.2173,-13.1824,158.5272],[-67.2015,-13.1863,164.6185],[-67.1984,-13.1888,164.6743],[-67.1979,-13.1953,157.8617],[-67.204,-13.1985,158.7151],[-67.2122,-13.1998,159.6778],[-67.2379,-13.1938,158.5],[-67.2458,-13.1973,168.5622],[-67.2539,-13.207,163.884],[-67.2667,-13.2096,168.7325],[-67.2685,-13.2162,163.2132],[-67.2678,-13.2206,159.0],[-67.2647,-13.2288,159.0],[-67.2582,-13.2348,159.5],[-67.2495,-13.2519,164.4366],[-67.2512,-13.2583,160.5],[-67.258,-13.2596,170.4118],[-67.2654,-13.2572,159.5],[-67.2689,-13.2536,172.0962],[-67.2721,-13.2453,162.9992],[-67.2757,-13.2417,160.0],[-67.2847,-13.242,160.0],[-67.294,-13.2477,170.2231],[-67.2954,-13.2505,160.0],[-67.2933,-13.2557,160.0],[-67.2867,-13.26,160.0],[-67.267,-13.2617,170.674],[-67.2628,-13.272,160.0],[-67.2639,-13.2868,160.0],[-67.2664,-13.2928,170.4933],[-67.2782,-13.3031,170.1267],[-67.2829,-13.3053,160.0],[-67.2861,-13.3041,166.7104],[-67.2877,-13.3013,165.2181],[-67.2881,-13.2729,168.4044],[-67.2941,-13.2725,168.592],[-67.3008,-13.2784,167.5054],[-67.303,-13.2849,172.959],[-67.303,-13.2887,170.8803],[-67.2963,-13.2958,171.426],[-67.2962,-13.2987,172.0347],[-67.3001,-13.3051,163.3755],[-67.3161,-13.3139,160.0],[-67.3261,-13.3269,160.0],[-67.3485,-13.3405,160.0],[-67.357,-13.3479,160.0],[-67.358,-13.3511,160.0],[-67.3561,-13.3539,163.217],[-67.3414,-13.3538,160.5],[-67.3303,-13.3557,167.1278],[-67.3269,-13.3585,174.4294],[-67.3266,-13.3628,169.6969],[-67.3287,-13.3658,163.4819],[-67.3338,-13.3699,173.2811],[-67.3779,-13.3859,162.5],[-67.3863,-13.3914,162.5],[-67.3902,-13.3967,165.6433],[-67.391,-13.4013,162.5],[-67.3889,-13.4086,162.5],[-67.3792,-13.4137,166.0747],[-67.3771,-13.4167,163.0],[-67.3772,-13.42,163.0],[-67.3799,-13.4221,163.0],[-67.3962,-13.4266,174.1868],[-67.3979,-13.4302,172.6572],[-67.3959,-13.4377,163.0],[-67.3914,-13.4406,163.0],[-67.3762,-13.4435,163.0],[-67.3592,-13.443,174.8531],[-67.3553,-13.4448,172.3369],[-67.3552,-13.4462,172.3369],[-67.3567,-13.4528,163.0],[-67.3589,-13.4554,163.0],[-67.3648,-13.4571,165.5371],[-67.3821,-13.4551,175.0374],[-67.3889,-13.4562,165.1681],[-67.3915,-13.4607,164.0],[-67.3915,-13.4662,164.8564],[-67.3875,-13.4781,166.14],[-67.3825,-13.4843,165.0],[-67.3771,-13.486,170.8773],[-67.3708,-13.4839,165.9984],[-67.3669,-13.4765,163.0],[-67.3601,-13.4692,174.8811],[-67.3512,-13.4674,176.1846],[-67.3478,-13.4715,163.0],[-67.3514,-13.4822,163.0],[-67.3588,-13.4906,163.2997],[-67.3692,-13.4935,174.3912],[-67.3755,-13.4995,171.345],[-67.3739,-13.5093,175.0907],[-67.3754,-13.5159,167.2756],[-67.3804,-13.5194,175.2847],[-67.39,-13.5168,165.725],[-67.3965,-13.5186,176.5078],[-67.4044,-13.5295,178.9079],[-67.4006,-13.535,166.25],[-67.386,-13.5345,174.052],[-67.3819,-13.5386,178.561],[-67.3781,-13.5491,176.3683],[-67.3798,-13.5661,175.6093],[-67.3778,-13.5681,167.0],[-67.3726,-13.5701,170.4921],[-67.3579,-13.5653,172.3075],[-67.3534,-13.5696,166.5],[-67.3539,-13.5762,172.0237],[-67.3622,-13.5834,177.5678],[-67.3646,-13.5876,172.6526],[-67.3615,-13.6002,176.8592],[-67.3633,-13.609,177.6618],[-67.3673,-13.6108,176.2197],[-67.3741,-13.6093,167.5],[-67.3764,-13.6048,167.5],[-67.3811,-13.6017,180.515],[-67.3847,-13.6013,172.7569],[-67.3882,-13.6035,173.1165],[-67.3868,-13.6107,168.0],[-67.3786,-13.6176,181.1566],[-67.3695,-13.6319,172.5627],[-67.3649,-13.6348,172.4377],[-67.3635,-13.6382,180.7691],[-67.3677,-13.6414,168.0],[-67.3843,-13.6397,177.9887],[-67.3934,-13.6407,168.0],[-67.4134,-13.6479,183.9368],[-67.4189,-13.6534,175.4237],[-67.4348,-13.6576,173.1417],[-67.4387,-13.6636,178.6909],[-67.4391,-13.6669,180.8321],[-67.4356,-13.6833,176.3813],[-67.4279,-13.6925,176.7945],[-67.419,-13.6995,169.0],[-67.4171,-13.7043,179.4459],[-67.4204,-13.7074,175.9553],[-67.4285,-13.7067,173.8804],[-67.4315,-13.7102,177.6766],[-67.4313,-13.7205,178.5031],[-67.4266,-13.7345,169.5],[-67.4307,-13.7363,171.3053],[-67.4349,-13.7355,169.5],[-67.4487,-13.7293,179.714],[-67.452,-13.715,170.7379],[-67.4588,-13.7127,170.0],[-67.4623,-13.7182,172.6468],[-67.461,-13.7263,173.6974],[-67.4512,-13.7347,173.1268],[-67.4504,-13.7384,173.9889],[-67.4565,-13.7439,180.2506],[-67.4735,-13.7495,169.5],[-67.4782,-13.7613,170.0],[-67.4839,-13.7664,170.0],[-67.4902,-13.769,170.0],[-67.509,-13.7722,172.282],[-67.5221,-13.7793,170.0],[-67.5252,-13.7832,170.0],[-67.5254,-13.7894,173.9024],[-67.5212,-13.7931,170.5],[-67.5045,-13.794,172.6259],[-67.4895,-13.7899,179.2992],[-67.4846,-13.7905,171.0],[-67.4818,-13.7945,171.0],[-67.484,-13.8023,171.5545],[-67.5069,-13.8163,173.5336],[-67.5128,-13.8234,175.9833],[-67.5159,-13.8327,177.3498],[-67.5015,-13.8354,181.4641],[-67.4962,-13.8385,172.0],[-67.4917,-13.8424,177.0628],[-67.4901,-13.8499,183.9655],[-67.4864,-13.8536,180.3938],[-67.4815,-13.8528,172.5],[-67.4671,-13.8401,183.5959],[-67.4646,-13.8395,181.2933],[-67.4614,-13.8415,182.5372],[-67.4595,-13.846,174.0],[-67.4605,-13.8496,178.6685],[-67.4739,-13.8644,174.0],[-67.4779,-13.8725,174.0],[-67.4797,-13.884,175.9532],[-67.4977,-13.8917,174.0],[-67.5043,-13.8962,174.0],[-67.5118,-13.9062,174.0],[-67.513,-13.911,174.0],[-67.5112,-13.9141,174.0],[-67.4943,-13.9086,180.028],[-67.4902,-13.9089,184.4296],[-67.4861,-13.9112,182.6797],[-67.4847,-13.9151,174.0],[-67.4861,-13.9198,174.0],[-67.4953,-13.9293,175.5476],[-67.5274,-13.9533,174.0],[-67.5326,-13.9599,184.4523],[-67.5324,-13.9663,174.0],[-67.5388,-13.9772,174.0],[-67.5395,-13.9826,174.0],[-67.5274,-14.0074,174.0],[-67.527,-14.0172,174.0],[-67.5325,-14.0225,179.6804],[-67.5448,-14.0234,184.1505],[-67.5477,-14.0274,182.3996],[-67.5484,-14.0316,179.2323],[-67.5459,-14.0376,174.5],[-67.5256,-14.0459,175.0],[-67.5079,-14.0566,175.5],[-67.4984,-14.0601,175.5],[-67.494,-14.0648,181.3982],[-67.4942,-14.0679,184.4051],[-67.5133,-14.0826,186.281],[-67.5167,-14.0876,181.3725],[-67.5197,-14.0893,179.1449],[-67.5262,-14.0899,177.0],[-67.5422,-14.0866,183.8012],[-67.5481,-14.0889,177.5],[-67.5506,-14.0935,177.5],[-67.5466,-14.1035,178.0],[-67.5397,-14.1101,178.0],[-67.5236,-14.1041,178.5],[-67.5152,-14.1032,186.0963],[-67.5084,-14.1069,180.0266],[-67.5048,-14.1124,188.9015],[-67.5049,-14.1188,179.0],[-67.5069,-14.1242,179.0],[-67.5185,-14.1368,179.0],[-67.5346,-14.1659,179.2377],[-67.5361,-14.1758,179.0],[-67.5343,-14.1921,184.2386],[-67.5307,-14.1995,180.0],[-67.5126,-14.2196,188.0914],[-67.5091,-14.2273,184.9427],[-67.5105,-14.2352,180.5],[-67.5203,-14.2508,180.5],[-67.5186,-14.2562,180.5],[-67.5126,-14.262,181.0],[-67.49,-14.2699,181.0],[-67.4844,-14.2732,183.6906],[-67.4751,-14.28,191.7869],[-67.4726,-14.2882,185.4291],[-67.4752,-14.2951,182.0],[-67.4826,-14.2985,182.0],[-67.4869,-14.2983,182.0],[-67.5052,-14.2907,184.5973],[-67.5103,-14.2907,182.5],[-67.517,-14.2941,182.5],[-67.5256,-14.3026,182.5],[-67.5367,-14.3207,183.51],[-67.5414,-14.3255,182.5],[-67.5606,-14.3379,185.5638],[-67.5622,-14.3439,191.3575],[-67.5595,-14.347,183.0],[-67.5525,-14.3457,195.7149],[-67.5458,-14.3405,183.0],[-67.542,-14.3407,183.0],[-67.5379,-14.3452,183.0],[-67.5362,-14.3537,195.5157],[-67.538,-14.3602,183.0],[-67.542,-14.364,194.6924],[-67.5546,-14.3668,193.5335],[-67.5581,-14.3695,189.9533],[-67.5575,-14.3729,183.0],[-67.5436,-14.3811,186.2927],[-67.5417,-14.3861,188.3765],[-67.5426,-14.3905,186.7368],[-67.558,-14.3993,194.6196],[-67.5597,-14.4056,186.8502],[-67.5572,-14.4107,187.4635],[-67.5497,-14.4147,194.0714],[-67.5329,-14.4171,197.3716],[-67.5312,-14.4306,199.9983],[-67.5339,-14.4501,209.3851],[-67.5309,-14.4551,191.0],[-67.531,-14.4587,191.0],[-67.5276,-14.4671,191.5],[-67.5224,-14.4688,192.0],[-67.5168,-14.4732,192.5],[-67.5092,-14.493,194.0],[-67.5008,-14.4954,195.0],[-67.4912,-14.4927,197.5],[-67.4851,-14.4942,198.5],[-67.4823,-14.4987,199.0],[-67.4816,-14.5036,199.0],[-67.4833,-14.5082,199.7774],[-67.492,-14.5129,199.5],[-67.4943,-14.5157,199.5],[-67.4967,-14.5223,200.0],[-67.4991,-14.5399,250.2986],[-67.4986,-14.5483,247.803],[-67.5001,-14.5511,202.5],[-67.4994,-14.5609,203.0],[-67.5041,-14.5644,203.5],[-67.5201,-14.5709,214.4608],[-67.5219,-14.5735,213.8688],[-67.5205,-14.5824,217.4011],[-67.5233,-14.5863,209.115],[-67.5276,-14.5897,206.0],[-67.5376,-14.5931,209.8891],[-67.5384,-14.5962,208.0259],[-67.5368,-14.6022,209.4828],[-67.529,-14.6096,226.3819],[-67.5261,-14.615,210.4352],[-67.5257,-14.6274,222.2662],[-67.5294,-14.6326,215.8916],[-67.5294,-14.6372,220.0028],[-67.5216,-14.6392,223.2908],[-67.5198,-14.642,216.2487],[-67.5207,-14.6439,222.6268],[-67.5249,-14.6435,226.5093],[-67.5284,-14.6451,226.7182],[-67.5288,-14.6517,220.7567],[-67.5275,-14.6537,228.5888],[-67.5237,-14.6544,217.9898],[-67.5181,-14.6447,229.5375],[-67.5146,-14.6433,222.8186],[-67.5104,-14.6449,230.0352],[-67.5093,-14.6482,256.8329],[-67.5141,-14.655,213.5],[-67.5131,-14.6593,217.179],[-67.5032,-14.671,224.1139],[-67.4939,-14.6748,229.045],[-67.4896,-14.6786,217.0588],[-67.4979,-14.6836,225.3371],[-67.4972,-14.6863,291.1573],[-67.4861,-14.6888,227.5875],[-67.4757,-14.6866,231.1188],[-67.475,-14.6883,226.685],[-67.4794,-14.6949,231.3628],[-67.4795,-14.6976,229.5831],[-67.4699,-14.7002,234.1841],[-67.4606,-14.7138,234.5434],[-67.442,-14.7263,224.5247],[-67.442,-14.7314,249.8132],[-67.4389,-14.7328,240.8358],[-67.437,-14.736,240.0299],[-67.4339,-14.7372,227.2704],[-67.4295,-14.7355,241.1665],[-67.4262,-14.7364,231.508],[-67.4249,-14.7396,231.5643],[-67.4287,-14.7453,245.2994],[-67.4276,-14.7478,243.9061],[-67.4229,-14.7485,247.4135],[-67.4197,-14.744,241.1846],[-67.4164,-14.7448,230.5731],[-67.4157,-14.7472,231.0115],[-67.4202,-14.7519,229.7369],[-67.4244,-14.7598,231.4311],[-67.4242,-14.7623,239.9535],[-67.4192,-14.766,229.0],[-67.4168,-14.7621,238.0905],[-67.4143,-14.7624,253.0642],[-67.4116,-14.7711,238.0294],[-67.4157,-14.7744,245.1263],[-67.4164,-14.7772,233.7801],[-67.4134,-14.7819,247.9742],[-67.4094,-14.7794,244.2997],[-67.4065,-14.7805,240.076],[-67.4041,-14.7949,240.3793],[-67.4002,-14.7954,246.8869],[-67.3966,-14.7928,242.2863],[-67.393,-14.7941,236.6365],[-67.3942,-14.8014,249.4952],[-67.3968,-14.8041,254.7612],[-67.3995,-14.8133,243.4303],[-67.399,-14.8173,239.5563],[-67.3887,-14.8163,258.3996],[-67.3866,-14.8179,254.2887],[-67.3872,-14.8202,257.9747],[-67.3931,-14.8202,238.0],[-67.3958,-14.8262,241.4684],[-67.4019,-14.8259,240.7236],[-67.4082,-14.8278,247.6996],[-67.4075,-14.8304,242.2569],[-67.3999,-14.8309,259.2081],[-67.3983,-14.8333,260.9527],[-67.4004,-14.8366,260.5699],[-67.4089,-14.8341,242.8951],[-67.4099,-14.8366,260.2245],[-67.4031,-14.8399,243.1206],[-67.4027,-14.8426,243.0535],[-67.4052,-14.8444,251.4544],[-67.4093,-14.8408,252.5627],[-67.4109,-14.8434,256.7925],[-67.4105,-14.845,254.944],[-67.4051,-14.847,256.1527],[-67.4035,-14.8505,245.7622],[-67.4059,-14.8572,246.6646],[-67.41,-14.8611,242.75],[-67.4027,-14.8621,250.4803],[-67.4003,-14.8657,246.9479],[-67.402,-14.8672,250.6743],[-67.4081,-14.8657,251.5874],[-67.4128,-14.8671,252.4989],[-67.4151,-14.8727,252.724],[-67.4201,-14.8765,254.4458],[-67.4225,-14.8809,252.0485],[-67.4289,-14.883,255.2585],[-67.4315,-14.894,288.7533],[-67.43,-14.8982,271.4967],[-67.4263,-14.8973,255.8817],[-67.4242,-14.8984,259.1891],[-67.4225,-14.9052,260.3503],[-67.4174,-14.9046,265.3003],[-67.4155,-14.9074,253.2032],[-67.4171,-14.9095,261.2324],[-67.4244,-14.9119,257.6243],[-67.4286,-14.9237,264.903],[-67.4277,-14.9259,260.0482],[-67.425,-14.9268,268.6281],[-67.4243,-14.9226,261.0112],[-67.4226,-14.9222,266.7071],[-67.4215,-14.9265,269.418],[-67.418,-14.9281,257.0297],[-67.4176,-14.931,263.059],[-67.4224,-14.9338,261.412],[-67.4205,-14.9401,271.3281],[-67.4229,-14.9447,263.9493],[-67.4127,-14.9505,257.2974],[-67.4182,-14.9554,257.8965],[-67.4167,-14.9605,268.3672],[-67.4207,-14.9642,273.8289],[-67.4192,-14.9708,262.008],[-67.4165,-14.9711,264.5936],[-67.4104,-14.9682,271.1919],[-67.4079,-14.969,269.0862],[-67.4066,-14.9718,268.2896],[-67.41,-14.9753,270.4304],[-67.411,-14.9812,271.3662],[-67.4158,-14.9861,272.7795],[-67.4164,-14.9892,264.4927],[-67.4136,-14.9929,269.2084],[-67.409,-14.9924,272.3359],[-67.4057,-14.9948,269.8955],[-67.4033,-14.994,273.0233],[-67.3997,-14.9881,279.7829],[-67.3938,-14.9884,279.7224],[-67.3942,-14.9922,277.6826],[-67.4001,-14.9936,280.8091],[-67.4008,-14.9989,272.0541],[-67.3961,-15.0093,272.1027],[-67.3864,-15.0128,272.544],[-67.3861,-15.0198,280.9182],[-67.3815,-15.0196,282.356],[-67.3806,-15.0155,278.2657],[-67.3782,-15.0148,274.113],[-67.3767,-15.0218,274.364],[-67.3734,-15.0271,274.5942],[-67.3676,-15.0282,279.0656],[-67.3623,-15.0331,291.7395],[-67.3604,-15.0315,299.7139],[-67.359,-15.0227,287.4641],[-67.356,-15.0209,276.8955],[-67.3545,-15.0228,286.9968],[-67.3545,-15.0287,283.8951],[-67.3518,-15.0338,280.7403],[-67.3521,-15.0368,288.5003],[-67.3494,-15.0381,283.2803],[-67.3475,-15.0335,277.1835],[-67.3425,-15.0296,290.1116],[-67.3432,-15.0367,292.6467],[-67.3366,-15.0391,280.6983],[-67.335,-15.0448,312.0687],[-67.3294,-15.0377,297.6188],[-67.3216,-15.0455,289.9676],[-67.319,-15.0462,290.0375],[-67.3181,-15.0391,313.0118],[-67.3153,-15.037,287.7946],[-67.3088,-15.0396,299.2162],[-67.3038,-15.0441,317.1813],[-67.3008,-15.0434,300.8777],[-67.3002,-15.0418,293.7045],[-67.3029,-15.0383,290.8139],[-67.3012,-15.0323,292.7539],[-67.2979,-15.0285,293.2873],[-67.2903,-15.0271,303.72],[-67.2883,-15.0299,301.8818],[-67.2917,-15.0343,312.2701],[-67.2912,-15.0372,302.3139],[-67.2872,-15.0382,323.6078],[-67.2857,-15.0369,298.908],[-67.285,-15.0304,301.0622],[-67.2793,-15.0289,304.3815],[-67.281,-15.0408,307.8798],[-67.28,-15.0427,301.9042],[-67.2751,-15.0414,312.7259],[-67.2668,-15.0469,314.2108],[-67.264,-15.0466,311.5538],[-67.2604,-15.0513,325.9441],[-67.2615,-15.0535,309.9621],[-67.259,-15.054,301.6754],[-67.2568,-15.0525,317.2395],[-67.2551,-15.0543,320.0109],[-67.2565,-15.0566,332.6111],[-67.2531,-15.0577,303.9217],[-67.2518,-15.0568,333.1044],[-67.2507,-15.047,305.6116],[-67.2494,-15.047,307.5623],[-67.2475,-15.0486,364.0656],[-67.2462,-15.054,312.7917],[-67.2443,-15.0553,321.8522],[-67.243,-15.0523,323.0896],[-67.2412,-15.0573,314.171],[-67.2379,-15.0586,314.2023],[-67.2408,-15.0601,318.6978],[-67.2379,-15.0626,315.2546],[-67.2388,-15.0699,318.2628],[-67.2447,-15.0731,321.6189],[-67.2433,-15.0763,329.8307],[-67.2386,-15.0749,322.197],[-67.2356,-15.0767,329.8734],[-67.2359,-15.0783,321.4059],[-67.239,-15.0793,328.8048],[-67.2332,-15.0853,324.3368],[-67.2347,-15.0868,329.3745],[-67.2377,-15.0858,323.8431],[-67.2389,-15.0893,330.4354],[-67.238,-15.0922,323.0886],[-67.2394,-15.0923,323.0886],[-67.2418,-15.0886,321.3205],[-67.245,-15.0918,323.5656],[-67.2432,-15.0994,327.3482],[-67.2395,-15.101,337.0015],[-67.2379,-15.1047,352.7331],[-67.2332,-15.1085,336.4875],[-67.2346,-15.11,349.9651],[-67.2371,-15.1083,321.8092],[-67.2385,-15.1146,356.9582],[-67.2317,-15.1124,341.0884],[-67.2291,-15.1169,331.0841],[-67.2255,-15.1174,330.1243],[-67.2243,-15.1163,351.8184],[-67.2257,-15.1096,338.2794],[-67.2238,-15.1084,334.1482],[-67.2188,-15.1132,356.9982],[-67.2194,-15.1157,330.635],[-67.2181,-15.1175,331.317],[-67.2161,-15.112,331.8354],[-67.2132,-15.1126,339.0725],[-67.2054,-15.1222,340.7413],[-67.2037,-15.1275,339.8157],[-67.2056,-15.1301,368.0059],[-67.1992,-15.1299,343.3106],[-67.1967,-15.1321,355.187],[-67.1969,-15.1341,368.8802],[-67.1909,-15.1383,341.3525],[-67.191,-15.1404,348.2892],[-67.1943,-15.1395,363.3163],[-67.196,-15.143,355.7824],[-67.1942,-15.1451,380.5817],[-67.1944,-15.1489,371.6982],[-67.1977,-15.1505,349.7477],[-67.1965,-15.1546,378.691],[-67.1925,-15.1522,369.8571],[-67.19,-15.148,354.881],[-67.1862,-15.1512,447.1005],[-67.1864,-15.1579,371.4359],[-67.1801,-15.1563,368.5007],[-67.1774,-15.1625,363.9809],[-67.1757,-15.1634,375.7087],[-67.1736,-15.162,387.1311],[-67.1708,-15.1645,380.2696],[-67.1726,-15.1706,375.6077],[-67.1678,-15.1707,414.6881],[-67.1691,-15.1738,369.4981],[-67.1675,-15.1767,393.4942],[-67.1671,-15.1844,382.4507],[-67.1621,-15.1861,376.1332],[-67.1593,-15.1835,372.1143],[-67.1573,-15.1837,410.9727],[-67.1579,-15.1886,390.2045],[-67.1603,-15.1892,387.7699],[-67.161,-15.1918,393.6907],[-67.1569,-15.1908,409.5484],[-67.1549,-15.2006,377.4189],[-67.1514,-15.1968,385.7197],[-67.1494,-15.2024,387.5828],[-67.1474,-15.2039,388.7247],[-67.1474,-15.2074,400.3917],[-67.1446,-15.2085,385.8195],[-67.1449,-15.2123,392.2586],[-67.1419,-15.2154,388.2038],[-67.1436,-15.218,419.4619],[-67.1384,-15.2186,410.7213],[-67.1369,-15.2213,415.3842],[-67.1353,-15.2307,398.5329],[-67.138,-15.2307,408.3888],[-67.1391,-15.2343,410.5805],[-67.1371,-15.2353,430.4663],[-67.1339,-15.2328,414.9988],[-67.1268,-15.2506,410.2138],[-67.1278,-15.2518,437.1108],[-67.1308,-15.25,433.0871],[-67.1365,-15.2502,419.9679],[-67.1354,-15.2535,432.1317],[-67.1303,-15.2581,455.6396],[-67.1325,-15.2603,447.8399],[-67.1339,-15.2589,429.2162],[-67.1375,-15.2596,425.9264],[-67.1374,-15.2648,447.4423],[-67.1322,-15.2629,459.2693],[-67.1293,-15.2696,444.36],[-67.1298,-15.272,445.2988],[-67.1342,-15.271,440.8116],[-67.1357,-15.2747,482.4374],[-67.1269,-15.2738,448.0398],[-67.1256,-15.2772,454.7122],[-67.1184,-15.2771,456.3373],[-67.1143,-15.2794,472.8745],[-67.109,-15.2898,492.4612],[-67.1044,-15.2901,476.3631],[-67.106,-15.296,485.1989],[-67.1021,-15.3005,476.3684],[-67.09,-15.3009,485.2907],[-67.0861,-15.3053,475.05],[-67.0845,-15.3116,480.6831],[-67.0823,-15.3122,489.9193],[-67.0814,-15.3145,479.8404],[-67.0807,-15.3212,529.8142],[-67.0861,-15.3223,488.2331],[-67.0841,-15.3274,493.8846],[-67.0833,-15.3374,506.7304],[-67.0883,-15.3454,520.8903],[-67.0886,-15.3529,558.5059],[-67.0937,-15.3558,543.4729],[-67.0945,-15.3609,545.2546],[-67.0995,-15.3602,551.0856],[-67.103,-15.3626,555.2589],[-67.1056,-15.3668,636.8204],[-67.1058,-15.3718,660.7699],[-67.1165,-15.3871,640.8322],[-67.1155,-15.3902,661.5486],[-67.1183,-15.3933,629.5207],[-67.1104,-15.3924,636.604],[-67.1098,-15.3946,681.8528],[-67.1129,-15.3957,642.8851],[-67.1127,-15.3986,645.9719],[-67.1108,-15.4004,651.1413],[-67.1065,-15.3994,654.1863],[-67.1045,-15.4056,654.6577],[-67.101,-15.4048,661.514],[-67.0997,-15.407,690.8852],[-67.1004,-15.4112,664.7976],[-67.0966,-15.4109,705.2238],[-67.0957,-15.4071,686.4031],[-67.0907,-15.4072,687.3599],[-67.0931,-15.4107,683.7669],[-67.0888,-15.4123,707.7643],[-67.087,-15.4114,701.9775],[-67.0845,-15.4136,717.1802],[-67.0862,-15.4145,704.6084],[-67.0866,-15.4187,713.6088],[-67.0844,-15.4226,709.7112],[-67.0806,-15.4239,753.726],[-67.081,-15.4275,738.6093],[-67.0702,-15.428,738.0122],[-67.0671,-15.431,745.1462],[-67.0701,-15.4332,761.0789],[-67.0654,-15.4374,755.813],[-67.0659,-15.4398,767.988],[-67.0589,-15.4409,769.9521],[-67.0592,-15.442,769.2957],[-67.0638,-15.4417,779.9255],[-67.0619,-15.4441,777.4563],[-67.0554,-15.4464,791.1558],[-67.0518,-15.445,785.4086],[-67.0505,-15.4506,781.7483],[-67.0473,-15.4491,785.1028],[-67.0467,-15.4464,791.8619],[-67.0435,-15.45,801.4017],[-67.04,-15.4499,814.0557],[-67.0399,-15.4525,810.8292],[-67.0434,-15.453,802.4236],[-67.0437,-15.4544,802.4236],[-67.0366,-15.4554,803.941],[-67.0358,-15.4573,835.0126],[-67.0372,-15.4587,808.4898],[-67.0323,-15.459,810.3668],[-67.0306,-15.4626,797.8173],[-67.0276,-15.4616,833.5151],[-67.0286,-15.4644,817.6761],[-67.026,-15.4639,807.3124],[-67.0254,-15.4676,800.5729],[-67.0218,-15.4661,824.1549],[-67.0159,-15.4728,802.418],[-67.0135,-15.4719,805.9373],[-67.0078,-15.4766,805.6083],[-67.0025,-15.4766,806.1899],[-67.0015,-15.4792,816.2557],[-67.0031,-15.4812,809.9509],[-67.0028,-15.4851,811.5104],[-67.001,-15.487,805.6245],[-66.9933,-15.4863,816.6397],[-66.9921,-15.4903,819.8781],[-66.9884,-15.4896,816.9198],[-66.9839,-15.4931,846.8913],[-66.9864,-15.495,819.8839],[-66.9854,-15.4973,834.0146],[-66.9785,-15.4976,861.1321],[-66.9781,-15.5019,836.064],[-66.9746,-15.4995,847.4404],[-66.9657,-15.5084,856.4875],[-66.9623,-15.5068,836.8031],[-66.9628,-15.5111,846.5596],[-66.959,-15.5158,852.2405],[-66.9591,-15.5195,838.4162],[-66.9559,-15.5222,848.2591],[-66.9565,-15.5253,847.1938],[-66.9545,-15.5238,845.6972],[-66.9497,-15.5258,924.3752],[-66.9496,-15.5324,839.448],[-66.9473,-15.5313,863.8938],[-66.9462,-15.5343,843.2872],[-66.9431,-15.5353,864.0459],[-66.9411,-15.5412,844.1201],[-66.9364,-15.5462,884.2563],[-66.9369,-15.5486,850.3956],[-66.9338,-15.5492,860.6566],[-66.9318,-15.5515,849.2024],[-66.9311,-15.5537,884.7003],[-66.9333,-15.5539,852.1287],[-66.9366,-15.5591,851.3264],[-66.9345,-15.5609,873.065],[-66.9346,-15.5656,856.5322],[-66.9324,-15.5657,858.8346],[-66.9309,-15.5684,869.8575],[-66.9289,-15.5672,865.1298],[-66.9235,-15.5688,868.5062],[-66.9217,-15.5723,905.2577],[-66.9231,-15.5752,877.9337],[-66.9188,-15.5768,926.1899],[-66.9197,-15.579,889.3172],[-66.9174,-15.58,887.0343],[-66.9147,-15.5847,897.0096],[-66.9112,-15.5858,950.2737],[-66.9124,-15.5874,938.9955],[-66.9111,-15.5919,915.4448],[-66.9071,-15.5936,933.5327],[-66.9067,-15.5984,945.2081],[-66.9042,-15.5997,988.9921],[-66.9027,-15.6036,958.3192],[-66.8996,-15.6041,982.1774],[-66.8992,-15.6152,1013.6117],[-66.9029,-15.6198,1062.9915],[-66.904,-15.619,1038.1157],[-66.9067,-15.6212,1128.0793],[-66.9044,-15.6271,1262.7471],[-66.9069,-15.6402,1441.1306],[-66.8897,-15.6625,1353.5634],[-66.8735,-15.694,1340.0522],[-66.7954,-15.7851,1097.2786],[-66.7961,-15.7801,1051.9928],[-66.7926,-15.7804,1039.4011],[-66.7945,-15.7821,1032.0762],[-66.7921,-15.7833,1051.6444],[-66.7892,-15.7786,990.1601],[-66.784,-15.7816,1003.793],[-66.7817,-15.7783,971.142],[-66.7714,-15.7852,950.061],[-66.765,-15.7932,971.34],[-66.7616,-15.7925,963.2059],[-66.7609,-15.795,938.6746],[-66.7587,-15.7942,941.0184],[-66.7567,-15.7967,958.2386],[-66.7543,-15.797,937.3424],[-66.753,-15.8007,924.3468],[-66.7498,-15.8014,924.6442],[-66.7446,-15.7969,874.0483],[-66.7324,-15.8064,861.1287],[-66.7302,-15.8057,839.7703],[-66.7283,-15.8072,833.5453],[-66.7273,-15.8043,833.132],[-66.7231,-15.8047,836.4796],[-66.7219,-15.8009,808.5394],[-66.7199,-15.8037,815.2051],[-66.7206,-15.8074,749.7609],[-66.7155,-15.8047,740.4203],[-66.7157,-15.7979,723.7836],[-66.7201,-15.7991,706.2142],[-66.7216,-15.7956,709.9117],[-66.7263,-15.793,699.4083],[-66.7257,-15.7902,688.0651],[-66.728,-15.7892,674.8095],[-66.7275,-15.786,682.1831],[-66.7294,-15.7825,685.0662],[-66.7254,-15.7812,761.3938],[-66.7279,-15.7793,643.5521],[-66.7266,-15.7751,662.338],[-66.7226,-15.7757,617.2084],[-66.7202,-15.7735,635.0512],[-66.7191,-15.7759,599.0501],[-66.7167,-15.7756,636.969],[-66.7167,-15.7731,625.2681],[-66.7214,-15.77,620.6628],[-66.7229,-15.7659,604.7297],[-66.7131,-15.7657,533.5163],[-66.715,-15.7624,541.6166],[-66.7115,-15.7587,576.7442],[-66.71,-15.7537,506.1144],[-66.7057,-15.7554,501.6036],[-66.705,-15.75,521.4701],[-66.6972,-15.7497,643.4166],[-66.6968,-15.7469,489.5581],[-66.6999,-15.7419,472.7661],[-66.6952,-15.7396,455.3848],[-66.6967,-15.7368,446.692],[-66.7023,-15.7366,448.735],[-66.7024,-15.7346,446.3817],[-66.6988,-15.7329,472.6449],[-66.702,-15.7301,448.5482],[-66.7012,-15.7267,442.9993],[-66.7062,-15.7255,417.8242],[-66.7103,-15.7208,453.1755],[-66.7144,-15.7191,412.3763],[-66.7204,-15.7127,408.7032],[-66.719,-15.7104,441.202],[-66.7211,-15.709,425.9864],[-66.7218,-15.7056,393.0086],[-66.7158,-15.7002,442.0407],[-66.7131,-15.7003,408.9212],[-66.7128,-15.7036,402.6082],[-66.7101,-15.7033,449.9991],[-66.7069,-15.6953,342.0582],[-66.6948,-15.6953,327.3619],[-66.6963,-15.6893,348.9091],[-66.7008,-15.6877,321.1559],[-66.701,-15.6852,321.2727],[-66.6973,-15.6825,318.6574],[-66.6915,-15.6845,341.9352],[-66.693,-15.679,313.0078],[-66.6905,-15.6783,328.579],[-66.6862,-15.6738,433.4136],[-66.6824,-15.6688,319.4406],[-66.6826,-15.6655,309.4244],[-66.679,-15.6649,343.5926],[-66.6788,-15.6612,318.6574],[-66.6762,-15.6613,306.7211],[-66.6734,-15.6645,324.2205],[-66.6704,-15.6608,317.5599],[-66.6669,-15.662,333.4761],[-66.6628,-15.6504,303.5745],[-66.6664,-15.6448,300.8621],[-66.6636,-15.6424,337.449],[-66.6622,-15.6463,304.3221],[-66.6599,-15.6471,293.7796],[-66.6575,-15.6444,316.7376],[-66.6577,-15.6425,303.3876],[-66.661,-15.64,289.4457],[-66.6595,-15.6365,297.9958],[-66.6553,-15.6341,294.9098],[-66.6503,-15.6344,291.0448],[-66.5315,-15.5655,326.2152]]]]}}