{"type":"Feature","properties":{"GID_3":"BOL.4.21.2_2","GID_0":"BOL","country":"Bolivia","GID_1":"BOL.4_1","province":"LaPaz","NL_NAME_1":"NA","GID_2":"BOL.4.21_2","county":"SudYungas","NL_NAME_2":"NA","city":"Irupana","VARNAME_3":"NA","NL_NAME_3":"NA","TYPE_3":"District","ENGTYPE_3":"Distrito","CC_3":"NA","HASC_3":"NA","name":"Irupana.city"},
"geometry":{"type": "MultiPolygon","coordinates": [[[[-67.2543,-16.4217,900.2727],[-67.1579,-16.3808,1707.3904],[-67.165,-16.3756,1677.4677],[-67.1716,-16.3729,1687.8407],[-67.1745,-16.369,1629.418],[-67.1802,-16.3653,1593.0627],[-67.1921,-16.3625,1562.6476],[-67.2023,-16.3527,1576.0663],[-67.2041,-16.3482,1486.1626],[-67.2139,-16.344,1365.0613],[-67.2198,-16.3382,1336.528],[-67.2205,-16.3355,1386.2512],[-67.2262,-16.3342,1295.1603],[-67.2279,-16.3303,1274.6539],[-67.2336,-16.3291,1226.8538],[-67.2366,-16.3268,1208.7736],[-67.2416,-16.3265,1178.9618],[-67.2439,-16.3249,1153.5504],[-67.2445,-16.3219,1191.5966],[-67.2467,-16.3205,1148.104],[-67.2503,-16.3212,1071.3492],[-67.2591,-16.3134,995.7599],[-67.2624,-16.3101,1035.6517],[-67.2636,-16.306,985.5925],[-67.2584,-16.3019,933.7921],[-67.257,-16.2945,851.475],[-67.2579,-16.2911,901.4196],[-67.2688,-16.2976,808.1017],[-67.2758,-16.2973,805.0021],[-67.2793,-16.2947,805.6989],[-67.2877,-16.2939,805.1002],[-67.2936,-16.3025,844.288],[-67.2955,-16.3094,821.8871],[-67.3116,-16.3137,857.3683],[-67.3196,-16.3113,840.8264],[-67.3261,-16.3025,963.5573],[-67.3329,-16.2986,857.3586],[-67.3391,-16.2973,854.1356],[-67.3415,-16.2946,849.7459],[-67.3524,-16.2913,862.386],[-67.3698,-16.2946,935.3724],[-67.3775,-16.2873,925.3206],[-67.3811,-16.2869,888.8102],[-67.3877,-16.2902,955.6349],[-67.3941,-16.2963,1045.9159],[-67.3981,-16.2974,933.4644],[-67.4051,-16.3044,959.1722],[-67.4154,-16.3073,957.9158],[-67.4214,-16.3114,993.2543],[-67.4289,-16.3199,1101.9341],[-67.4318,-16.3204,935.2068],[-67.442,-16.3377,1115.8381],[-67.4434,-16.3431,986.9248],[-67.4502,-16.3493,1188.682],[-67.45,-16.354,1171.0969],[-67.4546,-16.3589,1115.7269],[-67.4553,-16.3646,1067.4814],[-67.4529,-16.3701,1046.036],[-67.4542,-16.3773,1106.6946],[-67.46,-16.3836,1052.2017],[-67.4612,-16.3874,1141.136],[-67.4585,-16.3909,1047.5303],[-67.4539,-16.393,1053.3822],[-67.4541,-16.3944,1053.3822],[-67.4712,-16.3983,1104.5103],[-67.482,-16.4055,1155.0347],[-67.485,-16.4183,1197.9868],[-67.4903,-16.4242,1201.2231],[-67.4961,-16.4369,1219.6709],[-67.4984,-16.4477,1348.9661],[-67.5029,-16.4505,1289.531],[-67.5066,-16.4573,1298.5143],[-67.5141,-16.46,1360.0486],[-67.5194,-16.4645,1348.696],[-67.5213,-16.4693,1363.0642],[-67.5244,-16.4698,1383.5968],[-67.5259,-16.4725,1397.9537],[-67.529,-16.4737,1440.925],[-67.5285,-16.4756,1438.8677],[-67.5321,-16.4799,1493.9642],[-67.5342,-16.4859,1507.4291],[-67.538,-16.4892,1496.6003],[-67.5421,-16.4898,1512.2229],[-67.545,-16.4968,1574.7181],[-67.5524,-16.5054,1618.213],[-67.5558,-16.5056,1655.2043],[-67.5612,-16.5013,1740.7108],[-67.5686,-16.5071,1840.1824],[-67.5687,-16.5128,1899.8114],[-67.5701,-16.5135,1939.603],[-67.585,-16.5084,2580.9626],[-67.5877,-16.5107,2625.9348],[-67.5913,-16.511,2682.501],[-67.5921,-16.5147,2793.6199],[-67.5968,-16.5156,2865.0295],[-67.5987,-16.5122,3001.4812],[-67.6098,-16.5116,3316.6511],[-67.6158,-16.507,3687.355],[-67.6186,-16.5186,3690.7085],[-67.6309,-16.5129,2905.1497],[-67.6339,-16.5087,2736.7502],[-67.645,-16.5082,2503.1172],[-67.6536,-16.5052,2249.302],[-67.6591,-16.5009,2072.1289],[-67.6593,-16.4989,2148.5347],[-67.6609,-16.4995,1938.5253],[-67.6614,-16.495,1926.609],[-67.6629,-16.4945,1959.6069],[-67.6737,-16.4997,2310.0005],[-67.6756,-16.5022,2401.8862],[-67.6847,-16.5022,2895.0762],[-67.6949,-16.5057,3756.0671],[-67.7083,-16.518,4865.439],[-67.7179,-16.5096,4789.0371],[-67.7218,-16.5122,4870.8115],[-67.7253,-16.5179,5023.3086],[-67.7312,-16.5207,5061.564],[-67.7391,-16.5164,5037.7271],[-67.7414,-16.5169,5058.5244],[-67.751,-16.522,5084.7261],[-67.757,-16.5313,5147.5498],[-67.766,-16.5197,5223.4863],[-67.7689,-16.5136,5045.8037],[-67.7758,-16.5165,4947.2104],[-67.7924,-16.534,5226.7798],[-67.799,-16.5223,5045.7358],[-67.8153,-16.5149,5748.9854],[-67.8231,-16.5088,5707.1797],[-67.8302,-16.508,5628.8115],[-67.8406,-16.5166,5564.9766],[-67.8386,-16.5237,5242.5273],[-67.8397,-16.5277,5294.3999],[-67.8433,-16.5303,5192.9443],[-67.8435,-16.5346,5192.3315],[-67.8586,-16.5444,4872.9985],[-67.8581,-16.5466,4975.3281],[-67.8505,-16.5532,4890.918],[-67.8536,-16.5601,4801.5659],[-67.8551,-16.5699,4518.2471],[-67.8505,-16.5747,4680.9717],[-67.8502,-16.5782,4713.8384],[-67.8428,-16.5768,4712.8672],[-67.8322,-16.5784,4605.8867],[-67.8272,-16.5802,4589.917],[-67.8194,-16.5875,4684.5098],[-67.8074,-16.5932,4783.7612],[-67.8084,-16.5977,4917.0244],[-67.8053,-16.6025,4884.8462],[-67.8132,-16.6247,5654.2578],[-67.8123,-16.6277,5650.9155],[-67.8009,-16.6308,6001.6099],[-67.7972,-16.6352,6184.105],[-67.7871,-16.6382,6217.6113],[-67.7825,-16.6434,6064.9902],[-67.7841,-16.6538,6370.5059],[-67.7828,-16.6557,6238.123],[-67.7625,-16.6568,5712.8359],[-67.729,-16.6689,4765.2178],[-67.7121,-16.6692,4562.355],[-67.7089,-16.6707,4493.9058],[-67.7049,-16.6743,4676.3931],[-67.6966,-16.6768,4736.5522],[-67.6862,-16.69,4448.3745],[-67.6748,-16.6961,4162.3228],[-67.6644,-16.7052,4142.0771],[-67.6452,-16.7152,3967.6279],[-67.636,-16.7226,3435.675],[-67.632,-16.7235,3003.1011],[-67.6269,-16.7294,2597.7456],[-67.6265,-16.7327,2395.2898],[-67.6197,-16.7431,1724.835],[-67.6145,-16.7395,1676.5317],[-67.6071,-16.7401,1605.8473],[-67.6005,-16.7317,1579.7471],[-67.6013,-16.7283,1674.0415],[-67.5982,-16.7276,1603.4834],[-67.5967,-16.7229,1578.6405],[-67.5939,-16.723,1654.5812],[-67.5919,-16.7129,1608.098],[-67.5786,-16.6985,1481.1725],[-67.5641,-16.6942,1475.314],[-67.5578,-16.681,1453.3251],[-67.5526,-16.6759,1419.0762],[-67.5465,-16.6743,1413.8657],[-67.5419,-16.6759,1403.0328],[-67.5384,-16.6715,1417.8561],[-67.5243,-16.6665,1380.7839],[-67.52,-16.6626,1435.1875],[-67.5175,-16.6568,1437.3889],[-67.5184,-16.6541,1348.6431],[-67.5168,-16.65,1390.8041],[-67.5187,-16.6438,1360.7015],[-67.5154,-16.6369,1541.3091],[-67.5163,-16.6334,1337.106],[-67.5067,-16.6282,1352.7278],[-67.5035,-16.6223,1332.7286],[-67.4957,-16.62,1285.9772],[-67.4887,-16.6232,1343.3284],[-67.4755,-16.6232,1281.5082],[-67.4706,-16.6213,1318.8254],[-67.4659,-16.6144,1265.4049],[-67.4552,-16.6126,1219.5903],[-67.4498,-16.6061,1317.1189],[-67.4452,-16.6049,1281.8271],[-67.4431,-16.5981,1192.8992],[-67.4395,-16.5956,1187.151],[-67.4384,-16.5913,1181.5938],[-67.429,-16.5843,1232.8699],[-67.4219,-16.585,1232.7043],[-67.4206,-16.5824,1166.0416],[-67.4169,-16.5805,1160.2926],[-67.4065,-16.5642,1133.2003],[-67.4015,-16.5615,1170.322],[-67.396,-16.5482,1094.3309],[-67.3896,-16.5471,1104.9568],[-67.3833,-16.5414,1150.3542],[-67.3829,-16.5304,1067.8134],[-67.376,-16.5236,1053.7163],[-67.3696,-16.5209,1090.6003],[-67.3587,-16.5215,1139.8054],[-67.3507,-16.5164,1013.4789],[-67.3428,-16.5159,1007.0626],[-67.3407,-16.5124,1025.0825],[-67.3413,-16.5086,1005.1794],[-67.337,-16.507,995.9968],[-67.3318,-16.4988,985.8639],[-67.3273,-16.499,1035.0121],[-67.3199,-16.4879,986.9902],[-67.3052,-16.483,1076.2295],[-67.2974,-16.4821,989.7457],[-67.2922,-16.4832,1108.7784],[-67.2908,-16.481,950.5392],[-67.2858,-16.479,1036.0886],[-67.2778,-16.468,991.6294],[-67.2714,-16.4658,1024.583],[-67.27,-16.4553,934.3882],[-67.2677,-16.4516,934.4346],[-67.2628,-16.449,935.5177],[-67.2615,-16.4455,935.4718],[-67.2581,-16.445,1001.2645],[-67.2575,-16.439,982.587],[-67.2542,-16.4371,1056.0691],[-67.2569,-16.4339,992.2488],[-67.255,-16.4291,981.0251],[-67.2581,-16.4233,897.8412],[-67.2556,-16.4194,913.3621],[-67.2539,-16.4203,969.8731],[-67.2543,-16.4217,900.2727]]]]}}