{"type": "Feature","bbox": [-68.8221,-16.1111,-67.471,-15.1175],"geometry": {"type": "MultiPolygon","coordinates": [[[[-67.6796,-15.7461,502.0983],[-67.6775,-15.7447,498.152],[-67.6787,-15.7481,504.8497],[-67.6759,-15.7497,531.3593],[-67.6689,-15.7395,636.0874],[-67.6582,-15.7377,780.6643],[-67.6546,-15.7319,1012.1339],[-67.649,-15.7292,1242.9202],[-67.6458,-15.7236,1324.8605],[-67.6423,-15.7222,1484.2648],[-67.6518,-15.7033,1416.9731],[-67.644,-15.687,898.4448],[-67.6224,-15.6605,1229.1973],[-67.6134,-15.6324,1537.7588],[-67.6417,-15.6079,1211.5481],[-67.6047,-15.561,1722.3528],[-67.6123,-15.5421,1717.475],[-67.6077,-15.5161,1557.2853],[-67.5743,-15.4592,531.7383],[-67.5768,-15.4218,373.9359],[-67.5695,-15.4086,446.7785],[-67.5697,-15.391,529.2826],[-67.5747,-15.3865,537.6198],[-67.5734,-15.3728,573.2761],[-67.5511,-15.3517,672.257],[-67.5556,-15.3475,524.2598],[-67.5475,-15.3377,515.6196],[-67.5289,-15.331,1029.3745],[-67.5108,-15.3522,898.5491],[-67.4972,-15.3484,386.9061],[-67.4985,-15.339,346.0867],[-67.5038,-15.3225,340.3802],[-67.5023,-15.3214,327.8754],[-67.4974,-15.3227,324.5107],[-67.4845,-15.3146,390.4082],[-67.4811,-15.3083,317.0],[-67.4798,-15.2952,316.4173],[-67.4725,-15.2898,316.0785],[-67.471,-15.2863,320.4587],[-67.471,-15.2832,319.2374],[-67.4742,-15.2783,315.8851],[-67.4859,-15.2713,316.4393],[-67.4967,-15.2695,311.434],[-67.5026,-15.2759,314.7341],[-67.5077,-15.2759,310.7454],[-67.5112,-15.274,308.3858],[-67.5171,-15.2676,309.3724],[-67.5221,-15.2569,309.5014],[-67.5316,-15.262,305.7778],[-67.543,-15.2585,307.3409],[-67.5461,-15.2547,320.9092],[-67.5467,-15.2501,303.8942],[-67.5459,-15.2469,315.8307],[-67.5408,-15.2419,301.9336],[-67.5396,-15.2303,299.5],[-67.5357,-15.2248,311.2625],[-67.5417,-15.2116,298.0429],[-67.5463,-15.2092,299.2906],[-67.5607,-15.2097,294.4758],[-67.5727,-15.1989,296.4281],[-67.5765,-15.1989,297.4763],[-67.5816,-15.2055,297.7977],[-67.5845,-15.2061,297.6369],[-67.5911,-15.1987,290.2054],[-67.6079,-15.1878,287.449],[-67.6281,-15.1592,280.0],[-67.6529,-15.1372,275.5],[-67.6583,-15.1261,279.1031],[-67.664,-15.1237,274.251],[-67.6679,-15.1193,274.2887],[-67.6773,-15.1175,274.0432],[-67.689,-15.1206,278.4063],[-67.6901,-15.1263,280.7229],[-67.6884,-15.1283,280.4968],[-67.672,-15.1317,281.5089],[-67.6676,-15.1374,313.857],[-67.6677,-15.1399,308.4344],[-67.6688,-15.1422,280.5015],[-67.6736,-15.1444,289.4947],[-67.6836,-15.1418,285.3881],[-67.6877,-15.1425,283.1749],[-67.6898,-15.1486,287.1147],[-67.6861,-15.1506,284.2152],[-67.6745,-15.1512,307.3202],[-67.6707,-15.1529,328.785],[-67.6679,-15.1568,287.3603],[-67.6693,-15.1609,289.3556],[-67.6763,-15.1626,370.1833],[-67.6808,-15.1684,307.0482],[-67.6815,-15.1772,295.1044],[-67.6705,-15.2058,294.9804],[-67.6715,-15.2085,293.6325],[-67.6791,-15.2131,294.5909],[-67.6805,-15.2274,311.6631],[-67.686,-15.2368,357.8688],[-67.6873,-15.243,326.7074],[-67.7011,-15.246,302.6063],[-67.704,-15.2488,300.2095],[-67.7089,-15.2491,317.9968],[-67.7115,-15.2488,361.3872],[-67.7155,-15.2424,323.2245],[-67.7249,-15.2434,352.1022],[-67.7246,-15.2381,337.0734],[-67.7275,-15.239,344.3869],[-67.7309,-15.2371,343.7275],[-67.7344,-15.2305,365.1071],[-67.733,-15.2289,350.8176],[-67.7361,-15.2261,359.1718],[-67.7338,-15.2227,355.4832],[-67.738,-15.2196,367.8234],[-67.758,-15.2254,392.0257],[-67.7592,-15.2291,405.8403],[-67.7733,-15.229,449.748],[-67.7786,-15.2334,477.646],[-67.7914,-15.2319,509.4955],[-67.7962,-15.2279,526.1124],[-67.7992,-15.2282,547.2475],[-67.8012,-15.2253,548.8428],[-67.8067,-15.2256,572.8344],[-67.8156,-15.2229,647.7109],[-67.818,-15.2247,759.1714],[-67.8198,-15.2232,683.1874],[-67.8261,-15.2285,797.3938],[-67.8348,-15.2324,881.7628],[-67.8417,-15.2427,979.5914],[-67.8515,-15.2489,1439.3695],[-67.8542,-15.2531,1495.4259],[-67.8621,-15.2571,1697.5337],[-67.9515,-15.2747,1410.5994],[-68.0346,-15.297,1647.7137],[-68.0511,-15.3084,1139.3795],[-68.0542,-15.3237,729.9072],[-68.0572,-15.3287,609.6793],[-68.0605,-15.3309,536.9338],[-68.065,-15.3211,503.3002],[-68.0696,-15.3175,528.8793],[-68.0691,-15.3155,509.8243],[-68.0645,-15.3145,512.0005],[-68.0641,-15.3128,519.953],[-68.0686,-15.3012,534.3825],[-68.0686,-15.2944,573.1732],[-68.0794,-15.2765,586.3974],[-68.0835,-15.2735,537.6884],[-68.0862,-15.2665,532.6945],[-68.0908,-15.2657,540.5307],[-68.0978,-15.2602,533.1246],[-68.0986,-15.2563,540.8987],[-68.1022,-15.256,536.1359],[-68.1028,-15.2526,561.0945],[-68.1072,-15.2519,577.9836],[-68.1136,-15.2474,538.5612],[-68.1141,-15.243,565.1956],[-68.1187,-15.2456,563.9371],[-68.1348,-15.2401,562.3491],[-68.1433,-15.2327,622.0402],[-68.1444,-15.2296,572.419],[-68.1515,-15.2271,635.03],[-68.1579,-15.2167,562.0272],[-68.1616,-15.216,561.6555],[-68.1621,-15.2131,584.1586],[-68.1707,-15.2078,583.635],[-68.1688,-15.2043,556.5407],[-68.1725,-15.2021,578.313],[-68.174,-15.1976,572.7222],[-68.1681,-15.1872,570.4974],[-68.1709,-15.1848,569.3085],[-68.1747,-15.1857,577.1992],[-68.1768,-15.1842,613.5026],[-68.1746,-15.1787,595.3024],[-68.1757,-15.1722,632.239],[-68.1822,-15.1662,633.5206],[-68.1867,-15.159,661.4429],[-68.1862,-15.1561,656.4976],[-68.191,-15.1534,620.5453],[-68.1923,-15.1501,621.5969],[-68.1986,-15.1522,611.3236],[-68.2019,-15.1509,620.0464],[-68.2048,-15.1519,621.9153],[-68.2055,-15.1506,640.3062],[-68.2038,-15.1491,597.8755],[-68.2086,-15.1468,622.1014],[-68.2109,-15.1484,673.1682],[-68.214,-15.1481,636.6572],[-68.2225,-15.1436,604.7034],[-68.2305,-15.1472,622.7454],[-68.2323,-15.1465,614.6848],[-68.2317,-15.1502,646.7961],[-68.2333,-15.1516,637.489],[-68.2322,-15.1539,662.7817],[-68.2289,-15.1562,731.3311],[-68.2282,-15.1586,624.5533],[-68.2256,-15.1588,612.6565],[-68.2293,-15.1615,723.2314],[-68.2298,-15.1637,629.741],[-68.2337,-15.1642,627.6142],[-68.2392,-15.1624,624.2983],[-68.2414,-15.1589,652.5397],[-68.2434,-15.1587,624.364],[-68.2456,-15.1531,662.6784],[-68.2517,-15.1483,623.3983],[-68.2549,-15.1518,666.1129],[-68.2566,-15.1461,634.675],[-68.2595,-15.1451,654.0629],[-68.2612,-15.1417,631.8361],[-68.2656,-15.142,674.0391],[-68.2688,-15.1361,669.1024],[-68.2739,-15.1378,637.5104],[-68.2778,-15.1329,666.0939],[-68.2824,-15.1362,644.6297],[-68.2831,-15.1338,662.4443],[-68.2881,-15.1312,678.293],[-68.2918,-15.1341,653.1481],[-68.2971,-15.1347,685.9104],[-68.297,-15.1379,716.5526],[-68.301,-15.1365,660.2264],[-68.3047,-15.1397,757.2582],[-68.3118,-15.1375,657.2387],[-68.3103,-15.1453,755.1294],[-68.3157,-15.1495,666.5209],[-68.3261,-15.1489,669.6304],[-68.3245,-15.1544,677.8076],[-68.3307,-15.1536,684.8019],[-68.3336,-15.1568,800.4082],[-68.3391,-15.1546,755.5717],[-68.3432,-15.1559,789.9196],[-68.3469,-15.1524,771.207],[-68.3495,-15.1533,768.4227],[-68.3501,-15.1554,761.4067],[-68.3537,-15.156,796.8292],[-68.3566,-15.1528,830.483],[-68.3593,-15.1532,839.757],[-68.3618,-15.1555,953.4445],[-68.361,-15.1593,920.4631],[-68.3661,-15.1595,938.2958],[-68.3664,-15.1618,932.2388],[-68.3699,-15.1614,1132.9492],[-68.3684,-15.1658,1074.9092],[-68.3709,-15.1671,1109.4619],[-68.3682,-15.1679,1101.4315],[-68.3678,-15.1708,1136.7979],[-68.3714,-15.1698,1122.2986],[-68.371,-15.1715,1141.4199],[-68.3741,-15.1756,1150.8156],[-68.3782,-15.1759,1151.5435],[-68.376,-15.1795,1179.9565],[-68.3773,-15.1835,1176.0343],[-68.3818,-15.1833,1154.525],[-68.3828,-15.186,1152.8835],[-68.3862,-15.1878,1159.3124],[-68.3904,-15.1873,1162.2329],[-68.3935,-15.1916,1180.647],[-68.3967,-15.1915,1169.9543],[-68.3931,-15.1997,1278.035],[-68.3983,-15.2063,1353.5544],[-68.4001,-15.2125,1440.2314],[-68.4034,-15.2158,1396.5758],[-68.4024,-15.2275,1118.2754],[-68.4067,-15.2318,720.6073],[-68.4108,-15.224,740.8724],[-68.4245,-15.2164,742.0315],[-68.4303,-15.2108,769.3853],[-68.4362,-15.2084,728.4047],[-68.4417,-15.2012,730.3971],[-68.446,-15.199,754.8995],[-68.4479,-15.1943,916.7922],[-68.4511,-15.1985,835.1975],[-68.4544,-15.2,790.5769],[-68.4691,-15.1947,856.8154],[-68.4814,-15.1996,902.8429],[-68.4843,-15.2026,931.7354],[-68.4904,-15.204,1015.9889],[-68.4934,-15.2077,1134.2036],[-68.4987,-15.2099,986.1409],[-68.4991,-15.2133,1034.1621],[-68.501,-15.2145,1078.5334],[-68.5071,-15.2157,1058.9271],[-68.5164,-15.2204,1109.2848],[-68.5198,-15.2329,1274.7268],[-68.5183,-15.2373,1223.241],[-68.52,-15.2436,1395.0298],[-68.5345,-15.2556,1461.3909],[-68.5377,-15.265,1626.3311],[-68.5498,-15.2727,1805.7146],[-68.5594,-15.2934,2109.4265],[-68.5681,-15.3013,2669.1909],[-68.5796,-15.3176,3564.6274],[-68.6094,-15.332,3369.8789],[-68.6308,-15.3296,4113.6982],[-68.6358,-15.3433,4182.9688],[-68.654,-15.3632,2746.7451],[-68.6471,-15.3683,2602.354],[-68.6407,-15.3717,2522.3774],[-68.6362,-15.372,2477.7959],[-68.6333,-15.3746,2624.2715],[-68.6344,-15.3787,2730.6143],[-68.6327,-15.3812,2719.0085],[-68.6325,-15.3863,2989.0498],[-68.6177,-15.4109,3254.572],[-68.6137,-15.4215,2733.3906],[-68.6053,-15.432,2174.5151],[-68.5941,-15.4513,1119.6455],[-68.6218,-15.4649,1186.7509],[-68.6251,-15.4684,1191.2363],[-68.6449,-15.4726,1208.9033],[-68.6562,-15.4808,1250.1881],[-68.6637,-15.4834,1259.4792],[-68.6692,-15.4902,1305.2173],[-68.6685,-15.4958,1264.4938],[-68.6709,-15.5044,1316.9258],[-68.676,-15.5077,1352.0417],[-68.6834,-15.5081,1354.613],[-68.6875,-15.51,1356.2947],[-68.6951,-15.5213,1351.5144],[-68.7003,-15.5252,1393.2966],[-68.7078,-15.5416,1385.5635],[-68.7273,-15.5504,1411.3268],[-68.7405,-15.5535,1433.661],[-68.7486,-15.56,1469.229],[-68.7603,-15.5653,1471.584],[-68.7643,-15.5702,1534.9613],[-68.7703,-15.5725,1485.2267],[-68.7708,-15.5791,1586.0475],[-68.7744,-15.5838,1500.6658],[-68.7783,-15.5956,1525.038],[-68.7759,-15.5991,1546.0569],[-68.7764,-15.6042,1542.9548],[-68.7735,-15.6094,1547.5452],[-68.7743,-15.618,1559.8944],[-68.7716,-15.6281,1588.1703],[-68.7651,-15.6334,1632.8633],[-68.7621,-15.6342,1640.1128],[-68.7581,-15.6319,1619.2117],[-68.754,-15.6334,1650.2318],[-68.7498,-15.6418,1728.4553],[-68.7561,-15.6461,1789.4453],[-68.7539,-15.6502,1893.6128],[-68.7542,-15.6561,1991.8032],[-68.7587,-15.6596,1898.3397],[-68.7586,-15.6635,1990.3937],[-68.7636,-15.668,2022.0687],[-68.7709,-15.6912,2121.1995],[-68.7759,-15.694,2158.7969],[-68.7766,-15.7011,2259.4106],[-68.7805,-15.7043,2271.3782],[-68.7813,-15.7071,2323.1055],[-68.783,-15.7074,2323.1055],[-68.7843,-15.7119,2394.4233],[-68.7864,-15.7132,2407.447],[-68.791,-15.7292,2604.0562],[-68.7928,-15.731,2643.1355],[-68.7976,-15.7313,2716.2632],[-68.8016,-15.7358,2760.2236],[-68.8053,-15.7356,2833.6152],[-68.8221,-15.7548,3366.6228],[-68.8168,-15.7589,3669.1089],[-68.8073,-15.7701,4194.3403],[-68.806,-15.7849,4097.8745],[-68.807,-15.7985,4361.6826],[-68.805,-15.8104,4304.5088],[-68.8027,-15.8203,4442.7534],[-68.7972,-15.8258,4466.5952],[-68.8009,-15.8381,4434.0239],[-68.8011,-15.8446,4485.0869],[-68.7996,-15.849,4476.6606],[-68.7912,-15.8544,4417.1582],[-68.7887,-15.8633,4416.1733],[-68.7814,-15.8695,4401.6357],[-68.7706,-15.8671,4343.2119],[-68.7533,-15.8519,4353.2246],[-68.7423,-15.8631,4338.7231],[-68.7354,-15.8563,4256.9912],[-68.7182,-15.8455,3735.4539],[-68.7138,-15.8464,3670.4604],[-68.7087,-15.8563,3814.2085],[-68.7038,-15.8599,3846.321],[-68.6944,-15.8551,4233.4248],[-68.6818,-15.853,4349.3359],[-68.6761,-15.8644,4272.1357],[-68.6681,-15.8671,4247.3027],[-68.6683,-15.8709,4284.959],[-68.6634,-15.8812,4198.5068],[-68.6341,-15.9074,4176.3633],[-68.62,-15.9083,4380.6978],[-68.5981,-15.9286,4270.0947],[-68.5195,-15.9332,4879.8882],[-68.487,-15.9681,4989.2109],[-68.4874,-15.9747,4834.8364],[-68.4924,-15.9822,4792.7891],[-68.4938,-15.9894,4822.9316],[-68.4921,-15.9967,4785.2861],[-68.4888,-15.9994,4718.1113],[-68.4963,-16.014,4676.5254],[-68.492,-16.0165,4493.4092],[-68.4675,-16.0167,4668.5391],[-68.4582,-16.0127,4664.4434],[-68.4456,-16.0108,4940.1699],[-68.439,-16.0115,5070.4961],[-68.4203,-16.0082,5382.6709],[-68.4137,-15.9984,5427.709],[-68.4132,-15.9845,5092.9473],[-68.4067,-15.9777,5351.3828],[-68.4047,-15.9714,5420.5664],[-68.3998,-15.9727,5587.2847],[-68.3957,-15.9765,5844.9551],[-68.3916,-15.9765,5805.3662],[-68.3879,-15.9785,5777.8809],[-68.3838,-15.9833,5913.0469],[-68.3808,-15.9935,5811.7896],[-68.3738,-15.9975,5558.5527],[-68.3624,-16.009,5344.5684],[-68.3606,-16.0266,5527.686],[-68.339,-16.0387,5454.0771],[-68.3108,-16.048,5177.3672],[-68.2682,-16.0723,4598.6587],[-68.2515,-16.0841,4758.6748],[-68.241,-16.1079,5029.0654],[-68.2369,-16.1111,4677.144],[-68.2288,-16.0946,4800.168],[-68.217,-16.0854,4924.7949],[-68.2099,-16.068,4935.0332],[-68.2071,-16.0636,4871.5898],[-68.2029,-16.0614,4744.29],[-68.2023,-16.058,4594.5552],[-68.2044,-16.0551,4615.7773],[-68.1796,-16.0526,4635.3535],[-68.1775,-16.0495,4609.9131],[-68.1663,-16.0446,4611.8413],[-68.1621,-16.0508,4591.5557],[-68.1624,-16.0546,4565.3989],[-68.1604,-16.0593,4658.5093],[-68.1446,-16.0526,4279.5288],[-68.1423,-16.0494,4089.5078],[-68.1301,-16.0467,4097.5601],[-68.1252,-16.0486,4198.499],[-68.122,-16.0374,4083.4878],[-68.1165,-16.038,4105.0337],[-68.1114,-16.0421,4194.0225],[-68.1073,-16.0418,4062.0376],[-68.1026,-16.0392,4073.4731],[-68.1002,-16.0435,4090.0703],[-68.0891,-16.0452,4190.8687],[-68.0873,-16.0479,4089.5686],[-68.0829,-16.0487,4071.2954],[-68.0741,-16.0402,4108.0391],[-68.048,-16.0511,2756.8149],[-68.0319,-16.0554,2020.8333],[-68.027,-16.0529,1868.4321],[-68.0209,-16.0522,1543.1614],[-68.0241,-16.0473,1608.7455],[-68.0203,-16.0434,1888.3303],[-68.0077,-16.0454,1338.3108],[-67.991,-16.0448,1160.4386],[-67.9677,-16.04,1010.1416],[-67.9638,-16.0361,1044.9744],[-67.9569,-16.0411,966.6136],[-67.9455,-16.0403,980.0767],[-67.9422,-16.0372,961.9116],[-67.9419,-16.0342,1022.0856],[-67.9378,-16.029,910.9771],[-67.9359,-16.019,926.1807],[-67.9326,-16.0176,898.3284],[-67.9287,-16.0119,860.4893],[-67.9207,-16.0122,870.7677],[-67.9186,-16.0103,834.2471],[-67.9126,-16.0093,913.8748],[-67.9113,-16.0068,842.6353],[-67.9067,-16.0052,841.3715],[-67.8941,-15.9816,843.4623],[-67.8921,-15.9799,770.1271],[-67.889,-15.9801,782.1902],[-67.8891,-15.9747,833.5298],[-67.886,-15.969,765.7975],[-67.8914,-15.9588,1418.0983],[-67.8918,-15.9523,1581.2533],[-67.8801,-15.9247,1687.4757],[-67.862,-15.8953,2152.7712],[-67.8234,-15.8104,1615.2047],[-67.8056,-15.7832,1110.736],[-67.7954,-15.7822,1016.9054],[-67.7926,-15.7857,967.9375],[-67.7897,-15.7822,1048.2385],[-67.7848,-15.7849,1019.6203],[-67.7815,-15.7824,1028.4927],[-67.7634,-15.7886,1101.9485],[-67.7591,-15.7877,1164.9421],[-67.7325,-15.7901,1106.5261],[-67.7255,-15.7851,985.6756],[-67.7173,-15.7848,888.5836],[-67.7219,-15.7661,1165.5955],[-67.721,-15.7642,1172.2738],[-67.7161,-15.7664,1150.6219],[-67.7089,-15.765,1256.3518],[-67.7052,-15.7588,1257.2451],[-67.7072,-15.7562,1252.3606],[-67.7058,-15.7491,1228.2816],[-67.69,-15.7478,734.9056],[-67.6828,-15.7496,518.4346],[-67.6796,-15.7461,502.0983]]]]}
,"properties": {"GID_2": "BOL.4.12_2","GID_0": "BOL","country": "Bolivia","GID_1": "BOL.4_1","province": "LaPaz","NL_NAME_1": "NA","county": "Larecaja","VARNAME_2": "NA","NL_NAME_2": "NA","TYPE_2": "Provincia","ENGTYPE_2": "Province","CC_2": "NA","HASC_2": "NA","name": "Larecaja.county","area_km2": 9684.055,"hist_schema_id": "Elevation0-9000","hist_area_km2": {"275": 4.277,"300": 15.323,"325": 36.199,"350": 44.68,"375": 50.383,"400": 56.923,"425": 59.189,"450": 61.064,"475": 61.511,"500": 65.471,"525": 68.6,"550": 71.378,"575": 73.296,"600": 73.969,"625": 83.695,"650": 88.555,"675": 93.645,"700": 103.247,"725": 109.684,"750": 118.51,"775": 123.414,"800": 130.42,"825": 135.264,"850": 138.344,"875": 143.005,"900": 145.149,"925": 146.063,"950": 148.062,"975": 146.3,"1000": 148.1,"1025": 141.807,"1050": 139.068,"1075": 143.628,"1100": 144.853,"1125": 135.977,"1150": 130.35,"1175": 129.526,"1200": 119.284,"1225": 112.432,"1250": 105.322,"1275": 100.923,"1300": 92.488,"1325": 92.564,"1350": 87.498,"1375": 87.661,"1400": 85.474,"1425": 82.142,"1450": 77.344,"1475": 74.116,"1500": 71.968,"1525": 70.478,"1550": 66.331,"1575": 63.574,"1600": 63.61,"1625": 59.934,"1650": 56.748,"1675": 56.175,"1700": 54.089,"1725": 53.168,"1750": 52.229,"1775": 48.8,"1800": 47.268,"1825": 46.96,"1850": 45.976,"1875": 44.428,"1900": 42.284,"1925": 42.998,"1950": 42.364,"1975": 40.628,"2000": 40.916,"2025": 40.958,"2050": 36.464,"2075": 38.405,"2100": 37.197,"2125": 37.73,"2150": 36.22,"2175": 35.932,"2200": 35.361,"2225": 34.769,"2250": 34.83,"2275": 34.279,"2300": 34.257,"2325": 33.217,"2350": 33.523,"2375": 33.236,"2400": 33.033,"2425": 32.807,"2450": 31.234,"2475": 32.295,"2500": 32.746,"2525": 32.094,"2550": 33.298,"2575": 31.928,"2600": 31.969,"2625": 30.766,"2650": 29.743,"2675": 31.173,"2700": 30.745,"2725": 30.376,"2750": 31.05,"2775": 29.458,"2800": 29.64,"2825": 29.927,"2850": 29.559,"2875": 29.007,"2900": 28.721,"2925": 28.844,"2950": 28.354,"2975": 27.904,"3000": 28.496,"3025": 28.476,"3050": 29.578,"3075": 28.025,"3100": 27.188,"3125": 27.759,"3150": 26.698,"3175": 28.513,"3200": 28.065,"3225": 25.86,"3250": 25.433,"3275": 27.329,"3300": 26.39,"3325": 26.859,"3350": 27.268,"3375": 26.512,"3400": 26.757,"3425": 26.981,"3450": 27.592,"3475": 28.061,"3500": 26.613,"3525": 27.367,"3550": 26.733,"3575": 26.631,"3600": 26.896,"3625": 27.855,"3650": 27.385,"3675": 27.038,"3700": 27.813,"3725": 28.424,"3750": 28.547,"3775": 28.873,"3800": 28.097,"3825": 28.036,"3850": 28.463,"3875": 29.524,"3900": 27.688,"3925": 28.747,"3950": 28.686,"3975": 29.767,"4000": 29.439,"4025": 30.295,"4050": 32.132,"4075": 29.949,"4100": 31.887,"4125": 30.295,"4150": 32.56,"4175": 31.885,"4200": 32.313,"4225": 33.74,"4250": 34.088,"4275": 32.537,"4300": 30.986,"4325": 32.925,"4350": 31.966,"4375": 30.904,"4400": 30.333,"4425": 30.475,"4450": 28.924,"4475": 29.414,"4500": 30.657,"4525": 28.535,"4550": 27.862,"4575": 28.309,"4600": 26.555,"4625": 26.474,"4650": 25.066,"4675": 24.474,"4700": 24.188,"4725": 24.289,"4750": 23.104,"4775": 20.575,"4800": 20.432,"4825": 20.206,"4850": 19.798,"4875": 18.431,"4900": 17.452,"4925": 17.738,"4950": 16.984,"4975": 16.148,"5000": 16.535,"5025": 15.801,"5050": 15.23,"5075": 14.945,"5100": 13.804,"5125": 13.436,"5150": 12.091,"5175": 12.274,"5200": 11.255,"5225": 11.276,"5250": 10.644,"5275": 10.787,"5300": 10.481,"5325": 9.624,"5350": 8.421,"5375": 7.585,"5400": 7.3,"5425": 6.525,"5450": 6.301,"5475": 6.036,"5500": 5.2,"5525": 5.649,"5550": 4.955,"5575": 4.629,"5600": 3.997,"5625": 3.814,"5650": 4.364,"5675": 2.998,"5700": 3.406,"5725": 2.835,"5750": 2.366,"5775": 2.447,"5800": 2.162,"5825": 1.958,"5850": 1.611,"5875": 1.305,"5900": 1.55,"5925": 1.448,"5950": 1.285,"5975": 1.122,"6000": 0.673,"6025": 0.408,"6050": 0.367,"6075": 0.367,"6100": 0.204,"6125": 0.265,"6150": 0.265,"6175": 0.204,"6225": 0.102}}}