{"type":"Feature","properties":{"GID_3":"BOL.7.16.2_2","GID_0":"BOL","country":"Bolivia","GID_1":"BOL.7_1","province":"Potosí","NL_NAME_1":"NA","GID_2":"BOL.7.16_2","county":"TomásFrías","NL_NAME_2":"NA","city":"Tinguipaya","VARNAME_3":"NA","NL_NAME_3":"NA","TYPE_3":"District","ENGTYPE_3":"Distrito","CC_3":"NA","HASC_3":"NA","name":"Tinguipaya.city"},
"geometry":{"type": "MultiPolygon","coordinates": [[[[-66.1301,-19.2456,4130.127],[-66.1262,-19.2535,4177.4619],[-66.125,-19.2741,4023.5435],[-66.1223,-19.2817,3905.5967],[-66.1259,-19.2948,3705.1123],[-66.123,-19.2971,3710.9417],[-66.1183,-19.2921,3725.1958],[-66.1167,-19.2949,3745.1509],[-66.1085,-19.2912,3683.7756],[-66.108,-19.301,3732.782],[-66.0936,-19.3046,3664.7856],[-66.0892,-19.316,3661.5061],[-66.0757,-19.3209,3658.5078],[-66.0743,-19.3229,3666.7122],[-66.0753,-19.3249,3651.5615],[-66.072,-19.3264,3663.0896],[-66.0543,-19.3241,3980.8962],[-66.0469,-19.3255,4063.6846],[-66.0471,-19.3328,3981.0771],[-66.044,-19.3382,3951.6006],[-66.0376,-19.3386,3945.3691],[-66.0339,-19.336,3976.6113],[-66.0318,-19.332,4012.5706],[-65.9742,-19.2836,4680.3613],[-65.9662,-19.2848,4459.6069],[-65.9564,-19.2795,4555.8843],[-65.946,-19.279,4668.8594],[-65.9309,-19.2826,4431.5723],[-65.9163,-19.2882,4305.3877],[-65.905,-19.2877,4201.9507],[-65.8916,-19.2967,4073.6433],[-65.8897,-19.303,4024.4468],[-65.885,-19.3068,3992.9712],[-65.8792,-19.3167,3937.9124],[-65.8536,-19.3278,3789.79],[-65.8553,-19.3356,3727.5669],[-65.8538,-19.343,3497.0486],[-65.8515,-19.3496,3322.5999],[-65.8473,-19.3516,3305.8118],[-65.8446,-19.3568,3319.3584],[-65.8507,-19.3592,3258.9097],[-65.8528,-19.3659,3396.4275],[-65.8476,-19.3697,3393.4294],[-65.8451,-19.38,3419.3376],[-65.8459,-19.3829,3419.9688],[-65.8305,-19.3852,3640.4033],[-65.8236,-19.3781,3644.679],[-65.8081,-19.3741,3463.1572],[-65.8015,-19.3654,3448.7583],[-65.797,-19.3635,3318.7246],[-65.7917,-19.3643,3313.0078],[-65.7838,-19.3563,3260.8877],[-65.7775,-19.3544,3233.9292],[-65.78,-19.3507,3214.4551],[-65.7771,-19.3507,3243.3677],[-65.7775,-19.3441,3225.1873],[-65.772,-19.3397,3307.929],[-65.7702,-19.3352,3338.9138],[-65.7731,-19.3288,3202.9995],[-65.7694,-19.326,3244.5376],[-65.7723,-19.3227,3300.1416],[-65.7728,-19.3177,3225.467],[-65.7694,-19.3127,3558.7339],[-65.7643,-19.3099,3574.7632],[-65.7633,-19.3049,3595.5183],[-65.751,-19.3009,3666.2937],[-65.7463,-19.3056,3799.6272],[-65.7399,-19.3004,3949.9382],[-65.7321,-19.3017,3802.0796],[-65.7229,-19.2979,3987.8765],[-65.7161,-19.2965,3866.2539],[-65.7104,-19.2974,3774.5378],[-65.7059,-19.2944,3832.7751],[-65.6993,-19.2945,3682.2388],[-65.6924,-19.2915,3899.1284],[-65.698,-19.2793,3879.1548],[-65.693,-19.2558,3598.3889],[-65.6903,-19.2522,3789.658],[-65.6882,-19.2446,4059.0076],[-65.6918,-19.2415,4029.5242],[-65.6967,-19.24,3855.7542],[-65.6969,-19.2371,3923.5903],[-65.7048,-19.2303,3548.3833],[-65.7033,-19.2203,3501.7805],[-65.7043,-19.2131,3242.6633],[-65.6999,-19.1964,3027.95],[-65.7066,-19.1778,3135.3037],[-65.6978,-19.1715,3439.5784],[-65.6921,-19.1631,3635.3735],[-65.6827,-19.1672,3437.7754],[-65.6707,-19.1758,2968.5344],[-65.6698,-19.1691,3005.7522],[-65.6572,-19.1468,2933.0552],[-65.6622,-19.1436,3167.6758],[-65.6883,-19.1422,3880.2744],[-65.6927,-19.1349,3865.3914],[-65.6959,-19.1325,3839.7148],[-65.6982,-19.1258,3837.2178],[-65.7,-19.1254,3825.9409],[-65.7099,-19.1117,3907.7952],[-65.7168,-19.1049,4093.6714],[-65.7221,-19.1042,4248.4082],[-65.7258,-19.1005,4337.4678],[-65.7295,-19.094,4399.9185],[-65.7337,-19.0788,4477.1973],[-65.7415,-19.0768,4641.6147],[-65.7327,-19.0548,4347.0981],[-65.7397,-19.046,4230.3159],[-65.7481,-19.0425,4276.4873],[-65.758,-19.034,3951.8108],[-65.7642,-19.0348,3951.175],[-65.7689,-19.0307,3972.9211],[-65.7802,-19.0387,4013.832],[-65.785,-19.0366,4045.2861],[-65.7955,-19.0273,4095.9292],[-65.8054,-19.0269,4121.4912],[-65.8142,-19.0247,4200.167],[-65.823,-19.027,4442.0762],[-65.8254,-19.0232,4471.3701],[-65.8331,-19.0198,4433.832],[-65.8543,-19.0027,4470.3789],[-65.8638,-18.9797,4605.3887],[-65.8731,-18.9714,4440.8623],[-65.8864,-18.9689,4518.1289],[-65.92,-18.9733,4434.5938],[-65.934,-18.9728,4419.9985],[-65.9609,-18.9805,4094.0337],[-65.9673,-18.9898,4070.8398],[-65.9757,-18.9841,4068.7583],[-65.9963,-18.9904,3820.8081],[-66.0007,-18.9939,3794.3062],[-66.0123,-19.0091,3937.3594],[-66.0242,-19.014,4099.9678],[-66.0288,-19.0229,4229.7632],[-66.0364,-19.0275,4169.2051],[-66.0457,-19.0492,4114.499],[-66.0493,-19.0474,4120.6875],[-66.0573,-19.0515,3887.9192],[-66.0623,-19.0486,3947.5474],[-66.0689,-19.0517,3975.2297],[-66.0674,-19.0571,4008.4517],[-66.0771,-19.0737,4235.085],[-66.0793,-19.0856,4294.3149],[-66.0883,-19.0835,4364.4297],[-66.093,-19.0851,4475.5161],[-66.0908,-19.0923,4408.6416],[-66.0861,-19.0998,4179.8813],[-66.0872,-19.1034,4165.6958],[-66.0914,-19.1039,4182.6768],[-66.093,-19.1057,4207.5283],[-66.1028,-19.1208,4595.9414],[-66.099,-19.1291,4453.6294],[-66.103,-19.14,4163.5439],[-66.1127,-19.15,4123.188],[-66.1127,-19.157,4180.8809],[-66.1007,-19.1745,4113.6016],[-66.1041,-19.1812,4048.967],[-66.1141,-19.1902,4226.4951],[-66.1189,-19.1969,4234.6455],[-66.1242,-19.2083,4277.291],[-66.1256,-19.2156,4298.7275],[-66.1291,-19.2189,4249.8008],[-66.1295,-19.2226,4246.3506],[-66.1253,-19.2373,4234.415],[-66.13,-19.2431,4152.3511],[-66.1301,-19.2456,4130.127]]]]}}