{"type": "Feature","bbox": [-66.4981,-10.8555,-65.5351,-10.5036],"geometry": {"type": "MultiPolygon","coordinates": [[[[-65.5351,-10.5036,105.0],[-66.4981,-10.5036,168.5342],[-66.4636,-10.7313,152.7773],[-66.4462,-10.8257,129.0519],[-66.4418,-10.8351,132.7702],[-66.4396,-10.8344,126.1921],[-66.4368,-10.8276,124.5],[-66.4342,-10.8293,126.8241],[-66.433,-10.8341,127.3347],[-66.43,-10.8351,131.1985],[-66.424,-10.8312,128.722],[-66.4285,-10.826599999999999,128.8745],[-66.4278,-10.8226,126.0734],[-66.4221,-10.8227,125.5164],[-66.4159,-10.8163,138.4474],[-66.4101,-10.8158,130.5098],[-66.405,-10.8233,132.8987],[-66.3984,-10.821,132.0087],[-66.3964,-10.8219,138.813],[-66.3931,-10.8322,124.5946],[-66.3875,-10.8316,137.8271],[-66.3879,-10.8335,138.8751],[-66.3923,-10.8359,125.8389],[-66.3916,-10.8394,131.6846],[-66.3882,-10.8406,125.9514],[-66.3789,-10.8388,125.9985],[-66.3754,-10.8454,129.6504],[-66.3645,-10.835,130.8567],[-66.3636,-10.8281,132.1109],[-66.3619,-10.8278,124.6044],[-66.3586,-10.8307,121.7687],[-66.3559,-10.8267,122.9435],[-66.3547,-10.8289,124.2016],[-66.3605,-10.835,130.5878],[-66.3616,-10.8413,140.0484],[-66.3582,-10.8427,124.3092],[-66.3549,-10.8409,123.3869],[-66.3534,-10.8382,125.4749],[-66.3543,-10.8322,122.6914],[-66.3523,-10.8309,125.6125],[-66.3488,-10.8329,131.9084],[-66.3427,-10.8427,123.966],[-66.3305,-10.8388,124.9557],[-66.3327,-10.8446,127.2369],[-66.3313,-10.8462,127.1127],[-66.3267,-10.8448,122.289],[-66.3273,-10.8375,123.7037],[-66.3241,-10.8378,135.1893],[-66.3221,-10.8403,130.2979],[-66.3216,-10.8485,124.1665],[-66.3181,-10.8514,126.3969],[-66.3116,-10.85,120.0],[-66.3124,-10.8555,129.643],[-66.3038,-10.8494,122.9119],[-66.3067,-10.8462,124.2026],[-66.3067,-10.8436,125.9758],[-66.3019,-10.84,123.6993],[-66.2996,-10.8473,129.1127],[-66.2915,-10.8455,122.6016],[-66.291,-10.8418,133.9953],[-66.2941,-10.8386,124.7896],[-66.2926,-10.8372,125.3151],[-66.2899,-10.8379,127.6775],[-66.2869,-10.8443,127.4332],[-66.2936,-10.8495,130.2909],[-66.294,-10.8532,125.2261],[-66.2895,-10.8531,126.3876],[-66.2858,-10.8478,122.7388],[-66.2787,-10.8422,129.1011],[-66.2754,-10.8414,128.0692],[-66.274,-10.8437,130.6008],[-66.276,-10.851,120.5549],[-66.2728,-10.851,120.2124],[-66.2649,-10.8363,124.3871],[-66.2627,-10.8363,127.4354],[-66.2613,-10.8388,127.8698],[-66.2598,-10.8381,130.0214],[-66.2614,-10.8304,126.1022],[-66.2597,-10.8289,123.6437],[-66.2512,-10.8302,120.4366],[-66.2512,-10.8332,128.8709],[-66.256,-10.8341,127.0276],[-66.2579,-10.8373,123.2916],[-66.2562,-10.8395,132.2008],[-66.2472,-10.8426,120.1474],[-66.2426,-10.8388,119.477],[-66.2433,-10.837,119.31],[-66.2488,-10.8354,126.4583],[-66.2488,-10.8333,118.0],[-66.2426,-10.8329,125.0801],[-66.2381,-10.8367,126.2493],[-66.2306,-10.8284,121.0395],[-66.2265,-10.827,120.1599],[-66.2249,-10.8298,123.0794],[-66.2275,-10.8356,119.281],[-66.2235,-10.8382,125.9193],[-66.2174,-10.8345,121.3084],[-66.2182,-10.8322,120.6317],[-66.2223,-10.8305,122.0443],[-66.2227,-10.8282,120.8506],[-66.2212,-10.8265,128.4207],[-66.2133,-10.8305,126.3438],[-66.208,-10.8305,121.8449],[-66.2062,-10.8285,119.7983],[-66.209,-10.8223,123.4883],[-66.2064,-10.8211,121.7787],[-66.2031,-10.826599999999999,137.0309],[-66.1992,-10.8277,122.9409],[-66.1937,-10.8239,122.7681],[-66.1936,-10.8161,118.0],[-66.1907,-10.8163,127.2245],[-66.1828,-10.824,119.2765],[-66.1809,-10.8242,123.381],[-66.174,-10.8203,120.8145],[-66.1695,-10.8146,129.4849],[-66.1632,-10.818,127.5257],[-66.161,-10.817,119.7253],[-66.1567,-10.8108,122.8256],[-66.1586,-10.8048,126.9288],[-66.154,-10.802,121.608],[-66.1447,-10.8064,124.6824],[-66.145,-10.8085,131.0961],[-66.1505,-10.8108,126.9398],[-66.1493,-10.8141,120.6002],[-66.1473,-10.8147,124.7165],[-66.1406,-10.8087,122.6451],[-66.1346,-10.811,119.3204],[-66.1268,-10.8063,130.1313],[-66.1243,-10.8132,118.7705],[-66.1176,-10.8151,128.1013],[-66.1181,-10.8106,124.9895],[-66.1239,-10.8047,121.5821],[-66.1189,-10.8018,122.6969],[-66.1067,-10.8054,127.2617],[-66.1017,-10.8105,123.4323],[-66.1004,-10.8158,117.5534],[-66.0981,-10.8143,130.5721],[-66.0982,-10.8046,128.3653],[-66.0966,-10.8023,119.5635],[-66.0933,-10.8028,120.0719],[-66.0944,-10.8108,115.0],[-66.0917,-10.8152,125.1401],[-66.088,-10.8138,116.1122],[-66.0858,-10.808,116.9626],[-66.0864,-10.8036,117.4381],[-66.0833,-10.8024,117.2766],[-66.082,-10.8083,119.78],[-66.0897,-10.8179,138.0814],[-66.0898,-10.8237,134.1996],[-66.0882,-10.8258,119.8977],[-66.0823,-10.8238,116.0244],[-66.0735,-10.8267,126.2696],[-66.0698,-10.8232,119.7472],[-66.071,-10.8203,128.5472],[-66.0774,-10.8146,128.5033],[-66.0775,-10.8124,114.5211],[-66.0743,-10.8091,114.1196],[-66.0685,-10.8087,113.746],[-66.0658,-10.8101,117.6792],[-66.0654,-10.8133,119.3403],[-66.0678,-10.8188,111.0],[-66.0663,-10.8225,115.2073],[-66.0599,-10.8211,113.7021],[-66.0563,-10.815,116.7738],[-66.0488,-10.8159,113.0633],[-66.0466,-10.8212,117.2763],[-66.0448,-10.8219,120.7048],[-66.038,-10.818,125.0222],[-66.0367,-10.8099,116.4343],[-66.0337,-10.81,113.3508],[-66.0287,-10.8162,110.6695],[-66.0268,-10.8166,113.4746],[-66.0179,-10.8131,120.8666],[-66.0103,-10.8131,115.697],[-66.0006,-10.8104,108.0],[-65.9896,-10.8021,108.0],[-65.9758,-10.797,108.0],[-65.9688,-10.7977,108.0],[-65.9354,-10.8135,107.5],[-65.9149,-10.8274,107.5],[-65.9047,-10.8298,107.5],[-65.8811,-10.8305,121.4575],[-65.8597,-10.8355,111.2209],[-65.854,-10.8339,107.5],[-65.8507,-10.8297,107.5],[-65.8498,-10.823,107.5],[-65.8486,-10.7918,107.5],[-65.8518,-10.7844,107.0],[-65.8684,-10.7676,107.0],[-65.8812,-10.7574,107.0],[-65.903,-10.7456,107.0],[-65.9056,-10.7408,107.5431],[-65.9038,-10.7291,107.0],[-65.8878,-10.7015,107.0],[-65.88,-10.6934,107.0],[-65.8742,-10.6904,106.5],[-65.8688,-10.689,106.5],[-65.864,-10.6897,108.0547],[-65.8473,-10.7079,106.5],[-65.8405,-10.718,106.5],[-65.832,-10.7357,106.5],[-65.8271,-10.7418,106.5],[-65.8201,-10.7442,106.5],[-65.8126,-10.7433,106.5],[-65.7877,-10.7306,106.5],[-65.7531,-10.7169,106.0],[-65.7335,-10.7069,106.0],[-65.7196,-10.6951,106.0],[-65.7111,-10.6836,121.8875],[-65.7019,-10.6514,106.0],[-65.7041,-10.6446,106.0],[-65.7246,-10.6119,105.5],[-65.7342,-10.5917,105.5],[-65.7343,-10.5777,105.5],[-65.732,-10.5717,105.5],[-65.7279,-10.5669,105.5],[-65.7232,-10.565,105.5],[-65.7099,-10.5657,105.5],[-65.6836,-10.5642,105.5],[-65.6473,-10.5661,105.5],[-65.6333,-10.5636,105.0],[-65.6245,-10.5577,105.0],[-65.6235,-10.5457,105.0],[-65.6181,-10.5399,105.0],[-65.5872,-10.5368,105.0],[-65.5798,-10.5292,105.0],[-65.5736,-10.5192,105.0],[-65.5554,-10.5078,105.0],[-65.5351,-10.5036,105.0]]]]}
,"properties": {"GID_3": "BOL.6.2.3_2","GID_0": "BOL","country": "Bolivia","GID_1": "BOL.6_1","province": "Pando","NL_NAME_1": "NA","GID_2": "BOL.6.2_2","county": "FedericoRomán","NL_NAME_2": "NA","city": "VillaNueva","VARNAME_3": "NA","NL_NAME_3": "NA","TYPE_3": "District","ENGTYPE_3": "Distrito","CC_3": "NA","HASC_3": "NA","name": "Villa_Nueva.city","area_km2": 2831.317,"hist_schema_id": "Elevation0-9000","hist_area_km2": {"100": 43.399,"125": 425.515,"150": 1592.907,"175": 626.539,"200": 142.957}}}