{"type": "Feature","bbox": [-65.6955,-19.3604,-65.0034,-18.3473],"geometry": {"type": "MultiPolygon","coordinates": [[[[-65.1967,-19.153,2947.8047],[-65.1958,-19.1517,2981.1758],[-65.1838,-19.1546,3148.134],[-65.1797,-19.1525,2977.2949],[-65.1832,-19.1387,2875.8525],[-65.1882,-19.1309,2761.7925],[-65.1836,-19.1243,2781.9287],[-65.1836,-19.1214,2764.324],[-65.1758,-19.1156,2697.104],[-65.1726,-19.1151,2629.1321],[-65.1676,-19.1084,2646.5574],[-65.1694,-19.0984,2671.5613],[-65.1712,-19.0965,2538.4131],[-65.1722,-19.0885,2519.209],[-65.1711,-19.0868,2504.5068],[-65.1673,-19.0875,2595.332],[-65.1673,-19.09,2549.554],[-65.1613,-19.0879,2638.741],[-65.1574,-19.0888,2614.0422],[-65.1589,-19.1047,2703.1523],[-65.157,-19.1073,2738.811],[-65.1507,-19.1039,3022.624],[-65.148,-19.0999,3032.8088],[-65.1494,-19.0931,2928.8728],[-65.1381,-19.0905,2992.1335],[-65.1325,-19.0847,2916.0254],[-65.1291,-19.0833,2862.23],[-65.1264,-19.092,2914.7549],[-65.1226,-19.0974,2951.5776],[-65.1126,-19.1203,2958.9504],[-65.1029,-19.1331,3116.6628],[-65.1017,-19.1305,3060.1528],[-65.0963,-19.1305,2996.9827],[-65.0899,-19.1258,2935.0796],[-65.0909,-19.1212,2875.458],[-65.0855,-19.1126,2704.9495],[-65.0913,-19.0994,2655.7827],[-65.0995,-19.0902,2576.9744],[-65.1009,-19.0838,2549.2429],[-65.099,-19.0787,2544.6768],[-65.093,-19.0776,2489.8406],[-65.0914,-19.0688,2453.7107],[-65.0891,-19.0687,2525.7366],[-65.088,-19.0719,2486.8],[-65.0859,-19.0724,2530.5532],[-65.0747,-19.0667,2866.5366],[-65.0764,-19.0557,2952.4492],[-65.0753,-19.0497,2858.7292],[-65.069,-19.0468,2715.3054],[-65.0705,-19.0285,2352.6885],[-65.0708,-19.0268,2348.6885],[-65.0787,-19.0233,2314.1914],[-65.0787,-19.0143,2543.7085],[-65.0846,-19.0046,2423.6272],[-65.0862,-18.9972,2346.3569],[-65.0844,-18.9963,2352.7126],[-65.0845,-18.9929,2290.5178],[-65.0812,-18.9938,2390.4248],[-65.0711,-18.9911,2569.0698],[-65.0655,-18.9837,2838.7065],[-65.0714,-18.9759,2712.4736],[-65.0727,-18.9641,2668.0686],[-65.0768,-18.9585,2756.5149],[-65.082,-18.9555,2818.6401],[-65.0915,-18.933,2559.498],[-65.0969,-18.9286,2457.0952],[-65.0982,-18.9243,2493.5273],[-65.1037,-18.9184,2336.395],[-65.1013,-18.9143,2059.5696],[-65.0981,-18.9129,1973.4849],[-65.089,-18.9149,1995.5653],[-65.0758,-18.9283,2049.1111],[-65.0711,-18.9382,2084.5972],[-65.0666,-18.9382,2166.8528],[-65.0553,-18.9346,2509.3025],[-65.0531,-18.9359,2629.6794],[-65.0493,-18.9313,2684.8521],[-65.0481,-18.9198,2754.6621],[-65.0564,-18.9066,2817.5588],[-65.062,-18.9023,2788.0828],[-65.0676,-18.9016,2687.5825],[-65.074,-18.8934,2598.6001],[-65.0702,-18.8893,2491.0168],[-65.0721,-18.8849,2438.0837],[-65.071,-18.8793,2314.7461],[-65.0621,-18.8713,2185.4238],[-65.0582,-18.8584,2209.7871],[-65.0452,-18.8562,2344.5867],[-65.0459,-18.8468,2491.3892],[-65.0445,-18.8417,2564.3389],[-65.0419,-18.8413,2640.7161],[-65.0345,-18.8348,2954.5095],[-65.0258,-18.8384,3000.8943],[-65.0157,-18.8327,2361.8894],[-65.0111,-18.8322,2281.8132],[-65.0099,-18.8302,2178.4746],[-65.0065,-18.8302,2173.4917],[-65.0034,-18.8269,2076.1423],[-65.0077,-18.8046,2006.051],[-65.0169,-18.7932,1978.2242],[-65.0216,-18.7904,1980.8108],[-65.0233,-18.7836,1936.8992],[-65.0285,-18.7782,1934.795],[-65.0294,-18.7717,1885.8671],[-65.0347,-18.7653,1875.0322],[-65.0395,-18.7652,1938.1814],[-65.0362,-18.7623,1853.2734],[-65.0357,-18.7546,1864.8629],[-65.04,-18.7488,1831.2393],[-65.0384,-18.7421,1749.6663],[-65.0468,-18.7388,1786.4948],[-65.0467,-18.737,1832.926],[-65.0421,-18.7332,1722.7693],[-65.043,-18.7287,1690.4231],[-65.0485,-18.7197,1652.8182],[-65.0613,-18.7164,1645.9563],[-65.0639,-18.714,1602.2649],[-65.0634,-18.7118,1601.5515],[-65.0649,-18.7104,1598.3898],[-65.0634,-18.707,1576.1096],[-65.0555,-18.6981,1524.5143],[-65.0537,-18.6938,1540.6074],[-65.0569,-18.676,1441.5764],[-65.0768,-18.659,1456.5701],[-65.0849,-18.6616,1484.7412],[-65.0889,-18.6578,1555.0237],[-65.0965,-18.6568,1460.7996],[-65.1004,-18.6489,1498.7173],[-65.102,-18.6402,1480.6831],[-65.1091,-18.6374,1473.4338],[-65.1144,-18.6329,1500.4298],[-65.1223,-18.6333,1477.7424],[-65.1266,-18.6263,1492.1932],[-65.1317,-18.6251,1475.7478],[-65.145,-18.6167,1479.6438],[-65.1468,-18.6142,1483.0654],[-65.1466,-18.6064,1487.66],[-65.1547,-18.6135,1494.4226],[-65.1643,-18.6102,1498.7568],[-65.1691,-18.6124,1494.4851],[-65.1758,-18.6185,1496.5586],[-65.1842,-18.6175,1520.8223],[-65.2027,-18.624,1506.8757],[-65.2056,-18.623,1512.1523],[-65.2069,-18.6183,1510.6492],[-65.2106,-18.6135,1513.5815],[-65.2153,-18.611,1516.3376],[-65.2339,-18.6131,1565.1697],[-65.2436,-18.6107,1531.4462],[-65.248,-18.6012,1612.3822],[-65.2448,-18.5963,1542.6458],[-65.2455,-18.5799,1535.4094],[-65.2387,-18.563,1542.4714],[-65.2378,-18.5557,1546.002],[-65.2392,-18.5469,1549.7515],[-65.245,-18.5336,1556.0166],[-65.2433,-18.5262,1559.6646],[-65.2467,-18.5198,1561.2002],[-65.2458,-18.506,1570.0667],[-65.2533,-18.5037,1571.7141],[-65.2622,-18.5071,1587.876],[-65.2784,-18.509,1581.2832],[-65.2832,-18.5029,1585.7184],[-65.2883,-18.5011,1585.8333],[-65.2875,-18.4961,1591.8284],[-65.292,-18.4919,1593.0647],[-65.2932,-18.4859,1592.2957],[-65.2893,-18.474,1597.207],[-65.2907,-18.4668,1608.3805],[-65.3034,-18.4487,1612.4565],[-65.3098,-18.443,1620.3042],[-65.3125,-18.4426,1626.1277],[-65.3183,-18.4473,1680.2987],[-65.3199,-18.4532,1628.2665],[-65.3255,-18.4586,1648.4377],[-65.3308,-18.4585,1637.6154],[-65.3345,-18.4538,1650.5824],[-65.3358,-18.4482,1657.663],[-65.3333,-18.4389,1641.42],[-65.3344,-18.4349,1736.6711],[-65.3304,-18.4261,1657.9629],[-65.3331,-18.4232,1660.2329],[-65.3457,-18.4179,1647.2909],[-65.3493,-18.421,1673.272],[-65.3511,-18.4329,1670.8207],[-65.3548,-18.4339,1666.5388],[-65.3572,-18.4366,1726.9258],[-65.3661,-18.4356,1718.9506],[-65.3722,-18.4303,1671.2372],[-65.3804,-18.4279,1668.3032],[-65.3859,-18.423,1711.8181],[-65.3996,-18.4256,1677.8394],[-65.4039,-18.4201,1699.3375],[-65.4106,-18.4199,1719.618],[-65.4203,-18.4151,1703.6501],[-65.4245,-18.4103,1729.9344],[-65.4328,-18.4096,1813.7432],[-65.4412,-18.4038,1761.8611],[-65.4481,-18.4053,1757.4253],[-65.4547,-18.4104,1707.6897],[-65.4602,-18.4058,1722.7964],[-65.4623,-18.4004,1716.2626],[-65.4647,-18.3987,1715.8174],[-65.4784,-18.4007,1725.6926],[-65.4893,-18.4,1756.2048],[-65.4976,-18.3919,1740.0111],[-65.5042,-18.3892,1749.5229],[-65.5064,-18.3868,1763.5132],[-65.5128,-18.3875,1770.8781],[-65.5188,-18.3929,1834.2195],[-65.5238,-18.3948,1866.5345],[-65.5293,-18.3916,1814.7253],[-65.5348,-18.3921,1820.9993],[-65.5368,-18.3993,1785.2249],[-65.5419,-18.4009,1781.771],[-65.5465,-18.4046,1803.4011],[-65.549,-18.4008,1784.5863],[-65.5559,-18.4005,1770.1282],[-65.5648,-18.3916,1772.0913],[-65.5782,-18.3851,1781.3303],[-65.5831,-18.3787,1786.6925],[-65.5908,-18.3748,1792.6907],[-65.6256,-18.3753,1817.8438],[-65.6343,-18.3739,1823.8198],[-65.6384,-18.3697,1828.2726],[-65.6457,-18.3671,1832.8097],[-65.6582,-18.366,1841.1074],[-65.6663,-18.3609,1848.9136],[-65.674,-18.3474,1861.8728],[-65.6793,-18.3473,1865.9178],[-65.6939,-18.3519,1876.2859],[-65.6926,-18.3599,1884.9517],[-65.6951,-18.3627,1936.2864],[-65.6955,-18.3663,1886.8212],[-65.6868,-18.3777,1895.6455],[-65.6835,-18.3872,1909.1609],[-65.6845,-18.4025,1915.7542],[-65.6818,-18.4114,1937.9431],[-65.6842,-18.4171,1932.6417],[-65.6791,-18.4236,1935.824],[-65.6773,-18.4293,1960.3517],[-65.6724,-18.4337,1938.0894],[-65.6662,-18.4368,1942.9995],[-65.6555,-18.4462,1952.5919],[-65.6447,-18.4454,1960.6649],[-65.6241,-18.462,1982.4152],[-65.6221,-18.475,1994.6237],[-65.6191,-18.4831,2001.6284],[-65.6238,-18.5011,2019.4591],[-65.6187,-18.5003,2173.3857],[-65.6115,-18.4966,2559.3684],[-65.5839,-18.4983,3059.1689],[-65.5757,-18.5018,3013.1187],[-65.5639,-18.5118,3169.2798],[-65.5558,-18.514,3194.489],[-65.5343,-18.5258,3112.9849],[-65.5299,-18.5274,3125.0896],[-65.5261,-18.5265,3173.7129],[-65.516,-18.5393,3078.3982],[-65.5143,-18.5475,3106.551],[-65.504,-18.5438,2754.7],[-65.496,-18.5358,2370.0945],[-65.493,-18.5385,2403.7422],[-65.4968,-18.5452,2471.9985],[-65.4965,-18.5495,2508.2432],[-65.5013,-18.5597,2900.9785],[-65.5013,-18.564,3121.1328],[-65.4945,-18.5692,3111.5698],[-65.4951,-18.5758,3168.6445],[-65.4912,-18.5792,3240.9565],[-65.491,-18.5817,3260.5693],[-65.4889,-18.5824,3240.8745],[-65.486,-18.5908,3323.2373],[-65.4811,-18.5928,3214.1667],[-65.4756,-18.5927,3188.4233],[-65.4751,-18.5967,3291.8386],[-65.4668,-18.5977,3254.9751],[-65.4621,-18.606,3393.4568],[-65.4476,-18.6064,3367.1211],[-65.4376,-18.6137,3413.2075],[-65.4367,-18.616,3402.0913],[-65.434,-18.6131,3400.3181],[-65.4357,-18.6099,3326.2544],[-65.4339,-18.6063,3239.8442],[-65.4277,-18.6034,3419.6694],[-65.4216,-18.605,3463.8945],[-65.4163,-18.6106,3467.9214],[-65.4124,-18.613,3366.6899],[-65.4073,-18.6136,3358.0581],[-65.4021,-18.6176,3292.4922],[-65.3921,-18.6282,3172.6379],[-65.3902,-18.6355,3111.2722],[-65.3844,-18.6375,3039.687],[-65.3813,-18.6408,3079.9919],[-65.3839,-18.6419,2968.9944],[-65.3894,-18.6532,3312.062],[-65.3933,-18.6562,3420.4197],[-65.4001,-18.6539,3541.2729],[-65.4028,-18.654,3508.468],[-65.4039,-18.6559,3501.9175],[-65.4074,-18.6526,3417.9937],[-65.411,-18.6518,3430.4346],[-65.4143,-18.6598,3078.6536],[-65.4191,-18.6632,2961.2759],[-65.417,-18.6661,2944.2705],[-65.4181,-18.6701,2819.0242],[-65.4163,-18.6747,2708.3074],[-65.4168,-18.6783,2772.3044],[-65.4145,-18.6812,2823.3855],[-65.4145,-18.6897,2967.7866],[-65.4085,-18.6975,3133.179],[-65.4006,-18.702,3214.4971],[-65.4064,-18.7103,2877.2373],[-65.4114,-18.713,2797.2178],[-65.4105,-18.7175,2854.2256],[-65.4138,-18.7186,2848.2913],[-65.4145,-18.7233,2916.0176],[-65.4188,-18.7291,3110.4304],[-65.4174,-18.7338,3150.2002],[-65.4242,-18.738,3015.6565],[-65.4255,-18.7445,3001.7109],[-65.4292,-18.748,3143.7495],[-65.4269,-18.7511,3158.04],[-65.4272,-18.7542,3062.1865],[-65.4226,-18.7569,3011.9446],[-65.4239,-18.7596,3025.9961],[-65.4226,-18.7611,3051.4189],[-65.4074,-18.773,3103.4624],[-65.4033,-18.7707,3133.4426],[-65.3956,-18.7777,2984.7825],[-65.3898,-18.775,2962.8269],[-65.3868,-18.7759,2958.3579],[-65.3829,-18.7718,2884.7769],[-65.3772,-18.7727,2852.3486],[-65.3749,-18.7748,2807.5999],[-65.3702,-18.7733,2798.4775],[-65.3675,-18.7749,2774.7642],[-65.3647,-18.7744,2782.3762],[-65.3594,-18.7803,2808.9114],[-65.3601,-18.7827,2829.365],[-65.3564,-18.7864,2936.6785],[-65.3597,-18.7892,2768.9541],[-65.363,-18.7886,2677.292],[-65.3663,-18.7903,2524.6719],[-65.3666,-18.7867,2544.5588],[-65.3687,-18.785,2529.7356],[-65.3673,-18.7813,2570.3308],[-65.3714,-18.7788,2625.0669],[-65.3749,-18.7839,2610.8281],[-65.3793,-18.7851,2611.8328],[-65.3808,-18.7826,2628.9883],[-65.3835,-18.7849,2609.021],[-65.3825,-18.7864,2625.1023],[-65.3866,-18.7876,2629.8718],[-65.3857,-18.7929,2807.613],[-65.3871,-18.7962,2993.0728],[-65.3911,-18.7949,2924.9033],[-65.4023,-18.7779,3063.2861],[-65.4059,-18.7749,3106.4707],[-65.412,-18.7769,2867.8667],[-65.4135,-18.7789,2736.1326],[-65.4176,-18.7789,2742.5383],[-65.4198,-18.7875,2845.2021],[-65.4278,-18.7957,3140.3052],[-65.4268,-18.7996,3108.9248],[-65.4314,-18.8041,3092.3359],[-65.4306,-18.8073,3148.4072],[-65.4318,-18.8094,3160.5637],[-65.4382,-18.8113,3214.0271],[-65.4384,-18.8143,3209.7202],[-65.4343,-18.8216,3179.2688],[-65.4355,-18.8249,3127.6479],[-65.4437,-18.8314,3203.1475],[-65.443,-18.8353,3217.1509],[-65.4378,-18.8344,3110.342],[-65.4287,-18.8372,3118.335],[-65.4239,-18.8527,3169.7239],[-65.421,-18.8522,3138.5305],[-65.4197,-18.8589,2908.616],[-65.4165,-18.865,2810.1558],[-65.4206,-18.8767,3054.8047],[-65.4242,-18.8789,3167.978],[-65.4191,-18.8802,3110.6895],[-65.4146,-18.8862,3114.6113],[-65.4122,-18.8854,3111.5479],[-65.4117,-18.8888,3062.3101],[-65.4092,-18.8895,3062.9846],[-65.4096,-18.8935,3071.2634],[-65.4071,-18.8993,3065.0845],[-65.4049,-18.8994,3075.3],[-65.4017,-18.9038,3071.3687],[-65.3976,-18.9189,3270.7275],[-65.4047,-18.9257,3345.3523],[-65.403,-18.9281,3365.7393],[-65.4059,-18.939,3231.3921],[-65.4092,-18.9438,3394.4922],[-65.4138,-18.9454,3569.4976],[-65.4217,-18.9305,3470.8628],[-65.4245,-18.9303,3348.0122],[-65.4255,-18.9274,3270.0122],[-65.4287,-18.9293,3424.4543],[-65.4366,-18.92,3466.2371],[-65.441,-18.9185,3450.394],[-65.4495,-18.921,3485.8193],[-65.4535,-18.925,3423.4414],[-65.4531,-18.9275,3391.186],[-65.4603,-18.9304,3100.7603],[-65.463,-18.9295,3093.9163],[-65.4655,-18.9246,3137.9648],[-65.4681,-18.9233,3167.6887],[-65.4809,-18.9259,3613.3809],[-65.4849,-18.9277,3642.8804],[-65.4861,-18.9317,3690.9888],[-65.4889,-18.9311,3740.6489],[-65.4962,-18.9378,3810.1384],[-65.4994,-18.9378,3890.9668],[-65.5055,-18.9412,3966.4863],[-65.5015,-18.9424,3986.0576],[-65.5025,-18.9436,4024.6587],[-65.5082,-18.9453,3969.0781],[-65.5097,-18.9483,3919.3403],[-65.5192,-18.9513,3855.4001],[-65.5218,-18.9538,3781.0491],[-65.5245,-18.9579,3765.6387],[-65.5271,-18.9678,3428.0303],[-65.5324,-18.9765,3327.6309],[-65.5459,-18.982,3042.4617],[-65.5495,-18.9863,3137.1555],[-65.5524,-18.9863,3120.5837],[-65.5535,-18.9887,3146.6873],[-65.5596,-18.9871,3119.1101],[-65.57,-18.9924,3265.6494],[-65.5779,-18.994,3538.8799],[-65.5837,-18.9983,3962.1929],[-65.5873,-18.9977,3985.3894],[-65.5846,-19.0011,4034.5842],[-65.5836,-19.0056,3990.9253],[-65.5675,-19.0241,3799.3499],[-65.567,-19.0324,3399.5759],[-65.5609,-19.0427,3851.3345],[-65.558,-19.0513,4024.5735],[-65.5581,-19.0638,4078.8013],[-65.553,-19.0658,4014.5356],[-65.5472,-19.0746,3907.1382],[-65.546,-19.0818,3866.4858],[-65.5416,-19.0833,3756.73],[-65.5409,-19.0854,3723.7739],[-65.5371,-19.087,3589.2112],[-65.528,-19.0862,3313.5127],[-65.5219,-19.0919,3301.4326],[-65.522,-19.0939,3089.2],[-65.5177,-19.0964,2734.8066],[-65.5127,-19.0919,2722.7134],[-65.5057,-19.0912,2834.657],[-65.5047,-19.0874,2675.29],[-65.4967,-19.0892,2644.7886],[-65.487,-19.0964,2632.157],[-65.4845,-19.1042,2650.1956],[-65.4783,-19.11,2610.3435],[-65.4742,-19.1179,2650.8196],[-65.4699,-19.1226,2606.5259],[-65.4566,-19.1241,2578.4338],[-65.45,-19.1321,2589.77],[-65.4392,-19.1368,2575.0327],[-65.4314,-19.1374,2608.6145],[-65.4298,-19.1389,2571.6387],[-65.4249,-19.1376,2573.5396],[-65.4183,-19.1418,2540.4023],[-65.4106,-19.1406,2530.8875],[-65.4062,-19.1438,2592.9272],[-65.4009,-19.161,2503.3757],[-65.3896,-19.1767,2491.7451],[-65.3902,-19.1831,2518.5002],[-65.3886,-19.1914,2561.3887],[-65.3933,-19.2037,2580.145],[-65.3848,-19.2174,2449.4465],[-65.3831,-19.2261,2438.6387],[-65.3796,-19.2323,2461.229],[-65.3721,-19.2406,2435.2756],[-65.3728,-19.2469,2426.1362],[-65.3698,-19.2556,2397.4089],[-65.3611,-19.2628,2404.2793],[-65.3524,-19.2653,2374.2778],[-65.3477,-19.265,2371.8745],[-65.3453,-19.2671,2369.8853],[-65.3412,-19.2676,2368.7781],[-65.3386,-19.2711,2364.7354],[-65.3304,-19.2714,2355.2339],[-65.324,-19.2815,2343.522],[-65.3156,-19.3023,2323.2822],[-65.3092,-19.3066,2315.7986],[-65.301,-19.306,2311.6138],[-65.2946,-19.3085,2306.4736],[-65.2869,-19.3081,2304.0715],[-65.2647,-19.3151,2298.9866],[-65.2605,-19.3159,2281.1021],[-65.2539,-19.3144,2275.6885],[-65.2468,-19.3183,2271.6421],[-65.2417,-19.3184,2267.8213],[-65.2374,-19.3207,2264.4541],[-65.2307,-19.3205,2261.645],[-65.222,-19.3293,2253.9768],[-65.2211,-19.3376,2260.272],[-65.2151,-19.3439,2245.127],[-65.2084,-19.3457,2238.5754],[-65.2009,-19.3496,2233.9844],[-65.199,-19.3521,2232.7314],[-65.1869,-19.3566,2224.2922],[-65.176,-19.3553,2217.2915],[-65.1698,-19.3604,2227.7368],[-65.167,-19.3588,2230.2876],[-65.1663,-19.3523,2243.3916],[-65.1624,-19.3481,2260.3176],[-65.1624,-19.3433,2263.5046],[-65.1586,-19.3324,2319.8875],[-65.1595,-19.3267,2325.7695],[-65.1567,-19.3166,2365.5864],[-65.158,-19.3128,2361.8171],[-65.1565,-19.3063,2396.4719],[-65.1567,-19.2933,2438.2837],[-65.159,-19.2859,2493.0334],[-65.1558,-19.279,2551.7129],[-65.151,-19.2755,2834.0972],[-65.1483,-19.2692,3065.6929],[-65.1507,-19.2614,3107.1584],[-65.1636,-19.246,3324.0117],[-65.1692,-19.2418,3374.7791],[-65.1798,-19.2255,3329.7407],[-65.197,-19.1917,3034.5122],[-65.2065,-19.1613,2923.0115],[-65.2053,-19.1586,2877.8064],[-65.1967,-19.153,2947.8047]]]]}
,"properties": {"GID_2": "BOL.1.6_2","GID_0": "BOL","country": "Bolivia","GID_1": "BOL.1_1","province": "Chuquisaca","NL_NAME_1": "NA","county": "Oropeza","VARNAME_2": "NA","NL_NAME_2": "NA","TYPE_2": "Provincia","ENGTYPE_2": "Province","CC_2": "NA","HASC_2": "NA","name": "Oropeza.county","area_km2": 3559.726,"hist_schema_id": "Elevation0-9000","hist_area_km2": {"1425": 0.04,"1450": 0.663,"1475": 1.386,"1500": 2.491,"1525": 4.139,"1550": 5.827,"1575": 6.088,"1600": 7.736,"1625": 9.141,"1650": 11.05,"1675": 11.873,"1700": 12.515,"1725": 14.284,"1750": 14.885,"1775": 15.489,"1800": 17.842,"1825": 18.283,"1850": 19.148,"1875": 21.355,"1900": 22.058,"1925": 24.307,"1950": 25.533,"1975": 29.508,"2000": 30.814,"2025": 34.027,"2050": 33.804,"2075": 37.259,"2100": 39.867,"2125": 40.451,"2150": 44.306,"2175": 44.063,"2200": 47.398,"2225": 49.745,"2250": 50.724,"2275": 53.573,"2300": 53.17,"2325": 54.432,"2350": 54.991,"2375": 56.175,"2400": 60.647,"2425": 60.744,"2450": 59.918,"2475": 63.605,"2500": 64.726,"2525": 68.974,"2550": 70.872,"2575": 74.111,"2600": 74.251,"2625": 78.298,"2650": 80.759,"2675": 84.826,"2700": 86.947,"2725": 86.511,"2750": 88.796,"2775": 93.343,"2800": 93.942,"2825": 95.586,"2850": 98.451,"2875": 95.413,"2900": 93.609,"2925": 85.927,"2950": 76.264,"2975": 62.93,"3000": 57.896,"3025": 58.193,"3050": 55.147,"3075": 50.533,"3100": 44.238,"3125": 40.369,"3150": 35.072,"3175": 31.341,"3200": 29.337,"3225": 27.068,"3250": 23.999,"3275": 21.272,"3300": 18.784,"3325": 16.578,"3350": 14.132,"3375": 11.125,"3400": 8.82,"3425": 8.54,"3450": 6.956,"3475": 5.893,"3500": 6.876,"3525": 6.054,"3550": 5.753,"3575": 5.293,"3600": 4.37,"3625": 4.351,"3650": 3.529,"3675": 2.927,"3700": 2.807,"3725": 2.506,"3750": 2.266,"3775": 2.105,"3800": 2.065,"3825": 2.165,"3850": 1.604,"3875": 2.025,"3900": 2.165,"3925": 2.105,"3950": 1.865,"3975": 1.905,"4000": 1.945,"4025": 1.564,"4050": 1.764,"4075": 1.223,"4100": 1.163,"4125": 1.123,"4150": 0.822,"4175": 0.201}}}