{"type":"Feature","properties":{"GID_2":"BOL.1.5_2","GID_0":"BOL","country":"Bolivia","GID_1":"BOL.1_1","province":"Chuquisaca","NL_NAME_1":"NA","county":"NorCinti","VARNAME_2":"NA","NL_NAME_2":"NA","TYPE_2":"Provincia","ENGTYPE_2":"Province","CC_2":"NA","HASC_2":"NA","name":"Nor_Cinti.county"},
"geometry":{"type": "MultiPolygon","coordinates": [[[[-64.5458,-20.4358,1189.9614],[-64.5465,-20.4304,1144.3361],[-64.5503,-20.4279,1131.0312],[-64.5514,-20.4212,1157.6991],[-64.5579,-20.412,1142.5472],[-64.5619,-20.4018,1149.6648],[-64.5562,-20.3963,1167.2261],[-64.5601,-20.387,1159.7358],[-64.5534,-20.3749,1202.0881],[-64.5545,-20.3729,1170.5026],[-64.5608,-20.3699,1173.5198],[-64.5679,-20.3698,1175.9681],[-64.5717,-20.3644,1202.6581],[-64.5697,-20.3604,1235.178],[-64.5711,-20.3556,1192.2566],[-64.5702,-20.3495,1214.8523],[-64.5755,-20.347,1196.0476],[-64.5725,-20.3427,1251.4164],[-64.5731,-20.3385,1315.4047],[-64.5698,-20.3322,1253.8846],[-64.5727,-20.3305,1296.5865],[-64.5744,-20.3256,1207.4678],[-64.5717,-20.3175,1262.7289],[-64.5725,-20.3113,1308.9769],[-64.5749,-20.3076,1220.5032],[-64.5743,-20.3035,1223.8877],[-64.5779,-20.2869,1235.8813],[-64.5747,-20.2801,1286.4412],[-64.5743,-20.2721,1266.3925],[-64.5799,-20.2719,1248.8645],[-64.587,-20.2665,1257.1918],[-64.5887,-20.2592,1260.4442],[-64.5851,-20.2507,1321.1429],[-64.5905,-20.2441,1284.2026],[-64.5911,-20.2376,1284.9933],[-64.5946,-20.2311,1282.2476],[-64.5931,-20.2274,1384.5712],[-64.589,-20.2274,1288.4451],[-64.5838,-20.2216,1314.1656],[-64.5831,-20.2167,1297.0742],[-64.5854,-20.2126,1391.9275],[-64.5812,-20.2101,1315.7897],[-64.5797,-20.2073,1306.6426],[-64.5797,-20.2033,1316.0034],[-64.5858,-20.1938,1321.7375],[-64.5839,-20.1859,1324.3949],[-64.5862,-20.1781,1330.5354],[-64.5847,-20.1708,1337.2084],[-64.588,-20.1658,1342.3849],[-64.5856,-20.1564,1349.194],[-64.5892,-20.1486,1355.5558],[-64.5821,-20.1443,1361.6012],[-64.5818,-20.1419,1362.5906],[-64.5846,-20.1381,1366.2236],[-64.5818,-20.1334,1369.7217],[-64.5845,-20.1286,1374.2094],[-64.583,-20.1249,1381.7241],[-64.5852,-20.1214,1383.6945],[-64.5848,-20.1185,1383.2505],[-64.5891,-20.1136,1388.0081],[-64.5912,-20.1083,1394.564],[-64.5916,-20.0998,1401.7645],[-64.5948,-20.0945,1407.088],[-64.5913,-20.0858,1420.8707],[-64.595,-20.0777,1507.9487],[-64.5997,-20.0739,1424.2491],[-64.6016,-20.0607,1490.7599],[-64.6048,-20.0557,1453.5588],[-64.6054,-20.0456,1451.5073],[-64.6034,-20.0418,1467.4023],[-64.6055,-20.0366,1457.2542],[-64.6043,-20.0279,1467.8153],[-64.6077,-20.024,1471.8992],[-64.6094,-20.0165,1515.8383],[-64.6186,-20.01,1514.4276],[-64.6307,-19.9953,1514.9341],[-64.6312,-19.9931,1502.0979],[-64.6282,-19.9872,1551.6423],[-64.6329,-19.9815,1525.2654],[-64.6326,-19.9755,1528.6963],[-64.6309,-19.9738,1618.4716],[-64.6358,-19.9705,1617.1013],[-64.637,-19.9667,1569.505],[-64.6395,-19.9648,1573.4613],[-64.64,-19.9612,1608.5748],[-64.6535,-19.9523,1578.0236],[-64.6534,-19.9436,1570.1586],[-64.6573,-19.9415,1569.3474],[-64.6591,-19.9356,1685.755],[-64.6664,-19.9271,1671.2844],[-64.6717,-19.926,1647.0903],[-64.6731,-19.924,1635.6801],[-64.6739,-19.9209,1699.8767],[-64.671,-19.9162,1615.7612],[-64.6751,-19.9079,1742.3218],[-64.6795,-19.9059,1684.0901],[-64.6803,-19.9025,1620.9011],[-64.6883,-19.8975,1649.2065],[-64.6877,-19.8934,1657.9863],[-64.6917,-19.8915,1638.4918],[-64.6902,-19.8863,1677.812],[-64.698,-19.8814,1651.793],[-64.6986,-19.8777,1643.2549],[-64.7031,-19.8742,1647.4529],[-64.7034,-19.8697,1653.3966],[-64.6981,-19.8557,1666.3116],[-64.7016,-19.8514,1680.9567],[-64.7001,-19.8464,1696.5769],[-64.7024,-19.8418,1678.5858],[-64.7035,-19.8317,1691.4553],[-64.7012,-19.8244,1746.0718],[-64.6943,-19.8149,1720.6605],[-64.7053,-19.8072,1737.348],[-64.7063,-19.8027,1788.7585],[-64.7114,-19.7975,1728.9292],[-64.7138,-19.7839,1790.1606],[-64.713,-19.7811,1765.1559],[-64.7144,-19.7796,1765.1559],[-64.7182,-19.7812,1823.3733],[-64.7243,-19.7879,1795.9656],[-64.7349,-19.7878,1876.0679],[-64.7393,-19.7898,1878.7915],[-64.7484,-19.8042,2009.8481],[-64.7607,-19.819,2077.8853],[-64.7617,-19.8247,2140.792],[-64.7665,-19.8269,2147.6675],[-64.7765,-19.841,2231.5994],[-64.78,-19.8492,2277.7021],[-64.7842,-19.8542,2315.4973],[-64.784,-19.8607,2346.4116],[-64.7891,-19.8693,2407.5056],[-64.7876,-19.8766,2428.3508],[-64.7927,-19.8885,2494.3577],[-64.7932,-19.8988,2556.3047],[-64.795,-19.9028,2567.4629],[-64.8056,-19.9123,2678.4563],[-64.8067,-19.9196,2732.8809],[-64.8105,-19.9228,2738.9587],[-64.8107,-19.9252,2760.4497],[-64.8198,-19.9313,2925.4607],[-64.8236,-19.9308,3016.427],[-64.8292,-19.9331,3074.3853],[-64.8373,-19.9474,3337.5239],[-64.8383,-19.9556,3466.7051],[-64.8466,-19.9713,3591.9067],[-64.8472,-19.979,3636.0933],[-64.8508,-19.9811,3677.7888],[-64.8589,-19.9745,3900.5332],[-64.8613,-19.9784,3838.6665],[-64.8665,-19.9781,3915.6594],[-64.8718,-19.981,3902.4229],[-64.8762,-19.9732,3698.1006],[-64.8788,-19.9724,3567.2283],[-64.8813,-19.9686,3293.0286],[-64.8836,-19.968,3194.6624],[-64.8829,-19.9671,3193.2188],[-64.8864,-19.9678,3147.9858],[-64.886,-19.9665,3147.9858],[-64.8888,-19.9654,3206.9746],[-64.8885,-19.9638,3131.1934],[-64.8908,-19.9636,3163.0134],[-64.8887,-19.9604,3017.5464],[-64.8929,-19.9571,3003.6992],[-64.8925,-19.9527,2994.9006],[-64.8947,-19.9495,2973.6565],[-64.8946,-19.9464,2978.5347],[-64.8969,-19.9458,3045.8499],[-64.8958,-19.9379,3021.7473],[-64.897,-19.9339,2927.8477],[-64.8931,-19.9247,2871.8418],[-64.895,-19.9205,2903.0647],[-64.8966,-19.9203,2952.3306],[-64.8948,-19.9142,2853.54],[-64.8969,-19.9088,2784.6509],[-64.9053,-19.8982,2718.4436],[-64.9073,-19.8896,2679.8154],[-64.9159,-19.8742,2604.5103],[-64.9191,-19.8636,2571.9878],[-64.919,-19.86,2564.895],[-64.9155,-19.8548,2536.269],[-64.9159,-19.85,2513.3489],[-64.9133,-19.8452,2496.249],[-64.9143,-19.8422,2504.4062],[-64.928,-19.8438,3095.8179],[-64.9311,-19.8565,3069.5205],[-64.93,-19.8595,3099.5222],[-64.9391,-19.8659,3176.5154],[-64.9416,-19.8765,3313.9204],[-64.9599,-19.869,3102.9531],[-64.9785,-19.8549,2581.1548],[-64.9783,-19.8531,2493.3],[-64.9827,-19.855,2615.6438],[-64.9831,-19.8534,2579.9663],[-64.9849,-19.8546,2673.4412],[-64.9909,-19.8533,2680.1462],[-64.991,-19.8478,2811.5513],[-64.9892,-19.8457,2787.5386],[-64.9902,-19.8433,2792.1492],[-64.9916,-19.8435,2824.8076],[-64.9908,-19.8405,2827.6597],[-64.9931,-19.8388,2936.4199],[-64.995,-19.8323,2930.4097],[-64.996,-19.8329,2930.4097],[-64.9958,-19.8303,2939.2603],[-64.9972,-19.8306,2982.5232],[-64.9988,-19.8278,3041.9568],[-65.0025,-19.8292,2999.4854],[-65.004,-19.8283,3045.4231],[-65.0092,-19.8132,3158.7395],[-65.0117,-19.814,3195.8003],[-65.0207,-19.8035,3247.7747],[-65.0263,-19.8025,3301.7449],[-65.0302,-19.7946,3349.885],[-65.0359,-19.7945,3419.4009],[-65.0398,-19.7968,3470.1328],[-65.0567,-19.7937,4050.1604],[-65.0525,-19.8062,3856.8101],[-65.054,-19.8185,3772.1396],[-65.0527,-19.8204,3768.0461],[-65.057,-19.8277,3787.0271],[-65.0559,-19.8333,3780.6357],[-65.0583,-19.8424,3754.0366],[-65.061,-19.844,3806.9539],[-65.0618,-19.8628,3766.8027],[-65.0648,-19.8707,3729.4229],[-65.0692,-19.8748,3734.854],[-65.0689,-19.8806,3728.3979],[-65.0759,-19.8991,3626.022],[-65.0745,-19.9009,3600.1602],[-65.077,-19.9086,3570.1775],[-65.0775,-19.9183,3581.377],[-65.0831,-19.9319,3543.6533],[-65.0816,-19.9348,3527.8118],[-65.0768,-19.9354,3379.7007],[-65.0717,-19.9388,3031.769],[-65.0696,-19.9423,3039.5317],[-65.0661,-19.9439,2925.4783],[-65.0632,-19.9492,2781.1162],[-65.0597,-19.9501,2728.5066],[-65.0598,-19.9533,2656.8198],[-65.062,-19.957,2713.2002],[-65.0658,-19.9591,2832.0356],[-65.0657,-19.9635,2920.2776],[-65.0714,-19.9671,3082.6882],[-65.075,-19.9745,3198.3455],[-65.0752,-19.9782,3201.9419],[-65.0772,-19.9799,3171.5229],[-65.0775,-19.9838,3184.0547],[-65.0746,-19.9899,3319.5662],[-65.0822,-19.995,3253.4968],[-65.0865,-19.9953,3410.9692],[-65.088,-19.9917,3439.5605],[-65.0906,-20.0094,2981.6787],[-65.1046,-20.0165,3425.6099],[-65.1281,-20.0152,3194.6909],[-65.1445,-20.0112,3183.7703],[-65.1522,-20.0124,3068.7227],[-65.1542,-20.0074,3010.532],[-65.1607,-20.0044,3023.3799],[-65.1709,-19.9956,3117.5181],[-65.2033,-19.938,3377.0811],[-65.214,-19.9393,3435.1748],[-65.2223,-19.9359,3454.5525],[-65.223,-19.9413,3527.2742],[-65.2278,-19.9481,3558.5803],[-65.2313,-19.95,3547.4097],[-65.2329,-19.9556,3520.9819],[-65.2381,-19.9589,3525.375],[-65.2442,-19.9702,3541.1184],[-65.2662,-19.9878,3966.1113],[-65.2683,-19.9916,3810.0811],[-65.2721,-19.9933,3667.9304],[-65.2703,-20.0039,4065.0259],[-65.2751,-20.0052,4104.2036],[-65.2774,-20.009,4068.627],[-65.2827,-20.004,4002.3916],[-65.2869,-20.0033,4096.2549],[-65.2938,-20.0066,4046.9976],[-65.2942,-20.0081,4053.9436],[-65.305,-20.0093,3960.9019],[-65.3051,-20.0261,3658.866],[-65.2932,-20.0488,3597.71],[-65.2893,-20.0532,3517.741],[-65.283,-20.0522,3651.1572],[-65.283,-20.0597,3741.3374],[-65.2793,-20.0691,3690.886],[-65.2722,-20.0795,3544.3652],[-65.2685,-20.0924,3637.4834],[-65.256,-20.1024,3869.3892],[-65.2495,-20.1034,3874.1794],[-65.2432,-20.1131,3818.1328],[-65.239,-20.1163,3755.9841],[-65.2337,-20.1305,3845.9136],[-65.2326,-20.1405,3847.687],[-65.2353,-20.1438,3945.9805],[-65.235,-20.1464,3912.6953],[-65.2571,-20.1586,3839.8633],[-65.2643,-20.1576,3794.02],[-65.2713,-20.1514,3692.8625],[-65.2844,-20.1702,3350.8457],[-65.2882,-20.1695,3338.8574],[-65.3016,-20.1778,3303.4182],[-65.3158,-20.1945,3222.2458],[-65.3161,-20.1976,3150.1018],[-65.3121,-20.207,3267.9299],[-65.3152,-20.2153,3223.9778],[-65.3157,-20.2251,3241.5127],[-65.3137,-20.2305,3273.7397],[-65.2921,-20.2297,3300.0962],[-65.2826,-20.2327,3313.9785],[-65.2796,-20.2398,3306.7556],[-65.2686,-20.2562,3351.2971],[-65.2654,-20.2575,3349.6147],[-65.2451,-20.2761,3890.3564],[-65.2218,-20.3138,4298.3262],[-65.2212,-20.3188,4405.6719],[-65.2255,-20.3266,4490.082],[-65.2313,-20.3327,4583.4419],[-65.2332,-20.3434,4698.4473],[-65.2285,-20.3516,4649.5479],[-65.238,-20.3582,4594.6147],[-65.2408,-20.3626,4684.5605],[-65.2393,-20.3658,4662.626],[-65.2443,-20.3675,4638.4326],[-65.2465,-20.3712,4625.2837],[-65.2463,-20.3752,4551.3438],[-65.2515,-20.3796,4595.0566],[-65.2507,-20.3829,4553.2896],[-65.2526,-20.3868,4712.9678],[-65.2491,-20.3903,4605.5859],[-65.2476,-20.3965,4417.9951],[-65.248,-20.4056,4544.6025],[-65.2456,-20.4079,4597.9146],[-65.2459,-20.4106,4563.8315],[-65.2435,-20.4151,4551.5391],[-65.2463,-20.4186,4604.5391],[-65.2486,-20.4183,4508.877],[-65.2555,-20.4235,4371.4453],[-65.2624,-20.4238,4469.749],[-65.2634,-20.4301,4518.5283],[-65.2612,-20.4368,4481.7686],[-65.2564,-20.4425,4455.2231],[-65.2573,-20.4471,4534.043],[-65.2591,-20.4504,4627.522],[-65.2645,-20.4511,4512.6152],[-65.2714,-20.4577,4600.0879],[-65.2692,-20.463,4499.2988],[-65.2728,-20.4716,4423.3979],[-65.2681,-20.4797,4369.5986],[-65.2699,-20.4888,4304.6987],[-65.2682,-20.4926,4264.1421],[-65.2686,-20.5047,4258.6191],[-65.3276,-20.5119,4125.4688],[-65.3501,-20.5484,3703.0786],[-65.3799,-20.5589,3401.7292],[-65.3878,-20.5576,3480.2957],[-65.3819,-20.5753,3435.7969],[-65.3824,-20.5817,3437.7498],[-65.3683,-20.5974,3449.7068],[-65.3642,-20.5989,3407.1902],[-65.3601,-20.5977,3383.7927],[-65.3546,-20.6023,3392.1157],[-65.3556,-20.6061,3354.4036],[-65.3497,-20.6145,3292.3145],[-65.3472,-20.6226,3270.6101],[-65.356,-20.6398,3234.1887],[-65.3564,-20.6451,3179.2402],[-65.358,-20.6466,3162.4509],[-65.3556,-20.6545,3025.4031],[-65.3575,-20.6579,2983.1628],[-65.3584,-20.6674,2922.593],[-65.3632,-20.672,2935.7437],[-65.3645,-20.6772,2929.1584],[-65.3644,-20.6881,2887.8032],[-65.3617,-20.6976,2817.0679],[-65.3638,-20.701,2701.106],[-65.3636,-20.7081,2675.8569],[-65.358,-20.7146,2620.1113],[-65.3572,-20.7271,2464.522],[-65.3607,-20.7299,2587.6116],[-65.3614,-20.7328,2628.8213],[-65.3688,-20.7365,2909.5471],[-65.3697,-20.7398,2984.5447],[-65.3753,-20.7467,3043.1899],[-65.3745,-20.7495,3071.4043],[-65.3763,-20.7512,3085.7471],[-65.3716,-20.7555,2883.8169],[-65.3723,-20.7586,2866.0586],[-65.3695,-20.7636,2900.0671],[-65.3715,-20.7722,3026.6504],[-65.3664,-20.7795,3058.2839],[-65.3644,-20.7918,3164.8086],[-65.3577,-20.8002,3209.9375],[-65.3586,-20.8052,3246.5415],[-65.3524,-20.8109,3378.9954],[-65.3492,-20.8213,3366.3145],[-65.3491,-20.8267,3446.6353],[-65.3468,-20.8324,3455.7747],[-65.3488,-20.8343,3501.6655],[-65.3485,-20.839,3474.5984],[-65.3508,-20.8437,3592.3984],[-65.3497,-20.8475,3645.3247],[-65.3506,-20.8518,3800.061],[-65.3478,-20.8542,3819.5054],[-65.3483,-20.8572,3802.7402],[-65.3452,-20.8572,3780.7451],[-65.3402,-20.8543,3637.2549],[-65.3322,-20.8556,3576.8232],[-65.3289,-20.8582,3527.9707],[-65.32,-20.8576,3520.8103],[-65.3184,-20.8597,3413.9866],[-65.3128,-20.8588,3387.9087],[-65.3115,-20.8571,3448.5317],[-65.305,-20.8616,3367.6929],[-65.2974,-20.8591,3572.7388],[-65.273,-20.866,3285.082],[-65.2594,-20.8768,3257.228],[-65.2504,-20.8755,3072.3459],[-65.2379,-20.8806,2379.9719],[-65.2215,-20.8836,2261.4717],[-65.2117,-20.8877,2533.8804],[-65.1999,-20.8962,2675.9463],[-65.1912,-20.9002,2495.8674],[-65.1865,-20.8987,2526.6504],[-65.18,-20.893,2538.8003],[-65.1714,-20.8909,2571.0623],[-65.1687,-20.8878,2594.4563],[-65.1525,-20.8797,2649.7505],[-65.1511,-20.8774,2709.8525],[-65.1514,-20.8712,2732.5085],[-65.1438,-20.8677,2743.0068],[-65.1417,-20.8619,2753.2004],[-65.1256,-20.8662,3004.0581],[-65.1153,-20.8625,3161.7373],[-65.1089,-20.8623,3235.657],[-65.1037,-20.8573,3322.4099],[-65.0993,-20.8589,3324.3323],[-65.0993,-20.8622,3270.707],[-65.0959,-20.8652,3291.5881],[-65.0841,-20.8607,3409.6719],[-65.0811,-20.8567,3363.176],[-65.083,-20.8536,3326.4578],[-65.0836,-20.8434,3197.3167],[-65.0809,-20.8428,3088.8989],[-65.0758,-20.8373,3118.887],[-65.0795,-20.8247,3168.991],[-65.0859,-20.8203,3137.8564],[-65.087,-20.8145,3223.2612],[-65.085,-20.8121,3176.3203],[-65.0856,-20.8058,3227.4053],[-65.0757,-20.8073,3299.5967],[-65.0699,-20.8052,3257.8271],[-65.069,-20.8033,3234.8516],[-65.0721,-20.7951,3108.2236],[-65.0707,-20.7941,3086.854],[-65.0639,-20.7947,3063.6123],[-65.053,-20.7918,3025.0691],[-65.0441,-20.7974,3009.6602],[-65.0486,-20.7895,3031.593],[-65.0491,-20.7851,3037.8186],[-65.0523,-20.7838,3043.1577],[-65.0543,-20.7796,3052.7231],[-65.0527,-20.768,3091.7534],[-65.0493,-20.7601,3129.5732],[-65.0512,-20.7476,3276.272],[-65.044,-20.7307,3633.2913],[-65.0386,-20.7257,3950.0796],[-65.038,-20.7223,4007.5994],[-65.0426,-20.7197,4105.8672],[-65.0459,-20.7149,4060.0352],[-65.0456,-20.7073,3938.8745],[-65.0474,-20.7009,3937.249],[-65.044,-20.6969,3824.718],[-65.0342,-20.6913,3554.8914],[-65.0281,-20.6911,3487.2542],[-65.0208,-20.696,3779.4814],[-65.0116,-20.6945,3828.5576],[-65.008,-20.6923,4011.3911],[-65.0027,-20.6962,3843.0852],[-64.9879,-20.6979,3596.2273],[-64.9769,-20.7118,3380.5818],[-64.9695,-20.729,3416.8982],[-64.9578,-20.7379,3381.1655],[-64.9451,-20.751,3213.5967],[-64.9422,-20.76,3312.9424],[-64.9326,-20.766,3304.3635],[-64.9257,-20.7735,3345.7988],[-64.912,-20.7761,3105.282],[-64.902,-20.7814,3151.3667],[-64.8994,-20.7843,3176.717],[-64.889,-20.7879,3291.4087],[-64.8773,-20.7894,3002.7141],[-64.8597,-20.7963,3075.0894],[-64.8451,-20.7941,3320.8818],[-64.8394,-20.7865,3249.6272],[-64.8345,-20.7755,3083.0513],[-64.8318,-20.7743,3086.7075],[-64.8294,-20.7684,3151.3596],[-64.8246,-20.7662,3183.9128],[-64.8206,-20.7611,3216.2319],[-64.8221,-20.753,3206.5571],[-64.8169,-20.7423,3211.6445],[-64.8054,-20.7379,3333.9929],[-64.7964,-20.7374,3509.5166],[-64.7937,-20.7329,3485.4385],[-64.7861,-20.7299,3487.5303],[-64.7824,-20.7248,3546.9023],[-64.7835,-20.7172,3643.4417],[-64.7863,-20.7141,3665.3235],[-64.7859,-20.7076,3683.0339],[-64.7724,-20.7066,3350.2461],[-64.7671,-20.7109,3300.2856],[-64.7621,-20.7122,3352.9468],[-64.7602,-20.7107,3330.4365],[-64.7589,-20.7042,3151.8938],[-64.7556,-20.7031,3106.3735],[-64.7486,-20.7051,2925.5],[-64.745,-20.7083,2868.7222],[-64.7401,-20.708,2813.9805],[-64.729,-20.715,2566.2659],[-64.7227,-20.7084,2946.5693],[-64.7194,-20.7081,3027.2358],[-64.7184,-20.6992,3069.8828],[-64.7114,-20.6992,2785.8809],[-64.6971,-20.7019,3232.5374],[-64.6966,-20.7095,3253.0569],[-64.6886,-20.717,3104.6421],[-64.6746,-20.717,2874.9351],[-64.6714,-20.7206,2895.9341],[-64.6629,-20.7177,2494.6104],[-64.6546,-20.7193,2284.1758],[-64.6496,-20.7183,2370.2544],[-64.6381,-20.722,2728.2214],[-64.6258,-20.7199,3260.7202],[-64.6244,-20.7152,3352.791],[-64.6179,-20.7137,3396.2839],[-64.6156,-20.709,3394.2234],[-64.6139,-20.6979,3398.3777],[-64.6074,-20.6867,3530.6226],[-64.6006,-20.6858,3418.6948],[-64.5955,-20.6819,3505.1831],[-64.5908,-20.6826,3419.4758],[-64.5889,-20.6863,3290.3335],[-64.5759,-20.6902,3266.3245],[-64.568,-20.6804,3253.2561],[-64.546,-20.669,3042.6128],[-64.5335,-20.6586,3068.9441],[-64.5251,-20.6475,3189.5513],[-64.5045,-20.6442,3349.8652],[-64.4889,-20.6357,2454.3455],[-64.4809,-20.6356,2219.7993],[-64.4805,-20.6328,2253.1174],[-64.4781,-20.6316,2105.2625],[-64.4745,-20.6247,2030.4253],[-64.4703,-20.6244,2019.7146],[-64.4638,-20.6179,1949.1101],[-64.4575,-20.6173,1762.6705],[-64.455,-20.6114,1744.5382],[-64.4513,-20.6132,1842.2222],[-64.4463,-20.6127,2033.6426],[-64.443,-20.62,2050.1819],[-64.4413,-20.6194,2219.646],[-64.4402,-20.6211,2162.0562],[-64.437,-20.6216,2182.217],[-64.4298,-20.6189,2370.9109],[-64.4259,-20.6208,2484.7263],[-64.4165,-20.6134,2521.0181],[-64.3916,-20.6153,2032.9729],[-64.3889,-20.6122,1954.6757],[-64.3739,-20.6133,1770.6052],[-64.3748,-20.6058,1736.8933],[-64.3732,-20.6013,1716.3694],[-64.3626,-20.601,1665.2522],[-64.3617,-20.5974,1792.1379],[-64.3549,-20.5943,1747.7556],[-64.3504,-20.5953,1511.2616],[-64.3483,-20.5922,1505.7338],[-64.3449,-20.5921,1476.8115],[-64.3406,-20.5888,1484.7633],[-64.3374,-20.5889,1456.7684],[-64.3353,-20.5912,1415.405],[-64.3305,-20.5838,1424.6384],[-64.3241,-20.585,1387.671],[-64.3232,-20.5899,1365.2753],[-64.3176,-20.5924,1426.071],[-64.3163,-20.5948,1278.8514],[-64.3109,-20.5921,1262.6604],[-64.3094,-20.5871,1285.3933],[-64.31,-20.5858,1264.458],[-64.313,-20.5858,1223.6667],[-64.3148,-20.5808,1204.2076],[-64.3125,-20.5789,1193.1283],[-64.3128,-20.5748,1197.7401],[-64.3166,-20.5713,1183.6793],[-64.3122,-20.5699,1165.203],[-64.3127,-20.5671,1205.719],[-64.3093,-20.5669,1224.4905],[-64.3098,-20.5651,1183.3475],[-64.307,-20.562,1126.4989],[-64.3088,-20.5592,1122.0039],[-64.3058,-20.5587,1131.5259],[-64.3091,-20.5559,1095.2684],[-64.3057,-20.5542,1086.9033],[-64.3044,-20.5504,1105.8396],[-64.3062,-20.5493,1080.6808],[-64.3028,-20.547,1077.6534],[-64.304,-20.5446,1063.3325],[-64.3007,-20.5448,1136.7286],[-64.3021,-20.5422,1039.4869],[-64.3044,-20.5415,1039.4951],[-64.2975,-20.5377,1025.4858],[-64.2977,-20.5353,1041.9319],[-64.2993,-20.5366,1025.4858],[-64.3001,-20.5356,1000.6354],[-64.298,-20.5312,996.8265],[-64.2965,-20.5313,1022.8972],[-64.2967,-20.5289,1040.1324],[-64.2911,-20.5309,969.7389],[-64.2859,-20.5249,911.3071],[-64.2833,-20.5244,944.2788],[-64.2835,-20.5225,1026.5454],[-64.2744,-20.5181,910.3513],[-64.2716,-20.5127,872.2858],[-64.275,-20.4974,903.2621],[-64.2845,-20.4969,890.0781],[-64.2881,-20.4935,904.3457],[-64.2872,-20.4873,920.0587],[-64.2884,-20.4767,930.1406],[-64.2829,-20.4637,914.3267],[-64.2953,-20.4537,931.6571],[-64.3098,-20.4537,949.5684],[-64.3222,-20.4508,1039.6609],[-64.3307,-20.4526,1080.0947],[-64.3384,-20.4557,1031.76],[-64.3402,-20.458,971.1293],[-64.3482,-20.4582,948.5139],[-64.3514,-20.4568,976.8288],[-64.3704,-20.4638,949.4577],[-64.377,-20.4642,953.7203],[-64.3813,-20.4615,962.9864],[-64.3859,-20.4643,1092.9987],[-64.3869,-20.4692,994.489],[-64.3908,-20.4725,1030.6425],[-64.3905,-20.4749,995.1501],[-64.3975,-20.4779,1047.0947],[-64.3997,-20.4826,1008.7383],[-64.4042,-20.4845,1038.767],[-64.4128,-20.4851,1002.7325],[-64.4258,-20.4825,1006.053],[-64.4263,-20.4805,1023.5435],[-64.4327,-20.4757,1007.712],[-64.4331,-20.4735,1098.0135],[-64.4306,-20.4721,1039.593],[-64.4307,-20.4703,1082.3453],[-64.4331,-20.4688,1077.2043],[-64.4392,-20.469,1024.4956],[-64.4401,-20.4675,1012.8217],[-64.4405,-20.4641,1014.3286],[-64.4378,-20.4604,1032.0465],[-64.4386,-20.4578,1147.3604],[-64.4435,-20.4567,1050.9246],[-64.4512,-20.4586,1026.9771],[-64.4521,-20.4576,1037.0685],[-64.4495,-20.454,1065.2389],[-64.4498,-20.4519,1030.7345],[-64.4583,-20.4499,1079.3367],[-64.464,-20.4424,1084.1434],[-64.4674,-20.4418,1046.1396],[-64.4753,-20.4338,1111.0601],[-64.4784,-20.4487,1121.0317],[-64.477,-20.4518,1090.2241],[-64.4712,-20.4542,1062.5737],[-64.4711,-20.4562,1063.756],[-64.4727,-20.4582,1066.8774],[-64.4839,-20.4597,1084.9427],[-64.4886,-20.4631,1075.6302],[-64.4941,-20.4604,1080.2465],[-64.4964,-20.4522,1158.9292],[-64.5042,-20.4538,1160.4503],[-64.5075,-20.4585,1107.135],[-64.5104,-20.4558,1096.2653],[-64.511,-20.4486,1181.7913],[-64.513,-20.4468,1128.1086],[-64.5179,-20.4488,1134.5171],[-64.5235,-20.4481,1108.5283],[-64.529,-20.45,1111.6273],[-64.5351,-20.4412,1143.0771],[-64.5437,-20.4396,1141.6677],[-64.5458,-20.4358,1189.9614]]]]}}