{"type": "Feature","bbox": [-65.9424,-19.1464,-65.6328,-18.6414],"geometry": {"type": "MultiPolygon","coordinates": [[[[-65.8638,-18.9797,4605.3887],[-65.8543,-19.0027,4470.3789],[-65.8331,-19.0198,4433.832],[-65.8254,-19.0232,4471.3701],[-65.823,-19.027,4442.0762],[-65.8142,-19.0247,4200.167],[-65.8054,-19.0269,4121.4912],[-65.7955,-19.0273,4095.9292],[-65.785,-19.0366,4045.2861],[-65.7802,-19.0387,4013.832],[-65.7689,-19.0307,3972.9211],[-65.7642,-19.0348,3951.175],[-65.758,-19.034,3951.8108],[-65.7481,-19.0425,4276.4873],[-65.7397,-19.046,4230.3159],[-65.7327,-19.0558,4347.0981],[-65.7415,-19.0768,4641.6147],[-65.7337,-19.0788,4477.1973],[-65.7295,-19.094,4399.9185],[-65.7258,-19.1005,4337.4678],[-65.7221,-19.1042,4248.4082],[-65.7168,-19.1049,4093.6714],[-65.7099,-19.1117,3907.7952],[-65.7,-19.1254,3825.9409],[-65.6982,-19.1258,3837.2178],[-65.6959,-19.1325,3839.7148],[-65.6927,-19.1349,3865.3914],[-65.6883,-19.1422,3880.2744],[-65.6622,-19.1436,3167.6758],[-65.6565,-19.1464,2933.0552],[-65.6548,-19.1389,2937.5168],[-65.6561,-19.1341,2923.7988],[-65.6527,-19.1313,2931.2803],[-65.6546,-19.1276,2926.4756],[-65.6519,-19.1242,2964.188],[-65.6495,-19.124,2928.0991],[-65.6477,-19.1166,2921.6975],[-65.6502,-19.1085,2944.4346],[-65.6579,-19.0962,2999.314],[-65.6575,-19.0917,3035.9688],[-65.6512,-19.0833,3155.1462],[-65.653,-19.0768,3108.8398],[-65.6497,-19.0737,3169.3718],[-65.6491,-19.063,3239.6602],[-65.6519,-19.0507,3300.3438],[-65.6558,-19.0456,3346.2434],[-65.656,-19.0401,3467.9795],[-65.6595,-19.0334,3516.02],[-65.6499,-19.0133,4168.2334],[-65.6328,-19.0112,3763.498],[-65.6393,-18.9925,3484.7239],[-65.638,-18.9866,3457.5991],[-65.6442,-18.9709,3320.2664],[-65.6393,-18.9513,3234.9497],[-65.6405,-18.9464,3362.6421],[-65.6483,-18.9367,3654.2954],[-65.6517,-18.9367,3653.5488],[-65.6666,-18.9196,3749.0173],[-65.6692,-18.9057,3802.6006],[-65.6752,-18.9052,3645.8398],[-65.677,-18.9015,3689.1621],[-65.6754,-18.8959,3648.8926],[-65.6795,-18.8951,3653.4512],[-65.6786,-18.8901,3660.7446],[-65.6822,-18.8884,3673.6265],[-65.6878,-18.8818,3662.3682],[-65.6864,-18.8785,3624.4558],[-65.6909,-18.8766,3653.7261],[-65.6903,-18.8725,3626.0371],[-65.6921,-18.8708,3629.2502],[-65.6916,-18.869,3597.1731],[-65.6943,-18.8666,3596.5959],[-65.6974,-18.8664,3599.1936],[-65.6971,-18.8634,3639.0227],[-65.6989,-18.8625,3626.6506],[-65.6997,-18.8583,3597.7515],[-65.6927,-18.8461,3456.1785],[-65.6942,-18.8402,3455.0513],[-65.6919,-18.8399,3489.1714],[-65.6864,-18.8299,3651.3633],[-65.6852,-18.8212,3719.0879],[-65.6894,-18.8153,3730.6948],[-65.6862,-18.7938,3626.2529],[-65.687,-18.7787,3635.7749],[-65.6936,-18.7773,3671.064],[-65.7,-18.7699,3711.5967],[-65.7014,-18.7652,3748.0845],[-65.7137,-18.7599,4033.2041],[-65.724,-18.7499,4191.6621],[-65.7332,-18.7502,4127.5962],[-65.7421,-18.7368,4131.0444],[-65.7472,-18.7238,4094.8098],[-65.7445,-18.7178,4031.48],[-65.7398,-18.7155,3873.9661],[-65.7418,-18.7102,3823.853],[-65.7357,-18.6943,3625.8896],[-65.7346,-18.686,3072.0012],[-65.7296,-18.6805,2734.5251],[-65.7321,-18.6772,2696.0303],[-65.7338,-18.6697,2650.5139],[-65.7382,-18.6662,2598.2153],[-65.7387,-18.6621,2573.6226],[-65.7443,-18.6513,2499.3115],[-65.7449,-18.6462,2463.9578],[-65.7432,-18.6454,2468.4824],[-65.742,-18.6414,2443.1089],[-65.7452,-18.6414,2446.6777],[-65.7589,-18.6507,2487.3022],[-65.7643,-18.6512,2496.3713],[-65.7747,-18.6639,2568.9509],[-65.7811,-18.6676,2570.6003],[-65.7859,-18.6777,2625.3374],[-65.7872,-18.6853,2641.9629],[-65.7936,-18.6899,2655.2153],[-65.798,-18.6992,2672.3625],[-65.8021,-18.7023,2699.4587],[-65.8099,-18.7124,2836.9644],[-65.8242,-18.7184,2936.4099],[-65.8358,-18.7162,2969.9272],[-65.8376,-18.7188,2945.2715],[-65.8379,-18.7238,2962.4866],[-65.8404,-18.7266,2988.1758],[-65.8467,-18.7299,3002.4355],[-65.8506,-18.7341,3011.9409],[-65.8565,-18.7341,3030.0288],[-65.8604,-18.7397,3161.7349],[-65.8668,-18.7399,3184.6516],[-65.8698,-18.7384,3323.3806],[-65.8759,-18.7333,3228.2183],[-65.8851,-18.7211,3289.9399],[-65.8916,-18.7204,3375.6746],[-65.902,-18.7237,3877.5166],[-65.9034,-18.7275,3730.6846],[-65.9096,-18.7322,3674.6758],[-65.9166,-18.7351,3862.7561],[-65.926,-18.7353,4183.2793],[-65.9249,-18.7403,4124.2104],[-65.9265,-18.749,3719.8689],[-65.9361,-18.7536,3993.0999],[-65.9383,-18.7597,4198.3877],[-65.9424,-18.7616,4186.1333],[-65.9418,-18.7711,3834.7483],[-65.9293,-18.7651,4035.1367],[-65.9252,-18.7729,4179.6152],[-65.8924,-18.7923,4100.2861],[-65.8991,-18.8038,4349.2632],[-65.8918,-18.8131,4051.7151],[-65.9115,-18.8255,4340.4424],[-65.9061,-18.8263,4343.0605],[-65.9045,-18.8309,4350.1729],[-65.9016,-18.8326,4317.4043],[-65.9024,-18.8364,4331.1631],[-65.8993,-18.8428,4304.1646],[-65.9066,-18.8514,4076.6824],[-65.9043,-18.8507,4131.2998],[-65.8757,-18.8599,4276.5024],[-65.8688,-18.8684,4326.1182],[-65.8685,-18.8842,4455.6875],[-65.8614,-18.9039,4456.3584],[-65.8553,-18.9076,4420.2334],[-65.8604,-18.9111,4422.041],[-65.8604,-18.929,4441.8691],[-65.8537,-18.9381,4474.4463],[-65.8522,-18.9467,4461.979],[-65.8588,-18.9508,4427.4404],[-65.8543,-18.9667,4471.1035],[-65.8576,-18.9757,4492.6562],[-65.8529,-18.9825,4498.437],[-65.8638,-18.9797,4605.3887]]]]}
,"properties": {"GID_3": "BOL.7.4.2_2","GID_0": "BOL","country": "Bolivia","GID_1": "BOL.7_1","province": "Potosí","NL_NAME_1": "NA","GID_2": "BOL.7.4_2","county": "Chayanta","NL_NAME_2": "NA","city": "Ocurí","VARNAME_3": "NA","NL_NAME_3": "NA","TYPE_3": "District","ENGTYPE_3": "Distrito","CC_3": "NA","HASC_3": "NA","name": "Ocurí.city","area_km2": 865.9824,"hist_schema_id": "Elevation0-9000","hist_area_km2": {"2450": 0.2612,"2475": 0.4018,"2500": 0.4018,"2525": 0.4821,"2550": 0.3415,"2575": 0.5625,"2600": 0.5022,"2625": 0.4218,"2650": 0.5624,"2675": 0.944,"2700": 0.6428,"2725": 0.9039,"2750": 0.9641,"2775": 0.7432,"2800": 0.8837,"2825": 1.0645,"2850": 1.0043,"2875": 0.7833,"2900": 1.2653,"2925": 1.9057,"2950": 1.4852,"2975": 1.8858,"3000": 2.1068,"3025": 2.3276,"3050": 2.8289,"3075": 3.0494,"3100": 3.3707,"3125": 3.2297,"3150": 3.3503,"3175": 3.651,"3200": 4.1123,"3225": 4.353,"3250": 5.4756,"3275": 6.3986,"3300": 7.6223,"3325": 9.0863,"3350": 10.4096,"3375": 12.0358,"3400": 13.6004,"3425": 13.3793,"3450": 14.262,"3475": 15.9875,"3500": 17.0109,"3525": 19.1377,"3550": 20.7221,"3575": 23.3709,"3600": 22.9301,"3625": 25.1962,"3650": 23.5316,"3675": 23.4102,"3700": 23.2502,"3725": 21.766,"3750": 21.6051,"3775": 20.2208,"3800": 19.0964,"3825": 19.4786,"3850": 20.1401,"3875": 18.9178,"3900": 22.3692,"3925": 22.6698,"3950": 21.2659,"3975": 21.3655,"4000": 22.2083,"4025": 22.0062,"4050": 20.8028,"4075": 20.7216,"4100": 19.0756,"4125": 19.9392,"4150": 18.7348,"4175": 18.9555,"4200": 19.9579,"4225": 16.6688,"4250": 15.7855,"4275": 13.0371,"4300": 11.2723,"4325": 10.3498,"4350": 8.3435,"4375": 6.6384,"4400": 4.6528,"4425": 3.9906,"4450": 2.6872,"4475": 1.7446,"4500": 0.9623,"4525": 0.4411,"4550": 0.2406,"4575": 0.1604,"4600": 0.0802,"4625": 0.02}}}