{"type": "Feature","bbox": [-67.0781,-18.5537,-66.7403,-18.2094],"geometry": {"type": "MultiPolygon","coordinates": [[[[-67.0596,-18.4831,3688.3987],[-67.0602,-18.494,3688.1577],[-66.9918,-18.4886,4069.3579],[-66.9893,-18.5013,3888.1143],[-66.9597,-18.5537,3690.4092],[-66.9474,-18.5494,3744.3354],[-66.9432,-18.5498,3868.105],[-66.9377,-18.5458,4112.7432],[-66.9357,-18.542,4173.2095],[-66.9345,-18.5283,4306.0923],[-66.9324,-18.5268,4331.5654],[-66.9327,-18.5225,4238.9019],[-66.9288,-18.5195,4083.5713],[-66.9293,-18.5156,4212.5],[-66.927,-18.5131,4190.7651],[-66.9235,-18.5126,4236.9404],[-66.9218,-18.5064,4238.1211],[-66.9233,-18.4977,4269.5391],[-66.9245,-18.4954,4277.9702],[-66.9329,-18.4905,4479.6699],[-66.9314,-18.4806,4466.6416],[-66.927,-18.4763,4459.498],[-66.9056,-18.4793,4103.3057],[-66.8988,-18.4787,4222.4248],[-66.8959,-18.4609,3985.0862],[-66.8902,-18.4538,3959.6558],[-66.8747,-18.4472,3949.353],[-66.873,-18.4369,4041.5664],[-66.8755,-18.4322,4062.7205],[-66.8668,-18.4228,4156.8428],[-66.8623,-18.4223,4243.814],[-66.8607,-18.4175,4194.9346],[-66.8434,-18.4152,4539.6826],[-66.8363,-18.4112,4629.8115],[-66.8296,-18.4234,4609.0654],[-66.8283,-18.4293,4603.5908],[-66.8222,-18.4344,4624.9707],[-66.8207,-18.438,4567.624],[-66.8064,-18.4452,4238.5771],[-66.7942,-18.4475,4164.4263],[-66.7944,-18.4396,4161.1431],[-66.7809,-18.4384,4250.8774],[-66.7584,-18.4241,4597.5317],[-66.7403,-18.4255,4614.5845],[-66.7584,-18.398,4473.022],[-66.7829,-18.3734,4507.1265],[-66.7891,-18.3631,4515.9111],[-66.7949,-18.3583,4553.2144],[-66.8049,-18.3401,4628.9844],[-66.8107,-18.3469,4606.5527],[-66.8233,-18.3423,4483.9058],[-66.8329,-18.3435,4258.0288],[-66.8445,-18.338,3990.8774],[-66.8497,-18.3277,3957.7566],[-66.847,-18.3029,3926.7522],[-66.8535,-18.2877,3988.8833],[-66.8531,-18.2844,3971.8447],[-66.8557,-18.2817,3944.999],[-66.8572,-18.2769,3902.3252],[-66.8624,-18.2733,3888.791],[-66.8723,-18.271,3872.3682],[-66.8745,-18.2667,3868.845],[-66.8829,-18.2594,3857.6445],[-66.8828,-18.2541,3853.7478],[-66.8868,-18.2524,3850.1167],[-66.8907,-18.2477,3843.8384],[-66.8938,-18.2428,3838.0093],[-66.8955,-18.236,3831.002],[-66.8989,-18.2319,3824.8508],[-66.9027,-18.2308,3821.9001],[-66.9067,-18.2267,3816.0601],[-66.9159,-18.2219,3806.9531],[-66.9199,-18.2273,3833.283],[-66.9208,-18.2354,3859.7485],[-66.9172,-18.24,3989.8577],[-66.9144,-18.2398,3987.4631],[-66.9116,-18.2495,4256.8779],[-66.9201,-18.2469,4016.9885],[-66.9224,-18.2435,3923.1672],[-66.9304,-18.2418,3841.8501],[-66.9457,-18.2416,3841.0522],[-66.9472,-18.2382,3837.1772],[-66.9597,-18.2365,3871.4375],[-66.9642,-18.2381,3997.8042],[-66.9695,-18.2291,3941.2092],[-66.9724,-18.2296,3911.0396],[-66.9848,-18.2112,4152.8174],[-67.0781,-18.2094,3696.4556],[-67.0741,-18.2211,3696.0044],[-67.0574,-18.2345,3695.4248],[-67.0484,-18.25,3694.0398],[-67.0486,-18.2552,3693.7874],[-67.0514,-18.2621,3693.4683],[-67.0494,-18.2674,3693.4229],[-67.0495,-18.2797,3693.1287],[-67.0526,-18.2937,3693.1067],[-67.0509,-18.3013,3692.8162],[-67.046,-18.3072,3692.4783],[-67.0432,-18.3147,3691.9297],[-67.045,-18.3246,3692.04],[-67.0428,-18.3457,3691.6116],[-67.0516,-18.3708,3691.1479],[-67.048,-18.3929,3690.7034],[-67.0514,-18.4176,3690.0857],[-67.0501,-18.4308,3689.823],[-67.0509,-18.4353,3689.7229],[-67.0549,-18.4386,3689.751],[-67.0562,-18.4476,3688.946],[-67.0595,-18.4508,3688.3547],[-67.0516,-18.453,3689.3191],[-67.049,-18.464,3689.2119],[-67.0525,-18.4718,3689.0],[-67.0586,-18.4788,3688.7832],[-67.0596,-18.4831,3688.3987]]]]}
,"properties": {"GID_3": "BOL.5.9.3_2","GID_0": "BOL","country": "Bolivia","GID_1": "BOL.5_1","province": "Oruro","NL_NAME_1": "NA","GID_2": "BOL.5.9_2","county": "Poopó","NL_NAME_2": "NA","city": "Poopó","VARNAME_3": "NA","NL_NAME_3": "NA","TYPE_3": "District","ENGTYPE_3": "Distrito","CC_3": "NA","HASC_3": "NA","name": "Poopó.city","area_km2": 692.4025,"hist_schema_id": "Elevation0-9000","hist_area_km2": {"3700": 233.2586,"3725": 25.1524,"3750": 14.4268,"3775": 10.9059,"3800": 11.5502,"3825": 14.5502,"3850": 18.4345,"3875": 22.339,"3900": 22.8615,"3925": 22.9207,"3950": 21.9331,"3975": 20.5657,"4000": 18.3919,"4025": 16.8423,"4050": 17.4866,"4075": 15.615,"4100": 14.0856,"4125": 14.0455,"4150": 14.3465,"4175": 13.3598,"4200": 13.3799,"4225": 12.6757,"4250": 11.0056,"4275": 9.839,"4300": 9.4163,"4325": 8.9132,"4350": 8.4101,"4375": 7.9071,"4400": 7.3841,"4425": 7.565,"4450": 7.3234,"4475": 6.1162,"4500": 6.3177,"4525": 5.3317,"4550": 3.4001,"4575": 2.2332,"4600": 1.348,"4625": 0.5633,"4650": 0.161,"4675": 0.0402}}}