{"type":"Feature","properties":{"GID_3":"BOL.7.14.1_2","GID_0":"BOL","country":"Bolivia","GID_1":"BOL.7_1","province":"Potosí","NL_NAME_1":"NA","GID_2":"BOL.7.14_2","county":"SurChichas","NL_NAME_2":"NA","city":"Atocha","VARNAME_3":"NA","NL_NAME_3":"NA","TYPE_3":"District","ENGTYPE_3":"Distrito","CC_3":"NA","HASC_3":"NA","name":"Atocha.city"},
"geometry":{"type": "MultiPolygon","coordinates": [[[[-66.4843,-20.9531,3903.3699],[-66.4866,-20.9967,3997.5239],[-66.4525,-21.0044,4034.4641],[-66.4428,-21.0081,4147.1401],[-66.4409,-21.0189,4146.3872],[-66.4045,-21.0536,4077.5571],[-66.4029,-21.0607,4125.2881],[-66.37,-21.1258,4268.3682],[-66.3678,-21.1322,4267.3379],[-66.3694,-21.1361,4255.9434],[-66.3681,-21.1408,4302.1357],[-66.3554,-21.1684,4369.8584],[-66.3498,-21.175,4386.4678],[-66.3414,-21.18,4375.5576],[-66.3382,-21.1858,4430.2334],[-66.3351,-21.188,4479.9888],[-66.3368,-21.2038,4434.291],[-66.343,-21.2056,4375.6279],[-66.3458,-21.2102,4340.0928],[-66.3461,-21.215699999999998,4313.4883],[-66.348,-21.2176,4308.3574],[-66.3547,-21.2192,4297.1045],[-66.36,-21.225,4279.9351],[-66.3557,-21.2311,4297.2085],[-66.3573,-21.2411,4369.3721],[-66.3506,-21.2633,4495.3179],[-66.3437,-21.2725,4374.1934],[-66.3145,-21.2931,4495.3408],[-66.2776,-21.311,4705.2896],[-66.2765,-21.2947,4634.6938],[-66.2428,-21.2868,4431.499],[-66.2298,-21.287,4485.5356],[-66.22,-21.2852,4240.2256],[-66.2018,-21.2892,4127.5732],[-66.1979,-21.2919,4164.6069],[-66.1947,-21.2977,4220.7759],[-66.1932,-21.298,4213.5093],[-66.1894,-21.2944,4159.8086],[-66.1866,-21.2941,4154.7461],[-66.185,-21.2962,4124.8848],[-66.1796,-21.2937,4140.6606],[-66.1782,-21.2951,4126.665],[-66.1678,-21.2946,4053.3516],[-66.1635,-21.2971,4097.542],[-66.1606,-21.2957,4136.3193],[-66.15,-21.3,4028.7473],[-66.1461,-21.3019,4021.1982],[-66.1411,-21.3104,4044.2412],[-66.1392,-21.3178,3992.6248],[-66.1291,-21.3224,3907.3281],[-66.1216,-21.319,3874.385],[-66.119,-21.3155,3891.8452],[-66.1185,-21.3166,3863.9346],[-66.1173,-21.3156,3917.6125],[-66.1172,-21.3173,3855.6504],[-66.113,-21.3154,3896.0874],[-66.1122,-21.3169,3842.6934],[-66.1092,-21.3151,3839.8826],[-66.1095,-21.3138,3858.7483],[-66.1038,-21.3123,3923.1033],[-66.1041,-21.3135,3823.1836],[-66.0981,-21.3153,3837.582],[-66.0974,-21.3169,3814.0356],[-66.0951,-21.3151,3835.7373],[-66.0926,-21.3173,3804.9026],[-66.0839,-21.3157,3802.0396],[-66.0823,-21.317,3771.2996],[-66.0826,-21.3203,3753.3169],[-66.0727,-21.3209,3826.4526],[-66.0696,-21.3237,3725.9802],[-66.066,-21.3222,3732.1143],[-66.0642,-21.3183,3707.1221],[-66.0624,-21.319,3733.7014],[-66.0609,-21.3161,3806.3511],[-66.0593,-21.3166,3697.0012],[-66.0584,-21.3199,3673.061],[-66.0526,-21.3164,3650.8584],[-66.0505,-21.3229,3632.1216],[-66.0481,-21.323,3645.2334],[-66.0468,-21.3253,3664.3096],[-66.0384,-21.3227,3661.6167],[-66.0367,-21.3205,3650.4475],[-66.0312,-21.3223,3587.2996],[-66.0245,-21.3185,3564.2295],[-66.0208,-21.3183,3542.8904],[-66.0147,-21.321,3679.8591],[-66.0122,-21.3185,3825.2715],[-66.0106,-21.299,3510.1794],[-66.006,-21.2864,4020.9075],[-66.0105,-21.2735,4122.9326],[-66.0067,-21.2517,3845.7637],[-66.0006,-21.2482,3604.5469],[-65.9926,-21.2373,3669.1296],[-65.9926,-21.2297,3736.2974],[-65.9906,-21.2227,3833.3704],[-65.9928,-21.2075,3872.9175],[-65.9892,-21.2033,3848.7778],[-65.9869,-21.1965,3901.8132],[-65.9817,-21.199,3933.9856],[-65.9707,-21.1892,4072.2415],[-65.9677,-21.1888,4036.8857],[-65.9626,-21.1958,4070.5801],[-65.9562,-21.1827,4140.3589],[-65.9506,-21.1803,4177.0171],[-65.9308,-21.1901,4110.2344],[-65.9278,-21.2027,4237.1992],[-65.9087,-21.2057,4175.5244],[-65.8846,-21.1932,4014.1934],[-65.8742,-21.1836,3731.7312],[-65.8725,-21.1694,4153.6245],[-65.874,-21.1595,4094.354],[-65.8775,-21.1583,4053.9849],[-65.8819,-21.1536,3906.5627],[-65.8836,-21.1425,4118.4229],[-65.8839,-21.123,4252.7524],[-65.8778,-21.1105,4283.3828],[-65.8812,-21.1064,4327.1719],[-65.8861,-21.1055,4389.7002],[-65.8855,-21.1007,4393.6475],[-65.8913,-21.0992,4246.0942],[-65.8928,-21.0956,4224.1318],[-65.8911,-21.0723,4149.5278],[-65.8936,-21.0401,4142.2964],[-65.8709,-21.0128,3854.6011],[-65.8698,-21.0054,3654.4016],[-65.8744,-20.9843,3372.1057],[-65.9141,-20.9701,4274.7441],[-65.9297,-20.9525,3939.9648],[-65.9454,-20.9484,4141.7456],[-65.9473,-20.9423,4198.9487],[-65.9743,-20.9414,4444.7646],[-65.9869,-20.9389,4406.4321],[-66.0119,-20.9293,4865.1914],[-66.0143,-20.9219,4995.4873],[-66.0163,-20.9202,4955.5889],[-66.0248,-20.9206,5049.6592],[-66.04,-20.9164,5211.1895],[-66.0619,-20.9157,4766.7686],[-66.0844,-20.9115,4290.2451],[-66.1667,-20.8727,3526.5735],[-66.171,-20.869,3523.8535],[-66.1729,-20.8572,3579.1282],[-66.1778,-20.8509,3575.8735],[-66.1783,-20.8444,3588.124],[-66.1817,-20.8429,3596.0332],[-66.1866,-20.8353,3605.5737],[-66.1918,-20.8344,3620.2488],[-66.1952,-20.829,3632.4912],[-66.1976,-20.8282,3638.4878],[-66.1982,-20.82,3661.21],[-66.2028,-20.8129,3671.9648],[-66.2116,-20.8079,3711.7629],[-66.2172,-20.8009,3712.7639],[-66.2208,-20.7997,3713.8081],[-66.2242,-20.7906,3743.9734],[-66.2316,-20.7858,3781.2031],[-66.2337,-20.7808,3805.5249],[-66.2654,-20.812,4169.4727],[-66.3043,-20.8416,4050.0181],[-66.3369,-20.8636,3997.8169],[-66.4162,-20.8938,4051.1606],[-66.4461,-20.9238,3910.7576],[-66.4827,-20.9286,3903.2407],[-66.4843,-20.9531,3903.3699]]]]}}