{"type":"Feature","properties":{"GID_3":"BOL.4.6.2_2","GID_0":"BOL","country":"Bolivia","GID_1":"BOL.4_1","province":"LaPaz","NL_NAME_1":"NA","GID_2":"BOL.4.6_2","county":"Caranavi","NL_NAME_2":"NA","city":"Caranavi","VARNAME_3":"NA","NL_NAME_3":"NA","TYPE_3":"District","ENGTYPE_3":"Distrito","CC_3":"NA","HASC_3":"NA","name":"Caranavi.city"},
"geometry":{"type": "MultiPolygon","coordinates": [[[[-67.6047,-15.561,1722.3528],[-67.6417,-15.6079,1211.5481],[-67.6134,-15.6324,1537.7588],[-67.6224,-15.6605,1229.1973],[-67.644,-15.687,898.4448],[-67.6518,-15.7033,1416.9731],[-67.6423,-15.7222,1484.2648],[-67.6458,-15.7236,1324.8605],[-67.649,-15.7292,1242.9202],[-67.6546,-15.7319,1012.1339],[-67.6582,-15.7377,780.6643],[-67.6689,-15.7395,636.0874],[-67.6759,-15.7497,531.3593],[-67.6787,-15.7481,504.8497],[-67.6775,-15.7447,498.152],[-67.6829,-15.7498,518.4346],[-67.6794,-15.758,546.0334],[-67.6735,-15.7586,505.1237],[-67.665,-15.7668,522.3904],[-67.6637,-15.7748,526.2043],[-67.6537,-15.7856,550.5901],[-67.6587,-15.7965,808.2748],[-67.6568,-15.8142,798.4021],[-67.6595,-15.8209,886.7466],[-67.6562,-15.8336,638.2397],[-67.6533,-15.8336,622.3873],[-67.6567,-15.8376,646.7643],[-67.6533,-15.8378,670.187],[-67.6539,-15.8397,715.9516],[-67.6521,-15.8432,647.8811],[-67.6545,-15.8448,708.6818],[-67.6538,-15.8482,671.5914],[-67.6556,-15.8488,730.3525],[-67.656,-15.8521,687.1672],[-67.6583,-15.8504,680.5347],[-67.6609,-15.8508,675.5574],[-67.659,-15.8531,769.9014],[-67.6599,-15.8576,863.2997],[-67.6564,-15.8611,715.786],[-67.6528,-15.8629,717.7197],[-67.6511,-15.862,780.2994],[-67.6444,-15.8672,741.6804],[-67.6429,-15.8723,763.2854],[-67.6355,-15.8776,760.9915],[-67.6331,-15.8815,876.8545],[-67.6344,-15.8841,828.7205],[-67.6318,-15.8881,817.6655],[-67.6356,-15.8928,856.3348],[-67.6354,-15.8999,906.2201],[-67.6333,-15.9003,828.3298],[-67.6325,-15.9075,882.0143],[-67.6283,-15.9118,921.822],[-67.6236,-15.9131,939.0978],[-67.6315,-15.9173,1199.9307],[-67.6357,-15.924,1290.0598],[-67.6413,-15.9265,1364.313],[-67.6462,-15.9422,1387.6321],[-67.6424,-15.9467,1363.4788],[-67.6452,-15.9501,1387.8086],[-67.6466,-15.9508,1369.4543],[-67.6473,-15.9493,1414.7151],[-67.6513,-15.9522,1417.9744],[-67.6551,-15.9524,1394.7661],[-67.6568,-15.955,1406.1525],[-67.6636,-15.9582,1458.3911],[-67.6699,-15.9888,1741.1458],[-67.6742,-16.0003,1938.1641],[-67.6736,-16.0066,1780.4725],[-67.6646,-16.0091,1773.611],[-67.6488,-16.0235,1424.1738],[-67.6427,-16.0326,831.7153],[-67.6374,-16.0312,837.3765],[-67.6327,-16.0326,805.1402],[-67.6292,-16.0384,877.2856],[-67.6275,-16.0464,957.2149],[-67.6241,-16.0489,944.8625],[-67.6243,-16.0548,931.8751],[-67.6194,-16.0601,988.3464],[-67.6148,-16.0602,1295.327],[-67.5994,-16.0548,2140.0393],[-67.3404,-16.0105,2112.6631],[-67.2853,-15.8927,1536.751],[-67.2594,-15.856,1313.821],[-67.255,-15.8444,1140.0983],[-67.2454,-15.8352,683.9072],[-67.2485,-15.8301,565.4407],[-67.2487,-15.8265,542.2891],[-67.2469,-15.8238,541.3443],[-67.2501,-15.8217,561.1419],[-67.2578,-15.822,619.4666],[-67.2834,-15.805,836.5889],[-67.2813,-15.7951,1395.5751],[-67.2652,-15.7797,656.4923],[-67.263,-15.7536,1314.8297],[-67.2929,-15.7515,1044.3346],[-67.3297,-15.7438,1344.5142],[-67.3446,-15.7385,1492.5105],[-67.364,-15.7183,1515.9],[-67.3798,-15.7125,1545.1696],[-67.391,-15.7125,1405.7816],[-67.4023,-15.7044,1181.3469],[-67.3903,-15.6924,1601.1604],[-67.4118,-15.6833,1321.451],[-67.4284,-15.697,1268.2966],[-67.4864,-15.6844,1887.3972],[-67.4893,-15.6596,1633.1552],[-67.531,-15.6367,2061.719],[-67.5507,-15.6313,1696.9471],[-67.5601,-15.6229,1719.4692],[-67.5709,-15.6051,1884.4314],[-67.5798,-15.5807,1907.5273],[-67.5936,-15.5745,1738.4631],[-67.6047,-15.561,1722.3528]]]]}}