{"type":"Feature","properties":{"GID_3":"BOL.8.15.1_2","GID_0":"BOL","country":"Bolivia","GID_1":"BOL.8_1","province":"SantaCruz","NL_NAME_1":"NA","GID_2":"BOL.8.15_2","county":"Warnes","NL_NAME_2":"NA","city":"OkinawaUno","VARNAME_3":"NA","NL_NAME_3":"NA","TYPE_3":"District","ENGTYPE_3":"Distrito","CC_3":"NA","HASC_3":"NA","name":"Okinawa_Uno.city"},
"geometry":{"type": "MultiPolygon","coordinates": [[[[-62.7902,-17.5322,274.5],[-62.7923,-17.5171,276.6652],[-62.7895,-17.5061,276.7253],[-62.7862,-17.5019,275.8231],[-62.7842,-17.4952,273.6786],[-62.7886,-17.478,274.2704],[-62.786,-17.4701,273.5256],[-62.7817,-17.4678,274.9904],[-62.7683,-17.469,272.7766],[-62.7522,-17.4672,273.0145],[-62.749,-17.4644,273.455],[-62.7484,-17.4585,271.4008],[-62.7581,-17.4488,271.6221],[-62.7622,-17.4405,271.2051],[-62.7596,-17.4379,274.3977],[-62.7496,-17.4358,268.9258],[-62.7485,-17.432,268.0],[-62.7518,-17.4234,268.0],[-62.7574,-17.4188,268.0],[-62.7581,-17.4157,274.2172],[-62.7584,-17.409,268.0],[-62.7565,-17.4044,269.1877],[-62.7579,-17.3926,268.0612],[-62.7566,-17.3839,267.2274],[-62.7498,-17.3769,267.6182],[-62.7391,-17.3772,265.0],[-62.735,-17.3754,265.2375],[-62.7321,-17.3675,265.1828],[-62.7317,-17.3585,264.2086],[-62.741,-17.3367,267.8461],[-62.738,-17.3277,266.0988],[-62.7452,-17.3217,266.9875],[-62.7475,-17.3182,267.4193],[-62.7478,-17.3137,266.5244],[-62.7406,-17.3057,261.0],[-62.7401,-17.2897,260.8379],[-62.7427,-17.2801,262.7311],[-62.7414,-17.2711,264.1689],[-62.7263,-17.2453,261.2504],[-62.7267,-17.2402,262.0373],[-62.7363,-17.2321,259.5338],[-62.7432,-17.2173,261.9431],[-62.7426,-17.2134,261.8716],[-62.7335,-17.207,259.872],[-62.7326,-17.2011,259.1241],[-62.7345,-17.1959,259.2126],[-62.7517,-17.1965,258.7441],[-62.7628,-17.1944,256.2867],[-62.7698,-17.1823,259.6495],[-62.7744,-17.1776,256.9169],[-62.7849,-17.1715,260.1674],[-62.7856,-17.1682,258.5883],[-62.7969,-17.1664,260.27],[-62.8044,-17.1523,256.0505],[-62.8118,-17.1448,257.3932],[-62.8175,-17.1417,254.0648],[-62.8623,-17.1327,253.4171],[-62.8674,-17.1282,248.3103],[-62.8789,-17.1238,252.9865],[-62.8833,-17.1189,247.0],[-62.8884,-17.116,253.0263],[-62.8927,-17.1174,251.6602],[-62.8981,-17.1271,250.0772],[-62.8996,-17.1277,250.0772],[-62.9072,-17.1201,249.9768],[-62.9116,-17.1183,249.5269],[-62.9211,-17.1182,252.5722],[-62.9217,-17.1091,247.0],[-62.9244,-17.1018,249.0887],[-62.9323,-17.0914,250.0303],[-62.9353,-17.09,246.375],[-62.9666,-17.0933,245.4954],[-62.9767,-17.0911,245.0989],[-62.9833,-17.0823,246.944],[-62.9914,-17.0808,248.808],[-62.993,-17.0774,248.9976],[-62.9871,-17.0678,248.0999],[-62.9871,-17.0579,243.1968],[-62.984,-17.0561,243.4277],[-62.9855,-17.0527,247.785],[-63.0358,-17.0992,243.4817],[-63.0392,-17.1044,247.5577],[-63.0192,-17.1338,246.8854],[-62.9889,-17.1499,250.6747],[-62.9839,-17.1508,255.5688],[-62.9812,-17.149,251.003],[-62.9762,-17.1541,252.3648],[-62.978,-17.1582,249.9902],[-62.9755,-17.1641,248.7745],[-62.9786,-17.1703,247.3187],[-62.9756,-17.1749,249.5751],[-62.979,-17.1845,254.4807],[-62.9734,-17.1896,254.0708],[-62.9716,-17.199,250.4921],[-62.9667,-17.2021,251.6421],[-62.9654,-17.2111,249.8895],[-62.9612,-17.2128,250.4563],[-62.9788,-17.2413,256.3256],[-62.9676,-17.2636,257.7447],[-62.9492,-17.259,254.8587],[-62.9451,-17.2616,255.4774],[-62.9444,-17.2601,255.3725],[-62.9403,-17.2594,255.0794],[-62.9381,-17.2653,258.9109],[-62.9329,-17.2648,256.3357],[-62.935,-17.2674,255.1919],[-62.9352,-17.2711,255.603],[-62.9316,-17.2729,255.1253],[-62.9326,-17.2748,255.4568],[-62.9303,-17.275,255.1936],[-62.9332,-17.2808,254.4439],[-62.9309,-17.2809,254.8562],[-62.9315,-17.2832,256.9495],[-62.9291,-17.2858,257.2272],[-62.9305,-17.2893,256.5374],[-62.926,-17.3042,258.4388],[-62.9284,-17.3073,257.0355],[-62.9227,-17.3208,262.6313],[-62.9236,-17.3247,260.9616],[-62.9221,-17.3265,259.8026],[-62.9244,-17.3319,260.6813],[-62.9214,-17.3358,260.6443],[-62.9233,-17.3395,260.9577],[-62.923,-17.343,261.9808],[-62.9271,-17.3467,268.6649],[-62.9301,-17.3466,264.7372],[-62.9341,-17.3508,265.2282],[-62.9341,-17.3553,267.7857],[-62.9386,-17.3647,275.1095],[-62.948,-17.3732,275.7347],[-62.953,-17.3815,276.8682],[-62.9571,-17.3842,280.2233],[-62.9582,-17.3886,281.3653],[-62.9552,-17.4014,279.3659],[-62.9564,-17.4072,287.0145],[-62.9485,-17.4195,281.396],[-62.9515,-17.4253,284.0281],[-62.9507,-17.4265,285.5373],[-62.9537,-17.4295,286.024],[-62.9507,-17.4304,285.5556],[-62.9515,-17.4327,284.7038],[-62.9499,-17.4337,284.7891],[-62.9391,-17.4328,284.0706],[-62.938,-17.4355,283.2215],[-62.9414,-17.4412,286.3863],[-62.9401,-17.4505,287.2718],[-62.9439,-17.4546,287.3842],[-62.9496,-17.4683,297.7395],[-62.9509,-17.5266,304.8873],[-62.9484,-17.5695,317.2665],[-62.9498,-17.5796,316.6858],[-62.9558,-17.586,319.882],[-62.9589,-17.5971,321.6133],[-62.9158,-17.5826,310.8857],[-62.903,-17.5837,307.7844],[-62.8493,-17.5397,291.7782],[-62.8415,-17.5376,289.2233],[-62.7902,-17.5322,274.5]]]]}}