{"type": "Feature","bbox": [-66.2724,-18.1753,-65.897,-17.8071],"geometry": {"type": "MultiPolygon","coordinates": [[[[-65.9908,-17.9246,2152.2458],[-65.9928,-17.918,2185.2529],[-66.0018,-17.9107,2162.5459],[-66.0066,-17.9003,2169.594],[-66.01,-17.8976,2171.3594],[-66.0133,-17.8889,2183.5188],[-66.0166,-17.8858,2180.1863],[-66.0169,-17.8752,2198.8774],[-66.0231,-17.874,2188.168],[-66.0257,-17.868,2185.8633],[-66.0254,-17.8636,2206.5291],[-66.0349,-17.8555,2196.0542],[-66.0356,-17.8506,2198.5249],[-66.0411,-17.8464,2211.5117],[-66.0439,-17.8388,2237.0669],[-66.0533,-17.8347,2231.5759],[-66.0594,-17.8273,2228.4312],[-66.0624,-17.8273,2236.2749],[-66.0776,-17.8187,2237.3896],[-66.0809,-17.8192,2241.7312],[-66.0827,-17.8138,2249.1265],[-66.0878,-17.8099,2243.9238],[-66.1005,-17.8071,2339.697],[-66.1042,-17.8155,2488.2441],[-66.1077,-17.8195,2638.7422],[-66.1099,-17.8271,2768.9951],[-66.1124,-17.8272,2763.7317],[-66.1145,-17.8362,2869.0818],[-66.1162,-17.8368,2927.5369],[-66.1156,-17.8424,2935.5249],[-66.1175,-17.8504,2977.6982],[-66.1157,-17.8535,3032.3467],[-66.1165,-17.8583,3051.2307],[-66.1339,-17.8781,3226.4104],[-66.1463,-17.8844,3247.3508],[-66.1586,-17.8993,3470.6936],[-66.1569,-17.9033,3435.7212],[-66.1594,-17.9034,3438.3337],[-66.1639,-17.907,3563.2593],[-66.1617,-17.9116,3586.6602],[-66.166,-17.9152,3490.8889],[-66.1654,-17.9256,3351.9204],[-66.1722,-17.928,3393.4646],[-66.1799,-17.9334,3597.6338],[-66.1903,-17.9305,3723.5098],[-66.197,-17.9262,3748.5327],[-66.2034,-17.9309,3722.1238],[-66.2099,-17.9319,3740.3989],[-66.2107,-17.9353,3649.2935],[-66.2161,-17.9352,3678.8352],[-66.2193,-17.9376,3725.0225],[-66.2192,-17.9414,3699.646],[-66.222,-17.9423,3758.0244],[-66.2233,-17.9493,3730.4111],[-66.226,-17.9526,3760.2532],[-66.2366,-17.9487,3922.582],[-66.2472,-17.9532,4071.6265],[-66.2496,-17.9374,4092.573],[-66.2517,-17.9343,4102.6943],[-66.2605,-17.9388,3847.9277],[-66.2662,-17.9461,3753.7163],[-66.2665,-17.9514,3771.8977],[-66.2716,-17.9536,3669.6045],[-66.2724,-17.9554,3680.9534],[-66.2615,-17.9741,3569.9775],[-66.2483,-17.9889,3511.4224],[-66.2472,-17.995,3506.0945],[-66.2486,-18.0,3475.45],[-66.2469,-18.0034,3457.4448],[-66.24,-18.0096,3461.0632],[-66.2345,-18.0122,3451.4536],[-66.2269,-18.0218,3455.9067],[-66.2261,-18.0273,3411.5789],[-66.221,-18.0284,3511.1633],[-66.2185,-18.0235,3425.03],[-66.2158,-18.0223,3409.3237],[-66.2099,-18.0246,3457.2524],[-66.2115,-18.0294,3427.8625],[-66.2082,-18.0309,3453.0735],[-66.2036,-18.0367,3463.7678],[-66.2021,-18.0445,3527.2246],[-66.2038,-18.0488,3523.1812],[-66.2024,-18.0504,3486.7654],[-66.2017,-18.0613,3629.7395],[-66.1869,-18.075,3707.6001],[-66.1859,-18.0803,3656.5251],[-66.1843,-18.0808,3656.5251],[-66.1804,-18.0774,3708.7354],[-66.1792,-18.0787,3678.9226],[-66.1713,-18.0775,3725.708],[-66.1697,-18.0809,3639.9504],[-66.1677,-18.0807,3634.8447],[-66.1628,-18.0764,3539.49],[-66.154,-18.0758,3422.9314],[-66.1529,-18.0729,3391.6245],[-66.1503,-18.0713,3389.9021],[-66.1506,-18.0695,3327.7292],[-66.1392,-18.0743,3649.8899],[-66.1308,-18.0875,3841.7917],[-66.1268,-18.0885,3768.9941],[-66.122,-18.093,3743.3611],[-66.1144,-18.0934,3679.4585],[-66.1117,-18.1009,3600.3992],[-66.1052,-18.1043,3489.2881],[-66.1008,-18.1032,3424.2229],[-66.0975,-18.0957,3368.252],[-66.0945,-18.0932,3340.3477],[-66.0892,-18.0936,3387.3625],[-66.079,-18.0981,3316.5288],[-66.0657,-18.1002,3429.5107],[-66.0643,-18.1017,3466.5994],[-66.0561,-18.0996,3242.687],[-66.0469,-18.1022,3256.2122],[-66.0452,-18.0962,3210.7898],[-66.0433,-18.1023,3261.9536],[-66.0407,-18.1051,3292.77],[-66.0357,-18.1068,3433.6646],[-66.0288,-18.1041,3666.8887],[-66.0259,-18.1078,3675.2612],[-66.0221,-18.1085,3761.5933],[-66.0132,-18.1211,3801.5708],[-66.0106,-18.1281,3803.9985],[-66.0041,-18.1326,3922.9963],[-65.9949,-18.1317,3967.0562],[-65.9955,-18.1383,3849.4338],[-65.9915,-18.1453,3889.4597],[-65.9837,-18.1506,3982.3635],[-65.9802,-18.1579,3925.3613],[-65.9551,-18.1642,3756.9729],[-65.9516,-18.1696,3506.7388],[-65.9463,-18.1734,3384.7573],[-65.9311,-18.1723,3208.8682],[-65.921,-18.1753,3113.6226],[-65.9153,-18.1678,3189.8843],[-65.9153,-18.1543,3241.9934],[-65.9064,-18.1385,3860.2473],[-65.8986,-18.1318,3695.5146],[-65.897,-18.1222,3499.4287],[-65.907,-18.118,3710.5198],[-65.926,-18.1049,3838.4966],[-65.9301,-18.1015,3729.3511],[-65.9305,-18.0977,3588.9189],[-65.9392,-18.092,3302.0168],[-65.9415,-18.0724,3381.9541],[-65.9469,-18.0621,3403.1843],[-65.9512,-18.06,3313.196],[-65.9551,-18.0556,3387.0647],[-65.9521,-18.0419,3163.6108],[-65.9458,-18.0357,3298.0886],[-65.9446,-18.0287,3244.2236],[-65.9426,-18.0264,3219.0007],[-65.9352,-18.0246,2955.3975],[-65.9312,-18.0089,2624.9417],[-65.9229,-17.994,2074.8027],[-65.9263,-17.9945,2075.6926],[-65.934,-17.9921,2099.7349],[-65.9344,-17.9838,2099.4429],[-65.9417,-17.9805,2141.4482],[-65.9431,-17.9774,2111.1055],[-65.9413,-17.9624,2217.9629],[-65.9431,-17.9602,2112.1296],[-65.9431,-17.9562,2142.2202],[-65.9487,-17.9548,2148.8196],[-65.9504,-17.9492,2114.5195],[-65.9565,-17.9467,2142.0146],[-65.9595,-17.947,2131.7676],[-65.9614,-17.9535,2144.8257],[-65.9676,-17.9516,2129.5176],[-65.9745,-17.9423,2144.7932],[-65.9844,-17.939,2139.3315],[-65.9886,-17.9352,2144.5044],[-65.9908,-17.9246,2152.2458]]]]}
,"properties": {"GID_2": "BOL.7.8_2","GID_0": "BOL","country": "Bolivia","GID_1": "BOL.7_1","province": "Potosí","NL_NAME_1": "NA","county": "GeneralBilbao","VARNAME_2": "NA","NL_NAME_2": "NA","TYPE_2": "Provincia","ENGTYPE_2": "Province","CC_2": "NA","HASC_2": "NA","name": "General_Bilbao.county","area_km2": 763.0374,"hist_schema_id": "Elevation0-9000","hist_area_km2": {"2075": 0.242,"2100": 0.7865,"2125": 1.2706,"2150": 2.0977,"2175": 4.196,"2200": 3.8534,"2225": 3.0867,"2250": 3.8131,"2275": 3.369,"2300": 3.2679,"2325": 3.0461,"2350": 3.5502,"2375": 3.2073,"2400": 3.8527,"2425": 4.0948,"2450": 4.3369,"2475": 4.2964,"2500": 5.0628,"2525": 5.4461,"2550": 5.6477,"2575": 5.8497,"2600": 6.0915,"2625": 6.5757,"2650": 6.616,"2675": 7.2613,"2700": 7.8059,"2725": 8.4916,"2750": 8.9152,"2775": 10.1456,"2800": 9.8429,"2825": 9.3387,"2850": 10.8515,"2875": 12.2832,"2900": 12.8678,"2925": 13.574,"2950": 15.0258,"2975": 17.1231,"3000": 18.4141,"3025": 18.3136,"3050": 19.0797,"3075": 21.8229,"3100": 26.584,"3125": 20.5505,"3150": 17.3823,"3175": 18.8131,"3200": 17.4418,"3225": 18.2271,"3250": 19.436,"3275": 19.5771,"3300": 19.738,"3325": 19.6166,"3350": 18.3057,"3375": 17.9221,"3400": 15.7852,"3425": 14.414,"3450": 12.6,"3475": 12.0351,"3500": 12.9624,"3525": 12.1764,"3550": 11.9139,"3575": 11.652,"3600": 12.0955,"3625": 11.2284,"3650": 11.4701,"3675": 10.2203,"3700": 9.2523,"3725": 8.1437,"3750": 7.5387,"3775": 6.6517,"3800": 6.6519,"3825": 6.067,"3850": 5.4019,"3875": 4.0915,"3900": 3.8298,"3925": 3.1043,"3950": 1.9756,"3975": 1.2701,"4000": 0.8065,"4025": 0.5445,"4050": 0.242,"4075": 0.3631,"4100": 0.1412}}}