{"type": "Feature","bbox": [-67.0016,-12.4903,-66.4987,-11.0873],"geometry": {"type": "MultiPolygon","coordinates": [[[[-66.8939,-12.0059,140.0],[-66.9019,-11.979,138.0],[-66.9059,-11.9529,140.2186],[-66.9084,-11.9505,137.0],[-66.9137,-11.9493,152.5975],[-66.9253,-11.9546,144.1719],[-66.93,-11.9503,137.0],[-66.9309,-11.9442,153.9047],[-66.9262,-11.9311,137.0],[-66.9295,-11.9205,137.0],[-66.9407,-11.9118,137.0],[-66.9497,-11.9096,140.0547],[-66.9538,-11.9112,145.4879],[-66.9574,-11.917,155.4152],[-66.9499,-11.9371,136.5],[-66.9523,-11.9401,136.5],[-66.9561,-11.9406,136.5],[-66.9694,-11.9289,136.5],[-66.9738,-11.9222,136.375],[-66.978,-11.914,136.0],[-66.9797,-11.9066,141.3186],[-66.9791,-11.9,141.8268],[-66.9759,-11.8959,151.078],[-66.9719,-11.8946,151.6955],[-66.9647,-11.8969,139.8904],[-66.9585,-11.8954,136.0],[-66.9565,-11.8932,147.0558],[-66.9555,-11.8802,136.0],[-66.9533,-11.8782,140.193],[-66.9414,-11.878,153.6134],[-66.9188,-11.8655,136.0],[-66.9037,-11.8626,136.0],[-66.8937,-11.8579,135.5],[-66.8567,-11.8226,139.9658],[-66.8564,-11.8172,134.5],[-66.8679,-11.8123,134.5],[-66.8713,-11.8091,134.0],[-66.8732,-11.8016,135.9474],[-66.871,-11.7926,135.9623],[-66.8718,-11.7886,135.5367],[-66.8772,-11.777,133.5],[-66.8804,-11.7739,133.5],[-66.8865,-11.7729,133.5],[-66.9096,-11.7811,133.5],[-66.9179,-11.7806,133.5],[-66.9188,-11.7767,133.0],[-66.9173,-11.7647,133.0],[-66.9105,-11.7471,133.0],[-66.9047,-11.7442,133.0],[-66.8796,-11.742,132.5],[-66.8702,-11.7429,134.0469],[-66.8665,-11.7451,132.5],[-66.8609,-11.7549,132.5],[-66.8521,-11.7629,132.0],[-66.8398,-11.7664,137.4267],[-66.8377,-11.7646,139.9995],[-66.8351,-11.7398,132.0],[-66.8291,-11.7126,131.5],[-66.8261,-11.7062,131.5],[-66.8167,-11.6973,131.5],[-66.8115,-11.6954,136.5666],[-66.7792,-11.6928,139.0597],[-66.7719,-11.6966,131.0],[-66.7711,-11.7019,143.1226],[-66.7741,-11.7134,131.0],[-66.7829,-11.7218,130.5],[-66.7936,-11.7272,130.5],[-66.7959,-11.7309,130.5],[-66.7941,-11.74,130.5],[-66.7907,-11.7427,130.5],[-66.7813,-11.745,130.5],[-66.7721,-11.7423,130.5],[-66.7649,-11.7361,130.5],[-66.7636,-11.7322,138.2885],[-66.7639,-11.7123,130.5],[-66.762,-11.7085,130.5],[-66.7254,-11.6906,130.0],[-66.7117,-11.6818,130.0],[-66.706,-11.6713,132.1344],[-66.7053,-11.6646,149.5141],[-66.7067,-11.6607,143.9199],[-66.7086,-11.6586,148.2488],[-66.7171,-11.6558,137.0433],[-66.7294,-11.658,130.0],[-66.7335,-11.6573,130.0],[-66.7358,-11.6548,130.0],[-66.7353,-11.6523,130.0],[-66.7295,-11.6485,130.0],[-66.727,-11.6449,130.0],[-66.7219,-11.6295,129.5],[-66.711,-11.618,140.9395],[-66.7128,-11.6105,139.5028],[-66.7205,-11.6067,137.9447],[-66.734,-11.6084,129.0],[-66.7609,-11.5942,130.8337],[-66.7628,-11.5913,131.0475],[-66.7624,-11.5878,128.5],[-66.7477,-11.5762,128.0],[-66.7133,-11.5637,128.0],[-66.6969,-11.5607,128.0],[-66.6778,-11.5654,148.0332],[-66.6758,-11.5617,148.9555],[-66.6754,-11.5548,127.75],[-66.6768,-11.5388,127.5],[-66.6864,-11.5122,129.3226],[-66.6959,-11.4972,126.0],[-66.7088,-11.4881,126.0],[-66.7196,-11.4862,126.0],[-66.7295,-11.4879,128.3135],[-66.734,-11.4842,126.0],[-66.7333,-11.4799,126.0],[-66.711,-11.4509,126.0],[-66.7053,-11.4465,126.0],[-66.695,-11.4429,127.2556],[-66.6892,-11.4434,126.0],[-66.6674,-11.4527,127.5544],[-66.6425,-11.4726,125.5],[-66.6395,-11.4733,125.5],[-66.6362,-11.4717,125.5],[-66.6339,-11.4673,125.5],[-66.6335,-11.455,125.5],[-66.639,-11.4273,125.0],[-66.6354,-11.4246,125.0],[-66.6316,-11.424,125.0],[-66.6029,-11.4295,125.0],[-66.5907,-11.4294,132.4272],[-66.5739,-11.4245,135.7955],[-66.5598,-11.4162,128.2587],[-66.5471,-11.4144,134.6465],[-66.5344,-11.4183,130.0694],[-66.5235,-11.4189,131.191],[-66.5151,-11.4223,130.2551],[-66.5109,-11.43,129.5598],[-66.5094,-11.44,129.6548],[-66.5054,-11.4431,129.8577],[-66.4987,-11.4423,127.4847],[-66.5016,-11.2536,161.7217],[-66.5016,-11.0873,122.5],[-66.5159,-11.1002,123.0],[-66.5222,-11.114,123.0],[-66.5336,-11.1256,137.8213],[-66.5417,-11.1376,132.6953],[-66.549,-11.1442,124.5],[-66.5799,-11.1636,125.5],[-66.5911,-11.1616,125.5],[-66.6009,-11.1536,126.0],[-66.6054,-11.146,126.0],[-66.6113,-11.1399,126.5],[-66.6207,-11.1335,126.5],[-66.6366,-11.1275,140.2677],[-66.6447,-11.1291,141.0904],[-66.6509,-11.1341,134.6359],[-66.6527,-11.1429,136.5087],[-66.6523,-11.1496,128.0],[-66.6468,-11.162,128.0],[-66.6374,-11.1727,129.3046],[-66.6373,-11.1834,128.0],[-66.6408,-11.1876,128.0],[-66.6525,-11.1913,129.4699],[-66.67,-11.1848,129.5707],[-66.6844,-11.186,130.4492],[-66.6978,-11.1951,131.923],[-66.7211,-11.2238,133.1206],[-66.7248,-11.2259,129.0],[-66.7294,-11.2258,129.0],[-66.7331,-11.2218,129.0],[-66.7369,-11.2063,129.5],[-66.7424,-11.1987,129.5],[-66.751,-11.1911,129.5],[-66.7712,-11.1806,130.0],[-66.7913,-11.1675,130.0],[-66.8039,-11.1653,130.0],[-66.8087,-11.1669,130.0],[-66.8118,-11.1702,130.0],[-66.8131,-11.1761,130.0],[-66.808,-11.1891,130.0],[-66.7994,-11.1972,130.5],[-66.7941,-11.2092,130.5],[-66.7941,-11.2339,143.7188],[-66.795,-11.2438,130.5],[-66.7981,-11.253,130.5],[-66.8059,-11.267,130.5],[-66.8128,-11.2732,131.772],[-66.8339,-11.285,131.0],[-66.846,-11.2988,131.0],[-66.852,-11.3019,131.0],[-66.8632,-11.302,131.0],[-66.8687,-11.2994,131.0],[-66.8724,-11.2946,131.0],[-66.8787,-11.2853,131.0],[-66.8932,-11.2566,131.5],[-66.9018,-11.2469,131.5],[-66.9152,-11.2393,131.5],[-66.9224,-11.238,131.5],[-66.9375,-11.2406,131.5],[-66.9438,-11.2436,131.5],[-66.9486,-11.2487,132.0],[-66.951,-11.2583,132.0],[-66.9439,-11.2798,132.0],[-66.9444,-11.2889,132.0],[-66.9508,-11.308,132.0],[-66.9592,-11.3192,132.0],[-66.9812,-11.3377,132.5],[-67.0016,-11.3359,135.3129],[-67.0016,-12.4003,148.7068],[-67.0004,-12.401,148.8239],[-67.0003,-12.4699,150.7008],[-66.9673,-12.4903,141.0],[-66.9679,-12.4865,141.0],[-66.9643,-12.4809,145.2948],[-66.9526,-12.4751,141.0],[-66.9366,-12.4756,141.0],[-66.9327,-12.4722,141.0],[-66.9352,-12.4655,144.4993],[-66.9653,-12.4296,140.5],[-66.9692,-12.4233,140.5],[-66.9698,-12.4186,140.5],[-66.9385,-12.3987,140.5],[-66.9193,-12.3784,140.5],[-66.9129,-12.3756,140.5],[-66.8995,-12.3732,144.3929],[-66.8972,-12.3685,141.1532],[-66.9,-12.3517,140.5],[-66.9066,-12.342,140.5],[-66.9202,-12.3339,140.5],[-66.9371,-12.3317,140.5],[-66.946,-12.3276,140.5],[-66.9489,-12.3094,140.5],[-66.9482,-12.3023,140.5],[-66.9456,-12.2974,153.6427],[-66.9093,-12.2847,140.5],[-66.8967,-12.2627,143.0529],[-66.8885,-12.2541,141.2843],[-66.8861,-12.247,140.0],[-66.8858,-12.2147,140.0],[-66.8892,-12.2,140.0],[-66.8971,-12.1903,140.0],[-66.9181,-12.1861,140.0],[-66.9206,-12.1844,140.0],[-66.9253,-12.1649,140.0],[-66.9247,-12.1579,140.0],[-66.922,-12.1534,140.0],[-66.8761,-12.1135,140.0],[-66.8731,-12.1079,140.0],[-66.8766,-12.0953,140.0],[-66.8843,-12.076599999999999,140.0],[-66.8886,-12.0581,140.0],[-66.8953,-12.0548,143.9178],[-66.9086,-12.0569,143.6611],[-66.9107,-12.0525,140.0],[-66.91,-12.0473,140.0],[-66.8952,-12.0143,140.0],[-66.8939,-12.0059,140.0]]]]}
,"properties": {"GID_3": "BOL.6.3.2_2","GID_0": "BOL","country": "Bolivia","GID_1": "BOL.6_1","province": "Pando","NL_NAME_1": "NA","GID_2": "BOL.6.3_2","county": "MadredeDios","NL_NAME_2": "NA","city": "SanLorenzo","VARNAME_3": "NA","NL_NAME_3": "NA","TYPE_3": "District","ENGTYPE_3": "Distrito","CC_3": "NA","HASC_3": "NA","name": "San_Lorenzo.city","area_km2": 3167.541,"hist_schema_id": "Elevation0-9000","hist_area_km2": {"125": 173.537,"150": 990.987,"175": 1844.65,"200": 158.366}}}