{"type":"Feature","properties":{"GID_3":"BOL.2.12.2_2","GID_0":"BOL","country":"Bolivia","GID_1":"BOL.2_1","province":"Cochabamba","NL_NAME_1":"NA","GID_2":"BOL.2.12_2","county":"Mizque","NL_NAME_2":"NA","city":"Mizque","VARNAME_3":"NA","NL_NAME_3":"NA","TYPE_3":"District","ENGTYPE_3":"Distrito","CC_3":"NA","HASC_3":"NA","name":"Mizque.city"},
"geometry":{"type": "MultiPolygon","coordinates": [[[[-65.2164,-17.9238,1882.0654],[-65.2335,-17.9189,1899.9042],[-65.2353,-17.9108,2145.4556],[-65.2378,-17.9076,2257.0542],[-65.2418,-17.9061,2285.3755],[-65.2471,-17.8981,2283.335],[-65.257,-17.8946,2347.9976],[-65.2643,-17.8939,2416.2256],[-65.2678,-17.8895,2443.6506],[-65.2713,-17.8878,2496.8193],[-65.2716,-17.8843,2464.845],[-65.2801,-17.8734,2561.6184],[-65.2832,-17.8702,2490.6016],[-65.2883,-17.8688,2484.3955],[-65.2894,-17.8619,2552.4871],[-65.2922,-17.859,2501.5598],[-65.2949,-17.8587,2506.9756],[-65.3041,-17.8375,2377.9551],[-65.3122,-17.8252,2442.5212],[-65.3112,-17.8134,2226.2478],[-65.3073,-17.8081,2089.7295],[-65.3185,-17.7896,2120.1663],[-65.3254,-17.7867,2128.6235],[-65.3286,-17.788,2152.4902],[-65.3384,-17.784,2157.8418],[-65.3552,-17.784,2184.8074],[-65.3573,-17.7828,2182.8438],[-65.3649,-17.7915,2369.0449],[-65.3821,-17.7896,2514.8945],[-65.3905,-17.7823,2439.7288],[-65.4098,-17.7854,2519.4121],[-65.4188,-17.7798,2632.9338],[-65.4265,-17.7778,2713.948],[-65.4408,-17.7789,2787.4922],[-65.4452,-17.7755,2933.5991],[-65.4555,-17.7753,3017.7798],[-65.4562,-17.774,3042.6982],[-65.4594,-17.7765,3044.6367],[-65.4637,-17.7738,3076.9939],[-65.4715,-17.7722,3091.2041],[-65.4741,-17.7694,3123.3926],[-65.4841,-17.7718,3232.0217],[-65.4899,-17.7789,3317.9375],[-65.4968,-17.774,3429.7871],[-65.5016,-17.7624,3802.3667],[-65.5184,-17.7691,3483.9795],[-65.5257,-17.7745,3224.2983],[-65.5396,-17.7805,3578.3516],[-65.5407,-17.7846,3422.0693],[-65.5591,-17.793,3120.0151],[-65.5552,-17.8098,3109.0181],[-65.5529,-17.8091,3057.083],[-65.5485,-17.8123,3021.9187],[-65.5493,-17.8253,3208.8135],[-65.5428,-17.8324,3277.856],[-65.5376,-17.8479,3458.1746],[-65.5394,-17.8509,3562.0205],[-65.5587,-17.8645,3309.0942],[-65.5627,-17.8732,3153.1348],[-65.5724,-17.876,2908.5647],[-65.5816,-17.8845,3165.9749],[-65.5839,-17.8844,3181.7083],[-65.583,-17.8904,3229.2998],[-65.5858,-17.8931,3335.2798],[-65.5841,-17.8973,3366.4656],[-65.5801,-17.9009,3309.1548],[-65.578,-17.9002,3281.6982],[-65.5695,-17.9056,3241.6025],[-65.569,-17.9077,3256.3892],[-65.5727,-17.9126,3277.9058],[-65.5728,-17.9181,3230.8025],[-65.57,-17.9197,3207.2178],[-65.5695,-17.9219,3201.7332],[-65.5644,-17.9244,3180.1448],[-65.5649,-17.9288,3144.6716],[-65.5627,-17.9363,3170.688],[-65.548,-17.9504,3164.1218],[-65.5471,-17.9634,3039.469],[-65.5404,-17.9805,2901.9976],[-65.543,-17.9851,2810.717],[-65.5432,-17.9905,2767.2808],[-65.5468,-17.9968,2848.9717],[-65.5399,-17.9998,2859.8037],[-65.5364,-18.0055,2812.647],[-65.5341,-18.0063,2767.5649],[-65.5354,-18.0112,2741.5229],[-65.5349,-18.0223,2744.585],[-65.5274,-18.0277,2690.4688],[-65.5298,-18.0319,2679.9055],[-65.5387,-18.0375,2513.7559],[-65.542,-18.0455,2385.0483],[-65.5412,-18.047,2368.8093],[-65.5524,-18.0533,2522.9111],[-65.5548,-18.0574,2630.7065],[-65.568,-18.0599,2657.071],[-65.5632,-18.0663,2649.519],[-65.5611,-18.074,2504.3311],[-65.5656,-18.0777,2499.1086],[-65.571,-18.0776,2528.7053],[-65.5737,-18.0835,2562.9141],[-65.5724,-18.0871,2585.2107],[-65.5778,-18.0921,2665.1802],[-65.5877,-18.0929,2920.2334],[-65.5877,-18.0893,2924.2622],[-65.5942,-18.0818,2930.4688],[-65.5963,-18.0811,2939.8081],[-65.5992,-18.083,3004.5476],[-65.6043,-18.0818,3055.9507],[-65.61,-18.0749,3091.9109],[-65.6131,-18.0749,3133.5798],[-65.612,-18.0788,3091.0359],[-65.6141,-18.0871,2648.9712],[-65.6225,-18.0969,2882.1072],[-65.6218,-18.1056,2482.6409],[-65.6195,-18.1081,2605.1394],[-65.6238,-18.1113,2406.9666],[-65.6213,-18.1165,2558.6987],[-65.6331,-18.1228,2413.2556],[-65.6479,-18.1221,2336.9739],[-65.6524,-18.1244,2445.1501],[-65.6549,-18.1225,2486.459],[-65.6662,-18.1263,1886.1074],[-65.6612,-18.1316,1891.6643],[-65.6542,-18.1335,1898.0625],[-65.6506,-18.1391,1947.2206],[-65.6455,-18.1389,1880.9197],[-65.6409,-18.1366,1867.458],[-65.638,-18.1374,1865.1315],[-65.6392,-18.1422,1869.1184],[-65.6336,-18.1463,1871.5035],[-65.6322,-18.1521,1897.2158],[-65.6226,-18.157,1904.1222],[-65.6142,-18.1657,2008.147],[-65.6126,-18.1696,1872.199],[-65.6042,-18.1759,1891.7991],[-65.6031,-18.185,1852.2755],[-65.6001,-18.1879,1841.0876],[-65.5967,-18.2036,1824.3284],[-65.594,-18.2036,1824.3665],[-65.5937,-18.2058,1823.8125],[-65.5916,-18.2072,1821.4663],[-65.5846,-18.2079,1824.2145],[-65.5839,-18.2143,1870.7859],[-65.5789,-18.2156,1888.4664],[-65.5748,-18.2213,1879.1328],[-65.5716,-18.2225,1889.6047],[-65.5648,-18.2342,1924.8199],[-65.5613,-18.2342,1914.7911],[-65.5543,-18.2382,1896.2004],[-65.5495,-18.2376,1830.2416],[-65.5441,-18.2464,1798.1808],[-65.5389,-18.2453,1819.754],[-65.5355,-18.2467,1874.0958],[-65.5338,-18.2423,1823.3098],[-65.5268,-18.2454,1837.7555],[-65.5223,-18.2533,1824.6453],[-65.5154,-18.2522,1793.4277],[-65.5023,-18.2573,1768.9542],[-65.5012,-18.2689,1769.3945],[-65.4931,-18.2783,1832.5299],[-65.4883,-18.2916,1779.0781],[-65.4839,-18.2961,1759.8746],[-65.4785,-18.2932,1749.8292],[-65.4771,-18.2944,1739.026],[-65.4796,-18.2977,1756.9258],[-65.4792,-18.3019,1742.6536],[-65.4729,-18.3047,1731.5],[-65.4756,-18.3102,1733.2495],[-65.475,-18.3147,1725.2544],[-65.4713,-18.3253,1719.8892],[-65.4634,-18.3341,1714.0693],[-65.4635,-18.3411,1710.02],[-65.4575,-18.3453,1728.1353],[-65.4555,-18.3497,1717.7968],[-65.4486,-18.3539,1718.8066],[-65.447,-18.3575,1703.0167],[-65.4412,-18.3604,1768.9717],[-65.4394,-18.3651,1722.4659],[-65.4293,-18.3686,1696.4351],[-65.4201,-18.3625,1705.6411],[-65.4044,-18.3673,1693.5273],[-65.3789,-18.3877,1704.0751],[-65.3736,-18.394,1684.6005],[-65.3684,-18.3962,1706.2804],[-65.3626,-18.4011,1657.3796],[-65.3549,-18.4054,1661.5422],[-65.3453,-18.396,1845.7179],[-65.3427,-18.3863,1950.1086],[-65.3409,-18.3863,1975.2357],[-65.3394,-18.3841,1978.3142],[-65.3406,-18.3794,2251.4644],[-65.3382,-18.3778,2097.4016],[-65.3395,-18.3735,2215.9956],[-65.3391,-18.3616,2539.6152],[-65.3285,-18.3488,3169.0728],[-65.3276,-18.3412,3206.4944],[-65.323,-18.336,3242.2319],[-65.3142,-18.3376,3418.1494],[-65.312,-18.3363,3438.2324],[-65.3147,-18.2982,3173.5415],[-65.3229,-18.2883,3130.9917],[-65.3223,-18.2836,3093.1387],[-65.3255,-18.2791,3014.0276],[-65.3312,-18.2777,3097.0107],[-65.3373,-18.2723,3046.2397],[-65.333,-18.2648,2872.0342],[-65.3327,-18.2604,2630.4126],[-65.3285,-18.2578,2544.1282],[-65.3299,-18.2565,2544.1282],[-65.3295,-18.2516,2446.9934],[-65.3274,-18.2511,2428.594],[-65.3245,-18.2473,2414.5049],[-65.3065,-18.2494,2746.4114],[-65.3019,-18.2356,2735.3394],[-65.303,-18.2331,2768.3101],[-65.2989,-18.2193,2554.9243],[-65.3025,-18.2155,2553.9409],[-65.3025,-18.211,2602.5203],[-65.3091,-18.2032,2668.6582],[-65.3071,-18.1985,2758.8535],[-65.3076,-18.1927,2837.3467],[-65.3038,-18.1876,2735.2551],[-65.3068,-18.1828,2805.5918],[-65.3049,-18.1805,2845.1528],[-65.2942,-18.1791,2619.4128],[-65.2947,-18.1735,2588.2705],[-65.2921,-18.1682,2753.3386],[-65.298,-18.1544,2631.4482],[-65.3054,-18.1444,2838.9551],[-65.2995,-18.1388,2762.8928],[-65.2993,-18.1347,2711.7197],[-65.2974,-18.1336,2662.175],[-65.2974,-18.1269,2515.7285],[-65.2879,-18.1205,2366.3152],[-65.2824,-18.1188,2338.5635],[-65.2743,-18.1227,2314.9895],[-65.2655,-18.1212,2287.8306],[-65.2646,-18.1176,2278.2258],[-65.2659,-18.1134,2276.6362],[-65.2626,-18.1062,2249.6143],[-65.2611,-18.093,2231.9189],[-65.2542,-18.0896,2268.9058],[-65.239,-18.0915,2439.1262],[-65.2211,-18.0885,2537.676],[-65.2222,-18.0803,2630.0251],[-65.232,-18.0615,2615.8945],[-65.2281,-18.0551,2666.9624],[-65.229,-18.0508,2605.0935],[-65.2346,-18.0494,2610.2886],[-65.2378,-18.0439,2546.665],[-65.2385,-18.0355,2546.1689],[-65.245,-18.0274,2639.6479],[-65.2513,-18.0239,2594.2886],[-65.2572,-18.0269,2499.1299],[-65.2605,-18.0182,2408.1826],[-65.2508,-18.0004,2604.5823],[-65.2507,-17.9971,2564.0825],[-65.2571,-17.9851,2699.3213],[-65.2579,-17.9796,2802.8918],[-65.2532,-17.9767,2723.3574],[-65.244,-17.9744,2512.4756],[-65.2335,-17.9768,2438.292],[-65.2283,-17.9754,2479.999],[-65.2242,-17.9765,2456.1389],[-65.2238,-17.9706,2394.7947],[-65.2258,-17.9666,2438.0371],[-65.2262,-17.9585,2485.3828],[-65.2351,-17.9565,2339.2578],[-65.2398,-17.9507,2129.3228],[-65.2376,-17.9468,2109.519],[-65.2344,-17.9466,2112.1675],[-65.2344,-17.9438,2143.0459],[-65.2324,-17.9426,2075.6812],[-65.233,-17.9395,2088.0645],[-65.2257,-17.933,2000.4307],[-65.2248,-17.9292,1973.9371],[-65.2203,-17.9251,1892.1748],[-65.2164,-17.9238,1882.0654]]]]}}