{"type":"Feature","properties":{"GID_3":"BOL.2.13.3_2","GID_0":"BOL","country":"Bolivia","GID_1":"BOL.2_1","province":"Cochabamba","NL_NAME_1":"NA","GID_2":"BOL.2.13_2","county":"Punata","NL_NAME_2":"NA","city":"Tacachi","VARNAME_3":"NA","NL_NAME_3":"NA","TYPE_3":"District","ENGTYPE_3":"Distrito","CC_3":"NA","HASC_3":"NA","name":"Tacachi.city"},
"geometry":{"type": "MultiPolygon","coordinates": [[[[-65.7934,-17.6109,2956.2764],[-65.799,-17.616,2851.6155],[-65.8069,-17.6275,2846.5132],[-65.8062,-17.6327,2771.9553],[-65.8076,-17.6359,2782.7595],[-65.806,-17.6384,2792.8862],[-65.8136,-17.641,2784.3464],[-65.8165,-17.6392,2771.8811],[-65.8191,-17.6415,2783.646],[-65.8236,-17.6583,2937.7798],[-65.8228,-17.6662,3211.2041],[-65.8182,-17.6678,3179.8115],[-65.8143,-17.6655,3125.2588],[-65.8102,-17.6572,2879.1274],[-65.8089,-17.6493,2823.6392],[-65.7929,-17.6452,2854.6069],[-65.7564,-17.6497,3250.5808],[-65.7495,-17.6484,3250.8667],[-65.7448,-17.6455,3375.9614],[-65.756,-17.6359,3404.9866],[-65.7934,-17.6109,2956.2764]]]]}}