{"type":"Feature","properties":{"GID_3":"BOL.2.13.4_2","GID_0":"BOL","country":"Bolivia","GID_1":"BOL.2_1","province":"Cochabamba","NL_NAME_1":"NA","GID_2":"BOL.2.13_2","county":"Punata","NL_NAME_2":"NA","city":"VillaGualbertoVillarroel","VARNAME_3":"NA","NL_NAME_3":"NA","TYPE_3":"District","ENGTYPE_3":"Distrito","CC_3":"NA","HASC_3":"NA","name":"Villa_Gualberto_Villarroel.city"},
"geometry":{"type": "MultiPolygon","coordinates": [[[[-65.7448,-17.6455,3375.9614],[-65.7495,-17.6484,3250.8667],[-65.7564,-17.6497,3250.5808],[-65.7929,-17.6452,2854.6069],[-65.8089,-17.6493,2823.6392],[-65.8102,-17.6572,2879.1274],[-65.8143,-17.6655,3125.2588],[-65.8182,-17.6678,3179.8115],[-65.8228,-17.6662,3211.2041],[-65.8283,-17.6748,3031.0366],[-65.8326,-17.6778,3016.5488],[-65.8343,-17.6863,2983.79],[-65.833,-17.6899,2997.2209],[-65.8249,-17.6923,3232.3018],[-65.8226,-17.6917,3210.448],[-65.8157,-17.6951,3190.0054],[-65.8092,-17.6878,3272.0447],[-65.8061,-17.688,3303.4714],[-65.8047,-17.6889,3300.3716],[-65.8045,-17.6953,3284.6436],[-65.7988,-17.6973,3220.4346],[-65.7974,-17.7014,3132.3689],[-65.7936,-17.7019,3143.3223],[-65.789,-17.6999,3183.554],[-65.7843,-17.7049,3222.0188],[-65.7763,-17.7084,3382.094],[-65.7788,-17.7165,3357.1306],[-65.7775,-17.7179,3357.1306],[-65.7772,-17.7269,3382.5312],[-65.7742,-17.734,3472.2119],[-65.7711,-17.7358,3494.4414],[-65.7691,-17.74,3535.7556],[-65.7668,-17.7405,3528.2908],[-65.7658,-17.7442,3553.6006],[-65.7591,-17.7418,3586.7019],[-65.7552,-17.7441,3603.1689],[-65.7432,-17.7464,3835.0171],[-65.7348,-17.7388,3750.9119],[-65.7331,-17.7356,3791.209],[-65.7265,-17.7383,3736.2864],[-65.7165,-17.7358,3410.208],[-65.7199,-17.7315,3431.8545],[-65.7227,-17.718,3472.532],[-65.7342,-17.7131,3548.8528],[-65.7441,-17.7041,3568.4595],[-65.7479,-17.7035,3578.1074],[-65.7393,-17.6795,3499.4646],[-65.7342,-17.6732,3363.3171],[-65.7347,-17.6672,3476.8005],[-65.7448,-17.6455,3375.9614]]]]}}