{"type":"Feature","properties":{"GID_3":"BOL.4.5.4_2","GID_0":"BOL","country":"Bolivia","GID_1":"BOL.4_1","province":"LaPaz","NL_NAME_1":"NA","GID_2":"BOL.4.5_2","county":"Camacho","NL_NAME_2":"NA","city":"Mocomoco","VARNAME_3":"NA","NL_NAME_3":"NA","TYPE_3":"District","ENGTYPE_3":"Distrito","CC_3":"NA","HASC_3":"NA","name":"Mocomoco.city"},
"geometry":{"type": "MultiPolygon","coordinates": [[[[-69.1199,-15.2594,4243.9604],[-69.1215,-15.2603,4251.7124],[-69.132,-15.2584,4264.4873],[-69.1365,-15.255,4275.1685],[-69.148,-15.2636,4303.6455],[-69.1524,-15.269,4320.3555],[-69.157,-15.2683,4355.7246],[-69.1638,-15.2514,4586.4746],[-69.176,-15.2615,4613.4629],[-69.1807,-15.2772,4615.0845],[-69.1921,-15.2957,4608.5225],[-69.1477,-15.3217,4566.7129],[-69.1405,-15.3244,4596.5303],[-69.1325,-15.3336,4503.9707],[-69.1345,-15.3363,4506.3604],[-69.1319,-15.3512,4422.5469],[-69.1215,-15.3645,4284.3853],[-69.1239,-15.3791,4329.2588],[-69.1133,-15.3806,4307.3496],[-69.108,-15.3983,4269.668],[-69.1106,-15.4103,4242.7969],[-69.0938,-15.42,4268.1641],[-69.0794,-15.4335,4297.2686],[-69.0779,-15.4466,4148.6948],[-69.0796,-15.4699,4143.8652],[-69.0766,-15.4758,4113.7095],[-69.0712,-15.481,3888.7534],[-69.0736,-15.4872,4090.0701],[-69.1034,-15.5315,3848.6489],[-69.0979,-15.534,3846.948],[-69.0984,-15.5359,3854.9395],[-69.0942,-15.5373,3844.9583],[-69.0944,-15.5395,3844.7534],[-69.0915,-15.5391,3844.5029],[-69.091,-15.5427,3843.7607],[-69.0875,-15.5431,3900.1614],[-69.088,-15.5466,3843.0742],[-69.0933,-15.5472,3955.0134],[-69.1048,-15.5587,4020.9194],[-69.1017,-15.5633,3988.3408],[-69.1115,-15.5821,4187.4629],[-69.092,-15.5947,4140.9072],[-69.0958,-15.6095,4090.7197],[-69.1071,-15.6098,3909.4417],[-69.1065,-15.6137,3865.7966],[-69.1,-15.6179,3859.3608],[-69.0974,-15.6218,3899.6553],[-69.0982,-15.6231,3840.3359],[-69.0931,-15.6261,4039.7415],[-69.0936,-15.634,3814.5725],[-69.068,-15.6546,4145.1152],[-69.047,-15.6677,4331.166],[-69.0229,-15.6668,4468.0957],[-69.0054,-15.6625,4247.5283],[-68.9909,-15.6612,3676.1851],[-68.992,-15.6527,3614.5969],[-68.987,-15.6469,3586.3499],[-68.986,-15.6416,3507.2097],[-68.9816,-15.6349,3444.2437],[-68.9825,-15.6308,3375.1792],[-68.9811,-15.6293,3405.8564],[-68.9858,-15.6247,3367.6584],[-68.9862,-15.6173,3248.981],[-68.9887,-15.6107,3196.2568],[-68.9854,-15.6036,3159.7288],[-68.9859,-15.5943,3107.9443],[-68.9805,-15.5886,3126.4043],[-68.981,-15.5844,3020.3765],[-68.9906,-15.5686,2891.9253],[-68.9902,-15.5664,2882.3604],[-68.9773,-15.5575,2734.5042],[-68.9754,-15.553,2692.5386],[-68.9637,-15.5437,2569.6926],[-68.9615,-15.5401,2554.9902],[-68.9607,-15.5324,2554.9263],[-68.9653,-15.5239,2430.0981],[-68.9661,-15.518,2401.3342],[-68.9625,-15.5061,2382.4202],[-68.9572,-15.504,2301.312],[-68.9519,-15.5077,2315.1946],[-68.9475,-15.5071,2250.7905],[-68.9426,-15.5031,2207.2222],[-68.9377,-15.5022,2178.3042],[-68.9486,-15.497,2381.249],[-68.9505,-15.4911,2341.594],[-68.9549,-15.489,2403.6719],[-68.9652,-15.4702,2425.2773],[-68.954,-15.4514,3217.5996],[-68.9382,-15.443,3430.3477],[-68.9293,-15.4462,3211.6152],[-68.9286,-15.4254,3434.1555],[-68.912,-15.4096,3887.3857],[-68.9141,-15.3862,4338.6904],[-68.9202,-15.3752,4709.8032],[-68.9142,-15.3579,4677.3306],[-68.9409,-15.3377,4904.1553],[-68.9494,-15.3291,4621.8618],[-68.9645,-15.3085,4819.4717],[-68.9699,-15.3143,4642.5078],[-68.983,-15.3143,5005.3008],[-69.0042,-15.3177,4703.665],[-69.011,-15.3165,4680.8716],[-69.0328,-15.3228,4548.4688],[-69.0427,-15.3136,4279.1343],[-69.047,-15.3144,4236.3623],[-69.0492,-15.3132,4217.394],[-69.0552,-15.3174,4170.2637],[-69.0587,-15.317,4154.7002],[-69.0611,-15.3191,4116.126],[-69.0641,-15.3163,4140.8335],[-69.0668,-15.3092,4132.4023],[-69.0652,-15.3079,4131.5352],[-69.066,-15.3047,4135.7983],[-69.0646,-15.2988,4155.395],[-69.0694,-15.2975,4148.0156],[-69.0853,-15.3024,4165.7578],[-69.0888,-15.3017,4168.8496],[-69.0905,-15.2939,4176.9395],[-69.0988,-15.2905,4204.4795],[-69.1017,-15.2853,4216.1172],[-69.1005,-15.2802,4215.5708],[-69.1012,-15.2721,4217.8745],[-69.1103,-15.2646,4241.001],[-69.1111,-15.2621,4242.7354],[-69.1199,-15.2594,4243.9604]]]]}}