{"type": "Feature","bbox": [-68.2045,-20.7201,-67.5713,-19.6206],"geometry": {"type": "MultiPolygon","coordinates": [[[[-68.0358,-19.6206,4901.5845],[-68.1488,-19.6776,3935.3643],[-68.0918,-19.7084,3796.6853],[-68.0439,-19.7676,3653.5],[-68.0191,-19.821,3653.5],[-68.0015,-20.126,3653.5],[-67.933,-20.1755,3653.5],[-68.149,-20.5377,3653.5],[-68.165,-20.5695,3655.7925],[-68.2045,-20.6037,3666.2681],[-68.1885,-20.6081,3685.4165],[-68.1817,-20.611,3708.5332],[-68.1804,-20.6139,3716.7585],[-68.1774,-20.6132,3733.1414],[-68.1686,-20.6167,3797.1018],[-68.1543,-20.625,4019.7556],[-68.1467,-20.6323,4215.9668],[-68.1216,-20.6418,5266.3804],[-67.9888,-20.7201,3670.8357],[-67.8581,-20.5153,3654.2793],[-67.8625,-20.514,3654.25],[-67.8644,-20.5102,3654.1958],[-67.5831,-19.8946,3653.7515],[-67.5766,-19.8884,3653.8323],[-67.5713,-19.8867,3653.7332],[-67.573,-19.8813,3656.635],[-67.5809,-19.8746,3683.3804],[-67.5991,-19.8716,3909.1155],[-67.6048,-19.8644,4109.9365],[-67.6147,-19.8603,4197.208],[-67.6352,-19.8465,4785.458],[-67.6462,-19.8421,5107.5322],[-67.6644,-19.8386,4692.5557],[-67.6775,-19.8305,4437.1958],[-67.7145,-19.812,3783.8469],[-67.7205,-19.8267,3747.3652],[-67.7299,-19.8284,3728.6616],[-67.7353,-19.8316,3726.2046],[-67.7382,-19.8303,3727.7422],[-67.7384,-19.826,3733.9333],[-67.7435,-19.8229,3740.7153],[-67.7519,-19.8132,3685.5161],[-67.7603,-19.8123,3680.9216],[-67.7582,-19.8092,3714.519],[-67.7586,-19.8059,3714.6599],[-67.7859,-19.808,3790.4961],[-67.803,-19.8111,3778.2236],[-67.8217,-19.8096,3814.5125],[-67.8456,-19.7965,3815.0933],[-67.8605,-19.7725,3896.0295],[-67.8764,-19.7619,3672.2219],[-67.8994,-19.7571,3787.0327],[-67.9144,-19.7431,3981.8623],[-67.9353,-19.7338,4191.5771],[-67.9595,-19.7294,4197.665],[-67.9597,-19.7262,4165.3418],[-67.9714,-19.7079,4346.4966],[-67.9895,-19.687,3933.1313],[-68.0319,-19.6223,4978.0234],[-68.0358,-19.6206,4901.5845]]]]}
,"properties": {"GID_3": "BOL.7.6.2_2","GID_0": "BOL","country": "Bolivia","GID_1": "BOL.7_1","province": "Potosí","NL_NAME_1": "NA","GID_2": "BOL.7.6_2","county": "DanielCampos","NL_NAME_2": "NA","city": "Tahua","VARNAME_3": "NA","NL_NAME_3": "NA","TYPE_3": "District","ENGTYPE_3": "Distrito","CC_3": "NA","HASC_3": "NA","name": "Tahua.city","area_km2": 3251.106,"hist_schema_id": "Elevation0-9000","hist_area_km2": {"3650": 2428.099,"3675": 182.163,"3700": 100.574,"3725": 72.501,"3750": 65.337,"3775": 55.808,"3800": 45.472,"3825": 33.094,"3850": 26.439,"3875": 23.249,"3900": 21.274,"3925": 18.866,"3950": 19.259,"3975": 15.298,"4000": 14.244,"4025": 12.061,"4050": 10.647,"4075": 9.054,"4100": 7.164,"4125": 6.707,"4150": 6.169,"4175": 5.792,"4200": 4.639,"4225": 4.259,"4250": 3.622,"4275": 3.743,"4300": 3.563,"4325": 3.584,"4350": 3.285,"4375": 3.346,"4400": 2.886,"4425": 2.788,"4450": 3.127,"4475": 3.166,"4500": 2.349,"4525": 2.529,"4550": 2.349,"4575": 1.691,"4600": 2.189,"4625": 1.931,"4650": 1.711,"4675": 1.432,"4700": 1.412,"4725": 0.975,"4750": 1.073,"4775": 0.954,"4800": 0.835,"4825": 0.716,"4850": 0.696,"4875": 0.636,"4900": 0.716,"4925": 0.636,"4950": 0.417,"4975": 0.516,"5000": 0.437,"5025": 0.397,"5050": 0.298,"5075": 0.377,"5100": 0.318,"5125": 0.159,"5150": 0.238,"5175": 0.238,"5200": 0.278,"5225": 0.377,"5250": 0.179,"5275": 0.198,"5300": 0.238,"5325": 0.179,"5350": 0.119,"5375": 0.04}}}