{"type": "Feature","bbox": [-66.1506,-18.1753,-65.897,-17.923],"geometry": {"type": "MultiPolygon","coordinates": [[[[-65.9914,-17.923,2152.3979],[-66.0035,-17.9259,2191.6372],[-66.0228,-17.9398,2251.6509],[-66.0239,-17.9423,2279.416],[-66.0264,-17.9421,2320.4597],[-66.0272,-17.9449,2336.5093],[-66.025,-17.9524,2318.1929],[-66.0287,-17.9588,2408.8047],[-66.0286,-17.9613,2356.2104],[-66.0345,-17.9678,2420.186],[-66.0399,-17.9693,2425.0266],[-66.0429,-17.9736,2472.6382],[-66.0502,-17.9774,2544.0608],[-66.0512,-17.9819,2671.2183],[-66.0554,-17.9837,2612.8457],[-66.0578,-17.9903,2656.0149],[-66.0647,-17.9933,2634.0859],[-66.0732,-17.9912,2748.1704],[-66.0814,-17.994,2869.9646],[-66.0883,-18.0001,2999.8291],[-66.0884,-18.0022,3027.6938],[-66.1026,-18.0067,3176.3501],[-66.1054,-18.0092,3214.426],[-66.113,-18.006,3243.311],[-66.119,-17.9981,3044.2856],[-66.126,-17.9998,3095.781],[-66.1282,-18.0036,3151.1853],[-66.1355,-18.0038,3205.9954],[-66.1468,-18.0093,3407.6455],[-66.1477,-18.0117,3471.3408],[-66.1459,-18.0221,3659.6199],[-66.1408,-18.0314,3628.7319],[-66.1397,-18.0416,3182.4216],[-66.1363,-18.046,3238.7305],[-66.1426,-18.0639,3241.6882],[-66.1466,-18.0684,3376.3872],[-66.1506,-18.0695,3327.7292],[-66.1392,-18.0743,3649.8899],[-66.1308,-18.0875,3841.7917],[-66.1268,-18.0885,3768.9941],[-66.122,-18.093,3743.3611],[-66.1144,-18.0934,3679.4585],[-66.1117,-18.1009,3600.3992],[-66.1052,-18.1043,3489.2881],[-66.1008,-18.1032,3424.2229],[-66.0975,-18.0957,3368.252],[-66.0945,-18.0932,3340.3477],[-66.0892,-18.0936,3387.3625],[-66.079,-18.0981,3316.5288],[-66.0657,-18.1002,3429.5107],[-66.0643,-18.1017,3466.5994],[-66.0561,-18.0996,3242.687],[-66.0469,-18.1022,3256.2122],[-66.0452,-18.0962,3210.7898],[-66.0433,-18.1023,3261.9536],[-66.0407,-18.1051,3292.77],[-66.0357,-18.1068,3433.6646],[-66.0288,-18.1041,3666.8887],[-66.0259,-18.1078,3675.2612],[-66.0221,-18.1085,3761.5933],[-66.0132,-18.1211,3801.5708],[-66.0106,-18.1281,3803.9985],[-66.0041,-18.1326,3922.9963],[-65.9949,-18.1317,3967.0562],[-65.9955,-18.1383,3849.4338],[-65.9915,-18.1453,3889.4597],[-65.9837,-18.1506,3982.3635],[-65.9802,-18.1579,3925.3613],[-65.9551,-18.1642,3756.9729],[-65.9516,-18.1696,3506.7388],[-65.9463,-18.1734,3384.7573],[-65.9311,-18.1723,3208.8682],[-65.921,-18.1753,3113.6226],[-65.9153,-18.1678,3189.8843],[-65.9153,-18.1543,3241.9934],[-65.9064,-18.1385,3860.2473],[-65.8986,-18.1318,3695.5146],[-65.897,-18.1222,3499.4287],[-65.907,-18.118,3710.5198],[-65.926,-18.1049,3838.4966],[-65.9301,-18.1015,3729.3511],[-65.9305,-18.0977,3588.9189],[-65.9392,-18.092,3302.0168],[-65.9415,-18.0724,3381.9541],[-65.9469,-18.0621,3403.1843],[-65.9512,-18.06,3313.196],[-65.9551,-18.0556,3387.0647],[-65.9521,-18.0419,3163.6108],[-65.9458,-18.0357,3298.0886],[-65.9446,-18.0287,3244.2236],[-65.9426,-18.0264,3219.0007],[-65.9352,-18.0246,2955.3975],[-65.9312,-18.0089,2624.9417],[-65.9229,-17.994,2074.8027],[-65.9263,-17.9945,2075.6926],[-65.934,-17.9921,2099.7349],[-65.9344,-17.9838,2099.4429],[-65.9417,-17.9805,2141.4482],[-65.9431,-17.9774,2111.1055],[-65.9413,-17.9624,2217.9629],[-65.9431,-17.9602,2112.1296],[-65.9431,-17.9562,2142.2202],[-65.9487,-17.9548,2148.8196],[-65.9504,-17.9492,2114.5195],[-65.9565,-17.9467,2142.0146],[-65.9595,-17.947,2131.7676],[-65.9614,-17.9535,2144.8257],[-65.9676,-17.9516,2129.5176],[-65.9745,-17.9423,2144.7932],[-65.9844,-17.939,2139.3315],[-65.9886,-17.9352,2144.5044],[-65.9914,-17.923,2152.3979]]]]}
,"properties": {"GID_3": "BOL.7.8.1_2","GID_0": "BOL","country": "Bolivia","GID_1": "BOL.7_1","province": "Potosí","NL_NAME_1": "NA","GID_2": "BOL.7.8_2","county": "GeneralBilbao","NL_NAME_2": "NA","city": "Acasio","VARNAME_3": "NA","NL_NAME_3": "NA","TYPE_3": "District","ENGTYPE_3": "Distrito","CC_3": "NA","HASC_3": "NA","name": "Acasio.city","area_km2": 375.8805,"hist_schema_id": "Elevation0-9000","hist_area_km2": {"2075": 0.242,"2100": 0.7865,"2125": 1.2706,"2150": 1.6741,"2175": 1.4118,"2200": 1.432,"2225": 1.1698,"2250": 1.4521,"2275": 1.5529,"2300": 1.6537,"2325": 1.4521,"2350": 2.0167,"2375": 1.7747,"2400": 2.1377,"2425": 2.2788,"2450": 2.1376,"2475": 2.3393,"2500": 2.8232,"2525": 2.8635,"2550": 3.0651,"2575": 2.8635,"2600": 3.2265,"2625": 3.3071,"2650": 3.2466,"2675": 3.5892,"2700": 3.8514,"2725": 3.8715,"2750": 4.3555,"2775": 4.5369,"2800": 4.3151,"2825": 4.3353,"2850": 4.6175,"2875": 5.303,"2900": 5.7264,"2925": 5.3835,"2950": 6.0891,"2975": 7.2787,"3000": 7.2787,"3025": 7.0768,"3050": 7.601,"3075": 7.7822,"3100": 8.286,"3125": 8.6689,"3150": 8.3257,"3175": 10.1199,"3200": 9.0714,"3225": 10.0185,"3250": 11.6308,"3275": 11.55,"3300": 11.8119,"3325": 12.3358,"3350": 11.5697,"3375": 11.5897,"3400": 10.0577,"3425": 8.7473,"3450": 7.135,"3475": 7.1955,"3500": 7.5784,"3525": 6.107,"3550": 5.7035,"3575": 5.2399,"3600": 4.8568,"3625": 4.776,"3650": 4.8565,"3675": 3.9496,"3700": 4.2115,"3725": 3.6068,"3750": 3.889,"3775": 3.4053,"3800": 3.3046,"3825": 3.4456,"3850": 2.9418,"3875": 2.7202,"3900": 2.3373,"3925": 1.7732,"3950": 0.9672,"3975": 0.544,"4000": 0.3224,"4025": 0.0604}}}