{"type":"Feature","properties":{"ISO3166-1-Alpha-3":"BOL","country":"Bolivia","fill":"#00F","id":"1936","name":"La Paz"},
"geometry":{"type": "Polygon","coordinates": [[[-66.92782,-12.38224,153.6514],[-67.95554,-11.9093,182.4506],[-67.97352,-11.90485,160.7879],[-67.97303,-11.91007,155.8409],[-67.98125,-11.93622,160.8588],[-67.99571,-11.95818,156.5],[-68.01282,-11.97002,156.5],[-68.0368,-11.97896,175.4765],[-68.06186,-11.98361,176.6206],[-68.0823,-11.98237,178.3302],[-68.10922,-11.99555,177.7809],[-68.18451,-12.00557,166.4608],[-68.21513,-12.01994,184.0851],[-68.231,-12.04769,156.5],[-68.23834,-12.12035,179.5939],[-68.24616,-12.15368,177.482],[-68.27177,-12.18132,177.9103],[-68.39016,-12.24246,164.1621],[-68.41202,-12.27295,157.0],[-68.45843,-12.38705,182.157],[-68.47687,-12.41671,186.0207],[-68.48933,-12.42472,190.0018],[-68.50995,-12.42741,197.6123],[-68.52638,-12.421569999999999,182.1166],[-68.54106,-12.4102,185.9688],[-68.55821,-12.40229,160.0],[-68.58196,-12.40694,179.2173],[-68.59346,-12.42095,173.4269],[-68.61299,-12.47521,180.6967],[-68.61772,-12.47795,187.1948],[-68.62968,-12.49081,182.5059],[-68.63596,-12.49505,160.0],[-68.64557,-12.4966,160.0],[-68.67815,-12.49505,164.81],[-68.68946,-12.49342,182.4719],[-68.68425,-12.50249,183.8619],[-68.69438,-12.50683,205.6973],[-68.70022,-12.51603,207.2542],[-68.70627,-12.53598,199.2139],[-68.71453,-12.55117,195.4879],[-68.72606,-12.56595,207.627],[-68.74027,-12.57856,212.938],[-68.77011,-12.59437,211.1509],[-68.78388,-12.60574,207.464],[-68.79342,-12.62021,213.4094],[-68.79461,-12.63654,212.2241],[-68.78533,-12.64595,211.9228],[-68.75298,-12.65473,200.486],[-68.74296,-12.66579,190.816],[-68.76613,-12.71054,190.7921],[-68.77373,-12.71943,191.0779],[-68.85621,-12.74144,201.8491],[-68.87657,-12.75498,213.1378],[-68.89199,-12.77576,212.5935],[-68.90463,-12.80397,222.0977],[-68.92661,-12.80097,210.5223],[-68.93873,-12.81968,215.6552],[-68.94943,-12.84387,224.8343],[-68.98095,-12.86795,216.663],[-68.98659,-12.89048,219.1376],[-68.98622,-12.93337,218.6831],[-68.97394,-13.03176,214.7175],[-68.97214,-13.04613,215.5066],[-68.97966,-13.16457,225.4906],[-68.97703,-13.20493,230.478],[-68.96279,-13.28358,236.0211],[-68.97444,-13.47881,257.706],[-68.97075,-13.50145,261.7079],[-68.97682,-13.52625,265.0755],[-68.98566,-13.55023,264.5377],[-68.99426,-13.56305,279.1846],[-69.0154,-13.58547,373.6629],[-69.0232,-13.59695,414.1371],[-69.02552,-13.61069,346.2252],[-69.02361,-13.6233,363.5918],[-69.02384,-13.63498,367.7228],[-69.03263,-13.64594,329.524],[-69.04402,-13.648,330.3242],[-69.07454,-13.64263,346.3284],[-69.08759,-13.64387,387.4749],[-69.10159,-13.66661,689.4478],[-69.08105,-13.69544,508.1206],[-69.02705,-13.73823,616.4624],[-69.01596,-13.75311,1102.9191],[-69.01596,-13.76459,1555.0477],[-69.02082,-13.77637,1383.3086],[-69.02428,-13.79249,1146.7258],[-69.02309,-13.80603,1371.5433],[-69.01015,-13.84437,720.2322],[-68.99299,-13.8698,770.1975],[-68.9892,-13.9037,836.9329],[-68.98904,-13.94008,1074.0922],[-68.98297,-13.97222,714.9625],[-68.96971,-13.99051,911.3204],[-68.91618,-14.02493,845.7249],[-68.90576,-14.0393,902.3997],[-68.89998,-14.0548,1081.3418],[-68.89372,-14.08922,1185.3289],[-68.86889,-14.15619,1537.0479],[-68.86445,-14.19123,1505.7744],[-68.88372,-14.21148,1756.4585],[-68.95132,-14.21996,2363.9263],[-68.98491,-14.22833,2264.8081],[-69.01015,-14.2459,1829.9674],[-69.01571,-14.26316,1823.3962],[-69.01723,-14.28249,2454.3457],[-69.01617,-14.32114,2533.1243],[-69.00832,-14.33902,2552.3608],[-68.99462,-14.35897,2787.5251],[-68.99025,-14.37902,2700.5884],[-69.01015,-14.3971,2587.2505],[-69.07513,-14.43245,2734.5039],[-69.09456,-14.4464,2801.9524],[-69.13402,-14.49074,3834.3494],[-69.14115,-14.49415,3909.1982],[-69.1582,-14.49849,3720.3174],[-69.16427,-14.50304,3715.1143],[-69.16743,-14.5203,3786.9441],[-69.16451,-14.5664,4450.4849],[-69.1704,-14.57756,4625.541],[-69.19223,-14.57694,4709.5625],[-69.21494,-14.57229,4612.1162],[-69.23466,-14.57425,4535.8398],[-69.2475,-14.59368,5171.8247],[-69.25383,-14.72184,4898.5562],[-69.26763,-14.75067,4859.75],[-69.28352,-14.75967,4592.0],[-69.33904,-14.77476,4663.7896],[-69.36142,-14.78799,4584.5181],[-69.37054,-14.80152,4550.0146],[-69.37199,-14.81868,4516.3271],[-69.36775,-14.90054,4382.9277],[-69.36984,-14.90829,4375.4053],[-69.38623,-14.9458,4343.4253],[-69.39067,-14.96441,4342.373],[-69.38431,-14.98177,4336.7998],[-69.36282,-15.00131,4332.4478],[-69.3461,-15.0165,4330.729],[-69.28858,-15.10197,4321.7153],[-69.2722,-15.1182,4319.6284],[-69.21267,-15.1613,4351.2446],[-69.1965,-15.17659,4366.5811],[-69.17177,-15.2108,4415.1074],[-69.1481,-15.23333,4405.1226],[-69.15043,-15.25163,4380.2681],[-69.16614,-15.26393,4505.8115],[-69.18973,-15.26237,4555.0195],[-69.20913,-15.26362,4508.4561],[-69.22259,-15.30217,4335.8696],[-69.2559,-15.31333,4057.9673],[-69.2752,-15.33028,3999.6816],[-69.29117,-15.35084,3918.0627],[-69.29695,-15.36697,3898.7739],[-69.2854,-15.39673,4022.2749],[-69.28592,-15.40542,3924.156],[-69.29292,-15.40986,3870.1438],[-69.32026,-15.41885,3872.0977],[-69.33036,-15.42423,3859.1836],[-69.34341,-15.44221,3895.1365],[-69.34853,-15.46185,4005.2578],[-69.35111,-15.4819,3858.7463],[-69.35641,-15.50143,3864.5598],[-69.42118,-15.59641,3808.5],[-69.43002,-15.62628,3808.5],[-69.42434,-15.65625,3808.5],[-69.41222,-15.68581,3808.5],[-69.36961,-15.78896,3808.5],[-69.32713,-15.892,3808.5],[-69.28458,-15.99504,3808.5],[-69.24213,-16.09819,3808.5],[-69.21965,-16.15276,3808.5],[-69.18487,-16.19503,3808.5],[-69.16626,-16.21043,3808.5],[-69.14469,-16.22345,3808.5],[-69.12081,-16.2312,3808.5],[-69.09518,-16.2312,3831.0195],[-69.08389,-16.22655,3909.9324],[-69.06451,-16.21208,4007.532],[-69.05356,-16.20836,4111.2925],[-69.04273,-16.20929,4116.2236],[-69.01015,-16.21911,3877.0942],[-68.98204,-16.21002,3871.543],[-68.95951,-16.22335,3808.5],[-68.91876,-16.26665,3808.5],[-68.86667,-16.28691,3870.0044],[-68.84365,-16.302,3808.5],[-68.83349,-16.32898,3808.5],[-68.85584,-16.36319,3808.5],[-68.96837,-16.40639,3808.5],[-69.00173,-16.42282,3808.5],[-69.02787,-16.45414,3808.5],[-69.03681,-16.4715,3808.5],[-69.03888,-16.49186,3808.5],[-69.03764,-16.55025,3808.5],[-69.04012,-16.58136,3812.292],[-69.03514,-16.598,3808.5],[-69.00834,-16.63418,3808.9446],[-69.02051,-16.64947,3808.5],[-69.03707,-16.67025,3813.6387],[-69.05382,-16.68234,3813.9529],[-69.11206,-16.71149,3850.1968],[-69.13058,-16.71583,3819.9951],[-69.16637,-16.71913,3820.3271],[-69.18236,-16.72875,3822.5776],[-69.19166,-16.74301,3823.7019],[-69.21065,-16.79706,3859.1201],[-69.22445,-16.81825,3966.5732],[-69.32594,-16.92222,3966.9021],[-69.35245,-16.97772,3963.1194],[-69.36431,-16.99116,4050.0293],[-69.40715,-17.01565,4181.1753],[-69.41359,-17.02227,4216.4375],[-69.41656,-17.03198,4126.0234],[-69.4133,-17.03777,4118.8994],[-69.40602,-17.04087,4240.0698],[-69.40126,-17.04718,4295.1685],[-69.40602,-17.06299,4349.4644],[-69.42744,-17.08686,4580.791],[-69.45415,-17.09658,4541.5146],[-69.48281,-17.10175,4261.2729],[-69.51009,-17.11208,4233.3301],[-69.541,-17.13223,4240.8604],[-69.59505,-17.17967,4205.9785],[-69.60115,-17.18153,4206.5703],[-69.61836,-17.18422,4208.6982],[-69.6228,-17.18556,4211.0957],[-69.63383,-17.20727,4204.8589],[-69.64941,-17.26277,4188.3696],[-69.66649,-17.2883,4206.9834],[-69.66442,-17.28856,4206.0728],[-69.61301,-17.29512,4281.3057],[-69.59727,-17.30049,4205.124],[-69.55694,-17.3315,4162.2783],[-69.53709,-17.35114,4154.394],[-69.5226,-17.36912,4142.1494],[-69.51139,-17.39868,4143.9917],[-69.50834,-17.43403,4108.1719],[-69.51009,-17.50544,4143.8364],[-69.51004,-17.50659,4152.2139],[-69.50611,-17.58513,4108.6079],[-69.49712,-17.6214,4104.6465],[-69.47578,-17.65241,4077.3892],[-69.39478,-17.72114,4090.8196],[-69.35941,-17.75938,4112.6494],[-69.33424,-17.80579,4162.7812],[-69.32765,-17.84155,4230.0361],[-69.32687,-17.91513,4179.2554],[-69.31786,-17.95162,4230.4521],[-69.30241,-17.97621,4368.7051],[-69.29003,-17.97663,4290.0586],[-69.2776,-17.96753,4290.8975],[-69.26205,-17.96402,4552.4888],[-69.24189,-17.98676,4642.8516],[-69.23481,-17.99296,4604.5752],[-69.22779,-17.99554,4490.4639],[-69.20417,-18.00112,4428.6016],[-69.17389,-18.0189,4595.9736],[-69.15771,-18.02572,4732.2705],[-69.14084,-18.03078,4913.7964],[-69.11988,-18.02985,5031.7446],[-69.10418,-18.02376,5161.7603],[-69.09206,-18.02334,5437.8442],[-69.08228,-18.03908,5390.623],[-69.07203,-18.03606,5518.1196],[-68.99932,-18.00117,5170.5381],[-68.8677,-17.96676,4765.5596],[-68.8168,-17.94035,4291.0234],[-68.73177,-17.87844,4052.6458],[-68.6964,-17.84713,4064.2275],[-68.60803,-17.7399,4131.0986],[-68.55209,-17.69479,3899.4148],[-68.54235,-17.68838,3891.906],[-68.47966,-17.66099,3857.906],[-68.44662,-17.65236,3826.7998],[-68.32686,-17.64352,3924.1704],[-68.17036,-17.64998,3944.6838],[-68.14049,-17.65903,3956.9946],[-68.06098,-17.69737,3964.1382],[-68.02791,-17.70853,3862.4707],[-68.00577,-17.71845,3881.3071],[-67.80932,-17.86036,3727.0032],[-67.80384,-17.86248,3725.7688],[-67.79803,-17.86382,3724.2578],[-67.78565,-17.86475,3723.0703],[-67.77216,-17.86263,3721.1438],[-67.75085,-17.84935,3719.033],[-67.7439,-17.84191,3718.8425],[-67.73852,-17.83157,3719.3523],[-67.73568,-17.82454,3719.3809],[-67.73263,-17.81421,3720.6345],[-67.73193,-17.8078,3720.9109],[-67.73219,-17.8015,3720.9348],[-67.73328,-17.79669,3721.1577],[-67.73922,-17.78295,3722.8413],[-67.74875,-17.76811,3724.186],[-67.75196,-17.76129,3724.7522],[-67.75449,-17.75287,3725.0203],[-67.75586,-17.73866,3724.3862],[-67.75464,-17.73199,3724.9258],[-67.751,-17.72672,3724.7605],[-67.73204,-17.71287,3723.7708],[-67.56652,-17.61376,3722.3213],[-67.54254,-17.59588,3722.7302],[-67.4205,-17.5118,3889.7026],[-67.30245,-17.44514,4157.6006],[-67.28118,-17.43713,3995.554],[-67.15081,-17.401,4280.4771],[-67.14181,-17.40038,4330.7178],[-67.13262,-17.40106,4326.3613],[-67.12008,-17.40338,4116.2256],[-67.11282,-17.40612,4148.4414],[-67.10642,-17.40927,4159.8345],[-67.092,-17.42069,4005.2],[-67.08373,-17.42922,4086.927],[-67.0767,-17.43837,4152.1875],[-67.07027,-17.44886,4196.2769],[-67.05712,-17.47625,4414.8779],[-67.04042,-17.49955,4515.7886],[-67.01639,-17.52601,4345.2686],[-67.01309,-17.5304,4291.3291],[-66.98994,-17.55128,4161.1851],[-66.86126,-17.48508,3976.1023],[-66.84922,-17.47671,3545.6526],[-66.84194,-17.46808,3388.0388],[-66.84465,-17.45444,3319.6833],[-66.85044,-17.44508,3210.2407],[-66.85974,-17.43635,3039.6846],[-66.86591,-17.4255,3131.4548],[-66.87002,-17.41537,3232.8867],[-66.85046,-17.37749,2928.6011],[-66.86547,-17.32416,3660.9707],[-66.87325,-17.31481,3102.3508],[-66.88064,-17.30173,2339.2419],[-66.88509,-17.2915,2299.9529],[-66.88576,-17.27858,2403.4561],[-66.8824,-17.24753,2402.886],[-66.89723,-17.17497,2611.5945],[-66.90328,-17.15952,2614.686],[-66.91017,-17.14681,2496.5322],[-66.92294,-17.12836,2412.4929],[-66.93798,-17.11301,2214.4346],[-66.9488,-17.09648,2238.2214],[-66.99497,-17.07885,3127.5386],[-67.01037,-17.06506,2891.5781],[-67.01521,-17.04687,2677.4451],[-67.01231,-17.02625,2288.5352],[-67.00435,-17.00501,2040.3734],[-66.99939,-16.99684,1712.2356],[-66.98193,-16.97467,2977.5496],[-66.9779,-16.96387,2653.481],[-66.97751,-16.95462,2469.6509],[-66.9802,-16.93499,1856.302],[-66.9781,-16.91463,1878.6185],[-66.971,-16.89716,1836.5852],[-66.95206,-16.863,2138.5979],[-66.93229,-16.83515,1809.4205],[-66.90816,-16.82383,2250.2993],[-66.84811,-16.81654,2541.7175],[-66.8247,-16.80884,2304.7812],[-66.79822,-16.79525,1936.4072],[-66.77496,-16.77758,1775.9307],[-66.76142,-16.75779,1817.5488],[-66.75845,-16.74115,2287.7866],[-66.75915,-16.72461,2245.9329],[-66.76664,-16.67841,1468.3976],[-66.76695,-16.66524,2035.4117],[-66.76594,-16.58953,1987.2968],[-66.77481,-16.5609,1733.5822],[-66.80462,-16.51,1821.5791],[-66.8162,-16.48297,1278.6902],[-66.8176,-16.45791,1215.6243],[-66.80419,-16.40737,1342.9542],[-66.79961,-16.2833,1142.5756],[-66.80563,-16.26903,1276.8816],[-66.82669,-16.24273,1221.0148],[-66.83491,-16.22945,1053.959],[-66.83922,-16.22609,1093.184],[-66.87056,-16.21524,959.7946],[-66.87196,-16.20873,1107.9949],[-66.86989,-16.19296,1469.5953],[-66.87206,-16.17111,1098.1055],[-66.88271,-16.1541,1244.0427],[-66.91222,-16.1232,1399.2036],[-66.92756,-16.09757,802.0812],[-66.9456,-16.0753,999.0508],[-66.94885,-16.06791,918.7816],[-66.94994,-16.05783,818.8473],[-66.94043,-15.9843,1046.7971],[-66.94053,-15.95908,1425.4103],[-66.94415,-15.93546,1390.0996],[-66.94438,-15.92383,1293.8265],[-66.94144,-15.91236,1091.1943],[-66.93379,-15.8997,804.3705],[-66.92596,-15.88999,723.2625],[-66.9201,-15.87944,717.0029],[-66.91824,-15.86399,840.6076],[-66.91994,-15.85717,706.5792],[-66.92351,-15.85361,630.7558],[-66.92792,-15.85128,602.2504],[-66.93221,-15.84813,700.6141],[-66.93446,-15.84472,656.9053],[-66.90374,-15.81273,663.0377],[-66.86754,-15.76803,1194.9176],[-66.78442,-15.6993,1162.0476],[-66.82579,-15.65904,761.8496],[-67.02564,-15.47678,934.3535],[-67.04712,-15.44045,907.9634],[-67.05588,-15.43177,1015.83],[-67.06208,-15.42728,935.8763],[-67.08288,-15.41875,773.0516],[-67.09727,-15.41084,705.2238],[-67.1075,-15.40014,656.8698],[-67.11461,-15.38909,711.2617],[-67.11861,-15.37849,698.26],[-67.12001,-15.36795,1037.98],[-67.11962,-15.35767,790.3663],[-67.11213,-15.31565,611.7833],[-67.11231,-15.30351,597.6266],[-67.11551,-15.28982,594.707],[-67.17907,-15.16517,422.7095],[-67.206,-15.12641,365.4979],[-67.22987,-15.09934,407.0535],[-67.2431,-15.08709,350.2706],[-67.25178,-15.07319,376.4496],[-67.27051,-15.03639,373.778],[-67.28129,-15.02358,329.5533],[-67.29271,-15.01536,396.5783],[-67.30462,-15.01314,379.9843],[-67.31653,-15.01335,354.372],[-67.34035,-15.01624,368.2258],[-67.35291,-15.01531,304.6524],[-67.36389,-15.01205,314.1065],[-67.37356,-15.00653,299.0193],[-67.38795,-14.99552,321.711],[-67.40283,-14.98673,276.5449],[-67.41756,-14.96849,270.9987],[-67.43001,-14.93221,288.8406],[-67.43327,-14.9118,301.3674],[-67.43425,-14.89635,291.088],[-67.43105,-14.87485,294.5474],[-67.42609,-14.85506,321.0718],[-67.42193,-14.81723,305.6451],[-67.42267,-14.77595,256.3608],[-67.42751,-14.75414,257.7563],[-67.43632,-14.73807,234.6084],[-67.48484,-14.69528,260.0031],[-67.50412,-14.66887,222.0591],[-67.53063,-14.60696,220.6176],[-67.53598,-14.59859,214.1847],[-67.53337,-14.5912,206.5],[-67.5276,-14.58087,220.477],[-67.52047,-14.57312,212.0619],[-67.50463,-14.55947,219.8826],[-67.49784,-14.55131,251.7665],[-67.489,-14.53131,280.6378],[-67.48794,-14.51162,199.0],[-67.49394,-14.4925,196.5],[-67.50603,-14.47421,285.7103],[-67.52784,-14.45312,458.9476],[-67.53238,-14.44305,190.0],[-67.53303,-14.43679,189.5],[-67.53275,-14.42449,197.9326],[-67.53432,-14.41845,196.6521],[-67.53683,-14.41493,190.6933],[-67.54355,-14.40894,198.3949],[-67.54613,-14.40553,196.2568],[-67.56065,-14.3691,184.0051],[-67.56561,-14.3492,215.04],[-67.56817,-14.33029,209.8887],[-67.56442,-14.31205,208.7828],[-67.55262,-14.30269,205.3322],[-67.52063,-14.28869,196.6021],[-67.50794,-14.27474,199.179],[-67.5036,-14.25866,186.6022],[-67.50549,-14.24151,189.2967],[-67.51528,-14.2088,180.0],[-67.51135,-14.1488,201.4383],[-67.52179,-14.07129,188.9769],[-67.52295,-14.05899,204.5332],[-67.53543,-14.01434,189.5512],[-67.53598,-13.99837,187.3422],[-67.50921,-13.87998,191.8291],[-67.50102,-13.86525,184.5842],[-67.49156,-13.85254,182.2438],[-67.48272,-13.83667,191.2311],[-67.4798,-13.81673,186.2971],[-67.49355,-13.79068,177.9173],[-67.49264,-13.77136,177.1633],[-67.48089,-13.73079,189.9801],[-67.47166,-13.71053,181.6435],[-67.459,-13.69813,186.9899],[-67.44252,-13.6879,185.5292],[-67.43068,-13.67482,185.2359],[-67.4111,-13.64273,181.5325],[-67.36955,-13.5909,178.703],[-67.36108,-13.5739,168.7712],[-67.36077,-13.55442,175.3939],[-67.37805,-13.52853,166.5],[-67.39477,-13.43722,163.0],[-67.3956,-13.40249,176.5527],[-67.37978,-13.36916,166.0707],[-67.33666,-13.30446,164.3457],[-67.32211,-13.28808,179.683],[-67.28744,-13.26152,176.7289],[-67.20594,-13.16783,161.8625],[-67.20204,-13.15868,179.6196],[-67.19778,-13.13878,173.9668],[-67.19318,-13.12964,171.2518],[-67.18564,-13.12307,166.8603],[-67.16713,-13.11367,166.9413],[-67.15907,-13.10747,171.5707],[-67.11993,-13.03724,175.1945],[-67.10313,-13.02163,164.1126],[-67.08295,-13.01802,170.7904],[-67.06611,-13.02003,173.3037],[-67.05226,-13.0159,169.1502],[-67.0041,-12.90107,167.043],[-66.94857,-12.6708,141.5],[-66.94648,-12.64533,162.7492],[-66.95097,-12.6245,142.4909],[-66.96666,-12.58151,166.8197],[-66.93986,-12.5459,158.1716],[-66.92767,-12.52533,141.0],[-66.92699,-12.50937,150.2535],[-66.93488,-12.49391,158.3858],[-66.93702,-12.48105,157.3621],[-66.93829,-12.42002,157.5897],[-66.9357,-12.40033,150.3978],[-66.92782,-12.38224,153.6514]]]}}