{"type": "Feature","bbox": [-69.6452,-18.0469,-66.7321,-11.8497],"geometry": {"type": "MultiPolygon","coordinates": [[[[-68.3982,-17.6192,3890.3765],[-68.3887,-17.6183,3899.6892],[-68.3847,-17.6154,3881.9741],[-68.3855,-17.6014,3863.6145],[-68.3759,-17.5943,3842.8032],[-68.3606,-17.5908,3876.5547],[-68.3481,-17.5935,3897.4868],[-68.3327,-17.6084,3861.8862],[-68.3243,-17.5993,3837.4067],[-68.3219,-17.5984,3831.7456],[-68.322,-17.5968,3827.2378],[-68.316,-17.5987,3820.9209],[-68.3097,-17.5939,3810.8789],[-68.3071,-17.599,3812.7383],[-68.2991,-17.603,3815.3906],[-68.292,-17.6132,3818.625],[-68.2764,-17.6286,3826.75],[-68.2705,-17.6427,3833.5947],[-68.2659,-17.6431,3835.7312],[-68.256,-17.6382,3842.2231],[-68.2512,-17.6388,3843.25],[-68.2378,-17.6476,3852.3499],[-68.2275,-17.6491,3857.2432],[-68.2241,-17.6511,3858.9844],[-68.2123,-17.6634,3866.0022],[-68.2088,-17.6692,3869.6731],[-68.2049,-17.6711,3871.3232],[-68.2006,-17.6706,3875.6467],[-68.201,-17.6684,3879.6978],[-68.1983,-17.6648,3884.252],[-68.1901,-17.6632,3901.5933],[-68.1888,-17.6594,3908.0442],[-68.1905,-17.6581,3908.0442],[-68.1905,-17.6546,3950.7153],[-68.1828,-17.6565,3958.9233],[-68.1435,-17.6687,4096.667],[-68.1373,-17.6761,4161.8311],[-68.1001,-17.6991,3919.8857],[-68.0853,-17.7152,3946.9243],[-68.074,-17.7187,3933.6855],[-68.0548,-17.7179,3896.0986],[-68.0164,-17.7328,3878.5669],[-68.0003,-17.7411,3836.2385],[-67.9995,-17.7392,3836.1682],[-67.9954,-17.7381,3829.8176],[-67.9885,-17.7412,3821.7534],[-67.9836,-17.7416,3819.4194],[-67.969,-17.7327,3808.6284],[-67.9652,-17.7377,3814.9053],[-67.9663,-17.7481,3829.6995],[-67.9576,-17.7644,3863.7258],[-67.9394,-17.774,3853.2051],[-67.9263,-17.7829,3846.2393],[-67.9024,-17.7911,3818.291],[-67.8849,-17.805,3769.6904],[-67.8748,-17.8102,3768.4443],[-67.8683,-17.8115,3759.3118],[-67.8639,-17.8148,3770.7598],[-67.8605,-17.8143,3753.873],[-67.861,-17.8225,3775.0659],[-67.8526,-17.8247,3759.5691],[-67.8524,-17.8289,3768.0757],[-67.8482,-17.8294,3762.0112],[-67.8337,-17.8492,3740.4536],[-67.8317,-17.8488,3739.4922],[-67.8267,-17.8517,3735.7612],[-67.8274,-17.8537,3736.083],[-67.823,-17.8598,3732.385],[-67.8235,-17.8612,3732.385],[-67.8179,-17.8627,3729.6997],[-67.8172,-17.8651,3729.8037],[-67.8112,-17.8686,3728.1426],[-67.8077,-17.8732,3727.2061],[-67.797,-17.8767,3724.146],[-67.7905,-17.8806,3723.3855],[-67.7641,-17.8759,3720.0417],[-67.7526,-17.8715,3718.1851],[-67.7322,-17.8596,3717.4666],[-67.7076,-17.848,3716.3191],[-67.7016,-17.8022,3719.8105],[-67.6798,-17.7781,3719.8975],[-67.677,-17.7639,3720.55],[-67.6445,-17.758,3717.9634],[-67.6325,-17.7649,3745.311],[-67.5858,-17.7682,3718.5564],[-67.5863,-17.7119,3721.23],[-67.5582,-17.7035,3719.5164],[-67.5313,-17.6738,3718.5081],[-67.5161,-17.6717,3717.0093],[-67.5118,-17.6622,3718.865],[-67.508,-17.6446,3718.8882],[-67.5151,-17.6367,3720.6011],[-67.5307,-17.6103,3722.0745],[-67.5271,-17.5995,3721.2705],[-67.5291,-17.5968,3721.1377],[-67.547,-17.5889,3721.8428],[-67.5492,-17.5826,3723.5044],[-67.5474,-17.5769,3722.4016],[-67.5318,-17.5595,3726.4038],[-67.5214,-17.5538,3750.9055],[-67.5203,-17.5509,3758.3181],[-67.5228,-17.5465,3776.9666],[-67.5163,-17.5403,3829.3755],[-67.5054,-17.5182,4128.5186],[-67.5034,-17.5173,4137.0781],[-67.4953,-17.5211,4116.3711],[-67.4818,-17.5214,3960.5537],[-67.4754,-17.5169,3897.3259],[-67.4725,-17.5081,3868.3274],[-67.4686,-17.5058,3856.635],[-67.4644,-17.5119,3869.3691],[-67.4474,-17.5258,3942.2817],[-67.4464,-17.5294,3936.7993],[-67.4486,-17.5334,3970.0625],[-67.4479,-17.5375,4011.0464],[-67.4391,-17.5468,3974.762],[-67.4377,-17.5508,4010.1572],[-67.4304,-17.5576,4068.3403],[-67.4297,-17.5605,4097.2075],[-67.419,-17.5635,4185.8457],[-67.417,-17.5667,4161.3457],[-67.4143,-17.5677,4102.7354],[-67.4127,-17.5713,4071.8296],[-67.4032,-17.5744,4080.6157],[-67.3938,-17.5606,4067.8613],[-67.3908,-17.5488,3969.3267],[-67.3813,-17.5393,4030.2053],[-67.3797,-17.5393,4007.1162],[-67.3816,-17.5312,4185.5317],[-67.3797,-17.5284,4145.2734],[-67.3803,-17.5257,4196.2754],[-67.3866,-17.52,4170.3208],[-67.3876,-17.5166,4107.6348],[-67.3819,-17.5093,4011.7683],[-67.3821,-17.5009,4154.1963],[-67.3758,-17.4906,3988.4888],[-67.3771,-17.477,4075.6582],[-67.3745,-17.4618,4126.2363],[-67.3666,-17.453,4104.874],[-67.3495,-17.4519,4041.8792],[-67.3447,-17.4489,4063.5713],[-67.3417,-17.4504,4050.2803],[-67.3401,-17.449,4054.4614],[-67.3373,-17.4305,4112.6035],[-67.3325,-17.4273,4136.0122],[-67.3216,-17.4252,4297.3989],[-67.3198,-17.4208,4133.3633],[-67.3138,-17.4135,4041.2307],[-67.3192,-17.395,4357.1621],[-67.3149,-17.3922,4136.125],[-67.3134,-17.3838,3983.0273],[-67.3098,-17.3807,3961.9355],[-67.2969,-17.3837,3955.5347],[-67.2943,-17.3805,3961.0391],[-67.2937,-17.3755,3975.8586],[-67.2858,-17.3683,3987.436],[-67.2851,-17.357,4034.8499],[-67.2775,-17.3448,4110.1631],[-67.2567,-17.3325,4181.7578],[-67.2535,-17.3282,4117.9155],[-67.2535,-17.324,4089.4583],[-67.2485,-17.3239,4093.4446],[-67.2344,-17.3326,4109.626],[-67.2328,-17.3353,4114.6582],[-67.2285,-17.3367,4120.7046],[-67.2273,-17.3342,4122.3994],[-67.223,-17.3322,4134.3745],[-67.2181,-17.3373,4134.603],[-67.2155,-17.3351,4141.8193],[-67.2033,-17.3363,4159.0566],[-67.1982,-17.3464,4253.1904],[-67.194,-17.3486,4211.5884],[-67.1968,-17.3516,4211.7129],[-67.1962,-17.3559,4203.9272],[-67.1981,-17.357,4209.6914],[-67.1997,-17.3646,4257.6729],[-67.1933,-17.37,4229.0264],[-67.1915,-17.3749,4256.7715],[-67.1873,-17.3791,4283.3433],[-67.1886,-17.3864,4328.6157],[-67.1869,-17.4074,4355.5957],[-67.1913,-17.4139,4476.0254],[-67.1866,-17.4205,4568.2197],[-67.1712,-17.4327,4603.2393],[-67.1566,-17.4413,4635.9253],[-67.1509,-17.4494,4647.749],[-67.1421,-17.4534,4650.4531],[-67.1359,-17.4543,4671.646],[-67.1245,-17.4654,4639.4077],[-67.0877,-17.466,4404.6836],[-67.0842,-17.4647,4470.6128],[-67.0774,-17.47,4534.8906],[-67.0674,-17.4701,4424.1426],[-67.059,-17.476,4456.6758],[-67.0599,-17.4791,4482.2466],[-67.0498,-17.4957,4559.7881],[-67.036,-17.5002,4509.915],[-67.0261,-17.5119,4416.5591],[-67.0198,-17.5281,4428.4678],[-67.0213,-17.539,4504.335],[-67.051,-17.5877,4384.3311],[-67.0414,-17.6023,4394.8516],[-67.0358,-17.6069,4366.8789],[-67.014,-17.6182,4510.1475],[-67.0104,-17.6294,4315.5996],[-67.0068,-17.6319,4296.7876],[-66.9747,-17.6209,4221.2852],[-66.9365,-17.6109,4393.3091],[-66.8916,-17.5855,4290.3188],[-66.8849,-17.5749,4157.436],[-66.8856,-17.5687,4112.9556],[-66.883,-17.5675,4101.4443],[-66.8799,-17.5608,4066.5225],[-66.8758,-17.5597,4013.9932],[-66.8735,-17.557,4056.4761],[-66.8777,-17.5415,3960.7825],[-66.8699,-17.5394,3982.6482],[-66.8613,-17.5399,3934.6028],[-66.8477,-17.5339,3717.4531],[-66.8403,-17.5336,3650.7925],[-66.8346,-17.5269,3507.1345],[-66.8291,-17.5278,3422.9497],[-66.8249,-17.5256,3406.4258],[-66.8175,-17.5166,3394.1758],[-66.8157,-17.5116,3372.1577],[-66.8174,-17.507,3267.8687],[-66.8163,-17.5035,3246.968],[-66.8219,-17.499,3244.4763],[-66.8228,-17.493,3218.4668],[-66.8274,-17.4892,3200.1057],[-66.8314,-17.4798,3186.439],[-66.8347,-17.4767,3226.7922],[-66.8372,-17.4634,3139.9849],[-66.8357,-17.4511,3091.5105],[-66.8404,-17.4472,3088.0457],[-66.8439,-17.4415,3062.8447],[-66.8629,-17.4361,3026.5557],[-66.8685,-17.4274,3016.3281],[-66.872,-17.4259,3013.5593],[-66.8753,-17.4219,3002.2407],[-66.8769,-17.4168,2985.4197],[-66.8739,-17.4102,2968.3281],[-66.8669,-17.4026,2937.2297],[-66.8649,-17.3887,2915.5959],[-66.8533,-17.3846,2937.4441],[-66.8474,-17.386,2899.2412],[-66.8464,-17.3843,2930.5217],[-66.8498,-17.3819,2861.8804],[-66.8515,-17.378,2868.9116],[-66.8458,-17.365,2761.4924],[-66.8468,-17.3606,2740.6643],[-66.8454,-17.354,2734.5613],[-66.8497,-17.3486,2697.675],[-66.8578,-17.3478,2717.8203],[-66.8595,-17.3412,2715.4812],[-66.8559,-17.3378,2742.4565],[-66.8492,-17.3381,2708.6577],[-66.8472,-17.3365,2665.7185],[-66.8455,-17.3278,2647.9551],[-66.8438,-17.3266,2672.3401],[-66.8442,-17.3211,2525.8491],[-66.8425,-17.3186,2570.8682],[-66.8437,-17.3159,2505.2981],[-66.848,-17.3152,2497.3184],[-66.8574,-17.3107,2406.9338],[-66.8669,-17.3039,2357.5552],[-66.8732,-17.3021,2334.4407],[-66.8818,-17.2927,2295.1587],[-66.8878,-17.289,2294.0923],[-66.8894,-17.2777,2253.9619],[-66.888,-17.2757,2250.7708],[-66.8889,-17.2728,2242.4243],[-66.8866,-17.2709,2236.8787],[-66.8886,-17.2661,2234.9624],[-66.8787,-17.2484,2247.165],[-66.8771,-17.2342,2172.657],[-66.8823,-17.2256,2153.2734],[-66.8822,-17.2203,2140.4236],[-66.8885,-17.2137,2135.4907],[-66.89,-17.2061,2119.8394],[-66.8886,-17.2004,2124.6692],[-66.8888,-17.1962,2106.0576],[-66.8905,-17.1946,2113.8887],[-66.8898,-17.1898,2079.4314],[-66.8853,-17.1852,2072.2573],[-66.8863,-17.1781,2043.5439],[-66.8852,-17.1659,2012.5803],[-66.8831,-17.1613,2005.1953],[-66.8839,-17.1566,1994.7249],[-66.8892,-17.1478,1970.502],[-66.8904,-17.1398,1961.7554],[-66.8971,-17.1336,1949.2134],[-66.9047,-17.1229,1923.1346],[-66.9154,-17.1135,1907.9923],[-66.9256,-17.1109,1893.0906],[-66.9306,-17.1071,1887.4246],[-66.9403,-17.0943,1875.6857],[-66.9444,-17.0845,1848.8138],[-66.9565,-17.0718,1830.4111],[-66.9573,-17.0656,1816.8586],[-66.9695,-17.0572,1792.9148],[-66.9736,-17.0515,1787.8607],[-66.9807,-17.0468,1806.3347],[-66.9849,-17.0388,1797.7112],[-66.984,-17.0344,1756.3801],[-66.9867,-17.0256,1749.9666],[-66.9907,-17.0196,1753.761],[-66.9906,-17.0144,1744.2452],[-67.0018,-16.9893,1701.3628],[-67.0022,-16.9767,1690.6295],[-67.0,-16.9684,1689.1527],[-67.001,-16.9616,1678.0801],[-67.0052,-16.9578,1680.6915],[-67.0055,-16.9516,1668.2754],[-67.0021,-16.9469,1666.8015],[-66.9922,-16.9416,1669.2234],[-66.9917,-16.9333,1650.4907],[-66.9779,-16.9285,1663.5706],[-66.9705,-16.9243,1638.948],[-66.9702,-16.921,1635.0186],[-66.9762,-16.9064,1607.4846],[-66.9736,-16.8921,1604.7067],[-66.972,-16.89,1585.853],[-66.9652,-16.8873,1588.2845],[-66.956,-16.8776,1560.8431],[-66.9525,-16.8761,1560.8921],[-66.9466,-16.8685,1576.2272],[-66.9416,-16.8561,1538.2222],[-66.9355,-16.8524,1524.3724],[-66.924,-16.8358,1507.811],[-66.9155,-16.8362,1515.2163],[-66.9107,-16.8329,1565.186],[-66.9073,-16.8364,1565.874],[-66.9043,-16.8368,1557.4109],[-66.9015,-16.8339,1501.0282],[-66.8947,-16.8336,1482.8867],[-66.8911,-16.8351,1499.7727],[-66.8875,-16.834,1513.676],[-66.885,-16.8375,1475.7823],[-66.8819,-16.836,1465.2404],[-66.8703,-16.8352,1506.4189],[-66.8664,-16.8331,1486.5844],[-66.8577,-16.8358,1449.139],[-66.8544,-16.8344,1470.9552],[-66.8488,-16.836,1510.624],[-66.8445,-16.8396,1451.6056],[-66.841,-16.8403,1460.1631],[-66.8393,-16.8389,1440.5278],[-66.8374,-16.8408,1447.8787],[-66.828,-16.8374,1411.7338],[-66.8261,-16.8347,1418.8695],[-66.8222,-16.8338,1383.929],[-66.8212,-16.8313,1377.02],[-66.8149,-16.8293,1366.1707],[-66.8067,-16.821,1356.9575],[-66.8003,-16.818,1365.3853],[-66.7969,-16.8117,1376.6755],[-66.7926,-16.8104,1359.5759],[-66.7892,-16.8067,1347.7617],[-66.7848,-16.8065,1432.4176],[-66.784,-16.8031,1337.8206],[-66.7806,-16.7999,1446.4871],[-66.7849,-16.7957,1330.2543],[-66.7841,-16.7931,1328.4807],[-66.7759,-16.7841,1312.1387],[-66.7691,-16.7858,1307.7385],[-66.7623,-16.7821,1335.1738],[-66.7593,-16.7704,1291.713],[-66.7508,-16.7681,1290.1998],[-66.7433,-16.7587,1272.5658],[-66.7409,-16.7523,1267.1256],[-66.7456,-16.7406,1278.9883],[-66.7447,-16.7382,1256.9703],[-66.7409,-16.7363,1275.9984],[-66.7445,-16.7309,1252.1868],[-66.7436,-16.7203,1250.8271],[-66.7532,-16.7065,1231.566],[-66.7577,-16.7032,1229.0879],[-66.7566,-16.6971,1217.2971],[-66.7587,-16.6938,1231.9991],[-66.7543,-16.6843,1197.4513],[-66.7542,-16.6762,1217.9437],[-66.747,-16.6669,1276.1436],[-66.7469,-16.6621,1207.0911],[-66.741,-16.6567,1193.4545],[-66.7427,-16.6488,1164.8562],[-66.742,-16.6438,1173.9038],[-66.7447,-16.64,1196.8065],[-66.7466,-16.6321,1174.1432],[-66.7423,-16.6281,1153.7057],[-66.7414,-16.6246,1155.3015],[-66.7369,-16.6228,1210.396],[-66.7373,-16.617,1161.8313],[-66.734,-16.6129,1134.6426],[-66.7378,-16.6074,1255.9172],[-66.7367,-16.6048,1238.2775],[-66.7382,-16.6001,1192.1843],[-66.7338,-16.5964,1156.8904],[-66.7321,-16.5901,1124.965],[-66.7381,-16.5784,1099.1714],[-66.7426,-16.5776,1081.3223],[-66.7421,-16.5713,1064.6532],[-66.7484,-16.564,1078.3954],[-66.7597,-16.5444,1078.6641],[-66.765,-16.543,1028.6893],[-66.7649,-16.5356,1007.6779],[-66.769,-16.5339,1006.3037],[-66.7765,-16.5218,1000.9589],[-66.7768,-16.5174,1013.126],[-66.7688,-16.5121,1000.5378],[-66.7691,-16.5049,953.92],[-66.7731,-16.5,961.9312],[-66.7816,-16.4941,938.7285],[-66.7888,-16.4845,965.2108],[-66.7882,-16.4735,922.5886],[-66.7845,-16.4721,958.3277],[-66.7825,-16.4679,1010.8889],[-66.7825,-16.4618,1031.1731],[-66.786,-16.4565,904.8835],[-66.7851,-16.4505,905.022],[-66.7882,-16.4434,912.5629],[-66.7874,-16.436,914.5917],[-66.7853,-16.4323,891.1746],[-66.786,-16.4283,899.6951],[-66.783,-16.4198,1044.2549],[-66.7857,-16.4142,887.6636],[-66.7913,-16.4121,1005.6657],[-66.7892,-16.4088,884.4299],[-66.7946,-16.3983,864.4362],[-66.7942,-16.3906,864.5402],[-66.7968,-16.3762,864.2659],[-66.7956,-16.3656,860.2856],[-66.7989,-16.3535,918.3804],[-66.7949,-16.3443,899.5167],[-66.7991,-16.3286,883.2786],[-66.7987,-16.3209,884.4648],[-66.8029,-16.3119,842.9132],[-66.8022,-16.3085,858.1342],[-66.804,-16.3035,822.3332],[-66.8038,-16.3019,826.0642],[-66.801,-16.3016,803.3688],[-66.8003,-16.3,792.8279],[-66.8004,-16.2956,791.5245],[-66.807,-16.2877,798.1582],[-66.809,-16.2831,827.3624],[-66.8163,-16.2812,782.7812],[-66.8198,-16.2749,772.8201],[-66.8195,-16.2695,863.4748],[-66.8277,-16.2686,767.9927],[-66.8341,-16.2606,778.455],[-66.843,-16.258,813.974],[-66.8499,-16.2516,760.0499],[-66.8535,-16.2446,824.3873],[-66.8514,-16.244,832.7717],[-66.8505,-16.2408,814.3184],[-66.8503,-16.2372,791.1313],[-66.8527,-16.2338,741.5006],[-66.8467,-16.2276,816.2178],[-66.8498,-16.2235,739.4211],[-66.8495,-16.218,733.1347],[-66.8516,-16.2167,735.5361],[-66.8457,-16.2092,748.0515],[-66.8443,-16.195,851.8102],[-66.8479,-16.1928,724.4815],[-66.8508,-16.1823,766.8002],[-66.859,-16.1729,712.9099],[-66.8629,-16.1646,705.5602],[-66.8706,-16.1606,715.3256],[-66.868,-16.1515,702.1301],[-66.8745,-16.1475,708.6226],[-66.8762,-16.1387,699.0433],[-66.8826,-16.1344,700.7922],[-66.8846,-16.1266,697.8524],[-66.8892,-16.1242,689.5135],[-66.8882,-16.1199,681.6628],[-66.8897,-16.1169,680.7587],[-66.8945,-16.1121,688.8082],[-66.8982,-16.112,673.6812],[-66.903,-16.1035,682.1484],[-66.9101,-16.1047,709.5721],[-66.9133,-16.0965,663.8464],[-66.9186,-16.0951,678.8006],[-66.9205,-16.0914,666.5267],[-66.92,-16.0851,657.8212],[-66.918,-16.0823,692.0887],[-66.9177,-16.0695,667.6076],[-66.9135,-16.0678,675.2394],[-66.9103,-16.0642,744.2485],[-66.9131,-16.0607,668.256],[-66.9095,-16.0532,683.2635],[-66.911,-16.0489,662.8553],[-66.9091,-16.0473,667.425],[-66.9132,-16.0424,644.2468],[-66.9116,-16.0329,660.0099],[-66.913,-16.0259,681.6903],[-66.9156,-16.0216,643.3588],[-66.9135,-16.0156,704.8517],[-66.9165,-16.0111,680.4526],[-66.917,-16.0043,640.502],[-66.9217,-16.0014,616.5479],[-66.9208,-15.9983,630.1872],[-66.9099,-15.9913,659.5439],[-66.9125,-15.9878,627.667],[-66.9117,-15.9857,652.1373],[-66.9137,-15.9797,609.1932],[-66.9104,-15.9729,590.8333],[-66.9058,-15.9683,584.6353],[-66.9052,-15.9629,626.5836],[-66.9003,-15.9611,598.838],[-66.8987,-15.9556,647.5669],[-66.8948,-15.9521,568.2567],[-66.8888,-15.9504,576.0762],[-66.884,-15.9417,557.4535],[-66.8785,-15.9436,569.911],[-66.8753,-15.938,545.6948],[-66.8688,-15.9354,554.8882],[-66.8783,-15.9258,533.6263],[-66.8787,-15.9224,528.3793],[-66.8747,-15.919,527.7446],[-66.8902,-15.8975,528.9762],[-66.8885,-15.894,517.0527],[-66.8831,-15.8899,532.8432],[-66.8818,-15.8845,514.1585],[-66.8829,-15.8785,513.228],[-66.8871,-15.8734,515.2974],[-66.8948,-15.8718,513.7339],[-66.9014,-15.868,515.3816],[-66.9035,-15.8618,507.728],[-66.8999,-15.8556,508.5671],[-66.9016,-15.8522,505.1821],[-66.9011,-15.8494,502.0],[-66.9073,-15.8483,505.5568],[-66.9074,-15.8442,520.3143],[-66.9003,-15.8352,582.3257],[-66.8954,-15.8206,644.2667],[-66.8928,-15.8203,650.4168],[-66.8908,-15.8159,671.9509],[-66.8835,-15.8088,748.1306],[-66.8819,-15.8089,748.1306],[-66.8737,-15.7964,875.1456],[-66.8641,-15.7915,1025.4271],[-66.8605,-15.7831,1228.2673],[-66.8485,-15.7884,1346.3987],[-66.8368,-15.7967,1619.9581],[-66.8337,-15.7951,1629.7548],[-66.8304,-15.7905,1525.5067],[-66.8262,-15.7886,1367.6958],[-66.8123,-15.7861,1155.6016],[-66.8128,-15.7822,1135.6075],[-66.8093,-15.7799,1097.9294],[-66.8069,-15.7804,1095.0247],[-66.8041,-15.7839,1094.7245],[-66.8027,-15.7826,1083.371],[-66.8003,-15.7848,1092.0889],[-66.7954,-15.7851,1097.2786],[-66.8735,-15.694,1340.0522],[-66.8897,-15.6625,1353.5634],[-66.9069,-15.6402,1441.1306],[-66.9044,-15.6271,1262.7471],[-66.9067,-15.6212,1128.0793],[-66.904,-15.619,1038.1157],[-66.9029,-15.6198,1062.9915],[-66.8992,-15.6152,1013.6117],[-66.8996,-15.6041,982.1774],[-66.9027,-15.6036,958.3192],[-66.9042,-15.5997,988.9921],[-66.9067,-15.5984,945.2081],[-66.9071,-15.5936,933.5327],[-66.9111,-15.5919,915.4448],[-66.9124,-15.5874,938.9955],[-66.9112,-15.5858,950.2737],[-66.9147,-15.5847,897.0096],[-66.9174,-15.58,887.0343],[-66.9197,-15.579,889.3172],[-66.9188,-15.5768,926.1899],[-66.9231,-15.5752,877.9337],[-66.9217,-15.5723,905.2577],[-66.9235,-15.5688,868.5062],[-66.9289,-15.5672,865.1298],[-66.9309,-15.5684,869.8575],[-66.9324,-15.5657,858.8346],[-66.9346,-15.5656,856.5322],[-66.9345,-15.5609,873.065],[-66.9366,-15.5591,851.3264],[-66.9333,-15.5539,852.1287],[-66.9311,-15.5537,884.7003],[-66.9318,-15.5515,849.2024],[-66.9338,-15.5492,860.6566],[-66.9369,-15.5486,850.3956],[-66.9364,-15.5462,884.2563],[-66.9411,-15.5412,844.1201],[-66.9431,-15.5353,864.0459],[-66.9462,-15.5343,843.2872],[-66.9473,-15.5313,863.8938],[-66.9496,-15.5324,839.448],[-66.9497,-15.5258,924.3752],[-66.9545,-15.5238,845.6972],[-66.9565,-15.5253,847.1938],[-66.9559,-15.5222,848.2591],[-66.9591,-15.5195,838.4162],[-66.959,-15.5158,852.2405],[-66.9628,-15.5111,846.5596],[-66.9623,-15.5068,836.8031],[-66.9657,-15.5084,856.4875],[-66.9746,-15.4995,847.4404],[-66.9781,-15.5019,836.064],[-66.9785,-15.4976,861.1321],[-66.9854,-15.4973,834.0146],[-66.9864,-15.495,819.8839],[-66.9839,-15.4931,846.8913],[-66.9884,-15.4896,816.9198],[-66.9921,-15.4903,819.8781],[-66.9933,-15.4863,816.6397],[-67.001,-15.487,805.6245],[-67.0028,-15.4851,811.5104],[-67.0031,-15.4812,809.9509],[-67.0015,-15.4792,816.2557],[-67.0025,-15.4766,806.1899],[-67.0078,-15.4766,805.6083],[-67.0135,-15.4719,805.9373],[-67.0159,-15.4728,802.418],[-67.0218,-15.4661,824.1549],[-67.0254,-15.4676,800.5729],[-67.026,-15.4639,807.3124],[-67.0286,-15.4644,817.6761],[-67.0276,-15.4616,833.5151],[-67.0306,-15.4626,797.8173],[-67.0323,-15.459,810.3668],[-67.0372,-15.4587,808.4898],[-67.0358,-15.4573,835.0126],[-67.0366,-15.4554,803.941],[-67.0437,-15.4544,802.4236],[-67.0434,-15.453,802.4236],[-67.0399,-15.4525,810.8292],[-67.04,-15.4499,814.0557],[-67.0435,-15.45,801.4017],[-67.0467,-15.4464,791.8619],[-67.0473,-15.4491,785.1028],[-67.0505,-15.4506,781.7483],[-67.0518,-15.445,785.4086],[-67.0554,-15.4464,791.1558],[-67.0619,-15.4441,777.4563],[-67.0638,-15.4417,779.9255],[-67.0592,-15.442,769.2957],[-67.0589,-15.4409,769.9521],[-67.0659,-15.4398,767.988],[-67.0654,-15.4374,755.813],[-67.0701,-15.4332,761.0789],[-67.0671,-15.431,745.1462],[-67.0702,-15.428,738.0122],[-67.081,-15.4275,738.6093],[-67.0806,-15.4239,753.726],[-67.0844,-15.4226,709.7112],[-67.0866,-15.4187,713.6088],[-67.0862,-15.4145,704.6084],[-67.0845,-15.4136,717.1802],[-67.087,-15.4114,701.9775],[-67.0888,-15.4123,707.7643],[-67.0931,-15.4107,683.7669],[-67.0907,-15.4072,687.3599],[-67.0957,-15.4071,686.4031],[-67.0966,-15.4109,705.2238],[-67.1004,-15.4112,664.7976],[-67.0997,-15.407,690.8852],[-67.101,-15.4048,661.514],[-67.1045,-15.4056,654.6577],[-67.1065,-15.3994,654.1863],[-67.1108,-15.4004,651.1413],[-67.1127,-15.3986,645.9719],[-67.1129,-15.3957,642.8851],[-67.1098,-15.3946,681.8528],[-67.1104,-15.3924,636.604],[-67.1183,-15.3933,629.5207],[-67.1155,-15.3902,661.5486],[-67.1165,-15.3871,640.8322],[-67.1058,-15.3718,660.7699],[-67.1056,-15.3668,636.8204],[-67.103,-15.3626,555.2589],[-67.0995,-15.3602,551.0856],[-67.0945,-15.3609,545.2546],[-67.0937,-15.3558,543.4729],[-67.0886,-15.3529,558.5059],[-67.0883,-15.3454,520.8903],[-67.0833,-15.3374,506.7304],[-67.0841,-15.3274,493.8846],[-67.0861,-15.3223,488.2331],[-67.0807,-15.3212,529.8142],[-67.0814,-15.3145,479.8404],[-67.0823,-15.3122,489.9193],[-67.0845,-15.3116,480.6831],[-67.0861,-15.3053,475.05],[-67.09,-15.3009,485.2907],[-67.1021,-15.3005,476.3684],[-67.106,-15.296,485.1989],[-67.1044,-15.2901,476.3631],[-67.109,-15.2898,492.4612],[-67.1143,-15.2794,472.8745],[-67.1184,-15.2771,456.3373],[-67.1256,-15.2772,454.7122],[-67.1269,-15.2738,448.0398],[-67.1357,-15.2747,482.4374],[-67.1342,-15.271,440.8116],[-67.1298,-15.272,445.2988],[-67.1293,-15.2696,444.36],[-67.1322,-15.2629,459.2693],[-67.1374,-15.2648,447.4423],[-67.1375,-15.2596,425.9264],[-67.1339,-15.2589,429.2162],[-67.1325,-15.2603,447.8399],[-67.1303,-15.2581,455.6396],[-67.1354,-15.2535,432.1317],[-67.1365,-15.2502,419.9679],[-67.1308,-15.25,433.0871],[-67.1278,-15.2518,437.1108],[-67.1268,-15.2506,410.2138],[-67.1339,-15.2328,414.9988],[-67.1371,-15.2353,430.4663],[-67.1391,-15.2343,410.5805],[-67.138,-15.2307,408.3888],[-67.1353,-15.2307,398.5329],[-67.1369,-15.2213,415.3842],[-67.1384,-15.2186,410.7213],[-67.1436,-15.218,419.4619],[-67.1419,-15.2154,388.2038],[-67.1449,-15.2123,392.2586],[-67.1446,-15.2085,385.8195],[-67.1474,-15.2074,400.3917],[-67.1474,-15.2039,388.7247],[-67.1494,-15.2024,387.5828],[-67.1514,-15.1968,385.7197],[-67.1549,-15.2006,377.4189],[-67.1569,-15.1908,409.5484],[-67.161,-15.1918,393.6907],[-67.1603,-15.1892,387.7699],[-67.1579,-15.1886,390.2045],[-67.1573,-15.1837,410.9727],[-67.1593,-15.1835,372.1143],[-67.1621,-15.1861,376.1332],[-67.1671,-15.1844,382.4507],[-67.1675,-15.1767,393.4942],[-67.1691,-15.1738,369.4981],[-67.1678,-15.1707,414.6881],[-67.1726,-15.1706,375.6077],[-67.1708,-15.1645,380.2696],[-67.1736,-15.162,387.1311],[-67.1757,-15.1634,375.7087],[-67.1774,-15.1625,363.9809],[-67.1801,-15.1563,368.5007],[-67.1864,-15.1579,371.4359],[-67.1862,-15.1512,447.1005],[-67.19,-15.148,354.881],[-67.1925,-15.1522,369.8571],[-67.1965,-15.1546,378.691],[-67.1977,-15.1505,349.7477],[-67.1944,-15.1489,371.6982],[-67.1942,-15.1451,380.5817],[-67.196,-15.143,355.7824],[-67.1943,-15.1395,363.3163],[-67.191,-15.1404,348.2892],[-67.1909,-15.1383,341.3525],[-67.1969,-15.1341,368.8802],[-67.1967,-15.1321,355.187],[-67.1992,-15.1299,343.3106],[-67.2056,-15.1301,368.0059],[-67.2037,-15.1275,339.8157],[-67.2054,-15.1222,340.7413],[-67.2132,-15.1126,339.0725],[-67.2161,-15.112,331.8354],[-67.2181,-15.1175,331.317],[-67.2194,-15.1157,330.635],[-67.2188,-15.1132,356.9982],[-67.2238,-15.1084,334.1482],[-67.2257,-15.1096,338.2794],[-67.2243,-15.1163,351.8184],[-67.2255,-15.1174,330.1243],[-67.2291,-15.1169,331.0841],[-67.2317,-15.1124,341.0884],[-67.2385,-15.1146,356.9582],[-67.2371,-15.1083,321.8092],[-67.2346,-15.11,349.9651],[-67.2332,-15.1085,336.4875],[-67.2379,-15.1047,352.7331],[-67.2395,-15.101,337.0015],[-67.2432,-15.0994,327.3482],[-67.245,-15.0918,323.5656],[-67.2418,-15.0886,321.3205],[-67.2394,-15.0923,323.0886],[-67.238,-15.0922,323.0886],[-67.2389,-15.0893,330.4354],[-67.2377,-15.0858,323.8431],[-67.2347,-15.0868,329.3745],[-67.2332,-15.0853,324.3368],[-67.239,-15.0793,328.8048],[-67.2359,-15.0783,321.4059],[-67.2356,-15.0767,329.8734],[-67.2386,-15.0749,322.197],[-67.2433,-15.0763,329.8307],[-67.2447,-15.0731,321.6189],[-67.2388,-15.0699,318.2628],[-67.2379,-15.0626,315.2546],[-67.2408,-15.0601,318.6978],[-67.2379,-15.0586,314.2023],[-67.2412,-15.0573,314.171],[-67.243,-15.0523,323.0896],[-67.2443,-15.0553,321.8522],[-67.2462,-15.054,312.7917],[-67.2475,-15.0486,364.0656],[-67.2494,-15.047,307.5623],[-67.2507,-15.047,305.6116],[-67.2518,-15.0568,333.1044],[-67.2531,-15.0577,303.9217],[-67.2565,-15.0566,332.6111],[-67.2551,-15.0543,320.0109],[-67.2568,-15.0525,317.2395],[-67.259,-15.054,301.6754],[-67.2615,-15.0535,309.9621],[-67.2604,-15.0513,325.9441],[-67.264,-15.0466,311.5538],[-67.2668,-15.0469,314.2108],[-67.2751,-15.0414,312.7259],[-67.28,-15.0427,301.9042],[-67.281,-15.0408,307.8798],[-67.2793,-15.0289,304.3815],[-67.285,-15.0304,301.0622],[-67.2857,-15.0369,298.908],[-67.2872,-15.0382,323.6078],[-67.2912,-15.0372,302.3139],[-67.2917,-15.0343,312.2701],[-67.2883,-15.0299,301.8818],[-67.2903,-15.0271,303.72],[-67.2979,-15.0285,293.2873],[-67.3012,-15.0323,292.7539],[-67.3029,-15.0383,290.8139],[-67.3002,-15.0418,293.7045],[-67.3008,-15.0434,300.8777],[-67.3038,-15.0441,317.1813],[-67.3088,-15.0396,299.2162],[-67.3153,-15.037,287.7946],[-67.3181,-15.0391,313.0118],[-67.319,-15.0462,290.0375],[-67.3216,-15.0455,289.9676],[-67.3294,-15.0377,297.6188],[-67.335,-15.0448,312.0687],[-67.3366,-15.0391,280.6983],[-67.3432,-15.0367,292.6467],[-67.3425,-15.0296,290.1116],[-67.3475,-15.0335,277.1835],[-67.3494,-15.0381,283.2803],[-67.3521,-15.0368,288.5003],[-67.3518,-15.0338,280.7403],[-67.3545,-15.0287,283.8951],[-67.3545,-15.0228,286.9968],[-67.356,-15.0209,276.8955],[-67.359,-15.0227,287.4641],[-67.3604,-15.0315,299.7139],[-67.3623,-15.0331,291.7395],[-67.3676,-15.0282,279.0656],[-67.3734,-15.0271,274.5942],[-67.3767,-15.0218,274.364],[-67.3782,-15.0148,274.113],[-67.3806,-15.0155,278.2657],[-67.3815,-15.0196,282.356],[-67.3861,-15.0198,280.9182],[-67.3864,-15.0128,272.544],[-67.3961,-15.0093,272.1027],[-67.4008,-14.9989,272.0541],[-67.4001,-14.9936,280.8091],[-67.3942,-14.9922,277.6826],[-67.3938,-14.9884,279.7224],[-67.3997,-14.9881,279.7829],[-67.4033,-14.994,273.0233],[-67.4057,-14.9948,269.8955],[-67.409,-14.9924,272.3359],[-67.4136,-14.9929,269.2084],[-67.4164,-14.9892,264.4927],[-67.4158,-14.9861,272.7795],[-67.411,-14.9812,271.3662],[-67.41,-14.9753,270.4304],[-67.4066,-14.9718,268.2896],[-67.4079,-14.969,269.0862],[-67.4104,-14.9682,271.1919],[-67.4165,-14.9711,264.5936],[-67.4192,-14.9708,262.008],[-67.4207,-14.9642,273.8289],[-67.4167,-14.9605,268.3672],[-67.4182,-14.9554,257.8965],[-67.4127,-14.9505,257.2974],[-67.4229,-14.9447,263.9493],[-67.4205,-14.9401,271.3281],[-67.4224,-14.9338,261.412],[-67.4176,-14.931,263.059],[-67.418,-14.9281,257.0297],[-67.4215,-14.9265,269.418],[-67.4226,-14.9222,266.7071],[-67.4243,-14.9226,261.0112],[-67.425,-14.9268,268.6281],[-67.4277,-14.9259,260.0482],[-67.4286,-14.9237,264.903],[-67.4244,-14.9119,257.6243],[-67.4171,-14.9095,261.2324],[-67.4155,-14.9074,253.2032],[-67.4174,-14.9046,265.3003],[-67.4225,-14.9052,260.3503],[-67.4242,-14.8984,259.1891],[-67.4263,-14.8973,255.8817],[-67.43,-14.8982,271.4967],[-67.4315,-14.894,288.7533],[-67.4289,-14.883,255.2585],[-67.4225,-14.8809,252.0485],[-67.4201,-14.8765,254.4458],[-67.4151,-14.8727,252.724],[-67.4128,-14.8671,252.4989],[-67.4081,-14.8657,251.5874],[-67.402,-14.8672,250.6743],[-67.4003,-14.8657,246.9479],[-67.4027,-14.8621,250.4803],[-67.41,-14.8611,242.75],[-67.4059,-14.8572,246.6646],[-67.4035,-14.8505,245.7622],[-67.4051,-14.847,256.1527],[-67.4105,-14.845,254.944],[-67.4109,-14.8434,256.7925],[-67.4093,-14.8408,252.5627],[-67.4052,-14.8444,251.4544],[-67.4027,-14.8426,243.0535],[-67.4031,-14.8399,243.1206],[-67.4099,-14.8366,260.2245],[-67.4089,-14.8341,242.8951],[-67.4004,-14.8366,260.5699],[-67.3983,-14.8333,260.9527],[-67.3999,-14.8309,259.2081],[-67.4075,-14.8304,242.2569],[-67.4082,-14.8278,247.6996],[-67.4019,-14.8259,240.7236],[-67.3958,-14.8262,241.4684],[-67.3931,-14.8202,238.0],[-67.3872,-14.8202,257.9747],[-67.3866,-14.8179,254.2887],[-67.3887,-14.8163,258.3996],[-67.399,-14.8173,239.5563],[-67.3995,-14.8133,243.4303],[-67.3968,-14.8041,254.7612],[-67.3942,-14.8014,249.4952],[-67.393,-14.7941,236.6365],[-67.3966,-14.7928,242.2863],[-67.4002,-14.7954,246.8869],[-67.4041,-14.7949,240.3793],[-67.4065,-14.7805,240.076],[-67.4094,-14.7794,244.2997],[-67.4134,-14.7819,247.9742],[-67.4164,-14.7772,233.7801],[-67.4157,-14.7744,245.1263],[-67.4116,-14.7711,238.0294],[-67.4143,-14.7624,253.0642],[-67.4168,-14.7621,238.0905],[-67.4192,-14.766,229.0],[-67.4242,-14.7623,239.9535],[-67.4244,-14.7598,231.4311],[-67.4202,-14.7519,229.7369],[-67.4157,-14.7472,231.0115],[-67.4164,-14.7448,230.5731],[-67.4197,-14.744,241.1846],[-67.4229,-14.7485,247.4135],[-67.4276,-14.7478,243.9061],[-67.4287,-14.7453,245.2994],[-67.4249,-14.7396,231.5643],[-67.4262,-14.7364,231.508],[-67.4295,-14.7355,241.1665],[-67.4339,-14.7372,227.2704],[-67.437,-14.736,240.0299],[-67.4389,-14.7328,240.8358],[-67.442,-14.7314,249.8132],[-67.442,-14.7263,224.5247],[-67.4606,-14.7138,234.5434],[-67.4699,-14.7002,234.1841],[-67.4795,-14.6976,229.5831],[-67.4794,-14.6949,231.3628],[-67.475,-14.6883,226.685],[-67.4757,-14.6866,231.1188],[-67.4861,-14.6888,227.5875],[-67.4972,-14.6863,291.1573],[-67.4979,-14.6836,225.3371],[-67.4896,-14.6786,217.0588],[-67.4939,-14.6748,229.045],[-67.5032,-14.671,224.1139],[-67.5131,-14.6593,217.179],[-67.5141,-14.655,213.5],[-67.5093,-14.6482,256.8329],[-67.5104,-14.6449,230.0352],[-67.5146,-14.6433,222.8186],[-67.5181,-14.6447,229.5375],[-67.5237,-14.6544,217.9898],[-67.5275,-14.6537,228.5888],[-67.5288,-14.6517,220.7567],[-67.5284,-14.6451,226.7182],[-67.5249,-14.6435,226.5093],[-67.5207,-14.6439,222.6268],[-67.5198,-14.642,216.2487],[-67.5216,-14.6392,223.2908],[-67.5294,-14.6372,220.0028],[-67.5294,-14.6326,215.8916],[-67.5257,-14.6274,222.2662],[-67.5261,-14.615,210.4352],[-67.529,-14.6096,226.3819],[-67.5368,-14.6022,209.4828],[-67.5384,-14.5962,208.0259],[-67.5376,-14.5931,209.8891],[-67.5276,-14.5897,206.0],[-67.5233,-14.5863,209.115],[-67.5205,-14.5824,217.4011],[-67.5219,-14.5735,213.8688],[-67.5201,-14.5709,214.4608],[-67.5041,-14.5644,203.5],[-67.4994,-14.5609,203.0],[-67.5001,-14.5511,202.5],[-67.4986,-14.5483,247.803],[-67.4991,-14.5399,250.2986],[-67.4967,-14.5223,200.0],[-67.4943,-14.5157,199.5],[-67.492,-14.5129,199.5],[-67.4833,-14.5082,199.7774],[-67.4816,-14.5036,199.0],[-67.4823,-14.4987,199.0],[-67.4851,-14.4942,198.5],[-67.4912,-14.4927,197.5],[-67.5008,-14.4954,195.0],[-67.5092,-14.493,194.0],[-67.5168,-14.4732,192.5],[-67.5224,-14.4688,192.0],[-67.5276,-14.4671,191.5],[-67.531,-14.4587,191.0],[-67.5309,-14.4551,191.0],[-67.5339,-14.4501,209.3851],[-67.5312,-14.4306,199.9983],[-67.5329,-14.4171,197.3716],[-67.5497,-14.4147,194.0714],[-67.5572,-14.4107,187.4635],[-67.5597,-14.4056,186.8502],[-67.558,-14.3993,194.6196],[-67.5426,-14.3905,186.7368],[-67.5417,-14.3861,188.3765],[-67.5436,-14.3811,186.2927],[-67.5575,-14.3729,183.0],[-67.5581,-14.3695,189.9533],[-67.5546,-14.3668,193.5335],[-67.542,-14.364,194.6924],[-67.538,-14.3602,183.0],[-67.5362,-14.3537,195.5157],[-67.5379,-14.3452,183.0],[-67.542,-14.3407,183.0],[-67.5458,-14.3405,183.0],[-67.5525,-14.3457,195.7149],[-67.5595,-14.347,183.0],[-67.5622,-14.3439,191.3575],[-67.5606,-14.3379,185.5638],[-67.5414,-14.3255,182.5],[-67.5367,-14.3207,183.51],[-67.5256,-14.3026,182.5],[-67.517,-14.2941,182.5],[-67.5103,-14.2907,182.5],[-67.5052,-14.2907,184.5973],[-67.4869,-14.2983,182.0],[-67.4826,-14.2985,182.0],[-67.4752,-14.2951,182.0],[-67.4726,-14.2882,185.4291],[-67.4751,-14.28,191.7869],[-67.4844,-14.2732,183.6906],[-67.49,-14.2699,181.0],[-67.5126,-14.262,181.0],[-67.5186,-14.2562,180.5],[-67.5203,-14.2508,180.5],[-67.5105,-14.2352,180.5],[-67.5091,-14.2273,184.9427],[-67.5126,-14.2196,188.0914],[-67.5307,-14.1995,180.0],[-67.5343,-14.1921,184.2386],[-67.5361,-14.1758,179.0],[-67.5346,-14.1659,179.2377],[-67.5185,-14.1368,179.0],[-67.5069,-14.1242,179.0],[-67.5049,-14.1188,179.0],[-67.5048,-14.1124,188.9015],[-67.5084,-14.1069,180.0266],[-67.5152,-14.1032,186.0963],[-67.5236,-14.1041,178.5],[-67.5397,-14.1101,178.0],[-67.5466,-14.1035,178.0],[-67.5506,-14.0935,177.5],[-67.5481,-14.0889,177.5],[-67.5422,-14.0866,183.8012],[-67.5262,-14.0899,177.0],[-67.5197,-14.0893,179.1449],[-67.5167,-14.0876,181.3725],[-67.5133,-14.0826,186.281],[-67.4942,-14.0679,184.4051],[-67.494,-14.0648,181.3982],[-67.4984,-14.0601,175.5],[-67.5079,-14.0566,175.5],[-67.5256,-14.0459,175.0],[-67.5459,-14.0376,174.5],[-67.5484,-14.0316,179.2323],[-67.5477,-14.0274,182.3996],[-67.5448,-14.0234,184.1505],[-67.5325,-14.0225,179.6804],[-67.527,-14.0172,174.0],[-67.5274,-14.0074,174.0],[-67.5395,-13.9826,174.0],[-67.5388,-13.9772,174.0],[-67.5324,-13.9663,174.0],[-67.5326,-13.9599,184.4523],[-67.5274,-13.9533,174.0],[-67.4953,-13.9293,175.5476],[-67.4861,-13.9198,174.0],[-67.4847,-13.9151,174.0],[-67.4861,-13.9112,182.6797],[-67.4902,-13.9089,184.4296],[-67.4943,-13.9086,180.028],[-67.5112,-13.9141,174.0],[-67.513,-13.911,174.0],[-67.5118,-13.9062,174.0],[-67.5043,-13.8962,174.0],[-67.4977,-13.8917,174.0],[-67.4797,-13.884,175.9532],[-67.4779,-13.8725,174.0],[-67.4739,-13.8644,174.0],[-67.4605,-13.8496,178.6685],[-67.4595,-13.846,174.0],[-67.4614,-13.8415,182.5372],[-67.4646,-13.8395,181.2933],[-67.4671,-13.8401,183.5959],[-67.4815,-13.8528,172.5],[-67.4864,-13.8536,180.3938],[-67.4901,-13.8499,183.9655],[-67.4917,-13.8424,177.0628],[-67.4962,-13.8385,172.0],[-67.5015,-13.8354,181.4641],[-67.5159,-13.8327,177.3498],[-67.5128,-13.8234,175.9833],[-67.5069,-13.8163,173.5336],[-67.484,-13.8023,171.5545],[-67.4818,-13.7945,171.0],[-67.4846,-13.7905,171.0],[-67.4895,-13.7899,179.2992],[-67.5045,-13.794,172.6259],[-67.5212,-13.7931,170.5],[-67.5254,-13.7894,173.9024],[-67.5252,-13.7832,170.0],[-67.5221,-13.7793,170.0],[-67.509,-13.7722,172.282],[-67.4902,-13.769,170.0],[-67.4839,-13.7664,170.0],[-67.4782,-13.7613,170.0],[-67.4735,-13.7495,169.5],[-67.4565,-13.7439,180.2506],[-67.4504,-13.7384,173.9889],[-67.4512,-13.7347,173.1268],[-67.461,-13.7263,173.6974],[-67.4623,-13.7182,172.6468],[-67.4588,-13.7127,170.0],[-67.452,-13.715,170.7379],[-67.4487,-13.7293,179.714],[-67.4349,-13.7355,169.5],[-67.4307,-13.7363,171.3053],[-67.4266,-13.7345,169.5],[-67.4313,-13.7205,178.5031],[-67.4315,-13.7102,177.6766],[-67.4285,-13.7067,173.8804],[-67.4204,-13.7074,175.9553],[-67.4171,-13.7043,179.4459],[-67.419,-13.6995,169.0],[-67.4279,-13.6925,176.7945],[-67.4356,-13.6833,176.3813],[-67.4391,-13.6669,180.8321],[-67.4387,-13.6636,178.6909],[-67.4348,-13.6576,173.1417],[-67.4189,-13.6534,175.4237],[-67.4134,-13.6479,183.9368],[-67.3934,-13.6407,168.0],[-67.3843,-13.6397,177.9887],[-67.3677,-13.6414,168.0],[-67.3635,-13.6382,180.7691],[-67.3649,-13.6348,172.4377],[-67.3695,-13.6319,172.5627],[-67.3786,-13.6176,181.1566],[-67.3868,-13.6107,168.0],[-67.3882,-13.6035,173.1165],[-67.3847,-13.6013,172.7569],[-67.3811,-13.6017,180.515],[-67.3764,-13.6048,167.5],[-67.3741,-13.6093,167.5],[-67.3673,-13.6108,176.2197],[-67.3633,-13.609,177.6618],[-67.3615,-13.6002,176.8592],[-67.3646,-13.5876,172.6526],[-67.3622,-13.5834,177.5678],[-67.3539,-13.5762,172.0237],[-67.3534,-13.5696,166.5],[-67.3579,-13.5653,172.3075],[-67.3726,-13.5701,170.4921],[-67.3778,-13.5681,167.0],[-67.3798,-13.5661,175.6093],[-67.3781,-13.5491,176.3683],[-67.3819,-13.5386,178.561],[-67.386,-13.5345,174.052],[-67.4006,-13.535,166.25],[-67.4044,-13.5295,178.9079],[-67.3965,-13.5186,176.5078],[-67.39,-13.5168,165.725],[-67.3804,-13.5194,175.2847],[-67.3754,-13.5159,167.2756],[-67.3739,-13.5093,175.0907],[-67.3755,-13.4995,171.345],[-67.3692,-13.4935,174.3912],[-67.3588,-13.4906,163.2997],[-67.3514,-13.4822,163.0],[-67.3478,-13.4715,163.0],[-67.3512,-13.4674,176.1846],[-67.3556,-13.4674,175.4162],[-67.3601,-13.4692,174.8811],[-67.3669,-13.4765,163.0],[-67.3708,-13.4839,165.9984],[-67.3771,-13.486,170.8773],[-67.3825,-13.4843,165.0],[-67.3875,-13.4781,166.14],[-67.3915,-13.4662,164.8564],[-67.3915,-13.4607,164.0],[-67.3889,-13.4562,165.1681],[-67.3821,-13.4551,175.0374],[-67.3648,-13.4571,165.5371],[-67.3589,-13.4554,163.0],[-67.3557,-13.4499,163.0],[-67.3553,-13.4448,172.3369],[-67.3592,-13.443,174.8531],[-67.3762,-13.4435,163.0],[-67.3914,-13.4406,163.0],[-67.3959,-13.4377,163.0],[-67.3979,-13.4302,172.6572],[-67.3962,-13.4266,174.1868],[-67.3799,-13.4221,163.0],[-67.3772,-13.42,163.0],[-67.3771,-13.4167,163.0],[-67.3792,-13.4137,166.0747],[-67.3889,-13.4086,162.5],[-67.391,-13.4013,162.5],[-67.3902,-13.3967,165.6433],[-67.3863,-13.3914,162.5],[-67.3779,-13.3859,162.5],[-67.3338,-13.3699,173.2811],[-67.3266,-13.3628,169.6969],[-67.3269,-13.3585,174.4294],[-67.3303,-13.3557,167.1278],[-67.3414,-13.3538,160.5],[-67.3561,-13.3539,163.217],[-67.358,-13.3511,160.0],[-67.357,-13.3479,160.0],[-67.3485,-13.3405,160.0],[-67.3261,-13.3269,160.0],[-67.3161,-13.3139,160.0],[-67.3001,-13.3051,163.3755],[-67.2978,-13.3023,165.4847],[-67.2963,-13.2958,171.426],[-67.303,-13.2887,170.8803],[-67.3008,-13.2784,167.5054],[-67.2941,-13.2725,168.592],[-67.2881,-13.2729,168.4044],[-67.2877,-13.3013,165.2181],[-67.2861,-13.3041,166.7104],[-67.2829,-13.3053,160.0],[-67.2782,-13.3031,170.1267],[-67.2664,-13.2928,170.4933],[-67.2639,-13.2868,160.0],[-67.2628,-13.272,160.0],[-67.2643,-13.2658,159.5],[-67.267,-13.2617,170.674],[-67.2781,-13.2616,160.4424],[-67.2904,-13.2579,161.6292],[-67.2954,-13.2532,160.0],[-67.294,-13.2477,170.2231],[-67.2847,-13.242,160.0],[-67.2757,-13.2417,160.0],[-67.2721,-13.2453,162.9992],[-67.2689,-13.2536,172.0962],[-67.2654,-13.2572,159.5],[-67.258,-13.2596,170.4118],[-67.2512,-13.2583,160.5],[-67.2495,-13.2519,164.4366],[-67.2582,-13.2348,159.5],[-67.2647,-13.2288,159.0],[-67.2678,-13.2206,159.0],[-67.2685,-13.2162,163.2132],[-67.2667,-13.2096,168.7325],[-67.2539,-13.207,163.884],[-67.2458,-13.1973,168.5622],[-67.2379,-13.1938,158.5],[-67.2122,-13.1998,159.6778],[-67.204,-13.1985,158.7151],[-67.1979,-13.1953,157.8617],[-67.1984,-13.1888,164.6743],[-67.2015,-13.1863,164.6185],[-67.2173,-13.1824,158.5272],[-67.2256,-13.1783,157.5],[-67.2282,-13.1749,159.1161],[-67.2281,-13.1711,162.4781],[-67.2256,-13.1684,160.7755],[-67.2207,-13.1662,166.1808],[-67.1942,-13.1622,160.0349],[-67.1662,-13.1674,157.0],[-67.1603,-13.1664,157.0],[-67.1593,-13.163,160.0683],[-67.161,-13.1543,157.2197],[-67.1694,-13.1348,156.0],[-67.1844,-13.1294,163.4083],[-67.1871,-13.1278,162.9676],[-67.1874,-13.1258,156.0],[-67.1862,-13.1225,167.3476],[-67.1834,-13.1209,167.0486],[-67.1704,-13.1256,156.0],[-67.1659,-13.1238,156.8456],[-67.1631,-13.1115,156.0],[-67.1591,-13.1029,159.8615],[-67.1389,-13.0983,155.5],[-67.1363,-13.0956,164.7627],[-67.1344,-13.0922,166.2323],[-67.135,-13.0888,165.4967],[-67.1441,-13.082,161.9715],[-67.1472,-13.0662,155.5],[-67.1481,-13.0529,155.0],[-67.1405,-13.0468,155.0],[-67.1148,-13.0479,161.9385],[-67.1114,-13.0509,154.5],[-67.117,-13.0608,161.6518],[-67.1167,-13.0657,156.3217],[-67.1064,-13.0685,158.225],[-67.1019,-13.0649,153.5],[-67.1009,-13.0531,165.3722],[-67.1123,-13.0369,153.0],[-67.1113,-13.0312,158.9727],[-67.1045,-13.0269,162.7874],[-67.096,-13.0255,153.0],[-67.0923,-13.0269,153.0],[-67.092,-13.0309,165.1151],[-67.0978,-13.0375,153.0],[-67.098,-13.0416,153.0],[-67.0934,-13.0457,163.7585],[-67.0896,-13.0456,155.5242],[-67.0654,-13.0287,151.5],[-67.0611,-13.0298,151.0],[-67.0589,-13.0329,160.9052],[-67.0606,-13.0466,150.0],[-67.0576,-13.0511,150.0],[-67.0531,-13.0533,163.2548],[-67.0492,-13.0528,165.6783],[-67.0467,-13.0513,160.0993],[-67.0438,-13.0456,150.0],[-67.0424,-13.0233,157.9166],[-67.0434,-13.0131,159.5071],[-67.0653,-13.0038,150.0],[-67.0694,-12.9997,150.0],[-67.0702,-12.9944,151.4909],[-67.068,-12.9897,150.0],[-67.0599,-12.9828,150.0],[-67.0435,-12.9779,149.5],[-67.0384,-12.9741,153.7212],[-67.0394,-12.9669,158.8833],[-67.0444,-12.9627,149.5],[-67.0469,-12.9567,149.5],[-67.0424,-12.9422,150.0036],[-67.0366,-12.9319,149.0],[-67.0312,-12.929,155.3904],[-67.0206,-12.9308,156.614],[-67.0121,-12.9294,153.7768],[-67.0003,-12.9208,148.5],[-66.9981,-12.9166,148.5],[-67.0004,-12.9127,156.7471],[-67.0112,-12.9099,148.5],[-67.024,-12.9115,148.0],[-67.0336,-12.9089,149.7512],[-67.0363,-12.9009,147.75],[-67.0348,-12.8924,147.5],[-67.0275,-12.8865,152.1528],[-67.0189,-12.884,147.5],[-67.0119,-12.8852,149.1876],[-67.001,-12.8898,147.0],[-66.9951,-12.8885,148.7949],[-66.9932,-12.8808,155.0459],[-66.9941,-12.8629,147.0],[-66.9902,-12.8512,156.8752],[-66.9865,-12.8495,147.9506],[-66.9791,-12.8517,152.8969],[-66.9762,-12.8511,158.1949],[-66.9734,-12.8472,155.4781],[-66.9729,-12.84,148.7309],[-66.9668,-12.8363,151.3117],[-66.9609,-12.8362,151.7905],[-66.9582,-12.8373,149.6818],[-66.9536,-12.843,147.2473],[-66.9492,-12.8435,148.1888],[-66.9429,-12.826,155.7517],[-66.9439,-12.8234,145.0],[-66.9576,-12.8201,146.0498],[-66.9739,-12.8186,144.5],[-66.9831,-12.8097,152.3647],[-66.9869,-12.7918,151.8398],[-66.9856,-12.7846,144.0],[-66.9834,-12.7831,147.0954],[-66.954,-12.8022,143.5],[-66.95,-12.8004,143.5],[-66.9478,-12.7903,143.5],[-66.9524,-12.7816,155.8447],[-66.9682,-12.7716,143.0],[-66.9689,-12.769,144.735],[-66.967,-12.7606,145.4098],[-66.9687,-12.7538,147.9052],[-66.9806,-12.7406,142.5],[-66.9831,-12.7333,146.1657],[-66.9804,-12.7296,159.6016],[-66.9738,-12.7276,143.0066],[-66.9708,-12.7281,146.3264],[-66.9616,-12.7351,143.3477],[-66.9588,-12.7353,142.5],[-66.9533,-12.7281,142.5],[-66.9538,-12.7206,149.7551],[-66.9608,-12.7085,142.0],[-66.9707,-12.697,142.0],[-66.9713,-12.6903,142.0],[-66.9693,-12.6887,142.0],[-66.9582,-12.6874,142.0],[-66.9452,-12.6898,142.0],[-66.9397,-12.6875,145.3098],[-66.9394,-12.685,149.276],[-66.9471,-12.6709,143.8943],[-66.9515,-12.668,141.5],[-66.9688,-12.6652,143.2549],[-66.9732,-12.6632,141.5],[-66.9753,-12.6569,141.5],[-66.9708,-12.6518,141.5],[-66.9628,-12.6503,151.0883],[-66.9566,-12.6453,141.5],[-66.9546,-12.6298,141.0],[-66.9511,-12.6236,142.4909],[-66.9459,-12.6244,151.1228],[-66.9406,-12.6326,145.0273],[-66.9368,-12.6341,142.0312],[-66.93,-12.6323,145.6908],[-66.9273,-12.63,148.4656],[-66.9265,-12.6256,151.7395],[-66.929,-12.6193,141.0],[-66.9395,-12.6105,141.0],[-66.9468,-12.5994,146.654],[-66.9564,-12.5969,150.1266],[-66.9731,-12.5958,143.1892],[-66.9769,-12.5927,141.0],[-66.9746,-12.5765,142.2166],[-66.973,-12.5716,141.0],[-66.9695,-12.5678,141.0],[-66.9469,-12.5596,141.0],[-66.9437,-12.5573,141.0],[-66.9356,-12.5432,141.0],[-66.9279,-12.5394,141.0],[-66.919,-12.5385,147.1792],[-66.9174,-12.5338,141.0],[-66.9205,-12.5284,141.0],[-66.9555,-12.5085,141.0],[-66.9607,-12.5039,141.0],[-66.9673,-12.4903,141.0],[-67.9963,-11.8497,152.5],[-67.997,-11.8588,153.0],[-67.9881,-11.8728,153.5],[-67.9776,-11.8995,154.5],[-67.9746,-11.9193,155.0],[-67.9776,-11.9359,155.5],[-67.9871,-11.9483,156.0],[-68.0126,-11.9726,156.5],[-68.0178,-11.9767,156.5],[-68.0464,-11.9885,156.5],[-68.0614,-11.9982,156.5],[-68.0983,-12.0348,156.5],[-68.1036,-12.0373,156.5],[-68.1107,-12.0367,156.5],[-68.1171,-12.0343,156.5],[-68.1281,-12.0244,156.5],[-68.1333,-12.0219,156.5],[-68.1564,-12.0221,156.5],[-68.1842,-12.0111,156.5],[-68.2086,-12.0098,156.5],[-68.2334,-12.0108,156.5],[-68.2366,-12.0128,156.5],[-68.2386,-12.0211,156.5],[-68.2317,-12.041,156.5],[-68.2311,-12.0563,156.5],[-68.2272,-12.0751,157.0],[-68.2264,-12.0842,157.0],[-68.2306,-12.0983,157.0],[-68.2311,-12.1048,157.0],[-68.2253,-12.1271,157.0],[-68.2253,-12.1383,157.0],[-68.2342,-12.1693,157.0],[-68.2403,-12.1807,157.0],[-68.2443,-12.1874,157.0],[-68.2498,-12.1923,157.0],[-68.2712,-12.2048,157.0],[-68.2829,-12.2172,157.0],[-68.2929,-12.2246,157.0],[-68.3015,-12.2281,157.0],[-68.3106,-12.2289,157.0],[-68.339,-12.22,157.0],[-68.3582,-12.2225,157.0],[-68.3782,-12.2312,157.0],[-68.4041,-12.2542,157.0],[-68.4117,-12.264099999999999,157.0],[-68.415,-12.2746,157.0],[-68.4144,-12.2812,157.0],[-68.4029,-12.3027,157.0],[-68.4002,-12.3323,157.5],[-68.4046,-12.3636,158.0],[-68.4193,-12.382,158.5],[-68.4385,-12.3975,159.0],[-68.4572,-12.4174,159.5],[-68.4656,-12.4224,159.5],[-68.472,-12.4232,159.5],[-68.4856,-12.4203,160.0],[-68.4922,-12.4168,160.0],[-68.5022,-12.4033,160.0],[-68.5082,-12.3993,160.0],[-68.5196,-12.3952,160.0],[-68.5562,-12.3902,160.0],[-68.5712,-12.3897,160.0],[-68.5837,-12.3936,160.0],[-68.5882,-12.3969,160.0],[-68.5905,-12.4006,160.0],[-68.5901,-12.4058,160.0],[-68.5815,-12.4197,160.0],[-68.5597,-12.4443,160.0],[-68.5581,-12.4478,160.0],[-68.5586,-12.4543,160.0],[-68.5626,-12.4591,160.0],[-68.6183,-12.4954,160.0],[-68.6375,-12.4984,160.0],[-68.6522,-12.4977,160.0],[-68.6534,-12.5098,173.5708],[-68.6588,-12.5143,165.9335],[-68.661,-12.5192,165.2671],[-68.6563,-12.5235,167.5924],[-68.6541,-12.5303,166.3131],[-68.6568,-12.5363,195.0852],[-68.6614,-12.5361,167.1507],[-68.6616,-12.5306,170.0315],[-68.6643,-12.5246,174.6512],[-68.6709,-12.5254,171.4498],[-68.6805,-12.5226,170.9216],[-68.683,-12.5234,166.7273],[-68.6819,-12.5279,176.0528],[-68.6748,-12.5302,171.3497],[-68.6727,-12.5424,169.7363],[-68.6742,-12.5523,169.1901],[-68.6765,-12.5549,175.1594],[-68.6917,-12.5574,170.7174],[-68.692,-12.5638,187.8145],[-68.6999,-12.5722,174.2922],[-68.6976,-12.5782,170.0856],[-68.6923,-12.5821,194.0226],[-68.6926,-12.5851,184.2796],[-68.6981,-12.5887,171.8187],[-68.6992,-12.5811,167.2777],[-68.701,-12.5795,172.8347],[-68.7026,-12.5851,193.849],[-68.7114,-12.5927,191.9573],[-68.7142,-12.6052,173.6787],[-68.7197,-12.6056,176.0845],[-68.7212,-12.603,187.4631],[-68.7233,-12.6029,175.0898],[-68.7255,-12.6071,191.1791],[-68.7326,-12.6106,172.6137],[-68.7346,-12.6255,177.1681],[-68.7417,-12.6341,176.3507],[-68.7342,-12.6435,175.5377],[-68.7315,-12.6518,179.0297],[-68.7322,-12.6542,175.8214],[-68.7378,-12.6573,188.1456],[-68.7345,-12.6681,178.3561],[-68.7327,-12.6693,168.7462],[-68.7299,-12.6675,170.5013],[-68.7291,-12.6724,194.0556],[-68.7267,-12.6747,193.7288],[-68.725,-12.6685,184.886],[-68.7209,-12.6674,191.1088],[-68.7178,-12.6777,173.9203],[-68.7124,-12.6806,173.0333],[-68.7204,-12.6877,172.9657],[-68.7287,-12.6889,177.6018],[-68.7352,-12.6923,182.7675],[-68.7358,-12.6955,194.444],[-68.7327,-12.6972,177.8346],[-68.729,-12.6911,174.4574],[-68.7263,-12.691,188.0132],[-68.7251,-12.6965,193.6791],[-68.7274,-12.6999,188.4004],[-68.7328,-12.7014,184.2332],[-68.7362,-12.705,187.1075],[-68.7433,-12.7087,183.1038],[-68.7403,-12.7139,181.2175],[-68.7353,-12.7096,184.9005],[-68.729,-12.7117,183.789],[-68.7286,-12.7135,187.817],[-68.7353,-12.7172,182.374],[-68.7414,-12.718,181.7769],[-68.7423,-12.7255,175.8894],[-68.747,-12.7306,179.3783],[-68.7531,-12.7314,185.1557],[-68.7555,-12.7347,199.4294],[-68.7673,-12.7429,182.4507],[-68.769,-12.7423,178.8291],[-68.7704,-12.7386,180.0661],[-68.7775,-12.7381,190.9831],[-68.7785,-12.7327,186.5022],[-68.7804,-12.7322,172.0],[-68.7813,-12.7366,181.0801],[-68.7844,-12.7403,172.5],[-68.7836,-12.7449,176.7259],[-68.787,-12.7481,192.4006],[-68.7877,-12.7547,183.3978],[-68.7916,-12.7604,181.513],[-68.8006,-12.7555,176.0058],[-68.8047,-12.7558,175.4705],[-68.8055,-12.7581,180.0992],[-68.8034,-12.7637,190.5574],[-68.8085,-12.7656,184.8258],[-68.8049,-12.7694,184.0581],[-68.8049,-12.7715,193.0788],[-68.8094,-12.7766,180.5091],[-68.8047,-12.7842,186.5722],[-68.8066,-12.7855,187.1839],[-68.8122,-12.7839,185.6875],[-68.818,-12.7884,185.1556],[-68.8189,-12.7919,184.0908],[-68.8165,-12.7981,192.4547],[-68.8129,-12.7982,187.6809],[-68.8108,-12.8001,186.4279],[-68.8077,-12.8087,203.5143],[-68.8101,-12.8103,193.6665],[-68.815,-12.8047,185.6505],[-68.8205,-12.806,179.2593],[-68.8241,-12.8043,187.7262],[-68.8254,-12.8133,197.4228],[-68.8277,-12.8134,187.8644],[-68.8313,-12.8096,186.1156],[-68.8341,-12.8102,193.9047],[-68.8349,-12.8185,184.3306],[-68.8398,-12.8231,189.1045],[-68.8393,-12.826,184.1708],[-68.8316,-12.8258,191.0392],[-68.8293,-12.8285,179.0],[-68.8297,-12.8307,181.6593],[-68.8321,-12.8317,195.2625],[-68.8363,-12.8285,182.9788],[-68.8396,-12.8291,179.5],[-68.8347,-12.8334,203.9467],[-68.8339,-12.838,184.3178],[-68.8313,-12.8412,190.6108],[-68.8318,-12.844,191.1561],[-68.8344,-12.8444,185.8082],[-68.839,-12.8415,191.1519],[-68.8423,-12.8434,192.3096],[-68.8343,-12.8554,196.4403],[-68.8344,-12.8582,197.5404],[-68.8371,-12.8595,190.3853],[-68.8437,-12.8567,186.0591],[-68.8477,-12.8653,186.7365],[-68.8514,-12.867,193.5689],[-68.8552,-12.8638,195.9214],[-68.8558,-12.8586,185.3404],[-68.8576,-12.858,184.3254],[-68.8593,-12.8649,195.4381],[-68.8646,-12.8674,185.039],[-68.8691,-12.8671,186.3405],[-68.8712,-12.8698,188.8259],[-68.8706,-12.8724,189.3454],[-68.8662,-12.8717,187.1917],[-68.8641,-12.8738,184.3962],[-68.8666,-12.8806,195.8147],[-68.8733,-12.8889,191.154],[-68.868,-12.8909,199.8363],[-68.8649,-12.8947,199.8633],[-68.8663,-12.8969,194.4901],[-68.8706,-12.8968,188.3661],[-68.8732,-12.8986,189.4209],[-68.8673,-12.9028,212.9239],[-68.8714,-12.908,201.0846],[-68.8757,-12.9183,207.0013],[-68.8725,-12.9215,202.1112],[-68.8652,-12.9221,193.0995],[-68.8601,-12.9258,191.7437],[-68.8607,-12.9275,206.943],[-68.8653,-12.9278,185.6969],[-68.8661,-12.9331,202.5535],[-68.8736,-12.935,199.3809],[-68.8751,-12.9382,189.8233],[-68.8743,-12.9398,195.8767],[-68.8608,-12.9443,203.7007],[-68.8591,-12.9477,209.9567],[-68.862,-12.9492,194.3982],[-68.8694,-12.9478,196.0531],[-68.8733,-12.9437,189.0276],[-68.8758,-12.949,192.8745],[-68.876,-12.9538,189.0076],[-68.8826,-12.9534,191.6761],[-68.8839,-12.956,190.1685],[-68.8782,-12.9563,200.1045],[-68.8743,-12.9647,190.203],[-68.8744,-12.9711,188.6659],[-68.8768,-12.9769,197.9649],[-68.8761,-12.9797,203.8608],[-68.87,-12.9803,190.0011],[-68.8729,-12.9745,197.525],[-68.8664,-12.9696,189.6406],[-68.8648,-12.9758,192.059],[-68.8614,-12.9804,210.1983],[-68.8624,-12.9839,189.4829],[-68.8658,-12.9859,192.5313],[-68.8752,-12.9846,198.4119],[-68.879,-12.9868,189.8643],[-68.8792,-12.9887,187.5],[-68.8772,-12.9904,201.4914],[-68.8704,-12.9872,190.1991],[-68.866,-12.9953,188.0],[-68.8672,-12.9988,206.7216],[-68.8733,-13.0019,197.4093],[-68.8729,-13.0039,194.3761],[-68.8673,-13.0079,214.8867],[-68.8677,-13.0109,188.5],[-68.8748,-13.0112,198.4158],[-68.8759,-13.0146,204.8116],[-68.8713,-13.0194,199.286],[-68.8585,-13.0129,203.3245],[-68.8535,-13.0155,204.8909],[-68.853,-13.0183,205.181],[-68.8588,-13.0213,206.2137],[-68.8595,-13.028,201.0159],[-68.866,-13.0284,197.026],[-68.8677,-13.0316,197.9932],[-68.8613,-13.0362,196.7485],[-68.856,-13.0316,199.7553],[-68.8521,-13.0326,194.2458],[-68.8501,-13.0373,203.505],[-68.8543,-13.0391,196.2244],[-68.8551,-13.0421,204.1187],[-68.8542,-13.0439,195.1335],[-68.849,-13.0452,194.3374],[-68.8486,-13.0472,213.233],[-68.8499,-13.0488,200.3572],[-68.8612,-13.0463,197.2727],[-68.8636,-13.0475,200.3958],[-68.8626,-13.0574,194.5159],[-68.86,-13.0588,204.349],[-68.8554,-13.0581,192.5],[-68.855,-13.0652,207.8131],[-68.8581,-13.0683,198.8403],[-68.8602,-13.0743,204.0759],[-68.8691,-13.0789,201.5653],[-68.8703,-13.0816,212.8008],[-68.8598,-13.0951,205.8368],[-68.8652,-13.1102,211.4759],[-68.8713,-13.1112,207.39],[-68.8753,-13.1144,198.2934],[-68.8749,-13.118,212.647],[-68.873,-13.1186,206.6095],[-68.8676,-13.1164,204.9727],[-68.8664,-13.1184,206.1296],[-68.8707,-13.1224,204.7093],[-68.8734,-13.1319,212.7698],[-68.8774,-13.1339,209.7226],[-68.8786,-13.137,215.8358],[-68.8748,-13.1415,206.4384],[-68.8735,-13.1407,202.9129],[-68.8727,-13.1346,205.8199],[-68.8678,-13.134,200.7298],[-68.8663,-13.1374,203.5583],[-68.8717,-13.1488,215.0461],[-68.8666,-13.1464,200.8008],[-68.8634,-13.1504,202.2829],[-68.8578,-13.15,197.9491],[-68.8669,-13.1572,205.8799],[-68.8655,-13.1649,201.4468],[-68.8665,-13.1668,217.6759],[-68.8717,-13.1672,219.2772],[-68.8657,-13.1724,200.903],[-68.8594,-13.17,210.4801],[-68.8563,-13.1706,199.0],[-68.8637,-13.1763,208.3547],[-68.8601,-13.1843,211.5912],[-68.8621,-13.1855,205.3207],[-68.8696,-13.1789,204.8341],[-68.8725,-13.1793,204.5856],[-68.8733,-13.1812,208.4331],[-68.8687,-13.1843,216.3289],[-68.8674,-13.1911,205.3233],[-68.8627,-13.1903,206.5237],[-68.8608,-13.1915,223.472],[-68.8608,-13.1979,221.3965],[-68.8562,-13.201599999999999,208.7106],[-68.8522,-13.2107,205.8714],[-68.8523,-13.215,209.362],[-68.8545,-13.2179,209.8904],[-68.8586,-13.2117,209.0979],[-68.8624,-13.2127,216.8557],[-68.8615,-13.2183,217.4804],[-68.8632,-13.2253,209.2736],[-68.8618,-13.2264,216.9117],[-68.8578,-13.2217,213.2377],[-68.8551,-13.2212,217.515],[-68.8545,-13.2284,209.8551],[-68.8585,-13.2321,213.6197],[-68.8589,-13.235,210.9636],[-68.85,-13.2361,212.2188],[-68.8493,-13.241,204.0],[-68.8449,-13.2469,213.302],[-68.8489,-13.2494,206.9403],[-68.8528,-13.2482,213.3719],[-68.8553,-13.2492,219.9878],[-68.8609,-13.2574,228.7789],[-68.8593,-13.26,218.5702],[-68.8547,-13.2589,210.4617],[-68.8526,-13.2612,208.2161],[-68.86,-13.2638,215.4314],[-68.8612,-13.2666,218.9368],[-68.8494,-13.2697,212.4117],[-68.8526,-13.2748,221.8188],[-68.8594,-13.2693,214.4052],[-68.8621,-13.2703,212.6753],[-68.8625,-13.2727,213.4465],[-68.8589,-13.2798,214.8945],[-68.8538,-13.2835,211.2699],[-68.8545,-13.2845,211.2699],[-68.8591,-13.2838,213.4703],[-68.8613,-13.2856,230.2029],[-68.8607,-13.2895,232.3604],[-68.8569,-13.2925,226.8455],[-68.858,-13.2966,225.1008],[-68.8617,-13.2978,213.238],[-68.8657,-13.295,217.6083],[-68.8695,-13.2986,236.6667],[-68.8687,-13.3022,213.9712],[-68.8615,-13.3019,226.455],[-68.8623,-13.3064,228.8997],[-68.8595,-13.3109,218.8115],[-68.8626,-13.3135,212.3876],[-68.8618,-13.3192,222.608],[-68.8639,-13.3208,214.8302],[-68.8684,-13.3179,229.2813],[-68.8703,-13.3184,215.2613],[-68.872,-13.3255,214.7398],[-68.8776,-13.3269,222.6813],[-68.8803,-13.331,225.1891],[-68.8781,-13.3331,223.3731],[-68.8738,-13.3301,217.2908],[-68.8679,-13.3325,214.1156],[-68.8681,-13.334,216.7612],[-68.8724,-13.3346,215.2838],[-68.8749,-13.3383,225.9926],[-68.881,-13.3425,212.9451],[-68.8761,-13.3449,213.694],[-68.8743,-13.349,216.0863],[-68.8676,-13.3495,221.199],[-68.8679,-13.3537,223.0449],[-68.8737,-13.3522,218.944],[-68.8767,-13.3552,216.2774],[-68.8699,-13.3558,224.4985],[-68.8677,-13.358,225.3519],[-68.8732,-13.3588,216.8608],[-68.8734,-13.3631,227.6689],[-68.8749,-13.3642,215.3587],[-68.8783,-13.3627,224.6832],[-68.8814,-13.3642,212.5],[-68.8781,-13.3691,226.8222],[-68.8781,-13.372,214.1498],[-68.8845,-13.3701,224.0727],[-68.8888,-13.3713,223.207],[-68.8824,-13.3806,220.8113],[-68.8836,-13.3822,222.1308],[-68.8893,-13.38,222.5766],[-68.8915,-13.382,224.9401],[-68.8907,-13.387,218.537],[-68.8881,-13.3829,234.7975],[-68.8862,-13.3836,213.5],[-68.8845,-13.3904,217.778],[-68.8852,-13.397,226.7772],[-68.8877,-13.3996,223.7736],[-68.8933,-13.398,232.6097],[-68.8952,-13.4004,226.5652],[-68.8928,-13.4049,236.8275],[-68.8858,-13.4016,240.2514],[-68.8864,-13.4074,216.2329],[-68.8878,-13.4083,243.3758],[-68.8907,-13.406,230.5487],[-68.8924,-13.4094,221.3575],[-68.8977,-13.4115,224.5772],[-68.8948,-13.4156,226.6774],[-68.8969,-13.4216,242.7807],[-68.8908,-13.4232,221.2271],[-68.8935,-13.4271,221.5665],[-68.8916,-13.4311,224.5848],[-68.901,-13.4352,221.5518],[-68.901,-13.4377,221.8814],[-68.8963,-13.4429,250.5337],[-68.8978,-13.4474,221.0564],[-68.8995,-13.4475,225.5918],[-68.9026,-13.4438,223.7777],[-68.9021,-13.4398,238.3231],[-68.9035,-13.4384,221.9514],[-68.9051,-13.4393,242.0594],[-68.9073,-13.4456,225.7152],[-68.9,-13.4515,218.5],[-68.8999,-13.4567,229.3422],[-68.8967,-13.4587,236.075],[-68.8958,-13.4636,233.1443],[-68.8976,-13.4649,234.8345],[-68.8994,-13.4604,223.145],[-68.9016,-13.4608,229.8641],[-68.9034,-13.464,228.881],[-68.9008,-13.4684,224.2693],[-68.9019,-13.4719,239.5152],[-68.9057,-13.4684,228.4419],[-68.9098,-13.4687,229.0825],[-68.9094,-13.4703,228.732],[-68.9052,-13.4718,233.4583],[-68.905,-13.4747,230.7732],[-68.9176,-13.4853,229.0736],[-68.9168,-13.4893,229.1374],[-68.9125,-13.4855,229.5004],[-68.9074,-13.486,228.7956],[-68.9065,-13.488,231.2265],[-68.9077,-13.4901,231.6347],[-68.9132,-13.4891,226.1981],[-68.9149,-13.4905,236.0586],[-68.915,-13.4922,237.12],[-68.9079,-13.4947,227.3702],[-68.9082,-13.497,235.3284],[-68.9137,-13.4965,236.5934],[-68.9161,-13.4979,227.0759],[-68.9159,-13.4996,241.8391],[-68.9116,-13.5005,226.8694],[-68.9109,-13.5031,232.3134],[-68.9222,-13.5081,236.6723],[-68.924,-13.5104,232.0003],[-68.9222,-13.5125,230.5222],[-68.918,-13.5099,240.2197],[-68.9159,-13.5102,229.5846],[-68.9151,-13.5136,228.23],[-68.9172,-13.5171,233.8063],[-68.9162,-13.5206,227.8522],[-68.918,-13.5206,230.8178],[-68.9217,-13.516,228.6134],[-68.932,-13.5203,234.6226],[-68.934,-13.5233,232.8618],[-68.9322,-13.5281,233.2628],[-68.9346,-13.5306,229.4633],[-68.9377,-13.5292,230.514],[-68.9381,-13.5268,232.7422],[-68.9355,-13.5225,235.2334],[-68.9381,-13.5197,239.3686],[-68.9427,-13.5278,233.3286],[-68.9459,-13.5286,233.2803],[-68.9452,-13.535,229.4312],[-68.9527,-13.5355,235.0836],[-68.9449,-13.5428,237.915],[-68.9483,-13.5447,246.2627],[-68.9533,-13.5512,241.8199],[-68.9514,-13.5533,247.2416],[-68.9468,-13.5538,233.4878],[-68.9454,-13.5563,256.8342],[-68.946,-13.563,240.3693],[-68.9486,-13.5664,256.6976],[-68.9474,-13.5712,258.2076],[-68.9542,-13.5738,241.1265],[-68.953,-13.5833,242.7826],[-68.9585,-13.5883,255.294],[-68.957,-13.594,254.4955],[-68.9522,-13.6018,249.7069],[-68.9531,-13.6049,280.7802],[-68.961,-13.6033,256.1108],[-68.9664,-13.6054,270.9563],[-68.9697,-13.6014,252.6931],[-68.9738,-13.6017,259.4693],[-68.9755,-13.6038,290.8086],[-68.9728,-13.609,253.6811],[-68.9736,-13.6117,272.2056],[-68.9775,-13.609,265.5145],[-68.9808,-13.6094,277.05],[-68.982,-13.6116,280.9665],[-68.9859,-13.6111,275.4582],[-68.992,-13.6185,288.4908],[-68.9998,-13.6189,280.387],[-68.9989,-13.6236,288.1321],[-69.0044,-13.6225,281.3159],[-69.0057,-13.6252,304.6479],[-69.0006,-13.6308,255.0],[-68.9974,-13.6333,290.026],[-68.994,-13.6322,281.8278],[-68.9903,-13.6356,288.1425],[-68.9972,-13.6402,290.8587],[-68.9949,-13.6465,279.0018],[-68.9928,-13.648,333.5682],[-68.9951,-13.6526,282.1217],[-69.0018,-13.6537,288.5507],[-69.0053,-13.6516,291.4985],[-69.0104,-13.6522,283.0865],[-69.0124,-13.6547,297.7903],[-69.0166,-13.6536,285.232],[-69.0198,-13.6579,291.356],[-69.0235,-13.6546,288.2924],[-69.0248,-13.6508,308.2214],[-69.0272,-13.6515,297.8377],[-69.0297,-13.6555,304.4656],[-69.0342,-13.6531,310.093],[-69.0372,-13.6464,310.4558],[-69.0359,-13.6444,299.7735],[-69.0329,-13.644,311.3148],[-69.0337,-13.6393,323.5904],[-69.0365,-13.6396,308.6369],[-69.0405,-13.6431,322.6545],[-69.0451,-13.6433,312.2111],[-69.0461,-13.6469,327.7861],[-69.051,-13.6502,322.4873],[-69.053,-13.6549,349.4854],[-69.0635,-13.6585,371.4666],[-69.0641,-13.6618,363.4726],[-69.0622,-13.6679,364.2552],[-69.0636,-13.6734,371.8872],[-69.0673,-13.6728,392.9904],[-69.0652,-13.6799,397.6554],[-69.0679,-13.6857,408.9804],[-69.067,-13.6879,414.7677],[-69.0592,-13.6912,417.3559],[-69.0585,-13.6936,422.4955],[-69.0557,-13.6929,422.3418],[-69.0537,-13.6987,469.894],[-69.0562,-13.7022,472.9866],[-69.0505,-13.7038,484.6458],[-69.0496,-13.7102,490.0445],[-69.0474,-13.7099,469.0541],[-69.047,-13.712,497.0477],[-69.0415,-13.7139,499.5949],[-69.0412,-13.7179,491.1234],[-69.0385,-13.7173,499.1656],[-69.038,-13.7143,539.6814],[-69.0357,-13.716,551.6757],[-69.0341,-13.7215,535.4053],[-69.0325,-13.7223,535.4053],[-69.0341,-13.7238,546.4774],[-69.032,-13.7266,603.8708],[-69.0346,-13.7285,587.7345],[-69.0312,-13.7302,597.7866],[-69.0261,-13.739,616.4624],[-69.0211,-13.7373,655.3081],[-69.0189,-13.7393,661.9391],[-69.0153,-13.7368,705.6802],[-69.0158,-13.7393,692.043],[-69.0133,-13.7402,750.8033],[-69.0124,-13.7384,706.7891],[-69.0085,-13.7374,720.3351],[-69.0068,-13.7404,772.0625],[-68.9998,-13.7427,775.8488],[-68.998,-13.7458,844.7529],[-68.9936,-13.7465,905.2228],[-68.9898,-13.7508,929.0537],[-68.9907,-13.7533,961.834],[-68.9844,-13.7544,970.331],[-68.9774,-13.7583,1006.1208],[-68.9756,-13.7612,1023.7479],[-68.9766,-13.766,1142.198],[-68.974,-13.7788,1486.6797],[-68.9919,-13.8258,1270.7301],[-68.995,-13.8448,844.1184],[-68.9867,-13.86,774.9231],[-68.9789,-13.8804,648.4398],[-68.9785,-13.8892,645.0627],[-68.9834,-13.8951,689.061],[-68.9823,-13.9001,759.1876],[-68.9848,-13.9044,655.5452],[-68.9847,-13.9126,652.916],[-68.9806,-13.9198,702.8579],[-68.9835,-13.9298,677.724],[-68.9785,-13.9339,661.2315],[-68.9758,-13.9423,677.926],[-68.9719,-13.9476,665.1442],[-68.9647,-13.9478,711.6498],[-68.9634,-13.9495,700.339],[-68.9645,-13.9519,669.125],[-68.97,-13.9535,677.368],[-68.9712,-13.9555,678.1957],[-68.9725,-13.9669,699.739],[-68.9764,-13.9692,698.0844],[-68.9795,-13.9758,688.1747],[-68.9755,-13.9818,691.4858],[-68.9676,-13.9849,692.2927],[-68.9637,-13.9906,705.3849],[-68.9645,-13.9948,703.0767],[-68.9595,-14.001,701.6669],[-68.9547,-14.0046,713.4602],[-68.9468,-14.0037,731.0696],[-68.9467,-14.0136,722.0602],[-68.9393,-14.015,834.2706],[-68.9399,-14.0192,751.6721],[-68.9431,-14.0206,736.0178],[-68.9385,-14.0227,791.8569],[-68.9366,-14.0265,760.5061],[-68.933,-14.0279,742.7014],[-68.9308,-14.0265,774.5281],[-68.9283,-14.0309,754.6987],[-68.9275,-14.0283,753.4492],[-68.9243,-14.0303,765.437],[-68.9199,-14.0289,771.8303],[-68.9186,-14.0265,756.4931],[-68.9173,-14.0281,762.5264],[-68.9183,-14.0305,771.2836],[-68.9161,-14.0343,784.5665],[-68.9094,-14.0364,786.8859],[-68.9093,-14.0407,795.9954],[-68.9034,-14.0397,811.8724],[-68.8906,-14.047,794.9291],[-68.8935,-14.0515,805.1526],[-68.8825,-14.0594,825.1911],[-68.8824,-14.0632,846.8438],[-68.8796,-14.066,817.2469],[-68.883,-14.0684,820.7014],[-68.8828,-14.072,854.24],[-68.8792,-14.0737,842.9681],[-68.8826,-14.0765,847.2083],[-68.8843,-14.0844,882.716],[-68.8795,-14.0891,879.0043],[-68.8754,-14.0876,962.7504],[-68.8758,-14.0947,900.9461],[-68.8743,-14.0968,894.6757],[-68.8754,-14.0993,925.9324],[-68.872,-14.1105,915.5635],[-68.8598,-14.1244,951.0507],[-68.859,-14.129,952.0911],[-68.8563,-14.1294,956.1752],[-68.8533,-14.1323,939.8978],[-68.8538,-14.1349,980.0768],[-68.8505,-14.1349,980.8804],[-68.8499,-14.1383,953.5509],[-68.8479,-14.1381,951.6445],[-68.8449,-14.141,958.9481],[-68.8389,-14.1406,960.7188],[-68.8378,-14.144,956.3447],[-68.8342,-14.1441,1035.6882],[-68.8364,-14.1467,995.3441],[-68.8332,-14.1496,981.6514],[-68.834,-14.1546,1063.2417],[-68.8371,-14.1519,972.6111],[-68.8412,-14.1537,976.2397],[-68.8467,-14.1529,984.1611],[-68.851,-14.1559,1017.3422],[-68.8534,-14.1618,1032.8019],[-68.8561,-14.1613,1025.9207],[-68.8565,-14.164,1016.7098],[-68.8529,-14.1663,1079.5743],[-68.8544,-14.1752,1050.7935],[-68.8502,-14.1788,1116.8273],[-68.8527,-14.1817,1088.7074],[-68.8512,-14.1866,1202.5693],[-68.8463,-14.1897,1086.8617],[-68.8476,-14.1967,1106.533],[-68.8446,-14.1964,1108.3033],[-68.8433,-14.199,1163.9365],[-68.8399,-14.1995,1151.1807],[-68.8351,-14.2028,1127.5593],[-68.8343,-14.2049,1147.1953],[-68.8318,-14.2055,1145.7776],[-68.8296,-14.2113,1190.8276],[-68.8274,-14.2123,1137.5623],[-68.8287,-14.2176,1266.37],[-68.8277,-14.2298,1217.3301],[-68.8328,-14.2346,1214.7848],[-68.8467,-14.2374,1520.9133],[-68.8596,-14.2357,1977.2893],[-68.8894,-14.2358,2422.7119],[-68.9153,-14.2378,2243.3884],[-68.9317,-14.2356,1871.6394],[-68.9502,-14.2377,2026.8755],[-68.9852,-14.2374,2381.0112],[-68.9867,-14.2709,2402.4033],[-68.9841,-14.3104,1943.1929],[-68.9846,-14.335,2291.9072],[-68.9913,-14.3475,2413.8625],[-68.993,-14.3664,2900.0173],[-69.0019,-14.3847,2721.2363],[-69.015,-14.3901,2595.7979],[-69.0196,-14.3968,2699.356],[-69.0249,-14.4092,2705.5156],[-69.038,-14.4219,2427.498],[-69.0486,-14.4481,2681.2283],[-69.0617,-14.4616,2985.6177],[-69.0951,-14.4832,3749.5266],[-69.1017,-14.4835,3721.1423],[-69.1135,-14.4881,3912.6631],[-69.1159,-14.5045,4143.8613],[-69.1222,-14.5095,4244.6602],[-69.1285,-14.5062,4226.6455],[-69.1358,-14.5052,4298.2769],[-69.1493,-14.5127,4417.3564],[-69.1489,-14.5162,4381.3936],[-69.144,-14.5187,4352.4829],[-69.1409,-14.5267,4175.9697],[-69.1427,-14.5348,4383.6284],[-69.1479,-14.5411,4431.4424],[-69.1476,-14.5648,4503.2993],[-69.1492,-14.5763,4429.1182],[-69.1653,-14.5835,4761.8301],[-69.1714,-14.5806,4754.1426],[-69.1778,-14.5839,4868.5371],[-69.1826,-14.5799,4927.2754],[-69.1892,-14.5789,4857.6699],[-69.1985,-14.5865,4840.9678],[-69.2255,-14.5809,5037.6304],[-69.2267,-14.5856,4872.5508],[-69.224,-14.595,5131.4561],[-69.2261,-14.5981,4932.2295],[-69.2306,-14.5991,5023.0591],[-69.2343,-14.6176,5322.9175],[-69.2297,-14.6207,5331.4648],[-69.2265,-14.6276,5745.001],[-69.2306,-14.6341,5803.2002],[-69.2404,-14.6596,5592.5981],[-69.2459,-14.6647,5484.5312],[-69.2479,-14.6702,5739.9233],[-69.251,-14.6705,5649.9409],[-69.258,-14.6855,5468.0107],[-69.2535,-14.7019,5544.4355],[-69.2429,-14.7165,5680.1108],[-69.2364,-14.7174,5540.0967],[-69.2341,-14.7231,5500.6162],[-69.2345,-14.7259,5587.4741],[-69.2262,-14.7366,5242.0371],[-69.2305,-14.7487,4603.8833],[-69.2357,-14.7556,4592.0],[-69.2423,-14.7595,4592.0],[-69.2678,-14.7673,4592.0],[-69.272,-14.7682,4592.0],[-69.2791,-14.7662,4592.0],[-69.3013,-14.7673,4592.0],[-69.3163,-14.7748,4592.0],[-69.3392,-14.7943,4596.2974],[-69.3434,-14.7938,4591.6108],[-69.3492,-14.7969,4571.9678],[-69.3575,-14.8128,4539.5674],[-69.355,-14.8316,4502.8975],[-69.354,-14.8579,4449.6416],[-69.3435,-14.8828,4413.627],[-69.3524,-14.9242,4376.1846],[-69.3558,-14.9293,4441.1943],[-69.3644,-14.9298,4358.1851],[-69.3604,-14.9589,4339.52],[-69.3526,-14.9749,4333.5166],[-69.3302,-14.9967,4328.5845],[-69.3264,-15.0029,4328.083],[-69.3268,-15.0051,4328.4756],[-69.3244,-15.0054,4328.5034],[-69.3257,-15.0081,4327.5435],[-69.3234,-15.0109,4328.0322],[-69.3247,-15.0122,4327.063],[-69.3228,-15.0127,4327.1602],[-69.3236,-15.0165,4327.1558],[-69.3198,-15.0227,4327.9683],[-69.3201,-15.0281,4325.5786],[-69.3152,-15.037,4324.3184],[-69.3147,-15.0425,4325.106],[-69.311,-15.04,4323.6235],[-69.311,-15.0442,4323.7729],[-69.3088,-15.044,4323.4272],[-69.3066,-15.0407,4324.1143],[-69.3054,-15.0416,4322.7646],[-69.3057,-15.0471,4323.3076],[-69.301,-15.0469,4323.0767],[-69.2997,-15.0484,4323.8271],[-69.3044,-15.0542,4322.1846],[-69.2997,-15.0608,4322.8047],[-69.2992,-15.0655,4322.4092],[-69.2965,-15.0682,4320.9741],[-69.2989,-15.0709,4320.6606],[-69.2948,-15.0718,4321.2236],[-69.2957,-15.0744,4322.645],[-69.2915,-15.0745,4320.7417],[-69.2902,-15.0824,4320.4717],[-69.2935,-15.0833,4322.0181],[-69.2927,-15.0854,4322.1523],[-69.2872,-15.0834,4319.9199],[-69.2855,-15.0969,4319.8628],[-69.2816,-15.0944,4319.4639],[-69.2827,-15.0992,4318.8809],[-69.28,-15.1008,4318.4775],[-69.28,-15.1026,4318.959],[-69.2772,-15.1024,4318.4492],[-69.2732,-15.1046,4319.6104],[-69.2741,-15.1067,4319.3057],[-69.278,-15.1084,4319.043],[-69.2771,-15.1115,4320.375],[-69.2739,-15.1123,4318.645],[-69.2736,-15.1082,4319.0],[-69.2715,-15.1078,4318.5444],[-69.2711,-15.1051,4318.1802],[-69.2696,-15.1049,4317.9927],[-69.2684,-15.1056,4319.5952],[-69.2698,-15.109,4317.7793],[-69.2673,-15.1101,4317.5723],[-69.2685,-15.1158,4318.3652],[-69.2674,-15.1169,4317.4683],[-69.2657,-15.1167,4317.2778],[-69.2634,-15.1102,4317.0073],[-69.2584,-15.1108,4317.3789],[-69.2577,-15.1136,4316.9189],[-69.2518,-15.1117,4315.8149],[-69.2481,-15.1154,4316.146],[-69.2434,-15.1121,4317.3975],[-69.2439,-15.1148,4315.2705],[-69.2412,-15.1178,4315.7876],[-69.2443,-15.12,4315.6953],[-69.2442,-15.1217,4315.8364],[-69.2414,-15.1225,4315.6016],[-69.2368,-15.1196,4314.6777],[-69.2371,-15.1233,4314.5884],[-69.2334,-15.1236,4314.8892],[-69.2342,-15.1266,4314.8589],[-69.23,-15.1285,4314.334],[-69.2295,-15.1326,4313.7314],[-69.2258,-15.1312,4315.1128],[-69.2243,-15.1366,4314.2852],[-69.2171,-15.1366,4313.353],[-69.2151,-15.1424,4313.1709],[-69.2066,-15.1467,4313.7876],[-69.1971,-15.1557,4311.8032],[-69.1963,-15.1583,4312.8218],[-69.1901,-15.1588,4315.1367],[-69.1913,-15.1649,4309.4463],[-69.1751,-15.1803,4302.6792],[-69.169,-15.1903,4311.8203],[-69.1664,-15.1915,4299.228],[-69.1663,-15.1936,4307.1514],[-69.1526,-15.1993,4302.5986],[-69.1534,-15.2022,4295.6221],[-69.1502,-15.2049,4294.3525],[-69.1499,-15.2131,4357.1738],[-69.1402,-15.2163,4291.5542],[-69.1377,-15.2194,4286.4497],[-69.1352,-15.2193,4285.6421],[-69.1328,-15.2232,4314.7803],[-69.132,-15.2289,4283.9414],[-69.1333,-15.2451,4294.4595],[-69.1271,-15.2469,4261.9673],[-69.1221,-15.2528,4277.333],[-69.1199,-15.259,4243.9604],[-69.1215,-15.2603,4251.7124],[-69.1307,-15.2587,4264.3032],[-69.1365,-15.255,4275.1685],[-69.148,-15.2636,4303.6455],[-69.1524,-15.269,4320.3555],[-69.157,-15.2683,4355.7246],[-69.1638,-15.2514,4586.4746],[-69.176,-15.2615,4613.4629],[-69.1807,-15.2772,4615.0845],[-69.1921,-15.2956,4608.5225],[-69.1959,-15.3141,4468.3926],[-69.2065,-15.3241,4468.9316],[-69.2154,-15.3177,4279.8301],[-69.2307,-15.3359,4233.8667],[-69.2405,-15.3528,4488.0464],[-69.2475,-15.371,4458.9102],[-69.2476,-15.3997,4375.8208],[-69.2502,-15.427,4253.5205],[-69.2333,-15.4414,4383.2822],[-69.2406,-15.4606,4089.8616],[-69.2534,-15.4696,4144.1089],[-69.2905,-15.437,3958.4346],[-69.3025,-15.4599,3913.9941],[-69.3159,-15.4695,4151.5508],[-69.3049,-15.4802,4156.731],[-69.3088,-15.4884,4005.5459],[-69.3135,-15.4932,4002.428],[-69.309,-15.4979,4001.5918],[-69.3085,-15.503,3985.3083],[-69.3143,-15.5131,4049.1333],[-69.3143,-15.5183,4046.8999],[-69.3269,-15.5335,3940.1624],[-69.4018,-15.6061,3808.5],[-69.1977,-16.1645,3808.5],[-69.1021,-16.2272,3808.5],[-69.1016,-16.2291,3815.1006],[-69.0927,-16.2246,3863.9675],[-69.0783,-16.2209,3956.9385],[-69.0622,-16.2074,4099.5327],[-69.0555,-16.1982,4368.2241],[-69.0276,-16.2098,4154.3306],[-69.0207,-16.2149,4000.1455],[-69.0171,-16.2231,3928.9167],[-69.0086,-16.2196,3979.8516],[-69.0052,-16.2057,4079.8787],[-68.9989,-16.1997,4089.7505],[-68.9896,-16.1962,3835.1052],[-68.985,-16.1914,3971.4033],[-68.9789,-16.19,3984.0713],[-68.9759,-16.1925,4012.04],[-68.963,-16.1922,3917.5444],[-68.8952,-16.2555,3817.8452],[-68.8919,-16.2601,3809.2603],[-68.8189,-16.3219,3808.5],[-68.8188,-16.3515,3808.5],[-68.9997,-16.4481,3808.5],[-69.0326,-16.5389,3808.5],[-69.0276,-16.5573,3825.7236],[-69.0299,-16.5609,3809.5833],[-69.036,-16.5629,3808.5],[-69.0402,-16.5726,3810.853],[-69.0348,-16.5836,3808.877],[-69.0358,-16.587,3810.8066],[-69.0344,-16.6044,3808.5],[-69.0328,-16.6079,3809.0776],[-69.0224,-16.616,3808.5],[-69.0102,-16.6333,3808.5],[-68.9985,-16.6395,3808.5],[-68.9973,-16.6419,3809.906],[-68.9989,-16.6515,3810.0989],[-69.0096,-16.6671,3808.5],[-69.014,-16.6698,3811.8337],[-69.016,-16.6687,3812.0881],[-69.0227,-16.6714,3812.2693],[-69.0251,-16.6731,3812.5435],[-69.0264,-16.6769,3812.4421],[-69.032,-16.6782,3812.5557],[-69.039,-16.6824,3813.2104],[-69.0438,-16.6885,3813.3555],[-69.0485,-16.6864,3813.7383],[-69.0541,-16.6868,3813.8833],[-69.0576,-16.6916,3815.1025],[-69.0878,-16.7024,3817.0471],[-69.1007,-16.7111,3827.1951],[-69.12,-16.7162,3819.9814],[-69.1245,-16.7159,3819.7854],[-69.1333,-16.7098,3820.0139],[-69.1469,-16.7183,3820.6262],[-69.1698,-16.7273,3821.2827],[-69.1818,-16.7571,3825.7156],[-69.1877,-16.7966,3836.4341],[-69.1992,-16.7977,3850.1768],[-69.2121,-16.8206,3932.1648],[-69.2191,-16.8368,3854.8828],[-69.2533,-16.8605,3887.1919],[-69.3044,-16.9166,4293.9888],[-69.3245,-16.952,4307.605],[-69.3203,-16.9609,4041.4531],[-69.3264,-16.9598,4033.7549],[-69.3346,-16.9809,3971.8611],[-69.34,-16.9875,4254.2598],[-69.3686,-16.9889,3956.5444],[-69.3807,-17.0071,3974.396],[-69.3833,-17.0075,3977.0798],[-69.3834,-17.0098,4011.6331],[-69.3946,-17.0222,3999.999],[-69.3946,-17.0251,4008.033],[-69.3844,-17.0314,4029.0032],[-69.3826,-17.0381,4054.0259],[-69.3726,-17.0508,4092.8083],[-69.374,-17.0724,4371.4883],[-69.3936,-17.090699999999998,4599.7461],[-69.4071,-17.1,4758.917],[-69.4325,-17.1103,4901.0952],[-69.4511,-17.094,4592.478],[-69.4791,-17.1152,4234.8604],[-69.5155,-17.1497,4192.042],[-69.547,-17.1631,4248.4561],[-69.558,-17.1656,4209.335],[-69.5626,-17.1755,4358.2515],[-69.5721,-17.1862,4199.5195],[-69.5692,-17.1945,4198.5],[-69.577,-17.2019,4198.3433],[-69.5784,-17.2065,4195.0391],[-69.5839,-17.2092,4191.5645],[-69.5904,-17.2101,4189.6846],[-69.5924,-17.209,4201.0513],[-69.5949,-17.2131,4188.751],[-69.5994,-17.2147,4185.1445],[-69.6037,-17.2197,4185.3828],[-69.6041,-17.2261,4183.9463],[-69.6069,-17.2276,4192.3911],[-69.6059,-17.2292,4183.7778],[-69.6168,-17.2617,4191.1064],[-69.6284,-17.2739,4182.9551],[-69.6363,-17.2708,4175.0454],[-69.639,-17.2767,4191.5127],[-69.6452,-17.2814,4175.813],[-69.6417,-17.2869,4171.9316],[-69.5759,-17.2914,4570.5405],[-69.5133,-17.3424,4214.4883],[-69.4692,-17.3735,4279.5791],[-69.4679,-17.4153,4077.4214],[-69.4679,-17.6049,4063.2659],[-69.3436,-17.7239,4052.4824],[-69.3421,-17.7279,4053.7603],[-69.3379,-17.7292,4055.6389],[-69.338,-17.7319,4056.7676],[-69.3349,-17.7344,4057.9883],[-69.3356,-17.7368,4059.1929],[-69.3337,-17.7395,4061.0374],[-69.3363,-17.7417,4061.8911],[-69.3352,-17.7445,4062.9678],[-69.3384,-17.7458,4063.8867],[-69.3359,-17.7502,4067.2249],[-69.3368,-17.7538,4067.6506],[-69.3348,-17.7543,4068.0125],[-69.3353,-17.7575,4069.6907],[-69.3319,-17.7595,4072.9175],[-69.3331,-17.7613,4073.0659],[-69.3323,-17.766,4075.2253],[-69.3298,-17.7707,4077.373],[-69.3248,-17.7767,4083.3477],[-69.3219,-17.7769,4082.9468],[-69.321,-17.7811,4084.2568],[-69.313,-17.7889,4089.991],[-69.3125,-17.7935,4092.1089],[-69.3107,-17.7944,4092.4539],[-69.3117,-17.7971,4094.2593],[-69.3081,-17.8041,4098.0669],[-69.3095,-17.8062,4099.126],[-69.3078,-17.8066,4101.8647],[-69.3094,-17.8079,4100.2563],[-69.3078,-17.8105,4107.7778],[-69.309,-17.8108,4102.4648],[-69.3103,-17.8163,4105.7778],[-69.3091,-17.8228,4109.312],[-69.3071,-17.8236,4135.9106],[-69.306,-17.8272,4120.2671],[-69.3071,-17.8289,4114.7568],[-69.3056,-17.8334,4172.7603],[-69.3062,-17.8441,4132.2393],[-69.3008,-17.8494,4127.998],[-69.2993,-17.8553,4197.7754],[-69.3007,-17.8616,4134.3145],[-69.3087,-17.8687,4140.9678],[-69.3051,-17.8838,4143.3208],[-69.3082,-17.887,4150.0244],[-69.3073,-17.8945,4152.9727],[-69.3129,-17.9089,4161.0625],[-69.3124,-17.9136,4164.6089],[-69.31,-17.9205,4170.7441],[-69.3005,-17.9337,4184.2119],[-69.2996,-17.9393,4189.166],[-69.2973,-17.941,4191.0264],[-69.2961,-17.9471,4201.5835],[-69.2911,-17.9538,4258.4648],[-69.2888,-17.9599,4229.8071],[-69.2851,-17.9624,4255.5308],[-69.2813,-17.9692,4219.8784],[-69.276,-17.9693,4359.6875],[-69.2565,-17.954,4811.394],[-69.2549,-17.9547,4846.1948],[-69.2537,-17.962,4770.4062],[-69.2562,-17.9749,4617.5771],[-69.2472,-17.9821,4634.189],[-69.2391,-17.9842,4669.2402],[-69.2305,-17.9836,4662.3091],[-69.2272,-17.9799,4501.1865],[-69.2221,-17.9797,4411.9053],[-69.1263,-18.032,5180.1104],[-69.088,-18.0419,5478.1826],[-69.0795,-18.0469,5577.0889],[-69.0725,-18.0382,5664.2051],[-69.0572,-18.0343,5217.1011],[-69.0462,-18.029,5229.8896],[-69.0342,-18.0171,5105.1162],[-69.0235,-18.0099,5096.2979],[-69.0141,-18.0071,5038.3237],[-69.0057,-17.9977,5351.8418],[-68.992,-17.9949,5038.8296],[-68.9327,-17.9667,4707.084],[-68.9104,-17.9496,4837.1206],[-68.8702,-17.9434,4746.6821],[-68.8504,-17.9383,4519.5859],[-68.8382,-17.9419,4414.0571],[-68.8299,-17.9347,4356.5957],[-68.8185,-17.9308,4246.5938],[-68.8126,-17.9314,4223.6602],[-68.8065,-17.9271,4224.2607],[-68.7846,-17.93,4112.7588],[-68.778,-17.9235,4098.9951],[-68.7597,-17.9142,4075.3516],[-68.7579,-17.9082,4069.8152],[-68.7594,-17.9056,4064.9897],[-68.7583,-17.9029,4062.23],[-68.7544,-17.8983,4059.8542],[-68.7419,-17.8914,4054.894],[-68.74,-17.8869,4054.1672],[-68.7278,-17.8846,4053.7942],[-68.7211,-17.8901,4054.3225],[-68.7114,-17.8874,4055.2102],[-68.6958,-17.8891,4058.4014],[-68.6908,-17.88,4060.6777],[-68.6811,-17.8777,4070.0889],[-68.669,-17.878,4091.3354],[-68.662,-17.8693,4092.8081],[-68.6489,-17.8675,4092.4751],[-68.6445,-17.8634,4101.5791],[-68.6394,-17.8633,4113.4224],[-68.6337,-17.8535,4128.1475],[-68.6224,-17.8487,4090.3635],[-68.6202,-17.8417,4031.5303],[-68.6151,-17.8369,4012.0117],[-68.6086,-17.8362,3981.3848],[-68.5866,-17.8199,3963.4321],[-68.5683,-17.8157,3950.1548],[-68.5594,-17.8196,3969.397],[-68.5479,-17.8148,3952.8232],[-68.543,-17.811,3924.0513],[-68.5365,-17.8097,3929.7173],[-68.5375,-17.8003,4042.905],[-68.5444,-17.7955,4060.4204],[-68.5438,-17.7891,3967.7183],[-68.5412,-17.7844,4049.4434],[-68.5436,-17.7705,4054.0564],[-68.5436,-17.7595,4053.6899],[-68.5385,-17.732,4045.5708],[-68.5395,-17.7148,4035.4341],[-68.5329,-17.7028,3897.1299],[-68.5216,-17.7015,3865.2104],[-68.5134,-17.706,3859.8445],[-68.5097,-17.705,3854.7712],[-68.5047,-17.706,3843.8335],[-68.4981,-17.7004,3838.4111],[-68.4994,-17.696,3837.0605],[-68.4975,-17.6906,3835.1558],[-68.4811,-17.684,3884.3677],[-68.4782,-17.6846,3880.2595],[-68.4747,-17.6884,3864.3762],[-68.4725,-17.688,3877.4602],[-68.4632,-17.6683,3879.1357],[-68.458,-17.6684,3843.0371],[-68.4526,-17.6626,3858.0015],[-68.4491,-17.6628,3833.6616],[-68.4422,-17.6672,3824.3862],[-68.436,-17.6676,3832.3196],[-68.4356,-17.6601,3877.3586],[-68.4175,-17.6394,3859.0281],[-68.4142,-17.6306,3853.5283],[-68.4154,-17.6292,3851.8608],[-68.4149,-17.6257,3850.6946],[-68.4106,-17.6233,3851.9224],[-68.4062,-17.6244,3855.1714],[-68.3982,-17.6192,3890.3765]]]]}
,"properties": {"GID_1": "BOL.4_1","GID_0": "BOL","country": "Bolivia","province": "LaPaz","VARNAME_1": "NA","NL_NAME_1": "NA","TYPE_1": "Departamento","ENGTYPE_1": "Department","CC_1": "NA","HASC_1": "BO.LP","ISO_1": "BO-L","name": "La_Paz.province","area_km2": 131684.82,"hist_schema_id": "Elevation0-9000","hist_area_km2": {"150": 1301.25,"175": 12023.86,"200": 11994.77,"225": 5686.59,"250": 2225.97,"275": 1014.09,"300": 820.37,"325": 726.21,"350": 735.12,"375": 701.14,"400": 633.21,"425": 622.11,"450": 599.02,"475": 566.23,"500": 574.58,"525": 566.3,"550": 567.51,"575": 567.24,"600": 557.5,"625": 541.63,"650": 524.89,"675": 527.33,"700": 514.11,"725": 512.91,"750": 510.97,"775": 516.35,"800": 523.81,"825": 532.4,"850": 535.53,"875": 547.89,"900": 554.29,"925": 558.63,"950": 566.62,"975": 561.17,"1000": 573.93,"1025": 575.19,"1050": 577.83,"1075": 588.53,"1100": 590.93,"1125": 587.37,"1150": 587.77,"1175": 593.04,"1200": 592.14,"1225": 585.84,"1250": 592.56,"1275": 590.9,"1300": 615.35,"1325": 626.33,"1350": 626.54,"1375": 642.68,"1400": 674.31,"1425": 652.11,"1450": 627.02,"1475": 601.27,"1500": 576.75,"1525": 547.26,"1550": 530.05,"1575": 520.48,"1600": 503.97,"1625": 499.44,"1650": 488.95,"1675": 475.26,"1700": 468.52,"1725": 450.26,"1750": 445.5,"1775": 425.08,"1800": 417.55,"1825": 405.64,"1850": 401.81,"1875": 397.89,"1900": 387.8,"1925": 381.1,"1950": 375.41,"1975": 360.18,"2000": 354.21,"2025": 347.9,"2050": 336.06,"2075": 334.6,"2100": 319.93,"2125": 312.45,"2150": 302.82,"2175": 292.64,"2200": 280.95,"2225": 272.7,"2250": 264.0,"2275": 255.92,"2300": 251.15,"2325": 246.25,"2350": 239.61,"2375": 239.6,"2400": 229.17,"2425": 227.08,"2450": 223.39,"2475": 221.91,"2500": 219.42,"2525": 217.25,"2550": 219.0,"2575": 212.08,"2600": 213.1,"2625": 212.09,"2650": 207.19,"2675": 209.13,"2700": 203.89,"2725": 205.18,"2750": 204.1,"2775": 197.32,"2800": 196.92,"2825": 196.06,"2850": 192.57,"2875": 190.88,"2900": 193.37,"2925": 193.78,"2950": 191.22,"2975": 184.63,"3000": 188.02,"3025": 187.09,"3050": 190.06,"3075": 190.1,"3100": 187.31,"3125": 193.25,"3150": 190.43,"3175": 189.92,"3200": 193.86,"3225": 189.48,"3250": 191.19,"3275": 192.34,"3300": 194.26,"3325": 194.46,"3350": 197.98,"3375": 195.15,"3400": 198.03,"3425": 200.81,"3450": 202.18,"3475": 202.67,"3500": 204.73,"3525": 208.1,"3550": 210.62,"3575": 213.24,"3600": 215.9,"3625": 217.85,"3650": 219.55,"3675": 222.99,"3700": 224.33,"3725": 1581.3,"3750": 922.67,"3775": 751.25,"3800": 4213.77,"3825": 2981.32,"3850": 2957.66,"3875": 2531.58,"3900": 1659.94,"3925": 1443.43,"3950": 1365.81,"3975": 1209.16,"4000": 1197.68,"4025": 1411.28,"4050": 1686.51,"4075": 1453.14,"4100": 1200.55,"4125": 1045.23,"4150": 933.66,"4175": 890.3,"4200": 851.51,"4225": 748.48,"4250": 703.58,"4275": 670.39,"4300": 650.67,"4325": 702.05,"4350": 656.09,"4375": 591.35,"4400": 539.91,"4425": 518.16,"4450": 488.84,"4475": 456.82,"4500": 412.97,"4525": 395.97,"4550": 365.59,"4575": 329.67,"4600": 309.92,"4625": 290.59,"4650": 266.7,"4675": 250.71,"4700": 230.22,"4725": 220.26,"4750": 206.25,"4775": 187.83,"4800": 173.47,"4825": 164.28,"4850": 152.04,"4875": 134.88,"4900": 123.78,"4925": 114.32,"4950": 104.88,"4975": 92.84,"5000": 88.53,"5025": 81.55,"5050": 77.2,"5075": 69.52,"5100": 64.76,"5125": 61.19,"5150": 57.75,"5175": 53.54,"5200": 49.11,"5225": 44.82,"5250": 41.56,"5275": 38.58,"5300": 36.04,"5325": 31.13,"5350": 29.16,"5375": 25.04,"5400": 23.25,"5425": 20.58,"5450": 18.52,"5475": 17.22,"5500": 15.58,"5525": 13.63,"5550": 11.26,"5575": 10.24,"5600": 8.42,"5625": 7.28,"5650": 7.0,"5675": 5.46,"5700": 5.71,"5725": 4.87,"5750": 4.53,"5775": 3.91,"5800": 3.36,"5825": 3.4,"5850": 2.59,"5875": 2.12,"5900": 2.32,"5925": 2.04,"5950": 1.96,"5975": 1.71,"6000": 1.3}}}