{"type":"Feature","properties":{"GID_3":"BOL.4.12.8_2","GID_0":"BOL","country":"Bolivia","GID_1":"BOL.4_1","province":"LaPaz","NL_NAME_1":"NA","GID_2":"BOL.4.12_2","county":"Larecaja","NL_NAME_2":"NA","city":"Tipuani","VARNAME_3":"NA","NL_NAME_3":"NA","TYPE_3":"District","ENGTYPE_3":"Distrito","CC_3":"NA","HASC_3":"NA","name":"Tipuani.city"},
"geometry":{"type": "MultiPolygon","coordinates": [[[[-68.168,-15.581,1191.4963],[-68.1662,-15.5883,725.7018],[-68.163,-15.589,799.4506],[-68.1625,-15.5929,710.2225],[-68.1568,-15.5927,758.2945],[-68.1564,-15.5949,703.8824],[-68.1536,-15.5962,737.9596],[-68.1502,-15.5949,690.3986],[-68.1491,-15.5984,672.7803],[-68.1533,-15.6036,814.4077],[-68.1615,-15.6075,1115.9641],[-68.1699,-15.6168,1538.6052],[-68.175,-15.6198,1704.9478],[-68.1798,-15.6295,1987.585],[-68.1842,-15.6327,1996.1587],[-68.1849,-15.6414,2044.2869],[-68.1879,-15.6481,2155.8245],[-68.1889,-15.6566,2097.2542],[-68.1492,-15.6515,1655.5991],[-68.1355,-15.6455,2135.531],[-68.1109,-15.6481,1990.5072],[-68.1024,-15.6422,1897.4183],[-68.0941,-15.644,1789.9824],[-68.0864,-15.6483,1718.8684],[-68.0776,-15.6492,1651.092],[-68.0685,-15.6468,1726.911],[-68.0663,-15.6426,1623.7136],[-68.0571,-15.6367,1560.7515],[-68.0565,-15.6308,1631.6973],[-68.0447,-15.6246,1527.1194],[-68.0415,-15.6193,1539.6799],[-68.0368,-15.619,1562.006],[-68.034,-15.6165,1511.6918],[-68.0174,-15.6153,1542.5142],[-67.9996,-15.6182,1537.4729],[-67.9844,-15.6132,1385.203],[-67.9548,-15.5871,1010.1364],[-67.9381,-15.5762,731.7822],[-67.94,-15.5732,721.463],[-67.941,-15.5656,622.8746],[-67.933,-15.5591,582.0894],[-67.9333,-15.5551,568.9995],[-67.9279,-15.5418,531.0173],[-67.9331,-15.5388,692.971],[-67.9327,-15.5359,669.8195],[-67.9409,-15.5248,495.9176],[-67.9397,-15.5176,785.7281],[-67.9406,-15.5135,962.9645],[-67.9568,-15.5115,1221.7025],[-67.9763,-15.5249,1307.431],[-67.9821,-15.5272,1322.8654],[-67.9845,-15.52,1267.6973],[-67.99,-15.5186,1225.1144],[-68.0028,-15.5188,1155.4304],[-68.008,-15.5098,883.6786],[-68.0333,-15.5271,1173.7654],[-68.0376,-15.5318,1121.4978],[-68.0576,-15.5427,1159.26],[-68.0598,-15.5502,1327.0928],[-68.0677,-15.5528,1248.6873],[-68.0853,-15.548,1422.1144],[-68.089,-15.5513,1424.2615],[-68.0939,-15.5523,1283.7668],[-68.101,-15.5563,1417.2927],[-68.1048,-15.5619,1471.7021],[-68.1119,-15.5637,1476.7637],[-68.1188,-15.5623,1514.7111],[-68.1206,-15.5572,1450.2786],[-68.1295,-15.5465,1524.9347],[-68.1376,-15.549,1583.6689],[-68.1401,-15.5542,1672.3235],[-68.1537,-15.5581,1799.4867],[-68.1551,-15.561,1757.9763],[-68.1543,-15.573,1666.0388],[-68.1576,-15.5765,1588.321],[-68.1639,-15.5776,1479.1898],[-68.168,-15.581,1191.4963]]]]}}