{"type": "Feature","bbox": [-63.7004,-18.9363,-62.8076,-18.0159],"geometry": {"type": "MultiPolygon","coordinates": [[[[-63.5141,-18.28,1710.8351],[-63.5156,-18.2848,1731.0327],[-63.5133,-18.2932,1852.1239],[-63.5167,-18.2981,1788.9424],[-63.5187,-18.3079,1672.5342],[-63.5178,-18.3141,1688.9021],[-63.5145,-18.3155,1733.6138],[-63.5132,-18.3304,1662.1567],[-63.5093,-18.3402,1653.063],[-63.512,-18.3501,1497.6478],[-63.518,-18.3609,1559.5815],[-63.5313,-18.3587,1509.2626],[-63.5337,-18.3547,1440.3049],[-63.5377,-18.3528,1264.9714],[-63.5476,-18.3515,1555.8945],[-63.554,-18.3555,1562.7991],[-63.5612,-18.3568,1819.9717],[-63.5665,-18.3613,1748.7219],[-63.5792,-18.3604,1712.3875],[-63.5937,-18.3631,1567.8694],[-63.5974,-18.3653,1532.2526],[-63.6143,-18.3656,1428.0068],[-63.6151,-18.3694,1424.24],[-63.6132,-18.3737,1446.8341],[-63.6155,-18.3765,1432.4808],[-63.6134,-18.3815,1442.3511],[-63.6233,-18.3896,1168.358],[-63.626,-18.3994,1215.6876],[-63.6372,-18.4068,1669.4668],[-63.6509,-18.4092,1900.4469],[-63.653,-18.422,1940.9165],[-63.6485,-18.4284,1911.7096],[-63.651,-18.4345,1875.3749],[-63.6484,-18.4405,1888.1475],[-63.6547,-18.4423,1776.2834],[-63.6581,-18.4411,1722.1436],[-63.6608,-18.4425,1692.7336],[-63.6656,-18.4422,1523.3997],[-63.6695,-18.4445,1468.0942],[-63.6733,-18.4517,1359.926],[-63.6761,-18.4539,1303.8405],[-63.6793,-18.4615,1254.5099],[-63.6762,-18.4696,1374.895],[-63.6768,-18.4746,1438.9576],[-63.6885,-18.4804,1298.2],[-63.7004,-18.4811,1183.7662],[-63.6942,-18.4894,1218.2936],[-63.6936,-18.4936,1177.3278],[-63.695,-18.4954,1136.1056],[-63.6939,-18.4991,1148.3955],[-63.6909,-18.5009,1142.1501],[-63.6912,-18.5079,1080.8265],[-63.6935,-18.5115,1049.5419],[-63.6909,-18.5143,1031.2222],[-63.6951,-18.5158,1031.9061],[-63.6956,-18.5203,1031.9546],[-63.6937,-18.5235,1032.9982],[-63.696,-18.5271,1093.3628],[-63.6938,-18.5348,987.3376],[-63.6895,-18.5387,965.7919],[-63.695,-18.5534,898.116],[-63.687,-18.5491,900.112],[-63.6883,-18.5599,917.8535],[-63.6813,-18.5649,846.8721],[-63.6846,-18.566,837.1609],[-63.6895,-18.5643,854.4462],[-63.6861,-18.5682,941.1379],[-63.6876,-18.5713,829.4756],[-63.6922,-18.5715,817.1218],[-63.6941,-18.5765,1047.6943],[-63.6981,-18.5783,810.6983],[-63.6934,-18.5819,804.885],[-63.6954,-18.5842,796.342],[-63.6955,-18.5903,985.6854],[-63.6969,-18.5925,916.5109],[-63.6944,-18.5929,900.8489],[-63.6949,-18.5977,863.9901],[-63.6921,-18.6036,850.9283],[-63.69,-18.6048,881.3814],[-63.6916,-18.6092,807.8003],[-63.6881,-18.6093,874.2059],[-63.6888,-18.6117,811.1035],[-63.6867,-18.6121,797.39],[-63.6862,-18.6139,803.9378],[-63.692,-18.6224,763.3789],[-63.6852,-18.6224,793.982],[-63.6811,-18.6272,762.77],[-63.6819,-18.623,785.0336],[-63.6776,-18.6221,796.7047],[-63.6776,-18.6239,853.9453],[-63.6709,-18.6313,750.4773],[-63.6697,-18.6345,745.9555],[-63.6714,-18.6399,730.1224],[-63.677,-18.6409,711.4507],[-63.6744,-18.6437,719.6905],[-63.6778,-18.6514,697.7231],[-63.6765,-18.6522,697.7231],[-63.6762,-18.6499,694.0966],[-63.6738,-18.6485,701.733],[-63.6699,-18.6512,698.8486],[-63.6666,-18.6514,692.1406],[-63.6478,-18.6645,702.4971],[-63.6468,-18.6667,704.8132],[-63.6485,-18.671,670.8876],[-63.6536,-18.6745,678.1295],[-63.6556,-18.6812,671.8284],[-63.6522,-18.6821,668.7327],[-63.6482,-18.6774,663.1683],[-63.6433,-18.6786,663.1736],[-63.6413,-18.6759,663.8285],[-63.6394,-18.6763,661.3979],[-63.639,-18.6798,669.3036],[-63.6365,-18.6795,696.3554],[-63.6441,-18.6874,661.5214],[-63.6412,-18.6894,653.457],[-63.637,-18.6875,648.2782],[-63.6335,-18.6947,647.0734],[-63.6345,-18.6978,653.1936],[-63.6388,-18.6968,651.3464],[-63.6381,-18.703,636.017],[-63.6344,-18.7028,667.5278],[-63.6343,-18.7068,644.1167],[-63.63,-18.7025,634.7197],[-63.6274,-18.7038,624.8727],[-63.625,-18.7027,658.8126],[-63.6285,-18.7114,616.2514],[-63.6216,-18.7153,623.8982],[-63.6237,-18.7226,612.6426],[-63.6202,-18.7243,616.9759],[-63.6125,-18.7337,599.5083],[-63.6081,-18.7357,598.4163],[-63.6089,-18.739,597.7664],[-63.6068,-18.7409,595.1539],[-63.6041,-18.7404,603.4257],[-63.6014,-18.7422,610.9659],[-63.5976,-18.7361,591.9972],[-63.5923,-18.7345,618.1286],[-63.5884,-18.7381,643.291],[-63.5885,-18.7347,594.3992],[-63.5859,-18.7304,644.1168],[-63.5844,-18.7304,654.9093],[-63.5827,-18.7338,602.3165],[-63.576,-18.7293,662.0764],[-63.5764,-18.7273,647.0919],[-63.5801,-18.725,616.4414],[-63.5758,-18.7236,604.0436],[-63.5693,-18.7264,568.4673],[-63.5692,-18.7295,567.6273],[-63.5555,-18.7315,577.7449],[-63.5534,-18.73,587.9612],[-63.5501,-18.7229,541.9213],[-63.5461,-18.7204,542.4305],[-63.5415,-18.7198,538.428],[-63.5342,-18.7224,547.511],[-63.5301,-18.7276,535.9423],[-63.5266,-18.7445,530.8035],[-63.5321,-18.7507,528.6936],[-63.5285,-18.7586,527.0093],[-63.5318,-18.7723,522.1993],[-63.531,-18.7806,517.417],[-63.5464,-18.7981,547.5508],[-63.545,-18.8128,513.5997],[-63.5491,-18.8147,511.5742],[-63.557,-18.8127,560.3606],[-63.5622,-18.821,508.0864],[-63.5662,-18.8187,506.2887],[-63.5804,-18.8241,500.7819],[-63.5818,-18.8277,511.4202],[-63.5768,-18.8305,493.9837],[-63.5822,-18.8342,533.9619],[-63.5832,-18.8375,498.2909],[-63.5805,-18.8417,490.8363],[-63.5758,-18.8444,489.8807],[-63.5632,-18.8457,497.0043],[-63.5634,-18.8527,486.7463],[-63.556,-18.8576,482.4028],[-63.5566,-18.8691,480.8025],[-63.5553,-18.8715,496.2353],[-63.5537,-18.8715,499.6326],[-63.5518,-18.8674,508.3355],[-63.5448,-18.8711,485.2783],[-63.5355,-18.8704,532.3317],[-63.5353,-18.8769,472.2466],[-63.5313,-18.8818,465.5618],[-63.538,-18.9159,460.8922],[-63.5364,-18.922,449.4311],[-63.5308,-18.9262,467.7959],[-63.5304,-18.9312,456.5992],[-63.5263,-18.9308,450.8528],[-63.5219,-18.9274,478.7307],[-63.5185,-18.9318,457.7132],[-63.5048,-18.9336,469.7115],[-63.5029,-18.9322,494.6127],[-63.5026,-18.9278,516.5557],[-63.5002,-18.9287,528.6445],[-63.499,-18.9356,454.0685],[-63.4966,-18.9363,499.7588],[-63.4936,-18.9329,545.7451],[-63.4958,-18.9238,508.7294],[-63.4945,-18.922,487.393],[-63.4904,-18.9234,542.41],[-63.4863,-18.9341,476.9608],[-63.4833,-18.9353,466.3858],[-63.4765,-18.9287,453.9161],[-63.4693,-18.931,452.627],[-63.4681,-18.9302,452.627],[-63.4689,-18.9193,455.7509],[-63.4653,-18.9186,438.0],[-63.4568,-18.9224,447.3858],[-63.4494,-18.9333,436.375],[-63.4472,-18.9341,439.7607],[-63.4442,-18.9323,436.0],[-63.4418,-18.9217,436.4711],[-63.4316,-18.9239,439.515],[-63.4258,-18.9281,435.3047],[-63.4196,-18.9247,433.0818],[-63.4106,-18.9116,433.8267],[-63.4013,-18.9091,433.9925],[-63.3967,-18.9112,429.5524],[-63.3863,-18.9217,431.2181],[-63.3672,-18.9225,431.8016],[-63.3585,-18.9198,432.0663],[-63.3507,-18.9152,431.5583],[-63.344,-18.9055,421.5],[-63.3364,-18.8866,423.4735],[-63.3334,-18.8728,419.0],[-63.3257,-18.8635,418.0],[-63.3239,-18.857,417.5],[-63.3256,-18.8431,418.8846],[-63.3243,-18.8263,421.3047],[-63.3162,-18.814,418.0246],[-63.2912,-18.8079,412.5],[-63.2796,-18.8071,413.8388],[-63.2576,-18.8107,409.8997],[-63.2405,-18.8043,408.8154],[-63.2267,-18.805,411.394],[-63.2074,-18.7956,408.9478],[-63.1963,-18.7753,406.5191],[-63.1971,-18.7669,406.2724],[-63.1916,-18.7566,404.4185],[-63.1794,-18.7523,401.4847],[-63.1746,-18.7484,400.8298],[-63.1696,-18.741,399.4956],[-63.1665,-18.7303,397.3592],[-63.1567,-18.7234,395.5],[-63.1398,-18.7062,393.125],[-63.1365,-18.6973,392.5],[-63.1281,-18.6861,391.0],[-63.1214,-18.6712,393.4833],[-63.111,-18.6555,387.25],[-63.0993,-18.6473,386.5],[-63.0969,-18.6305,384.5],[-63.1009,-18.6152,383.5],[-63.0976,-18.6058,382.5],[-63.0938,-18.6015,382.0],[-63.0744,-18.5954,380.5],[-63.0614,-18.5863,379.0],[-63.042,-18.5772,377.0],[-63.0206,-18.5615,374.5],[-63.0062,-18.5533,373.0],[-63.0036,-18.5497,373.0],[-63.0032,-18.5372,374.6701],[-63.0091,-18.5181,369.5],[-63.0083,-18.5145,369.25],[-63.0013,-18.5096,373.1924],[-62.9976,-18.5095,371.4328],[-62.985,-18.5038,369.6488],[-62.9548,-18.4709,361.3696],[-62.9488,-18.4583,363.9051],[-62.9411,-18.4565,362.0812],[-62.9378,-18.4541,360.9388],[-62.9367,-18.4451,356.0],[-62.9384,-18.4247,355.9688],[-62.9354,-18.4156,353.3959],[-62.902,-18.3723,352.4727],[-62.9002,-18.3622,347.0505],[-62.8957,-18.3563,352.5424],[-62.8931,-18.3482,344.5],[-62.8929,-18.3315,343.0],[-62.883,-18.3085,341.7222],[-62.8832,-18.3006,340.0425],[-62.8804,-18.2934,340.62],[-62.8777,-18.2772,337.5],[-62.8747,-18.2711,337.0],[-62.8882,-18.2428,339.7127],[-62.8881,-18.2383,340.2196],[-62.8803,-18.2246,333.5829],[-62.8798,-18.2194,333.8958],[-62.8645,-18.2018,334.4169],[-62.8611,-18.192,329.375],[-62.8509,-18.1877,328.5],[-62.8452,-18.1779,327.0],[-62.8456,-18.1709,326.125],[-62.8548,-18.1551,325.45],[-62.8531,-18.1475,323.5],[-62.849,-18.1404,323.0],[-62.8545,-18.1226,321.5],[-62.8544,-18.1161,322.4131],[-62.8482,-18.1016,324.0393],[-62.8242,-18.0877,318.3871],[-62.8109,-18.0675,316.692],[-62.8076,-18.0329,311.5],[-62.8104,-18.0181,311.5],[-62.8242,-18.0262,325.5905],[-62.8906,-18.0267,324.8909],[-62.8909,-18.0226,324.5321],[-63.0861,-18.0264,390.0502],[-63.0882,-18.0159,388.9316],[-63.0966,-18.027,394.3615],[-63.1692,-18.0286,453.5703],[-63.1731,-18.0719,459.236],[-63.1495,-18.072,434.8409],[-63.1477,-18.1097,437.9651],[-63.1337,-18.11,434.6615],[-63.131,-18.1719,443.108],[-63.1921,-18.1731,496.6429],[-63.1919,-18.2173,503.7697],[-63.1904,-18.2255,506.0062],[-63.1916,-18.2459,509.7137],[-63.1903,-18.2512,516.2488],[-63.1915,-18.2563,516.1584],[-63.2052,-18.2606,531.7844],[-63.2095,-18.2539,537.2603],[-63.2207,-18.2531,545.076],[-63.2285,-18.2559,541.7899],[-63.2309,-18.2491,546.7839],[-63.2332,-18.249,550.4347],[-63.2346,-18.2464,552.3361],[-63.2393,-18.2463,552.1996],[-63.2418,-18.2422,555.8119],[-63.2496,-18.237,563.9422],[-63.2515,-18.2366,567.7191],[-63.255,-18.2399,565.3823],[-63.2644,-18.2373,581.2474],[-63.2678,-18.2385,584.2203],[-63.2735,-18.2377,584.1012],[-63.2788,-18.2353,590.3676],[-63.2848,-18.2291,591.6376],[-63.2903,-18.2333,596.9561],[-63.2992,-18.2467,611.7149],[-63.3093,-18.251,625.4478],[-63.3144,-18.2499,632.6089],[-63.3242,-18.252,644.6495],[-63.3324,-18.2409,655.3873],[-63.3477,-18.24,671.38],[-63.3556,-18.2334,682.054],[-63.3643,-18.2315,693.0302],[-63.3725,-18.2354,707.6754],[-63.3794,-18.2358,709.12],[-63.3853,-18.2384,720.043],[-63.3969,-18.2496,765.7404],[-63.4002,-18.2489,751.2841],[-63.4039,-18.2504,755.6711],[-63.4255,-18.263,793.4702],[-63.4314,-18.2616,801.3173],[-63.4362,-18.2646,811.4081],[-63.446,-18.2672,816.8971],[-63.4515,-18.2714,836.4188],[-63.4668,-18.268,873.2146],[-63.4869,-18.2675,962.0558],[-63.491,-18.2655,972.4183],[-63.5141,-18.28,1710.8351]]]]}
,"properties": {"GID_3": "BOL.8.4.2_2","GID_0": "BOL","country": "Bolivia","GID_1": "BOL.8_1","province": "SantaCruz","NL_NAME_1": "NA","GID_2": "BOL.8.4_2","county": "Cordillera","NL_NAME_2": "NA","city": "Cabezas","VARNAME_3": "NA","NL_NAME_3": "NA","TYPE_3": "District","ENGTYPE_3": "Distrito","CC_3": "NA","HASC_3": "NA","name": "Cabezas.city","area_km2": 5036.45,"hist_schema_id": "Elevation0-9000","hist_area_km2": {"300": 1.653,"325": 173.125,"350": 294.093,"375": 411.803,"400": 328.925,"425": 395.221,"450": 318.85,"475": 273.823,"500": 195.453,"525": 172.46,"550": 176.184,"575": 165.616,"600": 158.061,"625": 163.589,"650": 152.082,"675": 161.043,"700": 170.642,"725": 168.5,"750": 150.963,"775": 120.886,"800": 82.336,"825": 54.436,"850": 41.927,"875": 37.546,"900": 31.798,"925": 27.698,"950": 24.842,"975": 25.165,"1000": 23.015,"1025": 23.518,"1050": 23.921,"1075": 24.143,"1100": 25.954,"1125": 25.674,"1150": 25.896,"1175": 24.972,"1200": 24.249,"1225": 24.249,"1250": 22.984,"1275": 22.481,"1300": 22.1,"1325": 22.12,"1350": 21.638,"1375": 20.935,"1400": 21.116,"1425": 17.698,"1450": 16.411,"1475": 14.661,"1500": 13.656,"1525": 11.945,"1550": 10.88,"1575": 9.532,"1600": 7.441,"1625": 7.701,"1650": 5.911,"1675": 5.65,"1700": 4.926,"1725": 4.624,"1750": 4.122,"1775": 3.297,"1800": 2.936,"1825": 2.573,"1850": 2.775,"1875": 2.453,"1900": 2.192,"1925": 1.991,"1950": 1.126,"1975": 1.126,"2000": 0.583,"2025": 0.764,"2050": 0.663,"2075": 0.382,"2100": 0.322,"2125": 0.261,"2150": 0.121,"2175": 0.04}}}