{"type": "Feature","bbox": [-62.6963,-16.5712,-62.2718,-15.8477],"geometry": {"type": "MultiPolygon","coordinates": [[[[-62.6387,-16.1856,734.5159],[-62.6714,-16.3964,333.9617],[-62.6733,-16.4012,337.5155],[-62.6761,-16.4009,348.0243],[-62.6764,-16.4039,336.9659],[-62.6797,-16.4069,333.4562],[-62.677,-16.4082,334.6509],[-62.6767,-16.4128,332.5656],[-62.673,-16.4115,323.8301],[-62.6716,-16.4149,320.7514],[-62.6666,-16.418,317.1734],[-62.6678,-16.4243,308.8337],[-62.6702,-16.4259,306.9794],[-62.673,-16.4244,310.4418],[-62.6741,-16.4256,300.7444],[-62.6718,-16.4309,293.0579],[-62.673,-16.4364,293.4774],[-62.669,-16.4405,294.0701],[-62.6695,-16.4436,284.8735],[-62.6673,-16.4491,275.7995],[-62.6697,-16.4513,263.2119],[-62.669,-16.4551,263.0982],[-62.6731,-16.4594,247.2389],[-62.6732,-16.4671,238.046],[-62.6751,-16.4709,239.413],[-62.6738,-16.4727,240.0912],[-62.6769,-16.4756,239.5775],[-62.6766,-16.478,239.8674],[-62.6821,-16.4855,240.3805],[-62.6915,-16.4886,239.2722],[-62.6959,-16.4928,226.5953],[-62.6963,-16.4958,229.4875],[-62.6916,-16.5003,227.3291],[-62.6885,-16.507,230.7947],[-62.6843,-16.5069,230.5068],[-62.685,-16.5023,225.2231],[-62.6817,-16.5041,233.314],[-62.6821,-16.5063,229.9323],[-62.6792,-16.5045,229.4855],[-62.6782,-16.5101,235.655],[-62.6819,-16.5128,233.6727],[-62.6834,-16.517,231.4884],[-62.6831,-16.5244,230.9167],[-62.6797,-16.5261,230.0018],[-62.6754,-16.5258,230.9573],[-62.6712,-16.5283,228.1516],[-62.6751,-16.5324,226.0754],[-62.6746,-16.5349,226.6963],[-62.6652,-16.5372,233.678],[-62.6633,-16.5393,233.5987],[-62.6641,-16.5428,232.9395],[-62.6709,-16.5498,235.9048],[-62.673,-16.5482,232.4671],[-62.6745,-16.5497,230.562],[-62.6739,-16.5542,230.6979],[-62.6667,-16.5543,232.886],[-62.6642,-16.5588,232.6574],[-62.6663,-16.5594,235.4298],[-62.6654,-16.5616,231.3938],[-62.6698,-16.5617,232.3941],[-62.6704,-16.5662,229.7883],[-62.6671,-16.5672,233.9258],[-62.6626,-16.5658,229.3544],[-62.6637,-16.5645,234.0904],[-62.6624,-16.5624,233.5299],[-62.6622,-16.5641,226.5367],[-62.6569,-16.5644,234.9001],[-62.6593,-16.563,231.4795],[-62.6591,-16.5579,228.9424],[-62.6574,-16.5603,232.9003],[-62.6543,-16.5598,237.7923],[-62.6512,-16.5625,236.5084],[-62.6536,-16.5639,235.257],[-62.653,-16.5655,232.5711],[-62.6506,-16.5653,240.5672],[-62.6498,-16.5668,233.0576],[-62.6471,-16.5654,236.0477],[-62.6468,-16.5666,238.8934],[-62.6497,-16.5683,232.1904],[-62.6493,-16.5712,229.4358],[-62.647,-16.5694,235.7998],[-62.6434,-16.5708,235.3748],[-62.6435,-16.5665,244.2854],[-62.6417,-16.5685,232.7025],[-62.6412,-16.5658,240.0273],[-62.6385,-16.5667,234.8958],[-62.6373,-16.5631,236.4534],[-62.6349,-16.5632,237.1106],[-62.6344,-16.5605,239.2522],[-62.6315,-16.5609,237.9085],[-62.627,-16.5583,237.7472],[-62.6232,-16.5613,237.5867],[-62.6209,-16.5567,236.0246],[-62.6198,-16.559,236.9304],[-62.6149,-16.5589,235.716],[-62.6132,-16.5556,237.623],[-62.6205,-16.5522,239.1971],[-62.6154,-16.5472,238.4056],[-62.614,-16.5507,241.6732],[-62.6108,-16.553,236.2635],[-62.6097,-16.5507,238.5806],[-62.6072,-16.5504,235.5404],[-62.6096,-16.5486,238.3624],[-62.6071,-16.5452,235.8444],[-62.6076,-16.543,234.4637],[-62.6047,-16.5412,236.4384],[-62.6042,-16.5388,237.7533],[-62.6033,-16.5402,234.1426],[-62.6019,-16.5383,236.5006],[-62.6012,-16.5398,232.8548],[-62.5996,-16.5365,236.6373],[-62.5961,-16.5358,236.2577],[-62.5983,-16.5342,238.3651],[-62.5961,-16.5301,235.7667],[-62.5969,-16.5254,237.8937],[-62.5924,-16.5233,242.6334],[-62.5938,-16.5212,243.1496],[-62.5907,-16.5207,241.2066],[-62.5899,-16.5176,240.533],[-62.5808,-16.5188,246.6682],[-62.5772,-16.5208,245.5299],[-62.5746,-16.5183,244.4358],[-62.5735,-16.5203,237.5566],[-62.5712,-16.519,248.5411],[-62.569,-16.5201,241.4619],[-62.5684,-16.5167,251.5635],[-62.5607,-16.5215,242.8978],[-62.5593,-16.5203,246.4169],[-62.5606,-16.5178,253.9985],[-62.5592,-16.5162,252.0066],[-62.5546,-16.5143,249.2509],[-62.5494,-16.5086,252.3885],[-62.5456,-16.5104,252.9976],[-62.5447,-16.5081,254.3773],[-62.54,-16.505,259.1581],[-62.5412,-16.501,267.0346],[-62.538,-16.4998,261.0814],[-62.5356,-16.5013,251.2201],[-62.5332,-16.4947,255.0975],[-62.5296,-16.4936,259.4964],[-62.5287,-16.4956,259.666],[-62.5255,-16.4944,262.8973],[-62.5235,-16.4894,264.0497],[-62.5223,-16.4903,261.2503],[-62.5229,-16.4938,261.1206],[-62.5206,-16.4951,257.5953],[-62.516,-16.4936,259.5601],[-62.5127,-16.4947,260.1007],[-62.5092,-16.4914,262.8224],[-62.5074,-16.4925,260.4148],[-62.5024,-16.4855,262.6146],[-62.5009,-16.4871,262.5017],[-62.4999,-16.4861,257.704],[-62.505,-16.4783,276.783],[-62.504,-16.4756,260.4544],[-62.4976,-16.4719,262.6241],[-62.493899999999996,-16.4734,254.2301],[-62.4902,-16.4805,255.2166],[-62.4832,-16.4843,255.9047],[-62.4788,-16.4849,257.4109],[-62.4729,-16.4803,263.2145],[-62.4653,-16.4846,281.3824],[-62.4682,-16.4858,267.43],[-62.4677,-16.49,267.6033],[-62.4617,-16.4929,267.294],[-62.4558,-16.4902,270.3329],[-62.4535,-16.4932,279.0954],[-62.4562,-16.4993,271.3224],[-62.4556,-16.5052,278.0585],[-62.4531,-16.5018,280.0956],[-62.4444,-16.5037,292.1598],[-62.4424,-16.4996,280.9416],[-62.4338,-16.5017,292.6948],[-62.4295,-16.501,301.5817],[-62.4255,-16.5035,280.4178],[-62.4259,-16.5084,302.1444],[-62.4199,-16.5077,287.6302],[-62.4158,-16.5096,283.4125],[-62.4129,-16.516,294.1864],[-62.41,-16.5187,302.8144],[-62.4098,-16.5215,285.4925],[-62.4074,-16.5207,290.5023],[-62.4072,-16.5189,326.4512],[-62.4012,-16.5175,299.9714],[-62.3896,-16.5233,305.9042],[-62.3902,-16.5157,320.7388],[-62.3871,-16.5161,304.6952],[-62.3818,-16.5131,311.5958],[-62.3782,-16.5148,326.5453],[-62.3785,-16.511,305.102],[-62.3741,-16.5104,306.2213],[-62.3727,-16.5068,312.0048],[-62.3745,-16.5053,310.0213],[-62.3722,-16.503,312.1127],[-62.3662,-16.504,315.7866],[-62.3604,-16.499,310.3087],[-62.3579,-16.5019,317.2962],[-62.3592,-16.5124,324.4121],[-62.3526,-16.509,319.9299],[-62.3484,-16.5089,324.0974],[-62.3464,-16.5053,325.5888],[-62.3427,-16.5055,324.2186],[-62.3382,-16.499,331.3225],[-62.3412,-16.4906,339.4196],[-62.3352,-16.478,350.3714],[-62.336,-16.4607,362.4801],[-62.3317,-16.4503,369.1284],[-62.3321,-16.4467,372.7796],[-62.3307,-16.446,374.6557],[-62.3309,-16.4365,381.9883],[-62.3234,-16.4254,409.2872],[-62.324,-16.4195,415.866],[-62.3156,-16.3961,444.5572],[-62.3147,-16.3698,415.6273],[-62.3094,-16.364,418.171],[-62.3039,-16.3644,423.5003],[-62.2989,-16.3533,425.4848],[-62.2975,-16.3523,428.1924],[-62.2922,-16.3536,423.2736],[-62.291,-16.3477,438.7672],[-62.2885,-16.3458,441.6498],[-62.29,-16.3132,465.9038],[-62.288,-16.3097,468.598],[-62.29,-16.3062,509.4124],[-62.2849,-16.2995,610.4788],[-62.2885,-16.2656,536.0694],[-62.2864,-16.2669,525.9484],[-62.2816,-16.2656,515.8065],[-62.2801,-16.2627,513.1088],[-62.2733,-16.2577,492.6242],[-62.2718,-16.2539,501.0294],[-62.2788,-16.2491,505.4941],[-62.2795,-16.2452,501.8999],[-62.2837,-16.2403,486.0833],[-62.2823,-16.2371,493.6854],[-62.2867,-16.2376,494.4278],[-62.2862,-16.2326,494.4062],[-62.2973,-16.2144,489.6699],[-62.2957,-16.2099,486.2897],[-62.2977,-16.2063,486.0161],[-62.2925,-16.2058,486.964],[-62.2966,-16.2037,480.013],[-62.2939,-16.2027,480.1674],[-62.2963,-16.1932,474.7831],[-62.2926,-16.1917,491.3832],[-62.2963,-16.1885,470.3089],[-62.2989,-16.1794,471.9418],[-62.2949,-16.1781,465.3683],[-62.2953,-16.1756,471.0733],[-62.2926,-16.1741,460.3109],[-62.2974,-16.1697,453.6289],[-62.3016,-16.1709,448.1005],[-62.3054,-16.1693,444.8431],[-62.303,-16.1656,446.7896],[-62.3091,-16.1612,443.8776],[-62.3136,-16.1612,440.4071],[-62.3129,-16.1587,441.8301],[-62.3148,-16.1547,443.9077],[-62.3186,-16.1542,440.0189],[-62.3187,-16.1491,446.6969],[-62.3236,-16.1483,450.3],[-62.3245,-16.1469,452.9367],[-62.3245,-16.1441,442.9662],[-62.3179,-16.1404,449.9831],[-62.3191,-16.139,443.3437],[-62.3169,-16.1353,435.2626],[-62.3211,-16.1339,433.3274],[-62.3193,-16.1299,434.6923],[-62.3142,-16.1313,446.1165],[-62.315,-16.1241,439.1626],[-62.3131,-16.1216,438.2818],[-62.3151,-16.1172,430.7271],[-62.3224,-16.1176,421.657],[-62.3235,-16.1156,425.5736],[-62.3323,-16.113,432.0264],[-62.3304,-16.1103,423.2968],[-62.3317,-16.1061,434.0459],[-62.3374,-16.1075,425.3484],[-62.3387,-16.1032,431.8406],[-62.3435,-16.1038,428.602],[-62.3457,-16.0997,432.5935],[-62.3426,-16.096,430.361],[-62.3471,-16.0969,427.1785],[-62.3496,-16.1004,426.384],[-62.352,-16.0996,428.6757],[-62.3522,-16.0963,429.3264],[-62.3556,-16.0932,419.6642],[-62.3499,-16.0849,418.3254],[-62.355,-16.0833,421.909],[-62.3562,-16.0816,416.6488],[-62.3554,-16.0773,406.1691],[-62.36,-16.0755,407.5976],[-62.3615,-16.0712,418.7652],[-62.359,-16.0677,412.3801],[-62.3752,-16.0661,409.3459],[-62.3784,-16.0616,397.8317],[-62.3753,-16.053,399.6617],[-62.3706,-16.0476,407.5392],[-62.3761,-16.047,399.7665],[-62.3787,-16.0438,398.5772],[-62.3827,-16.0425,399.1958],[-62.384,-16.0394,407.0641],[-62.3888,-16.0384,401.6915],[-62.3878,-16.0364,400.004],[-62.3779,-16.0368,389.1326],[-62.3777,-16.0327,401.3622],[-62.3726,-16.0319,397.5238],[-62.3721,-16.0301,398.0375],[-62.3812,-16.0272,391.7671],[-62.3815,-16.0245,387.7417],[-62.3789,-16.0197,386.4092],[-62.3805,-16.017,385.5044],[-62.39,-16.0133,383.3473],[-62.3986,-16.0077,390.4459],[-62.4031,-15.9997,394.2144],[-62.4116,-15.9947,387.1826],[-62.4149,-15.9874,382.1599],[-62.42,-15.9834,393.4528],[-62.4191,-15.9763,374.9642],[-62.4229,-15.9659,389.8007],[-62.4139,-15.9534,382.0886],[-62.4093,-15.9507,377.1723],[-62.4097,-15.9473,380.8112],[-62.407,-15.9462,379.7753],[-62.4117,-15.9426,373.4113],[-62.4209,-15.9412,378.6076],[-62.4244,-15.9342,376.8646],[-62.4289,-15.9324,376.4404],[-62.4254,-15.9243,379.3165],[-62.4192,-15.9205,374.626],[-62.4255,-15.9078,370.8098],[-62.4337,-15.9047,371.2414],[-62.4335,-15.9008,365.997],[-62.4381,-15.9005,364.8676],[-62.4409,-15.8985,364.3014],[-62.4415,-15.8944,371.6272],[-62.4372,-15.8896,364.2841],[-62.4364,-15.8861,367.7698],[-62.4426,-15.8869,361.7588],[-62.4466,-15.881,370.4601],[-62.4554,-15.8851,361.3459],[-62.4604,-15.8791,365.5827],[-62.4652,-15.8802,358.8691],[-62.4733,-15.888,356.7203],[-62.4783,-15.8885,352.1638],[-62.479,-15.8847,356.5424],[-62.4738,-15.8824,358.3485],[-62.4743,-15.8799,351.6044],[-62.4778,-15.8809,353.7177],[-62.4878,-15.8749,352.6548],[-62.4996,-15.8744,359.1827],[-62.5122,-15.8674,342.6557],[-62.5169,-15.8701,347.7082],[-62.5349,-15.8664,344.8206],[-62.5475,-15.8603,340.417],[-62.5525,-15.8614,327.8017],[-62.5655,-15.851,321.7484],[-62.5687,-15.8521,316.386],[-62.5759,-15.8589,311.0782],[-62.5808,-15.8483,333.7315],[-62.5871,-15.8477,315.6026],[-62.6387,-16.1856,734.5159]]]]}
,"properties": {"GID_3": "BOL.8.10.4_2","GID_0": "BOL","country": "Bolivia","GID_1": "BOL.8_1","province": "SantaCruz","NL_NAME_1": "NA","GID_2": "BOL.8.10_2","county": "ÑufloDeChávez","NL_NAME_2": "NA","city": "SanJavier","VARNAME_3": "NA","NL_NAME_3": "NA","TYPE_3": "District","ENGTYPE_3": "Distrito","CC_3": "NA","HASC_3": "NA","name": "San_Javier.city","area_km2": 2281.667,"hist_schema_id": "Elevation0-9000","hist_area_km2": {"225": 20.165,"250": 50.271,"275": 40.863,"300": 43.388,"325": 56.044,"350": 88.506,"375": 131.986,"400": 184.534,"425": 288.715,"450": 336.411,"475": 292.595,"500": 231.675,"525": 184.621,"550": 125.825,"575": 72.444,"600": 42.249,"625": 28.138,"650": 18.59,"675": 12.481,"700": 10.017,"725": 7.125,"750": 5.273,"775": 4.723,"800": 3.033,"825": 1.649,"850": 0.285,"875": 0.061}}}