{"type":"Feature","properties":{"GID_3":"BOL.8.5.1_2","GID_0":"BOL","country":"Bolivia","GID_1":"BOL.8_1","province":"SantaCruz","NL_NAME_1":"NA","GID_2":"BOL.8.5_2","county":"Florida","NL_NAME_2":"NA","city":"Mairana","VARNAME_3":"NA","NL_NAME_3":"NA","TYPE_3":"District","ENGTYPE_3":"Distrito","CC_3":"NA","HASC_3":"NA","name":"Mairana.city"},
"geometry":{"type": "MultiPolygon","coordinates": [[[[-64.1532,-17.7921,1487.6425],[-64.155,-17.804,1386.2622],[-64.1515,-17.809,1369.5823],[-64.148,-17.8308,1304.8798],[-64.14,-17.8385,1270.4382],[-64.1339,-17.8394,1307.752],[-64.1326,-17.841,1256.4147],[-64.1286,-17.840699999999998,1258.4526],[-64.1253,-17.8455,1410.0095],[-64.1249,-17.8528,1579.5596],[-64.1153,-17.8787,1825.8057],[-64.1128,-17.8925,1655.382],[-64.1068,-17.905,1249.1105],[-64.1045,-17.9221,1545.4749],[-64.0988,-17.9376,2010.7052],[-64.0846,-17.9483,2020.0027],[-64.0757,-17.9636,1970.078],[-64.0679,-18.0034,1559.5908],[-64.065,-18.0083,1648.4919],[-64.0584,-18.0129,1946.5944],[-64.0542,-18.023,2030.6702],[-64.0542,-18.0374,1903.1648],[-64.045,-18.0484,2122.5088],[-64.0454,-18.067,2032.5254],[-64.0418,-18.0898,1929.6233],[-64.0437,-18.1027,2218.0818],[-64.0401,-18.116,2020.5676],[-64.0434,-18.1288,2132.9138],[-64.0345,-18.1354,2091.7095],[-64.0333,-18.1409,2092.2908],[-64.0367,-18.1513,2070.2869],[-64.0343,-18.155,2080.4744],[-64.0345,-18.1594,2086.8271],[-64.0289,-18.1712,2034.2532],[-64.0198,-18.178,2047.4117],[-64.0195,-18.1873,2002.2529],[-64.0139,-18.1924,2127.4451],[-64.0149,-18.205,2118.7153],[-64.0108,-18.2101,2187.5559],[-64.0031,-18.2129,2145.23],[-63.9941,-18.2128,1988.5552],[-63.9857,-18.2197,1877.5708],[-63.9786,-18.2231,1870.1631],[-63.9764,-18.2289,1756.0125],[-63.9531,-18.2459,1405.1824],[-63.9482,-18.2429,1411.2434],[-63.9498,-18.2414,1387.8134],[-63.9489,-18.2356,1408.1835],[-63.9507,-18.2315,1387.5697],[-63.95,-18.2289,1390.6002],[-63.9527,-18.228,1381.6935],[-63.9509,-18.2162,1384.7122],[-63.954,-18.2078,1382.2278],[-63.9578,-18.2093,1371.8269],[-63.9615,-18.2058,1363.5529],[-63.959,-18.204,1363.8539],[-63.9595,-18.202,1361.8065],[-63.9578,-18.2004,1360.5389],[-63.9607,-18.1997,1367.4451],[-63.9597,-18.197,1358.5399],[-63.9569,-18.1956,1357.6222],[-63.9582,-18.1932,1373.4512],[-63.955,-18.1929,1361.9446],[-63.9589,-18.1909,1354.2385],[-63.955,-18.1896,1364.3385],[-63.9544,-18.1871,1354.8],[-63.958,-18.1828,1362.063],[-63.9543,-18.1805,1354.6372],[-63.9576,-18.18,1344.5542],[-63.9537,-18.1764,1347.7107],[-63.9541,-18.1735,1345.9133],[-63.9522,-18.1731,1349.8042],[-63.9382,-18.1755,1407.7448],[-63.93,-18.1757,1437.103],[-63.9274,-18.1742,1461.1124],[-63.9213,-18.1778,1514.1865],[-63.9142,-18.1774,1605.8164],[-63.9134,-18.1738,1674.748],[-63.9084,-18.1699,1861.2585],[-63.9058,-18.1595,1957.3705],[-63.9022,-18.1579,1986.1831],[-63.904,-18.1511,1936.7991],[-63.9,-18.144,1944.8229],[-63.908,-18.1416,1944.438],[-63.9094,-18.1392,1881.326],[-63.9057,-18.1323,1816.1025],[-63.9056,-18.123,1554.3303],[-63.901,-18.1203,1528.6379],[-63.901,-18.1137,1578.9521],[-63.8992,-18.1131,1559.3594],[-63.9005,-18.1105,1575.2905],[-63.9001,-18.1031,1638.6597],[-63.8883,-18.0849,2203.1885],[-63.8654,-18.0666,1611.2026],[-63.8636,-18.0636,1532.5547],[-63.8666,-18.0564,1508.2955],[-63.8664,-18.0499,1468.8129],[-63.8788,-18.0354,1428.1898],[-63.8756,-18.0321,1437.6311],[-63.8773,-18.0316,1437.6311],[-63.8788,-18.0273,1441.2202],[-63.8813,-18.0282,1418.2213],[-63.8846,-18.0267,1441.3354],[-63.8863,-18.0216,1396.4224],[-63.8836,-18.0197,1435.7544],[-63.8864,-18.0192,1387.8242],[-63.8843,-18.0151,1384.2197],[-63.8866,-18.009,1383.6262],[-63.8906,-18.0071,1360.8621],[-63.889,-18.006,1359.328],[-63.8917,-18.0009,1412.592],[-63.896,-17.9987,1369.7324],[-63.8963,-17.9956,1389.9553],[-63.9013,-17.9926,1354.3931],[-63.9071,-17.9837,1301.3016],[-63.9071,-17.9811,1287.9232],[-63.9115,-17.9792,1274.3607],[-63.9206,-17.9707,1311.0182],[-63.9214,-17.9654,1238.3873],[-63.9277,-17.9554,1225.929],[-63.9272,-17.9527,1229.074],[-63.9301,-17.9502,1233.2039],[-63.9309,-17.9463,1261.6986],[-63.9326,-17.9438,1237.2827],[-63.9354,-17.9439,1168.9508],[-63.9398,-17.9366,1170.1322],[-63.9426,-17.9359,1166.1863],[-63.9454,-17.932,1152.0659],[-63.9467,-17.9266,1133.1826],[-63.9447,-17.9271,1153.3195],[-63.9447,-17.9255,1137.3191],[-63.9472,-17.9216,1135.2731],[-63.9459,-17.9197,1132.3345],[-63.9482,-17.9175,1120.8345],[-63.9464,-17.9161,1168.2222],[-63.9503,-17.908,1119.1023],[-63.9525,-17.9066,1118.551],[-63.9493,-17.9039,1262.5081],[-63.9602,-17.9027,1093.9906],[-63.9616,-17.9,1086.7018],[-63.9667,-17.8987,1077.9498],[-63.971,-17.8923,1052.4054],[-63.9778,-17.8916,1038.9487],[-63.9834,-17.8863,1016.2377],[-63.9874,-17.8882,1015.7723],[-63.9911,-17.8872,1011.5475],[-64.0083,-17.8725,981.9824],[-64.0079,-17.8707,989.4727],[-64.0028,-17.8672,1072.7761],[-64.005,-17.8645,981.5085],[-64.0043,-17.8615,976.394],[-64.0059,-17.8592,1000.7679],[-64.0015,-17.8551,988.0983],[-64.0032,-17.8499,1006.8186],[-63.9984,-17.8482,1014.7324],[-63.9973,-17.8463,963.3503],[-63.9984,-17.8388,987.1241],[-64.0019,-17.8344,951.3532],[-63.9998,-17.832,949.2637],[-64.0019,-17.8214,944.9312],[-64.0062,-17.8222,938.5088],[-64.0057,-17.8165,947.9103],[-64.0085,-17.8152,956.1813],[-64.0107,-17.8174,948.2698],[-64.0134,-17.813,934.4312],[-64.0165,-17.8142,930.5936],[-64.0168,-17.8092,1001.7292],[-64.0195,-17.8107,981.9838],[-64.0242,-17.8023,930.4182],[-64.029,-17.8007,915.0972],[-64.0269,-17.7965,904.4447],[-64.0224,-17.797,912.3596],[-64.0248,-17.7918,898.3519],[-64.0254,-17.7841,892.2908],[-64.0241,-17.7824,882.5291],[-64.0276,-17.7797,901.9435],[-64.0331,-17.7793,876.7692],[-64.0348,-17.7763,860.833],[-64.0366,-17.7762,876.0433],[-64.0385,-17.7706,866.2689],[-64.0435,-17.7689,859.9313],[-64.0428,-17.7653,855.2095],[-64.0481,-17.7622,854.9039],[-64.0518,-17.7573,839.477],[-64.0497,-17.7555,840.018],[-64.0529,-17.7513,833.8542],[-64.0554,-17.7518,855.5668],[-64.0545,-17.7536,850.6885],[-64.0596,-17.7526,874.1664],[-64.0592,-17.755,887.1464],[-64.0643,-17.7558,880.8436],[-64.0677,-17.7552,891.1095],[-64.0708,-17.7524,974.8199],[-64.0728,-17.7541,919.8547],[-64.0733,-17.7522,931.7485],[-64.078,-17.7519,941.694],[-64.0783,-17.7494,982.0481],[-64.0809,-17.7501,956.4478],[-64.0835,-17.7488,995.2434],[-64.0892,-17.7521,1016.1837],[-64.093,-17.7486,1039.3973],[-64.0946,-17.7498,1078.6855],[-64.0986,-17.749,1066.9419],[-64.106,-17.7598,1252.2964],[-64.1135,-17.7653,1396.236],[-64.1142,-17.7712,1468.3069],[-64.1225,-17.7733,1705.6624],[-64.1335,-17.7713,1937.298],[-64.1457,-17.765,2169.2932],[-64.1472,-17.7674,2124.4504],[-64.1439,-17.7739,1950.6771],[-64.1431,-17.7804,1813.9307],[-64.1463,-17.7875,1636.1489],[-64.1532,-17.7921,1487.6425]]]]}}