{"type": "Feature","bbox": [-59.2503,-20.1659,-57.4544,-17.9708],"geometry": {"type": "MultiPolygon","coordinates": [[[[-58.0224,-17.9791,186.1496],[-58.0338,-17.9968,203.0661],[-58.8048,-17.9708,220.3914],[-59.2503,-18.1152,265.8065],[-58.9888,-18.624,147.5096],[-58.8704,-18.7968,136.8658],[-58.9864,-18.9853,164.9357],[-59.0996,-19.3494,297.8896],[-58.9996,-19.4015,299.1052],[-58.8235,-19.4969,182.2565],[-58.7443,-19.5364,140.8018],[-58.6406,-19.5864,112.2516],[-58.5011,-19.6502,87.8746],[-58.2354,-19.7755,83.6828],[-58.1648,-19.8271,80.47],[-58.1678,-19.8313,80.3548],[-58.1743,-19.8349,80.1214],[-58.1781,-19.8446,80.3499],[-58.1921,-19.8533,79.9078],[-58.1975,-19.8623,80.314],[-58.2019,-19.8648,79.8166],[-58.2037,-19.8815,80.4483],[-58.2051,-19.8838,79.9645],[-58.2048,-19.8977,79.3184],[-58.2003,-19.9052,79.2902],[-58.1959,-19.9282,79.3547],[-58.202,-19.9381,79.3269],[-58.2131,-19.9514,79.2],[-58.2131,-19.9537,78.9637],[-58.2101,-19.9565,79.3056],[-58.2008,-19.9619,79.0369],[-58.192,-19.9615,79.0044],[-58.1855,-19.9712,79.1774],[-58.1765,-20.0048,79.5317],[-58.1774,-20.0136,79.4682],[-58.1737,-20.0216,78.9316],[-58.1751,-20.0284,79.9261],[-58.1679,-20.0359,78.3981],[-58.1568,-20.0439,82.3496],[-58.1617,-20.049,79.6203],[-58.1668,-20.0508,82.0891],[-58.1634,-20.0569,81.9309],[-58.1649,-20.0651,78.8696],[-58.1604,-20.073,83.6253],[-58.1621,-20.0767,79.1061],[-58.1597,-20.0771,79.9777],[-58.1581,-20.0751,79.0073],[-58.1528,-20.0754,80.5229],[-58.1545,-20.0853,79.7065],[-58.1446,-20.0978,81.0103],[-58.1369,-20.1187,77.801],[-58.1376,-20.124,77.9093],[-58.142,-20.1283,80.2172],[-58.1454,-20.1397,80.3184],[-58.1594,-20.1454,80.0533],[-58.1672,-20.1527,79.7824],[-58.1698,-20.1659,77.5],[-58.1627,-20.1606,77.7049],[-58.1561,-20.1508,80.6879],[-58.1371,-20.1483,79.4545],[-58.118,-20.1395,80.4251],[-58.1027,-20.1227,78.0],[-58.0937,-20.1087,78.0],[-58.0655,-20.1012,80.4306],[-58.0503,-20.1004,80.5591],[-58.041,-20.0905,78.0],[-58.039,-20.077,78.0],[-58.0332,-20.0648,80.1913],[-58.0252,-20.0586,78.0],[-58.0117,-20.0578,79.4042],[-57.9977,-20.0532,81.4097],[-57.978,-20.0535,78.0],[-57.9725,-20.0499,78.0],[-57.9669,-20.0331,78.7298],[-57.9569,-20.0226,78.0],[-57.9482,-20.0194,78.0],[-57.9377,-20.0192,78.0],[-57.9245,-20.025,78.0],[-57.9122,-20.034,81.3152],[-57.9093,-20.034,81.4306],[-57.9081,-20.0304,81.0798],[-57.909,-20.0194,80.9432],[-57.905,-20.0114,81.403],[-57.896,-20.002,81.485],[-57.8832,-19.9934,81.9883],[-57.8729,-19.9827,82.4747],[-57.8709,-19.9765,81.7151],[-57.8726,-19.971,81.5743],[-57.8767,-19.9659,81.4358],[-57.8953,-19.9506,81.6107],[-57.916,-19.9371,81.2836],[-57.9535,-19.9092,81.4792],[-57.9873,-19.888,81.3637],[-58.0209,-19.8598,81.0736],[-58.0487,-19.8333,81.1592],[-58.0735,-19.817,80.9571],[-58.1268,-19.7747,81.6313],[-58.1334,-19.7624,81.4704],[-58.1334,-19.7578,81.0973],[-58.122,-19.7318,81.5129],[-58.092,-19.6733,81.6829],[-57.8931,-19.2618,82.4386],[-57.7842,-19.0335,240.5101],[-57.7105,-19.0326,102.59],[-57.7088,-19.029,100.7202],[-57.7052,-19.0015,87.5652],[-57.707,-18.9903,111.6232],[-57.7122,-18.979,83.5],[-57.7197,-18.9781,84.22],[-57.7198,-18.8991,86.0592],[-57.7672,-18.9005,86.029],[-57.5902,-18.3373,102.5251],[-57.5599,-18.2427,96.756],[-57.5578,-18.2404,93.048],[-57.4544,-18.231,88.9088],[-57.4579,-18.2269,91.5392],[-57.4674,-18.2228,90.1261],[-57.4742,-18.217,89.737],[-57.4738,-18.2135,90.2646],[-57.4798,-18.2086,88.5342],[-57.4822,-18.2021,91.2969],[-57.4851,-18.2,90.7507],[-57.4907,-18.2022,90.0979],[-57.5003,-18.1969,89.104],[-57.5051,-18.2003,95.1342],[-57.5076,-18.1992,96.7102],[-57.5748,-18.1319,87.5],[-57.5804,-18.1179,87.5],[-57.6007,-18.0452,87.5],[-57.6365,-17.9816,116.507],[-58.0224,-17.9791,186.1496]]]]}
,"properties": {"GID_2": "BOL.8.6_2","GID_0": "BOL","country": "Bolivia","GID_1": "BOL.8_1","province": "SantaCruz","NL_NAME_1": "NA","county": "GermánBusch","VARNAME_2": "NA","NL_NAME_2": "NA","TYPE_2": "Provincia","ENGTYPE_2": "Province","CC_2": "NA","HASC_2": "NA","name": "Germán_Busch.county","area_km2": 25530.67,"hist_schema_id": "Elevation0-9000","hist_area_km2": {"75": 2525.76,"100": 5129.41,"125": 3275.93,"150": 2016.28,"175": 1927.82,"200": 1974.2,"225": 1735.95,"250": 1339.25,"275": 1046.94,"300": 902.59,"325": 803.1,"350": 586.45,"375": 464.92,"400": 387.32,"425": 362.74,"450": 248.51,"475": 178.58,"500": 133.19,"525": 124.35,"550": 119.52,"575": 79.48,"600": 54.55,"625": 35.14,"650": 26.76,"675": 18.93,"700": 16.81,"725": 8.48,"750": 4.07,"775": 2.54,"800": 0.79,"825": 0.2}}}