{"type":"Feature","properties":{"GID_3":"BOL.2.6.1_2","GID_0":"BOL","country":"Bolivia","GID_1":"BOL.2_1","province":"Cochabamba","NL_NAME_1":"NA","GID_2":"BOL.2.6_2","county":"Capinota","NL_NAME_2":"NA","city":"Capinota","VARNAME_3":"NA","NL_NAME_3":"NA","TYPE_3":"District","ENGTYPE_3":"Distrito","CC_3":"NA","HASC_3":"NA","name":"Capinota.city"},
"geometry":{"type": "MultiPolygon","coordinates": [[[[-66.2517,-17.9343,4102.6943],[-66.2496,-17.9374,4092.573],[-66.2472,-17.9532,4071.6265],[-66.2366,-17.9487,3922.582],[-66.226,-17.9526,3760.2532],[-66.2233,-17.9493,3730.4111],[-66.222,-17.9423,3758.0244],[-66.2192,-17.9414,3699.646],[-66.2193,-17.9376,3725.0225],[-66.2161,-17.9352,3678.8352],[-66.2107,-17.9353,3649.2935],[-66.2099,-17.9319,3740.3989],[-66.2034,-17.9309,3722.1238],[-66.197,-17.9262,3748.5327],[-66.1822,-17.9335,3707.1682],[-66.1799,-17.9334,3597.6338],[-66.1722,-17.928,3393.4646],[-66.1672,-17.9271,3351.144],[-66.1648,-17.9245,3374.6936],[-66.166,-17.9152,3490.8889],[-66.1617,-17.9116,3586.6602],[-66.1639,-17.907,3563.2593],[-66.1594,-17.9034,3438.3337],[-66.1569,-17.9033,3435.7212],[-66.1586,-17.8993,3470.6936],[-66.1463,-17.8844,3247.3508],[-66.1339,-17.8781,3226.4104],[-66.1165,-17.8583,3051.2307],[-66.1157,-17.8535,3032.3467],[-66.1175,-17.8504,2977.6982],[-66.1156,-17.8424,2935.5249],[-66.1162,-17.8368,2927.5369],[-66.1145,-17.8362,2869.0818],[-66.1124,-17.8272,2763.7317],[-66.1099,-17.8271,2768.9951],[-66.1077,-17.8195,2638.7422],[-66.1042,-17.8155,2488.2441],[-66.1018,-17.8092,2312.9072],[-66.1005,-17.8071,2339.697],[-66.097,-17.8072,2250.4175],[-66.0965,-17.8057,2271.8557],[-66.0984,-17.8026,2257.498],[-66.1089,-17.8012,2275.3367],[-66.1101,-17.7982,2270.615],[-66.1172,-17.7985,2321.4795],[-66.1184,-17.7957,2320.7122],[-66.122,-17.7933,2288.353],[-66.1299,-17.7957,2290.5356],[-66.1396,-17.7948,2304.9517],[-66.1396,-17.7893,2309.9971],[-66.1341,-17.7871,2329.6218],[-66.1288,-17.7811,2434.1201],[-66.1276,-17.7763,2405.8916],[-66.1279,-17.7635,2477.9714],[-66.1307,-17.7501,2631.5659],[-66.1293,-17.7472,2609.3696],[-66.1315,-17.7427,2658.0249],[-66.1307,-17.7398,2742.9004],[-66.1334,-17.7391,2706.9775],[-66.1414,-17.7281,2811.8218],[-66.1422,-17.7206,2904.4226],[-66.1466,-17.7188,2907.2466],[-66.1514,-17.7142,2968.3843],[-66.1525,-17.7075,3024.9775],[-66.1477,-17.6998,3037.0991],[-66.1477,-17.6974,3058.2944],[-66.154,-17.6905,3110.5396],[-66.1594,-17.6879,3152.2695],[-66.1601,-17.6838,3119.3584],[-66.1571,-17.6805,3281.0588],[-66.1511,-17.6802,3337.6426],[-66.1564,-17.6764,3356.0862],[-66.1567,-17.6735,3386.4568],[-66.1684,-17.6566,3250.9702],[-66.1735,-17.6558,3224.4719],[-66.1794,-17.6594,2949.135],[-66.1782,-17.6628,2999.1738],[-66.1804,-17.6655,3088.3513],[-66.1875,-17.6627,3009.0044],[-66.1894,-17.6656,2881.1724],[-66.1962,-17.6663,2701.5171],[-66.2002,-17.6725,2815.6191],[-66.2024,-17.6735,2816.7583],[-66.2001,-17.6784,2778.0583],[-66.2061,-17.6825,2747.2549],[-66.2087,-17.6816,2744.698],[-66.2136,-17.6856,2685.8008],[-66.2236,-17.6825,2535.333],[-66.2267,-17.6752,2490.2942],[-66.2257,-17.6716,2462.1006],[-66.2341,-17.6636,2491.1948],[-66.2359,-17.6598,2500.2595],[-66.2409,-17.6574,2403.3813],[-66.2486,-17.6573,2381.5693],[-66.25,-17.6525,2384.6011],[-66.2492,-17.6489,2385.1355],[-66.2513,-17.6452,2385.6851],[-66.2618,-17.6427,2390.8911],[-66.2567,-17.6379,2391.6135],[-66.2572,-17.631,2395.4226],[-66.2599,-17.6249,2405.2275],[-66.2651,-17.6253,2402.5732],[-66.2656,-17.6218,2399.6689],[-66.2709,-17.6213,2402.3281],[-66.2718,-17.6187,2403.4797],[-66.2779,-17.6165,2404.4917],[-66.278,-17.6101,2407.137],[-66.2827,-17.6045,2414.8174],[-66.2825,-17.6023,2424.3633],[-66.2879,-17.6006,2414.6333],[-66.2925,-17.6053,2438.8208],[-66.3008,-17.61,2472.1995],[-66.3017,-17.6134,2472.928],[-66.3057,-17.6166,2480.6262],[-66.3145,-17.6198,2530.2732],[-66.3218,-17.6262,2580.9907],[-66.3223,-17.6325,2656.3154],[-66.321,-17.6353,2674.6191],[-66.3226,-17.6421,2702.835],[-66.3282,-17.6488,2849.6289],[-66.3337,-17.6485,2827.9143],[-66.346,-17.6518,3075.884],[-66.3482,-17.6582,3249.5681],[-66.3395,-17.6725,3344.1079],[-66.3464,-17.6838,3318.0376],[-66.341,-17.6887,3316.2729],[-66.339,-17.6887,3316.4968],[-66.3335,-17.6982,2996.699],[-66.3377,-17.71,3026.75],[-66.337,-17.7181,2772.3076],[-66.3336,-17.7234,2615.1016],[-66.3347,-17.7363,2525.4304],[-66.3326,-17.7448,2975.677],[-66.3307,-17.7477,3059.4111],[-66.3261,-17.7501,3071.9712],[-66.3132,-17.7667,3183.5928],[-66.3041,-17.7692,3389.6997],[-66.2863,-17.8083,3588.2393],[-66.2862,-17.8145,3664.7075],[-66.296,-17.8251,3254.9014],[-66.2959,-17.8342,3322.6606],[-66.303,-17.8579,3058.2495],[-66.2988,-17.8599,3230.6211],[-66.2952,-17.8667,3162.9741],[-66.2911,-17.8641,3328.8303],[-66.2799,-17.8622,3763.2949],[-66.2771,-17.8788,3785.0239],[-66.2736,-17.8849,3913.9475],[-66.2696,-17.8982,3938.1655],[-66.2632,-17.9058,3955.0125],[-66.2592,-17.9136,3968.688],[-66.2517,-17.9343,4102.6943]]]]}}