{"type": "Feature","bbox": [-66.5921,-10.5036,-65.7515,-9.7388],"geometry": {"type": "MultiPolygon","coordinates": [[[[-66.4981,-10.5036,168.5342],[-65.7515,-10.5036,147.8931],[-65.7515,-9.7815,106.9677],[-65.7601,-9.7692,110.657],[-65.7755,-9.762,99.6272],[-65.7747,-9.7533,109.5776],[-65.7701,-9.7432,101.6122],[-65.7719,-9.7388,108.7364],[-65.7782,-9.7389,104.7524],[-65.7796,-9.749,99.3017],[-65.7754,-9.7668,108.4951],[-65.7812,-9.7732,99.0647],[-65.7838,-9.7863,100.9163],[-65.798,-9.7952,113.5554],[-65.7997,-9.7889,101.9905],[-65.8043,-9.7921,114.9139],[-65.8089,-9.7902,118.4825],[-65.8098,-9.7856,104.0185],[-65.8149,-9.7785,111.5419],[-65.816,-9.7741,123.9954],[-65.8078,-9.7693,105.8638],[-65.8074,-9.7629,97.9323],[-65.8108,-9.7652,114.4697],[-65.8178,-9.7587,114.1556],[-65.8196,-9.7586,115.242],[-65.8206,-9.7664,97.495],[-65.8225,-9.7666,98.3821],[-65.8231,-9.7697,102.533],[-65.8286,-9.7699,115.1132],[-65.8389,-9.7831,112.9273],[-65.8429,-9.7856,113.6539],[-65.8415,-9.7898,97.019],[-65.8454,-9.7909,99.1448],[-65.8439,-9.7922,105.0403],[-65.8444,-9.7942,116.4498],[-65.851,-9.7934,98.4914],[-65.8573,-9.7985,110.363],[-65.8655,-9.7989,120.6208],[-65.8728,-9.7971,110.5482],[-65.8764,-9.7921,113.9146],[-65.8763,-9.7902,105.5364],[-65.8715,-9.7861,111.7561],[-65.8723,-9.7772,110.8958],[-65.8653,-9.7707,113.5352],[-65.872,-9.7654,111.9138],[-65.8741,-9.7571,114.9104],[-65.89,-9.7556,112.3951],[-65.8936,-9.7612,114.456],[-65.9006,-9.7624,100.3843],[-65.9035,-9.7651,105.5491],[-65.9043,-9.7691,120.8836],[-65.9071,-9.7699,103.5012],[-65.9182,-9.7657,114.2096],[-65.9196,-9.7638,118.1619],[-65.9171,-9.7587,107.4139],[-65.924,-9.756,101.2336],[-65.9253,-9.7598,101.1737],[-65.9229,-9.7637,102.4074],[-65.9267,-9.7625,100.5606],[-65.9276,-9.7633,100.387],[-65.9251,-9.7648,105.2811],[-65.9258,-9.766,105.2811],[-65.9289,-9.7651,101.7354],[-65.9323,-9.7689,109.0365],[-65.9384,-9.7717,123.2499],[-65.9414,-9.7712,119.0211],[-65.942,-9.7653,113.2246],[-65.9458,-9.7629,100.1883],[-65.9574,-9.7718,116.6493],[-65.9709,-9.7741,106.5253],[-65.9726,-9.7769,108.5314],[-65.9742,-9.7979,111.2809],[-65.9638,-9.8026,108.7875],[-65.9687,-9.8066,116.9444],[-65.9814,-9.803,109.0287],[-65.9833,-9.8109,108.6088],[-65.9903,-9.8032,105.9375],[-65.9935,-9.8057,106.4536],[-66.002,-9.8006,107.5116],[-66.0076,-9.8014,122.3914],[-66.021,-9.8153,134.7311],[-66.0262,-9.8161,117.0645],[-66.0288,-9.8139,122.2076],[-66.0363,-9.7919,120.3031],[-66.0385,-9.7901,115.1418],[-66.0436,-9.7908,117.3623],[-66.0521,-9.7885,115.5568],[-66.0617,-9.7901,118.1404],[-66.0709,-9.7881,113.9596],[-66.084,-9.7922,103.1228],[-66.0784,-9.7961,120.3147],[-66.08,-9.7971,119.5808],[-66.0785,-9.7993,118.0308],[-66.0859,-9.8046,120.4654],[-66.0878,-9.8117,126.2256],[-66.0911,-9.8179,125.0171],[-66.093,-9.8186,123.5199],[-66.0982,-9.8156,110.3962],[-66.1007,-9.8093,112.8275],[-66.1032,-9.8071,117.9195],[-66.103,-9.7958,121.3916],[-66.1048,-9.7875,117.8778],[-66.11,-9.7903,115.9635],[-66.1092,-9.794,115.9724],[-66.1124,-9.7929,105.3055],[-66.1213,-9.7962,118.5314],[-66.1228,-9.7921,108.9537],[-66.1263,-9.791,111.4032],[-66.13,-9.7944,118.6985],[-66.1354,-9.7922,118.0745],[-66.1406,-9.7921,116.2239],[-66.1433,-9.7955,120.2457],[-66.145,-9.7914,114.8377],[-66.1502,-9.7894,115.116],[-66.1707,-9.798,118.3974],[-66.1737,-9.8024,118.5796],[-66.1736,-9.8076,113.9348],[-66.1779,-9.8068,110.4356],[-66.1844,-9.8092,105.8422],[-66.1911,-9.8082,121.1466],[-66.1936,-9.8169,116.1424],[-66.1889,-9.8184,110.5146],[-66.1836,-9.8238,117.5997],[-66.1836,-9.8258,118.0823],[-66.1859,-9.827,120.0938],[-66.1925,-9.8222,116.862],[-66.1945,-9.827,105.7857],[-66.1911,-9.832,122.1959],[-66.1971,-9.8348,112.6766],[-66.2025,-9.8395,121.7672],[-66.21,-9.8378,124.2714],[-66.2117,-9.8343,120.1562],[-66.2198,-9.8279,103.142],[-66.2322,-9.8187,119.2673],[-66.2351,-9.8185,119.8769],[-66.2375,-9.8236,121.9149],[-66.2372,-9.8291,124.2151],[-66.2409,-9.8237,112.715],[-66.242,-9.827,112.5069],[-66.2448,-9.8244,118.4256],[-66.244,-9.8283,123.9601],[-66.2508,-9.8353,130.4513],[-66.2592,-9.832,112.3717],[-66.2717,-9.8364,121.021],[-66.2728,-9.834,103.3886],[-66.2749,-9.8348,117.3809],[-66.2753,-9.8293,110.9825],[-66.2766,-9.8291,110.9825],[-66.2779,-9.8321,118.8357],[-66.2809,-9.833,120.2766],[-66.2789,-9.8415,122.7117],[-66.2831,-9.8452,115.8317],[-66.3026,-9.8365,114.6684],[-66.3035,-9.8402,118.3604],[-66.3056,-9.8402,112.5534],[-66.3068,-9.8381,116.0141],[-66.3084,-9.8405,106.002],[-66.3142,-9.8334,116.2381],[-66.315,-9.8354,109.2415],[-66.3196,-9.8369,111.5585],[-66.3466,-9.8402,120.0444],[-66.3512,-9.8431,110.53],[-66.3504,-9.8459,119.9761],[-66.3552,-9.8484,108.0286],[-66.3553,-9.8554,106.7027],[-66.3575,-9.8599,111.4865],[-66.3577,-9.8648,109.3373],[-66.3598,-9.8665,111.3972],[-66.3803,-9.8682,117.509],[-66.397,-9.8658,120.1431],[-66.4073,-9.8723,105.6969],[-66.4086,-9.8751,109.7429],[-66.4112,-9.8755,107.216],[-66.4122,-9.882,114.0317],[-66.4181,-9.8837,114.3212],[-66.419,-9.8916,124.9618],[-66.4217,-9.8951,109.2536],[-66.4133,-9.8933,111.9271],[-66.4126,-9.8946,124.5106],[-66.4267,-9.8997,126.2252],[-66.4289,-9.8996,127.3266],[-66.4335,-9.8942,112.1783],[-66.4312,-9.8894,119.3435],[-66.4309,-9.8795,123.9719],[-66.4324,-9.874,121.0988],[-66.4425,-9.8701,113.4632],[-66.4602,-9.8741,119.1688],[-66.4547,-9.8774,108.4386],[-66.4564,-9.8799,113.878],[-66.4641,-9.8776,115.9552],[-66.4679,-9.8723,116.2039],[-66.472,-9.8723,118.4688],[-66.4817,-9.8735,124.1581],[-66.4907,-9.8791,123.9055],[-66.4913,-9.8825,120.33],[-66.4949,-9.8843,111.2486],[-66.5057,-9.8833,124.7863],[-66.505,-9.8804,119.0591],[-66.5061,-9.8784,120.9797],[-66.5092,-9.8781,122.5449],[-66.5169,-9.8832,119.5895],[-66.5281,-9.887,122.4778],[-66.535,-9.8863,121.4755],[-66.5417,-9.8833,125.4265],[-66.5467,-9.8836,117.9162],[-66.5491,-9.8888,116.4024],[-66.5511,-9.8873,113.7554],[-66.5537,-9.8892,124.591],[-66.5574,-9.8851,123.6227],[-66.5686,-9.8918,119.1142],[-66.5704,-9.8944,113.4169],[-66.573,-9.8941,122.4005],[-66.5824,-9.8995,121.5066],[-66.5837,-9.9062,120.6515],[-66.5921,-9.9022,123.6307],[-66.545,-10.1925,163.7956],[-66.4981,-10.5036,168.5342]]]]}
,"properties": {"GID_3": "BOL.6.2.2_2","GID_0": "BOL","country": "Bolivia","GID_1": "BOL.6_1","province": "Pando","NL_NAME_1": "NA","GID_2": "BOL.6.2_2","county": "FedericoRomán","NL_NAME_2": "NA","city": "SantosMercado","VARNAME_3": "NA","NL_NAME_3": "NA","TYPE_3": "District","ENGTYPE_3": "Distrito","CC_3": "NA","HASC_3": "NA","name": "Santos_Mercado.city","area_km2": 6615.931,"hist_schema_id": "Elevation0-9000","hist_area_km2": {"100": 28.595,"125": 894.39,"150": 3740.777,"175": 1803.708,"200": 148.46}}}