{"type":"Feature","properties":{"GID_3":"BOL.7.15.1_2","GID_0":"BOL","country":"Bolivia","GID_1":"BOL.7_1","province":"Potosí","NL_NAME_1":"NA","GID_2":"BOL.7.15_2","county":"SurLipez","NL_NAME_2":"NA","city":"Mojinete","VARNAME_3":"NA","NL_NAME_3":"NA","TYPE_3":"District","ENGTYPE_3":"Distrito","CC_3":"NA","HASC_3":"NA","name":"Mojinete.city"},
"geometry":{"type": "MultiPolygon","coordinates": [[[[-66.2215,-21.7814,3290.4209],[-66.2267,-21.778,3307.3103],[-66.2296,-21.7695,3304.446],[-66.237,-21.7601,3318.5596],[-66.2385,-21.7508,3365.7207],[-66.2466,-21.7486,3399.3835],[-66.252,-21.7559,3360.5881],[-66.2592,-21.7542,3486.5928],[-66.2631,-21.7616,3396.3838],[-66.264,-21.7675,3464.2161],[-66.2684,-21.7687,3447.6873],[-66.272,-21.773,3456.8257],[-66.2839,-21.7801,3467.4951],[-66.2863,-21.7774,3460.353],[-66.2884,-21.7683,3477.1711],[-66.2932,-21.7708,3630.7622],[-66.2966,-21.7691,3672.011],[-66.3016,-21.7703,3636.9734],[-66.3039,-21.767,3669.7207],[-66.3081,-21.7693,3605.6655],[-66.319,-21.7636,3528.271],[-66.3262,-21.7665,3533.9226],[-66.337,-21.7677,3537.8594],[-66.3397,-21.7644,3685.061],[-66.3403,-21.7586,3769.1868],[-66.3554,-21.7455,3634.0444],[-66.3593,-21.737,3664.937],[-66.3595,-21.7324,3633.0569],[-66.3637,-21.7274,3632.0996],[-66.3687,-21.7264,3657.5564],[-66.3737,-21.717,3666.5918],[-66.3793,-21.7137,3713.0327],[-66.3857,-21.7065,3723.6514],[-66.3958,-21.7035,3757.6135],[-66.4064,-21.695,3827.6455],[-66.4129,-21.6933,3835.041],[-66.4159,-21.6932,3861.7402],[-66.4209,-21.6972,4055.135],[-66.4263,-21.6985,4098.2793],[-66.4396,-21.6996,4207.3286],[-66.4419,-21.6984,4231.5454],[-66.4504,-21.7178,4878.0908],[-66.4469,-21.7253,4929.1133],[-66.4473,-21.7288,5022.4326],[-66.4535,-21.7397,5070.1777],[-66.4819,-21.7541,5604.7314],[-66.4714,-21.7777,4944.8984],[-66.4728,-21.7885,4701.311],[-66.4792,-21.8016,5015.3662],[-66.4797,-21.8087,5022.417],[-66.4664,-21.8294,4629.4355],[-66.4652,-21.8379,4317.999],[-66.461,-21.8438,4187.7012],[-66.4583,-21.8451,4156.7734],[-66.4539,-21.8431,4138.6309],[-66.4468,-21.8444,4140.4561],[-66.432,-21.8425,4092.4849],[-66.4285,-21.8455,4052.7683],[-66.42,-21.8481,4019.0276],[-66.4156,-21.8517,4012.6396],[-66.403,-21.856,4005.1255],[-66.3951,-21.8504,3939.8528],[-66.3859,-21.8487,3873.8225],[-66.3821,-21.8466,3851.6719],[-66.3753,-21.8509,3799.7358],[-66.3682,-21.8495,3737.7148],[-66.3695,-21.8538,3817.2417],[-66.3631,-21.8589,3798.29],[-66.3627,-21.8627,3818.3472],[-66.3734,-21.8702,3854.0132],[-66.3801,-21.8799,3870.1426],[-66.3836,-21.882,3882.5078],[-66.382,-21.891,3949.7461],[-66.3711,-21.9045,3982.9717],[-66.3642,-21.9054,3775.0835],[-66.355,-21.9117,3652.8115],[-66.3497,-21.9098,3635.6624],[-66.3348,-21.9085,3597.2766],[-66.3318,-21.9121,3576.8455],[-66.3168,-21.9197,3515.6521],[-66.3058,-21.9214,3483.886],[-66.2968,-21.9248,3455.9041],[-66.2899,-21.9345,3439.9763],[-66.2867,-21.9342,3449.4331],[-66.2848,-21.9371,3429.8433],[-66.2819,-21.9369,3432.5566],[-66.2807,-21.9405,3458.6836],[-66.2748,-21.9441,3402.9377],[-66.2705,-21.942,3384.9424],[-66.2673,-21.9354,3379.4583],[-66.2626,-21.9357,3374.4751],[-66.2613,-21.9338,3372.3154],[-66.2639,-21.9298,3370.1921],[-66.2583,-21.9165,3363.0439],[-66.2601,-21.9057,3359.8027],[-66.2488,-21.8963,3349.4504],[-66.2512,-21.8902,3362.7061],[-66.2468,-21.8859,3360.8044],[-66.2483,-21.8771,3419.0132],[-66.2441,-21.8734,3337.4739],[-66.2411,-21.8652,3332.968],[-66.2403,-21.8564,3340.9072],[-66.2354,-21.8508,3328.9573],[-66.2391,-21.8449,3322.7383],[-66.2386,-21.8401,3330.0759],[-66.2419,-21.8327,3338.0071],[-66.237,-21.8176,3340.7913],[-66.2427,-21.7951,3326.999],[-66.2413,-21.7888,3321.853],[-66.236,-21.7871,3297.6594],[-66.225,-21.7878,3301.6736],[-66.2215,-21.7814,3290.4209]]]]}}