{"type": "Feature","bbox": [-65.0525,-22.8828,-64.0981,-21.7771],"geometry": {"type": "MultiPolygon","coordinates": [[[[-64.2981,-22.8622,347.9853],[-64.2981,-22.8529,354.144],[-64.3066,-22.840699999999998,356.8782],[-64.305,-22.8378,359.4747],[-64.2878,-22.8361,354.6922],[-64.2845,-22.8298,356.3975],[-64.2863,-22.808,363.5394],[-64.2851,-22.7953,363.3676],[-64.2769,-22.7912,367.8749],[-64.2757,-22.7888,370.7252],[-64.2785,-22.7838,372.9415],[-64.2776,-22.7784,366.3362],[-64.2676,-22.7701,369.8532],[-64.2651,-22.7641,372.0898],[-64.2674,-22.7577,372.9308],[-64.2788,-22.7552,371.885],[-64.2835,-22.752,372.4193],[-64.2814,-22.7475,372.5847],[-64.2752,-22.7446,373.3162],[-64.2679,-22.7444,374.5557],[-64.2641,-22.7408,369.8874],[-64.269,-22.7395,370.7561],[-64.2701,-22.737,370.4395],[-64.2707,-22.7343,373.6471],[-64.2673,-22.728,374.5618],[-64.2717,-22.7164,377.7274],[-64.2711,-22.7083,376.1447],[-64.2639,-22.7009,381.1051],[-64.2648,-22.696,378.1831],[-64.2616,-22.6872,379.7489],[-64.2612,-22.6763,385.2197],[-64.2572,-22.6721,384.2061],[-64.2444,-22.6706,387.3701],[-64.2422,-22.6653,387.4886],[-64.2645,-22.65,385.6001],[-64.2561,-22.6283,391.8358],[-64.2476,-22.6329,393.2673],[-64.2412,-22.6274,393.6682],[-64.2389,-22.6206,399.4574],[-64.2379,-22.6087,398.3444],[-64.2432,-22.5986,397.623],[-64.2441,-22.58,397.2812],[-64.2428,-22.5639,402.8911],[-64.2398,-22.5554,418.8927],[-64.2308,-22.5574,408.6781],[-64.2274,-22.5432,408.4283],[-64.2163,-22.5435,411.9217],[-64.214,-22.5259,412.1694],[-64.2026,-22.4958,420.5169],[-64.1977,-22.4896,422.0266],[-64.1901,-22.4916,424.3367],[-64.1876,-22.4887,419.4741],[-64.1868,-22.4798,438.9802],[-64.1832,-22.4732,422.2575],[-64.1738,-22.4664,431.1343],[-64.1664,-22.47,431.4587],[-64.1618,-22.4673,435.7054],[-64.1609,-22.4546,427.2943],[-64.1544,-22.4525,434.4944],[-64.1506,-22.4361,434.6465],[-64.1421,-22.4333,436.4564],[-64.1387,-22.4306,435.4993],[-64.1384,-22.4271,438.4012],[-64.1446,-22.4162,441.2408],[-64.1426,-22.4117,442.7494],[-64.1334,-22.4067,447.6342],[-64.1214,-22.4084,447.0162],[-64.1167,-22.4071,447.7099],[-64.1161,-22.4035,470.0555],[-64.1195,-22.3941,449.4528],[-64.1208,-22.3843,456.4492],[-64.1199,-22.3821,451.7244],[-64.1172,-22.3818,452.4519],[-64.1121,-22.3842,451.8789],[-64.1086,-22.3818,454.7171],[-64.1166,-22.3677,486.701],[-64.1171,-22.3643,456.7492],[-64.1041,-22.3554,459.6843],[-64.0981,-22.343,480.3108],[-64.0981,-22.3401,463.7579],[-64.0991,-22.3381,466.2953],[-64.1035,-22.3368,471.5666],[-64.1267,-22.3347,474.6332],[-64.1317,-22.3335,483.922],[-64.1329,-22.3315,477.3643],[-64.1323,-22.3293,497.2672],[-64.128,-22.3264,489.3435],[-64.119,-22.3241,514.2994],[-64.112,-22.3242,494.2446],[-64.1165,-22.3148,533.678],[-64.1177,-22.3086,509.1206],[-64.1154,-22.3025,557.9988],[-64.1115,-22.2997,508.0557],[-64.1155,-22.2873,539.5251],[-64.1076,-22.2861,517.0852],[-64.1064,-22.2845,530.4797],[-64.1088,-22.2789,547.4816],[-64.1056,-22.2757,537.0297],[-64.1055,-22.2735,562.0229],[-64.1095,-22.2676,518.3866],[-64.1054,-22.2636,517.8281],[-64.1023,-22.2549,530.4103],[-64.1039,-22.2513,526.1495],[-64.1102,-22.2486,542.7648],[-64.1118,-22.2422,555.6151],[-64.1041,-22.2217,533.9316],[-64.1101,-22.2172,562.9013],[-64.1113,-22.211,656.5594],[-64.1201,-22.2086,595.0283],[-64.1248,-22.2032,569.4326],[-64.133,-22.2034,554.9202],[-64.1411,-22.1974,566.2076],[-64.1477,-22.1966,552.0632],[-64.1485,-22.195,548.9489],[-64.147,-22.1916,566.0535],[-64.1525,-22.193,544.8449],[-64.1578,-22.1835,555.2533],[-64.1504,-22.1807,557.5919],[-64.154,-22.1722,570.7839],[-64.153,-22.1689,562.5333],[-64.1421,-22.1695,558.83],[-64.144,-22.165,563.7678],[-64.1435,-22.1582,562.7846],[-64.1477,-22.1548,578.4005],[-64.1524,-22.1538,641.1288],[-64.154,-22.1566,577.3777],[-64.1522,-22.1606,571.9779],[-64.1545,-22.1641,576.652],[-64.1566,-22.1645,599.4251],[-64.1597,-22.1626,600.2702],[-64.1605,-22.1583,598.0836],[-64.1679,-22.1585,593.7987],[-64.1665,-22.1502,642.7538],[-64.1785,-22.1462,654.9341],[-64.1774,-22.1443,600.2121],[-64.1714,-22.1431,587.2156],[-64.1716,-22.14,594.1826],[-64.1772,-22.1331,644.1589],[-64.1896,-22.124,627.2017],[-64.1914,-22.125,593.7283],[-64.1933,-22.1297,629.0027],[-64.1953,-22.1305,617.3298],[-64.1971,-22.1267,632.5973],[-64.1951,-22.1214,671.3827],[-64.196,-22.1199,681.418],[-64.2003,-22.1233,627.2123],[-64.2039,-22.1202,639.0994],[-64.2085,-22.1233,610.2964],[-64.2152,-22.1223,657.0867],[-64.2145,-22.1292,627.4719],[-64.2162,-22.1301,623.7859],[-64.2178,-22.1254,639.7983],[-64.2203,-22.1254,634.5443],[-64.2236,-22.1355,624.342],[-64.226,-22.1346,620.5513],[-64.2267,-22.1314,649.1664],[-64.2289,-22.1313,628.6091],[-64.2266,-22.1394,639.7189],[-64.2213,-22.1464,638.2006],[-64.2224,-22.1491,641.7314],[-64.2266,-22.1494,644.2703],[-64.2299,-22.1454,668.3204],[-64.2325,-22.1452,632.4924],[-64.2482,-22.1525,657.2261],[-64.2604,-22.1501,665.1514],[-64.2663,-22.1431,674.3527],[-64.2668,-22.1384,671.6599],[-64.2748,-22.1406,688.4614],[-64.2807,-22.1359,728.0526],[-64.2975,-22.1399,708.8885],[-64.3069,-22.1315,727.0744],[-64.3107,-22.1324,721.7776],[-64.3146,-22.1227,797.153],[-64.3191,-22.1213,705.585],[-64.3132,-22.1173,731.2787],[-64.3136,-22.11,716.5471],[-64.3109,-22.1085,720.9968],[-64.312,-22.1043,726.752],[-64.3093,-22.1,744.09],[-64.3094,-22.098,730.8997],[-64.3137,-22.0965,724.9419],[-64.3144,-22.0944,721.2044],[-64.3124,-22.0859,726.8861],[-64.313,-22.0815,728.4673],[-64.3094,-22.0794,764.5105],[-64.3058,-22.0824,733.2064],[-64.3044,-22.0819,727.5272],[-64.3082,-22.074,730.4309],[-64.3042,-22.072,737.2562],[-64.3033,-22.07,737.7279],[-64.306,-22.0605,736.2477],[-64.3053,-22.0494,745.9226],[-64.3024,-22.0488,745.9214],[-64.3013,-22.0518,739.5834],[-64.2984,-22.0524,744.6202],[-64.2935,-22.0468,749.031],[-64.2917,-22.0427,750.3283],[-64.2913,-22.035,758.9594],[-64.2885,-22.0323,752.4381],[-64.2869,-22.0274,760.9697],[-64.2899,-22.0186,757.0521],[-64.2862,-22.013,784.5391],[-64.2884,-22.0112,858.8422],[-64.3026,-22.0134,770.0361],[-64.3037,-22.0119,840.0297],[-64.3021,-22.01,785.8807],[-64.3032,-22.0057,837.3686],[-64.307,-22.0067,788.7415],[-64.3107,-22.0107,777.9902],[-64.3155,-22.008,783.6236],[-64.3141,-22.005,855.9949],[-64.31,-22.0043,822.6207],[-64.3091,-22.0014,849.6771],[-64.3099,-21.9985,784.9255],[-64.3137,-21.9964,786.9764],[-64.3128,-21.9928,789.205],[-64.3065,-21.9915,790.6925],[-64.3138,-21.981,880.2842],[-64.3103,-21.9792,795.1909],[-64.3091,-21.9726,858.724],[-64.3033,-21.974,798.0073],[-64.3016,-21.9728,795.2902],[-64.3044,-21.9682,825.4351],[-64.3075,-21.9684,808.521],[-64.3097,-21.9621,885.1979],[-64.306,-21.9591,888.1326],[-64.3023,-21.9634,802.3965],[-64.3005,-21.9633,835.3661],[-64.3003,-21.9583,869.5483],[-64.3029,-21.9567,817.5082],[-64.2985,-21.9519,846.2792],[-64.3018,-21.9495,826.1193],[-64.306,-21.951,845.3512],[-64.3102,-21.9465,829.0374],[-64.3141,-21.9509,843.9009],[-64.3156,-21.9479,885.655],[-64.3199,-21.9472,835.9635],[-64.3258,-21.9538,842.7484],[-64.335,-21.9538,881.8167],[-64.3354,-21.9438,948.861],[-64.3423,-21.9434,892.9609],[-64.3439,-21.9379,972.0338],[-64.3508,-21.931,865.9681],[-64.3517,-21.924,854.1239],[-64.3557,-21.9223,859.9845],[-64.3565,-21.9158,888.168],[-64.3606,-21.9125,915.9659],[-64.3622,-21.8986,889.4776],[-64.3582,-21.8907,884.0404],[-64.3594,-21.8776,888.8546],[-64.356,-21.8723,894.4768],[-64.3612,-21.867,926.2286],[-64.3616,-21.8649,959.8275],[-64.359,-21.8607,901.7245],[-64.3606,-21.8553,907.4835],[-64.3542,-21.853,914.3469],[-64.3524,-21.8503,947.495],[-64.3533,-21.8374,920.7731],[-64.3595,-21.8343,927.2107],[-64.3571,-21.8271,939.672],[-64.3579,-21.8238,952.8856],[-64.3617,-21.8222,946.2673],[-64.3654,-21.8168,944.6302],[-64.3693,-21.8153,948.7118],[-64.3767,-21.8063,963.2839],[-64.3839,-21.807,968.5248],[-64.3903,-21.8056,983.5787],[-64.3991,-21.8075,981.2546],[-64.4075,-21.8134,989.4493],[-64.4169,-21.8238,1014.8641],[-64.4337,-21.8495,1072.0177],[-64.438,-21.8536,1051.281],[-64.4529,-21.8625,1073.5879],[-64.4712,-21.8641,1101.0366],[-64.4739,-21.8615,1130.558],[-64.4776,-21.8614,1121.8123],[-64.4846,-21.8678,1138.8785],[-64.4871,-21.868,1141.7174],[-64.4896,-21.864,1170.5975],[-64.4983,-21.8622,1176.717],[-64.5015,-21.857,1206.5242],[-64.4971,-21.8411,1238.7523],[-64.4986,-21.8357,1242.238],[-64.493,-21.8313,1280.068],[-64.4905,-21.8255,1321.2493],[-64.4967,-21.8206,1310.3069],[-64.4986,-21.8076,1384.4568],[-64.4941,-21.8003,1423.4172],[-64.4917,-21.7815,1826.2108],[-64.4966,-21.7772,2311.4971],[-64.5089,-21.7787,2430.658],[-64.513,-21.7771,2617.7542],[-64.515,-21.7791,2565.2021],[-64.5279,-21.7798,2148.0999],[-64.5334,-21.7826,2093.2207],[-64.5348,-21.7856,2003.4335],[-64.5487,-21.7884,1474.5321],[-64.5446,-21.791,1512.8862],[-64.5439,-21.7943,1547.1587],[-64.5466,-21.7947,1506.5779],[-64.5493,-21.7987,1558.3198],[-64.5539,-21.8123,1717.6882],[-64.5598,-21.8159,1737.9753],[-64.5604,-21.8187,1815.2062],[-64.5644,-21.822,1813.1694],[-64.5736,-21.819,2296.3008],[-64.5776,-21.8208,2363.2546],[-64.5813,-21.8188,2466.3372],[-64.5851,-21.8201,2441.8555],[-64.5861,-21.8188,2537.5615],[-64.5952,-21.818,2622.2104],[-64.6077,-21.8441,3007.3726],[-64.6111,-21.8447,3017.5112],[-64.6187,-21.8406,2608.979],[-64.6231,-21.8342,2489.6631],[-64.6284,-21.8312,2355.356],[-64.6332,-21.8317,2296.2334],[-64.6357,-21.8352,2310.3569],[-64.6467,-21.8315,2335.8159],[-64.6528,-21.8333,2236.311],[-64.6678,-21.8282,2046.9495],[-64.6769,-21.827,2174.1931],[-64.6807,-21.8234,2413.4846],[-64.6907,-21.8204,2810.592],[-64.6939,-21.824,2760.7339],[-64.6986,-21.8232,2807.998],[-64.7074,-21.8316,2842.4961],[-64.7307,-21.8295,2857.0713],[-64.7365,-21.8346,2773.3896],[-64.7391,-21.8348,2797.0344],[-64.7389,-21.8381,2780.5793],[-64.7437,-21.846,3011.2639],[-64.7507,-21.8459,2699.979],[-64.7669,-21.8349,2127.7981],[-64.7701,-21.8288,2181.6499],[-64.7706,-21.8212,2050.3716],[-64.7683,-21.8165,2020.4114],[-64.7691,-21.8114,2003.8162],[-64.7797,-21.8047,1855.926],[-64.7903,-21.8116,1869.222],[-64.7983,-21.8148,1881.5359],[-64.8045,-21.8148,1895.4302],[-64.8116,-21.8225,2102.4509],[-64.8206,-21.8271,2144.3652],[-64.8238,-21.836,2254.3506],[-64.8277,-21.8393,2261.1313],[-64.8336,-21.841,2305.9219],[-64.8342,-21.8377,2221.4536],[-64.8399,-21.8331,2417.0686],[-64.8487,-21.8381,2364.9373],[-64.8551,-21.8384,2318.7959],[-64.8568,-21.8358,2298.2439],[-64.8647,-21.8388,2240.1074],[-64.8671,-21.8411,2225.6418],[-64.8781,-21.8367,2154.9727],[-64.88,-21.837,2151.5974],[-64.8824,-21.840699999999998,2152.4053],[-64.8908,-21.8383,2288.2544],[-64.8954,-21.8352,2266.3677],[-64.9039,-21.8356,2276.4712],[-64.9126,-21.833,2369.666],[-64.9176,-21.8334,2398.4126],[-64.9199,-21.8379,2476.46],[-64.923,-21.836,2486.2664],[-64.925,-21.8382,2544.6077],[-64.9341,-21.8398,2517.8054],[-64.9391,-21.8374,2592.4231],[-64.9497,-21.8359,3114.8706],[-64.9538,-21.8329,3054.5972],[-64.9629,-21.8349,3062.8125],[-64.9699,-21.8334,3322.9084],[-64.9755,-21.8358,3523.0562],[-64.9777,-21.8388,3694.1506],[-64.9832,-21.8418,3924.6221],[-64.9848,-21.8476,4164.2891],[-64.9883,-21.8461,4204.6138],[-64.9917,-21.8478,4338.8193],[-64.9946,-21.8527,4447.4951],[-64.9947,-21.8574,4308.5498],[-64.9971,-21.8625,4436.915],[-65.0041,-21.8586,4494.1963],[-65.0137,-21.8666,4464.1748],[-65.0085,-21.8834,4180.4741],[-65.0102,-21.8909,4238.2686],[-65.0186,-21.9027,4415.2168],[-65.016,-21.9053,4281.6719],[-65.0163,-21.921,4188.9014],[-65.0333,-21.9454,4071.9268],[-65.0409,-21.9446,4000.5034],[-65.047,-21.9471,4040.0093],[-65.0468,-21.9506,4062.6733],[-65.0488,-21.9525,4058.6243],[-65.0485,-21.9602,4104.0337],[-65.0432,-21.9648,4151.4824],[-65.0422,-21.9746,4157.8135],[-65.0371,-21.9905,4275.6211],[-65.0456,-22.003,4333.7266],[-65.0434,-22.0383,4401.8794],[-65.0507,-22.0616,4392.0479],[-65.0525,-22.0833,4429.0518],[-64.9943,-22.084,4123.7476],[-64.9926,-22.087,3958.7507],[-64.9887,-22.089,3847.4568],[-64.9872,-22.0941,3602.3723],[-64.9844,-22.0944,3521.0369],[-64.9811,-22.098,3337.1104],[-64.971,-22.1001,3081.5027],[-64.9687,-22.1041,3061.4128],[-64.9639,-22.103,2986.2192],[-64.9615,-22.1045,2954.2988],[-64.9598,-22.1025,2936.1577],[-64.9566,-22.1028,2938.5752],[-64.9532,-22.1054,2890.2485],[-64.9534,-22.1072,2868.823],[-64.9478,-22.1077,2802.6499],[-64.9452,-22.11,2769.75],[-64.9383,-22.1098,2656.5649],[-64.9356,-22.116,2613.8257],[-64.9329,-22.1179,2578.4653],[-64.9269,-22.1183,2544.0488],[-64.924,-22.1211,2534.0366],[-64.9195,-22.1216,2498.4644],[-64.9028,-22.1196,2411.4707],[-64.8966,-22.124,2371.0591],[-64.893,-22.1238,2357.9241],[-64.8871,-22.1293,2322.1912],[-64.8841,-22.1273,2315.6895],[-64.8816,-22.1225,2302.6831],[-64.8798,-22.1225,2302.6831],[-64.8807,-22.1212,2348.6418],[-64.8789,-22.1176,2267.9634],[-64.8744,-22.1174,2270.7217],[-64.869,-22.1225,2243.853],[-64.8674,-22.1221,2243.853],[-64.8679,-22.1233,2268.3145],[-64.8618,-22.1224,2244.3628],[-64.8618,-22.1249,2318.5708],[-64.8494,-22.1316,2201.8396],[-64.8488,-22.1333,2276.533],[-64.8449,-22.1342,2200.113],[-64.8403,-22.1393,2156.6794],[-64.8358,-22.1393,2246.7429],[-64.8323,-22.1442,2136.7649],[-64.8304,-22.1415,2128.6372],[-64.8201,-22.1457,2245.5647],[-64.819,-22.1448,2183.4336],[-64.8178,-22.1484,2072.4595],[-64.8123,-22.1512,2095.7183],[-64.8127,-22.1533,2101.1086],[-64.8105,-22.1527,2072.9236],[-64.8077,-22.1561,2054.8208],[-64.8049,-22.156,2060.0208],[-64.8043,-22.158,2081.9321],[-64.7978,-22.1602,1972.3101],[-64.7968,-22.1624,1991.3752],[-64.7959,-22.1609,2001.4861],[-64.7931,-22.1615,1965.3276],[-64.7949,-22.1629,1948.1731],[-64.7936,-22.1649,2058.687],[-64.7905,-22.1644,2017.6223],[-64.789,-22.1684,2008.0581],[-64.7868,-22.1685,1910.2373],[-64.7823,-22.175,1828.5642],[-64.7779,-22.1779,1769.9255],[-64.7768,-22.1764,1769.9255],[-64.7744,-22.1783,1817.5776],[-64.7698,-22.1776,1704.4359],[-64.7664,-22.1789,1684.1212],[-64.7645,-22.1773,1646.0017],[-64.758,-22.1812,1594.1921],[-64.7565,-22.1794,1658.4625],[-64.7526,-22.1791,1571.8828],[-64.7495,-22.182,1598.9982],[-64.746,-22.1826,1549.4146],[-64.7452,-22.1888,1451.6873],[-64.7369,-22.1942,1399.4824],[-64.7234,-22.195,1344.1389],[-64.7219,-22.1966,1358.0181],[-64.7132,-22.1924,1261.3335],[-64.7099,-22.1891,1250.5201],[-64.6998,-22.1907,1220.4641],[-64.6973,-22.1889,1224.2698],[-64.6867,-22.1871,1201.5613],[-64.6751,-22.1885,1171.7505],[-64.6599,-22.1955,1149.5212],[-64.6573,-22.1949,1193.9636],[-64.6517,-22.1897,1149.2083],[-64.6389,-22.194,1128.2709],[-64.6358,-22.2002,1137.9243],[-64.6267,-22.203,1133.8022],[-64.6236,-22.2086,1158.4033],[-64.6194,-22.2049,1081.2622],[-64.6166,-22.2056,1109.4852],[-64.617,-22.2126,1114.8295],[-64.6138,-22.2151,1080.948],[-64.6138,-22.2174,1053.2888],[-64.608,-22.2204,1084.6362],[-64.6024,-22.2264,1026.8574],[-64.6018,-22.2308,994.6445],[-64.5996,-22.2323,1085.5337],[-64.5989,-22.2403,976.4052],[-64.5973,-22.2428,966.7332],[-64.5944,-22.2427,983.6383],[-64.5932,-22.2468,992.7169],[-64.5807,-22.25,922.5332],[-64.5376,-22.2832,837.6824],[-64.5359,-22.2879,830.015],[-64.5368,-22.2943,824.9105],[-64.5476,-22.3168,789.813],[-64.5592,-22.3194,776.3308],[-64.5636,-22.3259,769.2399],[-64.5666,-22.3389,753.8111],[-64.5647,-22.343,779.7538],[-64.5649,-22.3483,754.1381],[-64.5617,-22.3502,739.2942],[-64.5613,-22.3521,737.6144],[-64.5646,-22.3561,741.7762],[-64.5634,-22.3608,730.5426],[-64.5668,-22.368,720.64],[-64.565,-22.3737,715.8889],[-64.5616,-22.3791,710.8705],[-64.5542,-22.386,699.5814],[-64.533,-22.3977,677.944],[-64.5129,-22.4156,654.9388],[-64.5132,-22.4218,650.3182],[-64.5235,-22.4357,638.3737],[-64.5251,-22.4412,640.3484],[-64.5236,-22.4434,631.1893],[-64.5146,-22.4459,628.5948],[-64.4995,-22.4397,643.1738],[-64.4951,-22.4351,615.694],[-64.4921,-22.4366,616.8567],[-64.4899,-22.4418,611.7961],[-64.4887,-22.4575,600.6431],[-64.4791,-22.4619,597.1156],[-64.4748,-22.469,594.175],[-64.4821,-22.472,590.8073],[-64.4841,-22.476,592.6238],[-64.483,-22.4805,598.5924],[-64.4771,-22.4823,589.3182],[-64.4754,-22.4888,579.1587],[-64.4691,-22.4875,606.3395],[-64.4687,-22.4924,591.2371],[-64.4609,-22.491,632.5157],[-64.4586,-22.4953,577.7532],[-64.4588,-22.5021,570.5184],[-64.4552,-22.5042,634.0541],[-64.4489,-22.5035,561.2485],[-64.446,-22.5049,557.3448],[-64.4456,-22.5087,563.8027],[-64.4514,-22.5139,552.1844],[-64.4508,-22.5188,548.9215],[-64.4446,-22.5219,546.3231],[-64.4311,-22.5217,539.8771],[-64.4226,-22.5338,532.9059],[-64.4168,-22.5349,531.2834],[-64.4129,-22.5382,530.0759],[-64.4121,-22.544,527.0804],[-64.4164,-22.5494,524.3126],[-64.4173,-22.5528,521.1896],[-64.4152,-22.5561,523.3702],[-64.4099,-22.558,516.3456],[-64.4101,-22.5631,514.3673],[-64.4171,-22.5748,510.7104],[-64.4233,-22.5782,507.485],[-64.4302,-22.5787,505.3653],[-64.4318,-22.5814,503.3112],[-64.429,-22.5862,501.7271],[-64.425,-22.5871,505.0472],[-64.425,-22.5886,512.7415],[-64.4297,-22.5985,493.9569],[-64.426,-22.6039,498.9913],[-64.4289,-22.6079,490.7198],[-64.4289,-22.6171,497.5271],[-64.4348,-22.6232,483.0129],[-64.4329,-22.6281,508.1837],[-64.4339,-22.6311,495.1177],[-64.4322,-22.6328,486.3081],[-64.4251,-22.6296,481.3663],[-64.4239,-22.6353,477.5329],[-64.4272,-22.639,482.0131],[-64.4351,-22.6346,475.7277],[-64.4402,-22.6355,470.6937],[-64.4423,-22.638,479.3884],[-64.4352,-22.6424,467.4217],[-64.4338,-22.6484,474.3618],[-64.4312,-22.651,464.5828],[-64.4145,-22.657,480.5152],[-64.4186,-22.6708,463.7103],[-64.4155,-22.679,457.8339],[-64.3981,-22.6833,440.5326],[-64.3944,-22.6881,437.5513],[-64.3946,-22.6902,438.3513],[-64.4009,-22.6974,435.7499],[-64.3974,-22.7063,445.1318],[-64.3974,-22.7101,428.6315],[-64.3922,-22.7102,427.9497],[-64.3914,-22.7126,431.5994],[-64.4016,-22.7153,433.2638],[-64.403,-22.7194,421.9812],[-64.3982,-22.7202,421.9849],[-64.3948,-22.7186,418.7153],[-64.3917,-22.7222,415.0111],[-64.3892,-22.7225,419.5572],[-64.3848,-22.7177,416.7362],[-64.3812,-22.7174,421.0115],[-64.374,-22.7212,409.9909],[-64.3724,-22.7274,405.73],[-64.3651,-22.7238,402.0403],[-64.3612,-22.7243,403.0618],[-64.3525,-22.7309,403.2152],[-64.3491,-22.7388,398.4213],[-64.3417,-22.7493,390.97],[-64.3407,-22.7524,392.8689],[-64.3422,-22.7641,387.342],[-64.3393,-22.7684,387.1897],[-64.3383,-22.778,380.4268],[-64.3397,-22.7851,379.1969],[-64.3442,-22.7935,376.8156],[-64.3422,-22.8066,373.6837],[-64.3343,-22.808,365.0307],[-64.3306,-22.8121,364.014],[-64.3287,-22.8312,358.3521],[-64.3268,-22.8365,359.1232],[-64.3286,-22.8625,353.5481],[-64.3314,-22.8631,353.407],[-64.3377,-22.8557,350.1795],[-64.3407,-22.8583,349.0911],[-64.3388,-22.8682,349.5157],[-64.3344,-22.8741,353.588],[-64.3281,-22.8722,352.1595],[-64.3245,-22.8742,351.7994],[-64.3205,-22.8684,351.5749],[-64.3148,-22.8671,351.7639],[-64.3128,-22.8721,346.7145],[-64.3172,-22.8813,344.6183],[-64.3157,-22.8828,345.1407],[-64.3116,-22.882,348.2487],[-64.3095,-22.8645,350.8915],[-64.3073,-22.8619,352.3175],[-64.2981,-22.8622,347.9853]]]]}
,"properties": {"GID_2": "BOL.9.1_2","GID_0": "BOL","country": "Bolivia","GID_1": "BOL.9_1","province": "Tarija","NL_NAME_1": "NA","county": "Arce","VARNAME_2": "NA","NL_NAME_2": "NA","TYPE_2": "Provincia","ENGTYPE_2": "Province","CC_2": "NA","HASC_2": "NA","name": "Arce.county","area_km2": 4850.705,"hist_schema_id": "Elevation0-9000","hist_area_km2": {"350": 21.044,"375": 65.518,"400": 41.431,"425": 33.406,"450": 32.851,"475": 31.877,"500": 26.782,"525": 34.114,"550": 43.287,"575": 45.661,"600": 51.697,"625": 58.831,"650": 65.476,"675": 69.402,"700": 75.973,"725": 80.316,"750": 88.681,"775": 87.729,"800": 84.347,"825": 83.827,"850": 80.581,"875": 80.082,"900": 76.698,"925": 77.282,"950": 78.744,"975": 77.775,"1000": 83.163,"1025": 84.041,"1050": 86.939,"1075": 88.951,"1100": 91.851,"1125": 89.482,"1150": 90.15,"1175": 88.187,"1200": 81.788,"1225": 81.393,"1250": 73.848,"1275": 68.31,"1300": 60.021,"1325": 52.516,"1350": 43.228,"1375": 38.143,"1400": 33.548,"1425": 31.664,"1450": 28.188,"1475": 26.677,"1500": 25.892,"1525": 24.988,"1550": 23.693,"1575": 22.161,"1600": 21.279,"1625": 20.237,"1650": 20.61,"1675": 17.41,"1700": 18.235,"1725": 16.782,"1750": 16.565,"1775": 16.565,"1800": 16.389,"1825": 17.156,"1850": 19.556,"1875": 20.64,"1900": 23.944,"1925": 24.929,"1950": 28.489,"1975": 37.086,"2000": 40.016,"2025": 41.826,"2050": 41.057,"2075": 40.901,"2100": 41.058,"2125": 42.181,"2150": 41.825,"2175": 39.68,"2200": 40.23,"2225": 41.213,"2250": 39.187,"2275": 38.047,"2300": 36.629,"2325": 37.257,"2350": 36.607,"2375": 35.978,"2400": 34.482,"2425": 33.381,"2450": 31.965,"2475": 32.868,"2500": 32.043,"2525": 31.139,"2550": 29.193,"2575": 30.57,"2600": 29.999,"2625": 29.783,"2650": 27.837,"2675": 25.872,"2700": 26.187,"2725": 24.182,"2750": 22.61,"2775": 21.685,"2800": 20.722,"2825": 19.012,"2850": 18.028,"2875": 17.419,"2900": 16.79,"2925": 16.889,"2950": 16.024,"2975": 15.021,"3000": 14.648,"3025": 14.156,"3050": 12.446,"3075": 12.268,"3100": 10.027,"3125": 9.968,"3150": 9.595,"3175": 7.668,"3200": 7.314,"3225": 6.626,"3250": 6.901,"3275": 6.882,"3300": 5.171,"3325": 5.348,"3350": 4.423,"3375": 4.6,"3400": 4.384,"3425": 4.679,"3450": 4.188,"3475": 4.207,"3500": 3.814,"3525": 4.325,"3550": 4.482,"3575": 4.423,"3600": 4.128,"3625": 3.873,"3650": 4.089,"3675": 4.129,"3700": 3.833,"3725": 3.892,"3750": 4.03,"3775": 2.811,"3800": 3.657,"3825": 3.165,"3850": 4.325,"3875": 3.932,"3900": 3.775,"3925": 3.106,"3950": 3.028,"3975": 3.323,"4000": 3.382,"4025": 3.382,"4050": 2.929,"4075": 3.008,"4100": 2.575,"4125": 2.91,"4150": 1.966,"4175": 2.202,"4200": 1.75,"4225": 1.199,"4250": 1.533,"4275": 1.18,"4300": 0.963,"4325": 0.865,"4350": 0.944,"4375": 0.727,"4400": 0.806,"4425": 0.609,"4450": 0.197,"4475": 0.118,"4500": 0.157,"4525": 0.039,"4550": 0.039,"4575": 0.059}}}