{"type":"Feature","properties":{"GID_2":"BOL.8.13_2","GID_0":"BOL","country":"Bolivia","GID_1":"BOL.8_1","province":"SantaCruz","NL_NAME_1":"NA","county":"Vallegrande","VARNAME_2":"ValleGrande","NL_NAME_2":"NA","TYPE_2":"Provincia","ENGTYPE_2":"Province","CC_2":"NA","HASC_2":"NA","name":"Vallegrande.county"},
"geometry":{"type": "MultiPolygon","coordinates": [[[[-64.0228,-19.1544,673.7473],[-64.0221,-19.1597,677.7718],[-64.024,-19.1645,668.1456],[-64.0187,-19.1668,727.8454],[-64.0165,-19.174,661.2655],[-64.0099,-19.1798,676.0062],[-64.0079,-19.1761,750.8902],[-64.0043,-19.1796,711.965],[-64.0006,-19.1795,716.6661],[-63.9948,-19.1821,665.8263],[-63.9782,-19.1787,660.683],[-63.9719,-19.1808,661.1414],[-63.9677,-19.1795,654.9026],[-63.9605,-19.1734,642.1674],[-63.9554,-19.1768,656.7864],[-63.9531,-19.1751,639.7249],[-63.9498,-19.1756,643.0549],[-63.9454,-19.1829,634.9363],[-63.9421,-19.1785,654.3253],[-63.9343,-19.1775,672.2116],[-63.9311,-19.1783,634.6631],[-63.9303,-19.1819,627.6892],[-63.9248,-19.1843,633.8315],[-63.9195,-19.1833,650.9623],[-63.9196,-19.179,626.5415],[-63.9246,-19.1763,620.5632],[-63.9199,-19.1698,624.4836],[-63.9072,-19.1603,621.1082],[-63.908,-19.1557,623.4847],[-63.9132,-19.1528,625.3501],[-63.9087,-19.1332,610.751],[-63.9137,-19.1291,610.7716],[-63.9117,-19.1272,630.8104],[-63.9101,-19.1206,611.5806],[-63.9074,-19.1178,610.9138],[-63.9081,-19.1139,613.8773],[-63.9049,-19.1112,612.6107],[-63.9056,-19.1074,657.0887],[-63.9101,-19.102,610.0494],[-63.9092,-19.099,616.0853],[-63.9055,-19.0989,645.571],[-63.9043,-19.0956,600.4956],[-63.9107,-19.0882,622.331],[-63.9096,-19.0841,604.6224],[-63.9111,-19.0637,599.0171],[-63.9095,-19.0535,593.9122],[-63.9061,-19.0466,596.2531],[-63.8969,-19.0459,642.7301],[-63.898,-19.0422,640.7371],[-63.9043,-19.0366,604.7916],[-63.9027,-19.0325,588.4882],[-63.9007,-19.0319,584.0851],[-63.8952,-19.0355,588.295],[-63.8912,-19.0336,641.1425],[-63.8903,-19.0302,589.3519],[-63.888,-19.0296,605.9615],[-63.8828,-19.03,596.1379],[-63.8716,-19.0374,589.1334],[-63.8679,-19.038,612.3895],[-63.862,-19.0355,581.3471],[-63.8564,-19.037,572.9473],[-63.8477,-19.0366,571.7296],[-63.8452,-19.0399,580.0369],[-63.8419,-19.0411,625.7239],[-63.8389,-19.0496,622.9857],[-63.834,-19.0511,600.7838],[-63.8141,-19.046,628.9116],[-63.8095,-19.0551,621.6575],[-63.7948,-19.0435,566.7998],[-63.7786,-19.0491,557.9641],[-63.7776,-19.0469,548.5122],[-63.7814,-19.0391,541.6826],[-63.7805,-19.0367,546.6223],[-63.7699,-19.0319,531.9125],[-63.7647,-19.0329,549.0101],[-63.761,-19.0359,530.6423],[-63.7546,-19.0362,542.1573],[-63.7431,-19.0422,526.4753],[-63.7363,-19.0391,527.8803],[-63.7366,-19.032,519.1923],[-63.7306,-19.03,546.3398],[-63.7218,-19.0379,516.4158],[-63.7212,-19.0415,526.0491],[-63.7231,-19.0462,517.2997],[-63.7221,-19.0477,516.3727],[-63.7165,-19.0446,516.8679],[-63.7052,-19.0431,529.7347],[-63.7004,-19.0393,513.8832],[-63.6979,-19.0392,514.9084],[-63.694,-19.0435,543.0531],[-63.699,-19.0534,509.3024],[-63.6983,-19.0546,517.3453],[-63.6926,-19.0565,508.0265],[-63.6829,-19.0546,508.1959],[-63.6718,-19.0573,505.7395],[-63.6711,-19.0587,521.5106],[-63.674,-19.0618,504.275],[-63.6833,-19.0654,502.7256],[-63.6835,-19.0699,502.152],[-63.6818,-19.0745,500.8737],[-63.6781,-19.0779,499.5],[-63.6686,-19.0794,517.4504],[-63.6676,-19.082,504.0873],[-63.6691,-19.0855,498.2245],[-63.6669,-19.09,499.6608],[-63.6629,-19.0895,497.6927],[-63.651,-19.083,534.7476],[-63.6494,-19.0855,518.6746],[-63.6518,-19.0924,497.111],[-63.6475,-19.092,497.6753],[-63.6444,-19.0866,489.0],[-63.6306,-19.0921,493.4623],[-63.6288,-19.0946,514.1285],[-63.6278,-19.1026,526.3752],[-63.6262,-19.1022,535.0795],[-63.6252,-19.0978,483.1044],[-63.6212,-19.0929,520.4077],[-63.615,-19.0971,505.965],[-63.6083,-19.093,501.4557],[-63.5973,-19.0976,505.7333],[-63.5865,-19.0981,510.0489],[-63.5802,-19.0949,513.0191],[-63.5789,-19.0878,487.7174],[-63.5771,-19.0866,487.7174],[-63.5657,-19.0867,482.0286],[-63.5591,-19.0915,479.5887],[-63.5569,-19.0915,478.0],[-63.5558,-19.0824,476.75],[-63.5569,-19.0781,483.6288],[-63.5644,-19.0688,489.7241],[-63.5584,-19.0627,482.1793],[-63.5559,-19.0531,477.8635],[-63.5517,-19.048,476.2838],[-63.5467,-19.0457,482.8167],[-63.5452,-19.0395,495.9948],[-63.5472,-19.0323,469.625],[-63.5559,-19.0248,471.7935],[-63.5563,-19.0217,467.5851],[-63.5551,-19.0199,487.0312],[-63.551,-19.0188,475.6255],[-63.5427,-19.019,469.3461],[-63.5415,-19.0161,503.0094],[-63.5511,-19.0025,470.0109],[-63.5499,-19.001,474.2701],[-63.5452,-19.0015,484.2938],[-63.5449,-19.0003,488.8775],[-63.5465,-18.9922,467.5957],[-63.5513,-18.9819,461.9559],[-63.5602,-18.9801,460.5006],[-63.5618,-18.9752,464.5368],[-63.5559,-18.9681,458.644],[-63.552,-18.9717,458.7683],[-63.5484,-18.9728,468.743],[-63.5435,-18.9716,486.2784],[-63.542,-18.9679,466.7521],[-63.5423,-18.9607,456.8428],[-63.5457,-18.9503,465.7911],[-63.5435,-18.9446,466.7707],[-63.5364,-18.9373,462.9005],[-63.5394,-18.9251,450.6766],[-63.5382,-18.9221,466.4393],[-63.5364,-18.922,449.4311],[-63.538,-18.9159,460.8922],[-63.5314,-18.8806,465.6129],[-63.5353,-18.8769,472.2466],[-63.5364,-18.8698,477.4016],[-63.5399,-18.8717,479.4071],[-63.5448,-18.8711,485.2783],[-63.5518,-18.8674,508.3355],[-63.5537,-18.8715,499.6326],[-63.5553,-18.8715,496.2353],[-63.5566,-18.8691,480.8025],[-63.556,-18.8576,482.4028],[-63.5634,-18.8527,486.7463],[-63.5632,-18.8457,497.0043],[-63.5758,-18.8444,489.8807],[-63.5805,-18.8417,490.8363],[-63.5832,-18.8364,498.2909],[-63.5768,-18.8305,493.9837],[-63.5818,-18.8277,511.4202],[-63.5804,-18.8241,500.7819],[-63.5662,-18.8187,506.2887],[-63.5622,-18.821,508.0864],[-63.557,-18.8127,560.3606],[-63.5491,-18.8147,511.5742],[-63.545,-18.8128,513.5997],[-63.5464,-18.7981,547.5508],[-63.531,-18.7806,517.417],[-63.5318,-18.7723,522.1993],[-63.5285,-18.7586,527.0093],[-63.5321,-18.7507,528.6936],[-63.5266,-18.7445,530.8035],[-63.5301,-18.7276,535.9423],[-63.5342,-18.7224,547.511],[-63.5415,-18.7198,538.428],[-63.5461,-18.7204,542.4305],[-63.5501,-18.7229,541.9213],[-63.5534,-18.73,587.9612],[-63.5555,-18.7315,577.7449],[-63.5692,-18.7295,567.6273],[-63.5693,-18.7264,568.4673],[-63.5744,-18.7237,574.2465],[-63.5798,-18.7247,616.4414],[-63.5759,-18.7291,662.0764],[-63.5827,-18.7338,602.3165],[-63.5844,-18.7304,654.9093],[-63.5859,-18.7304,644.1168],[-63.5885,-18.7347,594.3992],[-63.5882,-18.7381,643.291],[-63.5923,-18.7345,618.1286],[-63.5976,-18.7361,591.9972],[-63.6014,-18.7422,610.9659],[-63.6041,-18.7404,603.4257],[-63.6068,-18.7409,595.1539],[-63.6089,-18.739,597.7664],[-63.6081,-18.7357,598.4163],[-63.6125,-18.7337,599.5083],[-63.6202,-18.7243,616.9759],[-63.6237,-18.7226,612.6426],[-63.6216,-18.7153,623.8982],[-63.6285,-18.7114,616.2514],[-63.625,-18.7027,658.8126],[-63.6274,-18.7038,624.8727],[-63.63,-18.7025,634.7197],[-63.6343,-18.7068,644.1167],[-63.6344,-18.7028,667.5278],[-63.6381,-18.703,636.017],[-63.6388,-18.6968,651.3464],[-63.6345,-18.6978,653.1936],[-63.6335,-18.6947,647.0734],[-63.637,-18.6875,648.2782],[-63.6412,-18.6894,653.457],[-63.6441,-18.6874,661.5214],[-63.6365,-18.6795,696.3554],[-63.639,-18.6798,669.3036],[-63.6394,-18.6763,661.3979],[-63.6413,-18.6759,663.8285],[-63.6433,-18.6786,663.1736],[-63.6482,-18.6774,663.1683],[-63.6522,-18.6821,668.7327],[-63.6556,-18.6812,671.8284],[-63.6536,-18.6745,678.1295],[-63.6485,-18.671,670.8876],[-63.6468,-18.6667,704.8132],[-63.6478,-18.6645,702.4971],[-63.6666,-18.6514,692.1406],[-63.6699,-18.6512,698.8486],[-63.6738,-18.6485,701.733],[-63.6762,-18.6499,694.0966],[-63.6765,-18.6522,697.7231],[-63.6778,-18.6514,697.7231],[-63.6744,-18.6437,719.6905],[-63.677,-18.6409,711.4507],[-63.6714,-18.6399,730.1224],[-63.6697,-18.6345,745.9555],[-63.6709,-18.6313,750.4773],[-63.6776,-18.6239,853.9453],[-63.6776,-18.6221,796.7047],[-63.6819,-18.623,785.0336],[-63.6811,-18.6272,762.77],[-63.6852,-18.6224,793.982],[-63.692,-18.6224,763.3789],[-63.6862,-18.6139,803.9378],[-63.6867,-18.6121,797.39],[-63.6888,-18.6117,811.1035],[-63.6881,-18.6093,874.2059],[-63.6916,-18.6092,807.8003],[-63.69,-18.6048,881.3814],[-63.6921,-18.6036,850.9283],[-63.6949,-18.5977,863.9901],[-63.6944,-18.5929,900.8489],[-63.6969,-18.5925,916.5109],[-63.6955,-18.5903,985.6854],[-63.6954,-18.5842,796.342],[-63.6934,-18.5819,804.885],[-63.6981,-18.5783,810.6983],[-63.6941,-18.5765,1047.6943],[-63.6922,-18.5715,817.1218],[-63.6876,-18.5713,829.4756],[-63.6861,-18.5682,941.1379],[-63.6895,-18.5643,854.4462],[-63.6846,-18.566,837.1609],[-63.6813,-18.5649,846.8721],[-63.6883,-18.5599,917.8535],[-63.687,-18.5491,900.112],[-63.695,-18.5534,898.116],[-63.6895,-18.5387,965.7919],[-63.6938,-18.5348,987.3376],[-63.696,-18.5271,1093.3628],[-63.6937,-18.5235,1032.9982],[-63.6956,-18.5203,1031.9546],[-63.6951,-18.5158,1031.9061],[-63.6909,-18.5143,1031.2222],[-63.6935,-18.5115,1049.5419],[-63.6912,-18.5079,1080.8265],[-63.6909,-18.5009,1142.1501],[-63.6939,-18.4991,1148.3955],[-63.695,-18.4954,1136.1056],[-63.6936,-18.4936,1177.3278],[-63.6942,-18.4894,1218.2936],[-63.6978,-18.4858,1135.7429],[-63.6979,-18.4832,1133.5167],[-63.7007,-18.4817,1149.4812],[-63.6938,-18.4798,1276.7035],[-63.6885,-18.4804,1298.2],[-63.6768,-18.4746,1438.9576],[-63.6762,-18.4696,1374.895],[-63.6793,-18.4615,1254.5099],[-63.6761,-18.4539,1303.8405],[-63.6733,-18.4517,1359.926],[-63.6695,-18.4445,1468.0942],[-63.6656,-18.4422,1523.3997],[-63.6608,-18.4425,1692.7336],[-63.6581,-18.4411,1722.1436],[-63.6547,-18.4423,1776.2834],[-63.6484,-18.4405,1888.1475],[-63.651,-18.4345,1875.3749],[-63.6485,-18.4284,1911.7096],[-63.653,-18.422,1940.9165],[-63.6509,-18.4092,1900.4469],[-63.6574,-18.4131,1718.6115],[-63.6693,-18.4132,1468.6838],[-63.6722,-18.4161,1290.9888],[-63.6771,-18.4167,1311.943],[-63.6793,-18.4188,1259.0667],[-63.6847,-18.4164,1290.5281],[-63.6941,-18.4044,1330.1565],[-63.7004,-18.402,1209.7507],[-63.7037,-18.4047,1308.3341],[-63.7054,-18.4041,1327.0909],[-63.7045,-18.4067,1288.3251],[-63.7072,-18.4067,1310.0696],[-63.7075,-18.4097,1268.8756],[-63.7097,-18.411,1291.4336],[-63.735,-18.4198,1356.9321],[-63.744,-18.4342,1575.8763],[-63.7466,-18.4358,1661.4565],[-63.8008,-18.4413,2474.9993],[-63.8045,-18.4478,2273.7832],[-63.8191,-18.4481,1886.6071],[-63.8197,-18.455,1860.9939],[-63.8264,-18.4454,1875.4227],[-63.8292,-18.4447,1879.4678],[-63.8311,-18.4481,1880.5444],[-63.834,-18.4486,1899.8643],[-63.8386,-18.4439,1980.7778],[-63.8504,-18.4397,2000.058],[-63.855,-18.4426,2029.825],[-63.8631,-18.4424,2117.8027],[-63.8656,-18.4454,2102.0144],[-63.8726,-18.445,2212.8125],[-63.8787,-18.4412,2301.2388],[-63.8876,-18.4437,2477.6011],[-63.8899,-18.4459,2404.5906],[-63.9038,-18.438,2047.0911],[-63.9093,-18.4371,1854.8458],[-63.9114,-18.4332,1779.3212],[-63.9142,-18.4327,1749.7709],[-63.913,-18.4318,1749.7709],[-63.9142,-18.4282,1762.0098],[-63.9196,-18.4232,1712.9639],[-63.9339,-18.4305,2064.1716],[-63.9405,-18.4376,2338.5664],[-63.9549,-18.4438,2425.0557],[-63.9613,-18.443,2563.1621],[-63.969,-18.4371,2140.7776],[-63.9817,-18.4392,1981.4521],[-63.9905,-18.4381,1907.6456],[-63.9913,-18.4361,1865.3485],[-63.9888,-18.4315,1841.6785],[-63.9914,-18.43,1828.7583],[-63.9932,-18.4244,1784.2722],[-63.9982,-18.4184,1763.6556],[-64.017,-18.414,1702.4207],[-64.0267,-18.4035,1665.8273],[-64.0297,-18.4021,1675.1425],[-64.0322,-18.3948,1664.9176],[-64.0312,-18.3913,1642.8306],[-64.0327,-18.3907,1637.0227],[-64.034,-18.3863,1647.3279],[-64.0332,-18.3827,1657.2509],[-64.036,-18.3817,1637.7067],[-64.0367,-18.379,1660.1805],[-64.0391,-18.3788,1645.3225],[-64.0387,-18.375,1614.4645],[-64.0427,-18.3723,1612.7898],[-64.0439,-18.3695,1676.8721],[-64.0469,-18.3706,1695.2422],[-64.0454,-18.3684,1620.5139],[-64.0461,-18.3668,1599.3629],[-64.0428,-18.3647,1594.7278],[-64.0452,-18.3631,1577.6172],[-64.0421,-18.3578,1621.1578],[-64.046,-18.3576,1579.8125],[-64.0449,-18.3556,1623.1836],[-64.0477,-18.3564,1600.3723],[-64.0439,-18.3518,1637.3031],[-64.0453,-18.3499,1590.1377],[-64.0484,-18.3509,1593.9969],[-64.0492,-18.3488,1602.911],[-64.0462,-18.3452,1566.7649],[-64.0518,-18.3417,1552.2527],[-64.0482,-18.3383,1550.9269],[-64.0526,-18.3332,1564.2637],[-64.0506,-18.3313,1534.4038],[-64.0509,-18.328,1530.6431],[-64.0541,-18.3258,1535.3965],[-64.0538,-18.323,1529.4269],[-64.0504,-18.3213,1529.2766],[-64.0504,-18.3192,1521.2653],[-64.0538,-18.3146,1517.8359],[-64.0539,-18.3106,1558.8136],[-64.0557,-18.3084,1524.9382],[-64.0554,-18.297,1499.1442],[-64.0581,-18.2956,1492.6895],[-64.055,-18.2935,1486.7501],[-64.0538,-18.2894,1500.495],[-64.0547,-18.2791,1502.856],[-64.0502,-18.2746,1482.4171],[-64.0526,-18.2531,1454.9299],[-64.0583,-18.2487,1436.218],[-64.0579,-18.2426,1426.7661],[-64.0598,-18.24,1425.3611],[-64.0575,-18.2343,1421.6748],[-64.0597,-18.232,1416.7572],[-64.0578,-18.2286,1414.3923],[-64.0621,-18.2253,1408.6111],[-64.0658,-18.2189,1401.7881],[-64.0701,-18.2174,1397.7847],[-64.0742,-18.2118,1391.5525],[-64.0758,-18.1965,1377.2911],[-64.0831,-18.1858,1365.9382],[-64.0836,-18.1798,1367.2568],[-64.0886,-18.1747,1363.1829],[-64.0908,-18.1662,1370.6543],[-64.0935,-18.1657,1353.381],[-64.0997,-18.1772,1425.9838],[-64.1098,-18.1748,1419.4286],[-64.1124,-18.1763,1448.1245],[-64.1225,-18.1757,1530.0588],[-64.1284,-18.1776,1526.4224],[-64.144,-18.1732,1593.5347],[-64.1664,-18.1785,1699.519],[-64.1848,-18.1915,1482.2504],[-64.1885,-18.1892,1476.4722],[-64.1933,-18.1925,1507.0956],[-64.2198,-18.1923,2284.3811],[-64.2493,-18.1812,1718.7357],[-64.2859,-18.1745,1678.0018],[-64.2905,-18.1673,1640.2969],[-64.2894,-18.1659,1639.979],[-64.2928,-18.163,1656.6909],[-64.3108,-18.1625,1788.5094],[-64.3142,-18.1597,1862.6587],[-64.329,-18.1749,2170.6255],[-64.3659,-18.202,2058.9829],[-64.3726,-18.2014,2138.6562],[-64.3929,-18.1931,1689.0327],[-64.3955,-18.1892,1650.1475],[-64.4021,-18.1867,1548.0941],[-64.4116,-18.1866,1455.799],[-64.4155,-18.1891,1418.0813],[-64.4153,-18.1928,1411.8019],[-64.418,-18.1922,1416.1166],[-64.4203,-18.1959,1410.4578],[-64.4174,-18.1971,1409.1561],[-64.415,-18.1954,1405.3259],[-64.4145,-18.2015,1430.9243],[-64.4161,-18.2026,1407.0544],[-64.4126,-18.2035,1398.3434],[-64.4143,-18.2069,1398.3513],[-64.4138,-18.2096,1393.2496],[-64.4114,-18.2092,1419.2814],[-64.4102,-18.211,1401.6759],[-64.4105,-18.2136,1385.5486],[-64.4145,-18.2147,1383.4019],[-64.4153,-18.2196,1392.6652],[-64.418,-18.2163,1371.3652],[-64.4257,-18.2231,1388.5779],[-64.4302,-18.2218,1362.9077],[-64.4405,-18.2229,1356.9788],[-64.4522,-18.2212,1360.2847],[-64.4547,-18.2228,1327.615],[-64.4549,-18.2191,1373.8872],[-64.4606,-18.219,1340.285],[-64.4642,-18.2241,1313.3459],[-64.4645,-18.2274,1318.6183],[-64.4694,-18.2258,1305.0177],[-64.4683,-18.2286,1300.7834],[-64.4712,-18.2315,1310.6891],[-64.4697,-18.2334,1314.4586],[-64.474,-18.2343,1318.5513],[-64.4807,-18.2331,1303.7252],[-64.4852,-18.2348,1305.2886],[-64.4862,-18.232,1287.9047],[-64.4872,-18.2352,1294.4233],[-64.4943,-18.2328,1307.705],[-64.4942,-18.2345,1272.9379],[-64.4921,-18.2347,1328.5662],[-64.4943,-18.2371,1272.0184],[-64.4904,-18.2404,1317.6964],[-64.4888,-18.2555,1286.1594],[-64.4848,-18.261,1282.4806],[-64.4816,-18.2612,1299.1467],[-64.4862,-18.2695,1264.2035],[-64.4888,-18.2696,1292.135],[-64.4892,-18.2724,1267.8284],[-64.4826,-18.272,1274.8521],[-64.4805,-18.2792,1264.7783],[-64.4835,-18.2841,1261.7443],[-64.4833,-18.2871,1275.6786],[-64.4857,-18.2922,1272.0424],[-64.4849,-18.2944,1282.6104],[-64.4729,-18.2955,1290.125],[-64.4732,-18.3008,1257.2538],[-64.4714,-18.3042,1246.9243],[-64.4638,-18.3052,1306.136],[-64.467,-18.3101,1272.0431],[-64.4712,-18.3117,1244.9346],[-64.4633,-18.3236,1238.8551],[-64.4615,-18.3239,1256.3552],[-64.4626,-18.321,1256.8416],[-64.461,-18.3195,1303.907],[-64.459,-18.3245,1238.0674],[-64.4526,-18.3231,1234.9769],[-64.4515,-18.3273,1233.2695],[-64.4452,-18.3254,1274.9447],[-64.445,-18.3276,1229.8744],[-64.4392,-18.3291,1250.5264],[-64.4337,-18.3363,1231.2366],[-64.4414,-18.3533,1225.8656],[-64.4454,-18.3559,1220.9817],[-64.4443,-18.3578,1224.0931],[-64.44,-18.3589,1245.3773],[-64.44,-18.3647,1240.5913],[-64.4453,-18.3663,1214.6783],[-64.4484,-18.3735,1213.3914],[-64.4461,-18.3747,1239.0725],[-64.4402,-18.3689,1257.2056],[-64.4362,-18.3722,1206.4441],[-64.4317,-18.373,1214.0269],[-64.4301,-18.3755,1223.9373],[-64.4293,-18.38,1204.4036],[-64.4311,-18.3852,1200.3911],[-64.4293,-18.3922,1203.0039],[-64.4343,-18.4003,1178.9114],[-64.4329,-18.4038,1180.1979],[-64.4296,-18.4053,1201.0516],[-64.4274,-18.4089,1176.2098],[-64.4276,-18.4181,1194.6235],[-64.4214,-18.4233,1183.27],[-64.419,-18.4298,1174.3942],[-64.4166,-18.4306,1232.5071],[-64.4174,-18.4332,1171.7024],[-64.4115,-18.4379,1191.9899],[-64.4105,-18.4427,1158.0715],[-64.4061,-18.4451,1248.3108],[-64.4054,-18.4484,1162.6985],[-64.4018,-18.451,1141.3729],[-64.392,-18.45,1126.6541],[-64.3821,-18.4533,1118.9918],[-64.3811,-18.4572,1117.0586],[-64.3731,-18.4602,1132.1189],[-64.3702,-18.4634,1098.5101],[-64.3642,-18.4641,1104.3434],[-64.3622,-18.4696,1127.6011],[-64.3577,-18.4681,1086.9718],[-64.3499,-18.4747,1092.1597],[-64.344,-18.4741,1076.3394],[-64.3355,-18.476,1156.8921],[-64.3338,-18.4783,1098.4479],[-64.3354,-18.4847,1069.8562],[-64.3281,-18.489,1057.6975],[-64.3251,-18.4974,1050.7209],[-64.3227,-18.4988,1050.0553],[-64.3177,-18.4948,1045.3109],[-64.3102,-18.4972,1040.949],[-64.3072,-18.4946,1051.6565],[-64.3056,-18.4957,1051.6565],[-64.3028,-18.5005,1047.9985],[-64.306,-18.5046,1039.4834],[-64.3042,-18.5099,1030.3865],[-64.3043,-18.5183,1039.9498],[-64.3,-18.5181,1026.4668],[-64.2981,-18.52,1036.9336],[-64.3005,-18.5332,1018.6011],[-64.2917,-18.5337,1018.6748],[-64.2884,-18.5378,1029.6433],[-64.2882,-18.5403,1029.8313],[-64.2908,-18.544,1015.1746],[-64.2848,-18.5546,1030.9359],[-64.2876,-18.5559,1007.0717],[-64.2914,-18.5514,1035.577],[-64.2938,-18.5557,1004.2201],[-64.2981,-18.557,1002.0903],[-64.2986,-18.5585,998.9772],[-64.2963,-18.5599,1008.4806],[-64.2929,-18.5596,1011.8854],[-64.2967,-18.5655,997.5604],[-64.2888,-18.5694,996.785],[-64.2868,-18.5778,995.4863],[-64.2876,-18.5806,986.4846],[-64.2923,-18.5845,1023.183],[-64.291,-18.5875,985.6127],[-64.2858,-18.5895,1016.7239],[-64.2844,-18.5946,992.4655],[-64.2804,-18.596,980.1498],[-64.2809,-18.5999,971.345],[-64.2877,-18.606,968.5108],[-64.289,-18.6132,966.2346],[-64.2909,-18.6158,963.1179],[-64.2932,-18.6155,1005.2656],[-64.2936,-18.6125,957.8483],[-64.2958,-18.6114,963.41],[-64.2982,-18.616,962.6479],[-64.3036,-18.6158,993.1107],[-64.3052,-18.6182,951.7363],[-64.3055,-18.6237,977.425],[-64.3097,-18.6236,945.3784],[-64.3149,-18.6262,944.7059],[-64.3166,-18.6306,941.7061],[-64.3143,-18.6348,938.8729],[-64.3149,-18.6379,937.7981],[-64.3112,-18.6417,935.9734],[-64.31,-18.6458,934.7657],[-64.3134,-18.6464,949.184],[-64.3179,-18.6424,979.9668],[-64.3198,-18.6509,930.3167],[-64.3191,-18.6543,927.929],[-64.3247,-18.6573,943.3316],[-64.3247,-18.6599,982.773],[-64.3292,-18.6655,922.016],[-64.3246,-18.6697,956.7964],[-64.3146,-18.6678,919.74],[-64.3109,-18.6705,917.3411],[-64.3129,-18.6773,913.8479],[-64.3102,-18.6862,912.211],[-64.3096,-18.7018,908.0388],[-64.3123,-18.7153,901.5186],[-64.3198,-18.7267,898.6777],[-64.3175,-18.7387,913.5082],[-64.3094,-18.7498,890.4246],[-64.3175,-18.7553,888.9312],[-64.3171,-18.7591,890.8136],[-64.314,-18.7615,885.8945],[-64.3031,-18.7637,882.8973],[-64.2978,-18.7665,881.0473],[-64.2924,-18.7787,875.9163],[-64.2868,-18.7857,874.202],[-64.2828,-18.8126,865.1161],[-64.2903,-18.8202,861.5865],[-64.2888,-18.8249,859.3071],[-64.2844,-18.8276,858.5375],[-64.2773,-18.8366,862.9189],[-64.2676,-18.8382,852.2082],[-64.2641,-18.8359,892.0958],[-64.2583,-18.8374,866.9422],[-64.2476,-18.8456,866.5462],[-64.2388,-18.86,862.2639],[-64.2331,-18.8589,850.1959],[-64.2288,-18.8652,842.5996],[-64.2242,-18.8685,838.519],[-64.2227,-18.8741,838.0718],[-64.2234,-18.8784,871.4568],[-64.2168,-18.8796,833.2812],[-64.2132,-18.8824,831.3585],[-64.2137,-18.8928,847.1416],[-64.2124,-18.896,837.3959],[-64.2061,-18.9003,825.338],[-64.2,-18.9081,829.6857],[-64.2001,-18.9129,823.9615],[-64.2023,-18.9166,826.0331],[-64.1971,-18.9238,819.4868],[-64.1965,-18.9272,821.4688],[-64.2016,-18.9371,818.2997],[-64.1999,-18.9395,817.3599],[-64.197,-18.9378,825.0233],[-64.1955,-18.9385,865.0177],[-64.1939,-18.9435,841.5961],[-64.1959,-18.9482,815.6299],[-64.1921,-18.9515,809.7936],[-64.1876,-18.952,820.7981],[-64.1846,-18.9612,817.8719],[-64.1759,-18.9579,824.4417],[-64.1719,-18.9664,802.7937],[-64.164,-18.9694,800.326],[-64.1595,-18.9688,798.6931],[-64.1579,-18.9671,804.3244],[-64.1528,-18.9696,827.948],[-64.1453,-18.9669,798.4102],[-64.1406,-18.9689,802.2987],[-64.1304,-18.9643,873.2527],[-64.1226,-18.9685,790.6975],[-64.1197,-18.9722,790.3201],[-64.1111,-18.9707,789.3016],[-64.1063,-18.9735,786.6783],[-64.1033,-18.9734,818.3657],[-64.1012,-18.9764,798.1134],[-64.1002,-18.9862,800.5634],[-64.098,-18.9902,780.9078],[-64.0895,-18.9921,779.9993],[-64.0915,-18.9952,842.0168],[-64.0897,-19.001,797.375],[-64.082,-18.9959,796.7668],[-64.0785,-19.0014,789.6981],[-64.0685,-19.0053,801.7204],[-64.0631,-19.0168,770.7101],[-64.0655,-19.0266,782.6465],[-64.0577,-19.0303,743.9939],[-64.053,-19.0378,767.7922],[-64.0535,-19.0399,787.8635],[-64.058,-19.0421,743.1849],[-64.0551,-19.0463,740.4531],[-64.058,-19.0492,743.9236],[-64.0523,-19.0519,795.2566],[-64.0461,-19.058,823.2126],[-64.0496,-19.0653,719.7874],[-64.0418,-19.0791,750.3517],[-64.0443,-19.0837,711.3187],[-64.0425,-19.0879,710.9125],[-64.0453,-19.0932,722.7323],[-64.0452,-19.0974,714.8392],[-64.0434,-19.0992,704.1506],[-64.0401,-19.0982,706.9529],[-64.0362,-19.0997,713.5275],[-64.0355,-19.1009,810.9178],[-64.0412,-19.1057,705.9675],[-64.0319,-19.1128,693.3182],[-64.0373,-19.1165,711.8898],[-64.0439,-19.1176,689.0538],[-64.0412,-19.1209,694.3044],[-64.0422,-19.1283,706.9236],[-64.0394,-19.1311,688.82],[-64.0323,-19.1321,685.3054],[-64.0298,-19.1487,689.9542],[-64.0281,-19.1503,676.6829],[-64.0238,-19.1502,677.1206],[-64.0218,-19.1533,673.7473],[-64.0228,-19.1544,673.7473]]]]}}