{"type": "Feature","bbox": [-68.3598,-17.11,-68.1386,-16.8394],"geometry": {"type": "MultiPolygon","coordinates": [[[[-68.1386,-17.0307,3930.6106],[-68.1441,-17.0283,3936.1152],[-68.1472,-17.0243,3936.4209],[-68.1638,-17.0223,3954.3472],[-68.1829,-17.0064,3964.9795],[-68.187,-16.9928,3983.0522],[-68.1862,-16.9833,3983.002],[-68.1893,-16.9823,3986.4966],[-68.194,-16.9763,3997.9993],[-68.2036,-16.9505,3990.6802],[-68.2022,-16.9345,3950.7954],[-68.1822,-16.9219,3920.3315],[-68.1838,-16.9186,3916.3503],[-68.1882,-16.9199,3925.032],[-68.1979,-16.9042,3906.905],[-68.1973,-16.8998,3905.1418],[-68.2035,-16.8878,3894.085],[-68.1923,-16.8765,3905.7812],[-68.1896,-16.8697,3917.373],[-68.1912,-16.8601,3963.4304],[-68.1896,-16.8524,3922.448],[-68.1936,-16.8432,3926.1787],[-68.1932,-16.8394,3925.4739],[-68.2075,-16.8399,3900.7888],[-68.234,-16.8582,3877.897],[-68.2499,-16.8866,3881.6289],[-68.2646,-16.9085,3924.6648],[-68.2784,-16.924,3980.5835],[-68.3064,-16.9483,4268.3721],[-68.3421,-16.9671,4426.2715],[-68.3598,-16.9735,4246.0996],[-68.3581,-16.9842,4169.2236],[-68.3548,-16.9924,4149.3521],[-68.3479,-17.0312,4291.9702],[-68.3495,-17.0333,4258.3228],[-68.3466,-17.0404,4302.2339],[-68.3449,-17.0548,4378.4067],[-68.3394,-17.0655,4332.0557],[-68.323,-17.0748,4577.5713],[-68.3209,-17.0842,4464.8848],[-68.3139,-17.092,4336.5303],[-68.3118,-17.0921,4292.1406],[-68.3055,-17.1052,4291.0918],[-68.2986,-17.11,4344.6997],[-68.2528,-17.0889,4353.9072],[-68.2523,-17.0871,4328.6289],[-68.2317,-17.0725,4125.4141],[-68.2276,-17.0677,4082.3928],[-68.2262,-17.0632,4064.0662],[-68.2229,-17.0613,4055.9778],[-68.2131,-17.062,4038.563],[-68.1943,-17.0584,4004.6677],[-68.1848,-17.0592,3991.301],[-68.1709,-17.0512,3970.3364],[-68.1548,-17.0452,3951.0217],[-68.151,-17.0425,3946.1909],[-68.1478,-17.0361,3944.98],[-68.1386,-17.0307,3930.6106]]]]}
,"properties": {"GID_3": "BOL.4.3.4_2","GID_0": "BOL","country": "Bolivia","GID_1": "BOL.4_1","province": "LaPaz","NL_NAME_1": "NA","GID_2": "BOL.4.3_2","county": "Aroma","NL_NAME_2": "NA","city": "Colquencha","VARNAME_3": "NA","NL_NAME_3": "NA","TYPE_3": "District","ENGTYPE_3": "Distrito","CC_3": "NA","HASC_3": "NA","name": "Colquencha.city","area_km2": 341.945,"hist_schema_id": "Elevation0-9000","hist_area_km2": {"3875": 10.8346,"3900": 24.934,"3925": 15.2345,"3950": 14.5809,"3975": 15.795,"4000": 17.1737,"4025": 15.6534,"4050": 11.1728,"4075": 11.0711,"4100": 9.2052,"4125": 7.7452,"4150": 7.2382,"4175": 8.6981,"4200": 8.4344,"4225": 9.5292,"4250": 10.34,"4275": 14.1508,"4300": 14.6171,"4325": 14.7995,"4350": 14.4751,"4375": 14.3737,"4400": 12.0018,"4425": 11.1504,"4450": 10.826,"4475": 7.6023,"4500": 5.8993,"4525": 5.271,"4550": 5.1494,"4575": 4.6831,"4600": 3.1423,"4625": 2.453,"4650": 1.4799,"4675": 0.9528,"4700": 0.6487,"4725": 0.3041,"4750": 0.2027,"4775": 0.1216}}}