{"type": "Feature","bbox": [-64.3258,-18.455,-63.5093,-17.7475],"geometry": {"type": "MultiPolygon","coordinates": [[[[-63.9981,-17.8305,1048.0825],[-64.0003,-17.8286,949.2864],[-64.0019,-17.8214,944.9312],[-64.0066,-17.8219,938.5088],[-64.0057,-17.8165,947.9103],[-64.0085,-17.8152,956.1813],[-64.0107,-17.8174,948.2698],[-64.0134,-17.813,934.4312],[-64.0165,-17.8142,930.5936],[-64.0168,-17.8092,1001.7292],[-64.0195,-17.8107,981.9838],[-64.0242,-17.8023,930.4182],[-64.029,-17.8007,915.0972],[-64.0269,-17.7965,904.4447],[-64.0224,-17.797,912.3596],[-64.0248,-17.7918,898.3519],[-64.0254,-17.7841,892.2908],[-64.0241,-17.7824,882.5291],[-64.0276,-17.7797,901.9435],[-64.0331,-17.7793,876.7692],[-64.0348,-17.7763,860.833],[-64.0366,-17.7762,876.0433],[-64.0385,-17.7706,866.2689],[-64.0435,-17.7689,859.9313],[-64.0428,-17.7653,855.2095],[-64.0481,-17.7622,854.9039],[-64.0518,-17.7573,839.477],[-64.0497,-17.7555,840.018],[-64.0529,-17.7513,833.8542],[-64.0554,-17.7518,855.5668],[-64.0545,-17.7536,850.6885],[-64.0596,-17.7526,874.1664],[-64.0592,-17.755,887.1464],[-64.0643,-17.7558,880.8436],[-64.0677,-17.7552,891.1095],[-64.0708,-17.7524,974.8199],[-64.0728,-17.7541,919.8547],[-64.0733,-17.7522,931.7485],[-64.078,-17.7519,941.694],[-64.0783,-17.7494,982.0481],[-64.0809,-17.7501,956.4478],[-64.0835,-17.7488,995.2434],[-64.0892,-17.7521,1016.1837],[-64.093,-17.7486,1039.3973],[-64.0946,-17.7498,1078.6855],[-64.0986,-17.749,1066.9419],[-64.106,-17.7598,1252.2964],[-64.1135,-17.7653,1396.236],[-64.1142,-17.7712,1468.3069],[-64.1225,-17.7733,1705.6624],[-64.1335,-17.7713,1937.298],[-64.1457,-17.765,2169.2932],[-64.1472,-17.7674,2124.4504],[-64.1439,-17.7739,1950.6771],[-64.1431,-17.7804,1813.9307],[-64.1463,-17.7875,1636.1489],[-64.1532,-17.7921,1487.6425],[-64.1587,-17.7848,1655.7634],[-64.1651,-17.7826,1765.2089],[-64.1672,-17.7777,1741.3644],[-64.1751,-17.777,1689.2808],[-64.1814,-17.768,1619.0288],[-64.1816,-17.7636,1605.0996],[-64.1844,-17.7635,1547.9192],[-64.194,-17.7527,1498.4839],[-64.1979,-17.7574,1418.2609],[-64.204,-17.7544,1403.5906],[-64.2066,-17.7487,1378.4404],[-64.2093,-17.7491,1332.4545],[-64.2118,-17.7475,1340.4122],[-64.2187,-17.7495,1359.8779],[-64.2195,-17.7542,1367.8823],[-64.2312,-17.7704,1564.5779],[-64.2309,-17.781,1743.2483],[-64.2401,-17.7952,2078.1243],[-64.2424,-17.8043,2068.5696],[-64.2479,-17.8112,2351.3867],[-64.2496,-17.8214,2060.2144],[-64.2532,-17.8297,1800.1653],[-64.2536,-17.837,1685.2522],[-64.252,-17.839,1661.5005],[-64.2401,-17.8422,1642.0973],[-64.2383,-17.844,1643.8027],[-64.2398,-17.8476,1599.8052],[-64.2464,-17.853,1577.1538],[-64.2464,-17.8572,1569.9812],[-64.2447,-17.86,1573.8898],[-64.2457,-17.8636,1555.9227],[-64.2478,-17.8641,1556.6804],[-64.2544,-17.872,1548.968],[-64.2533,-17.8756,1542.6488],[-64.2494,-17.8764,1527.0342],[-64.2419,-17.887,1508.0067],[-64.2474,-17.896,1605.4727],[-64.2512,-17.8983,1614.6124],[-64.2545,-17.9034,1671.3098],[-64.2543,-17.9087,1770.9968],[-64.2573,-17.9193,2012.5751],[-64.2555,-17.923,1949.9075],[-64.2568,-17.9279,1904.4999],[-64.2536,-17.9334,1745.835],[-64.2507,-17.9354,1722.8601],[-64.2486,-17.945,1668.1599],[-64.2412,-17.9576,1584.2668],[-64.2428,-17.9703,1550.6344],[-64.2416,-17.9739,1545.453],[-64.2447,-17.9765,1543.6648],[-64.2459,-17.9841,1538.2797],[-64.2508,-17.9902,1500.804],[-64.2544,-17.9912,1543.6711],[-64.2571,-17.9953,1490.345],[-64.2599,-17.9965,1492.3605],[-64.2614,-18.0031,1471.2133],[-64.2608,-18.0066,1464.3486],[-64.2576,-18.0084,1459.5343],[-64.2587,-18.0107,1468.4064],[-64.2568,-18.0113,1466.4703],[-64.2547,-18.0155,1461.606],[-64.256,-18.0218,1458.4327],[-64.2538,-18.0212,1456.676],[-64.2526,-18.0231,1448.6189],[-64.2547,-18.0268,1448.8125],[-64.2536,-18.0279,1450.696],[-64.2741,-18.0203,1500.056],[-64.2767,-18.0207,1518.4945],[-64.28,-18.0238,1527.0741],[-64.283,-18.0238,1600.046],[-64.2757,-18.0476,1751.9539],[-64.2736,-18.0702,1814.095],[-64.2685,-18.0857,1718.0569],[-64.2747,-18.0914,1551.2917],[-64.2777,-18.0914,1525.1901],[-64.2808,-18.0981,1557.8445],[-64.2861,-18.1013,1568.6791],[-64.2909,-18.102,1570.7053],[-64.2998,-18.1104,1627.2672],[-64.3063,-18.1131,1724.8171],[-64.306,-18.1147,1695.6725],[-64.3147,-18.1148,1735.2843],[-64.3229,-18.1106,1772.2319],[-64.3251,-18.1125,1800.6833],[-64.3258,-18.12,1866.4683],[-64.3219,-18.1228,1930.7294],[-64.3242,-18.1344,1919.9489],[-64.3221,-18.1408,1953.603],[-64.3199,-18.1428,1987.2058],[-64.3237,-18.1512,2142.908],[-64.3187,-18.1581,2019.3889],[-64.3151,-18.1585,1844.939],[-64.3108,-18.1625,1788.5094],[-64.2928,-18.163,1656.6909],[-64.2894,-18.1659,1639.979],[-64.2905,-18.1673,1640.2969],[-64.2859,-18.1745,1678.0018],[-64.2493,-18.1812,1718.7357],[-64.2198,-18.1923,2284.3811],[-64.1933,-18.1925,1507.0956],[-64.1885,-18.1892,1476.4722],[-64.1848,-18.1915,1482.2504],[-64.1664,-18.1785,1699.519],[-64.144,-18.1732,1593.5347],[-64.1284,-18.1776,1526.4224],[-64.1225,-18.1757,1530.0588],[-64.1124,-18.1763,1448.1245],[-64.1098,-18.1748,1419.4286],[-64.0997,-18.1772,1425.9838],[-64.0935,-18.1657,1353.381],[-64.0908,-18.1662,1370.6543],[-64.0886,-18.1747,1363.1829],[-64.0836,-18.1798,1367.2568],[-64.0831,-18.1858,1365.9382],[-64.0758,-18.1965,1377.2911],[-64.0742,-18.2118,1391.5525],[-64.0701,-18.2174,1397.7847],[-64.0658,-18.2189,1401.7881],[-64.0621,-18.2253,1408.6111],[-64.0578,-18.2286,1414.3923],[-64.0597,-18.232,1416.7572],[-64.0575,-18.2343,1421.6748],[-64.0598,-18.24,1425.3611],[-64.0579,-18.2426,1426.7661],[-64.0583,-18.2487,1436.218],[-64.0526,-18.2531,1454.9299],[-64.0502,-18.2746,1482.4171],[-64.0547,-18.2791,1502.856],[-64.0538,-18.2894,1500.495],[-64.055,-18.2935,1486.7501],[-64.0581,-18.2956,1492.6895],[-64.0554,-18.297,1499.1442],[-64.0557,-18.3084,1524.9382],[-64.0539,-18.3106,1558.8136],[-64.0538,-18.3146,1517.8359],[-64.0504,-18.3192,1521.2653],[-64.0504,-18.3213,1529.2766],[-64.0538,-18.323,1529.4269],[-64.0541,-18.3258,1535.3965],[-64.0509,-18.328,1530.6431],[-64.0506,-18.3313,1534.4038],[-64.0526,-18.3332,1564.2637],[-64.0482,-18.3383,1550.9269],[-64.0518,-18.3417,1552.2527],[-64.0462,-18.3452,1566.7649],[-64.0492,-18.3488,1602.911],[-64.0484,-18.3509,1593.9969],[-64.0453,-18.3499,1590.1377],[-64.0439,-18.3518,1637.3031],[-64.0477,-18.3564,1600.3723],[-64.0449,-18.3556,1623.1836],[-64.046,-18.3576,1579.8125],[-64.0421,-18.3578,1621.1578],[-64.0452,-18.3631,1577.6172],[-64.0428,-18.3647,1594.7278],[-64.0461,-18.3668,1599.3629],[-64.0454,-18.3684,1620.5139],[-64.0469,-18.3706,1695.2422],[-64.0439,-18.3695,1676.8721],[-64.0427,-18.3723,1612.7898],[-64.0387,-18.375,1614.4645],[-64.0391,-18.3788,1645.3225],[-64.0367,-18.379,1660.1805],[-64.036,-18.3817,1637.7067],[-64.0332,-18.3827,1657.2509],[-64.034,-18.3863,1647.3279],[-64.0327,-18.3907,1637.0227],[-64.0312,-18.3913,1642.8306],[-64.0322,-18.3948,1664.9176],[-64.0297,-18.4021,1675.1425],[-64.0267,-18.4035,1665.8273],[-64.017,-18.414,1702.4207],[-63.9982,-18.4184,1763.6556],[-63.9932,-18.4244,1784.2722],[-63.9914,-18.43,1828.7583],[-63.9888,-18.4315,1841.6785],[-63.9913,-18.4361,1865.3485],[-63.9905,-18.4381,1907.6456],[-63.9817,-18.4392,1981.4521],[-63.969,-18.4371,2140.7776],[-63.9613,-18.443,2563.1621],[-63.9549,-18.4438,2425.0557],[-63.9405,-18.4376,2338.5664],[-63.9339,-18.4305,2064.1716],[-63.9196,-18.4232,1712.9639],[-63.9142,-18.4282,1762.0098],[-63.913,-18.4318,1749.7709],[-63.9142,-18.4327,1749.7709],[-63.9114,-18.4332,1779.3212],[-63.9093,-18.4371,1854.8458],[-63.9038,-18.438,2047.0911],[-63.8899,-18.4459,2404.5906],[-63.8876,-18.4437,2477.6011],[-63.8787,-18.4412,2301.2388],[-63.8726,-18.445,2212.8125],[-63.8656,-18.4454,2102.0144],[-63.8631,-18.4424,2117.8027],[-63.855,-18.4426,2029.825],[-63.8504,-18.4397,2000.058],[-63.8386,-18.4439,1980.7778],[-63.834,-18.4486,1899.8643],[-63.8311,-18.4481,1880.5444],[-63.8292,-18.4447,1879.4678],[-63.8264,-18.4454,1875.4227],[-63.8197,-18.455,1860.9939],[-63.8191,-18.4481,1886.6071],[-63.8045,-18.4478,2273.7832],[-63.8008,-18.4413,2474.9993],[-63.7466,-18.4358,1661.4565],[-63.744,-18.4342,1575.8763],[-63.735,-18.4198,1356.9321],[-63.7097,-18.411,1291.4336],[-63.7075,-18.4097,1268.8756],[-63.7072,-18.4067,1310.0696],[-63.7045,-18.4067,1288.3251],[-63.7054,-18.4041,1327.0909],[-63.7037,-18.4047,1308.3341],[-63.7002,-18.4019,1209.7507],[-63.6941,-18.4044,1330.1565],[-63.6847,-18.4164,1290.5281],[-63.6793,-18.4188,1259.0667],[-63.6771,-18.4167,1311.943],[-63.6722,-18.4161,1290.9888],[-63.6693,-18.4132,1468.6838],[-63.6574,-18.4131,1718.6115],[-63.6464,-18.4075,1907.8628],[-63.6372,-18.4068,1669.4668],[-63.6261,-18.3995,1215.6876],[-63.6233,-18.3896,1168.358],[-63.6134,-18.3815,1442.3511],[-63.6155,-18.3765,1432.4808],[-63.6132,-18.3737,1446.8341],[-63.6151,-18.3694,1424.24],[-63.6143,-18.3656,1428.0068],[-63.5974,-18.3653,1532.2526],[-63.5937,-18.3631,1567.8694],[-63.5792,-18.3604,1712.3875],[-63.5665,-18.3613,1748.7219],[-63.5612,-18.3568,1819.9717],[-63.554,-18.3555,1562.7991],[-63.5476,-18.3515,1555.8945],[-63.5377,-18.3528,1264.9714],[-63.5337,-18.3547,1440.3049],[-63.5313,-18.3587,1509.2626],[-63.518,-18.3609,1559.5815],[-63.512,-18.3501,1497.6478],[-63.5093,-18.3402,1653.063],[-63.5132,-18.3304,1662.1567],[-63.5145,-18.3155,1733.6138],[-63.5178,-18.3141,1688.9021],[-63.5187,-18.3079,1672.5342],[-63.5167,-18.2981,1788.9424],[-63.5133,-18.2932,1852.1239],[-63.5156,-18.2848,1731.0327],[-63.5141,-18.28,1710.8351],[-63.5307,-18.2482,1648.983],[-63.5365,-18.2143,1484.2085],[-63.5367,-18.2017,1384.9196],[-63.5216,-18.1811,1004.6625],[-63.5483,-18.1579,1370.0452],[-63.5551,-18.1392,1528.9124],[-63.5623,-18.1383,1682.5037],[-63.5695,-18.1237,1519.2834],[-63.5682,-18.1129,1470.9425],[-63.5716,-18.109,1418.7491],[-63.5736,-18.0998,1351.9504],[-63.5722,-18.0907,1435.255],[-63.5744,-18.0831,1468.577],[-63.5739,-18.0779,1586.5564],[-63.5788,-18.0659,1433.6243],[-63.5842,-18.0383,1354.1718],[-63.5966,-18.032,1440.1526],[-63.6168,-18.0162,1418.6547],[-63.6354,-18.0147,1740.3223],[-63.6444,-18.016,1736.7557],[-63.65,-18.009,1757.0061],[-63.6536,-18.0079,1754.8875],[-63.6619,-18.0075,1711.1445],[-63.6661,-18.0107,1662.4744],[-63.6699,-18.0105,1752.7786],[-63.6753,-18.0073,1754.4324],[-63.6863,-18.0068,1497.4435],[-63.692,-18.011,1481.927],[-63.6994,-18.0082,1320.9263],[-63.7007,-18.0063,1245.3789],[-63.7062,-18.0084,1027.5237],[-63.7119,-18.0134,1047.3988],[-63.7194,-18.0134,1008.9374],[-63.7192,-18.0159,1011.7387],[-63.7241,-18.0182,1026.1265],[-63.7266,-18.0169,1032.6989],[-63.7247,-18.0194,1026.1265],[-63.7265,-18.0234,1054.9403],[-63.7373,-18.0196,1080.4999],[-63.7411,-18.0201,1063.0746],[-63.7433,-18.0223,1068.3929],[-63.7459,-18.0208,1178.7285],[-63.7469,-18.0227,1065.7948],[-63.7509,-18.0239,1086.1169],[-63.7548,-18.0221,1096.9778],[-63.7566,-18.0181,1123.3259],[-63.7615,-18.0146,1142.4695],[-63.7664,-18.0145,1208.4537],[-63.7695,-18.0068,1298.1694],[-63.7681,-17.9991,1504.2159],[-63.7712,-17.9968,1355.0541],[-63.7763,-17.9874,1172.2117],[-63.7711,-17.9811,1119.5527],[-63.7715,-17.9744,1076.4856],[-63.7694,-17.9682,1046.5769],[-63.7666,-17.967,1032.1949],[-63.7656,-17.9642,1030.4827],[-63.7614,-17.9653,982.6598],[-63.7592,-17.9581,934.9867],[-63.7576,-17.9571,922.908],[-63.7642,-17.9521,916.2931],[-63.7648,-17.9471,859.1932],[-63.7629,-17.9421,846.359],[-63.7653,-17.9428,830.805],[-63.7709,-17.9329,845.8928],[-63.7723,-17.9336,802.9596],[-63.7819,-17.9264,774.3673],[-63.7792,-17.9249,789.6194],[-63.7814,-17.9227,771.2144],[-63.7803,-17.9205,827.8546],[-63.7818,-17.92,772.3015],[-63.782,-17.9174,767.6359],[-63.7791,-17.9159,773.5803],[-63.7811,-17.9146,761.7385],[-63.7785,-17.9128,781.6769],[-63.7797,-17.9075,725.9556],[-63.778,-17.9049,726.2732],[-63.7743,-17.9058,756.1458],[-63.7749,-17.9033,750.9488],[-63.7704,-17.8995,821.207],[-63.7724,-17.8969,772.6066],[-63.7736,-17.8976,714.5308],[-63.7756,-17.8903,700.6952],[-63.7806,-17.8832,700.7261],[-63.7805,-17.8792,849.0778],[-63.7879,-17.8743,728.782],[-63.7925,-17.8608,700.0591],[-63.8017,-17.867,719.7262],[-63.8157,-17.8681,763.2266],[-63.8177,-17.87,782.5669],[-63.8176,-17.8729,818.4611],[-63.8244,-17.8766,785.4368],[-63.8221,-17.8793,797.965],[-63.8262,-17.8791,815.9858],[-63.8293,-17.8819,839.6132],[-63.834,-17.8815,835.2314],[-63.8405,-17.8836,866.8996],[-63.843,-17.8833,853.617],[-63.8438,-17.8816,947.393],[-63.8451,-17.8829,906.6766],[-63.8468,-17.8819,941.5657],[-63.8465,-17.8846,1004.4888],[-63.8562,-17.881,987.5676],[-63.8673,-17.8809,1067.1819],[-63.8734,-17.878,1110.0496],[-63.8761,-17.8808,1119.5476],[-63.8786,-17.8805,1147.2434],[-63.8813,-17.8838,1166.5991],[-63.8958,-17.8802,1527.6371],[-63.9199,-17.8832,1956.7258],[-63.923,-17.8814,2028.5305],[-63.93,-17.8708,2223.0652],[-63.933,-17.8611,2152.7981],[-63.9463,-17.86,2065.4836],[-63.9505,-17.856,2015.0356],[-63.9643,-17.8571,1960.988],[-63.9731,-17.852,1772.5188],[-63.9752,-17.8453,1570.4163],[-63.9981,-17.8305,1048.0825]]]]}
,"properties": {"GID_2": "BOL.8.5_2","GID_0": "BOL","country": "Bolivia","GID_1": "BOL.8_1","province": "SantaCruz","NL_NAME_1": "NA","county": "Florida","VARNAME_2": "NA","NL_NAME_2": "NA","TYPE_2": "Provincia","ENGTYPE_2": "Province","CC_2": "NA","HASC_2": "NA","name": "Florida.county","area_km2": 3976.653,"hist_schema_id": "Elevation0-9000","hist_area_km2": {"650": 0.322,"675": 0.867,"700": 0.988,"725": 1.612,"750": 2.782,"775": 2.903,"800": 4.355,"825": 4.98,"850": 6.915,"875": 7.781,"900": 9.313,"925": 10.844,"950": 15.339,"975": 17.817,"1000": 20.923,"1025": 25.759,"1050": 29.183,"1075": 35.852,"1100": 41.05,"1125": 45.744,"1150": 51.71,"1175": 55.88,"1200": 59.792,"1225": 66.201,"1250": 74.245,"1275": 84.642,"1300": 90.565,"1325": 98.329,"1350": 106.382,"1375": 118.11,"1400": 127.919,"1425": 126.288,"1450": 122.544,"1475": 129.194,"1500": 124.596,"1525": 127.797,"1550": 126.066,"1575": 125.559,"1600": 126.786,"1625": 123.424,"1650": 125.358,"1675": 122.937,"1700": 119.388,"1725": 115.602,"1750": 110.404,"1775": 104.824,"1800": 99.162,"1825": 91.967,"1850": 86.544,"1875": 82.313,"1900": 72.659,"1925": 66.613,"1950": 57.905,"1975": 50.449,"2000": 45.228,"2025": 41.984,"2050": 35.275,"2075": 31.447,"2100": 26.15,"2125": 23.45,"2150": 19.681,"2175": 15.854,"2200": 13.254,"2225": 11.299,"2250": 8.76,"2275": 7.833,"2300": 6.946,"2325": 5.716,"2350": 4.85,"2375": 4.186,"2400": 3.159,"2425": 2.515,"2450": 2.213,"2475": 1.81,"2500": 1.348,"2525": 1.549,"2550": 1.147,"2575": 0.925,"2600": 1.006,"2625": 0.724,"2650": 0.543,"2675": 0.221,"2700": 0.101}}}