{"type": "Feature","bbox": [-64.2321,-17.3879,-63.79,-16.2655],"geometry": {"type": "MultiPolygon","coordinates": [[[[-63.8173,-16.9927,236.7812],[-63.8189,-16.9921,238.2318],[-63.8189,-16.994,238.7869],[-63.8207,-16.9941,237.8919],[-63.8248,-16.9903,239.7848],[-63.8262,-16.9918,236.269],[-63.8276,-16.9878,237.7979],[-63.8314,-16.9887,238.3608],[-63.8331,-16.9872,236.8934],[-63.8346,-16.9886,237.8092],[-63.8349,-16.9858,238.98],[-63.8389,-16.9886,237.7275],[-63.8392,-16.9843,239.5222],[-63.8417,-16.9856,236.7483],[-63.8436,-16.9825,240.6154],[-63.845,-16.9839,236.5116],[-63.8491,-16.9802,237.7759],[-63.8509,-16.9811,237.1311],[-63.8521,-16.9795,241.6405],[-63.8526,-16.9808,237.1311],[-63.8554,-16.9764,239.0909],[-63.857,-16.9784,241.0054],[-63.861,-16.9762,240.3044],[-63.8616,-16.9803,241.1405],[-63.8675,-16.9804,239.8595],[-63.8661,-16.9763,242.1935],[-63.8697,-16.9771,239.109],[-63.8742,-16.9755,243.7155],[-63.8751,-16.9739,242.5068],[-63.8721,-16.9732,243.7438],[-63.872,-16.9717,242.8113],[-63.8776,-16.969,239.9072],[-63.8783,-16.967,242.5544],[-63.8815,-16.9684,243.0565],[-63.8807,-16.9712,240.7915],[-63.8842,-16.9726,238.8535],[-63.888,-16.9716,245.1306],[-63.8863,-16.9685,240.6135],[-63.8892,-16.9668,243.7841],[-63.8961,-16.9693,241.603],[-63.903,-16.9659,239.8883],[-63.9065,-16.9679,240.1808],[-63.9111,-16.9681,238.5322],[-63.9117,-16.9658,264.5008],[-63.9151,-16.9664,238.4337],[-63.9247,-16.9631,238.6316],[-63.9274,-16.9646,238.6733],[-63.9262,-16.9663,237.5641],[-63.9291,-16.9678,238.5264],[-63.9291,-16.9696,240.4932],[-63.932,-16.969,238.9952],[-63.9329,-16.9703,239.5629],[-63.9345,-16.9675,237.3681],[-63.9337,-16.9658,238.0316],[-63.9354,-16.9663,240.2586],[-63.9373,-16.9643,240.1304],[-63.9368,-16.9623,237.3752],[-63.9347,-16.9635,235.5241],[-63.9358,-16.9613,237.3752],[-63.9345,-16.9616,235.2371],[-63.9348,-16.9598,244.9296],[-63.9401,-16.9591,254.1584],[-63.9496,-16.9614,236.3002],[-63.9531,-16.9593,240.3911],[-63.954,-16.9572,238.6724],[-63.9523,-16.9561,238.7528],[-63.9548,-16.9562,234.3402],[-63.9547,-16.9543,237.4645],[-63.9531,-16.9547,238.7528],[-63.9546,-16.9499,234.24],[-63.9616,-16.9478,235.7441],[-63.9606,-16.9455,235.6401],[-63.9641,-16.9444,232.4199],[-63.9626,-16.9431,236.2175],[-63.9596,-16.9451,236.4485],[-63.9601,-16.9424,237.9547],[-63.9578,-16.9434,235.066],[-63.9569,-16.9415,235.0085],[-63.956,-16.9426,235.0085],[-63.955,-16.9401,239.01],[-63.9574,-16.9375,237.2622],[-63.9534,-16.9384,238.7104],[-63.9486,-16.9345,234.7788],[-63.9492,-16.9323,232.9112],[-63.9479,-16.9319,232.9112],[-63.9507,-16.9304,233.0058],[-63.9499,-16.9286,233.8917],[-63.9517,-16.9284,234.6691],[-63.9504,-16.9258,236.1188],[-63.9538,-16.9263,233.5317],[-63.9555,-16.9245,242.737],[-63.9588,-16.9241,233.803],[-63.9573,-16.9224,244.271],[-63.9585,-16.9207,234.8461],[-63.9565,-16.9207,238.0645],[-63.9598,-16.9196,238.6002],[-63.9592,-16.9175,237.2837],[-63.9563,-16.9167,234.7387],[-63.9576,-16.9156,236.0526],[-63.9562,-16.9148,236.0526],[-63.9534,-16.9174,236.0051],[-63.9534,-16.9154,234.2437],[-63.9499,-16.9142,234.4213],[-63.9551,-16.9133,233.6108],[-63.9545,-16.909,239.8549],[-63.9602,-16.9038,230.5733],[-63.9569,-16.9035,237.0804],[-63.957,-16.9015,231.7122],[-63.9534,-16.9008,236.4375],[-63.9561,-16.8985,233.8755],[-63.9562,-16.8956,236.1756],[-63.9596,-16.898,234.1764],[-63.9585,-16.8965,232.473],[-63.9593,-16.8938,231.4434],[-63.9568,-16.8934,239.6813],[-63.9634,-16.8912,234.3222],[-63.9624,-16.8895,235.0292],[-63.9643,-16.8852,231.9693],[-63.9622,-16.884,229.2933],[-63.9625,-16.8819,231.3746],[-63.9594,-16.8803,232.7437],[-63.9619,-16.8787,234.0066],[-63.9595,-16.878,235.0589],[-63.9599,-16.8764,234.8814],[-63.9542,-16.8775,228.0593],[-63.9529,-16.8754,231.6866],[-63.9543,-16.8715,231.669],[-63.9514,-16.8712,231.4209],[-63.9513,-16.8695,234.0794],[-63.9481,-16.8714,234.6659],[-63.9483,-16.8698,227.0999],[-63.9464,-16.8706,227.1683],[-63.9453,-16.8694,231.9156],[-63.9439,-16.8722,227.8968],[-63.9437,-16.8701,230.0205],[-63.9411,-16.8713,234.3897],[-63.9407,-16.8691,234.4554],[-63.9432,-16.8678,233.6938],[-63.9416,-16.8681,226.4824],[-63.9404,-16.8644,235.0501],[-63.9381,-16.8641,233.3865],[-63.937,-16.8618,230.2437],[-63.939,-16.8597,227.2107],[-63.941,-16.8603,228.8695],[-63.9421,-16.8573,228.193],[-63.9443,-16.8588,228.1456],[-63.9428,-16.8563,228.193],[-63.9448,-16.8556,227.7614],[-63.9435,-16.8542,228.59],[-63.9445,-16.8525,227.8199],[-63.9424,-16.8525,228.2345],[-63.9449,-16.8508,230.5655],[-63.9445,-16.8478,230.4449],[-63.9429,-16.8488,227.3116],[-63.9421,-16.8476,227.1394],[-63.9443,-16.8444,231.3275],[-63.9427,-16.8447,227.2113],[-63.9417,-16.8429,231.9127],[-63.9453,-16.842,228.5212],[-63.9461,-16.8432,231.2753],[-63.9465,-16.842,227.676],[-63.9434,-16.841,228.8065],[-63.9425,-16.8371,228.7761],[-63.9406,-16.8381,229.6781],[-63.9398,-16.8368,227.8336],[-63.9422,-16.8361,231.5169],[-63.9409,-16.8343,233.3288],[-63.9449,-16.8311,226.9351],[-63.9458,-16.8289,224.1744],[-63.9448,-16.8277,232.9257],[-63.9468,-16.8288,224.1744],[-63.9468,-16.8266,227.6828],[-63.9493,-16.8253,227.3964],[-63.9481,-16.8234,228.1319],[-63.9458,-16.825,226.8456],[-63.9461,-16.8218,222.7446],[-63.9448,-16.8215,229.7737],[-63.948,-16.8211,222.4929],[-63.9455,-16.82,224.0879],[-63.9486,-16.8177,220.1431],[-63.9475,-16.816,221.7211],[-63.951,-16.817,222.0591],[-63.9508,-16.8187,222.9869],[-63.9526,-16.8163,222.97],[-63.9562,-16.8165,224.7595],[-63.959,-16.812,221.7054],[-63.9608,-16.8129,223.8851],[-63.9596,-16.8089,220.4406],[-63.9612,-16.8088,222.9001],[-63.9577,-16.8073,217.9425],[-63.9596,-16.8052,225.2513],[-63.9612,-16.8066,225.2203],[-63.9599,-16.8037,222.2757],[-63.9625,-16.8049,225.7822],[-63.9696,-16.7986,223.3672],[-63.9721,-16.7986,220.9505],[-63.974,-16.8007,224.8925],[-63.9754,-16.796,229.1472],[-63.9781,-16.7951,225.1528],[-63.9799,-16.7962,218.5353],[-63.9782,-16.7938,224.4627],[-63.9812,-16.7935,224.227],[-63.9825,-16.7905,225.6859],[-63.9827,-16.7933,224.0145],[-63.9857,-16.7933,227.6133],[-63.9858,-16.7911,218.559],[-63.9879,-16.7905,221.0722],[-63.9841,-16.7879,228.985],[-63.9866,-16.7858,223.8082],[-63.9851,-16.7843,220.41],[-63.9869,-16.7827,226.0198],[-63.9896,-16.7839,222.3418],[-63.9906,-16.7788,227.6502],[-63.9941,-16.7795,219.2652],[-63.9936,-16.7781,219.2652],[-63.9956,-16.7764,223.9276],[-63.9999,-16.7754,221.3291],[-64.0015,-16.7704,221.6978],[-64.0025,-16.7721,225.2518],[-64.004,-16.772,221.7321],[-64.0046,-16.7698,218.2552],[-64.0061,-16.7713,219.2767],[-64.0066,-16.7681,224.1471],[-64.004,-16.7666,221.9305],[-64.0055,-16.7618,218.981],[-64.0031,-16.7599,220.6469],[-64.0065,-16.7594,219.7137],[-64.0095,-16.7615,221.8637],[-64.0108,-16.7571,219.8203],[-64.0151,-16.7615,219.5173],[-64.0134,-16.7577,218.8626],[-64.0142,-16.7555,219.4435],[-64.0183,-16.756,217.7073],[-64.0179,-16.7532,220.5262],[-64.0214,-16.7503,215.4881],[-64.0196,-16.7485,219.9884],[-64.0179,-16.7491,220.825],[-64.02,-16.7454,219.4334],[-64.0182,-16.7457,222.089],[-64.0177,-16.7444,225.9719],[-64.0228,-16.7458,213.2562],[-64.0236,-16.7434,218.4951],[-64.0278,-16.743,214.919],[-64.0256,-16.7421,224.0374],[-64.0277,-16.7417,215.8828],[-64.0271,-16.7403,221.4129],[-64.0298,-16.7385,217.8069],[-64.0297,-16.7337,221.4831],[-64.0312,-16.7323,213.8021],[-64.0286,-16.7322,225.1187],[-64.0298,-16.731,215.0872],[-64.0278,-16.7291,215.0698],[-64.0294,-16.7281,215.0698],[-64.0271,-16.7278,223.7614],[-64.03,-16.7207,219.9449],[-64.0289,-16.7196,221.5499],[-64.0303,-16.7187,217.4678],[-64.0278,-16.7174,220.4243],[-64.0309,-16.718,217.4678],[-64.032,-16.7149,220.8377],[-64.0295,-16.7117,219.5179],[-64.0327,-16.7123,217.8302],[-64.0322,-16.7096,216.0861],[-64.0348,-16.7088,213.9895],[-64.0308,-16.7064,216.0311],[-64.0331,-16.7044,213.8767],[-64.031,-16.7045,218.1596],[-64.0321,-16.7022,220.6039],[-64.0288,-16.7021,220.5298],[-64.0292,-16.7003,221.4326],[-64.0311,-16.7001,215.096],[-64.0267,-16.6977,214.8668],[-64.027,-16.6953,211.4821],[-64.0254,-16.6954,220.6237],[-64.0277,-16.6915,218.9177],[-64.0271,-16.6892,211.388],[-64.0247,-16.6879,219.3929],[-64.0264,-16.6841,212.9785],[-64.0247,-16.6802,211.5531],[-64.023,-16.6811,214.9353],[-64.0236,-16.6794,218.5694],[-64.0207,-16.6784,213.6357],[-64.0235,-16.6761,213.9188],[-64.0175,-16.6742,214.5919],[-64.0182,-16.6712,216.5963],[-64.0198,-16.671,214.6714],[-64.0181,-16.6689,212.4344],[-64.0194,-16.6684,212.4344],[-64.0159,-16.6683,218.5801],[-64.0142,-16.6719,213.3633],[-64.0123,-16.6694,214.6342],[-64.0132,-16.6675,213.7493],[-64.0121,-16.6664,213.7493],[-64.0136,-16.6649,210.2556],[-64.0151,-16.6654,210.2556],[-64.012,-16.6634,212.681],[-64.0126,-16.661,218.1277],[-64.0109,-16.6613,220.3813],[-64.0132,-16.6571,212.351],[-64.0105,-16.6573,218.3289],[-64.0127,-16.6559,220.1778],[-64.0155,-16.6552,213.2733],[-64.0164,-16.6523,214.9575],[-64.0183,-16.6541,211.5047],[-64.0187,-16.6498,211.852],[-64.0162,-16.6479,213.55],[-64.0177,-16.6465,209.5889],[-64.0147,-16.6448,211.1675],[-64.0135,-16.6461,211.1675],[-64.0127,-16.6432,211.5891],[-64.011,-16.6436,215.3442],[-64.0108,-16.6415,219.3582],[-64.0137,-16.6393,213.7758],[-64.0105,-16.6389,220.1115],[-64.011,-16.637,218.8244],[-64.0093,-16.6378,218.8244],[-64.0125,-16.6317,210.1209],[-64.0105,-16.6326,220.7852],[-64.0116,-16.6296,216.9097],[-64.0072,-16.6258,209.3559],[-64.0091,-16.6251,209.3559],[-64.0085,-16.6237,212.0775],[-64.01,-16.6251,209.4891],[-64.0113,-16.6236,216.3079],[-64.0097,-16.6215,211.7864],[-64.0062,-16.624,212.7403],[-64.0042,-16.623,215.7313],[-64.0044,-16.6189,213.2492],[-64.0027,-16.6169,215.1046],[-64.005,-16.6152,213.5342],[-64.0023,-16.6126,209.758],[-64.0,-16.6128,210.1077],[-64.0009,-16.6085,205.97],[-63.9973,-16.6044,212.2551],[-63.9977,-16.6012,213.9375],[-63.9945,-16.6014,212.2871],[-63.9946,-16.5985,206.3717],[-63.9981,-16.5967,205.951],[-63.9959,-16.5963,210.5619],[-63.9969,-16.5942,211.6017],[-63.9948,-16.5934,209.0714],[-63.9973,-16.5906,211.2394],[-63.9942,-16.5885,207.8715],[-63.9971,-16.5831,210.1726],[-64.0015,-16.5825,209.7975],[-64.0006,-16.5805,208.2875],[-64.0024,-16.5774,210.9928],[-64.0004,-16.5751,205.774],[-64.0027,-16.5737,206.4601],[-64.0009,-16.5737,209.2125],[-64.0021,-16.5709,212.374],[-64.0,-16.5724,210.1577],[-64.0011,-16.5692,212.1136],[-63.9991,-16.5678,214.4605],[-63.9998,-16.5643,208.0908],[-63.9972,-16.5644,209.8063],[-64.0,-16.5604,207.066],[-63.9971,-16.5596,209.4974],[-63.9978,-16.5571,209.4726],[-63.9959,-16.556,210.7849],[-63.9979,-16.5548,207.6489],[-63.9951,-16.5537,206.9993],[-63.9942,-16.5516,210.6714],[-63.9954,-16.5515,211.3944],[-63.9957,-16.5535,206.9993],[-63.9977,-16.5528,210.5962],[-63.9961,-16.5499,211.9876],[-63.9979,-16.5483,205.53],[-63.9979,-16.5455,209.4641],[-64.0,-16.5464,208.5496],[-64.0001,-16.5445,210.6387],[-64.0024,-16.5458,208.7107],[-64.0018,-16.5418,213.1694],[-64.0047,-16.5448,207.2985],[-64.009,-16.5395,213.513],[-64.0149,-16.5423,208.9595],[-64.0198,-16.5406,210.168],[-64.0224,-16.5443,207.6869],[-64.0229,-16.5396,210.6549],[-64.0286,-16.5392,209.3842],[-64.0311,-16.5453,206.6012],[-64.0351,-16.5453,208.3371],[-64.0347,-16.5508,207.1171],[-64.0363,-16.5467,210.0385],[-64.0388,-16.5485,210.1588],[-64.043,-16.5466,210.7122],[-64.0464,-16.5472,207.9969],[-64.048,-16.5461,205.9366],[-64.0474,-16.5448,205.9366],[-64.0492,-16.5447,202.6346],[-64.0468,-16.5408,205.8895],[-64.0487,-16.5402,201.5751],[-64.0471,-16.5387,207.6814],[-64.0476,-16.5342,203.4669],[-64.0461,-16.5306,209.1724],[-64.0477,-16.529,202.1005],[-64.0536,-16.5305,208.1067],[-64.0509,-16.5285,206.3952],[-64.0537,-16.528,208.2482],[-64.0533,-16.5262,208.8339],[-64.0509,-16.5267,207.1844],[-64.0531,-16.5235,208.0169],[-64.0512,-16.523,207.2926],[-64.0528,-16.5219,207.4469],[-64.0511,-16.5178,206.4935],[-64.0539,-16.5178,207.9707],[-64.0531,-16.5146,205.5426],[-64.0554,-16.5119,205.5743],[-64.0538,-16.509,205.3736],[-64.0523,-16.5092,208.8179],[-64.0535,-16.5073,206.6537],[-64.0523,-16.503,206.3052],[-64.0571,-16.501,208.2051],[-64.0584,-16.4984,207.7345],[-64.0565,-16.4952,207.9551],[-64.0578,-16.4931,205.5772],[-64.0556,-16.4925,207.9034],[-64.0573,-16.4895,209.2396],[-64.0547,-16.4879,208.6048],[-64.058,-16.4872,207.0324],[-64.058,-16.4852,203.8825],[-64.0599,-16.484,205.5855],[-64.059,-16.4818,208.1962],[-64.0606,-16.481,207.4598],[-64.0586,-16.4795,208.2659],[-64.0578,-16.4816,206.3311],[-64.0574,-16.4787,207.7169],[-64.056,-16.4786,208.3718],[-64.0572,-16.4778,205.7789],[-64.054,-16.4774,207.2661],[-64.0556,-16.4745,207.8885],[-64.0535,-16.4754,208.0886],[-64.0525,-16.4734,207.1958],[-64.0502,-16.474,198.2471],[-64.0504,-16.4708,207.8178],[-64.0526,-16.4698,204.4866],[-64.053,-16.4663,207.0186],[-64.0549,-16.4654,203.5272],[-64.0541,-16.4644,200.2538],[-64.0567,-16.4629,203.4775],[-64.0557,-16.4616,206.5098],[-64.067,-16.4521,202.4754],[-64.0656,-16.4508,205.9117],[-64.0671,-16.4509,206.6874],[-64.0668,-16.4492,206.0125],[-64.0644,-16.449,198.0505],[-64.0633,-16.4429,208.7341],[-64.0673,-16.4416,199.3605],[-64.068,-16.4395,199.4364],[-64.0704,-16.4394,205.6276],[-64.0757,-16.4267,202.1051],[-64.0791,-16.4251,204.1406],[-64.08,-16.42,205.2469],[-64.078,-16.4179,205.1235],[-64.0769,-16.4196,205.0639],[-64.0736,-16.4185,204.8307],[-64.0719,-16.416,201.2375],[-64.0729,-16.4149,201.2375],[-64.07,-16.4131,204.4056],[-64.0726,-16.4113,201.6444],[-64.0717,-16.4092,199.2923],[-64.0731,-16.4072,204.335],[-64.0701,-16.407,196.7438],[-64.0684,-16.3999,197.6404],[-64.0657,-16.3995,200.0458],[-64.0683,-16.3966,200.8915],[-64.0662,-16.3957,202.2884],[-64.0684,-16.3907,195.9936],[-64.0671,-16.3876,201.9489],[-64.0611,-16.3884,199.1548],[-64.061,-16.3849,200.7065],[-64.0593,-16.3861,199.4236],[-64.055,-16.3824,200.63],[-64.0562,-16.3802,199.7138],[-64.054,-16.377,191.9442],[-64.0572,-16.3746,199.8604],[-64.0587,-16.377,197.4489],[-64.0615,-16.3777,199.7093],[-64.063,-16.3757,202.6627],[-64.0645,-16.3767,196.2378],[-64.0625,-16.3743,192.093],[-64.0634,-16.3726,199.3688],[-64.0655,-16.3755,199.5952],[-64.0672,-16.374,200.6846],[-64.0666,-16.3725,199.5756],[-64.0717,-16.3715,199.1764],[-64.0717,-16.3701,199.6243],[-64.0698,-16.3709,199.4763],[-64.0709,-16.369,201.6595],[-64.0685,-16.3686,198.8769],[-64.07,-16.3657,198.3043],[-64.0689,-16.3648,198.3043],[-64.0701,-16.3635,201.2698],[-64.0712,-16.3645,199.2155],[-64.0708,-16.358,198.4952],[-64.0737,-16.358,191.2054],[-64.0719,-16.3556,194.3878],[-64.0765,-16.354,197.7733],[-64.0768,-16.351,198.6407],[-64.0752,-16.3504,198.6407],[-64.0779,-16.3447,198.0236],[-64.0756,-16.3443,196.9776],[-64.0765,-16.343,196.9776],[-64.0751,-16.3426,196.9982],[-64.073,-16.3457,194.1595],[-64.0723,-16.3427,198.1998],[-64.0708,-16.3425,198.1653],[-64.0728,-16.3403,198.1361],[-64.0706,-16.3397,200.8438],[-64.0705,-16.3371,199.9046],[-64.0677,-16.3371,197.1094],[-64.0696,-16.3348,200.0465],[-64.0753,-16.3332,200.2293],[-64.0751,-16.33,199.6287],[-64.0707,-16.328,203.5425],[-64.0749,-16.3247,199.4058],[-64.0751,-16.3202,194.9431],[-64.0803,-16.3195,201.6301],[-64.0819,-16.3218,195.4784],[-64.0808,-16.3236,198.7351],[-64.0832,-16.3232,196.9337],[-64.0834,-16.3193,194.4424],[-64.0858,-16.3156,189.4639],[-64.0877,-16.3191,190.8026],[-64.0919,-16.3192,194.3929],[-64.0914,-16.312,193.1235],[-64.0931,-16.3097,192.8887],[-64.0988,-16.3102,196.4453],[-64.0986,-16.3133,197.5823],[-64.1047,-16.315,193.7633],[-64.1054,-16.3134,192.8139],[-64.1038,-16.3115,198.0204],[-64.1074,-16.3108,193.5234],[-64.1033,-16.3089,191.5681],[-64.1051,-16.3055,196.092],[-64.1082,-16.3072,190.1319],[-64.114,-16.3052,195.0334],[-64.1135,-16.312,193.5051],[-64.1161,-16.3119,191.7218],[-64.1157,-16.3093,188.8625],[-64.1185,-16.3073,193.3398],[-64.1163,-16.3052,192.6393],[-64.1176,-16.3016,193.21],[-64.1229,-16.2995,192.8051],[-64.1245,-16.3007,193.0502],[-64.1262,-16.2985,189.3443],[-64.1274,-16.3004,188.9548],[-64.1263,-16.3051,195.8169],[-64.1291,-16.3066,189.0171],[-64.129,-16.3084,190.6711],[-64.1322,-16.3078,189.8277],[-64.1353,-16.3015,186.6153],[-64.1329,-16.2975,190.1164],[-64.135,-16.2945,185.4595],[-64.1349,-16.2906,185.4699],[-64.1419,-16.285,187.3925],[-64.1468,-16.2857,186.1746],[-64.1483,-16.2828,187.5138],[-64.1442,-16.2797,185.2458],[-64.1428,-16.2817,189.8382],[-64.1417,-16.2812,192.9012],[-64.1435,-16.2779,185.6853],[-64.1458,-16.2774,185.986],[-64.1456,-16.2743,190.668],[-64.1499,-16.2777,188.5647],[-64.1506,-16.2821,189.2342],[-64.1551,-16.28,184.6742],[-64.1568,-16.2769,184.1395],[-64.1563,-16.2745,184.7194],[-64.1538,-16.2738,185.8751],[-64.1547,-16.2727,188.9081],[-64.157,-16.2726,190.7832],[-64.1582,-16.2761,184.9879],[-64.1613,-16.2773,184.7981],[-64.1605,-16.2743,187.4103],[-64.1637,-16.2734,188.8406],[-64.1626,-16.2765,183.4254],[-64.1643,-16.2789,183.6501],[-64.1637,-16.2812,184.1673],[-64.1653,-16.2806,184.1673],[-64.1669,-16.2761,185.3943],[-64.17,-16.2761,183.7557],[-64.1692,-16.2728,184.0521],[-64.1716,-16.2734,183.9112],[-64.1735,-16.2716,185.3863],[-64.1783,-16.2767,183.8952],[-64.1887,-16.2685,188.043],[-64.1934,-16.2687,187.732],[-64.1953,-16.2711,183.5299],[-64.2019,-16.2728,184.9489],[-64.2038,-16.2695,183.8246],[-64.2079,-16.2705,183.5642],[-64.2091,-16.2671,183.5574],[-64.2118,-16.2739,183.687],[-64.2164,-16.2716,183.6814],[-64.2166,-16.2663,184.4142],[-64.2191,-16.2701,184.5754],[-64.2208,-16.2695,184.4396],[-64.2209,-16.2655,187.7676],[-64.2313,-16.2675,189.2818],[-64.2321,-16.2712,191.0815],[-64.2277,-16.2741,189.7173],[-64.2289,-16.2815,194.033],[-64.2267,-16.281,189.9142],[-64.2251,-16.2776,189.9611],[-64.2238,-16.2779,189.9611],[-64.2177,-16.2854,187.6679],[-64.2185,-16.291,201.3355],[-64.2168,-16.2945,206.0706],[-64.2106,-16.2981,192.8781],[-64.2068,-16.3031,196.8163],[-64.2007,-16.3036,187.8269],[-64.2005,-16.3055,196.2488],[-64.2028,-16.3076,190.7797],[-64.202,-16.3096,195.0853],[-64.1961,-16.3073,199.7727],[-64.1915,-16.319,192.8643],[-64.1867,-16.3187,192.104],[-64.1831,-16.3212,190.6284],[-64.1841,-16.3244,188.1092],[-64.1898,-16.3273,189.0938],[-64.1851,-16.3266,187.1392],[-64.1874,-16.3312,186.6863],[-64.1838,-16.3363,201.804],[-64.1858,-16.3433,212.1807],[-64.1897,-16.3479,192.9412],[-64.1878,-16.353,187.5567],[-64.19,-16.3602,195.5471],[-64.1846,-16.3629,198.0662],[-64.1837,-16.3669,190.6269],[-64.1775,-16.3717,194.1352],[-64.1696,-16.3674,205.5726],[-64.1698,-16.3745,194.7715],[-64.1616,-16.3754,193.3329],[-64.1616,-16.377,195.9791],[-64.166,-16.3811,190.0289],[-64.1626,-16.3856,188.089],[-64.1654,-16.394,193.7904],[-64.1569,-16.3903,195.5403],[-64.152,-16.3939,197.1993],[-64.1478,-16.3853,195.2099],[-64.1461,-16.388,194.2635],[-64.1478,-16.3928,195.7195],[-64.1403,-16.3947,187.5],[-64.1403,-16.3963,196.8639],[-64.1438,-16.3979,201.8537],[-64.1456,-16.401,194.7853],[-64.1449,-16.4049,192.4448],[-64.1402,-16.4111,202.4197],[-64.1477,-16.4114,194.4257],[-64.1496,-16.414,191.0931],[-64.1491,-16.4164,191.9138],[-64.1468,-16.4175,198.1542],[-64.1384,-16.4182,194.1814],[-64.1371,-16.4306,197.8668],[-64.1428,-16.4334,195.9593],[-64.1388,-16.4358,204.8927],[-64.1387,-16.4383,208.1365],[-64.1422,-16.4415,198.8899],[-64.1463,-16.4364,193.5752],[-64.149,-16.4373,194.8261],[-64.145,-16.4471,194.4728],[-64.1459,-16.448,205.275],[-64.1494,-16.4467,194.599],[-64.1521,-16.4427,201.7785],[-64.1612,-16.4393,197.7314],[-64.1621,-16.4435,193.9059],[-64.1584,-16.4491,196.2472],[-64.1605,-16.4512,198.8726],[-64.1654,-16.452,196.5396],[-64.1667,-16.4544,198.105],[-64.1639,-16.4562,203.3058],[-64.158,-16.4558,193.0031],[-64.1565,-16.4545,199.7267],[-64.1558,-16.4488,195.1682],[-64.1537,-16.4467,196.5083],[-64.1521,-16.4476,196.7175],[-64.1524,-16.4508,195.6342],[-64.1577,-16.4598,195.4103],[-64.1563,-16.4646,196.7726],[-64.157,-16.4684,197.4176],[-64.1531,-16.4745,196.0909],[-64.1582,-16.4726,196.7548],[-64.1603,-16.4744,199.4769],[-64.1545,-16.4831,195.5224],[-64.159,-16.4888,201.6326],[-64.1588,-16.4914,197.5865],[-64.1565,-16.493,199.4226],[-64.1523,-16.4887,195.2248],[-64.1487,-16.4898,203.3467],[-64.1479,-16.4952,196.7585],[-64.1419,-16.4978,196.2574],[-64.1415,-16.5059,198.4659],[-64.1358,-16.5046,200.5863],[-64.1326,-16.5069,204.5403],[-64.1326,-16.5099,202.2423],[-64.1375,-16.5141,197.577],[-64.1377,-16.517,197.8843],[-64.1284,-16.5205,207.3682],[-64.1233,-16.5251,201.1073],[-64.125,-16.5299,201.2129],[-64.1282,-16.5323,199.2127],[-64.1235,-16.537,205.2318],[-64.1234,-16.5407,200.4066],[-64.1331,-16.5361,205.1584],[-64.1443,-16.5381,199.5293],[-64.144,-16.5412,198.2229],[-64.1384,-16.5445,206.8119],[-64.1336,-16.5513,200.6897],[-64.1418,-16.5516,199.7085],[-64.1454,-16.5492,208.8374],[-64.1495,-16.5522,201.2023],[-64.1484,-16.5543,204.6165],[-64.1438,-16.5553,205.0685],[-64.1421,-16.5578,208.3896],[-64.144,-16.561,200.7483],[-64.1472,-16.562,199.9237],[-64.1478,-16.5648,199.134],[-64.139,-16.5728,201.8998],[-64.1459,-16.5749,201.6275],[-64.148,-16.5771,208.4335],[-64.1443,-16.5785,200.7059],[-64.1403,-16.5848,201.5323],[-64.1317,-16.5875,201.2437],[-64.1314,-16.5901,211.3103],[-64.136,-16.5896,204.959],[-64.1362,-16.5917,203.7972],[-64.1241,-16.5978,208.2691],[-64.1198,-16.607,202.4411],[-64.1163,-16.6071,201.8419],[-64.1154,-16.5998,203.0141],[-64.1095,-16.6027,200.0],[-64.1091,-16.604,205.3024],[-64.1133,-16.6096,207.2443],[-64.1196,-16.6111,209.352],[-64.121,-16.6138,204.1409],[-64.117,-16.6157,205.871],[-64.1105,-16.6105,204.8177],[-64.1079,-16.6111,212.2753],[-64.1055,-16.6163,211.6503],[-64.1113,-16.6198,204.1333],[-64.1105,-16.6241,207.189],[-64.1087,-16.6252,204.1187],[-64.1051,-16.6201,205.2576],[-64.1022,-16.62,203.4465],[-64.0971,-16.6275,220.1924],[-64.0976,-16.6333,203.1949],[-64.0942,-16.6362,203.8103],[-64.091,-16.6446,201.5],[-64.0964,-16.6486,205.1445],[-64.0925,-16.6598,202.4666],[-64.0932,-16.6636,206.3491],[-64.0991,-16.6644,208.3719],[-64.1009,-16.6675,202.0],[-64.0993,-16.6719,209.2194],[-64.0933,-16.6775,203.5007],[-64.0931,-16.6795,207.7326],[-64.0974,-16.683,207.1472],[-64.0995,-16.679,204.522],[-64.1028,-16.6787,207.996],[-64.1078,-16.6889,207.3683],[-64.1113,-16.6901,211.0766],[-64.1168,-16.6892,215.626],[-64.1178,-16.6916,211.5292],[-64.1166,-16.6979,204.7817],[-64.1181,-16.7004,209.8264],[-64.1198,-16.6992,207.8372],[-64.1219,-16.6934,210.8709],[-64.1271,-16.6938,207.4681],[-64.1274,-16.6963,217.4674],[-64.1234,-16.7032,216.5845],[-64.1246,-16.7124,220.2045],[-64.1311,-16.7202,213.8619],[-64.131,-16.7226,210.4856],[-64.1252,-16.7284,218.5334],[-64.1276,-16.7339,212.1146],[-64.1305,-16.7337,215.2529],[-64.1388,-16.7234,215.5434],[-64.1433,-16.7214,215.8696],[-64.1442,-16.7229,215.8696],[-64.1424,-16.7296,217.7887],[-64.1333,-16.7372,216.4227],[-64.1346,-16.7445,226.8554],[-64.1254,-16.7503,212.1016],[-64.1262,-16.7606,212.2662],[-64.1167,-16.7627,212.6057],[-64.1142,-16.7654,210.7966],[-64.115,-16.7692,210.5733],[-64.1208,-16.7695,217.5715],[-64.1243,-16.7716,218.893],[-64.1242,-16.7765,219.3043],[-64.1192,-16.7794,217.8378],[-64.1072,-16.7751,216.166],[-64.1041,-16.7765,216.7804],[-64.1048,-16.7788,214.3663],[-64.1191,-16.7901,215.3103],[-64.1199,-16.793,219.8648],[-64.1193,-16.7963,215.1577],[-64.1172,-16.7979,218.5428],[-64.1063,-16.7976,215.6399],[-64.1053,-16.8,215.3127],[-64.1066,-16.8036,215.6443],[-64.1127,-16.8065,217.4012],[-64.1179,-16.8051,225.8322],[-64.1229,-16.8069,220.3287],[-64.1247,-16.81,227.8021],[-64.1237,-16.8148,221.3853],[-64.1204,-16.8192,216.8373],[-64.1048,-16.8254,217.684],[-64.1028,-16.8298,215.9726],[-64.104,-16.8368,220.7721],[-64.1053,-16.8374,220.7721],[-64.1103,-16.8335,216.8625],[-64.122,-16.8335,222.5227],[-64.1239,-16.8365,222.5549],[-64.1144,-16.8442,221.4357],[-64.1174,-16.8542,219.4991],[-64.1153,-16.8587,222.5602],[-64.0973,-16.8661,217.5],[-64.0879,-16.8674,227.5776],[-64.0862,-16.8726,225.9638],[-64.0886,-16.875,226.7862],[-64.0894,-16.8816,225.4052],[-64.0986,-16.8877,222.3732],[-64.092,-16.8912,222.1212],[-64.0899,-16.8943,227.8691],[-64.0921,-16.9052,222.8136],[-64.0912,-16.9104,229.1142],[-64.0881,-16.9138,221.273],[-64.078,-16.9174,225.904],[-64.0756,-16.9214,225.9939],[-64.0771,-16.9284,225.7775],[-64.0808,-16.9306,228.3647],[-64.0866,-16.9317,227.2553],[-64.0956,-16.9278,223.6723],[-64.1008,-16.9311,227.3151],[-64.1013,-16.9366,229.6219],[-64.0979,-16.9402,232.1646],[-64.0938,-16.9413,230.8694],[-64.0821,-16.9391,228.593],[-64.0785,-16.9423,225.8747],[-64.0775,-16.9463,226.5641],[-64.0809,-16.951,228.5415],[-64.0896,-16.9532,237.3163],[-64.0991,-16.9613,232.071],[-64.1003,-16.9668,229.5918],[-64.0955,-16.972,233.1064],[-64.0885,-16.9727,229.482],[-64.0865,-16.9754,234.0867],[-64.0856,-16.9808,233.7613],[-64.0825,-16.983,239.1207],[-64.0746,-16.9761,230.8668],[-64.0733,-16.9723,233.6919],[-64.0747,-16.9689,231.5469],[-64.082,-16.9626,234.0419],[-64.082,-16.9581,231.4189],[-64.0665,-16.9576,231.7977],[-64.0639,-16.9631,237.2526],[-64.061,-16.9575,235.276],[-64.0557,-16.9599,232.5163],[-64.0534,-16.9629,229.1883],[-64.0545,-16.969,231.704],[-64.0634,-16.9753,231.8001],[-64.0656,-16.9794,234.384],[-64.0673,-16.9972,234.0284],[-64.0652,-16.9976,234.9715],[-64.0575,-16.9921,233.8234],[-64.0446,-16.9904,235.4894],[-64.0387,-16.9921,234.6746],[-64.0352,-16.9984,235.3542],[-64.0298,-17.0036,238.8139],[-64.0288,-17.0072,237.2133],[-64.0319,-17.0281,239.5478],[-64.0312,-17.035,236.3628],[-64.0173,-17.0381,242.5016],[-64.0086,-17.0383,231.5],[-64.0035,-17.0408,235.2147],[-63.9987,-17.0481,240.8959],[-63.9991,-17.0513,243.4272],[-64.001,-17.0525,244.8943],[-64.0124,-17.052,242.8546],[-64.0182,-17.0548,244.0189],[-64.0241,-17.0624,237.2158],[-64.0263,-17.0782,243.2808],[-64.0285,-17.0813,245.1901],[-64.0277,-17.0837,242.1455],[-64.0241,-17.0858,241.7359],[-63.9989,-17.0931,240.0],[-63.9907,-17.0977,244.5751],[-63.9845,-17.1119,247.1967],[-63.9848,-17.1197,246.5833],[-63.99,-17.1337,253.8531],[-64.0064,-17.1463,252.1896],[-64.0073,-17.1518,253.0816],[-64.0062,-17.1571,255.8529],[-63.9993,-17.1619,256.0648],[-63.9877,-17.1585,254.7999],[-63.9831,-17.1595,258.1733],[-63.9783,-17.1735,248.684],[-63.9747,-17.1786,256.6393],[-63.9614,-17.1843,267.7093],[-63.9311,-17.1762,263.3932],[-63.9332,-17.1945,252.1525],[-63.9326,-17.2014,259.4409],[-63.9434,-17.2184,262.4563],[-63.9451,-17.2244,261.9008],[-63.9404,-17.2328,260.8257],[-63.9322,-17.2341,261.2782],[-63.9257,-17.2424,267.781],[-63.9233,-17.2478,259.6699],[-63.9269,-17.2565,266.8528],[-63.9261,-17.2658,265.7518],[-63.9235,-17.2697,267.9933],[-63.9167,-17.2736,262.2109],[-63.9106,-17.2807,266.4715],[-63.9127,-17.2904,267.1903],[-63.9098,-17.2945,267.3033],[-63.8982,-17.2984,265.3968],[-63.8786,-17.2959,271.0177],[-63.8702,-17.2993,267.196],[-63.8682,-17.302,269.0596],[-63.8678,-17.3214,278.0302],[-63.8765,-17.3294,270.9161],[-63.88,-17.3373,273.6327],[-63.8809,-17.3537,272.4041],[-63.8769,-17.3644,274.262],[-63.8578,-17.3827,275.0],[-63.8282,-17.3827,291.937],[-63.8287,-17.3879,293.6631],[-63.7904,-17.3774,299.9571],[-63.79,-17.286,285.8949],[-63.793,-17.182,258.8772],[-63.8298,-17.1841,258.1068],[-63.8303,-17.1574,255.9038],[-63.8778,-17.1461,258.3585],[-63.8641,-17.1315,255.4882],[-63.8666,-17.1184,254.4778],[-63.8703,-17.1138,254.6813],[-63.8794,-17.1111,253.483],[-63.8969,-17.1125,255.5167],[-63.9007,-17.1082,252.7993],[-63.898,-17.1045,256.4225],[-63.8863,-17.1011,251.4376],[-63.8812,-17.0969,254.4404],[-63.8812,-17.0939,253.0666],[-63.8858,-17.0881,251.9516],[-63.885,-17.0826,250.5748],[-63.882,-17.079,250.0472],[-63.8759,-17.0745,253.3791],[-63.8556,-17.0654,246.1371],[-63.8173,-16.9927,236.7812]]]]}
,"properties": {"GID_3": "BOL.8.8.3_2","GID_0": "BOL","country": "Bolivia","GID_1": "BOL.8_1","province": "SantaCruz","NL_NAME_1": "NA","GID_2": "BOL.8.8_2","county": "Ichilo","NL_NAME_2": "NA","city": "SanJuan","VARNAME_3": "NA","NL_NAME_3": "NA","TYPE_3": "District","ENGTYPE_3": "Distrito","CC_3": "NA","HASC_3": "NA","name": "San_Juan.city","area_km2": 1590.527,"hist_schema_id": "Elevation0-9000","hist_area_km2": {"175": 50.2,"200": 416.097,"225": 492.008,"250": 399.035,"275": 201.212,"300": 31.975}}}