{"type":"Feature","properties":{"GID_3":"BOL.4.21.3_2","GID_0":"BOL","country":"Bolivia","GID_1":"BOL.4_1","province":"LaPaz","NL_NAME_1":"NA","GID_2":"BOL.4.21_2","county":"SudYungas","NL_NAME_2":"NA","city":"LaAsunta","VARNAME_3":"NA","NL_NAME_3":"NA","TYPE_3":"District","ENGTYPE_3":"Distrito","CC_3":"NA","HASC_3":"NA","name":"La_Asunta.city"},
"geometry":{"type": "MultiPolygon","coordinates": [[[[-66.9082,-15.8472,505.5334],[-66.9135,-15.8452,501.94],[-66.9199,-15.837,498.2405],[-66.9224,-15.8373,505.2701],[-66.9223,-15.8413,516.3086],[-66.9248,-15.8431,519.6599],[-66.9264,-15.8535,573.2316],[-66.9319,-15.8585,601.6592],[-66.93,-15.8598,592.3266],[-66.9292,-15.8664,585.2059],[-66.9273,-15.8692,596.8967],[-66.9294,-15.876,612.1442],[-66.9322,-15.8778,628.1064],[-66.9313,-15.8816,637.8068],[-66.9333,-15.8874,657.7743],[-66.9407,-15.8929,717.9615],[-66.9412,-15.896,697.4114],[-66.9507,-15.9073,789.2772],[-66.9641,-15.9139,907.8623],[-66.9684,-15.9124,947.6508],[-66.9681,-15.9147,949.8329],[-66.9738,-15.9235,1027.8021],[-66.9731,-15.9272,1045.0858],[-66.9794,-15.936,1108.2703],[-66.9886,-15.9364,1245.574],[-66.9986,-15.933,1428.2291],[-67.0095,-15.9252,1646.895],[-67.0213,-15.9206,1637.8135],[-67.0337,-15.9101,1467.4814],[-67.0559,-15.8703,1090.3866],[-67.0589,-15.868,1039.9106],[-67.0608,-15.8624,926.4979],[-67.0773,-15.8604,991.9932],[-67.0813,-15.8569,979.4836],[-67.0774,-15.8515,929.9896],[-67.08,-15.8518,937.7897],[-67.0797,-15.8447,908.6338],[-67.0831,-15.8404,875.2838],[-67.0833,-15.8378,862.076],[-67.0963,-15.8321,1024.1471],[-67.1008,-15.8271,1104.9535],[-67.1034,-15.8201,1216.2758],[-67.1256,-15.8092,866.7215],[-67.1304,-15.8029,817.3766],[-67.1304,-15.799,831.9564],[-67.1335,-15.7979,797.7932],[-67.1385,-15.7928,748.912],[-67.1383,-15.7913,748.912],[-67.1407,-15.7917,758.4515],[-67.1509,-15.7848,684.5681],[-67.1543,-15.7857,677.4048],[-67.1585,-15.7777,634.8947],[-67.1573,-15.772,623.5109],[-67.1611,-15.768,607.5287],[-67.1606,-15.7626,530.455],[-67.1653,-15.754,490.1105],[-67.1735,-15.7725,536.2449],[-67.1817,-15.7804,511.9749],[-67.1884,-15.7802,501.5243],[-67.1913,-15.7819,528.5253],[-67.1955,-15.778,500.4471],[-67.1996,-15.7769,496.5709],[-67.2124,-15.7867,658.9747],[-67.2163,-15.7874,519.6569],[-67.2191,-15.7908,512.7123],[-67.2172,-15.7927,561.3507],[-67.225,-15.7995,563.7143],[-67.2297,-15.8004,508.6351],[-67.2341,-15.8054,523.0583],[-67.2363,-15.8182,614.6859],[-67.241,-15.8197,555.6425],[-67.2484,-15.8258,539.0142],[-67.2483,-15.8309,565.4407],[-67.2454,-15.8352,683.9072],[-67.255,-15.8444,1140.0983],[-67.2594,-15.856,1313.821],[-67.2853,-15.8927,1536.751],[-67.3396,-16.0082,2062.0759],[-67.3679,-16.0821,2050.9521],[-67.3946,-16.1077,1930.1078],[-67.438,-16.1419,1968.4174],[-67.4938,-16.2042,2875.9067],[-67.5136,-16.2225,2875.3367],[-67.5237,-16.2395,1906.949],[-67.539,-16.2514,1337.2329],[-67.5365,-16.2552,1293.481],[-67.5375,-16.2616,1250.4795],[-67.5458,-16.2664,1145.4907],[-67.5503,-16.2768,1022.2125],[-67.5428,-16.2788,1015.0905],[-67.5341,-16.277,1005.9302],[-67.5258,-16.2837,1016.719],[-67.5218,-16.2839,1003.2358],[-67.5111,-16.2954,1023.9953],[-67.4993,-16.2957,978.9351],[-67.4939,-16.3043,966.6763],[-67.4869,-16.305,982.4512],[-67.4811,-16.3012,991.8522],[-67.4755,-16.3063,1033.474],[-67.4698,-16.3077,974.1376],[-67.4684,-16.31,990.2592],[-67.4548,-16.3121,937.417],[-67.451,-16.3148,931.6431],[-67.4488,-16.319,933.3743],[-67.4331,-16.3206,935.2068],[-67.4289,-16.3199,1101.9341],[-67.4214,-16.3114,993.2543],[-67.4154,-16.3073,957.9158],[-67.4051,-16.3044,959.1722],[-67.3981,-16.2974,933.4644],[-67.3947,-16.2967,943.9076],[-67.3877,-16.2902,955.6349],[-67.3801,-16.2866,888.8102],[-67.3775,-16.2873,925.3206],[-67.3703,-16.2945,866.2761],[-67.3524,-16.2913,862.386],[-67.3415,-16.2946,849.7459],[-67.3391,-16.2973,854.1356],[-67.3329,-16.2986,857.3586],[-67.3261,-16.3025,963.5573],[-67.3196,-16.3113,840.8264],[-67.3116,-16.3137,857.3683],[-67.2955,-16.3094,821.8871],[-67.2936,-16.3025,844.288],[-67.2877,-16.2939,805.1002],[-67.2793,-16.2947,805.6989],[-67.2758,-16.2973,805.0021],[-67.2688,-16.2976,808.1017],[-67.2579,-16.2911,901.4196],[-67.257,-16.2945,851.475],[-67.2584,-16.3019,933.7921],[-67.2636,-16.306,985.5925],[-67.2624,-16.3101,1035.6517],[-67.2591,-16.3134,995.7599],[-67.2503,-16.3212,1071.3492],[-67.2467,-16.3205,1148.104],[-67.2445,-16.3219,1191.5966],[-67.2439,-16.3249,1153.5504],[-67.2416,-16.3265,1178.9618],[-67.2366,-16.3268,1208.7736],[-67.2336,-16.3291,1226.8538],[-67.2279,-16.3303,1274.6539],[-67.2262,-16.3342,1295.1603],[-67.2205,-16.3355,1386.2512],[-67.2198,-16.3382,1336.528],[-67.2139,-16.344,1365.0613],[-67.2041,-16.3482,1486.1626],[-67.2023,-16.3527,1576.0663],[-67.1921,-16.3625,1562.6476],[-67.1802,-16.3653,1593.0627],[-67.1745,-16.369,1629.418],[-67.1716,-16.3729,1687.8407],[-67.165,-16.3756,1677.4677],[-67.1579,-16.3809,1707.3904],[-67.1208,-16.3658,2910.958],[-67.0892,-16.3474,2214.9355],[-66.9998,-16.3117,2616.9792],[-66.9754,-16.295,1842.0992],[-66.9457,-16.2876,1723.2941],[-66.9284,-16.2814,2346.1519],[-66.8514,-16.244,832.7717],[-66.8503,-16.2372,791.1313],[-66.8523,-16.2324,741.244],[-66.8466,-16.2289,779.324],[-66.8498,-16.2235,739.4211],[-66.8495,-16.218,733.1347],[-66.8516,-16.2167,735.5361],[-66.8457,-16.2092,748.0515],[-66.8443,-16.195,851.8102],[-66.8479,-16.1928,724.4815],[-66.8508,-16.1823,766.8002],[-66.859,-16.1729,712.9099],[-66.8629,-16.1646,705.5602],[-66.8706,-16.1606,715.3256],[-66.868,-16.1515,702.1301],[-66.8745,-16.1475,708.6226],[-66.8762,-16.1387,699.0433],[-66.8826,-16.1344,700.7922],[-66.8846,-16.1266,697.8524],[-66.8892,-16.1242,689.5135],[-66.8882,-16.1199,681.6628],[-66.8897,-16.1169,680.7587],[-66.8945,-16.1121,688.8082],[-66.8982,-16.112,673.6812],[-66.903,-16.1035,682.1484],[-66.9101,-16.1047,709.5721],[-66.9133,-16.0965,663.8464],[-66.9186,-16.0951,678.8006],[-66.9205,-16.0914,666.5267],[-66.92,-16.0851,657.8212],[-66.918,-16.0823,692.0887],[-66.9177,-16.0695,667.6076],[-66.9135,-16.0678,675.2394],[-66.9103,-16.0642,744.2485],[-66.9131,-16.0607,668.256],[-66.9095,-16.0532,683.2635],[-66.911,-16.0489,662.8553],[-66.9091,-16.0473,667.425],[-66.9132,-16.0424,644.2468],[-66.9116,-16.0329,660.0099],[-66.913,-16.0259,681.6903],[-66.9156,-16.0216,643.3588],[-66.9135,-16.0156,704.8517],[-66.9165,-16.0111,680.4526],[-66.917,-16.0043,640.502],[-66.9217,-16.0014,616.5479],[-66.9208,-15.9983,630.1872],[-66.9099,-15.9913,659.5439],[-66.9125,-15.9878,627.667],[-66.9117,-15.9857,652.1373],[-66.9137,-15.9797,609.1932],[-66.9104,-15.9729,590.8333],[-66.9058,-15.9683,584.6353],[-66.9052,-15.9629,626.5836],[-66.9003,-15.9611,598.838],[-66.8987,-15.9556,647.5669],[-66.8948,-15.9521,568.2567],[-66.8888,-15.9504,576.0762],[-66.884,-15.9417,557.4535],[-66.8785,-15.9436,569.911],[-66.8753,-15.938,545.6948],[-66.8688,-15.9354,554.8882],[-66.8783,-15.9258,533.6263],[-66.8787,-15.9224,528.3793],[-66.8747,-15.919,527.7446],[-66.8902,-15.8975,528.9762],[-66.8885,-15.894,517.0527],[-66.8831,-15.8899,532.8432],[-66.8818,-15.8845,514.1585],[-66.8829,-15.8785,513.228],[-66.8871,-15.8734,515.2974],[-66.8948,-15.8718,513.7339],[-66.9014,-15.868,515.3816],[-66.9035,-15.8618,507.728],[-66.8999,-15.8556,508.5671],[-66.9016,-15.8522,505.1821],[-66.9011,-15.8494,502.0],[-66.9065,-15.8489,505.5568],[-66.9082,-15.8472,505.5334]]]]}}