{"type": "Feature","bbox": [-65.9551,-18.4366,-65.3457,-17.9709],"geometry": {"type": "MultiPolygon","coordinates": [[[[-65.3457,-18.4179,1647.2909],[-65.3512,-18.408,1659.9154],[-65.3736,-18.394,1684.6005],[-65.3789,-18.3877,1704.0751],[-65.4044,-18.3673,1693.5273],[-65.4201,-18.3625,1705.6411],[-65.4293,-18.3686,1696.4351],[-65.4394,-18.3651,1722.4659],[-65.4412,-18.3604,1768.9717],[-65.447,-18.3575,1703.0167],[-65.4486,-18.3539,1718.8066],[-65.4555,-18.3497,1717.7968],[-65.4575,-18.3453,1728.1353],[-65.4635,-18.3411,1710.02],[-65.4634,-18.3341,1714.0693],[-65.4713,-18.3253,1719.8892],[-65.475,-18.3147,1725.2544],[-65.4756,-18.3102,1733.2495],[-65.4729,-18.3047,1731.5],[-65.4792,-18.3019,1742.6536],[-65.4796,-18.2977,1756.9258],[-65.4771,-18.2944,1739.026],[-65.4785,-18.2932,1749.8292],[-65.4839,-18.2961,1759.8746],[-65.4883,-18.2916,1779.0781],[-65.4931,-18.2783,1832.5299],[-65.5012,-18.2689,1769.3945],[-65.5023,-18.2573,1768.9542],[-65.5154,-18.2522,1793.4277],[-65.5223,-18.2533,1824.6453],[-65.5268,-18.2454,1837.7555],[-65.5338,-18.2423,1823.3098],[-65.5355,-18.2467,1874.0958],[-65.5389,-18.2453,1819.754],[-65.5441,-18.2464,1798.1808],[-65.5495,-18.2376,1830.2416],[-65.5543,-18.2382,1896.2004],[-65.5613,-18.2342,1914.7911],[-65.5648,-18.2342,1924.8199],[-65.5716,-18.2225,1889.6047],[-65.5748,-18.2213,1879.1328],[-65.5789,-18.2156,1888.4664],[-65.5839,-18.2143,1870.7859],[-65.5846,-18.2079,1824.2145],[-65.5916,-18.2072,1821.4663],[-65.5937,-18.2058,1823.8125],[-65.594,-18.2036,1824.3665],[-65.5967,-18.2036,1824.3284],[-65.6001,-18.1879,1841.0876],[-65.6031,-18.185,1852.2755],[-65.6042,-18.1759,1891.7991],[-65.6126,-18.1696,1872.199],[-65.6142,-18.1657,2008.147],[-65.6226,-18.157,1904.1222],[-65.6322,-18.1521,1897.2158],[-65.6336,-18.1463,1871.5035],[-65.6392,-18.1422,1869.1184],[-65.638,-18.1374,1865.1315],[-65.6409,-18.1366,1867.458],[-65.6455,-18.1389,1880.9197],[-65.6506,-18.1391,1947.2206],[-65.6542,-18.1335,1898.0625],[-65.6612,-18.1316,1891.6643],[-65.6652,-18.1264,1889.385],[-65.6685,-18.1257,1891.979],[-65.6707,-18.1204,1891.8164],[-65.6763,-18.1201,1901.9227],[-65.6809,-18.1166,1906.0496],[-65.6841,-18.1126,1900.0573],[-65.6842,-18.1076,1901.295],[-65.6882,-18.0992,1905.3738],[-65.6934,-18.0942,1908.4607],[-65.6976,-18.0943,1911.1653],[-65.7042,-18.0887,1913.7141],[-65.7089,-18.0783,1913.8713],[-65.7151,-18.0755,1919.1627],[-65.724,-18.0681,1923.0206],[-65.728,-18.0675,1923.4707],[-65.7296,-18.0606,1926.4839],[-65.7332,-18.0612,1927.9329],[-65.7413,-18.0588,1934.375],[-65.7408,-18.0543,1933.3865],[-65.7441,-18.0497,1935.8832],[-65.752,-18.0487,1940.7924],[-65.7557,-18.0434,1942.5681],[-65.7644,-18.0413,1951.2451],[-65.7679,-18.0361,1967.9653],[-65.7722,-18.037,1952.4036],[-65.7834,-18.0319,2013.7516],[-65.7814,-18.0225,1964.0508],[-65.7869,-18.0199,2006.7192],[-65.7898,-18.0145,1969.5074],[-65.7963,-18.0138,1996.5332],[-65.8016,-18.0087,1976.4749],[-65.8065,-18.0105,1978.5853],[-65.8125,-18.0084,1990.9117],[-65.8159,-18.0022,1984.5845],[-65.8271,-17.9969,1992.2609],[-65.8303,-17.9877,2002.0541],[-65.8357,-17.9869,2005.7828],[-65.8366,-17.9846,2001.4932],[-65.8433,-17.9796,2007.1005],[-65.8451,-17.9742,2010.9956],[-65.8488,-17.974,2012.3884],[-65.8512,-17.9763,2034.8923],[-65.8528,-17.9744,2015.0649],[-65.8577,-17.975,2045.5967],[-65.8652,-17.9709,2025.0721],[-65.8684,-17.9713,2088.0134],[-65.8712,-17.9756,2186.3184],[-65.8752,-17.9776,2038.002],[-65.8868,-17.9793,2057.1575],[-65.8879,-17.9831,2065.8711],[-65.8924,-17.9837,2047.8492],[-65.895,-17.9873,2079.978],[-65.9066,-17.9869,2068.0212],[-65.9125,-17.991,2063.384],[-65.9229,-17.994,2074.8027],[-65.9312,-18.0089,2624.9417],[-65.9352,-18.0246,2955.3975],[-65.9426,-18.0264,3219.0007],[-65.9446,-18.0287,3244.2236],[-65.9458,-18.0357,3298.0886],[-65.9521,-18.0419,3163.6108],[-65.9551,-18.0556,3387.0647],[-65.9512,-18.06,3313.196],[-65.9469,-18.0621,3403.1843],[-65.9415,-18.0724,3381.9541],[-65.9392,-18.092,3302.0168],[-65.9305,-18.0977,3588.9189],[-65.9301,-18.1015,3729.3511],[-65.926,-18.1049,3838.4966],[-65.907,-18.118,3710.5198],[-65.897,-18.1222,3499.4287],[-65.8986,-18.1318,3695.5146],[-65.9064,-18.1385,3860.2473],[-65.9153,-18.1543,3241.9934],[-65.9156,-18.1683,3135.5801],[-65.8999,-18.1775,3635.7842],[-65.8992,-18.1801,3633.439],[-65.8934,-18.1837,3576.1753],[-65.8762,-18.1855,2932.511],[-65.8629,-18.185,3227.9902],[-65.8503,-18.192,3479.6929],[-65.8439,-18.193,3434.9048],[-65.8398,-18.1977,3436.1895],[-65.8402,-18.2009,3421.2539],[-65.8333,-18.2082,3386.792],[-65.8283,-18.2164,3085.2378],[-65.8312,-18.2279,2760.5625],[-65.8297,-18.2382,2507.4414],[-65.8261,-18.2432,2498.8582],[-65.8221,-18.2436,2491.3794],[-65.805,-18.2545,2448.8003],[-65.7994,-18.2632,2359.1643],[-65.7963,-18.2649,2336.9971],[-65.7903,-18.2832,2251.2461],[-65.7897,-18.2912,2161.8118],[-65.7834,-18.2994,2065.1436],[-65.7695,-18.2994,2039.6067],[-65.7633,-18.3081,2000.7837],[-65.7587,-18.3106,1988.5137],[-65.7571,-18.315,2029.3119],[-65.7494,-18.3186,1986.7072],[-65.7455,-18.3185,1980.4128],[-65.7331,-18.3294,1954.2826],[-65.7278,-18.3303,1936.3953],[-65.717,-18.3435,1920.662],[-65.7107,-18.345,1901.7852],[-65.7065,-18.3486,1905.307],[-65.7028,-18.3479,1893.5153],[-65.6983,-18.3511,1884.2908],[-65.6939,-18.3519,1876.2859],[-65.6793,-18.3473,1865.9178],[-65.674,-18.3474,1861.8728],[-65.6648,-18.3624,1846.913],[-65.6582,-18.366,1841.1074],[-65.6508,-18.3661,1834.7518],[-65.6392,-18.3693,1828.4517],[-65.6343,-18.3739,1823.8198],[-65.6181,-18.3759,1811.8098],[-65.5908,-18.3748,1792.6907],[-65.5831,-18.3787,1786.6925],[-65.5782,-18.3851,1781.3303],[-65.5648,-18.3916,1772.0913],[-65.5559,-18.4005,1770.1282],[-65.549,-18.4008,1784.5863],[-65.5465,-18.4046,1803.4011],[-65.5419,-18.4009,1781.771],[-65.5368,-18.3993,1785.2249],[-65.5348,-18.3921,1820.9993],[-65.5293,-18.3916,1814.7253],[-65.5238,-18.3948,1866.5345],[-65.5188,-18.3929,1834.2195],[-65.5128,-18.3875,1770.8781],[-65.507,-18.3867,1763.5132],[-65.4976,-18.3919,1740.0111],[-65.4893,-18.4,1756.2048],[-65.4784,-18.4007,1725.6926],[-65.4647,-18.3987,1715.8174],[-65.4623,-18.4004,1716.2626],[-65.4602,-18.4058,1722.7964],[-65.4547,-18.4104,1707.6897],[-65.4481,-18.4053,1757.4253],[-65.4412,-18.4038,1761.8611],[-65.4328,-18.4096,1813.7432],[-65.4245,-18.4103,1729.9344],[-65.4203,-18.4151,1703.6501],[-65.4106,-18.4199,1719.618],[-65.4039,-18.4201,1699.3375],[-65.3996,-18.4256,1677.8394],[-65.3859,-18.423,1711.8181],[-65.3804,-18.4279,1668.3032],[-65.3722,-18.4303,1671.2372],[-65.3661,-18.4356,1718.9506],[-65.3572,-18.4366,1726.9258],[-65.3548,-18.4339,1666.5388],[-65.3511,-18.4329,1670.8207],[-65.3493,-18.421,1673.272],[-65.3457,-18.4179,1647.2909]]]]}
,"properties": {"GID_3": "BOL.7.3.2_2","GID_0": "BOL","country": "Bolivia","GID_1": "BOL.7_1","province": "Potosí","NL_NAME_1": "NA","GID_2": "BOL.7.3_2","county": "Chárcas","NL_NAME_2": "NA","city": "ToroToro","VARNAME_3": "NA","NL_NAME_3": "NA","TYPE_3": "District","ENGTYPE_3": "Distrito","CC_3": "NA","HASC_3": "NA","name": "Toro_Toro.city","area_km2": 1185.6227,"hist_schema_id": "Elevation0-9000","hist_area_km2": {"1650": 0.1609,"1675": 1.1065,"1700": 1.5693,"1725": 2.5354,"1750": 2.294,"1775": 3.7227,"1800": 4.5477,"1825": 5.7358,"1850": 7.5273,"1875": 8.4335,"1900": 9.965,"1925": 12.8058,"1950": 15.0431,"1975": 19.5368,"2000": 20.9289,"2025": 19.98,"2050": 18.2467,"2075": 17.7822,"2100": 16.8348,"2125": 17.2167,"2150": 16.4519,"2175": 16.1491,"2200": 15.6657,"2225": 15.9479,"2250": 16.7122,"2275": 16.954,"2300": 16.6317,"2325": 16.088,"2350": 17.9212,"2375": 17.9612,"2400": 17.2574,"2425": 18.0017,"2450": 18.0228,"2475": 18.8076,"2500": 19.3716,"2525": 19.9755,"2550": 20.4795,"2575": 19.9967,"2600": 19.8161,"2625": 20.4405,"2650": 21.5078,"2675": 22.0722,"2700": 21.8317,"2725": 24.33,"2750": 25.7201,"2775": 25.5394,"2800": 23.2423,"2825": 22.2557,"2850": 23.4046,"2875": 23.9885,"2900": 21.672,"2925": 24.2314,"2950": 24.9976,"2975": 24.4153,"3000": 26.1693,"3025": 21.4348,"3050": 20.5488,"3075": 17.889,"3100": 16.4584,"3125": 15.7931,"3150": 14.9271,"3175": 13.3559,"3200": 13.0744,"3225": 12.2883,"3250": 11.4021,"3275": 10.6168,"3300": 9.59,"3325": 7.3746,"3350": 6.8308,"3375": 6.2065,"3400": 5.7832,"3425": 5.1184,"3450": 5.6826,"3475": 4.655,"3500": 4.534,"3525": 4.5341,"3550": 4.6751,"3575": 3.869,"3600": 4.0503,"3625": 3.8489,"3650": 3.8892,"3675": 3.7281,"3700": 3.8288,"3725": 2.7003,"3750": 1.5113,"3775": 1.2292,"3800": 1.0075,"3825": 1.209,"3850": 0.7858,"3875": 0.5037,"3900": 0.403,"3925": 0.0806,"3950": 0.1612,"3975": 0.0403}}}