{"type": "Feature","bbox": [-68.8036,-15.5252,-68.5941,-15.3615],"geometry": {"type": "MultiPolygon","coordinates": [[[[-68.654,-15.3632,2746.7451],[-68.6654,-15.3615,2850.5701],[-68.6693,-15.3652,2839.2703],[-68.6746,-15.3666,2864.0796],[-68.6783,-15.3763,3122.2153],[-68.6843,-15.3829,3189.332],[-68.6955,-15.3826,3031.301],[-68.7049,-15.3851,3034.8057],[-68.7079,-15.383,3055.4746],[-68.7488,-15.3786,3492.415],[-68.7532,-15.3811,3606.2998],[-68.7553,-15.3854,3914.6624],[-68.7604,-15.3874,4008.3972],[-68.7625,-15.3903,4164.3516],[-68.7711,-15.39,4174.3164],[-68.7869,-15.3836,4438.3193],[-68.7929,-15.391,4387.3936],[-68.8008,-15.3973,4448.5962],[-68.8036,-15.4151,4465.4214],[-68.7935,-15.4242,4445.8975],[-68.7773,-15.43,4202.792],[-68.7713,-15.436,4036.5205],[-68.7691,-15.4552,3706.0896],[-68.7589,-15.4779,3253.9805],[-68.756,-15.4896,3029.7461],[-68.7436,-15.5093,2853.6538],[-68.7339,-15.5207,2461.0925],[-68.7212,-15.5243,2242.0566],[-68.7003,-15.5252,1393.2966],[-68.6951,-15.5213,1351.5144],[-68.6875,-15.51,1356.2947],[-68.6834,-15.5081,1354.613],[-68.676,-15.5077,1352.0417],[-68.6709,-15.5044,1316.9258],[-68.6685,-15.4958,1264.4938],[-68.6692,-15.4902,1305.2173],[-68.6637,-15.4834,1259.4792],[-68.6562,-15.4808,1250.1881],[-68.6449,-15.4726,1208.9033],[-68.6251,-15.4684,1191.2363],[-68.6218,-15.4649,1186.7509],[-68.5941,-15.4513,1119.6455],[-68.6053,-15.432,2174.5151],[-68.6137,-15.4215,2733.3906],[-68.6177,-15.4109,3254.572],[-68.6325,-15.3863,2989.0498],[-68.6327,-15.3812,2719.0085],[-68.6344,-15.3787,2730.6143],[-68.6333,-15.3746,2624.2715],[-68.6362,-15.372,2477.7959],[-68.6407,-15.3717,2522.3774],[-68.6471,-15.3683,2602.354],[-68.654,-15.3632,2746.7451]]]]}
,"properties": {"GID_3": "BOL.4.16.1_2","GID_0": "BOL","country": "Bolivia","GID_1": "BOL.4_1","province": "LaPaz","NL_NAME_1": "NA","GID_2": "BOL.4.16_2","county": "Muñecas","NL_NAME_2": "NA","city": "Aucapata","VARNAME_3": "NA","NL_NAME_3": "NA","TYPE_3": "District","ENGTYPE_3": "Distrito","CC_3": "NA","HASC_3": "NA","name": "Aucapata.city","area_km2": 234.9051,"hist_schema_id": "Elevation0-9000","hist_area_km2": {"1125": 0.1839,"1150": 0.3474,"1175": 0.47,"1200": 0.3065,"1225": 0.6539,"1250": 0.5313,"1275": 0.7765,"1300": 0.7764,"1325": 0.8173,"1350": 0.9194,"1375": 0.756,"1400": 0.6947,"1425": 0.7356,"1450": 0.8173,"1475": 0.7765,"1500": 0.8582,"1525": 0.6334,"1550": 0.7969,"1575": 0.9195,"1600": 1.0012,"1625": 0.8173,"1650": 0.9808,"1675": 1.1034,"1700": 0.8786,"1725": 1.0216,"1750": 1.3282,"1775": 1.1851,"1800": 1.0012,"1825": 1.1851,"1850": 0.9808,"1875": 1.1851,"1900": 1.1238,"1925": 1.2465,"1950": 1.2464,"1975": 1.2873,"2000": 1.1443,"2025": 1.5325,"2050": 1.2464,"2075": 1.3895,"2100": 1.3691,"2125": 1.3486,"2150": 1.3282,"2175": 1.3486,"2200": 1.4712,"2225": 1.226,"2250": 1.4917,"2275": 1.4099,"2300": 1.5325,"2325": 1.3486,"2350": 1.6347,"2375": 1.6347,"2400": 1.5325,"2425": 1.4713,"2450": 1.4304,"2475": 1.41,"2500": 1.9617,"2525": 1.6347,"2550": 1.41,"2575": 1.737,"2600": 1.6552,"2625": 1.4509,"2650": 1.6144,"2675": 1.8187,"2700": 1.8596,"2725": 1.6553,"2750": 1.451,"2775": 1.9414,"2800": 1.8392,"2825": 1.921,"2850": 1.8393,"2875": 2.105,"2900": 1.9415,"2925": 2.0436,"2950": 2.3911,"2975": 2.1868,"3000": 2.0028,"3025": 2.3707,"3050": 2.4525,"3075": 2.4321,"3100": 2.3708,"3125": 2.5343,"3150": 2.2073,"3175": 2.5957,"3200": 3.1066,"3225": 2.9431,"3250": 2.7387,"3275": 2.5752,"3300": 2.9022,"3325": 2.8818,"3350": 2.657,"3375": 2.6366,"3400": 2.8001,"3425": 3.0045,"3450": 2.8205,"3475": 3.495,"3500": 2.6775,"3525": 2.6366,"3550": 2.841,"3575": 2.7184,"3600": 2.5549,"3625": 2.4527,"3650": 3.0045,"3675": 3.025,"3700": 2.8002,"3725": 3.1681,"3750": 3.0864,"3775": 3.209,"3800": 3.1682,"3825": 3.1886,"3850": 3.1477,"3875": 2.8411,"3900": 3.0864,"3925": 2.3711,"3950": 3.0047,"3975": 3.066,"4000": 2.9843,"4025": 2.1462,"4050": 2.3915,"4075": 2.6367,"4100": 2.0849,"4125": 1.9418,"4150": 1.8191,"4175": 2.0235,"4200": 1.533,"4225": 1.533,"4250": 1.6761,"4275": 1.2264,"4300": 1.0629,"4325": 1.206,"4350": 0.6132,"4375": 0.5519,"4400": 0.3679,"4425": 0.1226,"4450": 0.1431,"4475": 0.0818,"4500": 0.0818}}}