{"type": "Feature","bbox": [-67.6683,-18.7447,-67.0839,-17.7762],"geometry": {"type": "MultiPolygon","coordinates": [[[[-67.0839,-18.7426,3685.5],[-67.1796,-18.5996,3685.5],[-67.2169,-18.5623,3685.5],[-67.2426,-18.5779,3685.5],[-67.2699,-18.537,3685.77],[-67.2767,-18.5298,3685.5],[-67.2786,-18.523,3686.313],[-67.2817,-18.521,3687.4919],[-67.2458,-18.4511,3689.1836],[-67.2332,-18.4204,3690.8115],[-67.2268,-18.4111,3691.3169],[-67.2081,-18.399,3691.6646],[-67.2046,-18.3912,3692.5356],[-67.2069,-18.3786,3692.3303],[-67.1998,-18.3455,3693.0486],[-67.2015,-18.3402,3692.9988],[-67.2106,-18.3322,3693.8545],[-67.2131,-18.3157,3694.499],[-67.2171,-18.3122,3694.5591],[-67.2228,-18.2945,3694.5095],[-67.2193,-18.2711,3695.1008],[-67.2264,-18.2342,3696.3853],[-67.2393,-18.2104,3697.0952],[-67.2441,-18.2059,3697.2632],[-67.2478,-18.1873,3698.6277],[-67.2459,-18.179,3699.127],[-67.2397,-18.1662,3699.7109],[-67.2439,-18.1542,3700.1646],[-67.2491,-18.1505,3700.5391],[-67.2474,-18.1452,3700.2485],[-67.25,-18.1422,3700.9302],[-67.2502,-18.1385,3701.1172],[-67.2524,-18.1382,3701.1223],[-67.253,-18.1361,3701.4102],[-67.2491,-18.1306,3701.8184],[-67.2555,-18.1232,3702.0564],[-67.259,-18.1133,3702.0618],[-67.2578,-18.1075,3702.1699],[-67.2598,-18.1044,3702.2178],[-67.2776,-18.0935,3702.666],[-67.2875,-18.0901,3702.8933],[-67.2915,-18.0844,3702.9783],[-67.2909,-18.077,3703.3713],[-67.2953,-18.0675,3703.4509],[-67.2997,-18.0658,3703.5811],[-67.3184,-18.0665,3703.887],[-67.3212,-18.064,3704.1448],[-67.3212,-18.059,3704.1597],[-67.323,-18.0548,3704.1895],[-67.3331,-18.049,3704.6296],[-67.3329,-18.045,3704.7583],[-67.3276,-18.0405,3704.9512],[-67.3263,-18.0327,3705.2092],[-67.3326,-18.0246,3705.4253],[-67.3421,-18.0194,3705.7568],[-67.3444,-18.0164,3705.9001],[-67.3415,-18.0047,3705.9885],[-67.3353,-18.0021,3706.1636],[-67.3357,-17.9978,3706.3328],[-67.3395,-17.9945,3706.6382],[-67.3401,-17.9897,3706.6875],[-67.3447,-17.9888,3706.8616],[-67.3437,-17.9825,3707.0193],[-67.3477,-17.9739,3707.1123],[-67.3584,-17.9665,3707.0596],[-67.368,-17.9454,3707.9192],[-67.3759,-17.9373,3707.8464],[-67.3813,-17.9355,3707.5281],[-67.3867,-17.9184,3708.5249],[-67.4035,-17.9099,3709.1807],[-67.402,-17.9,3710.043],[-67.3982,-17.8924,3709.6333],[-67.402,-17.8825,3710.1519],[-67.3993,-17.876,3709.3911],[-67.3987,-17.8657,3711.0125],[-67.4042,-17.8625,3711.1863],[-67.4088,-17.8548,3711.4463],[-67.4115,-17.8491,3710.9614],[-67.4112,-17.845,3710.866],[-67.4143,-17.8425,3712.2192],[-67.4127,-17.8399,3711.4097],[-67.4145,-17.8349,3713.6426],[-67.4258,-17.8236,3712.502],[-67.4306,-17.8129,3713.3364],[-67.439,-17.803,3713.8003],[-67.4371,-17.7915,3713.7676],[-67.4462,-17.7849,3714.6819],[-67.4476,-17.7821,3714.8096],[-67.4455,-17.7808,3713.7534],[-67.4488,-17.777,3713.7227],[-67.4509,-17.7762,3713.4507],[-67.4589,-17.7784,3712.0],[-67.4959,-17.811,3713.1863],[-67.5359,-17.8307,3714.0601],[-67.5527,-17.8585,3713.8904],[-67.5707,-17.8755,3713.1841],[-67.6171,-17.9006,3714.1099],[-67.6196,-17.9302,3712.5762],[-67.5858,-17.9708,3709.9209],[-67.5883,-17.9934,3709.3418],[-67.6029,-18.02,3708.7444],[-67.6091,-18.0405,3707.0908],[-67.6124,-18.0414,3706.5654],[-67.6129,-18.0454,3706.7192],[-67.6157,-18.0456,3706.5676],[-67.6161,-18.055,3706.4377],[-67.6143,-18.0592,3706.7261],[-67.6158,-18.0622,3705.7693],[-67.6279,-18.0703,3714.7178],[-67.6294,-18.075,3725.3125],[-67.6376,-18.0812,3862.1526],[-67.6406,-18.0814,3928.8242],[-67.6444,-18.0776,4025.458],[-67.6578,-18.0848,4301.8696],[-67.6676,-18.0872,4628.604],[-67.6675,-18.0934,4637.0405],[-67.6656,-18.0956,4612.2324],[-67.6683,-18.1021,4567.3208],[-67.6672,-18.1058,4577.2764],[-67.662,-18.11,4624.2217],[-67.662,-18.1168,4617.1099],[-67.6634,-18.1192,4568.7988],[-67.6623,-18.1304,4521.9297],[-67.6585,-18.1359,4514.168],[-67.6586,-18.1421,4497.4531],[-67.6616,-18.1468,4447.1138],[-67.659,-18.1507,4421.0508],[-67.6548,-18.1674,4530.6133],[-67.6516,-18.1691,4434.4067],[-67.6229,-18.1699,3910.1726],[-67.6162,-18.1757,3749.6726],[-67.611,-18.1877,3752.3723],[-67.6094,-18.2012,3744.9966],[-67.6034,-18.2185,3961.6509],[-67.6005,-18.2306,4019.0569],[-67.6014,-18.2366,3814.1909],[-67.597,-18.2406,3778.7983],[-67.5669,-18.3023,3751.0066],[-67.5569,-18.3072,3738.8096],[-67.5332,-18.2852,3711.9434],[-67.526,-18.3055,3717.3662],[-67.5221,-18.3121,3716.3484],[-67.5182,-18.3267,3712.6819],[-67.5148,-18.329,3709.6538],[-67.5084,-18.3418,3709.1221],[-67.5151,-18.3509,3711.2415],[-67.5192,-18.3523,3710.9856],[-67.5215,-18.3488,3711.8076],[-67.5272,-18.3492,3711.5479],[-67.5294,-18.3534,3712.7207],[-67.5286,-18.3576,3713.0303],[-67.5323,-18.3626,3713.5928],[-67.5387,-18.366,3715.6997],[-67.5382,-18.3717,3716.5698],[-67.5411,-18.3743,3715.3586],[-67.544,-18.3735,3715.2676],[-67.5542,-18.411,3723.5288],[-67.553,-18.4219,3727.957],[-67.544,-18.4305,3735.8738],[-67.5481,-18.4613,3762.7085],[-67.5289,-18.476,3756.6116],[-67.5057,-18.5076,3741.4756],[-67.5084,-18.5186,3747.6555],[-67.5238,-18.5464,3761.8662],[-67.5241,-18.5725,3756.231],[-67.5205,-18.5851,3748.9795],[-67.5084,-18.6002,3740.2668],[-67.4954,-18.6077,3741.5806],[-67.4712,-18.6159,3717.552],[-67.4664,-18.6246,3715.4136],[-67.4686,-18.6483,3707.1851],[-67.4493,-18.6596,3703.9607],[-67.4263,-18.6687,3701.5496],[-67.4047,-18.6873,3698.397],[-67.3837,-18.6947,3695.3926],[-67.3785,-18.6979,3695.0967],[-67.367,-18.707,3693.375],[-67.3532,-18.7225,3691.3828],[-67.3349,-18.7328,3689.4451],[-67.322,-18.7362,3689.4114],[-67.2707,-18.7397,3688.0532],[-67.2129,-18.7397,3685.5],[-67.1668,-18.7447,3685.5],[-67.1304,-18.7379,3685.5],[-67.0878,-18.744,3685.5],[-67.0839,-18.7426,3685.5]]]]}
,"properties": {"GID_2": "BOL.5.13_2","GID_0": "BOL","country": "Bolivia","GID_1": "BOL.5_1","province": "Oruro","NL_NAME_1": "NA","county": "Saucarí","VARNAME_2": "NA","NL_NAME_2": "NA","TYPE_2": "Provincia","ENGTYPE_2": "Province","CC_2": "NA","HASC_2": "NA","name": "Saucarí.county","area_km2": 3208.237,"hist_schema_id": "Elevation0-9000","hist_area_km2": {"3675": 299.244,"3700": 2493.993,"3725": 305.185,"3750": 63.448,"3775": 6.429,"3800": 5.078,"3825": 3.607,"3850": 2.096,"3875": 1.713,"3900": 1.491,"3925": 1.169,"3950": 1.431,"3975": 1.39,"4000": 1.471,"4025": 1.31,"4050": 1.128,"4075": 1.229,"4100": 1.592,"4125": 1.269,"4150": 1.149,"4175": 1.35,"4200": 0.927,"4225": 1.189,"4250": 1.149,"4275": 1.068,"4300": 0.746,"4325": 0.826,"4350": 0.625,"4375": 0.665,"4400": 0.564,"4425": 0.504,"4450": 0.786,"4475": 0.504,"4500": 0.282,"4525": 0.584,"4550": 0.282,"4575": 0.343,"4600": 0.262,"4625": 0.04,"4650": 0.121}}}