{"type": "Feature","bbox": [-64.8424,-18.0239,-63.4585,-15.802],"geometry": {"type": "MultiPolygon","coordinates": [[[[-63.5191,-17.81,499.0629],[-63.5167,-17.8075,480.6281],[-63.5248,-17.8015,734.9221],[-63.5265,-17.7936,866.0453],[-63.5175,-17.7709,439.1622],[-63.5183,-17.7663,439.1398],[-63.5154,-17.7631,443.489],[-63.5087,-17.7453,487.1174],[-63.5024,-17.738,469.7976],[-63.4995,-17.7318,472.0179],[-63.4943,-17.7276,462.0024],[-63.4944,-17.7234,437.5395],[-63.4911,-17.7211,431.1199],[-63.4903,-17.714,429.6605],[-63.4895,-17.7122,426.4221],[-63.4882,-17.7129,425.5821],[-63.4871,-17.7054,416.7573],[-63.4882,-17.7048,416.7573],[-63.4853,-17.7039,417.4835],[-63.4873,-17.7023,414.3345],[-63.4851,-17.6995,410.0842],[-63.4858,-17.6937,406.1247],[-63.4794,-17.6902,407.7526],[-63.4773,-17.6849,404.516],[-63.4751,-17.6862,398.6526],[-63.4764,-17.684,405.226],[-63.4733,-17.6817,396.1285],[-63.4733,-17.6761,408.7082],[-63.4718,-17.677,399.7043],[-63.4684,-17.6757,394.6834],[-63.4693,-17.6728,396.363],[-63.4673,-17.6732,402.7039],[-63.4677,-17.6698,398.6024],[-63.4634,-17.6677,393.7023],[-63.4652,-17.6625,381.5757],[-63.4637,-17.6617,392.0565],[-63.4641,-17.6596,384.7152],[-63.4673,-17.6584,379.6215],[-63.4645,-17.6546,384.6596],[-63.4648,-17.6524,377.3017],[-63.4628,-17.6517,370.5083],[-63.4647,-17.635,365.8857],[-63.4585,-17.6306,372.1124],[-63.4632,-17.6224,361.4296],[-63.4651,-17.6219,361.6383],[-63.4832,-17.6281,414.3725],[-63.4879,-17.6272,427.9549],[-63.4924,-17.6229,413.8501],[-63.4917,-17.6206,416.3078],[-63.4949,-17.6188,397.3869],[-63.4957,-17.6156,414.8259],[-63.5025,-17.6115,381.8434],[-63.5022,-17.6023,367.8886],[-63.5072,-17.5949,361.8393],[-63.5111,-17.5951,361.3433],[-63.5109,-17.5925,371.4703],[-63.5136,-17.5893,365.8842],[-63.5126,-17.5874,362.0407],[-63.5182,-17.5835,354.7367],[-63.5175,-17.5814,352.6556],[-63.5211,-17.5743,354.9228],[-63.5238,-17.5733,348.2218],[-63.524,-17.571,352.8083],[-63.5284,-17.5716,345.235],[-63.5289,-17.5678,351.8652],[-63.5313,-17.5691,344.6895],[-63.5336,-17.5684,344.769],[-63.5332,-17.5657,348.2184],[-63.5368,-17.561,344.1517],[-63.5392,-17.5621,342.2022],[-63.5384,-17.56,343.2318],[-63.532,-17.5558,339.3595],[-63.5351,-17.5528,340.1337],[-63.532,-17.5496,338.2627],[-63.5367,-17.5506,340.114],[-63.5369,-17.5478,342.8519],[-63.5294,-17.5434,370.8629],[-63.5365,-17.5379,337.5494],[-63.5401,-17.5387,347.2986],[-63.5407,-17.5374,341.8096],[-63.5383,-17.5337,332.0273],[-63.5416,-17.5315,335.564],[-63.5364,-17.5236,330.3565],[-63.5335,-17.5287,331.9016],[-63.5305,-17.5263,331.8432],[-63.5328,-17.5238,330.2521],[-63.5327,-17.5205,328.652],[-63.5319,-17.5181,330.0161],[-63.5265,-17.5136,328.5414],[-63.5294,-17.5112,323.4305],[-63.5241,-17.4986,325.9434],[-63.5246,-17.4928,325.5005],[-63.523,-17.4895,325.7269],[-63.5166,-17.4884,325.73],[-63.5147,-17.4852,322.9142],[-63.5129,-17.4851,322.9335],[-63.5101,-17.4928,321.8156],[-63.5074,-17.4929,325.4761],[-63.5091,-17.4848,318.1196],[-63.5072,-17.4811,318.4033],[-63.5094,-17.479,321.1214],[-63.5116,-17.4724,324.4099],[-63.5102,-17.4648,323.3475],[-63.511,-17.4592,318.257],[-63.507,-17.4531,314.4222],[-63.4995,-17.448,316.6182],[-63.5009,-17.4454,315.4797],[-63.505,-17.4477,312.523],[-63.508,-17.4457,309.3805],[-63.5098,-17.4476,311.9136],[-63.5084,-17.4485,311.1664],[-63.5072,-17.447,313.3755],[-63.506,-17.45,313.5909],[-63.5123,-17.4519,311.6472],[-63.5208,-17.4456,312.1884],[-63.5227,-17.442,308.4404],[-63.5226,-17.4372,308.8976],[-63.5208,-17.4336,306.6651],[-63.5173,-17.4317,307.2826],[-63.5153,-17.4357,304.9741],[-63.509,-17.4399,307.2242],[-63.5071,-17.4374,306.8249],[-63.5092,-17.4271,304.1756],[-63.5078,-17.4261,303.9816],[-63.5018,-17.4279,305.5739],[-63.5015,-17.4253,302.6459],[-63.4996,-17.4239,304.0375],[-63.5009,-17.4194,302.9379],[-63.506,-17.4148,300.6693],[-63.5097,-17.4145,302.0065],[-63.5161,-17.4081,298.4057],[-63.5172,-17.3995,299.5629],[-63.5186,-17.3994,298.7211],[-63.5186,-17.4018,300.841],[-63.521,-17.403,299.496],[-63.5225,-17.3989,297.7795],[-63.5203,-17.3968,298.0065],[-63.5227,-17.3961,294.5207],[-63.5265,-17.3863,293.6763],[-63.5328,-17.3881,291.1725],[-63.5467,-17.3769,290.2845],[-63.5464,-17.3726,293.5914],[-63.5497,-17.3695,287.3364],[-63.5493,-17.367,286.2764],[-63.5532,-17.3639,289.1425],[-63.5537,-17.3607,288.4536],[-63.5577,-17.3569,288.3809],[-63.5623,-17.3592,285.4897],[-63.5639,-17.3519,285.9792],[-63.5661,-17.353,284.2667],[-63.571,-17.3485,284.3998],[-63.5748,-17.3485,285.8187],[-63.5781,-17.3438,284.0837],[-63.5829,-17.3433,284.3548],[-63.5852,-17.3446,282.9647],[-63.5859,-17.3411,280.9556],[-63.595,-17.3423,284.9891],[-63.6018,-17.3363,282.0725],[-63.6004,-17.3256,277.5526],[-63.6022,-17.326,279.4461],[-63.6043,-17.3239,277.9422],[-63.6044,-17.3197,275.9937],[-63.6117,-17.3067,273.2169],[-63.6136,-17.3059,278.5811],[-63.6122,-17.302,273.8645],[-63.6105,-17.3023,274.3284],[-63.6073,-17.2994,275.6169],[-63.6073,-17.297,275.7475],[-63.6055,-17.2972,276.5986],[-63.6055,-17.2938,276.3679],[-63.6014,-17.2931,271.6706],[-63.6029,-17.2914,276.6961],[-63.6022,-17.2896,274.7233],[-63.5957,-17.2866,272.8514],[-63.5926,-17.2803,271.3073],[-63.5955,-17.2762,268.3441],[-63.5985,-17.2759,279.5449],[-63.5978,-17.2723,270.7323],[-63.6035,-17.2652,272.6517],[-63.6015,-17.2548,270.6225],[-63.5964,-17.2496,267.683],[-63.5997,-17.2487,267.3708],[-63.5994,-17.2452,264.5637],[-63.601,-17.244,265.3224],[-63.602,-17.2353,263.8156],[-63.6006,-17.2288,261.518],[-63.6025,-17.2238,259.255],[-63.602,-17.2191,258.331],[-63.6071,-17.205,256.8325],[-63.6054,-17.2018,254.9111],[-63.6115,-17.1984,258.9816],[-63.6104,-17.1964,256.4101],[-63.6126,-17.1892,259.4126],[-63.6117,-17.1857,261.9984],[-63.6164,-17.1742,259.5961],[-63.6191,-17.1719,254.1615],[-63.6129,-17.1637,263.4453],[-63.616,-17.1619,260.6544],[-63.6171,-17.1591,259.0657],[-63.616,-17.1578,258.6691],[-63.6187,-17.1565,258.876],[-63.6168,-17.155,255.7701],[-63.6177,-17.1521,253.998],[-63.6161,-17.1511,255.9698],[-63.6155,-17.147,253.5323],[-63.611,-17.1436,254.1429],[-63.6128,-17.1426,254.3071],[-63.6125,-17.1393,253.1597],[-63.6163,-17.1388,251.1662],[-63.6184,-17.1351,251.675],[-63.6245,-17.1335,253.2366],[-63.6282,-17.1281,252.2252],[-63.6306,-17.1286,248.9202],[-63.6311,-17.1266,250.8035],[-63.6332,-17.1261,252.506],[-63.6324,-17.1232,250.2656],[-63.6339,-17.1209,251.3813],[-63.638,-17.1204,250.7815],[-63.6382,-17.1181,252.259],[-63.642,-17.1141,250.1436],[-63.6408,-17.1111,249.3344],[-63.6383,-17.11,247.8093],[-63.64,-17.1098,249.3344],[-63.6395,-17.1089,247.8724],[-63.6416,-17.1098,249.903],[-63.6419,-17.1054,246.2962],[-63.6464,-17.1051,248.9761],[-63.6453,-17.1013,247.6404],[-63.6475,-17.0998,246.7418],[-63.6504,-17.101,249.1532],[-63.6527,-17.098,250.055],[-63.6551,-17.0978,250.934],[-63.6549,-17.0995,250.8068],[-63.6595,-17.0992,251.2079],[-63.6597,-17.1005,250.5351],[-63.6631,-17.0984,250.732],[-63.6646,-17.0952,250.4005],[-63.6629,-17.0923,247.0218],[-63.6669,-17.0898,248.6732],[-63.6648,-17.0835,251.7573],[-63.6665,-17.0828,248.0716],[-63.6663,-17.0784,250.4499],[-63.6697,-17.0767,247.4729],[-63.6688,-17.0756,250.9554],[-63.6734,-17.068,246.5587],[-63.6774,-17.068,246.9767],[-63.6785,-17.0656,243.4825],[-63.6808,-17.0671,248.1799],[-63.6828,-17.0651,247.8644],[-63.6823,-17.0632,247.0043],[-63.6852,-17.0653,247.5663],[-63.6861,-17.0628,244.3715],[-63.6849,-17.062,244.3715],[-63.6878,-17.0595,250.1666],[-63.6869,-17.0565,247.2107],[-63.689,-17.0546,249.4723],[-63.6943,-17.0547,244.5739],[-63.6956,-17.0529,250.5785],[-63.6972,-17.056,247.2177],[-63.7,-17.0568,243.1748],[-63.7011,-17.0538,244.4824],[-63.7073,-17.0532,247.441],[-63.7079,-17.055,244.7549],[-63.7098,-17.0549,244.1077],[-63.7126,-17.053,247.3333],[-63.7157,-17.0555,242.6039],[-63.7213,-17.0453,247.3393],[-63.7276,-17.0508,244.4539],[-63.7272,-17.0468,243.6344],[-63.7296,-17.046,246.9041],[-63.7333,-17.0409,242.1338],[-63.7361,-17.0401,239.5155],[-63.7363,-17.0377,239.516],[-63.7338,-17.0353,242.0844],[-63.7353,-17.0335,242.6281],[-63.7335,-17.0317,240.7104],[-63.7379,-17.0292,240.4941],[-63.7366,-17.0267,240.3657],[-63.7386,-17.0227,235.0153],[-63.742,-17.0219,237.1839],[-63.7441,-17.0192,238.9799],[-63.7433,-17.0163,236.4188],[-63.7451,-17.0105,243.3207],[-63.7477,-17.009,236.4038],[-63.7469,-17.0007,240.9544],[-63.7501,-16.9989,239.7176],[-63.753,-17.0005,240.8146],[-63.7554,-16.9997,239.9677],[-63.7569,-17.0029,236.8002],[-63.7561,-17.0062,233.5],[-63.7593,-17.0075,233.5],[-63.7631,-16.9964,233.8071],[-63.7664,-16.9942,239.1428],[-63.7713,-16.995,240.0198],[-63.772,-16.9939,236.7552],[-63.7728,-16.9969,239.0291],[-63.7743,-16.997,239.0291],[-63.7761,-16.9962,240.2299],[-63.7758,-16.9945,239.9771],[-63.7772,-16.9954,239.0725],[-63.7801,-16.9887,238.7147],[-63.7826,-16.9886,240.5681],[-63.7829,-16.99,238.8463],[-63.7837,-16.989,240.8121],[-63.7845,-16.9907,238.8463],[-63.7862,-16.9892,241.41309999999999],[-63.7867,-16.9908,239.4287],[-63.7881,-16.9901,238.9781],[-63.7878,-16.9917,238.8306],[-63.7916,-16.9889,239.14],[-63.7915,-16.9872,238.1638],[-63.7963,-16.9874,238.0872],[-63.7973,-16.9851,237.1438],[-63.7997,-16.9853,237.9606],[-63.7994,-16.987,237.9859],[-63.8017,-16.9862,236.7199],[-63.8011,-16.9889,237.9526],[-63.8055,-16.9893,237.1879],[-63.8067,-16.9872,239.3412],[-63.809,-16.9876,238.465],[-63.8088,-16.986,240.129],[-63.813,-16.986,240.6802],[-63.8137,-16.9875,237.2237],[-63.8147,-16.9859,242.8215],[-63.8153,-16.9867,237.2237],[-63.8146,-16.9889,235.7377],[-63.8164,-16.9876,239.1227],[-63.8173,-16.9885,236.7625],[-63.8165,-16.9917,236.7812],[-63.8207,-16.9941,237.8919],[-63.8248,-16.9903,239.7848],[-63.8262,-16.9918,236.269],[-63.8276,-16.9878,237.7979],[-63.8314,-16.9887,238.3608],[-63.8331,-16.9872,236.8934],[-63.8346,-16.9886,237.8092],[-63.8353,-16.9858,238.98],[-63.8359,-16.9876,237.7406],[-63.8389,-16.9886,237.7275],[-63.8392,-16.9843,239.5222],[-63.8417,-16.9856,236.7483],[-63.8436,-16.9825,240.6154],[-63.845,-16.9839,236.5116],[-63.8491,-16.9802,237.7759],[-63.8509,-16.9811,237.1311],[-63.8521,-16.9795,241.6405],[-63.8526,-16.9808,237.1311],[-63.8554,-16.9764,239.0909],[-63.857,-16.9784,241.0054],[-63.861,-16.9762,240.3044],[-63.8616,-16.9803,241.1405],[-63.8675,-16.9804,239.8595],[-63.8661,-16.9763,242.1935],[-63.8697,-16.9771,239.109],[-63.8742,-16.9755,243.7155],[-63.8751,-16.9739,242.5068],[-63.8721,-16.9732,243.7438],[-63.8721,-16.9714,242.8113],[-63.8776,-16.969,239.9072],[-63.8789,-16.9669,242.5544],[-63.8818,-16.969,240.94],[-63.8807,-16.9712,240.7915],[-63.8842,-16.9726,238.8535],[-63.888,-16.9716,245.1306],[-63.8863,-16.9685,240.6135],[-63.8892,-16.9668,243.7841],[-63.8961,-16.9693,241.603],[-63.903,-16.9659,239.8883],[-63.9065,-16.9679,240.1808],[-63.9111,-16.9681,238.5322],[-63.9117,-16.9658,264.5008],[-63.9151,-16.9664,238.4337],[-63.9247,-16.9631,238.6316],[-63.9274,-16.9646,238.6733],[-63.9262,-16.9663,237.5641],[-63.9291,-16.9678,238.5264],[-63.9291,-16.9696,240.4932],[-63.932,-16.969,238.9952],[-63.9329,-16.9703,239.5629],[-63.9345,-16.9675,237.3681],[-63.9337,-16.9658,238.0316],[-63.9354,-16.9663,240.2586],[-63.9373,-16.9643,240.1304],[-63.9368,-16.9623,237.3752],[-63.9347,-16.9635,235.5241],[-63.9358,-16.9613,237.3752],[-63.9345,-16.9616,235.2371],[-63.9348,-16.9598,244.9296],[-63.9401,-16.9591,254.1584],[-63.9496,-16.9614,236.3002],[-63.9531,-16.9593,240.3911],[-63.954,-16.9572,238.6724],[-63.9523,-16.9561,238.7528],[-63.9548,-16.9562,234.3402],[-63.9547,-16.9543,237.4645],[-63.9531,-16.9547,238.7528],[-63.9546,-16.9499,234.24],[-63.9616,-16.9478,235.7441],[-63.9606,-16.9455,235.6401],[-63.9641,-16.9444,232.4199],[-63.9626,-16.9431,236.2175],[-63.9596,-16.9451,236.4485],[-63.9601,-16.9424,237.9547],[-63.9578,-16.9434,235.066],[-63.9569,-16.9415,235.0085],[-63.956,-16.9426,235.0085],[-63.955,-16.9401,239.01],[-63.9574,-16.9375,237.2622],[-63.9534,-16.9384,238.7104],[-63.9486,-16.9345,234.7788],[-63.9492,-16.9323,232.9112],[-63.9479,-16.9319,232.9112],[-63.9507,-16.9304,233.0058],[-63.9499,-16.9286,233.8917],[-63.9517,-16.9284,234.6691],[-63.9504,-16.9258,236.1188],[-63.9538,-16.9263,233.5317],[-63.9555,-16.9245,242.737],[-63.9588,-16.9241,233.803],[-63.9573,-16.9224,244.271],[-63.9585,-16.9207,234.8461],[-63.9565,-16.9207,238.0645],[-63.9598,-16.9196,238.6002],[-63.9592,-16.9175,237.2837],[-63.9563,-16.9167,234.7387],[-63.9576,-16.9156,236.0526],[-63.9562,-16.9148,236.0526],[-63.9534,-16.9174,236.0051],[-63.9534,-16.9154,234.2437],[-63.9499,-16.9142,234.4213],[-63.9551,-16.9133,233.6108],[-63.9545,-16.909,239.8549],[-63.9602,-16.9038,230.5733],[-63.9569,-16.9035,237.0804],[-63.957,-16.9015,231.7122],[-63.9534,-16.9008,236.4375],[-63.9561,-16.8985,233.8755],[-63.9562,-16.8956,236.1756],[-63.9596,-16.898,234.1764],[-63.9585,-16.8965,232.473],[-63.9593,-16.8938,231.4434],[-63.9568,-16.8934,239.6813],[-63.9634,-16.8912,234.3222],[-63.9624,-16.8895,235.0292],[-63.9643,-16.8852,231.9693],[-63.9622,-16.884,229.2933],[-63.9625,-16.8819,231.3746],[-63.9594,-16.8803,232.7437],[-63.9619,-16.8787,234.0066],[-63.9595,-16.878,235.0589],[-63.9599,-16.8764,234.8814],[-63.9542,-16.8775,228.0593],[-63.9529,-16.8754,231.6866],[-63.9543,-16.8715,231.669],[-63.9514,-16.8712,231.4209],[-63.9513,-16.8695,234.0794],[-63.9481,-16.8714,234.6659],[-63.9483,-16.8698,227.0999],[-63.9464,-16.8706,227.1683],[-63.9453,-16.8694,231.9156],[-63.9439,-16.8722,227.8968],[-63.9437,-16.8701,230.0205],[-63.9411,-16.8713,234.3897],[-63.9407,-16.8691,234.4554],[-63.9432,-16.8678,233.6938],[-63.9416,-16.8681,226.4824],[-63.9404,-16.8644,235.0501],[-63.9381,-16.8641,233.3865],[-63.937,-16.8618,230.2437],[-63.939,-16.8597,227.2107],[-63.941,-16.8603,228.8695],[-63.9421,-16.8573,228.193],[-63.9443,-16.8588,228.1456],[-63.9428,-16.8563,228.193],[-63.9448,-16.8556,227.7614],[-63.9435,-16.8542,228.59],[-63.9445,-16.8525,227.8199],[-63.9424,-16.8525,228.2345],[-63.9449,-16.8508,230.5655],[-63.9445,-16.8478,230.4449],[-63.9429,-16.8488,227.3116],[-63.9421,-16.8476,227.1394],[-63.9443,-16.8444,231.3275],[-63.9427,-16.8447,227.2113],[-63.9417,-16.8429,231.9127],[-63.9453,-16.842,228.5212],[-63.9461,-16.8432,231.2753],[-63.9465,-16.842,227.676],[-63.9434,-16.841,228.8065],[-63.9425,-16.8371,228.7761],[-63.9406,-16.8381,229.6781],[-63.9398,-16.8368,227.8336],[-63.9422,-16.8361,231.5169],[-63.9409,-16.8343,233.3288],[-63.9449,-16.8311,226.9351],[-63.9458,-16.8289,224.1744],[-63.9448,-16.8277,232.9257],[-63.9468,-16.8288,224.1744],[-63.9468,-16.8266,227.6828],[-63.9493,-16.8253,227.3964],[-63.9481,-16.8234,228.1319],[-63.9458,-16.825,226.8456],[-63.9461,-16.8218,222.7446],[-63.9448,-16.8215,229.7737],[-63.948,-16.8211,222.4929],[-63.9455,-16.82,224.0879],[-63.9486,-16.8177,220.1431],[-63.9475,-16.816,221.7211],[-63.951,-16.817,222.0591],[-63.9508,-16.8187,222.9869],[-63.9526,-16.8163,222.97],[-63.9562,-16.8165,224.7595],[-63.959,-16.812,221.7054],[-63.9608,-16.8129,223.8851],[-63.9596,-16.8089,220.4406],[-63.9612,-16.8088,222.9001],[-63.9577,-16.8073,217.9425],[-63.9596,-16.8052,225.2513],[-63.9612,-16.8066,225.2203],[-63.9599,-16.8037,222.2757],[-63.9625,-16.8049,225.7822],[-63.9696,-16.7986,223.3672],[-63.9721,-16.7986,220.9505],[-63.974,-16.8007,224.8925],[-63.9754,-16.796,229.1472],[-63.9781,-16.7951,225.1528],[-63.9799,-16.7962,218.5353],[-63.9782,-16.7938,224.4627],[-63.9812,-16.7935,224.227],[-63.9825,-16.7905,225.6859],[-63.9827,-16.7933,224.0145],[-63.9857,-16.7933,227.6133],[-63.9858,-16.7911,218.559],[-63.9879,-16.7905,221.0722],[-63.9841,-16.7879,228.985],[-63.9866,-16.7858,223.8082],[-63.9851,-16.7843,220.41],[-63.9869,-16.7827,226.0198],[-63.9896,-16.7839,222.3418],[-63.9906,-16.7788,227.6502],[-63.9941,-16.7795,219.2652],[-63.9936,-16.7781,219.2652],[-63.9956,-16.7764,223.9276],[-63.9999,-16.7754,221.3291],[-64.0015,-16.7704,221.6978],[-64.0025,-16.7721,225.2518],[-64.004,-16.772,221.7321],[-64.0046,-16.7698,218.2552],[-64.0061,-16.7713,219.2767],[-64.0066,-16.7681,224.1471],[-64.004,-16.7666,221.9305],[-64.0055,-16.7618,218.981],[-64.0031,-16.7599,220.6469],[-64.0065,-16.7594,219.7137],[-64.0095,-16.7615,221.8637],[-64.0108,-16.7571,219.8203],[-64.0151,-16.7615,219.5173],[-64.0134,-16.7577,218.8626],[-64.0142,-16.7555,219.4435],[-64.0183,-16.756,217.7073],[-64.0179,-16.7532,220.5262],[-64.0214,-16.7503,215.4881],[-64.0196,-16.7485,219.9884],[-64.0179,-16.7491,220.825],[-64.02,-16.7454,219.4334],[-64.0182,-16.7457,222.089],[-64.0177,-16.7444,225.9719],[-64.0228,-16.7458,213.2562],[-64.0236,-16.7434,218.4951],[-64.0278,-16.743,214.919],[-64.0256,-16.7421,224.0374],[-64.0277,-16.7417,215.8828],[-64.0271,-16.7403,221.4129],[-64.0298,-16.7385,217.8069],[-64.0297,-16.7337,221.4831],[-64.0312,-16.7323,213.8021],[-64.0286,-16.7322,225.1187],[-64.0298,-16.731,215.0872],[-64.0278,-16.7291,215.0698],[-64.0294,-16.7281,215.0698],[-64.0271,-16.7278,223.7614],[-64.03,-16.7207,219.9449],[-64.0289,-16.7196,221.5499],[-64.0303,-16.7187,217.4678],[-64.0278,-16.7174,220.4243],[-64.0309,-16.718,217.4678],[-64.032,-16.7149,220.8377],[-64.0295,-16.7117,219.5179],[-64.0327,-16.7123,217.8302],[-64.0322,-16.7096,216.0861],[-64.0348,-16.7088,213.9895],[-64.0308,-16.7064,216.0311],[-64.0331,-16.7044,213.8767],[-64.031,-16.7045,218.1596],[-64.0321,-16.7022,220.6039],[-64.0288,-16.7021,220.5298],[-64.0292,-16.7003,221.4326],[-64.0311,-16.7001,215.096],[-64.0267,-16.6977,214.8668],[-64.027,-16.6953,211.4821],[-64.0254,-16.6954,220.6237],[-64.0277,-16.6915,218.9177],[-64.0271,-16.6892,211.388],[-64.0247,-16.6879,219.3929],[-64.0264,-16.6841,212.9785],[-64.0247,-16.6802,211.5531],[-64.023,-16.6811,214.9353],[-64.0236,-16.6794,218.5694],[-64.0207,-16.6784,213.6357],[-64.0235,-16.6761,213.9188],[-64.0175,-16.6742,214.5919],[-64.0182,-16.6712,216.5963],[-64.0198,-16.671,214.6714],[-64.0181,-16.6689,212.4344],[-64.0194,-16.6684,212.4344],[-64.0159,-16.6683,218.5801],[-64.0142,-16.6719,213.3633],[-64.0123,-16.6694,214.6342],[-64.0132,-16.6675,213.7493],[-64.0121,-16.6664,213.7493],[-64.0136,-16.6649,210.2556],[-64.0151,-16.6654,210.2556],[-64.012,-16.6634,212.681],[-64.0126,-16.661,218.1277],[-64.0109,-16.6613,220.3813],[-64.0132,-16.6571,212.351],[-64.0105,-16.6573,218.3289],[-64.0127,-16.6559,220.1778],[-64.0155,-16.6552,213.2733],[-64.0164,-16.6523,214.9575],[-64.0183,-16.6541,211.5047],[-64.0187,-16.6498,211.852],[-64.0162,-16.6479,213.55],[-64.0177,-16.6465,209.5889],[-64.0147,-16.6448,211.1675],[-64.0135,-16.6461,211.1675],[-64.0127,-16.6432,211.5891],[-64.011,-16.6436,215.3442],[-64.0108,-16.6415,219.3582],[-64.0137,-16.6393,213.7758],[-64.0105,-16.6389,220.1115],[-64.011,-16.637,218.8244],[-64.0093,-16.6378,218.8244],[-64.0125,-16.6317,210.1209],[-64.0105,-16.6326,220.7852],[-64.0116,-16.6296,216.9097],[-64.0072,-16.6258,209.3559],[-64.0091,-16.6251,209.3559],[-64.0085,-16.6237,212.0775],[-64.01,-16.6251,209.4891],[-64.0113,-16.6236,216.3079],[-64.0097,-16.6215,211.7864],[-64.0062,-16.624,212.7403],[-64.0042,-16.623,215.7313],[-64.0044,-16.6189,213.2492],[-64.0027,-16.6169,215.1046],[-64.005,-16.6152,213.5342],[-64.0023,-16.6126,209.758],[-64.0,-16.6128,210.1077],[-64.0009,-16.6085,205.97],[-63.9973,-16.6044,212.2551],[-63.9977,-16.6012,213.9375],[-63.9945,-16.6014,212.2871],[-63.9946,-16.5985,206.3717],[-63.9981,-16.5967,205.951],[-63.9959,-16.5963,210.5619],[-63.9969,-16.5942,211.6017],[-63.9948,-16.5934,209.0714],[-63.9973,-16.5906,211.2394],[-63.9942,-16.5885,207.8715],[-63.9971,-16.5831,210.1726],[-64.0015,-16.5825,209.7975],[-64.0006,-16.5805,208.2875],[-64.0024,-16.5774,210.9928],[-64.0004,-16.5751,205.774],[-64.0027,-16.5737,206.4601],[-64.0009,-16.5737,209.2125],[-64.0021,-16.5709,212.374],[-64.0,-16.5724,210.1577],[-64.0011,-16.5692,212.1136],[-63.9991,-16.5678,214.4605],[-63.9998,-16.5643,208.0908],[-63.9972,-16.5644,209.8063],[-64.0,-16.5604,207.066],[-63.9971,-16.5596,209.4974],[-63.9978,-16.5571,209.4726],[-63.9959,-16.556,210.7849],[-63.9979,-16.5548,207.6489],[-63.9951,-16.5537,206.9993],[-63.9942,-16.5516,210.6714],[-63.9954,-16.5515,211.3944],[-63.9957,-16.5535,206.9993],[-63.9977,-16.5528,210.5962],[-63.9961,-16.5499,211.9876],[-63.9979,-16.5483,205.53],[-63.9979,-16.5455,209.4641],[-64.0,-16.5464,208.5496],[-64.0001,-16.5445,210.6387],[-64.0024,-16.5458,208.7107],[-64.0018,-16.5418,213.1694],[-64.0047,-16.5448,207.2985],[-64.009,-16.5395,213.513],[-64.0149,-16.5423,208.9595],[-64.0198,-16.5406,210.168],[-64.0224,-16.5443,207.6869],[-64.0229,-16.5396,210.6549],[-64.0286,-16.5392,209.3842],[-64.0311,-16.5453,206.6012],[-64.0351,-16.5453,208.3371],[-64.0347,-16.5508,207.1171],[-64.0363,-16.5467,210.0385],[-64.0388,-16.5485,210.1588],[-64.043,-16.5466,210.7122],[-64.0464,-16.5472,207.9969],[-64.048,-16.5461,205.9366],[-64.0474,-16.5448,205.9366],[-64.0492,-16.5447,202.6346],[-64.0468,-16.5408,205.8895],[-64.0487,-16.5402,201.5751],[-64.0471,-16.5387,207.6814],[-64.0476,-16.5342,203.4669],[-64.0461,-16.5306,209.1724],[-64.0477,-16.529,202.1005],[-64.0536,-16.5305,208.1067],[-64.0509,-16.5285,206.3952],[-64.0537,-16.528,208.2482],[-64.0533,-16.5262,208.8339],[-64.0509,-16.5267,207.1844],[-64.0531,-16.5235,208.0169],[-64.0512,-16.523,207.2926],[-64.0528,-16.5219,207.4469],[-64.0511,-16.5178,206.4935],[-64.0539,-16.5178,207.9707],[-64.0531,-16.5146,205.5426],[-64.0554,-16.5119,205.5743],[-64.0538,-16.509,205.3736],[-64.0523,-16.5092,208.8179],[-64.0535,-16.5073,206.6537],[-64.0523,-16.503,206.3052],[-64.0571,-16.501,208.2051],[-64.0584,-16.4984,207.7345],[-64.0565,-16.4952,207.9551],[-64.0578,-16.4931,205.5772],[-64.0556,-16.4925,207.9034],[-64.0573,-16.4895,209.2396],[-64.0547,-16.4879,208.6048],[-64.058,-16.4872,207.0324],[-64.058,-16.4852,203.8825],[-64.0599,-16.484,205.5855],[-64.059,-16.4818,208.1962],[-64.0606,-16.481,207.4598],[-64.0586,-16.4795,208.2659],[-64.0578,-16.4816,206.3311],[-64.0574,-16.4787,207.7169],[-64.056,-16.4786,208.3718],[-64.0572,-16.4778,205.7789],[-64.054,-16.4774,207.2661],[-64.0556,-16.4745,207.8885],[-64.0535,-16.4754,208.0886],[-64.0525,-16.4734,207.1958],[-64.0502,-16.474,198.2471],[-64.0504,-16.4708,207.8178],[-64.0526,-16.4698,204.4866],[-64.053,-16.4663,207.0186],[-64.0549,-16.4654,203.5272],[-64.0541,-16.4644,200.2538],[-64.0567,-16.4629,203.4775],[-64.0557,-16.4616,206.5098],[-64.067,-16.4521,202.4754],[-64.0656,-16.4508,205.9117],[-64.0671,-16.4509,206.6874],[-64.0668,-16.4492,206.0125],[-64.0644,-16.449,198.0505],[-64.0633,-16.4429,208.7341],[-64.0673,-16.4416,199.3605],[-64.068,-16.4395,199.4364],[-64.0704,-16.4394,205.6276],[-64.0757,-16.4267,202.1051],[-64.0791,-16.4251,204.1406],[-64.08,-16.42,205.2469],[-64.078,-16.4179,205.1235],[-64.0769,-16.4196,205.0639],[-64.0736,-16.4185,204.8307],[-64.0719,-16.416,201.2375],[-64.0729,-16.4149,201.2375],[-64.07,-16.4131,204.4056],[-64.0726,-16.4113,201.6444],[-64.0717,-16.4092,199.2923],[-64.0731,-16.4072,204.335],[-64.0701,-16.407,196.7438],[-64.0684,-16.3999,197.6404],[-64.0657,-16.3995,200.0458],[-64.0683,-16.3966,200.8915],[-64.0662,-16.3957,202.2884],[-64.0684,-16.3907,195.9936],[-64.0671,-16.3876,201.9489],[-64.0611,-16.3884,199.1548],[-64.061,-16.3849,200.7065],[-64.0593,-16.3861,199.4236],[-64.055,-16.3824,200.63],[-64.0562,-16.3802,199.7138],[-64.054,-16.377,191.9442],[-64.0572,-16.3746,199.8604],[-64.0587,-16.377,197.4489],[-64.0615,-16.3777,199.7093],[-64.063,-16.3757,202.6627],[-64.0645,-16.3767,196.2378],[-64.0625,-16.3743,192.093],[-64.0634,-16.3726,199.3688],[-64.0655,-16.3755,199.5952],[-64.0672,-16.374,200.6846],[-64.0666,-16.3725,199.5756],[-64.0717,-16.3715,199.1764],[-64.0717,-16.3701,199.6243],[-64.0698,-16.3709,199.4763],[-64.0709,-16.369,201.6595],[-64.0685,-16.3686,198.8769],[-64.07,-16.3657,198.3043],[-64.0689,-16.3648,198.3043],[-64.0701,-16.3635,201.2698],[-64.0712,-16.3645,199.2155],[-64.0708,-16.358,198.4952],[-64.0737,-16.358,191.2054],[-64.0719,-16.3556,194.3878],[-64.0765,-16.354,197.7733],[-64.0768,-16.351,198.6407],[-64.0752,-16.3504,198.6407],[-64.0779,-16.3447,198.0236],[-64.0756,-16.3443,196.9776],[-64.0765,-16.343,196.9776],[-64.0751,-16.3426,196.9982],[-64.073,-16.3457,194.1595],[-64.0723,-16.3427,198.1998],[-64.0708,-16.3425,198.1653],[-64.0728,-16.3403,198.1361],[-64.0706,-16.3397,200.8438],[-64.0705,-16.3371,199.9046],[-64.0677,-16.3371,197.1094],[-64.0696,-16.3348,200.0465],[-64.0753,-16.3332,200.2293],[-64.0751,-16.33,199.6287],[-64.0707,-16.328,203.5425],[-64.0749,-16.3247,199.4058],[-64.0751,-16.3202,194.9431],[-64.0803,-16.3195,201.6301],[-64.0819,-16.3218,195.4784],[-64.0808,-16.3236,198.7351],[-64.0832,-16.3232,196.9337],[-64.0834,-16.3193,194.4424],[-64.0858,-16.3156,189.4639],[-64.0877,-16.3191,190.8026],[-64.0919,-16.3192,194.3929],[-64.0914,-16.312,193.1235],[-64.0931,-16.3097,192.8887],[-64.0988,-16.3102,196.4453],[-64.0986,-16.3133,197.5823],[-64.1047,-16.315,193.7633],[-64.1054,-16.3134,192.8139],[-64.1038,-16.3115,198.0204],[-64.1074,-16.3108,193.5234],[-64.1033,-16.3089,191.5681],[-64.1051,-16.3055,196.092],[-64.1082,-16.3072,190.1319],[-64.114,-16.3052,195.0334],[-64.1135,-16.312,193.5051],[-64.1161,-16.3119,191.7218],[-64.1157,-16.3093,188.8625],[-64.1185,-16.3073,193.3398],[-64.1163,-16.3052,192.6393],[-64.1176,-16.3016,193.21],[-64.1229,-16.2995,192.8051],[-64.1245,-16.3007,193.0502],[-64.1262,-16.2985,189.3443],[-64.1274,-16.3004,188.9548],[-64.1263,-16.3051,195.8169],[-64.1291,-16.3066,189.0171],[-64.129,-16.3084,190.6711],[-64.1322,-16.3078,189.8277],[-64.1353,-16.3015,186.6153],[-64.1329,-16.2975,190.1164],[-64.135,-16.2945,185.4595],[-64.1349,-16.2906,185.4699],[-64.1419,-16.285,187.3925],[-64.1468,-16.2857,186.1746],[-64.1483,-16.2828,187.5138],[-64.1442,-16.2797,185.2458],[-64.1428,-16.2817,189.8382],[-64.1417,-16.2812,192.9012],[-64.1435,-16.2779,185.6853],[-64.1458,-16.2774,185.986],[-64.1456,-16.2743,190.668],[-64.1499,-16.2777,188.5647],[-64.1506,-16.2821,189.2342],[-64.1551,-16.28,184.6742],[-64.1568,-16.2769,184.1395],[-64.1563,-16.2745,184.7194],[-64.1538,-16.2738,185.8751],[-64.1547,-16.2727,188.9081],[-64.157,-16.2726,190.7832],[-64.1582,-16.2761,184.9879],[-64.1613,-16.2773,184.7981],[-64.1605,-16.2743,187.4103],[-64.1637,-16.2734,188.8406],[-64.1626,-16.2765,183.4254],[-64.1643,-16.2789,183.6501],[-64.1637,-16.2812,184.1673],[-64.1653,-16.2806,184.1673],[-64.1669,-16.2761,185.3943],[-64.17,-16.2761,183.7557],[-64.1696,-16.2726,184.0521],[-64.1716,-16.2734,183.9112],[-64.1742,-16.2715,183.3633],[-64.1783,-16.2767,183.8952],[-64.1887,-16.2685,188.043],[-64.1934,-16.2687,187.732],[-64.1953,-16.2711,183.5299],[-64.2019,-16.2728,184.9489],[-64.2038,-16.2695,183.8246],[-64.2079,-16.2705,183.5642],[-64.2091,-16.2671,183.5574],[-64.2093,-16.2698,183.5929],[-64.2124,-16.2739,183.687],[-64.2164,-16.2716,183.6814],[-64.2165,-16.2663,184.4142],[-64.2196,-16.2701,184.5754],[-64.2209,-16.2655,187.7676],[-64.2268,-16.2668,196.2873],[-64.2252,-16.2635,189.3083],[-64.2287,-16.2571,192.4727],[-64.2306,-16.2574,184.8199],[-64.2303,-16.2618,193.9337],[-64.2317,-16.2627,191.1915],[-64.2374,-16.2608,192.0029],[-64.2363,-16.2542,187.7256],[-64.2327,-16.2517,185.0423],[-64.2268,-16.2503,185.624],[-64.2216,-16.2543,187.7641],[-64.2201,-16.2529,190.7474],[-64.2212,-16.2491,189.9461],[-64.2257,-16.2467,193.6156],[-64.2254,-16.2398,191.0455],[-64.2324,-16.2415,192.5325],[-64.2347,-16.2382,184.2784],[-64.2358,-16.2406,189.3138],[-64.239,-16.24,181.0],[-64.2395,-16.235,196.4013],[-64.2344,-16.2338,187.1176],[-64.2438,-16.2289,185.5262],[-64.2441,-16.2272,184.961],[-64.2414,-16.2262,195.1732],[-64.2376,-16.2281,197.1693],[-64.2351,-16.2276,189.5537],[-64.2355,-16.2171,195.0719],[-64.2325,-16.2122,186.5974],[-64.2335,-16.2092,197.7313],[-64.2375,-16.2126,184.3145],[-64.2412,-16.2126,185.9053],[-64.2373,-16.2053,190.8458],[-64.2315,-16.2024,187.454],[-64.2325,-16.1999,185.0872],[-64.2378,-16.2024,180.0],[-64.2404,-16.1999,193.7375],[-64.2383,-16.1952,185.0719],[-64.2331,-16.1951,187.3551],[-64.2328,-16.1935,184.0297],[-64.2358,-16.189,186.3815],[-64.2404,-16.1879,196.6546],[-64.232,-16.1863,185.8682],[-64.2315,-16.1843,188.8013],[-64.2418,-16.1764,197.3777],[-64.2347,-16.1736,183.7353],[-64.2362,-16.1733,185.7331],[-64.2384,-16.1682,192.9312],[-64.2405,-16.1698,193.4171],[-64.2427,-16.1676,194.235],[-64.2448,-16.1701,196.07],[-64.2533,-16.1637,195.2111],[-64.2566,-16.1649,195.2684],[-64.2562,-16.1596,197.8667],[-64.2574,-16.1589,194.0305],[-64.261,-16.16,194.1573],[-64.2638,-16.1657,195.3498],[-64.2669,-16.1647,196.9253],[-64.2683,-16.1627,193.1638],[-64.2655,-16.1607,194.5781],[-64.2654,-16.159,198.335],[-64.2688,-16.154,193.368],[-64.2734,-16.1547,198.1718],[-64.2748,-16.1502,194.191],[-64.281,-16.1456,190.9864],[-64.28,-16.1428,197.392],[-64.2903,-16.137,191.7749],[-64.2893,-16.132,190.5018],[-64.2853,-16.1334,192.1149],[-64.2853,-16.1316,194.9753],[-64.2894,-16.1238,189.645],[-64.2924,-16.1232,192.0357],[-64.2928,-16.1196,193.0516],[-64.2979,-16.1172,190.9334],[-64.297,-16.115,193.1947],[-64.2981,-16.1127,193.5307],[-64.3013,-16.1141,192.7321],[-64.3033,-16.1122,191.8291],[-64.3085,-16.1138,190.4871],[-64.3123,-16.1124,191.2302],[-64.3136,-16.115,191.5086],[-64.315,-16.1128,194.7022],[-64.3197,-16.1148,191.2744],[-64.3228,-16.1077,191.0984],[-64.3184,-16.1025,192.9784],[-64.321,-16.0998,191.198],[-64.3208,-16.098,188.943],[-64.3183,-16.0976,189.5354],[-64.3174,-16.0954,191.0605],[-64.3185,-16.0923,190.6659],[-64.3223,-16.0896,192.4135],[-64.3224,-16.0864,189.5419],[-64.3265,-16.0867,192.2531],[-64.3227,-16.082,188.8536],[-64.3292,-16.0756,188.6832],[-64.3253,-16.0703,193.2103],[-64.3275,-16.0684,188.7433],[-64.3285,-16.0707,188.6074],[-64.3298,-16.0705,188.6074],[-64.3304,-16.0677,189.1283],[-64.3345,-16.0658,190.9358],[-64.3352,-16.0624,189.0503],[-64.3385,-16.0636,189.4442],[-64.344,-16.0604,190.8016],[-64.3443,-16.0511,183.1425],[-64.3572,-16.0423,187.7702],[-64.3611,-16.043,191.8651],[-64.3649,-16.0399,187.512],[-64.3694,-16.0423,187.6399],[-64.3766,-16.0392,188.4277],[-64.3836,-16.0419,186.3524],[-64.383,-16.038,186.9225],[-64.385,-16.0369,187.9232],[-64.389,-16.0386,186.7918],[-64.3919,-16.0377,189.3794],[-64.3943,-16.0425,187.5704],[-64.402,-16.0485,188.9462],[-64.4038,-16.0423,190.6758],[-64.4096,-16.0446,190.8884],[-64.4182,-16.0384,185.2888],[-64.4172,-16.0352,185.2173],[-64.4229,-16.0326,186.2165],[-64.4232,-16.0227,186.3954],[-64.4267,-16.0237,185.1638],[-64.4309,-16.0221,184.296],[-64.431,-16.0263,182.738],[-64.4365,-16.0284,185.7753],[-64.4428,-16.0265,185.8957],[-64.4445,-16.0293,183.5341],[-64.4467,-16.0276,187.721],[-64.4461,-16.0227,177.8188],[-64.4528,-16.0262,182.0297],[-64.4537,-16.0223,189.1996],[-64.4518,-16.0196,184.7029],[-64.4528,-16.0173,180.2859],[-64.455,-16.0157,181.3955],[-64.4606,-16.0179,185.7118],[-64.4679,-16.0069,177.1662],[-64.4671,-15.9964,181.5126],[-64.4631,-15.9939,179.7584],[-64.4621,-15.9886,179.7519],[-64.4635,-15.9872,182.6389],[-64.4602,-15.9853,181.517],[-64.4621,-15.9807,180.4478],[-64.4639,-15.9809,180.4478],[-64.4665,-15.9886,183.2728],[-64.471,-15.987,177.2484],[-64.4713,-15.9936,178.5903],[-64.4731,-15.9964,183.0749],[-64.4781,-15.9933,178.1592],[-64.486,-15.9967,174.4902],[-64.491,-15.9969,178.0231],[-64.4943,-15.9953,177.2859],[-64.4979,-16.0008,180.3753],[-64.5106,-16.0021,180.5377],[-64.5073,-15.9982,183.7887],[-64.5075,-15.9961,179.0492],[-64.5097,-15.9966,182.8714],[-64.5116,-15.9995,186.4295],[-64.5149,-15.9974,182.0537],[-64.5087,-15.9931,175.879],[-64.5128,-15.9886,183.2699],[-64.5256,-15.9835,187.2228],[-64.5249,-15.9765,181.1988],[-64.522,-15.9766,186.631],[-64.5156,-15.973,179.9681],[-64.5182,-15.972,168.6773],[-64.5191,-15.966,185.4816],[-64.5283,-15.9629,169.4706],[-64.5399,-15.9622,168.3048],[-64.5452,-15.9638,172.46],[-64.5503,-15.9681,181.1509],[-64.5523,-15.9675,174.7524],[-64.5503,-15.955,172.6917],[-64.5447,-15.95,174.3475],[-64.543,-15.9454,166.7399],[-64.5342,-15.9481,182.1019],[-64.5286,-15.9394,169.9238],[-64.528,-15.9376,174.6122],[-64.531,-15.9306,167.366],[-64.5362,-15.9277,172.6571],[-64.5403,-15.9279,171.9989],[-64.5421,-15.9299,178.1446],[-64.5398,-15.9366,168.0212],[-64.5474,-15.9388,166.836],[-64.555,-15.9145,171.6127],[-64.56,-15.9168,172.6421],[-64.5635,-15.9252,170.3978],[-64.5624,-15.9269,175.3231],[-64.5572,-15.925,172.9502],[-64.5532,-15.9263,176.7752],[-64.5535,-15.9289,183.9359],[-64.5592,-15.9349,178.3547],[-64.5633,-15.9281,171.1627],[-64.5698,-15.9254,163.0],[-64.5717,-15.9195,174.6011],[-64.5773,-15.9169,165.8055],[-64.5791,-15.9212,179.9223],[-64.578,-15.9248,166.1595],[-64.5708,-15.9313,166.0243],[-64.57,-15.9339,166.2769],[-64.5729,-15.9348,172.324],[-64.5905,-15.9269,168.2686],[-64.5928,-15.9305,166.3475],[-64.587,-15.9367,176.6074],[-64.5874,-15.9393,181.5575],[-64.59,-15.9396,187.6903],[-64.5991,-15.9311,166.026],[-64.6028,-15.924,162.5],[-64.6016,-15.9216,171.4055],[-64.5934,-15.9232,162.5],[-64.5924,-15.9141,166.791],[-64.6157,-15.9135,167.6619],[-64.6182,-15.9097,164.7379],[-64.6192,-15.9027,165.2961],[-64.6317,-15.8976,162.5],[-64.6237,-15.8844,170.6066],[-64.6227,-15.8803,164.9633],[-64.624,-15.8773,170.4101],[-64.6368,-15.8776,163.9655],[-64.6392,-15.8844,164.1158],[-64.6473,-15.8882,175.9707],[-64.6501,-15.887,167.5148],[-64.6518,-15.8818,168.6826],[-64.6535,-15.8812,177.922],[-64.6588,-15.8896,169.7544],[-64.6654,-15.8901,163.3045],[-64.6759,-15.8738,164.7848],[-64.6904,-15.865,169.6376],[-64.69,-15.8582,167.4795],[-64.6936,-15.8553,166.8367],[-64.6931,-15.8521,164.1723],[-64.6893,-15.8451,164.3852],[-64.6828,-15.8403,162.0],[-64.6858,-15.8374,166.0195],[-64.6948,-15.8369,163.5913],[-64.6973,-15.8298,173.7189],[-64.6926,-15.826,168.3206],[-64.6997,-15.824,165.4586],[-64.7117,-15.8271,163.0496],[-64.7139,-15.8241,162.6797],[-64.7079,-15.8199,172.7122],[-64.7095,-15.817,164.1997],[-64.7169,-15.8177,162.7493],[-64.7188,-15.8232,169.1089],[-64.7222,-15.8232,169.1465],[-64.7239,-15.82,163.2455],[-64.7189,-15.8053,175.0846],[-64.7206,-15.8035,161.5],[-64.7262,-15.8039,164.756],[-64.7297,-15.802,165.4082],[-64.729,-15.8139,163.915],[-64.7304,-15.8199,162.8537],[-64.7332,-15.8257,164.8454],[-64.7432,-15.838,163.0],[-64.745,-15.8521,163.0],[-64.7503,-15.8611,163.0],[-64.7512,-15.8666,166.2351],[-64.749,-15.8709,163.0],[-64.7364,-15.8747,165.7566],[-64.7303,-15.8792,164.0255],[-64.723,-15.8968,163.0],[-64.7252,-15.9019,163.0],[-64.7292,-15.9031,163.0],[-64.74,-15.8922,170.3041],[-64.7459,-15.8912,169.6023],[-64.7466,-15.8971,163.0],[-64.7326,-15.9082,169.1303],[-64.7304,-15.9113,169.2991],[-64.7297,-15.9177,169.5368],[-64.7304,-15.9202,163.5],[-64.7349,-15.9226,163.5],[-64.7456,-15.9221,167.5822],[-64.7508,-15.9259,163.75],[-64.7562,-15.9502,164.0],[-64.7537,-15.9531,167.8061],[-64.7331,-15.9488,165.2728],[-64.7268,-15.9512,164.5],[-64.7261,-15.9556,165.0],[-64.7329,-15.9705,165.0],[-64.7417,-15.9794,165.5],[-64.74,-15.9816,168.0376],[-64.7288,-15.9817,166.4134],[-64.7246,-15.9796,165.5],[-64.7241,-15.9685,166.0],[-64.7199,-15.963,169.0429],[-64.7136,-15.9631,169.7345],[-64.7095,-15.9675,166.0],[-64.711,-15.9777,167.0859],[-64.7316,-15.9932,167.0],[-64.7336,-15.9961,168.1202],[-64.7341,-16.0027,167.959],[-64.731,-16.0062,167.0],[-64.7175,-16.0014,168.404],[-64.7087,-16.0009,169.4285],[-64.7024,-16.0046,167.5],[-64.7009,-16.007,168.5423],[-64.7015,-16.0116,167.5],[-64.7057,-16.0125,167.5],[-64.7158,-16.0087,167.5],[-64.7232,-16.0095,169.7051],[-64.7267,-16.0122,173.0273],[-64.7305,-16.0189,171.8748],[-64.7327,-16.0345,168.0],[-64.7316,-16.0369,171.4056],[-64.7268,-16.0391,168.0],[-64.7237,-16.0386,168.0],[-64.7195,-16.0341,168.0],[-64.7204,-16.0284,168.0],[-64.7259,-16.0216,170.224],[-64.7233,-16.0172,168.3888],[-64.7193,-16.0185,171.0509],[-64.7143,-16.0242,168.0],[-64.7025,-16.0287,168.0],[-64.702,-16.0349,172.4023],[-64.716,-16.0588,168.0],[-64.7135,-16.0627,169.5717],[-64.7095,-16.0642,171.8081],[-64.7047,-16.0614,169.6503],[-64.699,-16.0537,170.3252],[-64.6932,-16.0542,173.509],[-64.6951,-16.0683,177.1524],[-64.6905,-16.0756,170.7657],[-64.6901,-16.0808,176.9642],[-64.6929,-16.0847,176.5678],[-64.6973,-16.0865,168.5],[-64.6994,-16.0856,169.2838],[-64.7015,-16.0824,172.0652],[-64.7005,-16.0761,177.9701],[-64.7025,-16.0698,173.9076],[-64.708,-16.0664,172.024],[-64.7116,-16.066,169.1843],[-64.7189,-16.069,169.7029],[-64.7222,-16.0721,169.7336],[-64.727,-16.0777,170.2198],[-64.7272,-16.0812,170.0664],[-64.7151,-16.0823,170.548],[-64.7079,-16.0889,172.1941],[-64.698,-16.0879,168.5],[-64.6919,-16.0901,172.6158],[-64.6884,-16.0942,175.4043],[-64.6887,-16.0981,170.9101],[-64.6968,-16.1021,173.0548],[-64.6997,-16.1065,170.0126],[-64.6978,-16.1109,170.0422],[-64.6888,-16.1164,169.0],[-64.6864,-16.1165,170.4948],[-64.6829,-16.1138,167.9222],[-64.6822,-16.1034,168.4886],[-64.6779,-16.0987,167.5],[-64.6678,-16.0943,175.482],[-64.6634,-16.0971,173.3896],[-64.6693,-16.1066,169.0234],[-64.6717,-16.1152,168.5],[-64.6749,-16.1184,174.5866],[-64.6827,-16.1215,176.435],[-64.6845,-16.1245,170.9769],[-64.6835,-16.1286,169.52],[-64.6737,-16.1373,172.13],[-64.6724,-16.1419,169.5],[-64.6739,-16.1538,169.5],[-64.6819,-16.1699,169.9206],[-64.6817,-16.1814,170.0],[-64.6842,-16.1848,170.0],[-64.6877,-16.1862,173.1901],[-64.6918,-16.1841,176.5092],[-64.6936,-16.1806,171.1498],[-64.6909,-16.1705,170.5],[-64.6946,-16.1691,177.2041],[-64.7004,-16.1775,173.88],[-64.7073,-16.1824,170.5],[-64.7082,-16.1859,170.5],[-64.7066,-16.1898,172.8886],[-64.7037,-16.1918,170.5],[-64.6833,-16.2013,173.4479],[-64.6715,-16.2049,171.0],[-64.67,-16.2084,174.2281],[-64.6721,-16.2236,172.0461],[-64.6774,-16.2356,171.9447],[-64.6745,-16.2398,177.7753],[-64.6659,-16.2418,174.9541],[-64.6663,-16.2502,176.7055],[-64.6648,-16.2568,174.1032],[-64.6734,-16.2611,172.0],[-64.6841,-16.2734,174.2402],[-64.6932,-16.2855,176.1836],[-64.6928,-16.2931,174.719],[-64.6899,-16.2956,172.5],[-64.6876,-16.2955,172.5],[-64.6808,-16.2879,172.5],[-64.671,-16.2858,172.5],[-64.6553,-16.2883,173.0],[-64.65,-16.2911,173.3834],[-64.6467,-16.2962,175.3243],[-64.6495,-16.3,173.0],[-64.674,-16.3099,173.0],[-64.6784,-16.3145,184.1049],[-64.6803,-16.3213,173.5],[-64.6777,-16.3243,173.5],[-64.6721,-16.3244,173.5],[-64.656,-16.3163,181.8258],[-64.6509,-16.3151,175.1016],[-64.6463,-16.3164,175.3722],[-64.644,-16.3208,179.2059],[-64.6453,-16.3257,179.6857],[-64.6481,-16.3288,173.5],[-64.6583,-16.3304,174.9288],[-64.6652,-16.3364,174.4625],[-64.6668,-16.3414,174.0],[-64.6657,-16.3579,174.0],[-64.6735,-16.3651,174.8505],[-64.6768,-16.3631,174.4812],[-64.6791,-16.3536,174.8959],[-64.6847,-16.3494,174.0],[-64.7015,-16.3426,174.0],[-64.7059,-16.3429,174.0],[-64.7088,-16.3464,181.8566],[-64.7088,-16.3509,183.4122],[-64.706,-16.355,174.0],[-64.7009,-16.3568,174.0],[-64.692,-16.3563,181.865],[-64.6867,-16.3597,182.0608],[-64.6872,-16.3648,178.5096],[-64.6932,-16.3678,174.0],[-64.6961,-16.3735,176.2438],[-64.6957,-16.3764,176.7234],[-64.6927,-16.3788,176.2368],[-64.6855,-16.3788,174.0],[-64.6645,-16.3711,174.7607],[-64.6599,-16.3718,177.7],[-64.6563,-16.3748,174.0],[-64.6565,-16.3781,175.8332],[-64.6794,-16.408,174.5],[-64.6832,-16.4108,174.5],[-64.6961,-16.4141,180.9925],[-64.6989,-16.4176,178.034],[-64.6985,-16.4217,176.0107],[-64.6952,-16.425,174.5],[-64.6814,-16.4267,180.7469],[-64.6767,-16.4316,175.0],[-64.6784,-16.4361,178.664],[-64.6869,-16.4423,175.0],[-64.6876,-16.4466,175.0],[-64.6856,-16.4523,175.0],[-64.6759,-16.4643,175.0],[-64.6733,-16.474,175.0],[-64.6775,-16.4787,177.841],[-64.6821,-16.4791,177.0753],[-64.692,-16.4708,179.6354],[-64.7026,-16.4685,176.7718],[-64.709,-16.4718,175.0],[-64.7111,-16.4747,176.8071],[-64.7125,-16.4823,181.1139],[-64.7099,-16.4861,182.0024],[-64.7048,-16.4862,178.0882],[-64.6974,-16.4809,175.0],[-64.6918,-16.4798,184.0217],[-64.6884,-16.4824,183.2503],[-64.6879,-16.485,175.0],[-64.6929,-16.4901,175.5],[-64.7084,-16.4934,176.2345],[-64.7112,-16.4958,178.0522],[-64.7115,-16.5026,175.5],[-64.7026,-16.5108,181.5003],[-64.7014,-16.5161,176.0],[-64.7063,-16.5317,176.0],[-64.7112,-16.5363,183.8998],[-64.7207,-16.5354,178.0349],[-64.7264,-16.5293,176.5],[-64.7264,-16.5262,176.5],[-64.7186,-16.5144,177.0],[-64.7199,-16.5095,180.03809999999999],[-64.7228,-16.5078,177.0],[-64.7396,-16.5053,177.5],[-64.746,-16.507,182.3725],[-64.7508,-16.5126,180.8741],[-64.7503,-16.5178,177.5],[-64.7418,-16.5253,184.8336],[-64.7401,-16.534,186.3456],[-64.7426,-16.5385,182.8135],[-64.7574,-16.5446,180.8465],[-64.7612,-16.5511,182.683],[-64.7593,-16.5538,181.7284],[-64.7538,-16.5535,179.6278],[-64.7502,-16.5558,179.0],[-64.7472,-16.5821,179.5],[-64.7486,-16.5901,179.5],[-64.7505,-16.5934,180.0],[-64.765,-16.6049,180.0],[-64.7783,-16.6106,181.3049],[-64.7811,-16.6132,180.5],[-64.7905,-16.6312,188.2008],[-64.7872,-16.6363,181.0],[-64.7722,-16.6374,186.7704],[-64.7575,-16.6526,181.5],[-64.7553,-16.6574,187.1084],[-64.7584,-16.6687,194.7556],[-64.758,-16.6789,186.025],[-64.759,-16.6817,182.659],[-64.7635,-16.6856,182.0],[-64.7685,-16.6867,182.0],[-64.7725,-16.6849,182.7782],[-64.7735,-16.6806,182.0],[-64.767,-16.6646,182.5],[-64.767,-16.6612,185.0945],[-64.7676,-16.6584,184.866],[-64.771,-16.655,186.4045],[-64.7775,-16.6544,183.3663],[-64.7834,-16.6612,188.3611],[-64.7842,-16.6785,183.0],[-64.7875,-16.6857,184.0897],[-64.7928,-16.6905,183.5],[-64.8071,-16.6951,187.1088],[-64.8101,-16.7,184.0],[-64.8093,-16.7074,191.6102],[-64.8065,-16.7115,184.0],[-64.8005,-16.7149,185.5756],[-64.7901,-16.7156,184.5],[-64.7825,-16.7215,184.5],[-64.78,-16.7299,184.5],[-64.7836,-16.7445,192.6303],[-64.7899,-16.7497,185.0],[-64.7951,-16.7489,187.0859],[-64.7983,-16.7448,187.9013],[-64.8,-16.739,185.0],[-64.8039,-16.7352,185.0],[-64.8278,-16.7246,188.2818],[-64.8343,-16.7265,188.4693],[-64.8403,-16.7341,186.0],[-64.8424,-16.7404,193.0095],[-64.841,-16.7456,186.0],[-64.8342,-16.7494,186.0],[-64.8299,-16.7563,186.6116],[-64.8297,-16.7608,186.5],[-64.8355,-16.7714,191.2817],[-64.8342,-16.775,188.3801],[-64.8285,-16.7748,187.5975],[-64.8185,-16.767,196.2905],[-64.8074,-16.7625,185.0],[-64.7988,-16.7632,186.1783],[-64.7946,-16.7663,185.0],[-64.7953,-16.7726,188.4256],[-64.7996,-16.7746,189.7172],[-64.8036,-16.7734,196.7276],[-64.8103,-16.7675,191.2191],[-64.8144,-16.7677,190.4912],[-64.8166,-16.7715,190.5421],[-64.8154,-16.7759,192.5676],[-64.8086,-16.7801,189.2333],[-64.8045,-16.7852,187.0],[-64.8041,-16.792,188.1595],[-64.8017,-16.797,187.381],[-64.7977,-16.798,191.3645],[-64.7886,-16.796,187.7209],[-64.7814,-16.8003,187.6569],[-64.7789,-16.805,192.9412],[-64.7805,-16.8127,187.5],[-64.7902,-16.8185,193.9949],[-64.7926,-16.8242,187.5],[-64.7894,-16.8447,188.4062],[-64.7778,-16.8531,192.7464],[-64.7693,-16.8615,188.3637],[-64.7669,-16.8608,193.614],[-64.7633,-16.8548,202.84],[-64.759,-16.8522,188.0],[-64.7537,-16.8531,194.4288],[-64.7451,-16.8516,201.6463],[-64.7396,-16.8551,195.6868],[-64.7419,-16.861,200.4232],[-64.7661,-16.8663,212.313],[-64.7691,-16.8679,188.0],[-64.7704,-16.8731,196.7031],[-64.7651,-16.8774,190.7177],[-64.7606,-16.8772,188.5],[-64.7548,-16.8745,191.9988],[-64.7447,-16.8661,188.5],[-64.7418,-16.8656,192.4908],[-64.737,-16.8681,191.14],[-64.7364,-16.8715,190.7372],[-64.7385,-16.8777,192.3125],[-64.7476,-16.8831,200.5878],[-64.7583,-16.8862,198.9855],[-64.7608,-16.8907,189.7734],[-64.7568,-16.8968,196.2146],[-64.7515,-16.8979,195.8224],[-64.7438,-16.8942,193.1939],[-64.7405,-16.8865,196.5746],[-64.7346,-16.8861,194.3844],[-64.7322,-16.8881,196.0887],[-64.7288,-16.8934,200.1652],[-64.7281,-16.8994,194.1413],[-64.7326,-16.9024,190.1809],[-64.7382,-16.9022,191.8534],[-64.7443,-16.9045,193.7133],[-64.7502,-16.9119,190.41],[-64.75,-16.9174,189.0],[-64.7484,-16.919,190.1001],[-64.7421,-16.9195,204.2739],[-64.7355,-16.9138,190.9052],[-64.7319,-16.9146,202.4889],[-64.7217,-16.9209,197.4119],[-64.7203,-16.9264,192.1862],[-64.7233,-16.9299,190.2923],[-64.7264,-16.9295,199.8558],[-64.7318,-16.9237,200.3792],[-64.7364,-16.9234,199.0352],[-64.7394,-16.9278,211.8693],[-64.7349,-16.9322,189.5],[-64.7348,-16.938,191.148],[-64.7394,-16.941,195.9226],[-64.7467,-16.9397,192.9165],[-64.7467,-16.9423,194.8442],[-64.7394,-16.9464,198.9726],[-64.7356,-16.952,191.9318],[-64.7294,-16.9544,196.4578],[-64.7232,-16.9517,190.0],[-64.7159,-16.9424,191.9996],[-64.7133,-16.9419,195.9575],[-64.7102,-16.9438,191.8147],[-64.7087,-16.946,197.0422],[-64.7093,-16.9531,197.9688],[-64.7172,-16.9592,194.6213],[-64.7188,-16.9624,195.6835],[-64.7172,-16.9674,193.4427],[-64.712,-16.9714,193.3888],[-64.7094,-16.9721,196.5675],[-64.7048,-16.9702,198.7931],[-64.704,-16.9673,198.9526],[-64.7074,-16.9564,196.2728],[-64.7039,-16.9525,190.5],[-64.6981,-16.9538,193.5161],[-64.6907,-16.9606,193.1033],[-64.6745,-16.9707,195.3119],[-64.6733,-16.9765,191.0],[-64.6769,-16.9792,196.9107],[-64.6804,-16.9772,195.1017],[-64.6835,-16.9703,191.5],[-64.6856,-16.9689,193.5202],[-64.6897,-16.9695,195.0474],[-64.6927,-16.98,199.9872],[-64.6979,-16.9834,200.4012],[-64.7059,-16.9851,202.4158],[-64.7099,-16.9892,190.75],[-64.7083,-16.9993,210.516],[-64.7046,-17.003,198.0766],[-64.7007,-17.0024,197.083],[-64.6954,-16.9986,199.8044],[-64.6982,-16.9879,200.384],[-64.6932,-16.984,191.5],[-64.682,-16.9855,195.733],[-64.6736,-16.9912,199.5871],[-64.672,-16.9969,202.4336],[-64.6753,-17.0001,192.0],[-64.6805,-16.999,195.2855],[-64.6854,-16.9954,199.4457],[-64.69,-16.9965,203.9805],[-64.691,-16.9981,196.1218],[-64.6897,-17.0086,194.4486],[-64.6911,-17.0145,197.7121],[-64.6875,-17.0192,196.4235],[-64.6803,-17.0182,195.9831],[-64.6728,-17.0129,194.4845],[-64.6641,-17.0158,205.0025],[-64.6625,-17.0126,195.55],[-64.6661,-17.0067,201.9112],[-64.6645,-17.0028,203.4977],[-64.662,-17.0019,203.9343],[-64.6592,-17.0021,207.6675],[-64.6511,-17.0085,196.7552],[-64.6443,-17.0081,200.4016],[-64.6376,-17.0051,196.3047],[-64.629,-17.0049,208.1712],[-64.6267,-17.0084,208.1864],[-64.6284,-17.0125,195.5967],[-64.6385,-17.0169,204.3027],[-64.6401,-17.0196,204.2079],[-64.6411,-17.035,196.8686],[-64.6368,-17.0386,203.7982],[-64.6312,-17.0388,198.1042],[-64.6257,-17.0358,201.0496],[-64.6246,-17.0316,204.3458],[-64.6276,-17.028,206.9688],[-64.6289,-17.0228,211.1435],[-64.6259,-17.0179,207.1722],[-64.6195,-17.0145,197.2374],[-64.6175,-17.0152,204.4794],[-64.6159,-17.019,203.7204],[-64.6206,-17.0282,204.4935],[-64.6198,-17.0335,203.2971],[-64.6176,-17.0353,204.7937],[-64.6129,-17.0349,204.2525],[-64.6099,-17.028,211.1495],[-64.604,-17.0258,202.5693],[-64.5938,-17.0308,200.5891],[-64.5872,-17.0363,202.2505],[-64.5881,-17.0415,202.0263],[-64.5898,-17.0423,204.7243],[-64.5926,-17.0422,201.3057],[-64.5988,-17.0376,209.996],[-64.6058,-17.0352,206.028],[-64.6085,-17.035,206.6538],[-64.6116,-17.0378,207.5953],[-64.611,-17.0424,206.5466],[-64.5988,-17.0467,198.9276],[-64.5927,-17.0538,206.6043],[-64.5878,-17.0539,199.566],[-64.5863,-17.0524,199.0416],[-64.5847,-17.0441,200.3075],[-64.5769,-17.0348,221.799],[-64.5723,-17.0324,197.0],[-64.5664,-17.0339,199.4819],[-64.5647,-17.0357,203.4069],[-64.5644,-17.0402,207.8874],[-64.5728,-17.0487,210.7682],[-64.5806,-17.0534,213.2409],[-64.5809,-17.0561,213.83],[-64.5775,-17.0602,198.0],[-64.5684,-17.0579,200.567],[-64.5658,-17.0587,200.4765],[-64.5601,-17.0657,205.4659],[-64.5533,-17.0702,208.0106],[-64.5491,-17.0678,204.9511],[-64.5499,-17.0583,214.8833],[-64.5469,-17.0553,201.8562],[-64.5442,-17.0548,203.8862],[-64.5352,-17.0574,201.5],[-64.5217,-17.0563,210.1584],[-64.5166,-17.0582,212.5285],[-64.5155,-17.0625,213.1636],[-64.5171,-17.0643,203.3357],[-64.5279,-17.0641,221.7194],[-64.5344,-17.0721,202.0],[-64.5431,-17.0742,206.9251],[-64.5471,-17.0792,217.2755],[-64.5497,-17.0873,212.1609],[-64.5478,-17.0896,214.6622],[-64.5363,-17.0893,210.2964],[-64.5191,-17.099,204.5],[-64.508,-17.0906,212.9335],[-64.5042,-17.0897,213.44],[-64.5003,-17.0909,225.2127],[-64.4979,-17.1029,206.4428],[-64.4807,-17.114,209.1516],[-64.477,-17.1181,212.9566],[-64.4782,-17.123,209.6304],[-64.4882,-17.1268,213.4546],[-64.4896,-17.1313,207.0],[-64.487,-17.1354,207.125],[-64.4767,-17.1383,207.625],[-64.4695,-17.1336,208.0],[-64.4642,-17.1327,215.2647],[-64.4604,-17.1349,210.8605],[-64.4574,-17.1405,215.4182],[-64.4512,-17.1419,213.7656],[-64.4479,-17.1402,210.5],[-64.4402,-17.1307,211.5],[-64.4354,-17.13,216.5924],[-64.4316,-17.133,212.125],[-64.4303,-17.1375,212.5],[-64.4353,-17.1476,223.0421],[-64.4353,-17.1543,214.5918],[-64.4326,-17.1585,222.8161],[-64.4284,-17.1594,216.1891],[-64.4251,-17.1555,228.8756],[-64.4241,-17.1414,218.3005],[-64.4195,-17.1409,213.5],[-64.4138,-17.1503,220.2805],[-64.4107,-17.1514,226.2019],[-64.4068,-17.1489,214.0],[-64.4023,-17.14,219.4333],[-64.3985,-17.1387,219.9779],[-64.3946,-17.1407,222.4363],[-64.3909,-17.1449,218.9368],[-64.3916,-17.1491,221.2365],[-64.4046,-17.1503,222.4243],[-64.4073,-17.1517,216.577],[-64.4103,-17.1563,228.4957],[-64.4094,-17.1607,223.57],[-64.4049,-17.163,220.7931],[-64.4007,-17.1606,219.7586],[-64.3948,-17.1535,218.9452],[-64.3877,-17.1559,231.2246],[-64.387,-17.1653,215.5],[-64.3988,-17.1691,219.1825],[-64.4001,-17.1727,224.8622],[-64.3984,-17.1765,218.6371],[-64.3851,-17.1744,216.9239],[-64.3753,-17.1895,224.3565],[-64.3643,-17.1841,223.4961],[-64.3593,-17.1847,218.5],[-64.3573,-17.1871,218.5],[-64.3564,-17.1925,219.8132],[-64.3588,-17.198,228.4921],[-64.3728,-17.1971,230.8365],[-64.3749,-17.1998,231.5657],[-64.375,-17.2016,230.0196],[-64.3683,-17.2088,227.6822],[-64.3661,-17.2156,231.1835],[-64.3714,-17.2265,234.7758],[-64.3712,-17.2299,229.6523],[-64.3564,-17.2311,228.5281],[-64.3532,-17.2299,228.9713],[-64.355,-17.2207,232.9105],[-64.3529,-17.214,231.7057],[-64.3362,-17.208,224.5743],[-64.3329,-17.2142,223.5],[-64.3369,-17.2245,225.3052],[-64.3361,-17.2318,230.8268],[-64.3325,-17.2343,228.8074],[-64.3232,-17.2368,229.7832],[-64.3211,-17.2408,230.6211],[-64.3253,-17.2445,225.0],[-64.3338,-17.2432,231.7539],[-64.3388,-17.2464,228.0567],[-64.3404,-17.2599,232.0491],[-64.3391,-17.265,231.9598],[-64.3304,-17.2622,229.5912],[-64.3172,-17.2641,231.0387],[-64.3125,-17.2678,233.4429],[-64.3115,-17.2744,232.2816],[-64.3045,-17.2779,232.2591],[-64.3013,-17.2765,235.2686],[-64.3016,-17.2722,230.5],[-64.3113,-17.2649,233.5818],[-64.3122,-17.2619,233.7366],[-64.3105,-17.2587,233.022],[-64.3056,-17.2574,236.7297],[-64.2955,-17.2633,229.5963],[-64.2838,-17.2647,236.5731],[-64.2822,-17.2685,231.3165],[-64.2849,-17.2758,236.7487],[-64.2844,-17.281,237.5395],[-64.2813,-17.2844,237.561],[-64.2749,-17.2851,231.4882],[-64.2787,-17.2908,238.1665],[-64.2745,-17.2911,237.0634],[-64.2709,-17.2944,242.3825],[-64.2669,-17.2924,242.3572],[-64.2652,-17.2939,239.7508],[-64.2661,-17.2974,249.7886],[-64.2646,-17.2995,251.899],[-64.261,-17.2989,247.7042],[-64.2602,-17.2964,249.4305],[-64.2571,-17.2962,243.4164],[-64.2462,-17.3033,251.8884],[-64.2485,-17.307,257.1989],[-64.246,-17.3103,254.614],[-64.2453,-17.3178,266.5922],[-64.239,-17.3184,254.0089],[-64.2415,-17.3221,256.9074],[-64.2412,-17.3257,262.0132],[-64.2451,-17.3311,263.1207],[-64.2415,-17.3357,265.3705],[-64.2409,-17.3432,271.2763],[-64.2366,-17.3499,278.5106],[-64.2391,-17.3606,287.6442],[-64.2366,-17.3624,286.1158],[-64.2378,-17.3669,282.2754],[-64.2341,-17.3737,281.2933],[-64.2427,-17.3992,292.7249],[-64.2538,-17.4031,324.3688],[-64.2537,-17.4055,334.6375],[-64.2489,-17.4121,312.8168],[-64.2529,-17.4126,340.7284],[-64.2537,-17.4164,468.0161],[-64.2581,-17.4171,322.5399],[-64.2518,-17.4283,316.2322],[-64.2495,-17.4383,336.29],[-64.2521,-17.4461,333.7814],[-64.258,-17.4526,348.9139],[-64.256,-17.4567,338.1296],[-64.247,-17.4561,411.5244],[-64.2444,-17.4584,347.9979],[-64.2495,-17.4754,385.7708],[-64.2454,-17.4812,366.5293],[-64.2414,-17.4924,378.9813],[-64.2344,-17.4943,395.6174],[-64.2336,-17.4965,393.4175],[-64.2269,-17.5008,426.1583],[-64.2222,-17.5095,405.6574],[-64.2123,-17.5138,475.2192],[-64.2085,-17.517,457.3908],[-64.2061,-17.5231,434.5937],[-64.2019,-17.521,468.3284],[-64.1965,-17.5267,467.9908],[-64.1928,-17.5252,441.1769],[-64.1866,-17.5261,467.2289],[-64.1852,-17.5301,459.8771],[-64.18,-17.5306,459.944],[-64.1769,-17.5283,452.146],[-64.173,-17.5281,459.4284],[-64.1702,-17.532,472.784],[-64.1608,-17.5352,482.8367],[-64.1586,-17.5376,498.1711],[-64.1524,-17.538,518.8345],[-64.1451,-17.5432,525.5926],[-64.1397,-17.5432,505.7993],[-64.1347,-17.547,548.108],[-64.1223,-17.549,624.2996],[-64.1184,-17.5525,553.9162],[-64.1171,-17.5573,526.7684],[-64.1218,-17.5632,547.6987],[-64.1171,-17.5659,547.1401],[-64.1155,-17.569,581.7523],[-64.1153,-17.5757,647.8724],[-64.1199,-17.577,576.0229],[-64.1184,-17.5793,583.6501],[-64.1204,-17.5814,603.8873],[-64.1202,-17.5861,654.8152],[-64.1225,-17.5898,587.9556],[-64.1219,-17.5971,607.6844],[-64.1232,-17.5994,609.7358],[-64.1213,-17.6003,624.6193],[-64.1199,-17.6067,631.855],[-64.1267,-17.6085,662.7523],[-64.1255,-17.6157,645.0461],[-64.1283,-17.6199,649.712],[-64.1278,-17.6257,656.6674],[-64.1335,-17.631,666.29],[-64.1373,-17.6316,676.0131],[-64.1422,-17.6364,728.7559],[-64.1476,-17.6388,696.6749],[-64.1502,-17.6422,726.1027],[-64.1494,-17.6444,745.3444],[-64.1524,-17.6462,725.8243],[-64.1513,-17.6496,729.2609],[-64.1542,-17.6521,750.3967],[-64.1515,-17.6589,761.7261],[-64.1539,-17.6668,782.8223],[-64.1487,-17.6733,819.5009],[-64.1501,-17.6753,800.4102],[-64.1584,-17.6779,807.7987],[-64.1556,-17.6827,814.5115],[-64.1589,-17.6813,819.988],[-64.1618,-17.6825,879.664],[-64.1616,-17.6875,840.6535],[-64.1636,-17.6904,871.149],[-64.1626,-17.6943,857.0871],[-64.1571,-17.6966,949.3455],[-64.1567,-17.7027,937.3793],[-64.1603,-17.7028,932.1165],[-64.1629,-17.7071,915.7688],[-64.1679,-17.7062,995.5766],[-64.1693,-17.7093,1009.7927],[-64.1663,-17.7107,1044.5088],[-64.1673,-17.7143,967.8899],[-64.1694,-17.7145,993.0555],[-64.1703,-17.7108,994.5031],[-64.1731,-17.7103,1042.5889],[-64.174,-17.7133,1081.5205],[-64.1773,-17.714,1066.6089],[-64.1812,-17.7177,1150.3784],[-64.1848,-17.7173,1219.7509],[-64.1885,-17.7124,1150.3956],[-64.1986,-17.7104,1268.6104],[-64.2008,-17.7114,1320.2897],[-64.201,-17.7139,1305.9736],[-64.2036,-17.7135,1303.6438],[-64.205,-17.7162,1302.4027],[-64.2084,-17.7149,1301.2288],[-64.2082,-17.7182,1306.6204],[-64.21,-17.7197,1290.5912],[-64.2079,-17.7227,1301.1384],[-64.2116,-17.7219,1290.4994],[-64.211,-17.7258,1290.7745],[-64.2153,-17.7296,1291.1045],[-64.2133,-17.7314,1294.1702],[-64.2144,-17.7355,1321.4548],[-64.2177,-17.7374,1344.8813],[-64.2187,-17.7495,1359.8779],[-64.2118,-17.7475,1340.4122],[-64.2093,-17.7491,1332.4545],[-64.2066,-17.7487,1378.4404],[-64.204,-17.7544,1403.5906],[-64.1979,-17.7574,1418.2609],[-64.194,-17.7527,1498.4839],[-64.1844,-17.7635,1547.9192],[-64.1816,-17.7636,1605.0996],[-64.1814,-17.768,1619.0288],[-64.1751,-17.777,1689.2808],[-64.1672,-17.7777,1741.3644],[-64.1651,-17.7826,1765.2089],[-64.1587,-17.7848,1655.7634],[-64.1532,-17.7921,1487.6425],[-64.1463,-17.7875,1636.1489],[-64.1431,-17.7804,1813.9307],[-64.1439,-17.7739,1950.6771],[-64.1472,-17.7674,2124.4504],[-64.1457,-17.765,2169.2932],[-64.1335,-17.7713,1937.298],[-64.1225,-17.7733,1705.6624],[-64.1142,-17.7712,1468.3069],[-64.1135,-17.7653,1396.236],[-64.106,-17.7598,1252.2964],[-64.0986,-17.749,1066.9419],[-64.0946,-17.7498,1078.6855],[-64.093,-17.7486,1039.3973],[-64.0892,-17.7521,1016.1837],[-64.0835,-17.7488,995.2434],[-64.0809,-17.7501,956.4478],[-64.0783,-17.7494,982.0481],[-64.078,-17.7519,941.694],[-64.0733,-17.7522,931.7485],[-64.0728,-17.7541,919.8547],[-64.0708,-17.7524,974.8199],[-64.0677,-17.7552,891.1095],[-64.0643,-17.7558,880.8436],[-64.0592,-17.755,887.1464],[-64.0596,-17.7526,874.1664],[-64.0545,-17.7536,850.6885],[-64.0554,-17.7518,855.5668],[-64.0529,-17.7513,833.8542],[-64.0497,-17.7555,840.018],[-64.0518,-17.7573,839.477],[-64.0481,-17.7622,854.9039],[-64.0428,-17.7653,855.2095],[-64.0435,-17.7689,859.9313],[-64.0385,-17.7706,866.2689],[-64.0366,-17.7762,876.0433],[-64.0348,-17.7763,860.833],[-64.0331,-17.7793,876.7692],[-64.0276,-17.7797,901.9435],[-64.0241,-17.7824,882.5291],[-64.0254,-17.7841,892.2908],[-64.0248,-17.7918,898.3519],[-64.0224,-17.797,912.3596],[-64.0269,-17.7965,904.4447],[-64.0293,-17.8,915.0972],[-64.0242,-17.8023,930.4182],[-64.0195,-17.8107,981.9838],[-64.0168,-17.8092,1001.7292],[-64.0165,-17.8142,930.5936],[-64.0134,-17.813,934.4312],[-64.0107,-17.8174,948.2698],[-64.0085,-17.8152,956.1813],[-64.0062,-17.8161,973.0055],[-64.0066,-17.8219,938.5088],[-64.0019,-17.8214,944.9312],[-64.0003,-17.8286,949.2864],[-63.9752,-17.8453,1570.4163],[-63.9731,-17.852,1772.5188],[-63.9643,-17.8571,1960.988],[-63.9505,-17.856,2015.0356],[-63.9463,-17.86,2065.4836],[-63.933,-17.8611,2152.7981],[-63.93,-17.8708,2223.0652],[-63.923,-17.8814,2028.5305],[-63.9199,-17.8832,1956.7258],[-63.8958,-17.8802,1527.6371],[-63.8813,-17.8838,1166.5991],[-63.8786,-17.8805,1147.2434],[-63.8761,-17.8808,1119.5476],[-63.8734,-17.878,1110.0496],[-63.8673,-17.8809,1067.1819],[-63.8562,-17.881,987.5676],[-63.8465,-17.8846,1004.4888],[-63.8468,-17.8819,941.5657],[-63.8451,-17.8829,906.6766],[-63.8438,-17.8816,947.393],[-63.843,-17.8833,853.617],[-63.8405,-17.8836,866.8996],[-63.834,-17.8815,835.2314],[-63.8293,-17.8819,839.6132],[-63.8262,-17.8791,815.9858],[-63.8221,-17.8793,797.965],[-63.8244,-17.8766,785.4368],[-63.8176,-17.8729,818.4611],[-63.8177,-17.87,782.5669],[-63.8157,-17.8681,763.2266],[-63.8017,-17.867,719.7262],[-63.7925,-17.8608,700.0591],[-63.7879,-17.8743,728.782],[-63.7805,-17.8792,849.0778],[-63.7806,-17.8832,700.7261],[-63.7756,-17.8903,700.6952],[-63.7736,-17.8976,714.5308],[-63.7724,-17.8969,772.6066],[-63.7704,-17.8995,821.207],[-63.7749,-17.9033,750.9488],[-63.7743,-17.9058,756.1458],[-63.778,-17.9049,726.2732],[-63.7797,-17.9075,725.9556],[-63.7785,-17.9128,781.6769],[-63.7811,-17.9146,761.7385],[-63.7791,-17.9159,773.5803],[-63.782,-17.9174,767.6359],[-63.7818,-17.92,772.3015],[-63.7803,-17.9205,827.8546],[-63.7814,-17.9227,771.2144],[-63.7792,-17.9249,789.6194],[-63.7819,-17.9264,774.3673],[-63.7723,-17.9336,802.9596],[-63.7709,-17.9329,845.8928],[-63.7653,-17.9428,830.805],[-63.7629,-17.9421,846.359],[-63.7648,-17.9471,859.1932],[-63.7642,-17.9521,916.2931],[-63.7576,-17.9574,922.908],[-63.7592,-17.9581,934.9867],[-63.7614,-17.9653,982.6598],[-63.7656,-17.9642,1030.4827],[-63.7666,-17.967,1032.1949],[-63.7694,-17.9682,1046.5769],[-63.7715,-17.9744,1076.4856],[-63.7711,-17.9811,1119.5527],[-63.7763,-17.988,1143.3127],[-63.7712,-17.9968,1355.0541],[-63.7681,-17.9991,1504.2159],[-63.7695,-18.0068,1298.1694],[-63.7678,-18.0127,1222.136],[-63.7657,-18.0151,1167.3311],[-63.7615,-18.0146,1142.4695],[-63.7566,-18.0181,1123.3259],[-63.7548,-18.0221,1096.9778],[-63.7509,-18.0239,1086.1169],[-63.7469,-18.0227,1065.7948],[-63.7459,-18.0208,1178.7285],[-63.7433,-18.0223,1068.3929],[-63.7411,-18.0201,1063.0746],[-63.7373,-18.0196,1080.4999],[-63.7263,-18.0233,1054.9403],[-63.7247,-18.0192,1026.1265],[-63.7266,-18.0169,1032.6989],[-63.7241,-18.0182,1026.1265],[-63.7192,-18.0159,1011.7387],[-63.7194,-18.0134,1008.9374],[-63.7119,-18.0134,1047.3988],[-63.7062,-18.0084,1027.5237],[-63.7007,-18.0063,1245.3789],[-63.6994,-18.0082,1320.9263],[-63.692,-18.011,1481.927],[-63.6863,-18.0068,1497.4435],[-63.6753,-18.0073,1754.4324],[-63.6699,-18.0105,1752.7786],[-63.6661,-18.0107,1662.4744],[-63.6619,-18.0075,1711.1445],[-63.6536,-18.0079,1754.8875],[-63.65,-18.009,1757.0061],[-63.6444,-18.016,1736.7557],[-63.6354,-18.0147,1740.3223],[-63.6168,-18.0162,1418.6547],[-63.615,-18.0003,1249.9392],[-63.6175,-17.991,1192.7754],[-63.6177,-17.9826,1159.2151],[-63.6216,-17.9784,1120.3297],[-63.6219,-17.959,1069.4889],[-63.6259,-17.9529,1050.9539],[-63.6293,-17.9523,988.8824],[-63.6301,-17.9506,988.6095],[-63.632,-17.9511,968.2454],[-63.6351,-17.9473,975.3325],[-63.6394,-17.9482,941.1979],[-63.639,-17.95,951.7886],[-63.6404,-17.9501,951.7886],[-63.6436,-17.9466,970.8116],[-63.6441,-17.942,923.407],[-63.6464,-17.9402,908.4631],[-63.6364,-17.9384,1063.2145],[-63.6311,-17.9315,1163.4052],[-63.6256,-17.9298,1312.2639],[-63.6187,-17.9222,1490.6561],[-63.6115,-17.919,1241.5979],[-63.6083,-17.919,1212.8507],[-63.6012,-17.9144,1127.3894],[-63.601,-17.9092,1092.6726],[-63.6025,-17.9063,1074.6919],[-63.5979,-17.9007,1002.8954],[-63.5909,-17.8973,987.8506],[-63.581,-17.8952,952.7504],[-63.5774,-17.8899,865.1402],[-63.5655,-17.8831,687.8942],[-63.5666,-17.8801,660.6586],[-63.5629,-17.8788,711.4486],[-63.5626,-17.8767,756.697],[-63.5577,-17.8765,649.923],[-63.5549,-17.8798,639.0745],[-63.5527,-17.8789,618.8555],[-63.5535,-17.8766,601.6526],[-63.5515,-17.8756,607.4727],[-63.5515,-17.8718,594.5937],[-63.5466,-17.8712,624.8506],[-63.5447,-17.8691,595.4061],[-63.5444,-17.8646,572.0638],[-63.5477,-17.862,578.4117],[-63.5451,-17.8581,638.7997],[-63.5469,-17.8578,617.884],[-63.5437,-17.8531,576.5667],[-63.5412,-17.8526,561.9337],[-63.5413,-17.8495,568.4873],[-63.5431,-17.8509,543.8272],[-63.5433,-17.8492,537.3849],[-63.5414,-17.8466,549.2819],[-63.5384,-17.8463,540.2109],[-63.5365,-17.8415,561.3693],[-63.5371,-17.8383,530.8834],[-63.5329,-17.8332,535.3696],[-63.5372,-17.8241,505.9831],[-63.5263,-17.8138,495.094],[-63.5198,-17.8128,499.1468],[-63.5191,-17.81,499.0629]]]]}
,"properties": {"GID_2": "BOL.8.8_2","GID_0": "BOL","country": "Bolivia","GID_1": "BOL.8_1","province": "SantaCruz","NL_NAME_1": "NA","county": "Ichilo","VARNAME_2": "NA","NL_NAME_2": "NA","TYPE_2": "Provincia","ENGTYPE_2": "Province","CC_2": "NA","HASC_2": "NA","name": "Ichilo.county","area_km2": 15204.01,"hist_schema_id": "Elevation0-9000","hist_area_km2": {"150": 2.26,"175": 1668.82,"200": 4241.01,"225": 2747.21,"250": 1574.98,"275": 844.94,"300": 506.11,"325": 286.02,"350": 274.43,"375": 306.52,"400": 278.39,"425": 181.87,"450": 119.09,"475": 75.61,"500": 60.19,"525": 61.12,"550": 60.99,"575": 56.78,"600": 54.84,"625": 55.4,"650": 57.76,"675": 56.08,"700": 57.15,"725": 56.32,"750": 58.3,"775": 56.84,"800": 54.25,"825": 54.01,"850": 54.15,"875": 53.07,"900": 54.04,"925": 55.41,"950": 51.27,"975": 51.45,"1000": 50.28,"1025": 49.65,"1050": 49.16,"1075": 46.82,"1100": 47.0,"1125": 47.4,"1150": 44.53,"1175": 44.65,"1200": 44.47,"1225": 44.11,"1250": 40.13,"1275": 40.07,"1300": 39.24,"1325": 37.79,"1350": 34.19,"1375": 32.07,"1400": 30.28,"1425": 28.52,"1450": 26.52,"1475": 25.25,"1500": 22.67,"1525": 19.76,"1550": 18.19,"1575": 16.27,"1600": 14.94,"1625": 13.22,"1650": 9.63,"1675": 8.23,"1700": 7.0,"1725": 5.83,"1750": 5.19,"1775": 4.58,"1800": 4.0,"1825": 3.51,"1850": 3.07,"1875": 2.77,"1900": 2.26,"1925": 2.22,"1950": 1.94,"1975": 1.72,"2000": 1.61,"2025": 1.49,"2050": 1.19,"2075": 0.97,"2100": 0.91,"2125": 0.65,"2150": 0.65,"2175": 0.3,"2200": 0.26,"2225": 0.18}}}