{"type":"Feature","properties":{"GID_3":"BOL.4.10.1_2","GID_0":"BOL","country":"Bolivia","GID_1":"BOL.4_1","province":"LaPaz","NL_NAME_1":"NA","GID_2":"BOL.4.10_2","county":"Ingavi","NL_NAME_2":"NA","city":"Desaguadero","VARNAME_3":"NA","NL_NAME_3":"NA","TYPE_3":"District","ENGTYPE_3":"Distrito","CC_3":"NA","HASC_3":"NA","name":"Desaguadero.city"},
"geometry":{"type": "MultiPolygon","coordinates": [[[[-68.9227,-16.5957,3811.7354],[-68.924,-16.5934,3811.9158],[-68.9261,-16.5951,3812.1633],[-68.9316,-16.5929,3812.1023],[-68.9314,-16.5896,3812.2593],[-68.9338,-16.5884,3811.6558],[-68.9412,-16.5902,3811.9136],[-68.95,-16.5842,3810.0144],[-68.9536,-16.5848,3811.9722],[-68.9554,-16.581,3809.136],[-68.9577,-16.5812,3810.8174],[-68.9587,-16.5794,3811.4399],[-68.9676,-16.5796,3812.7922],[-68.9702,-16.5742,3809.9087],[-68.9754,-16.5754,3812.5815],[-68.9792,-16.5733,3812.6677],[-68.9791,-16.5711,3811.6982],[-68.9815,-16.5698,3812.1362],[-68.9842,-16.5707,3812.0964],[-68.9861,-16.5681,3811.6616],[-68.9918,-16.5695,3811.9231],[-68.9938,-16.5683,3812.8269],[-68.9933,-16.5672,3811.8618],[-68.9966,-16.5678,3811.7007],[-69.0041,-16.562,3812.2178],[-69.0273,-16.5533,3815.5645],[-69.0295,-16.5534,3810.8477],[-69.0277,-16.5565,3825.7236],[-69.0283,-16.559,3809.2275],[-69.0334,-16.563,3811.9983],[-69.036,-16.5629,3808.5],[-69.0402,-16.5726,3810.853],[-69.0348,-16.5836,3808.877],[-69.0358,-16.587,3810.8066],[-69.0344,-16.6044,3808.5],[-69.0328,-16.6079,3809.0776],[-69.0224,-16.616,3808.5],[-69.0102,-16.6333,3808.5],[-68.9985,-16.6395,3808.5],[-68.9973,-16.6419,3809.906],[-68.9989,-16.6515,3810.0989],[-68.9972,-16.6586,3810.9692],[-68.9754,-16.6762,3811.49],[-68.9247,-16.6531,3819.5518],[-68.9227,-16.5957,3811.7354]]]]}}