{"type":"Feature","properties":{"GID_3":"BOL.2.7.1_2","GID_0":"BOL","country":"Bolivia","GID_1":"BOL.2_1","province":"Cochabamba","NL_NAME_1":"NA","GID_2":"BOL.2.7_2","county":"Carrasco","NL_NAME_2":"NA","city":"Chimoré","VARNAME_3":"NA","NL_NAME_3":"NA","TYPE_3":"District","ENGTYPE_3":"Distrito","CC_3":"NA","HASC_3":"NA","name":"Chimoré.city"},
"geometry":{"type": "MultiPolygon","coordinates": [[[[-64.8307,-16.754,192.3967],[-64.8342,-16.7494,186.0],[-64.841,-16.7456,186.0],[-64.8424,-16.7404,193.0095],[-64.8403,-16.7341,186.0],[-64.8318,-16.7251,185.5],[-64.8245,-16.7252,186.3148],[-64.8144,-16.7316,185.5],[-64.8039,-16.7352,185.0],[-64.8,-16.739,185.0],[-64.7971,-16.747,187.9157],[-64.7926,-16.75,187.6219],[-64.7877,-16.7488,190.1686],[-64.7836,-16.7445,192.6303],[-64.78,-16.7299,184.5],[-64.7825,-16.7215,184.5],[-64.7901,-16.7156,184.5],[-64.8005,-16.7149,185.5756],[-64.8065,-16.7115,184.0],[-64.8093,-16.7074,191.6102],[-64.8101,-16.7,184.0],[-64.8071,-16.6951,187.1088],[-64.7928,-16.6905,183.5],[-64.7875,-16.6857,184.0897],[-64.7842,-16.6785,183.0],[-64.7834,-16.6612,188.3611],[-64.7798,-16.6561,183.532],[-64.7732,-16.6539,183.1289],[-64.7676,-16.6584,184.866],[-64.767,-16.6646,182.5],[-64.7735,-16.6806,182.0],[-64.7725,-16.6849,182.7782],[-64.7685,-16.6867,182.0],[-64.7635,-16.6856,182.0],[-64.759,-16.6817,182.659],[-64.758,-16.6789,186.025],[-64.7584,-16.6687,194.7556],[-64.7553,-16.6574,187.1084],[-64.7575,-16.6526,181.5],[-64.7722,-16.6374,186.7704],[-64.7872,-16.6363,181.0],[-64.7905,-16.6312,188.2008],[-64.7811,-16.6132,180.5],[-64.7783,-16.6106,181.3049],[-64.765,-16.6049,180.0],[-64.7505,-16.5934,180.0],[-64.7486,-16.5901,179.5],[-64.7472,-16.5821,179.5],[-64.7502,-16.5558,179.0],[-64.7538,-16.5535,179.6278],[-64.7593,-16.5538,181.7284],[-64.7612,-16.5511,182.683],[-64.7574,-16.5446,180.8465],[-64.7426,-16.5385,182.8135],[-64.7401,-16.534,186.3456],[-64.7418,-16.5253,184.8336],[-64.7503,-16.5178,177.5],[-64.7508,-16.5126,180.8741],[-64.746,-16.507,182.3725],[-64.7396,-16.5053,177.5],[-64.7228,-16.5078,177.0],[-64.7199,-16.5095,180.03809999999999],[-64.7186,-16.5144,177.0],[-64.7264,-16.5262,176.5],[-64.7264,-16.5293,176.5],[-64.7207,-16.5354,178.0349],[-64.7112,-16.5363,183.8998],[-64.7063,-16.5317,176.0],[-64.7014,-16.5161,176.0],[-64.7026,-16.5108,181.5003],[-64.7115,-16.5026,175.5],[-64.7112,-16.4958,178.0522],[-64.7084,-16.4934,176.2345],[-64.6929,-16.4901,175.5],[-64.6879,-16.485,175.0],[-64.6884,-16.4824,183.2503],[-64.6918,-16.4798,184.0217],[-64.6974,-16.4809,175.0],[-64.7048,-16.4862,178.0882],[-64.7099,-16.4861,182.0024],[-64.7125,-16.4823,181.1139],[-64.7111,-16.4747,176.8071],[-64.709,-16.4718,175.0],[-64.7026,-16.4685,176.7718],[-64.692,-16.4708,179.6354],[-64.6821,-16.4791,177.0753],[-64.6775,-16.4787,177.841],[-64.6733,-16.474,175.0],[-64.6759,-16.4643,175.0],[-64.6856,-16.4523,175.0],[-64.6876,-16.4466,175.0],[-64.6869,-16.4423,175.0],[-64.6784,-16.4361,178.664],[-64.6767,-16.4316,175.0],[-64.6814,-16.4267,180.7469],[-64.6952,-16.425,174.5],[-64.6985,-16.4217,176.0107],[-64.6989,-16.4176,178.034],[-64.6961,-16.4141,180.9925],[-64.6832,-16.4108,174.5],[-64.6794,-16.408,174.5],[-64.6565,-16.3781,175.8332],[-64.6563,-16.3748,174.0],[-64.6599,-16.3718,177.7],[-64.6645,-16.3711,174.7607],[-64.6855,-16.3788,174.0],[-64.6927,-16.3788,176.2368],[-64.6957,-16.3764,176.7234],[-64.6961,-16.3735,176.2438],[-64.6932,-16.3678,174.0],[-64.6872,-16.3648,178.5096],[-64.6867,-16.3597,182.0608],[-64.692,-16.3563,181.865],[-64.7009,-16.3568,174.0],[-64.706,-16.355,174.0],[-64.7088,-16.3509,183.4122],[-64.7088,-16.3464,181.8566],[-64.7059,-16.3429,174.0],[-64.7015,-16.3426,174.0],[-64.6847,-16.3494,174.0],[-64.6791,-16.3536,174.8959],[-64.6768,-16.3631,174.4812],[-64.6735,-16.3651,174.8505],[-64.6657,-16.3579,174.0],[-64.6668,-16.3414,174.0],[-64.6652,-16.3364,174.4625],[-64.6583,-16.3304,174.9288],[-64.6481,-16.3288,173.5],[-64.6453,-16.3257,179.6857],[-64.644,-16.3208,179.2059],[-64.6463,-16.3164,175.3722],[-64.6509,-16.3151,175.1016],[-64.656,-16.3163,181.8258],[-64.6721,-16.3244,173.5],[-64.6777,-16.3243,173.5],[-64.6803,-16.3213,173.5],[-64.6784,-16.3145,184.1049],[-64.674,-16.3099,173.0],[-64.6495,-16.3,173.0],[-64.6467,-16.2962,175.3243],[-64.65,-16.2911,173.3834],[-64.6553,-16.2883,173.0],[-64.671,-16.2858,172.5],[-64.6808,-16.2879,172.5],[-64.6876,-16.2955,172.5],[-64.6899,-16.2956,172.5],[-64.6928,-16.2931,174.719],[-64.6932,-16.2855,176.1836],[-64.6841,-16.2734,174.2402],[-64.6734,-16.2611,172.0],[-64.6648,-16.2568,174.1032],[-64.6663,-16.2502,176.7055],[-64.6659,-16.2418,174.9541],[-64.6745,-16.2398,177.7753],[-64.6774,-16.2356,171.9447],[-64.6721,-16.2236,172.0461],[-64.67,-16.2084,174.2281],[-64.6715,-16.2049,171.0],[-64.6833,-16.2013,173.4479],[-64.7037,-16.1918,170.5],[-64.7066,-16.1898,172.8886],[-64.7082,-16.1859,170.5],[-64.7073,-16.1824,170.5],[-64.7004,-16.1775,173.88],[-64.6946,-16.1691,177.2041],[-64.6909,-16.1705,170.5],[-64.6936,-16.1806,171.1498],[-64.6918,-16.1841,176.5092],[-64.6877,-16.1862,173.1901],[-64.6842,-16.1848,170.0],[-64.6817,-16.1814,170.0],[-64.6819,-16.1699,169.9206],[-64.6739,-16.1538,169.5],[-64.6724,-16.1419,169.5],[-64.6737,-16.1373,172.13],[-64.6835,-16.1286,169.52],[-64.6845,-16.1245,170.9769],[-64.6827,-16.1215,176.435],[-64.6749,-16.1184,174.5866],[-64.6717,-16.1152,168.5],[-64.6693,-16.1066,169.0234],[-64.6634,-16.0971,173.3896],[-64.6678,-16.0943,175.482],[-64.6779,-16.0987,167.5],[-64.6822,-16.1034,168.4886],[-64.6829,-16.1138,167.9222],[-64.6864,-16.1165,170.4948],[-64.6888,-16.1164,169.0],[-64.6978,-16.1109,170.0422],[-64.6997,-16.1065,170.0126],[-64.6968,-16.1021,173.0548],[-64.6887,-16.0981,170.9101],[-64.6884,-16.0942,175.4043],[-64.6919,-16.0901,172.6158],[-64.698,-16.0879,168.5],[-64.7079,-16.0889,172.1941],[-64.7151,-16.0823,170.548],[-64.7272,-16.0812,170.0664],[-64.727,-16.0777,170.2198],[-64.7222,-16.0721,169.7336],[-64.7189,-16.069,169.7029],[-64.7116,-16.066,169.1843],[-64.708,-16.0664,172.024],[-64.7025,-16.0698,173.9076],[-64.7005,-16.0761,177.9701],[-64.7015,-16.0824,172.0652],[-64.6994,-16.0856,169.2838],[-64.6973,-16.0865,168.5],[-64.6929,-16.0847,176.5678],[-64.6901,-16.0808,176.9642],[-64.6905,-16.0756,170.7657],[-64.6951,-16.0683,177.1524],[-64.6932,-16.0542,173.509],[-64.699,-16.0537,170.3252],[-64.7047,-16.0614,169.6503],[-64.7095,-16.0642,171.8081],[-64.7135,-16.0627,169.5717],[-64.716,-16.0588,168.0],[-64.702,-16.0349,172.4023],[-64.7025,-16.0287,168.0],[-64.7143,-16.0242,168.0],[-64.7193,-16.0185,171.0509],[-64.7233,-16.0172,168.3888],[-64.7259,-16.0216,170.224],[-64.7204,-16.0284,168.0],[-64.7195,-16.0341,168.0],[-64.7237,-16.0386,168.0],[-64.7268,-16.0391,168.0],[-64.7316,-16.0369,171.4056],[-64.7327,-16.0345,168.0],[-64.7321,-16.0245,172.8662],[-64.7267,-16.0122,173.0273],[-64.7188,-16.0085,167.875],[-64.7122,-16.0091,167.5],[-64.7034,-16.0127,167.5],[-64.7015,-16.0116,167.5],[-64.7009,-16.007,168.5423],[-64.7048,-16.0025,167.5],[-64.7087,-16.0009,169.4285],[-64.7175,-16.0014,168.404],[-64.7275,-16.006,167.0],[-64.731,-16.0062,167.0],[-64.7329,-16.0048,167.0],[-64.7344,-15.9996,168.6654],[-64.7336,-15.9961,168.1202],[-64.7316,-15.9932,167.0],[-64.711,-15.9777,167.0859],[-64.7095,-15.9675,166.0],[-64.7136,-15.9631,169.7345],[-64.7199,-15.963,169.0429],[-64.7241,-15.9685,166.0],[-64.7246,-15.9796,165.5],[-64.7288,-15.9817,166.4134],[-64.7374,-15.9824,165.7344],[-64.7415,-15.9808,165.5],[-64.7409,-15.9782,165.5],[-64.7329,-15.9705,165.0],[-64.7261,-15.9529,164.5],[-64.728,-15.9501,169.3734],[-64.7331,-15.9488,165.2728],[-64.7553,-15.9525,164.0],[-64.7554,-15.9421,164.0],[-64.7633,-15.9513,172.5284],[-64.7636,-15.9571,170.3227],[-64.7617,-15.9616,165.8571],[-64.7641,-15.9618,167.5317],[-64.7696,-15.9574,171.3734],[-64.7727,-15.9597,168.5595],[-64.7721,-15.9631,167.9386],[-64.7668,-15.9681,168.5791],[-64.767,-15.9703,168.8944],[-64.7771,-15.9767,169.0153],[-64.7802,-15.975,169.5712],[-64.7806,-15.9698,172.611],[-64.7838,-15.97,169.6754],[-64.7836,-15.9809,175.1765],[-64.7873,-15.9859,169.5707],[-64.7876,-15.9897,175.7906],[-64.7844,-15.9999,171.9574],[-64.7748,-16.0063,179.3811],[-64.7748,-16.0175,170.5438],[-64.7774,-16.0171,168.1564],[-64.7816,-16.009,168.8965],[-64.7871,-16.0084,171.5165],[-64.7894,-16.0093,169.9099],[-64.7934,-16.016,175.6286],[-64.8015,-16.0243,176.7083],[-64.7993,-16.0251,179.8073],[-64.7928,-16.0234,180.2191],[-64.7844,-16.0287,173.4939],[-64.7751,-16.0307,178.2598],[-64.7753,-16.0329,178.4224],[-64.7832,-16.0373,179.2585],[-64.7844,-16.0438,172.105],[-64.7757,-16.0562,169.037],[-64.775,-16.0618,179.4405],[-64.7699,-16.0757,174.2395],[-64.7748,-16.077,171.8424],[-64.7773,-16.088,178.9222],[-64.7825,-16.0893,174.6759],[-64.7883,-16.0875,171.6732],[-64.7917,-16.09,170.3826],[-64.7947,-16.0956,169.6919],[-64.8022,-16.0976,172.7701],[-64.8052,-16.1193,174.8804],[-64.808,-16.1201,177.5871],[-64.8116,-16.1156,172.5427],[-64.807,-16.1111,173.6162],[-64.8056,-16.1071,171.9599],[-64.8087,-16.102,170.6746],[-64.812,-16.1013,178.9597],[-64.8148,-16.1038,173.0718],[-64.8161,-16.1097,173.9702],[-64.8197,-16.1131,170.5166],[-64.8264,-16.1148,175.492],[-64.8308,-16.1134,169.3246],[-64.8314,-16.1268,170.8324],[-64.835,-16.1288,175.9483],[-64.8461,-16.1302,172.6502],[-64.8437,-16.1361,182.3907],[-64.8443,-16.1412,171.7206],[-64.8494,-16.1409,173.1468],[-64.8544,-16.1356,173.9664],[-64.8607,-16.1379,177.8391],[-64.8629,-16.1462,179.4944],[-64.861,-16.1506,184.6849],[-64.8535,-16.1592,175.1582],[-64.8526,-16.1684,179.4729],[-64.8575,-16.1696,183.0661],[-64.8719,-16.1634,176.8529],[-64.8767,-16.1649,183.2629],[-64.8781,-16.1691,175.6412],[-64.8712,-16.1818,181.3117],[-64.8814,-16.1821,179.7903],[-64.887,-16.1788,173.5097],[-64.8924,-16.1719,184.2578],[-64.8922,-16.1691,174.4555],[-64.8886,-16.164,185.8045],[-64.89,-16.1617,175.4794],[-64.9023,-16.1649,179.4279],[-64.9056,-16.1674,179.5054],[-64.907,-16.1724,175.5277],[-64.8968,-16.1748,190.8034],[-64.8945,-16.1769,176.064],[-64.8932,-16.1817,172.5],[-64.8983,-16.2053,183.3243],[-64.9,-16.222,179.4464],[-64.8844,-16.2292,179.0605],[-64.8822,-16.2318,190.0375],[-64.8819,-16.2361,190.853],[-64.8862,-16.2391,179.8179],[-64.8939,-16.2366,181.4595],[-64.8997,-16.2369,176.8578],[-64.9034,-16.2267,181.6575],[-64.912,-16.2223,180.403],[-64.9183,-16.2227,178.0722],[-64.9196,-16.2263,176.925],[-64.9182,-16.2355,184.5568],[-64.9204,-16.2469,187.6438],[-64.9221,-16.2496,194.2373],[-64.9284,-16.2521,182.0753],[-64.9301,-16.2552,187.5186],[-64.9289,-16.2585,180.7632],[-64.9227,-16.2618,191.2384],[-64.9204,-16.2649,184.8804],[-64.9195,-16.2718,183.424],[-64.9207,-16.2758,182.84],[-64.9262,-16.28,182.8059],[-64.9264,-16.2867,180.3166],[-64.9289,-16.2892,184.2745],[-64.9327,-16.2884,186.7065],[-64.9394,-16.2824,183.1693],[-64.9437,-16.2818,185.4951],[-64.9456,-16.2832,180.4107],[-64.9453,-16.2866,181.6707],[-64.941,-16.2928,191.7233],[-64.9415,-16.297,190.9079],[-64.9503,-16.3041,195.572],[-64.9568,-16.3025,184.1514],[-64.9612,-16.3157,178.0],[-64.9599,-16.3232,190.4957],[-64.9544,-16.3297,187.4433],[-64.9545,-16.3316,182.8953],[-64.9607,-16.3346,183.3513],[-64.9722,-16.3324,186.259],[-64.9753,-16.3342,192.1792],[-64.9748,-16.3377,195.9023],[-64.9688,-16.3406,182.9505],[-64.961,-16.3514,197.2194],[-64.9615,-16.354,196.7851],[-64.9683,-16.3574,196.3945],[-64.9684,-16.3614,184.9467],[-64.9657,-16.3616,195.8803],[-64.9602,-16.355,179.0],[-64.9546,-16.3541,185.763],[-64.953,-16.3557,183.3224],[-64.957,-16.3698,187.8604],[-64.9676,-16.377,199.128],[-64.9678,-16.3795,199.2734],[-64.9652,-16.3834,191.9087],[-64.9628,-16.3841,183.4996],[-64.959,-16.3806,184.9496],[-64.9548,-16.3794,190.3892],[-64.9371,-16.3798,190.9978],[-64.9332,-16.3808,189.7189],[-64.9299,-16.3854,192.3612],[-64.9323,-16.3872,189.2257],[-64.9396,-16.3826,191.4615],[-64.9438,-16.3834,181.858],[-64.9466,-16.3923,182.9252],[-64.9536,-16.3991,189.8704],[-64.9543,-16.4024,181.0],[-64.9534,-16.4044,195.7878],[-64.9511,-16.4044,184.6113],[-64.9488,-16.3985,198.4032],[-64.9449,-16.3962,193.2687],[-64.9413,-16.3971,189.8921],[-64.9392,-16.3996,185.2851],[-64.9391,-16.4045,182.6379],[-64.9444,-16.4089,184.6206],[-64.9452,-16.4121,194.1429],[-64.9428,-16.416,186.5692],[-64.9358,-16.4182,188.4901],[-64.9342,-16.4251,189.2284],[-64.9365,-16.4261,192.7594],[-64.9457,-16.4243,200.2793],[-64.9508,-16.4313,186.9413],[-64.9423,-16.4369,191.9171],[-64.9419,-16.4467,194.3533],[-64.9396,-16.4543,192.2982],[-64.936,-16.4569,185.8299],[-64.9293,-16.4548,197.9145],[-64.9251,-16.4555,191.0995],[-64.9212,-16.4598,190.3193],[-64.9214,-16.4637,188.2377],[-64.9339,-16.4749,186.8625],[-64.9461,-16.4994,184.5],[-64.9462,-16.5089,193.1598],[-64.9485,-16.5135,188.2603],[-64.9528,-16.5144,195.3824],[-64.9574,-16.5104,191.2697],[-64.9633,-16.5098,202.2527],[-64.968,-16.5183,206.7207],[-64.9733,-16.5233,199.1579],[-64.9714,-16.5251,193.3372],[-64.964,-16.5197,200.9297],[-64.9595,-16.521,198.6886],[-64.9575,-16.524,215.4724],[-64.9565,-16.532,195.5578],[-64.9471,-16.5359,208.6501],[-64.9475,-16.5423,210.2536],[-64.9517,-16.547,199.453],[-64.9567,-16.5471,198.2982],[-64.9606,-16.5437,200.8971],[-64.9642,-16.532,206.8126],[-64.9719,-16.5281,206.7233],[-64.9759,-16.5287,202.1638],[-64.9775,-16.531,189.6812],[-64.9775,-16.5369,187.5777],[-64.9824,-16.5451,207.9972],[-64.981,-16.5589,186.0],[-64.9933,-16.5529,203.2194],[-64.9926,-16.5618,210.3195],[-64.9944,-16.5668,188.4768],[-65.0026,-16.5681,207.321],[-65.0125,-16.5738,195.2017],[-65.0114,-16.5774,192.7442],[-64.9985,-16.5812,192.1684],[-64.9967,-16.5841,189.7071],[-64.9978,-16.5872,192.0085],[-65.0022,-16.5878,193.6574],[-65.0082,-16.586,192.6463],[-65.0135,-16.5922,202.5068],[-65.0179,-16.5936,190.5493],[-65.0214,-16.5906,188.6744],[-65.022,-16.5841,193.5904],[-65.028,-16.579,196.3506],[-65.0294,-16.5794,196.3506],[-65.0305,-16.5812,187.9133],[-65.0269,-16.5875,195.068],[-65.0295,-16.5949,192.3207],[-65.0267,-16.5978,196.8046],[-65.0209,-16.5989,196.2845],[-65.018,-16.606,186.5],[-65.0213,-16.6077,189.6931],[-65.0312,-16.6003,195.5769],[-65.0394,-16.5996,191.1487],[-65.0404,-16.6026,197.2888],[-65.039,-16.6177,196.9593],[-65.0413,-16.622,191.642],[-65.0468,-16.6235,191.0105],[-65.0577,-16.6192,197.2827],[-65.061,-16.6207,189.5101],[-65.0636,-16.6243,190.8174],[-65.0638,-16.6277,191.5213],[-65.06,-16.6289,202.8884],[-65.0491,-16.6258,196.0851],[-65.0442,-16.6303,200.4832],[-65.044,-16.6332,202.2521],[-65.0523,-16.6317,194.842],[-65.0606,-16.6388,204.1718],[-65.0764,-16.6291,195.4409],[-65.0809,-16.6283,201.0477],[-65.0842,-16.63,205.1997],[-65.0849,-16.6332,192.7],[-65.08,-16.6393,195.7479],[-65.0823,-16.6495,198.2318],[-65.0814,-16.6529,194.4219],[-65.0734,-16.6577,201.2519],[-65.073,-16.6641,201.7403],[-65.0777,-16.6689,208.7505],[-65.0834,-16.6696,202.9367],[-65.0949,-16.6551,204.7425],[-65.1017,-16.6506,208.848],[-65.1047,-16.6506,201.6291],[-65.1049,-16.6562,209.6164],[-65.1026,-16.6584,202.0671],[-65.0925,-16.6615,209.9505],[-65.0903,-16.6647,208.9081],[-65.0905,-16.6667,200.7793],[-65.0936,-16.6679,204.907],[-65.1055,-16.6636,205.6173],[-65.109,-16.6649,195.1986],[-65.109,-16.6685,194.8431],[-65.1028,-16.6793,201.0465],[-65.0988,-16.6832,210.8345],[-65.0989,-16.6855,204.2656],[-65.102,-16.6858,207.7941],[-65.1098,-16.6803,197.5489],[-65.1176,-16.6853,197.618],[-65.1252,-16.685,203.8928],[-65.1411,-16.678,208.1436],[-65.1484,-16.679,199.4905],[-65.1515,-16.6819,199.7618],[-65.1496,-16.6853,197.5043],[-65.1356,-16.6886,204.6906],[-65.1267,-16.6934,209.6068],[-65.1265,-16.6968,207.0334],[-65.1283,-16.6991,201.9259],[-65.1388,-16.6986,202.1219],[-65.1442,-16.7014,197.997],[-65.155,-16.7202,200.8315],[-65.1549,-16.7267,202.6778],[-65.1469,-16.7254,201.673],[-65.1393,-16.7277,199.1469],[-65.1348,-16.7321,216.7233],[-65.1348,-16.7365,207.805],[-65.1446,-16.75,206.0626],[-65.1625,-16.7458,199.5699],[-65.1661,-16.7476,212.0124],[-65.1746,-16.7585,213.4666],[-65.1711,-16.7613,204.2821],[-65.1615,-16.7546,205.864],[-65.1527,-16.7561,207.7024],[-65.1468,-16.7553,216.0562],[-65.1425,-16.7569,200.6676],[-65.1402,-16.7614,203.3916],[-65.1413,-16.7657,202.2353],[-65.1554,-16.7707,210.6741],[-65.1575,-16.7746,205.0954],[-65.1572,-16.7795,217.8902],[-65.151,-16.7857,201.6576],[-65.1467,-16.7857,216.8723],[-65.1424,-16.7834,218.4751],[-65.1375,-16.784,206.7594],[-65.1347,-16.7869,205.8307],[-65.1334,-16.7928,202.6747],[-65.1365,-16.7972,207.6584],[-65.1473,-16.8041,208.9808],[-65.1546,-16.8041,201.0],[-65.1619,-16.8019,206.1602],[-65.1705,-16.8051,201.0],[-65.1729,-16.8116,204.3369],[-65.1706,-16.8207,202.6851],[-65.1654,-16.8272,208.8062],[-65.1655,-16.8328,205.786],[-65.1694,-16.8364,209.2522],[-65.1877,-16.8441,206.0862],[-65.194,-16.8546,210.5037],[-65.1932,-16.8587,220.6592],[-65.1901,-16.8591,207.1125],[-65.1878,-16.863,210.6202],[-65.1884,-16.8736,219.6408],[-65.2014,-16.8784,217.0048],[-65.199,-16.8846,208.3791],[-65.1942,-16.8861,217.3014],[-65.1914,-16.8889,216.5962],[-65.1841,-16.8897,214.4146],[-65.1835,-16.8954,217.0491],[-65.1865,-16.8972,216.0925],[-65.1945,-16.8959,227.0899],[-65.1974,-16.89,218.9438],[-65.2022,-16.888,220.387],[-65.206,-16.8908,217.0244],[-65.2055,-16.895,216.2873],[-65.203,-16.8975,215.4564],[-65.194,-16.9015,208.6325],[-65.1888,-16.9015,218.8488],[-65.1868,-16.9039,220.3591],[-65.1879,-16.9068,219.208],[-65.1925,-16.9058,208.0],[-65.1951,-16.9094,219.7781],[-65.1978,-16.9094,217.8675],[-65.1945,-16.9127,225.0299],[-65.1986,-16.9136,220.9235],[-65.1991,-16.9191,217.8895],[-65.1972,-16.9189,221.5079],[-65.1952,-16.9158,223.616],[-65.1937,-16.917,229.4291],[-65.1946,-16.92,221.1133],[-65.1991,-16.9242,219.8129],[-65.1973,-16.9271,221.5116],[-65.1935,-16.9277,226.4668],[-65.1969,-16.9353,224.8],[-65.1953,-16.9365,229.8128],[-65.1943,-16.9334,223.3553],[-65.1923,-16.9328,233.2076],[-65.1912,-16.9387,224.3327],[-65.1927,-16.9409,224.6199],[-65.1904,-16.9436,227.9603],[-65.194,-16.9453,231.6307],[-65.1923,-16.9519,233.8462],[-65.1972,-16.9484,225.6921],[-65.1984,-16.9521,225.8271],[-65.2013,-16.9525,224.5699],[-65.202,-16.9541,224.4243],[-65.1974,-16.9656,227.8517],[-65.1947,-16.9676,234.6869],[-65.1967,-16.9718,230.072],[-65.1999,-16.9715,236.2986],[-65.2007,-16.9728,237.71],[-65.1984,-16.9738,227.9396],[-65.1981,-16.977,231.0098],[-65.195,-16.979,233.0696],[-65.1993,-16.9846,234.9892],[-65.2002,-16.9888,238.6065],[-65.2056,-16.988,235.4474],[-65.2068,-16.9894,235.2017],[-65.2028,-16.9927,234.2546],[-65.1964,-17.0042,242.767],[-65.1959,-17.0076,248.9828],[-65.1933,-17.01,251.1073],[-65.1959,-17.0115,251.0284],[-65.1953,-17.0149,255.9693],[-65.2011,-17.0191,258.9733],[-65.2045,-17.0272,266.1789],[-65.2067,-17.0279,261.0283],[-65.2076,-17.0305,262.6831],[-65.2117,-17.0331,271.721],[-65.2158,-17.0386,270.4937],[-65.2153,-17.049,272.8177],[-65.2182,-17.0498,277.2528],[-65.2185,-17.0512,277.2528],[-65.2143,-17.0622,273.4536],[-65.2234,-17.0655,291.6522],[-65.2223,-17.0688,279.2554],[-65.2238,-17.0714,303.2033],[-65.2206,-17.0744,288.8563],[-65.221,-17.078,285.4664],[-65.217,-17.079,288.1591],[-65.2141,-17.0827,289.882],[-65.2185,-17.0896,322.745],[-65.2204,-17.0902,298.9354],[-65.2208,-17.0935,304.2912],[-65.2296,-17.0956,345.653],[-65.2204,-17.1006,328.6066],[-65.221,-17.1037,303.133],[-65.1838,-17.1041,291.4896],[-65.1772,-17.1174,288.7868],[-65.1726,-17.1231,284.823],[-65.1716,-17.1279,311.2634],[-65.1746,-17.1322,290.9592],[-65.1845,-17.1337,294.5823],[-65.1851,-17.1374,294.7048],[-65.1739,-17.1489,310.847],[-65.1582,-17.1551,307.125],[-65.1532,-17.1617,322.7777],[-65.1449,-17.1611,320.0054],[-65.1379,-17.1625,320.7499],[-65.1355,-17.1669,331.6201],[-65.1383,-17.1786,332.2824],[-65.1357,-17.1825,336.6223],[-65.125,-17.178,342.1499],[-65.1166,-17.1815,347.9323],[-65.1156,-17.1853,356.8419],[-65.1177,-17.1905,358.1419],[-65.113,-17.1957,362.1472],[-65.0964,-17.1998,384.7047],[-65.0909,-17.1965,366.3153],[-65.0867,-17.1961,379.4701],[-65.0784,-17.2048,378.1617],[-65.0728,-17.2079,398.5186],[-65.0714,-17.2101,386.1901],[-65.0718,-17.2155,391.7628],[-65.0698,-17.2172,394.3982],[-65.0571,-17.1943,928.0302],[-65.0528,-17.1834,504.3819],[-65.0531,-17.1685,384.3067],[-65.0612,-17.1604,348.1883],[-65.0628,-17.1552,361.7418],[-65.0604,-17.1476,340.1031],[-65.0681,-17.1408,307.6877],[-65.066,-17.1386,302.2283],[-65.0684,-17.1367,298.9261],[-65.0687,-17.1339,293.0351],[-65.0671,-17.1285,292.3483],[-65.0648,-17.1283,291.1034],[-65.066,-17.1257,292.074],[-65.063,-17.1236,291.3932],[-65.0639,-17.1183,284.3401],[-65.0624,-17.1134,311.3081],[-65.0688,-17.1152,291.1847],[-65.0704,-17.114,277.8444],[-65.0683,-17.1106,273.9981],[-65.0637,-17.1095,271.6053],[-65.0697,-17.1062,282.2621],[-65.0658,-17.1047,271.6537],[-65.0659,-17.1014,266.2502],[-65.0614,-17.101,268.7951],[-65.0596,-17.0967,263.5532],[-65.0606,-17.093,278.6766],[-65.0621,-17.0937,260.4002],[-65.062,-17.0965,276.1492],[-65.0642,-17.0965,278.1893],[-65.063,-17.0921,261.3763],[-65.0641,-17.0912,275.6348],[-65.0656,-17.0909,269.5201],[-65.0662,-17.0931,293.9573],[-65.0675,-17.0929,264.434],[-65.0675,-17.0879,262.4079],[-65.0594,-17.0851,263.3426],[-65.0585,-17.0834,280.4106],[-65.063,-17.0778,281.26],[-65.0624,-17.0721,249.099],[-65.0669,-17.0625,243.5563],[-65.0693,-17.0627,242.3193],[-65.0716,-17.0656,243.5618],[-65.0753,-17.0623,237.3254],[-65.0782,-17.0626,236.1266],[-65.0801,-17.0581,246.1408],[-65.0849,-17.0561,242.2979],[-65.0866,-17.0486,239.2247],[-65.0933,-17.0495,241.4366],[-65.0928,-17.0437,233.4235],[-65.0846,-17.0391,232.9806],[-65.0903,-17.0351,233.43],[-65.0875,-17.0325,232.0891],[-65.0881,-17.0292,234.8537],[-65.0919,-17.0281,238.423],[-65.0999,-17.0308,236.765],[-65.1017,-17.0292,231.1594],[-65.0994,-17.0247,235.375],[-65.0938,-17.0213,229.2234],[-65.0931,-17.0151,228.1734],[-65.0906,-17.0148,236.7085],[-65.0893,-17.0172,231.7403],[-65.0876,-17.0173,231.7403],[-65.0832,-17.0129,243.0717],[-65.0835,-17.0108,231.4279],[-65.0906,-17.0067,235.207],[-65.0946,-17.0078,232.0423],[-65.0973,-17.0116,221.78],[-65.0997,-17.0071,227.8304],[-65.0945,-16.9995,225.2358],[-65.0805,-16.996,225.6929],[-65.0782,-16.9893,221.9026],[-65.0817,-16.9857,217.7101],[-65.0935,-16.9877,225.9841],[-65.0966,-16.9855,219.4683],[-65.0976,-16.9823,213.5],[-65.0872,-16.9781,220.4138],[-65.0844,-16.9707,212.5627],[-65.0852,-16.9613,214.1474],[-65.0798,-16.954,214.1294],[-65.0817,-16.9461,208.5],[-65.0808,-16.9414,209.9694],[-65.0686,-16.9255,209.3528],[-65.0679,-16.9202,208.5884],[-65.0718,-16.9147,211.3041],[-65.0801,-16.9142,211.4925],[-65.0972,-16.9274,212.4718],[-65.1023,-16.9283,210.6597],[-65.1109,-16.9237,209.2152],[-65.115,-16.9158,210.3266],[-65.1139,-16.9122,210.7637],[-65.1098,-16.909,209.5622],[-65.1052,-16.9088,209.9605],[-65.0968,-16.9138,208.0485],[-65.09,-16.9127,213.1141],[-65.0824,-16.8924,203.625],[-65.0823,-16.8843,207.8957],[-65.0847,-16.8784,207.6212],[-65.0835,-16.8746,205.7966],[-65.0762,-16.8726,208.5623],[-65.0686,-16.875,204.4158],[-65.0647,-16.8746,204.6156],[-65.0618,-16.8716,206.8931],[-65.0599,-16.8649,204.9187],[-65.0523,-16.8616,208.3356],[-65.0441,-16.8516,214.8845],[-65.0434,-16.847,205.4926],[-65.0468,-16.843,208.9538],[-65.0525,-16.8429,207.4684],[-65.0604,-16.8473,205.5552],[-65.0673,-16.8445,200.375],[-65.0701,-16.8333,203.2831],[-65.0675,-16.8264,199.5],[-65.0625,-16.8237,202.0652],[-65.0529,-16.8264,201.7584],[-65.0484,-16.8255,202.892],[-65.0459,-16.8214,202.4912],[-65.0436,-16.8096,202.6539],[-65.0413,-16.8082,204.2672],[-65.0358,-16.808,205.2345],[-65.0283,-16.8138,199.2509],[-65.0226,-16.8148,199.2798],[-65.017,-16.8095,197.6527],[-65.0146,-16.8031,197.355],[-65.0104,-16.8004,199.5927],[-65.0068,-16.8014,201.9684],[-65.0052,-16.8047,202.7883],[-65.0069,-16.809,198.782],[-65.0138,-16.8165,195.5],[-65.0121,-16.8216,195.5],[-65.0057,-16.8222,197.7467],[-64.9905,-16.8181,201.1452],[-64.9865,-16.8145,194.9451],[-64.9878,-16.8022,194.25],[-64.9852,-16.7988,194.0],[-64.9826,-16.7985,195.3259],[-64.9778,-16.8001,196.224],[-64.975,-16.8039,194.0],[-64.9753,-16.8159,193.5],[-64.9726,-16.8221,195.4058],[-64.9699,-16.8235,197.706],[-64.9627,-16.8225,193.9872],[-64.9592,-16.8177,195.3801],[-64.9644,-16.8066,192.5],[-64.9624,-16.8016,194.581],[-64.9577,-16.8,197.725],[-64.9461,-16.8012,192.0],[-64.9417,-16.7988,197.1347],[-64.9403,-16.7945,192.7076],[-64.9446,-16.7902,196.2747],[-64.9533,-16.7914,201.9712],[-64.9618,-16.7885,192.5336],[-64.9654,-16.7846,191.0],[-64.9642,-16.7794,190.5],[-64.9622,-16.7776,190.5],[-64.9475,-16.7773,193.6948],[-64.9357,-16.783,196.4945],[-64.9281,-16.7846,197.1325],[-64.9231,-16.7814,190.7608],[-64.919,-16.7725,189.0],[-64.915,-16.7711,189.0],[-64.9118,-16.7724,189.0],[-64.9075,-16.7777,189.0],[-64.9006,-16.7783,190.2968],[-64.8963,-16.776,201.2049],[-64.8917,-16.7693,188.0],[-64.883,-16.7617,191.2878],[-64.8838,-16.7565,197.7206],[-64.8914,-16.7536,192.5121],[-64.8941,-16.7501,187.5],[-64.8932,-16.7468,192.0202],[-64.8902,-16.7452,191.5142],[-64.88,-16.749,189.499],[-64.8707,-16.7611,194.7084],[-64.864,-16.7652,186.5],[-64.8608,-16.7641,186.5],[-64.8523,-16.749,189.0598],[-64.8472,-16.7455,191.4776],[-64.8448,-16.7456,190.9164],[-64.8424,-16.7486,197.8187],[-64.8418,-16.7529,194.7639],[-64.8444,-16.7596,198.0077],[-64.8417,-16.7645,190.2599],[-64.839,-16.7649,189.2363],[-64.8351,-16.7629,193.8883],[-64.8307,-16.754,192.3967]]]]}}