{"type":"Feature","properties":{"GID_3":"BOL.6.5.2_2","GID_0":"BOL","country":"Bolivia","GID_1":"BOL.6_1","province":"Pando","NL_NAME_1":"NA","GID_2":"BOL.6.5_2","county":"NicolásSuárez","NL_NAME_2":"NA","city":"Bolpebra","VARNAME_3":"NA","NL_NAME_3":"NA","TYPE_3":"District","ENGTYPE_3":"Distrito","CC_3":"NA","HASC_3":"NA","name":"Bolpebra.city"},
"geometry":{"type": "MultiPolygon","coordinates": [[[[-69.0019,-11.4324,243.2522],[-69.0017,-11.0092,202.8424],[-69.0042,-11.0071,202.4976],[-69.0141,-11.0052,212.6843],[-69.0166,-11.0023,201.5208],[-69.0116,-10.9959,220.1783],[-69.0126,-10.9926,211.7594],[-69.0196,-10.9918,209.8843],[-69.0237,-10.994,206.3454],[-69.0262,-10.9912,201.8928],[-69.0267,-10.9879,203.5789],[-69.0302,-10.9863,213.1121],[-69.0336,-10.9869,207.8558],[-69.0375,-10.983,217.0843],[-69.0485,-10.9819,212.9719],[-69.0534,-10.9791,213.0138],[-69.0556,-10.9829,204.3605],[-69.0609,-10.9864,212.3289],[-69.0682,-10.9773,206.1439],[-69.0894,-10.983,224.5244],[-69.0962,-10.9827,228.2614],[-69.0987,-10.9809,213.0898],[-69.1029,-10.9818,221.3911],[-69.1058,-10.9774,218.9289],[-69.1152,-10.976,213.6213],[-69.1179,-10.9812,212.4882],[-69.1205,-10.9818,216.7318],[-69.1224,-10.9748,207.1917],[-69.1316,-10.9711,216.4577],[-69.1374,-10.9748,221.2882],[-69.1385,-10.9684,213.1493],[-69.1457,-10.972,218.0106],[-69.1501,-10.9722,226.6692],[-69.151,-10.969,213.0968],[-69.1468,-10.965,214.0454],[-69.1495,-10.9642,216.9884],[-69.1548,-10.9659,219.4339],[-69.1562,-10.9633,214.3557],[-69.1594,-10.963,227.7907],[-69.1619,-10.9666,226.4714],[-69.1699,-10.9637,213.4549],[-69.1829,-10.9676,244.5092],[-69.1887,-10.9672,235.2605],[-69.1979,-10.9638,239.0057],[-69.2038,-10.9579,224.8453],[-69.2159,-10.96,221.9253],[-69.2227,-10.9562,218.3383],[-69.2281,-10.9561,216.4803],[-69.2347,-10.9588,244.8097],[-69.2399,-10.9589,237.2883],[-69.2497,-10.9557,233.8987],[-69.2713,-10.9534,226.2048],[-69.2742,-10.9553,217.5246],[-69.2759,-10.9537,219.7209],[-69.3121,-10.9564,251.7574],[-69.3266,-10.9539,240.013],[-69.3414,-10.9487,224.6873],[-69.3418,-10.9521,228.0246],[-69.3438,-10.9524,232.1693],[-69.3476,-10.9475,228.2268],[-69.3472,-10.9451,234.1716],[-69.3524,-10.9401,239.1393],[-69.3559,-10.9395,236.8971],[-69.3543,-10.944,221.1537],[-69.3563,-10.9457,222.2068],[-69.3736,-10.9404,225.8253],[-69.3723,-10.949,225.7662],[-69.3728,-10.955,221.4623],[-69.3747,-10.9565,225.54],[-69.3781,-10.9525,234.7494],[-69.3797,-10.9413,236.6912],[-69.3843,-10.943,237.5488],[-69.3865,-10.9423,236.7053],[-69.3888,-10.9393,232.9276],[-69.3887,-10.9341,229.4362],[-69.3937,-10.9347,237.9332],[-69.3936,-10.941,233.6404],[-69.3902,-10.943,228.6534],[-69.3934,-10.9458,226.8081],[-69.397,-10.9424,230.4421],[-69.4027,-10.93,232.7789],[-69.4057,-10.9298,222.2424],[-69.4108,-10.9379,230.5313],[-69.4128,-10.9371,230.5313],[-69.4141,-10.9388,241.8102],[-69.4168,-10.9275,243.8202],[-69.4236,-10.9272,229.7711],[-69.4255,-10.9309,229.911],[-69.425,-10.9351,231.8706],[-69.429,-10.9382,233.271],[-69.4509,-10.9364,236.998],[-69.4537,-10.949,240.5462],[-69.4552,-10.9501,227.9326],[-69.4585,-10.947,230.4651],[-69.4607,-10.9503,232.1743],[-69.465,-10.9509,236.0761],[-69.4756,-10.9448,239.9217],[-69.4784,-10.9475,233.1234],[-69.4761,-10.9517,229.18],[-69.4782,-10.955,230.7931],[-69.4811,-10.9549,238.0423],[-69.4833,-10.9527,243.1932],[-69.5035,-10.9524,253.6586],[-69.5333,-10.9597,262.4365],[-69.5652,-10.9555,257.4161],[-69.5677,-10.9518,251.34],[-69.5703,-10.9522,239.567],[-69.5689,-10.9507,242.5251],[-69.5692,-10.9476,237.2701],[-69.5723,-10.9494,246.3755],[-69.4682,-11.117,309.4272],[-69.3232,-11.3555,302.901],[-69.2556,-11.4575,256.8242],[-69.2463,-11.4596,258.9863],[-69.2433,-11.4651,248.0806],[-69.2401,-11.4608,253.946],[-69.238,-11.4611,243.7367],[-69.2375,-11.4626,257.9138],[-69.2404,-11.4674,248.5721],[-69.2373,-11.4685,257.8551],[-69.2278,-11.466,241.7591],[-69.2281,-11.4634,248.2962],[-69.2312,-11.4618,250.3423],[-69.2292,-11.459,248.0869],[-69.2214,-11.4602,248.5355],[-69.2162,-11.4582,246.9358],[-69.2152,-11.4563,252.4185],[-69.2183,-11.4534,252.9006],[-69.218,-11.4518,237.03],[-69.2068,-11.4538,247.4609],[-69.2034,-11.4492,246.3207],[-69.1964,-11.4517,247.8177],[-69.1917,-11.4475,246.9331],[-69.1883,-11.4468,244.5787],[-69.1866,-11.4501,248.0443],[-69.1916,-11.4542,244.6554],[-69.1913,-11.4559,242.0682],[-69.1885,-11.4566,255.1822],[-69.1848,-11.4535,250.166],[-69.182,-11.4467,255.2135],[-69.1799,-11.4459,242.2404],[-69.1777,-11.4463,254.4847],[-69.1719,-11.4523,241.2973],[-69.1652,-11.447,249.0274],[-69.159,-11.4476,241.1626],[-69.1552,-11.4523,238.8256],[-69.1502,-11.4528,243.5577],[-69.1495,-11.4595,254.039],[-69.1449,-11.4614,253.8856],[-69.1425,-11.4581,235.0],[-69.1423,-11.4524,240.9033],[-69.1358,-11.4453,239.5629],[-69.1309,-11.4471,243.5831],[-69.1248,-11.4431,257.6053],[-69.1232,-11.4446,237.208],[-69.1249,-11.4511,250.141],[-69.1238,-11.4539,237.9894],[-69.1182,-11.4513,252.1635],[-69.1113,-11.4524,236.4322],[-69.1112,-11.4495,237.9356],[-69.1159,-11.4483,250.8251],[-69.1168,-11.4446,243.0961],[-69.1117,-11.4389,243.8978],[-69.1047,-11.4416,245.8029],[-69.1063,-11.4372,251.5963],[-69.1115,-11.4354,241.1831],[-69.1078,-11.4313,255.3375],[-69.101,-11.432,242.8896],[-69.0918,-11.4305,238.7227],[-69.0906,-11.4315,245.9744],[-69.0913,-11.436,233.0],[-69.0897,-11.4365,248.3967],[-69.0789,-11.4315,243.5014],[-69.0745,-11.4371,241.8456],[-69.0744,-11.4298,241.2517],[-69.0841,-11.4296,258.5652],[-69.0864,-11.4275,238.2673],[-69.0771,-11.4248,250.9127],[-69.0708,-11.4274,233.6483],[-69.0654,-11.4276,239.5385],[-69.0644,-11.435,237.7528],[-69.0668,-11.4361,239.3642],[-69.07,-11.4333,238.1724],[-69.0716,-11.4349,242.9726],[-69.0713,-11.4376,246.4003],[-69.0649,-11.4408,239.6759],[-69.0582,-11.439,233.6451],[-69.0528,-11.45,242.3445],[-69.0461,-11.4436,245.8178],[-69.0461,-11.4379,234.3958],[-69.0441,-11.4359,235.5433],[-69.036,-11.4381,232.6632],[-69.0352,-11.4409,231.4314],[-69.0382,-11.4447,233.9087],[-69.036,-11.4463,244.9586],[-69.0319,-11.4448,246.9835],[-69.0305,-11.4382,236.0317],[-69.0289,-11.4374,232.9018],[-69.0266,-11.4394,233.0151],[-69.0244,-11.4474,231.231],[-69.0152,-11.4465,238.5177],[-69.0143,-11.4399,229.7084],[-69.0128,-11.4393,232.1754],[-69.011,-11.445,235.6402],[-69.0079,-11.4464,241.7889],[-69.0064,-11.4435,231.7261],[-69.0075,-11.4394,229.0083],[-69.0023,-11.4366,238.7253],[-69.0019,-11.4324,243.2522]]],
[[[-69.5747,-10.9451,235.4781],[-69.5738,-10.9468,235.7906],[-69.5735,-10.9458,235.4781],[-69.5747,-10.9451,235.4781]]]]}}