{"type":"Feature","properties":{"GID_3":"BOL.2.13.1_2","GID_0":"BOL","country":"Bolivia","GID_1":"BOL.2_1","province":"Cochabamba","NL_NAME_1":"NA","GID_2":"BOL.2.13_2","county":"Punata","NL_NAME_2":"NA","city":"Punata","VARNAME_3":"NA","NL_NAME_3":"NA","TYPE_3":"District","ENGTYPE_3":"Distrito","CC_3":"NA","HASC_3":"NA","name":"Punata.city"},
"geometry":{"type": "MultiPolygon","coordinates": [[[[-65.763,-17.5179,3588.9072],[-65.7706,-17.5075,3403.6648],[-65.7777,-17.5009,3120.78],[-65.7788,-17.4936,3043.9333],[-65.7888,-17.4877,2862.3774],[-65.7958,-17.4934,2869.572],[-65.8056,-17.4983,3224.4502],[-65.8093,-17.5139,2789.8284],[-65.8268,-17.5189,2749.5498],[-65.8359,-17.5197,2732.4231],[-65.8361,-17.517,2734.6479],[-65.8474,-17.5182,2719.3608],[-65.8457,-17.5257,2718.1797],[-65.8621,-17.5264,2705.9451],[-65.8695,-17.5365,2701.0596],[-65.8718,-17.5364,2700.1716],[-65.8718,-17.5389,2699.7334],[-65.8766,-17.5386,2699.0762],[-65.8766,-17.5403,2699.2268],[-65.8695,-17.5453,2700.9404],[-65.8685,-17.5486,2702.3748],[-65.8727,-17.5483,2699.5605],[-65.8721,-17.5505,2699.7395],[-65.8793,-17.5513,2698.5259],[-65.8799,-17.5543,2697.6055],[-65.8853,-17.555,2697.2173],[-65.8862,-17.551,2696.3801],[-65.8999,-17.5544,2696.1641],[-65.8943,-17.5674,2696.8711],[-65.8949,-17.5732,2697.071],[-65.8896,-17.5784,2697.5085],[-65.8888,-17.5833,2697.2839],[-65.8795,-17.595,2697.0115],[-65.8733,-17.5938,2697.3147],[-65.8659,-17.5973,2698.126],[-65.8545,-17.5931,2699.124],[-65.8447,-17.5942,2699.9829],[-65.8388,-17.5895,2701.2861],[-65.8356,-17.5888,2701.8657],[-65.83,-17.5908,2702.6282],[-65.8243,-17.5984,2703.2739],[-65.813,-17.5968,2704.2808],[-65.8103,-17.591,2705.6492],[-65.8101,-17.5804,2709.45],[-65.8058,-17.5581,2721.3774],[-65.8026,-17.5588,2721.3069],[-65.8041,-17.5476,2731.7397],[-65.7966,-17.5455,2727.3003],[-65.7955,-17.5472,2726.6729],[-65.7932,-17.5471,2735.4509],[-65.777,-17.5361,3319.3042],[-65.763,-17.5179,3588.9072]]]]}}