{"type":"Feature","properties":{"GID_3":"BOL.5.8.1_2","GID_0":"BOL","country":"Bolivia","GID_1":"BOL.5_1","province":"Oruro","NL_NAME_1":"NA","GID_2":"BOL.5.8_2","county":"PantaleónDalence","NL_NAME_2":"NA","city":"Huanuni","VARNAME_3":"NA","NL_NAME_3":"NA","TYPE_3":"District","ENGTYPE_3":"Distrito","CC_3":"NA","HASC_3":"NA","name":"Huanuni.city"},
"geometry":{"type": "MultiPolygon","coordinates": [[[[-66.8414,-18.0517,4769.9595],[-66.8465,-18.0545,4713.4146],[-66.8529,-18.064,4629.3379],[-66.8634,-18.0685,4701.1665],[-66.8817,-18.0683,4736.2788],[-66.8869,-18.0747,4720.2432],[-66.8874,-18.0899,4662.1455],[-66.886,-18.1089,4385.998],[-66.877,-18.1334,4526.0083],[-66.8605,-18.1507,4354.9492],[-66.8465,-18.1591,4006.1641],[-66.8442,-18.1663,4328.0645],[-66.8452,-18.1728,4343.0415],[-66.8437,-18.1868,4583.3716],[-66.86,-18.1876,4238.7354],[-66.8873,-18.1982,3975.8037],[-66.8937,-18.2022,4151.6851],[-66.8979,-18.2118,4071.5693],[-66.9159,-18.2219,3806.9531],[-66.8984,-18.2324,3824.8508],[-66.8907,-18.2477,3843.8384],[-66.8868,-18.2524,3850.1167],[-66.8828,-18.2541,3853.7478],[-66.8829,-18.2594,3857.6445],[-66.8745,-18.2667,3868.845],[-66.8723,-18.271,3872.3682],[-66.8624,-18.2733,3888.791],[-66.8572,-18.2768,3902.3252],[-66.8557,-18.2817,3944.999],[-66.8531,-18.2844,3971.8447],[-66.8535,-18.2877,3988.8833],[-66.847,-18.3029,3926.7522],[-66.8497,-18.3277,3957.7566],[-66.8445,-18.338,3990.8774],[-66.8329,-18.3435,4258.0288],[-66.8233,-18.3423,4483.9058],[-66.8107,-18.3469,4606.5527],[-66.8049,-18.3401,4628.9844],[-66.7949,-18.3583,4553.2144],[-66.7891,-18.3631,4515.9111],[-66.7829,-18.3734,4507.1265],[-66.7584,-18.398,4473.022],[-66.7394,-18.4265,4636.8828],[-66.7385,-18.4397,4564.7422],[-66.7355,-18.443,4546.3008],[-66.7329,-18.4536,4603.4893],[-66.72,-18.471,4651.834],[-66.7082,-18.4996,4617.0186],[-66.6979,-18.4936,4360.5083],[-66.6928,-18.4936,4334.1934],[-66.6896,-18.4872,4381.5674],[-66.6831,-18.4825,4428.959],[-66.6841,-18.4743,4563.8486],[-66.6815,-18.4717,4592.6719],[-66.6871,-18.4624,4665.6675],[-66.6976,-18.4356,4376.7388],[-66.7,-18.419,4255.7515],[-66.6972,-18.4084,4288.7935],[-66.6986,-18.4032,4311.8442],[-66.7142,-18.378,4410.1309],[-66.7149,-18.362,4523.9834],[-66.7293,-18.3404,4592.939],[-66.7081,-18.3288,4438.9536],[-66.7029,-18.3235,4398.9536],[-66.6786,-18.3164,4316.6914],[-66.6661,-18.3072,4203.7539],[-66.6614,-18.2956,4165.0225],[-66.644,-18.2935,4136.5308],[-66.6386,-18.2884,4125.2324],[-66.6353,-18.2869,4117.8486],[-66.6273,-18.2873,4112.0327],[-66.6144,-18.2793,4101.9414],[-66.5867,-18.282,4107.1655],[-66.5807,-18.2792,4035.1187],[-66.5685,-18.2793,3917.6067],[-66.5657,-18.2768,3902.6177],[-66.5624,-18.2772,3891.791],[-66.5586,-18.2751,3876.1492],[-66.5541,-18.2767,3875.2776],[-66.5497,-18.2744,3869.6895],[-66.548,-18.2709,3840.8083],[-66.5465,-18.2724,3851.7266],[-66.544,-18.2718,3868.3237],[-66.5441,-18.2657,3836.6973],[-66.5402,-18.2692,3820.0449],[-66.5378,-18.2659,3811.1555],[-66.5346,-18.2666,3814.9072],[-66.5337,-18.2635,3769.8623],[-66.5298,-18.2615,3776.6865],[-66.5282,-18.2493,3392.9373],[-66.5314,-18.2469,3391.9993],[-66.5414,-18.2472,3403.9321],[-66.5448,-18.2442,3419.2458],[-66.5504,-18.2427,3456.7827],[-66.5515,-18.2447,3512.7144],[-66.5527,-18.2433,3483.6621],[-66.559,-18.2436,3466.9919],[-66.5623,-18.2477,3513.731],[-66.5667,-18.2481,3574.6753],[-66.5695,-18.2503,3647.4111],[-66.5784,-18.2466,3648.3755],[-66.5846,-18.2461,3725.2881],[-66.5893,-18.2413,3751.8484],[-66.5978,-18.2362,3797.8711],[-66.6053,-18.2384,3855.2808],[-66.6159,-18.2371,3888.0393],[-66.6218,-18.2384,3940.7432],[-66.6315,-18.2367,3940.0435],[-66.6397,-18.2408,3942.5999],[-66.6443,-18.241,3984.1438],[-66.6523,-18.2388,4058.8809],[-66.656,-18.2357,4063.6809],[-66.6675,-18.2384,4092.3604],[-66.6757,-18.2326,4218.8428],[-66.689,-18.2327,4251.062],[-66.6961,-18.2346,4322.0435],[-66.7217,-18.2451,4152.6831],[-66.7246,-18.2446,4155.7031],[-66.7257,-18.242,4164.2051],[-66.7297,-18.2404,4180.6245],[-66.7462,-18.241,4220.7681],[-66.7487,-18.2326,4277.1138],[-66.7577,-18.2274,4374.5039],[-66.7637,-18.2164,4420.9453],[-66.7629,-18.2087,4490.8193],[-66.7576,-18.2062,4494.7998],[-66.7597,-18.1699,4651.313],[-66.7675,-18.1658,4637.3618],[-66.7728,-18.1603,4623.7744],[-66.7852,-18.1357,4579.4946],[-66.7958,-18.1296,4534.4297],[-66.799,-18.1245,4585.7285],[-66.8157,-18.1113,4616.6479],[-66.818,-18.1019,4439.8911],[-66.8223,-18.0938,4431.4644],[-66.8321,-18.0833,4485.1118],[-66.8329,-18.0615,4725.7852],[-66.8414,-18.0517,4769.9595]]]]}}