{"type":"Feature","properties":{"GID_3":"BOL.4.12.6_2","GID_0":"BOL","country":"Bolivia","GID_1":"BOL.4_1","province":"LaPaz","NL_NAME_1":"NA","GID_2":"BOL.4.12_2","county":"Larecaja","NL_NAME_2":"NA","city":"Tacacoma","VARNAME_3":"NA","NL_NAME_3":"NA","TYPE_3":"District","ENGTYPE_3":"Distrito","CC_3":"NA","HASC_3":"NA","name":"Tacacoma.city"},
"geometry":{"type": "MultiPolygon","coordinates": [[[[-68.4479,-15.1943,916.7922],[-68.4511,-15.1985,835.1975],[-68.4544,-15.2,790.5769],[-68.4691,-15.1947,856.8154],[-68.4814,-15.1996,902.8429],[-68.4843,-15.2026,931.7354],[-68.4904,-15.204,1015.9889],[-68.4934,-15.2077,1134.2036],[-68.4987,-15.2099,986.1409],[-68.4991,-15.2133,1034.1621],[-68.501,-15.2145,1078.5334],[-68.5071,-15.2157,1058.9271],[-68.5164,-15.2204,1109.2848],[-68.5198,-15.2329,1274.7268],[-68.5183,-15.2373,1223.241],[-68.52,-15.2436,1395.0298],[-68.5345,-15.2556,1461.3909],[-68.5377,-15.265,1626.3311],[-68.5498,-15.2727,1805.7146],[-68.5594,-15.2934,2109.4265],[-68.5681,-15.3013,2669.1909],[-68.5796,-15.3176,3564.6274],[-68.6094,-15.332,3369.8789],[-68.6308,-15.3296,4113.6982],[-68.6358,-15.3433,4182.9688],[-68.654,-15.3632,2746.7451],[-68.6471,-15.3683,2602.354],[-68.6407,-15.3717,2522.3774],[-68.6362,-15.372,2477.7959],[-68.6333,-15.3746,2624.2715],[-68.6344,-15.3787,2730.6143],[-68.6327,-15.3812,2719.0085],[-68.6325,-15.3863,2989.0498],[-68.6177,-15.4109,3254.572],[-68.6137,-15.4215,2733.3906],[-68.6053,-15.432,2174.5151],[-68.5941,-15.4513,1119.6455],[-68.6218,-15.4649,1186.7509],[-68.6251,-15.4684,1191.2363],[-68.6449,-15.4726,1208.9033],[-68.6562,-15.4808,1250.1881],[-68.6637,-15.4834,1259.4792],[-68.6692,-15.4902,1305.2173],[-68.6685,-15.4958,1264.4938],[-68.6709,-15.5044,1316.9258],[-68.676,-15.5077,1352.0417],[-68.6834,-15.5081,1354.613],[-68.6875,-15.51,1356.2947],[-68.6951,-15.5213,1351.5144],[-68.7003,-15.5252,1393.2966],[-68.6946,-15.531,1567.1134],[-68.6877,-15.5449,1633.5491],[-68.6828,-15.5739,2002.7382],[-68.6836,-15.5773,2071.4148],[-68.6763,-15.5958,2344.6963],[-68.6772,-15.6006,2443.1233],[-68.6707,-15.6079,2691.6616],[-68.6691,-15.6122,2762.2581],[-68.6601,-15.6162,2972.7144],[-68.6532,-15.6256,3355.1592],[-68.6432,-15.6322,3767.0637],[-68.6393,-15.643,4262.0576],[-68.6394,-15.6474,4343.0537],[-68.6423,-15.6515,4509.2563],[-68.629,-15.6665,4676.7354],[-68.6187,-15.6696,4878.938],[-68.5697,-15.6745,4750.1855],[-68.5645,-15.6676,4714.2046],[-68.5705,-15.6544,4646.4883],[-68.5805,-15.6196,4441.4302],[-68.5847,-15.614,4487.8955],[-68.5937,-15.6114,4482.6797],[-68.61,-15.5862,4292.1743],[-68.6085,-15.5752,3686.1445],[-68.6161,-15.5538,2771.3833],[-68.6193,-15.5503,2652.417],[-68.6204,-15.5432,2606.3713],[-68.6202,-15.5386,2311.136],[-68.618,-15.5338,2193.5308],[-68.6148,-15.5312,2114.397],[-68.6093,-15.5177,1986.2719],[-68.6035,-15.5131,1942.2581],[-68.6034,-15.5199,1943.8472],[-68.5893,-15.5281,2236.4712],[-68.5818,-15.5413,2339.0112],[-68.5764,-15.5454,2389.4241],[-68.5737,-15.5518,2466.3955],[-68.5676,-15.5534,2533.5283],[-68.5549,-15.5338,3506.0376],[-68.5408,-15.5246,3892.4856],[-68.5377,-15.5194,4318.6353],[-68.5298,-15.4859,3451.6169],[-68.5245,-15.4803,3465.5291],[-68.5187,-15.4699,3808.864],[-68.5071,-15.4582,3534.0715],[-68.5063,-15.4556,3468.3801],[-68.498,-15.4526,3554.1038],[-68.4964,-15.4478,3355.74],[-68.4868,-15.4373,3396.7625],[-68.4818,-15.4348,3488.3848],[-68.4855,-15.4254,3377.0679],[-68.4764,-15.4191,2963.4287],[-68.4753,-15.4238,2913.4395],[-68.4733,-15.4258,2728.4648],[-68.466,-15.4262,2302.7214],[-68.4572,-15.4203,2177.8655],[-68.4604,-15.4166,2234.9897],[-68.4523,-15.4124,2000.5391],[-68.4537,-15.4061,1874.2134],[-68.4498,-15.3993,1830.4258],[-68.4505,-15.3965,1800.8267],[-68.4481,-15.3962,1766.5264],[-68.4482,-15.3923,1777.8132],[-68.4466,-15.3917,1733.3307],[-68.4477,-15.3897,1707.8578],[-68.443,-15.3879,1612.6344],[-68.4424,-15.3849,1556.7896],[-68.4445,-15.3807,1560.0231],[-68.4403,-15.3798,1630.7697],[-68.4426,-15.3737,1400.5546],[-68.4399,-15.3733,1405.7933],[-68.4377,-15.3702,1364.7841],[-68.4379,-15.365,1338.4158],[-68.4359,-15.3651,1421.5648],[-68.436,-15.3633,1320.7725],[-68.4331,-15.3616,1404.8593],[-68.4336,-15.3577,1309.8022],[-68.4324,-15.357,1269.6654],[-68.4304,-15.3591,1375.2858],[-68.4316,-15.3548,1353.7715],[-68.4288,-15.3553,1281.6625],[-68.428,-15.3529,1254.8943],[-68.4232,-15.352,1235.3035],[-68.4225,-15.3463,1270.7788],[-68.4191,-15.3445,1125.6211],[-68.4181,-15.342,1199.0171],[-68.4198,-15.3392,1087.5045],[-68.418,-15.3375,1143.4349],[-68.4156,-15.3379,1124.0337],[-68.4159,-15.3354,1064.7496],[-68.4142,-15.3338,1145.7629],[-68.4148,-15.3294,998.6637],[-68.4121,-15.3281,1166.1511],[-68.409,-15.3235,995.8622],[-68.4064,-15.3237,1023.6894],[-68.4039,-15.3207,1008.1895],[-68.3978,-15.3238,951.3805],[-68.3879,-15.3187,991.1165],[-68.3871,-15.3163,884.9347],[-68.3842,-15.3151,782.2649],[-68.3799,-15.3159,761.7502],[-68.3773,-15.3138,857.7801],[-68.3753,-15.3157,750.2972],[-68.3721,-15.3151,794.5086],[-68.3708,-15.3121,732.3937],[-68.3662,-15.312,771.2991],[-68.3643,-15.3088,776.0618],[-68.3644,-15.3043,662.3474],[-68.3584,-15.3061,662.5814],[-68.3501,-15.306,666.5331],[-68.3451,-15.3039,670.4318],[-68.3349,-15.3027,668.2128],[-68.3235,-15.3046,722.9812],[-68.3131,-15.3017,625.7109],[-68.3038,-15.3034,627.7688],[-68.2999,-15.3063,664.111],[-68.2938,-15.3063,630.1984],[-68.2886,-15.3045,627.5803],[-68.2796,-15.2975,602.6834],[-68.2682,-15.3,656.2629],[-68.2642,-15.2971,594.0991],[-68.2695,-15.2982,589.9469],[-68.2717,-15.2952,612.4624],[-68.2775,-15.2936,612.3912],[-68.2831,-15.2838,612.7394],[-68.2892,-15.2841,602.8352],[-68.2911,-15.2826,614.0272],[-68.2922,-15.2801,633.7455],[-68.2897,-15.2775,636.5383],[-68.2966,-15.2689,631.7697],[-68.2957,-15.2596,615.2145],[-68.2973,-15.2583,622.4485],[-68.3003,-15.2617,639.43],[-68.3028,-15.2622,643.5289],[-68.3035,-15.2593,645.3585],[-68.3016,-15.256,677.3429],[-68.306,-15.2531,659.7488],[-68.3043,-15.2506,626.4492],[-68.3104,-15.2521,653.3509],[-68.3128,-15.2427,634.7846],[-68.3223,-15.2421,652.7513],[-68.3244,-15.2451,701.4036],[-68.3279,-15.2419,648.1373],[-68.3342,-15.2428,660.2328],[-68.3345,-15.2396,693.2125],[-68.3375,-15.239,658.0948],[-68.3395,-15.2361,705.9015],[-68.3459,-15.2361,665.2997],[-68.3485,-15.2314,677.328],[-68.3521,-15.2313,716.3091],[-68.3549,-15.2342,658.825],[-68.3605,-15.2322,689.3984],[-68.3647,-15.2325,671.562],[-68.3695,-15.2274,740.5594],[-68.3719,-15.2317,708.2136],[-68.3769,-15.2266,691.2188],[-68.3799,-15.2297,698.9723],[-68.3881,-15.2288,735.4941],[-68.3999,-15.2341,732.647],[-68.4032,-15.2334,698.0121],[-68.4067,-15.2318,720.6073],[-68.4108,-15.224,740.8724],[-68.4245,-15.2164,742.0315],[-68.4303,-15.2108,769.3853],[-68.4362,-15.2084,728.4047],[-68.4417,-15.2012,730.3971],[-68.446,-15.199,754.8995],[-68.4479,-15.1943,916.7922]]]]}}