{"type":"Feature","properties":{"GID_3":"BOL.4.11.6_2","GID_0":"BOL","country":"Bolivia","GID_1":"BOL.4_1","province":"LaPaz","NL_NAME_1":"NA","GID_2":"BOL.4.11_2","county":"Inquisivi","NL_NAME_2":"NA","city":"VillaLibertadLicoma","VARNAME_3":"NA","NL_NAME_3":"NA","TYPE_3":"District","ENGTYPE_3":"Distrito","CC_3":"NA","HASC_3":"NA","name":"Villa_Libertad_Licoma.city"},
"geometry":{"type": "MultiPolygon","coordinates": [[[[-67.3002,-16.7716,3721.2722],[-67.3114,-16.7835,3860.7686],[-67.3067,-16.8028,3978.0813],[-67.2961,-16.8261,3901.3018],[-67.2663,-16.8466,3112.1604],[-67.2534,-16.8487,2338.5288],[-67.2512,-16.84,2246.6013],[-67.2431,-16.8355,2159.3279],[-67.2343,-16.8469,2393.4985],[-67.2283,-16.8517,2545.3586],[-67.221,-16.8537,2738.0669],[-67.2156,-16.8619,2819.5933],[-67.2069,-16.8704,3052.1392],[-67.1926,-16.8709,3450.3669],[-67.1865,-16.8725,3635.8606],[-67.1766,-16.8676,3331.7217],[-67.1622,-16.8659,2794.3704],[-67.1527,-16.8614,2835.6182],[-67.1461,-16.8633,2895.3599],[-67.1398,-16.86,3000.8264],[-67.1119,-16.8509,3013.4207],[-67.104,-16.8461,3297.2622],[-67.1033,-16.8411,3313.6763],[-67.0944,-16.8342,3618.8555],[-67.094,-16.8287,3655.4038],[-67.0972,-16.8239,3672.4526],[-67.1033,-16.8231,3525.9243],[-67.1086,-16.8181,3643.1221],[-67.1094,-16.8098,3511.9841],[-67.1127,-16.8055,3424.698],[-67.114,-16.7929,3325.7832],[-67.1231,-16.7825,3334.2617],[-67.1339,-16.7754,3233.635],[-67.1452,-16.7733,3064.0439],[-67.1546,-16.7815,2943.5134],[-67.1635,-16.7824,2977.3486],[-67.1761,-16.7735,2901.7412],[-67.1818,-16.774,2842.8076],[-67.1899,-16.7657,2511.3472],[-67.2036,-16.7578,1713.6478],[-67.2199,-16.7572,1788.4698],[-67.2375,-16.7482,2007.5291],[-67.2446,-16.7495,2241.2407],[-67.2457,-16.7525,2208.0073],[-67.2524,-16.7568,2441.5293],[-67.2605,-16.7695,3371.645],[-67.266,-16.7709,3646.6721],[-67.2686,-16.7691,3653.9453],[-67.2748,-16.7703,3714.416],[-67.293,-16.7766,3541.3589],[-67.2975,-16.7709,3711.1619],[-67.3002,-16.7716,3721.2722]]]]}}