{"type": "Feature","bbox": [-57.8589,-19.1238,-57.4544,-17.9815],"geometry": {"type": "MultiPolygon","coordinates": [[[[-57.7142,-17.9815,148.7085],[-57.7973,-18.9356,83.5],[-57.7913,-18.9425,83.5],[-57.783,-18.9621,83.5],[-57.7812,-18.9737,91.9414],[-57.7819,-18.9851,105.9868],[-57.7883,-19.0021,220.5821],[-57.803,-19.0104,253.2165],[-57.8091,-19.0172,226.372],[-57.8174,-19.0331,236.23],[-57.82,-19.0475,227.8176],[-57.8241,-19.0588,344.9109],[-57.8393,-19.0837,175.1066],[-57.8589,-19.1086,144.0792],[-57.8273,-19.1238,136.1993],[-57.7842,-19.0335,240.5101],[-57.7105,-19.0326,102.59],[-57.7083,-19.0275,98.0632],[-57.7079,-19.0156,102.7919],[-57.7052,-19.0015,87.5652],[-57.707,-18.9903,111.6232],[-57.7122,-18.979,83.5],[-57.7197,-18.9781,84.22],[-57.7198,-18.8991,86.0592],[-57.7672,-18.9005,86.029],[-57.5597,-18.2421,96.756],[-57.5578,-18.2404,93.048],[-57.4544,-18.231,88.9088],[-57.4579,-18.2269,91.5392],[-57.4674,-18.2228,90.1261],[-57.4742,-18.217,89.737],[-57.4738,-18.2135,90.2646],[-57.4798,-18.2086,88.5342],[-57.4822,-18.2021,91.2969],[-57.4851,-18.2,90.7507],[-57.4907,-18.2022,90.0979],[-57.5003,-18.1969,89.104],[-57.5051,-18.2003,95.1342],[-57.5076,-18.1992,96.7102],[-57.5748,-18.1319,87.5],[-57.5804,-18.1179,87.5],[-57.6007,-18.0452,87.5],[-57.6365,-17.9816,116.507],[-57.7142,-17.9815,148.7085]]]]}
,"properties": {"GID_3": "BOL.8.6.2_2","GID_0": "BOL","country": "Bolivia","GID_1": "BOL.8_1","province": "SantaCruz","NL_NAME_1": "NA","GID_2": "BOL.8.6_2","county": "GermánBusch","NL_NAME_2": "NA","city": "PuertoQuijarro","VARNAME_3": "NA","NL_NAME_3": "NA","TYPE_3": "District","ENGTYPE_3": "Distrito","CC_3": "NA","HASC_3": "NA","name": "Puerto_Quijarro.city","area_km2": 1428.404,"hist_schema_id": "Elevation0-9000","hist_area_km2": {"75": 182.502,"100": 188.73,"125": 145.224,"150": 174.472,"175": 184.709,"200": 142.567,"225": 110.824,"250": 96.721,"275": 67.242,"300": 35.845,"325": 22.157,"350": 17.828,"375": 15.594,"400": 14.649,"425": 10.022,"450": 6.822,"475": 4.73,"500": 4.146,"525": 2.796,"550": 0.643,"575": 0.181}}}