{"type": "Feature","bbox": [-68.9661,-15.7758,-68.7439,-15.3579],"geometry": {"type": "MultiPolygon","coordinates": [[[[-68.9623,-15.5408,2660.1743],[-68.9598,-15.5429,2713.3618],[-68.9488,-15.5393,3090.7085],[-68.9431,-15.5354,3310.4626],[-68.9375,-15.5366,3484.7227],[-68.9322,-15.535,3536.573],[-68.9291,-15.5364,3444.7388],[-68.9279,-15.5499,3804.3438],[-68.9361,-15.571,3932.011],[-68.9332,-15.5783,4006.8066],[-68.9384,-15.5825,3838.6265],[-68.9427,-15.5931,3914.7568],[-68.9405,-15.5991,3885.5967],[-68.9317,-15.6051,3689.7222],[-68.9211,-15.6159,3354.8889],[-68.9123,-15.6171,2948.4321],[-68.9114,-15.623,3080.7188],[-68.9034,-15.6379,3587.165],[-68.9267,-15.6653,4227.395],[-68.9289,-15.6732,4191.3794],[-68.9323,-15.6762,4287.2568],[-68.9362,-15.6833,4317.3462],[-68.9395,-15.6837,4338.4629],[-68.9508,-15.6936,4368.0566],[-68.9527,-15.6996,4426.2842],[-68.9522,-15.738,4560.0645],[-68.9454,-15.7425,4486.2129],[-68.9396,-15.7556,4606.0234],[-68.928,-15.7606,4607.376],[-68.9179,-15.7726,4672.457],[-68.9075,-15.7758,4636.2583],[-68.8887,-15.7617,4620.0967],[-68.8779,-15.7613,4530.6025],[-68.8756,-15.7639,4454.0938],[-68.8674,-15.7645,4293.5801],[-68.8521,-15.7558,3987.3831],[-68.8481,-15.7559,3927.3892],[-68.8426,-15.7596,3853.1152],[-68.8304,-15.754,3441.9602],[-68.8221,-15.7548,3366.6228],[-68.8053,-15.7356,2833.6152],[-68.8016,-15.7358,2760.2236],[-68.7976,-15.7313,2716.2632],[-68.7928,-15.731,2643.1355],[-68.791,-15.7292,2604.0562],[-68.7864,-15.7132,2407.447],[-68.7843,-15.7119,2394.4233],[-68.783,-15.7074,2323.1055],[-68.7813,-15.7071,2323.1055],[-68.7805,-15.7043,2271.3782],[-68.7766,-15.7011,2259.4106],[-68.7759,-15.694,2158.7969],[-68.7709,-15.6912,2121.1995],[-68.7636,-15.668,2022.0687],[-68.7586,-15.6635,1990.3937],[-68.7587,-15.6596,1898.3397],[-68.7536,-15.6547,1991.8032],[-68.7539,-15.6502,1893.6128],[-68.7564,-15.6471,1743.8358],[-68.7536,-15.6434,1669.8865],[-68.7502,-15.6424,1728.4553],[-68.7498,-15.6399,1718.7202],[-68.754,-15.6334,1650.2318],[-68.7581,-15.6319,1619.2117],[-68.7621,-15.6342,1640.1128],[-68.7651,-15.6334,1632.8633],[-68.7716,-15.6281,1588.1703],[-68.7743,-15.618,1559.8944],[-68.7735,-15.6094,1547.5452],[-68.7764,-15.6042,1542.9548],[-68.7759,-15.5991,1546.0569],[-68.7782,-15.5967,1520.5792],[-68.7782,-15.5937,1547.0692],[-68.7744,-15.5838,1500.6658],[-68.7708,-15.5791,1586.0475],[-68.7703,-15.5725,1485.2267],[-68.7643,-15.5702,1534.9613],[-68.7603,-15.5653,1471.584],[-68.7486,-15.56,1469.229],[-68.7439,-15.5556,1434.3523],[-68.7919,-15.5249,2575.4458],[-68.8188,-15.5013,3611.4092],[-68.8562,-15.4642,3902.6426],[-68.862,-15.4274,4044.9448],[-68.8545,-15.4161,4401.6055],[-68.8666,-15.3964,4670.7603],[-68.886,-15.3747,4590.4507],[-68.8918,-15.3694,4547.2451],[-68.909,-15.3629,4699.0117],[-68.9142,-15.3579,4677.3306],[-68.9202,-15.3752,4709.8032],[-68.9141,-15.3862,4338.6904],[-68.912,-15.4096,3887.3857],[-68.9286,-15.4254,3434.1555],[-68.9293,-15.4462,3211.6152],[-68.9382,-15.443,3430.3477],[-68.954,-15.4514,3217.5996],[-68.9652,-15.4702,2425.2773],[-68.9549,-15.489,2403.6719],[-68.9505,-15.4911,2341.594],[-68.9486,-15.497,2381.249],[-68.9377,-15.5022,2178.3042],[-68.9426,-15.5031,2207.2222],[-68.9475,-15.5071,2250.7905],[-68.9519,-15.5077,2315.1946],[-68.9572,-15.504,2301.312],[-68.9625,-15.5061,2382.4202],[-68.9661,-15.518,2401.3342],[-68.9653,-15.5239,2430.0981],[-68.9607,-15.5324,2554.9263],[-68.9623,-15.5408,2660.1743]]]]}
,"properties": {"GID_3": "BOL.4.16.3_2","GID_0": "BOL","country": "Bolivia","GID_1": "BOL.4_1","province": "LaPaz","NL_NAME_1": "NA","GID_2": "BOL.4.16_2","county": "Muñecas","NL_NAME_2": "NA","city": "Chuma","VARNAME_3": "NA","NL_NAME_3": "NA","TYPE_3": "District","ENGTYPE_3": "Distrito","CC_3": "NA","HASC_3": "NA","name": "Chuma.city","area_km2": 620.4355,"hist_schema_id": "Elevation0-9000","hist_area_km2": {"1450": 0.2247,"1475": 0.6332,"1500": 0.4697,"1525": 0.6127,"1550": 0.8781,"1575": 0.8986,"1600": 1.0619,"1625": 1.0415,"1650": 1.4295,"1675": 1.6542,"1700": 1.6746,"1725": 1.6542,"1750": 1.7564,"1775": 2.3078,"1800": 2.5937,"1825": 2.3283,"1850": 2.6345,"1875": 2.7367,"1900": 2.8797,"1925": 2.941,"1950": 3.2268,"1975": 2.9205,"2000": 3.3698,"2025": 3.6762,"2050": 3.5128,"2075": 4.003,"2100": 3.9213,"2125": 3.9827,"2150": 4.2686,"2175": 4.3912,"2200": 3.4719,"2225": 5.0242,"2250": 3.9212,"2275": 5.0856,"2300": 4.8609,"2325": 4.473,"2350": 5.4736,"2375": 6.025,"2400": 6.1274,"2425": 6.1885,"2450": 5.8617,"2475": 6.7605,"2500": 6.883,"2525": 6.9444,"2550": 7.3527,"2575": 6.6994,"2600": 7.2507,"2625": 6.9442,"2650": 7.1281,"2675": 7.843,"2700": 6.8422,"2725": 7.8429,"2750": 7.9451,"2775": 7.6387,"2800": 7.4751,"2825": 7.5979,"2850": 7.271,"2875": 7.8839,"2900": 8.1695,"2925": 8.9047,"2950": 8.3126,"2975": 8.3533,"3000": 7.2711,"3025": 8.3329,"3050": 7.8017,"3075": 7.5363,"3100": 7.4957,"3125": 7.1892,"3150": 8.0059,"3175": 6.8828,"3200": 6.7397,"3225": 6.8009,"3250": 7.066,"3275": 6.6781,"3300": 6.5962,"3325": 6.4124,"3350": 7.209,"3375": 6.0243,"3400": 5.5752,"3425": 6.0855,"3450": 6.1467,"3475": 5.4319,"3500": 5.0642,"3525": 5.2886,"3550": 5.1459,"3575": 4.8603,"3600": 5.3705,"3625": 5.1254,"3650": 5.411,"3675": 4.3491,"3700": 4.5942,"3725": 4.1448,"3750": 4.3287,"3775": 4.5123,"3800": 4.8595,"3825": 4.5125,"3850": 4.247,"3875": 4.0835,"3900": 4.3896,"3925": 4.4914,"3950": 3.9404,"3975": 4.4301,"4000": 4.7978,"4025": 4.5324,"4050": 4.5937,"4075": 4.1854,"4100": 4.4102,"4125": 3.9406,"4150": 4.4101,"4175": 3.7566,"4200": 4.0422,"4225": 4.5121,"4250": 4.1239,"4275": 4.1441,"4300": 5.0426,"4325": 5.1858,"4350": 5.0018,"4375": 4.3282,"4400": 4.4915,"4425": 4.7773,"4450": 4.1652,"4475": 3.6551,"4500": 3.5121,"4525": 2.614,"4550": 3.2675,"4575": 2.2673,"4600": 1.9408,"4625": 1.3893,"4650": 0.9194,"4675": 0.838,"4700": 0.368,"4725": 0.3271,"4750": 0.2044,"4800": 0.0204}}}