{"type":"Feature","properties":{"GID_3":"BOL.4.3.6_2","GID_0":"BOL","country":"Bolivia","GID_1":"BOL.4_1","province":"LaPaz","NL_NAME_1":"NA","GID_2":"BOL.4.3_2","county":"Aroma","NL_NAME_2":"NA","city":"Sicasica","VARNAME_3":"NA","NL_NAME_3":"NA","TYPE_3":"District","ENGTYPE_3":"Distrito","CC_3":"NA","HASC_3":"NA","name":"Sicasica.city"},
"geometry":{"type": "MultiPolygon","coordinates": [[[[-67.9123,-17.3245,3746.499],[-67.9134,-17.3268,3746.0151],[-67.9058,-17.3418,3743.1465],[-67.9016,-17.3455,3742.8159],[-67.8998,-17.3451,3742.7974],[-67.8961,-17.3475,3741.3875],[-67.8869,-17.345,3740.5811],[-67.8824,-17.3591,3738.6023],[-67.8348,-17.416,3734.3149],[-67.8298,-17.4253,3734.1592],[-67.8236,-17.4277,3734.0183],[-67.8193,-17.4317,3733.7329],[-67.817,-17.4377,3734.1423],[-67.8133,-17.4375,3734.6284],[-67.8117,-17.4408,3733.793],[-67.8058,-17.4458,3733.3311],[-67.8063,-17.4521,3732.9648],[-67.8048,-17.4569,3732.7373],[-67.8018,-17.4589,3732.6611],[-67.8017,-17.4611,3732.8284],[-67.7961,-17.4629,3732.4031],[-67.8023,-17.5142,3734.9697],[-67.801,-17.5132,3734.7471],[-67.765,-17.5172,3733.3237],[-67.7677,-17.5518,3733.7495],[-67.7575,-17.5584,3732.9458],[-67.7482,-17.5576,3733.1494],[-67.7356,-17.56,3732.0498],[-67.7263,-17.5561,3732.1782],[-67.7182,-17.5565,3731.1978],[-67.7139,-17.5546,3730.8496],[-67.7078,-17.5545,3730.5461],[-67.6878,-17.5435,3729.429],[-67.6832,-17.5437,3729.4644],[-67.6739,-17.549,3729.2903],[-67.6656,-17.5505,3728.4622],[-67.6422,-17.5451,3727.8435],[-67.6275,-17.5496,3727.0493],[-67.616,-17.5473,3725.7173],[-67.6107,-17.5506,3725.2705],[-67.6064,-17.5618,3725.5249],[-67.5924,-17.5795,3724.8374],[-67.5753,-17.5911,3723.6218],[-67.5658,-17.5918,3722.7595],[-67.5612,-17.5909,3723.0312],[-67.5522,-17.5857,3723.0056],[-67.5489,-17.5864,3722.3015],[-67.5489,-17.5801,3723.2871],[-67.5463,-17.5754,3722.1912],[-67.5318,-17.5595,3726.4038],[-67.5218,-17.5543,3747.4851],[-67.5203,-17.5509,3758.3181],[-67.5228,-17.5465,3776.9666],[-67.5163,-17.5403,3829.3755],[-67.5054,-17.5182,4128.5186],[-67.5034,-17.5173,4137.0781],[-67.4953,-17.5211,4116.3711],[-67.4818,-17.5214,3960.5537],[-67.4751,-17.5164,3897.3259],[-67.4733,-17.5095,3868.3274],[-67.469,-17.5058,3856.635],[-67.4562,-17.5195,3891.0139],[-67.4474,-17.5258,3942.2817],[-67.4464,-17.5294,3936.7993],[-67.4486,-17.5334,3970.0625],[-67.4479,-17.5375,4011.0464],[-67.4391,-17.5468,3974.762],[-67.4377,-17.5508,4010.1572],[-67.4304,-17.5576,4068.3403],[-67.4297,-17.5605,4097.2075],[-67.419,-17.5635,4185.8457],[-67.417,-17.5667,4161.3457],[-67.4143,-17.5677,4102.7354],[-67.4127,-17.5713,4071.8296],[-67.4032,-17.5744,4080.6157],[-67.3938,-17.5606,4067.8613],[-67.3908,-17.5488,3969.3267],[-67.3813,-17.5393,4030.2053],[-67.3797,-17.5393,4007.1162],[-67.3816,-17.5312,4185.5317],[-67.3797,-17.5284,4145.2734],[-67.3803,-17.5257,4196.2754],[-67.3866,-17.52,4170.3208],[-67.3876,-17.5166,4107.6348],[-67.3819,-17.5093,4011.7683],[-67.3821,-17.5009,4154.1963],[-67.3758,-17.4906,3988.4888],[-67.3771,-17.477,4075.6582],[-67.3726,-17.4473,4178.5815],[-67.3745,-17.44,4159.459],[-67.3739,-17.4341,4121.3218],[-67.3778,-17.4317,4168.6821],[-67.3786,-17.4265,4136.4561],[-67.3831,-17.4215,4111.0029],[-67.3868,-17.408,4085.3076],[-67.3903,-17.4041,4068.1323],[-67.3906,-17.4009,4031.1184],[-67.3978,-17.3993,4170.2637],[-67.3996,-17.3912,4188.5137],[-67.4016,-17.3896,4200.1094],[-67.4061,-17.3778,4170.666],[-67.4229,-17.3604,4256.0654],[-67.4284,-17.3512,4280.4575],[-67.4339,-17.3461,4412.791],[-67.4446,-17.3237,4413.5684],[-67.4475,-17.3104,4262.7524],[-67.4526,-17.3097,4288.4419],[-67.4714,-17.2945,4482.6812],[-67.4824,-17.2806,4339.4297],[-67.4745,-17.2666,4204.7593],[-67.4611,-17.2514,4131.1133],[-67.457,-17.2492,4101.0068],[-67.4573,-17.2433,4079.1531],[-67.453,-17.2346,3953.3142],[-67.4597,-17.2191,3820.2305],[-67.4614,-17.218,3818.2656],[-67.4651,-17.2217,3954.2322],[-67.4683,-17.2216,4088.1584],[-67.4721,-17.2157,4102.0439],[-67.4746,-17.2149,4049.9927],[-67.485,-17.2181,3601.6094],[-67.4875,-17.2166,3585.8159],[-67.4884,-17.2107,3549.1426],[-67.4965,-17.1978,3358.9219],[-67.4954,-17.1901,3293.6123],[-67.4964,-17.1791,3186.2534],[-67.5054,-17.1775,3143.8684],[-67.5128,-17.1718,3112.8738],[-67.5146,-17.1713,3125.4006],[-67.5145,-17.177,3405.7734],[-67.5213,-17.182,3470.2063],[-67.526,-17.1806,3336.6558],[-67.5296,-17.1774,3229.0437],[-67.5321,-17.1791,3404.8945],[-67.5363,-17.1889,3465.0935],[-67.5541,-17.19,3445.0186],[-67.5715,-17.1842,3941.4175],[-67.5915,-17.1548,3121.2944],[-67.6011,-17.1489,3703.0449],[-67.6014,-17.14,3362.429],[-67.6117,-17.136,3050.8696],[-67.6159,-17.1268,3465.2637],[-67.6184,-17.1261,3704.0752],[-67.6258,-17.1173,3726.7568],[-67.6269,-17.1152,3743.7417],[-67.6244,-17.1026,3102.3916],[-67.6283,-17.098,2818.5479],[-67.6353,-17.0989,2794.8931],[-67.6356,-17.1034,2813.5012],[-67.6498,-17.1097,2907.6104],[-67.6524,-17.1131,2925.5845],[-67.6457,-17.133,3148.5652],[-67.6488,-17.1489,3397.5737],[-67.6458,-17.1644,3412.0078],[-67.6541,-17.1713,3413.2756],[-67.6611,-17.1739,3503.6455],[-67.6622,-17.1817,3531.3076],[-67.6595,-17.1881,3596.3665],[-67.6696,-17.1885,3935.0933],[-67.6797,-17.1917,4277.2964],[-67.697,-17.1867,4452.2651],[-67.701,-17.1898,4516.3628],[-67.7008,-17.1932,4498.188],[-67.7031,-17.1974,4605.7158],[-67.7069,-17.1995,4608.0176],[-67.7147,-17.1946,4670.8164],[-67.7205,-17.194,4729.9336],[-67.7223,-17.1894,4776.8281],[-67.7301,-17.1866,4784.5176],[-67.765,-17.1854,4675.731],[-67.7563,-17.1911,4732.7446],[-67.748,-17.2025,4710.3564],[-67.7677,-17.2111,4344.6836],[-67.7681,-17.213,4340.9033],[-67.776,-17.2188,4244.3379],[-67.7118,-17.2343,4609.6587],[-67.7906,-17.2336,4122.144],[-67.7952,-17.2378,4307.4121],[-67.7983,-17.2371,4253.999],[-67.7995,-17.2441,4186.6411],[-67.8033,-17.2496,4077.5034],[-67.8013,-17.2524,4056.1499],[-67.8026,-17.2546,4026.3274],[-67.8141,-17.2607,3965.8359],[-67.8258,-17.2734,3900.6484],[-67.8412,-17.2776,3846.7051],[-67.8115,-17.2954,3877.6179],[-67.8313,-17.3201,3796.9058],[-67.8499,-17.3303,3758.9946],[-67.8805,-17.3294,3741.3521],[-67.9123,-17.3245,3746.499]]]]}}