{"type":"Feature","properties":{"GID_3":"BOL.4.11.1_2","GID_0":"BOL","country":"Bolivia","GID_1":"BOL.4_1","province":"LaPaz","NL_NAME_1":"NA","GID_2":"BOL.4.11_2","county":"Inquisivi","NL_NAME_2":"NA","city":"Cajuata","VARNAME_3":"NA","NL_NAME_3":"NA","TYPE_3":"District","ENGTYPE_3":"Distrito","CC_3":"NA","HASC_3":"NA","name":"Cajuata.city"},
"geometry":{"type": "MultiPolygon","coordinates": [[[[-67.2543,-16.4217,900.2727],[-67.2539,-16.4203,969.8731],[-67.2556,-16.4194,913.3621],[-67.2581,-16.4233,897.8412],[-67.255,-16.4291,981.0251],[-67.2569,-16.4339,992.2488],[-67.2542,-16.4371,1056.0691],[-67.2575,-16.439,982.587],[-67.2581,-16.445,1001.2645],[-67.2615,-16.4455,935.4718],[-67.2628,-16.449,935.5177],[-67.2671,-16.4511,1018.259],[-67.27,-16.4553,934.3882],[-67.2714,-16.4658,1024.583],[-67.2778,-16.468,991.6294],[-67.2858,-16.479,1036.0886],[-67.2908,-16.481,950.5392],[-67.2922,-16.4832,1108.7784],[-67.2974,-16.4821,989.7457],[-67.3052,-16.483,1076.2295],[-67.3199,-16.4879,986.9902],[-67.3273,-16.499,1035.0121],[-67.3318,-16.4988,985.8639],[-67.337,-16.507,995.9968],[-67.3413,-16.5086,1005.1794],[-67.3407,-16.5124,1025.0825],[-67.3428,-16.5159,1007.0626],[-67.3507,-16.5164,1013.4789],[-67.3587,-16.5215,1139.8054],[-67.3696,-16.5209,1090.6003],[-67.376,-16.5236,1053.7163],[-67.3829,-16.5304,1067.8134],[-67.3833,-16.5414,1150.3542],[-67.3896,-16.5471,1104.9568],[-67.396,-16.5482,1094.3309],[-67.4015,-16.5615,1170.322],[-67.4065,-16.5642,1133.2003],[-67.4138,-16.5745,1151.4796],[-67.4158,-16.5788,1144.955],[-67.4113,-16.5819,1263.8799],[-67.4114,-16.5859,1322.738],[-67.4078,-16.59,1474.5298],[-67.4096,-16.598,1729.7916],[-67.4118,-16.5996,1806.2524],[-67.4126,-16.603,1949.6428],[-67.4069,-16.6081,2161.1284],[-67.4062,-16.6119,2223.5566],[-67.3991,-16.611,2399.709],[-67.3976,-16.6123,2399.5527],[-67.3953,-16.6189,2624.5835],[-67.3953,-16.6236,2746.4871],[-67.3977,-16.6296,2998.3076],[-67.3961,-16.6395,3115.9646],[-67.3947,-16.6406,2934.2161],[-67.3963,-16.6504,2404.2275],[-67.3871,-16.6576,2110.9407],[-67.3843,-16.6577,2130.55],[-67.3841,-16.6601,2070.3887],[-67.3813,-16.6598,2001.7339],[-67.3736,-16.6644,1882.2224],[-67.3678,-16.6604,1811.947],[-67.3682,-16.6505,1513.905],[-67.3635,-16.6495,1502.4065],[-67.3567,-16.6518,1317.902],[-67.3514,-16.6505,1235.6487],[-67.3519,-16.6544,1282.9543],[-67.3464,-16.6671,1337.6692],[-67.3464,-16.6799,1547.4509],[-67.3427,-16.68,1634.0018],[-67.341,-16.6835,1618.9855],[-67.3359,-16.684,1678.8031],[-67.3311,-16.6889,1768.3472],[-67.3199,-16.696,1955.6807],[-67.3165,-16.6963,2085.2742],[-67.3164,-16.6986,2081.1562],[-67.3062,-16.6991,2251.2068],[-67.288,-16.7145,2553.145],[-67.2932,-16.72,2677.1641],[-67.2947,-16.7252,2815.2871],[-67.2945,-16.7301,3032.3237],[-67.2967,-16.7353,3250.2002],[-67.3004,-16.7607,3397.5776],[-67.2989,-16.764,3570.6189],[-67.3015,-16.7671,3652.0972],[-67.3002,-16.7716,3721.2722],[-67.2975,-16.7709,3711.1619],[-67.293,-16.7766,3541.3589],[-67.2748,-16.7703,3714.416],[-67.2686,-16.7691,3653.9453],[-67.266,-16.7709,3646.6721],[-67.2605,-16.7695,3371.645],[-67.2524,-16.7568,2441.5293],[-67.2457,-16.7525,2208.0073],[-67.2446,-16.7495,2241.2407],[-67.2375,-16.7482,2007.5291],[-67.2199,-16.7572,1788.4698],[-67.2036,-16.7578,1713.6478],[-67.1899,-16.7657,2511.3472],[-67.1818,-16.774,2842.8076],[-67.1761,-16.7735,2901.7412],[-67.1635,-16.7824,2977.3486],[-67.1546,-16.7815,2943.5134],[-67.1452,-16.7733,3064.0439],[-67.1339,-16.7754,3233.635],[-67.1231,-16.7825,3334.2617],[-67.114,-16.7929,3325.7832],[-67.1136,-16.7955,3425.0776],[-67.1109,-16.7947,3371.6919],[-67.1074,-16.7903,3016.0964],[-67.1036,-16.7776,2508.7319],[-67.1009,-16.7736,2455.8867],[-67.0907,-16.7647,2274.4441],[-67.0863,-16.7628,2341.6453],[-67.0852,-16.7579,2216.8281],[-67.0814,-16.7587,2177.7603],[-67.0817,-16.7542,2246.562],[-67.077,-16.7491,2139.1819],[-67.0773,-16.7419,2084.3896],[-67.0853,-16.7274,2053.5288],[-67.0824,-16.726,2041.3842],[-67.0821,-16.7214,2062.604],[-67.0792,-16.7191,2191.0796],[-67.0783,-16.7128,2038.765],[-67.0795,-16.6982,1909.2478],[-67.074,-16.6918,1844.3074],[-67.0822,-16.6808,1788.9701],[-67.1014,-16.6756,1691.243],[-67.1077,-16.6704,1680.7903],[-67.1118,-16.6631,1605.9767],[-67.1177,-16.6596,1560.5656],[-67.1247,-16.6444,1333.3965],[-67.133,-16.6428,1272.8483],[-67.1375,-16.6365,1260.1307],[-67.1447,-16.6303,1265.1603],[-67.1483,-16.6193,1310.7517],[-67.1602,-16.6064,1244.2024],[-67.169,-16.5883,1158.698],[-67.1732,-16.586,1172.1376],[-67.1772,-16.58,1204.7944],[-67.1874,-16.575,1159.1481],[-67.1923,-16.5678,1191.3879],[-67.2006,-16.5623,1139.3005],[-67.2066,-16.5611,1099.0397],[-67.2109,-16.5575,1127.7947],[-67.215,-16.55,1078.6593],[-67.2306,-16.5367,1049.8252],[-67.2344,-16.5077,1035.9902],[-67.2437,-16.4937,976.5764],[-67.2452,-16.4881,994.1577],[-67.2444,-16.4857,982.6593],[-67.2487,-16.4813,1023.0068],[-67.2515,-16.4716,964.1306],[-67.2548,-16.4669,937.9706],[-67.2537,-16.4526,983.1559],[-67.2549,-16.4486,929.1218],[-67.2479,-16.441,1162.0211],[-67.2463,-16.4302,942.032],[-67.2543,-16.4217,900.2727]]]]}}