{"type": "Feature","bbox": [-67.3771,-19.4496,-66.9744,-19.0556],"geometry": {"type": "MultiPolygon","coordinates": [[[[-66.9744,-19.0949,3685.5],[-66.9751,-19.0556,3685.5],[-67.0599,-19.0585,3685.5],[-67.0598,-19.0658,3685.5],[-67.053,-19.0738,3685.5],[-67.0504,-19.0796,3685.5],[-67.0531,-19.0903,3685.5],[-67.0727,-19.0903,3685.5],[-67.0975,-19.0735,3685.7939],[-67.1135,-19.0726,3685.5],[-67.1277,-19.0748,3690.1196],[-67.1394,-19.0832,3688.9568],[-67.1609,-19.0859,3699.9929],[-67.1632,-19.0846,3700.3491],[-67.1648,-19.0805,3699.2534],[-67.1842,-19.0945,3712.2222],[-67.1889,-19.0912,3715.7212],[-67.2187,-19.0862,3720.4143],[-67.2285,-19.0931,3724.4094],[-67.2651,-19.1011,3711.6707],[-67.276,-19.0999,3714.0024],[-67.2852,-19.1054,3685.5044],[-67.295,-19.0978,3683.9204],[-67.2973,-19.0976,3683.6367],[-67.3008,-19.0902,3682.6094],[-67.3086,-19.0818,3681.5],[-67.3342,-19.0765,3682.6653],[-67.3345,-19.0853,3711.0942],[-67.337,-19.0946,3723.801],[-67.3404,-19.0993,3724.8496],[-67.3446,-19.1004,3727.4626],[-67.3444,-19.1038,3728.8613],[-67.3575,-19.1203,3741.207],[-67.3627,-19.1344,3745.593],[-67.3731,-19.1475,3761.8381],[-67.3704,-19.1644,3772.9907],[-67.3717,-19.1822,3782.2922],[-67.373,-19.1863,3785.2991],[-67.3771,-19.1907,3784.4104],[-67.3769,-19.1931,3790.6653],[-67.3676,-19.205,3797.8955],[-67.3703,-19.2119,3789.7412],[-67.3656,-19.2176,3800.1377],[-67.3532,-19.2132,3785.4121],[-67.3504,-19.2147,3803.7056],[-67.3492,-19.22,3792.1987],[-67.3578,-19.2262,3788.8005],[-67.3584,-19.2303,3792.3569],[-67.3542,-19.2354,3795.3354],[-67.3429,-19.2381,3780.6279],[-67.3361,-19.2367,3786.3125],[-67.3316,-19.2376,3791.2961],[-67.3167,-19.2492,3822.8835],[-67.3101,-19.2496,3811.2307],[-67.3041,-19.2453,3784.1189],[-67.2974,-19.2446,3792.1858],[-67.2798,-19.2477,3773.7842],[-67.2651,-19.2642,3796.8784],[-67.2532,-19.2698,3743.561],[-67.2525,-19.2811,3732.748],[-67.2429,-19.2856,3719.1843],[-67.2407,-19.2963,3712.1448],[-67.235,-19.2963,3710.3462],[-67.2323,-19.2985,3710.4014],[-67.2282,-19.2971,3708.5566],[-67.2291,-19.3077,3709.3296],[-67.2224,-19.316,3709.7773],[-67.2125,-19.3197,3709.4895],[-67.202,-19.3214,3711.5298],[-67.1997,-19.3242,3709.3555],[-67.2009,-19.3286,3711.1736],[-67.1952,-19.3306,3709.9688],[-67.1935,-19.3336,3710.0605],[-67.1899,-19.3335,3710.3926],[-67.1851,-19.3358,3710.9084],[-67.1851,-19.3397,3714.0571],[-67.1784,-19.3436,3715.8899],[-67.1713,-19.3513,3716.9897],[-67.1704,-19.36,3721.9253],[-67.1719,-19.3618,3723.3506],[-67.196,-19.3697,3745.3977],[-67.2034,-19.3756,3825.6267],[-67.2176,-19.3801,3813.97],[-67.2185,-19.3822,3830.1523],[-67.2137,-19.4045,3786.9082],[-67.2171,-19.4059,3751.2136],[-67.2268,-19.4161,3792.374],[-67.2223,-19.4226,3796.084],[-67.2226,-19.4264,3804.3362],[-67.2094,-19.4463,3862.4639],[-67.1923,-19.4496,3827.4937],[-67.1806,-19.4448,3794.7625],[-67.1727,-19.4435,3802.9673],[-67.162,-19.4386,3898.1399],[-67.1434,-19.4204,3837.8079],[-67.1097,-19.412,3741.8657],[-67.1058,-19.4064,3734.0588],[-67.1013,-19.3948,3724.3088],[-67.0892,-19.3756,3726.9185],[-67.0855,-19.3582,3725.334],[-67.0835,-19.3569,3725.2649],[-67.0808,-19.356,3725.4141],[-67.0746,-19.3603,3724.074],[-67.0672,-19.3727,3725.7864],[-67.0637,-19.3744,3727.335],[-67.0595,-19.3741,3726.5615],[-67.0586,-19.3709,3726.5405],[-67.0551,-19.3697,3726.781],[-67.0506,-19.3778,3728.0112],[-67.0442,-19.3809,3729.0371],[-67.0416,-19.3808,3728.9419],[-67.0352,-19.3738,3738.2271],[-67.0261,-19.3698,3959.1963],[-67.0188,-19.3688,3755.3005],[-67.0131,-19.3708,3745.6729],[-67.0025,-19.3793,3726.5977],[-67.0012,-19.3681,3733.6431],[-66.9907,-19.3552,3723.2024],[-66.9874,-19.3442,3719.4878],[-66.9884,-19.3416,3718.8953],[-66.9943,-19.3372,3718.603],[-66.9931,-19.3314,3717.5923],[-66.9947,-19.3253,3715.5498],[-66.9925,-19.3196,3717.1746],[-66.9929,-19.3049,3714.3738],[-66.9894,-19.2947,3711.4238],[-66.989,-19.2871,3709.9514],[-66.9922,-19.2812,3708.8833],[-67.0016,-19.2759,3706.9629],[-67.0152,-19.263,3702.7266],[-67.0157,-19.2585,3701.8896],[-67.0086,-19.2527,3702.6177],[-67.0094,-19.2451,3700.6018],[-67.0143,-19.2365,3699.2048],[-67.0084,-19.2269,3695.7764],[-67.0139,-19.2168,3694.3127],[-67.0137,-19.1954,3690.8367],[-67.0161,-19.1963,3691.2188],[-67.0171,-19.1949,3690.7495],[-67.0153,-19.1842,3689.032],[-67.0197,-19.1862,3689.8896],[-67.0225,-19.1898,3690.7061],[-67.0249,-19.1903,3690.6787],[-67.0254,-19.1885,3690.5701],[-67.015,-19.1749,3687.8882],[-67.0149,-19.1725,3687.5874],[-67.0171,-19.172,3687.6123],[-66.9744,-19.0949,3685.5]]]]}
,"properties": {"GID_3": "BOL.5.4.1_2","GID_0": "BOL","country": "Bolivia","GID_1": "BOL.5_1","province": "Oruro","NL_NAME_1": "NA","GID_2": "BOL.5.4_2","county": "LadislaoCabrera","NL_NAME_2": "NA","city": "PampaAullagas","VARNAME_3": "NA","NL_NAME_3": "NA","TYPE_3": "District","ENGTYPE_3": "Distrito","CC_3": "NA","HASC_3": "NA","name": "Pampa_Aullagas.city","area_km2": 1101.2273,"hist_schema_id": "Elevation0-9000","hist_area_km2": {"3675": 111.5086,"3700": 494.3116,"3725": 298.3969,"3750": 84.2117,"3775": 48.2308,"3800": 22.2256,"3825": 11.5009,"3850": 8.2804,"3875": 5.1602,"3900": 4.1601,"3925": 3.7602,"3950": 3.08,"3975": 2.7002,"4000": 1.9001,"4025": 0.8,"4050": 0.46,"4075": 0.24,"4100": 0.2,"4125": 0.1}}}