{"type":"Feature","properties":{"GID_3":"BOL.4.19.1_2","GID_0":"BOL","country":"Bolivia","GID_1":"BOL.4_1","province":"LaPaz","NL_NAME_1":"NA","GID_2":"BOL.4.19_2","county":"Omasuyos","NL_NAME_2":"NA","city":"Achacachi","VARNAME_3":"NA","NL_NAME_3":"NA","TYPE_3":"District","ENGTYPE_3":"Distrito","CC_3":"NA","HASC_3":"NA","name":"Achacachi.city"},
"geometry":{"type": "MultiPolygon","coordinates": [[[[-68.7706,-15.8671,4343.2119],[-68.7612,-15.8863,4205.8213],[-68.7705,-15.9145,3829.5986],[-68.7719,-15.9477,3808.5],[-68.7684,-15.9453,3808.5],[-68.7672,-15.9396,3808.5],[-68.7626,-15.9405,3808.5],[-68.754,-15.932,3808.5],[-68.7508,-15.9327,3808.5],[-68.7466,-15.9434,3809.6841],[-68.7401,-15.9461,3810.998],[-68.7355,-15.9468,3809.6255],[-68.7332,-15.9453,3810.9524],[-68.7344,-15.9476,3809.6255],[-68.7313,-15.9454,3810.8691],[-68.7289,-15.947,3809.3784],[-68.7263,-15.9435,3810.2146],[-68.7234,-15.9425,3808.9141],[-68.7216,-15.9439,3809.0776],[-68.7242,-15.9455,3808.5],[-68.7216,-15.9534,3808.5],[-68.7233,-15.9542,3808.5],[-68.7191,-15.9587,3808.5],[-68.7151,-15.9593,3808.5],[-68.7216,-15.961,3808.5],[-68.7221,-15.9584,3808.5],[-68.7272,-15.9559,3809.9429],[-68.7281,-15.9575,3808.5],[-68.7244,-15.9601,3808.5],[-68.7285,-15.9607,3808.5],[-68.73,-15.9693,3810.9143],[-68.7274,-15.9705,3809.4009],[-68.7261,-15.9689,3808.5],[-68.7217,-15.9691,3808.5],[-68.7152,-15.9729,3811.7893],[-68.7191,-15.9722,3811.2683],[-68.7209,-15.97,3810.4268],[-68.7248,-15.9696,3808.5],[-68.7296,-15.9728,3808.5],[-68.7337,-15.9732,3810.2915],[-68.7356,-15.9762,3809.0889],[-68.7442,-15.975,3811.0044],[-68.7495,-15.9764,3811.0325],[-68.7506,-15.979,3811.0339],[-68.7522,-15.9785,3811.0339],[-68.7529,-15.9831,3811.0854],[-68.7511,-15.9862,3809.8296],[-68.7534,-15.9893,3808.5],[-68.7502,-15.9893,3808.5],[-68.7477,-15.9926,3808.5],[-68.7427,-15.9923,3808.8499],[-68.7424,-15.9937,3808.9167],[-68.747,-15.9951,3808.5],[-68.7479,-15.9972,3808.9944],[-68.7448,-16.0021,3810.3792],[-68.7395,-16.0024,3811.3076],[-68.7442,-16.0038,3810.8071],[-68.7456,-16.0017,3810.3792],[-68.7494,-16.0027,3809.3955],[-68.7527,-16.0013,3810.9827],[-68.7548,-15.9981,3810.9319],[-68.7565,-16.0016,3810.9402],[-68.7498,-16.0048,3811.0225],[-68.7503,-16.0077,3810.1777],[-68.741,-16.0124,3810.8306],[-68.7394,-16.0162,3810.4631],[-68.7409,-16.0173,3810.9451],[-68.7417,-16.0135,3810.2808],[-68.7429,-16.0158,3810.748],[-68.7433,-16.0137,3810.4287],[-68.7476,-16.0149,3810.5652],[-68.7477,-16.0186,3811.0559],[-68.7495,-16.0162,3810.2156],[-68.7508,-16.0185,3811.1504],[-68.7529,-16.0181,3811.0493],[-68.7526,-16.0215,3811.3044],[-68.7539,-16.0194,3811.0493],[-68.7573,-16.0204,3811.0964],[-68.7591,-16.0259,3811.1174],[-68.7655,-16.0292,3810.8362],[-68.7691,-16.0297,3811.9399],[-68.7698,-16.0259,3810.2207],[-68.7726,-16.0247,3810.7439],[-68.7787,-16.0265,3812.0676],[-68.7807,-16.0208,3811.1619],[-68.7868,-16.0211,3811.04],[-68.7941,-16.016,3811.3252],[-68.795,-16.0137,3810.0806],[-68.8014,-16.0124,3809.4602],[-68.8028,-16.015,3813.5964],[-68.806,-16.0153,3812.7939],[-68.8164,-16.0106,3816.2612],[-68.819,-16.0111,3808.5],[-68.8141,-16.0187,3899.4993],[-68.8209,-16.0233,3816.7764],[-68.8215,-16.0361,4057.7192],[-68.8163,-16.0409,4142.5332],[-68.8118,-16.041,4136.0107],[-68.8006,-16.0461,4285.9585],[-68.7934,-16.0469,4190.9902],[-68.7932,-16.0459,4186.8418],[-68.7878,-16.0481,4214.8521],[-68.7824,-16.0556,4189.6533],[-68.7835,-16.0657,4003.3491],[-68.7792,-16.0679,3977.5762],[-68.781,-16.0697,3970.9214],[-68.78,-16.0721,3954.6846],[-68.7828,-16.0814,3988.1902],[-68.7788,-16.092,4086.1099],[-68.7791,-16.0953,4091.6392],[-68.7842,-16.0988,4111.4536],[-68.7907,-16.0995,4114.6465],[-68.7971,-16.1057,4131.2119],[-68.7972,-16.1168,4235.9629],[-68.7999,-16.1209,4238.9834],[-68.8399,-16.1401,4005.0386],[-68.8417,-16.1318,3966.2913],[-68.8453,-16.1273,4035.5798],[-68.8492,-16.1256,4022.3623],[-68.8523,-16.1175,3973.4214],[-68.8676,-16.1234,3992.8188],[-68.8649,-16.1281,4021.1338],[-68.8724,-16.1337,3818.1675],[-68.872,-16.136,3808.5],[-68.8655,-16.1414,3808.5],[-68.8635,-16.146,3808.5],[-68.8685,-16.1578,3830.7744],[-68.867,-16.1644,3841.3291],[-68.863,-16.1712,3811.9619],[-68.8616,-16.1636,3827.8862],[-68.8571,-16.1621,3808.5],[-68.8563,-16.1579,3812.2693],[-68.8537,-16.1577,3810.739],[-68.8515,-16.1613,3808.5],[-68.8471,-16.162,3809.3853],[-68.8463,-16.1656,3820.1416],[-68.8436,-16.1663,3814.7764],[-68.8453,-16.167,3808.5],[-68.8443,-16.1698,3809.6465],[-68.846,-16.1744,3810.4292],[-68.85,-16.1762,3812.7554],[-68.8468,-16.1808,3934.2231],[-68.8423,-16.1819,4029.4512],[-68.842,-16.1849,4003.7695],[-68.8293,-16.1924,4079.0918],[-68.8288,-16.1958,4066.6064],[-68.8215,-16.1985,3972.4419],[-68.8189,-16.2052,3854.042],[-68.8161,-16.2079,3828.8179],[-68.8147,-16.2062,3812.29],[-68.8156,-16.1995,3808.5],[-68.813,-16.1907,3809.7407],[-68.8142,-16.1872,3811.7246],[-68.8157,-16.1872,3811.7246],[-68.816,-16.184,3811.7168],[-68.811,-16.1843,3811.5132],[-68.8068,-16.1809,3811.6443],[-68.8064,-16.1604,3953.6814],[-68.8086,-16.154,4042.0583],[-68.8073,-16.1461,4153.356],[-68.8023,-16.1397,4300.8984],[-68.7995,-16.1319,4327.876],[-68.7959,-16.1289,4276.2295],[-68.7992,-16.12,4241.7881],[-68.7853,-16.1253,4267.707],[-68.7753,-16.1258,4283.2949],[-68.7523,-16.1172,4382.8218],[-68.7534,-16.1209,4395.7783],[-68.7431,-16.1264,4201.6206],[-68.7378,-16.1264,4291.2241],[-68.7196,-16.12,4013.2144],[-68.7151,-16.1209,4146.6401],[-68.7097,-16.1309,4308.4521],[-68.7044,-16.1363,4277.5195],[-68.7021,-16.1421,4208.105],[-68.6998,-16.1621,4015.8247],[-68.7024,-16.1716,4150.1816],[-68.6927,-16.1752,4122.042],[-68.6944,-16.172,4114.1465],[-68.6967,-16.172,4152.7241],[-68.6951,-16.1619,4015.2607],[-68.683,-16.1583,3904.2637],[-68.6639,-16.1466,3870.7832],[-68.66,-16.1459,3935.2153],[-68.6335,-16.1249,3954.0459],[-68.6312,-16.1255,3966.0781],[-68.6299,-16.1231,4014.6101],[-68.612,-16.1146,3883.0342],[-68.5958,-16.1042,3896.5327],[-68.5843,-16.1094,3908.4529],[-68.5764,-16.1051,3921.3794],[-68.5466,-16.082,4072.2769],[-68.5251,-16.0791,4146.6694],[-68.5125,-16.0698,4198.564],[-68.5075,-16.0702,4225.3008],[-68.501,-16.0667,4280.4829],[-68.5014,-16.0623,4346.4316],[-68.498,-16.0494,4464.3101],[-68.5001,-16.0453,4462.8281],[-68.5056,-16.0412,4461.3853],[-68.5074,-16.0362,4494.7764],[-68.5043,-16.0292,4480.875],[-68.4963,-16.0221,4483.6797],[-68.4963,-16.014,4676.5254],[-68.4888,-15.9994,4718.1113],[-68.4921,-15.9967,4785.2861],[-68.4938,-15.9894,4822.9316],[-68.4924,-15.9822,4792.7891],[-68.4874,-15.9747,4834.8364],[-68.487,-15.9681,4989.2109],[-68.5195,-15.9332,4879.8882],[-68.5981,-15.9286,4270.0947],[-68.62,-15.9083,4380.6978],[-68.6341,-15.9074,4176.3633],[-68.6634,-15.8812,4198.5068],[-68.6683,-15.8709,4284.959],[-68.6681,-15.8671,4247.3027],[-68.6761,-15.8644,4272.1357],[-68.6818,-15.853,4349.3359],[-68.6944,-15.8551,4233.4248],[-68.7038,-15.8599,3846.321],[-68.7087,-15.8563,3814.2085],[-68.7138,-15.8464,3670.4604],[-68.7182,-15.8455,3735.4539],[-68.7354,-15.8563,4256.9912],[-68.7423,-15.8631,4338.7231],[-68.7533,-15.8519,4353.2246],[-68.7706,-15.8671,4343.2119]]]]}}