{"type":"Feature","properties":{"GID_2":"BOL.1.7_2","GID_0":"BOL","country":"Bolivia","GID_1":"BOL.1_1","province":"Chuquisaca","NL_NAME_1":"NA","county":"SurCinti","VARNAME_2":"NA","NL_NAME_2":"NA","TYPE_2":"Provincia","ENGTYPE_2":"Province","CC_2":"NA","HASC_2":"NA","name":"Sur_Cinti.county"},
"geometry":{"type": "MultiPolygon","coordinates": [[[[-65.2002,-21.069,2311.0442],[-65.1992,-21.066,2335.7542],[-65.2004,-21.0617,2275.6006],[-65.1956,-21.0491,2259.5808],[-65.1976,-21.0471,2246.1086],[-65.1967,-21.0445,2248.6616],[-65.1983,-21.0407,2244.1475],[-65.1962,-21.0324,2293.0481],[-65.1974,-21.029,2269.9756],[-65.1927,-21.0246,2256.7036],[-65.1926,-21.021,2245.3093],[-65.1884,-21.0138,2231.9846],[-65.1917,-21.0064,2225.1282],[-65.1898,-21.0007,2282.3208],[-65.1923,-20.9981,2286.3066],[-65.1914,-20.9933,2280.7354],[-65.1931,-20.9915,2222.9573],[-65.1915,-20.9877,2250.9431],[-65.192,-20.9833,2217.989],[-65.1873,-20.9797,2223.3511],[-65.1893,-20.9758,2225.4319],[-65.1884,-20.971,2316.3879],[-65.1865,-20.9704,2268.5576],[-65.1865,-20.9679,2298.155],[-65.1839,-20.965699999999998,2310.5166],[-65.1858,-20.9617,2213.7168],[-65.1817,-20.9588,2215.7341],[-65.1793,-20.9546,2237.2349],[-65.1761,-20.9566,2208.8452],[-65.1744,-20.9557,2242.0513],[-65.1766,-20.9516,2216.9485],[-65.1757,-20.9495,2257.1523],[-65.1723,-20.9481,2257.0918],[-65.1695,-20.9502,2205.7231],[-65.166,-20.9496,2204.0378],[-65.164,-20.9455,2229.0264],[-65.1623,-20.9451,2229.4968],[-65.1582,-20.9459,2278.2136],[-65.1592,-20.9494,2266.0208],[-65.1568,-20.9526,2305.9883],[-65.1572,-20.9577,2243.856],[-65.1518,-20.9637,2224.7524],[-65.1496,-20.9604,2220.9829],[-65.1502,-20.9557,2190.532],[-65.1476,-20.9534,2223.7476],[-65.1435,-20.9575,2185.4604],[-65.141,-20.9647,2183.7644],[-65.1343,-20.9635,2192.0715],[-65.1293,-20.9574,2221.1045],[-65.1242,-20.9643,2188.6899],[-65.1247,-20.9685,2189.7935],[-65.1188,-20.9686,2225.9663],[-65.1143,-20.9708,2194.2119],[-65.1091,-20.9698,2195.7732],[-65.1084,-20.9727,2177.7468],[-65.1123,-20.9738,2201.217],[-65.1148,-20.9775,2179.6631],[-65.1132,-20.9818,2176.3081],[-65.0994,-20.9759,2190.6384],[-65.1,-20.9741,2231.1694],[-65.1027,-20.9744,2209.0103],[-65.105,-20.9726,2167.6897],[-65.1013,-20.9686,2191.3535],[-65.0968,-20.9688,2199.6565],[-65.0939,-20.976,2162.1978],[-65.0889,-20.977,2165.9661],[-65.0857,-20.9737,2159.1094],[-65.0887,-20.9661,2160.5796],[-65.0868,-20.9626,2159.8481],[-65.0824,-20.9605,2237.4189],[-65.0784,-20.964,2172.6501],[-65.0742,-20.9646,2157.6714],[-65.0729,-20.9592,2190.5178],[-65.07,-20.9589,2193.0474],[-65.0694,-20.9707,2150.8547],[-65.065,-20.9708,2169.1289],[-65.0617,-20.9733,2180.769],[-65.0628,-20.9807,2150.9275],[-65.0572,-20.9805,2160.9543],[-65.059,-20.9875,2146.1987],[-65.0534,-20.9931,2168.0547],[-65.0539,-20.9969,2188.4194],[-65.0443,-21.0002,2161.8462],[-65.0445,-21.0039,2144.5896],[-65.0487,-21.0035,2207.0471],[-65.0514,-21.0054,2153.1331],[-65.051,-21.0087,2148.4617],[-65.0441,-21.0084,2264.8052],[-65.0403,-21.0143,2132.4482],[-65.0334,-21.0143,2161.106],[-65.0289,-21.0172,2140.6189],[-65.0265,-21.0167,2153.6455],[-65.026,-21.0148,2164.6426],[-65.0314,-21.0103,2128.8623],[-65.0317,-21.0065,2131.054],[-65.0284,-21.0067,2129.5815],[-65.0223,-21.0118,2140.4502],[-65.0216,-21.0168,2139.0056],[-65.0278,-21.0256,2154.3179],[-65.0271,-21.0276,2132.4326],[-65.0209,-21.0253,2133.0347],[-65.0194,-21.0212,2171.0962],[-65.0177,-21.0204,2171.0962],[-65.0146,-21.0213,2141.2544],[-65.0129,-21.0294,2130.8369],[-64.9997,-21.0263,2114.0154],[-64.9995,-21.0239,2108.4124],[-65.0046,-21.0196,2112.5286],[-65.0041,-21.0162,2175.1709],[-65.0008,-21.0142,2156.6846],[-64.9985,-21.0208,2129.2751],[-64.9924,-21.0198,2141.6475],[-64.9922,-21.0106,2123.364],[-64.9878,-21.0081,2146.2317],[-64.9859,-21.0089,2186.939],[-64.986,-21.0159,2116.2454],[-64.9794,-21.016,2222.9958],[-64.9767,-21.0175,2189.3325],[-64.9745,-21.0164,2109.4856],[-64.9695,-21.0211,2168.7646],[-64.9699,-21.023,2154.1077],[-64.976,-21.0234,2140.2786],[-64.9774,-21.027,2119.6179],[-64.9674,-21.0267,2157.6409],[-64.9628,-21.0306,2158.6748],[-64.96,-21.0291,2115.9695],[-64.96,-21.0238,2154.3374],[-64.9564,-21.0243,2174.6018],[-64.9546,-21.0262,2204.2383],[-64.9543,-21.0337,2179.6543],[-64.9493,-21.0322,2257.9207],[-64.9473,-21.0334,2223.3147],[-64.9504,-21.0417,2382.7231],[-64.9437,-21.0377,2272.0112],[-64.9405,-21.0378,2256.4822],[-64.9438,-21.0339,2184.6169],[-64.9439,-21.0278,2302.0154],[-64.9453,-21.0258,2216.0801],[-64.9443,-21.0243,2209.373],[-64.9422,-21.0242,2209.7156],[-64.9394,-21.0271,2232.9871],[-64.9342,-21.0267,2003.7948],[-64.9262,-21.0328,1999.1207],[-64.9259,-21.0401,1942.8406],[-64.9239,-21.0444,1978.0566],[-64.9253,-21.0526,1876.2196],[-64.9186,-21.0592,2059.1985],[-64.9124,-21.059,1920.8699],[-64.9,-21.0545,1916.5519],[-64.8896,-21.0568,1846.25],[-64.8842,-21.0643,1791.5409],[-64.8896,-21.0675,1904.6411],[-64.8953,-21.0684,1869.0215],[-64.8954,-21.0733,1748.9907],[-64.8812,-21.0795,1871.4188],[-64.8682,-21.0786,1792.5564],[-64.8517,-21.09,1703.7808],[-64.8502,-21.0931,1800.8101],[-64.8542,-21.0957,1719.1384],[-64.8555,-21.106,1876.9017],[-64.8363,-21.1056,1617.2332],[-64.8358,-21.1031,1608.8566],[-64.8393,-21.0961,1529.0966],[-64.8385,-21.0938,1613.9581],[-64.8358,-21.0928,1593.2498],[-64.8178,-21.0932,1530.9495],[-64.8019,-21.0965,1544.3013],[-64.7978,-21.0947,1577.7676],[-64.7968,-21.0862,1480.0645],[-64.7908,-21.0778,1565.2441],[-64.792,-21.0678,1458.1338],[-64.7886,-21.0625,1456.1766],[-64.7782,-21.0606,1381.2002],[-64.7747,-21.0558,1432.7963],[-64.7757,-21.0485,1358.4271],[-64.7782,-21.0472,1352.3417],[-64.7789,-21.0438,1412.2108],[-64.7818,-21.0425,1359.7076],[-64.7821,-21.0376,1352.4473],[-64.7793,-21.0302,1327.052],[-64.7709,-21.0274,1319.6718],[-64.7696,-21.0256,1292.3906],[-64.7679,-21.0212,1414.3069],[-64.7712,-21.016,1315.2246],[-64.7686,-21.0145,1312.1488],[-64.7572,-20.9942,1248.3298],[-64.7566,-20.9877,1242.616],[-64.7574,-20.9852,1292.4248],[-64.7623,-20.9834,1246.0981],[-64.761,-20.9802,1253.05],[-64.7399,-20.973,1218.2255],[-64.734,-20.9673,1211.9934],[-64.7351,-20.9621,1207.8446],[-64.7336,-20.9531,1202.0162],[-64.7276,-20.9414,1192.104],[-64.7197,-20.9365,1192.4977],[-64.7147,-20.937,1184.7136],[-64.7125,-20.9346,1182.4512],[-64.6989,-20.931,1192.2928],[-64.6866,-20.9411,1174.8809],[-64.6781,-20.9428,1163.6799],[-64.6668,-20.9405,1172.5715],[-64.6595,-20.9443,1167.1284],[-64.6546,-20.9494,1219.4368],[-64.6541,-20.9538,1152.1528],[-64.6509,-20.9553,1147.5155],[-64.6452,-20.9547,1150.8771],[-64.6426,-20.9672,1134.9359],[-64.6384,-20.9712,1170.7665],[-64.6272,-20.9756,1143.8479],[-64.624,-20.9801,1121.21],[-64.62,-20.9815,1122.2959],[-64.615,-20.9782,1159.1829],[-64.6051,-20.9819,1112.0991],[-64.6013,-20.991,1104.778],[-64.6016,-20.9955,1102.3169],[-64.5989,-21.0024,1099.9663],[-64.5923,-21.0076,1114.8643],[-64.5884,-21.0052,1177.9924],[-64.5848,-21.0074,1178.1523],[-64.5847,-21.0164,1085.6376],[-64.5793,-21.0186,1125.7556],[-64.5805,-21.025,1131.4487],[-64.5774,-21.0326,1080.0439],[-64.5717,-21.0314,1076.2795],[-64.5676,-21.0342,1074.866],[-64.5681,-21.0426,1067.1846],[-64.5624,-21.0526,1062.1202],[-64.5571,-21.056,1064.8015],[-64.5551,-21.0626,1056.3762],[-64.5485,-21.0681,1049.5931],[-64.5464,-21.0812,1046.876],[-64.5445,-21.0825,1050.4137],[-64.5385,-21.0819,1044.3793],[-64.5359,-21.0835,1148.3901],[-64.5374,-21.0899,1039.2054],[-64.5308,-21.0919,1069.6121],[-64.5272,-21.0976,1033.1218],[-64.5215,-21.0968,1084.3799],[-64.5174,-21.0992,1088.1572],[-64.5117,-21.0995,1024.3247],[-64.5054,-21.0954,1064.6064],[-64.4961,-21.0961,1012.6973],[-64.4916,-21.0919,1009.5781],[-64.4818,-21.092,999.8343],[-64.4805,-21.0913,999.8343],[-64.4803,-21.0861,1111.1366],[-64.4739,-21.0853,1025.3032],[-64.4676,-21.0866,985.9694],[-64.4571,-21.0831,1040.4136],[-64.455,-21.0851,988.9054],[-64.4507,-21.0847,989.8625],[-64.4444,-21.088,976.1756],[-64.4417,-21.0933,971.1766],[-64.4352,-21.0967,967.9702],[-64.4337,-21.1003,962.241],[-64.4299,-21.1033,959.9789],[-64.4187,-21.0989,987.6693],[-64.414,-21.1001,1092.0139],[-64.413,-21.1095,948.642],[-64.4066,-21.11,943.7172],[-64.3998,-21.1142,1010.0161],[-64.3986,-21.1186,950.3795],[-64.3942,-21.1203,935.1729],[-64.391,-21.124,977.8383],[-64.3837,-21.1266,931.1663],[-64.3797,-21.1368,920.1609],[-64.3763,-21.1363,933.8721],[-64.3643,-21.1428,919.1545],[-64.3437,-21.146,974.6013],[-64.3413,-21.1457,892.1375],[-64.3368,-21.1406,945.339],[-64.3301,-21.1415,898.9219],[-64.3233,-21.1361,995.9111],[-64.3144,-21.1353,900.1545],[-64.3108,-21.1374,870.8527],[-64.3056,-21.1337,949.6152],[-64.2971,-21.1353,869.8995],[-64.2903,-21.1325,974.2468],[-64.2869,-21.1342,862.8596],[-64.2817,-21.1333,901.0179],[-64.2762,-21.1346,880.5258],[-64.273,-21.1384,846.1783],[-64.2695,-21.1368,836.5219],[-64.2618,-21.1389,855.8254],[-64.2569,-21.1428,834.9254],[-64.2468,-21.1451,867.9703],[-64.2446,-21.1493,847.3085],[-64.2291,-21.152,810.343],[-64.2223,-21.149,805.2133],[-64.2192,-21.1439,806.7618],[-64.2108,-21.1396,808.4879],[-64.2016,-21.139,803.2256],[-64.2032,-21.1349,800.5343],[-64.2005,-21.1277,826.0949],[-64.2015,-21.1223,822.132],[-64.1981,-21.1194,801.3707],[-64.1993,-21.1132,804.6931],[-64.1958,-21.1092,824.8157],[-64.189,-21.0902,793.1624],[-64.1935,-21.084,790.1298],[-64.1939,-21.0763,804.8716],[-64.1997,-21.0662,772.0151],[-64.1995,-21.0619,756.0715],[-64.1955,-21.0572,830.2957],[-64.194,-21.0498,798.6929],[-64.1949,-21.0443,847.0737],[-64.1986,-21.0421,769.3732],[-64.2001,-21.0368,812.2225],[-64.1993,-21.0336,767.8035],[-64.1854,-21.0324,733.5759],[-64.1817,-21.0308,737.0481],[-64.1794,-21.0274,734.1209],[-64.1832,-21.0239,743.3773],[-64.1817,-21.0209,856.2194],[-64.1871,-21.0117,750.9938],[-64.1934,-21.0101,766.7368],[-64.1957,-21.0053,729.1077],[-64.1859,-21.0036,830.0853],[-64.1864,-21.0008,771.2494],[-64.1835,-20.9927,710.3584],[-64.1855,-20.9889,709.6263],[-64.1928,-20.9849,701.3912],[-64.1898,-20.9777,695.5664],[-64.1915,-20.9703,697.38],[-64.1905,-20.9683,748.9114],[-64.1842,-20.9666,693.3548],[-64.1808,-20.9614,702.1241],[-64.1853,-20.9558,798.4153],[-64.195,-20.9595,739.9619],[-64.1973,-20.9592,689.6578],[-64.1976,-20.9574,691.1686],[-64.1902,-20.9532,679.3606],[-64.1872,-20.9494,682.3524],[-64.1875,-20.9442,717.9671],[-64.1822,-20.9408,675.6686],[-64.1835,-20.9365,700.193],[-64.1873,-20.9342,674.0529],[-64.1873,-20.9309,668.4512],[-64.1811,-20.9186,691.762],[-64.1827,-20.9135,662.0505],[-64.1814,-20.9085,659.7222],[-64.1774,-20.9042,655.3258],[-64.1749,-20.8984,651.6473],[-64.1808,-20.8916,659.0723],[-64.1805,-20.8892,726.1226],[-64.1787,-20.887,684.8806],[-64.1732,-20.8859,658.0001],[-64.1604,-20.8874,640.581],[-64.167,-20.8827,643.2469],[-64.1701,-20.8783,645.5375],[-64.1713,-20.867,675.902],[-64.1747,-20.8619,701.2067],[-64.1845,-20.8552,655.202],[-64.1874,-20.8508,662.585],[-64.1872,-20.8489,689.3105],[-64.1815,-20.8459,664.6439],[-64.1792,-20.8405,688.2706],[-64.1833,-20.8346,666.9112],[-64.1824,-20.8287,666.0754],[-64.1882,-20.8246,666.886],[-64.1893,-20.8164,670.1772],[-64.1883,-20.8104,672.8642],[-64.1895,-20.8038,680.9028],[-64.1837,-20.7922,742.4984],[-64.1855,-20.7901,706.3905],[-64.1916,-20.7882,682.0762],[-64.193,-20.7855,688.2009],[-64.1903,-20.7816,692.668],[-64.187,-20.7831,686.5836],[-64.1831,-20.7817,686.2235],[-64.1807,-20.7676,704.9242],[-64.1828,-20.7639,776.5766],[-64.1873,-20.7696,701.608],[-64.1927,-20.7676,696.4402],[-64.1885,-20.7624,698.494],[-64.1879,-20.7565,703.2602],[-64.1782,-20.7471,708.4564],[-64.1778,-20.7451,845.3646],[-64.1823,-20.7467,708.443],[-64.184,-20.7457,711.0157],[-64.1792,-20.7404,710.5721],[-64.184,-20.7373,714.2375],[-64.1844,-20.731,727.1288],[-64.1869,-20.7307,715.8348],[-64.1893,-20.7273,718.5709],[-64.1953,-20.7263,719.3533],[-64.2123,-20.729,731.3123],[-64.2201,-20.7231,735.1569],[-64.2211,-20.7185,733.3579],[-64.2243,-20.7145,735.2656],[-64.2246,-20.7087,746.0314],[-64.2277,-20.7047,740.6716],[-64.2259,-20.6999,755.1414],[-64.2275,-20.6949,745.1663],[-64.2321,-20.692,747.4388],[-64.2337,-20.6889,753.7713],[-64.2322,-20.6827,755.4423],[-64.2367,-20.6718,788.098],[-64.2404,-20.6702,766.9536],[-64.2414,-20.6678,776.2319],[-64.2395,-20.6613,800.9874],[-64.2418,-20.6522,848.0638],[-64.2384,-20.653,810.1711],[-64.2368,-20.6488,827.702],[-64.2416,-20.6478,837.7188],[-64.2429,-20.6461,789.4602],[-64.2418,-20.6367,781.3194],[-64.2433,-20.6325,799.516],[-64.2383,-20.6296,836.5901],[-64.2392,-20.6276,900.5854],[-64.2442,-20.6259,789.6234],[-64.2396,-20.6186,847.5132],[-64.2419,-20.6136,792.7631],[-64.2412,-20.6023,798.5502],[-64.2375,-20.5941,875.887],[-64.239,-20.5811,812.1032],[-64.2367,-20.5771,825.7214],[-64.2385,-20.5713,815.1638],[-64.2316,-20.5602,819.9512],[-64.2321,-20.558,823.38],[-64.2353,-20.5558,827.2518],[-64.2356,-20.5524,866.8888],[-64.2346,-20.5502,832.2556],[-64.2312,-20.549,912.212],[-64.2305,-20.5452,885.7673],[-64.2386,-20.5423,837.2949],[-64.2475,-20.525,844.9674],[-64.2549,-20.5225,877.1942],[-64.2584,-20.5229,979.3744],[-64.2607,-20.5259,860.8651],[-64.2677,-20.5225,867.4587],[-64.2716,-20.5127,872.2858],[-64.2744,-20.5181,910.3513],[-64.2835,-20.5225,1026.5454],[-64.2833,-20.5244,944.2788],[-64.2859,-20.5249,911.3071],[-64.2911,-20.5309,969.7389],[-64.2967,-20.5289,1040.1324],[-64.2965,-20.5313,1022.8972],[-64.298,-20.5312,996.8265],[-64.3001,-20.5356,1000.6354],[-64.2993,-20.5366,1025.4858],[-64.2977,-20.5353,1041.9319],[-64.2975,-20.5377,1025.4858],[-64.3044,-20.5415,1039.4951],[-64.3021,-20.5422,1039.4869],[-64.3007,-20.5448,1136.7286],[-64.304,-20.5446,1063.3325],[-64.3028,-20.547,1077.6534],[-64.3062,-20.5493,1080.6808],[-64.3044,-20.5504,1105.8396],[-64.3057,-20.5542,1086.9033],[-64.3091,-20.5559,1095.2684],[-64.3058,-20.5587,1131.5259],[-64.3088,-20.5592,1122.0039],[-64.307,-20.562,1126.4989],[-64.3098,-20.5651,1183.3475],[-64.3093,-20.5669,1224.4905],[-64.3127,-20.5671,1205.719],[-64.3122,-20.5699,1165.203],[-64.3166,-20.5713,1183.6793],[-64.3128,-20.5748,1197.7401],[-64.3125,-20.5789,1193.1283],[-64.3148,-20.5808,1204.2076],[-64.313,-20.5858,1223.6667],[-64.3095,-20.5864,1285.3933],[-64.3109,-20.5921,1262.6604],[-64.3163,-20.5948,1278.8514],[-64.3176,-20.5924,1426.071],[-64.3232,-20.5899,1365.2753],[-64.3241,-20.585,1387.671],[-64.3305,-20.5838,1424.6384],[-64.3353,-20.5912,1415.405],[-64.3374,-20.5889,1456.7684],[-64.3406,-20.5888,1484.7633],[-64.3449,-20.5921,1476.8115],[-64.3483,-20.5922,1505.7338],[-64.3504,-20.5953,1511.2616],[-64.3549,-20.5943,1747.7556],[-64.3617,-20.5974,1792.1379],[-64.3626,-20.601,1665.2522],[-64.3732,-20.6013,1716.3694],[-64.3748,-20.6058,1736.8933],[-64.3739,-20.6133,1770.6052],[-64.3889,-20.6122,1954.6757],[-64.3916,-20.6153,2032.9729],[-64.4165,-20.6134,2521.0181],[-64.4259,-20.6208,2484.7263],[-64.4298,-20.6189,2370.9109],[-64.437,-20.6216,2182.217],[-64.4402,-20.6211,2162.0562],[-64.4413,-20.6194,2219.646],[-64.443,-20.62,2050.1819],[-64.4463,-20.6127,2033.6426],[-64.4513,-20.6132,1842.2222],[-64.455,-20.6114,1744.5382],[-64.4575,-20.6173,1762.6705],[-64.4638,-20.6179,1949.1101],[-64.4703,-20.6244,2019.7146],[-64.4745,-20.6247,2030.4253],[-64.4781,-20.6316,2105.2625],[-64.4805,-20.6328,2253.1174],[-64.4809,-20.6356,2219.7993],[-64.4889,-20.6357,2454.3455],[-64.5045,-20.6442,3349.8652],[-64.5251,-20.6475,3189.5513],[-64.5335,-20.6586,3068.9441],[-64.546,-20.669,3042.6128],[-64.568,-20.6804,3253.2561],[-64.5759,-20.6902,3266.3245],[-64.5889,-20.6863,3290.3335],[-64.5908,-20.6826,3419.4758],[-64.5955,-20.6819,3505.1831],[-64.6006,-20.6858,3418.6948],[-64.6074,-20.6867,3530.6226],[-64.6139,-20.6979,3398.3777],[-64.6156,-20.709,3394.2234],[-64.6179,-20.7137,3396.2839],[-64.6244,-20.7152,3352.791],[-64.6258,-20.7199,3260.7202],[-64.6381,-20.722,2728.2214],[-64.6496,-20.7183,2370.2544],[-64.6546,-20.7193,2284.1758],[-64.6629,-20.7177,2494.6104],[-64.6714,-20.7206,2895.9341],[-64.6746,-20.717,2874.9351],[-64.6886,-20.717,3104.6421],[-64.6966,-20.7095,3253.0569],[-64.6971,-20.7019,3232.5374],[-64.7114,-20.6992,2785.8809],[-64.7184,-20.6992,3069.8828],[-64.7194,-20.7081,3027.2358],[-64.7227,-20.7084,2946.5693],[-64.729,-20.715,2566.2659],[-64.7401,-20.708,2813.9805],[-64.745,-20.7083,2868.7222],[-64.7486,-20.7051,2925.5],[-64.7556,-20.7031,3106.3735],[-64.7589,-20.7042,3151.8938],[-64.7602,-20.7107,3330.4365],[-64.7621,-20.7122,3352.9468],[-64.7671,-20.7109,3300.2856],[-64.7724,-20.7066,3350.2461],[-64.7859,-20.7076,3683.0339],[-64.7863,-20.7141,3665.3235],[-64.7835,-20.7172,3643.4417],[-64.7824,-20.7248,3546.9023],[-64.7861,-20.7299,3487.5303],[-64.7937,-20.7329,3485.4385],[-64.7964,-20.7374,3509.5166],[-64.8054,-20.7379,3333.9929],[-64.8169,-20.7423,3211.6445],[-64.8221,-20.753,3206.5571],[-64.8206,-20.7611,3216.2319],[-64.8221,-20.7639,3196.3994],[-64.8294,-20.7684,3151.3596],[-64.8318,-20.7743,3086.7075],[-64.8347,-20.7759,3083.0513],[-64.8394,-20.7865,3249.6272],[-64.8451,-20.7941,3320.8818],[-64.8493,-20.7953,3320.9307],[-64.8597,-20.7963,3075.0894],[-64.8773,-20.7894,3002.7141],[-64.889,-20.7879,3291.4087],[-64.8994,-20.7843,3176.717],[-64.902,-20.7814,3151.3667],[-64.912,-20.7761,3105.282],[-64.9257,-20.7735,3345.7988],[-64.9326,-20.766,3304.3635],[-64.9422,-20.76,3312.9424],[-64.9451,-20.751,3213.5967],[-64.9578,-20.7379,3381.1655],[-64.9695,-20.729,3416.8982],[-64.9769,-20.7118,3380.5818],[-64.9879,-20.6979,3596.2273],[-65.0027,-20.6962,3843.0852],[-65.008,-20.6923,4011.3911],[-65.0116,-20.6945,3828.5576],[-65.0208,-20.696,3779.4814],[-65.0281,-20.6911,3487.2542],[-65.0342,-20.6913,3554.8914],[-65.044,-20.6969,3824.718],[-65.0474,-20.7009,3937.249],[-65.0456,-20.7073,3938.8745],[-65.0459,-20.7149,4060.0352],[-65.0426,-20.7197,4105.8672],[-65.038,-20.7223,4007.5994],[-65.0386,-20.7257,3950.0796],[-65.044,-20.7307,3633.2913],[-65.0512,-20.7476,3276.272],[-65.0493,-20.7601,3129.5732],[-65.0527,-20.768,3091.7534],[-65.0543,-20.7796,3052.7231],[-65.0523,-20.7838,3043.1577],[-65.0491,-20.7851,3037.8186],[-65.0486,-20.7895,3031.593],[-65.0441,-20.7974,3009.6602],[-65.053,-20.7918,3025.0691],[-65.0639,-20.7947,3063.6123],[-65.0707,-20.7941,3086.854],[-65.0721,-20.7951,3108.2236],[-65.069,-20.8033,3234.8516],[-65.0699,-20.8052,3257.8271],[-65.0757,-20.8073,3299.5967],[-65.0856,-20.8058,3227.4053],[-65.085,-20.8121,3176.3203],[-65.087,-20.8145,3223.2612],[-65.0859,-20.8203,3137.8564],[-65.0795,-20.8247,3168.991],[-65.0758,-20.8373,3118.887],[-65.0809,-20.8428,3088.8989],[-65.0836,-20.8434,3197.3167],[-65.083,-20.8536,3326.4578],[-65.0811,-20.8567,3363.176],[-65.0824,-20.8592,3369.5098],[-65.0938,-20.8653,3273.2661],[-65.0976,-20.8648,3291.5881],[-65.0993,-20.8589,3324.3323],[-65.1019,-20.8573,3322.4099],[-65.1037,-20.8573,3322.4099],[-65.1089,-20.8623,3235.657],[-65.1153,-20.8625,3161.7373],[-65.1256,-20.8662,3004.0581],[-65.1417,-20.8619,2753.2004],[-65.1438,-20.8677,2743.0068],[-65.1514,-20.8712,2732.5085],[-65.1511,-20.8774,2709.8525],[-65.1525,-20.8797,2649.7505],[-65.1687,-20.8878,2594.4563],[-65.1714,-20.8909,2571.0623],[-65.18,-20.893,2538.8003],[-65.1865,-20.8987,2526.6504],[-65.1912,-20.9002,2495.8674],[-65.1999,-20.8962,2675.9463],[-65.2117,-20.8877,2533.8804],[-65.2215,-20.8836,2261.4717],[-65.2379,-20.8806,2379.9719],[-65.2504,-20.8755,3072.3459],[-65.2594,-20.8768,3257.228],[-65.273,-20.866,3285.082],[-65.2974,-20.8591,3572.7388],[-65.305,-20.8616,3367.6929],[-65.3115,-20.8571,3448.5317],[-65.3128,-20.8588,3387.9087],[-65.3184,-20.8597,3413.9866],[-65.32,-20.8576,3520.8103],[-65.3289,-20.8582,3527.9707],[-65.3322,-20.8556,3576.8232],[-65.3402,-20.8543,3637.2549],[-65.3452,-20.8572,3780.7451],[-65.3483,-20.8572,3802.7402],[-65.3462,-20.8633,3824.95],[-65.3523,-20.8669,3837.4673],[-65.354,-20.8733,3833.8445],[-65.3579,-20.8729,3751.6401],[-65.3597,-20.871,3733.1191],[-65.3625,-20.8717,3807.1631],[-65.3685,-20.8679,3861.5679],[-65.3704,-20.8691,3877.772],[-65.3735,-20.8679,3817.252],[-65.3767,-20.8697,3849.062],[-65.3778,-20.874,3877.4585],[-65.38,-20.8752,3880.5828],[-65.3805,-20.8805,3880.3394],[-65.3947,-20.8921,3977.5422],[-65.3907,-20.8976,3887.2646],[-65.4011,-20.9471,3634.7896],[-65.3983,-20.9701,4003.918],[-65.3999,-21.0069,3275.8354],[-65.4086,-21.0266,3839.7803],[-65.4206,-21.0613,3535.1128],[-65.4186,-21.0958,3829.4209],[-65.4085,-21.1222,3654.9702],[-65.4025,-21.1607,3888.894],[-65.4086,-21.1716,3868.573],[-65.4183,-21.1707,3936.0757],[-65.4248,-21.1768,3928.1277],[-65.4318,-21.1778,3942.5588],[-65.4385,-21.1824,3960.5779],[-65.4417,-21.1811,3908.97],[-65.4411,-21.1954,3768.0469],[-65.4399,-21.1969,3725.8843],[-65.4413,-21.2009,3775.7478],[-65.4411,-21.2114,3838.0779],[-65.4337,-21.2597,3374.1416],[-65.436,-21.2811,3567.3391],[-65.4318,-21.287,3571.2915],[-65.4333,-21.2891,3584.563],[-65.4321,-21.2968,3694.7649],[-65.4333,-21.2989,3696.0059],[-65.4302,-21.3151,3849.5994],[-65.4304,-21.3217,3848.8218],[-65.432,-21.3223,3899.2021],[-65.4341,-21.3332,3808.262],[-65.4331,-21.3373,3816.7241],[-65.437,-21.3417,3801.8887],[-65.4361,-21.3525,3863.8125],[-65.4332,-21.353,3859.4868],[-65.4325,-21.3594,3685.2456],[-65.4294,-21.3614,3555.0664],[-65.4312,-21.3669,3602.2231],[-65.4338,-21.3694,3594.2188],[-65.4333,-21.3759,3604.5457],[-65.4349,-21.3821,3729.5959],[-65.4334,-21.3866,3766.4524],[-65.4377,-21.3959,3930.8193],[-65.4365,-21.3976,3933.8958],[-65.4349,-21.3972,3920.8831],[-65.4341,-21.4036,3963.8208],[-65.436,-21.4097,3975.1194],[-65.4346,-21.413,3970.6499],[-65.4371,-21.4265,4104.3428],[-65.4077,-21.4319,4236.2861],[-65.4091,-21.4387,4333.9629],[-65.4046,-21.4477,4281.9844],[-65.4047,-21.4514,4405.9082],[-65.3995,-21.4528,4415.9922],[-65.3985,-21.4549,4437.6606],[-65.4012,-21.4662,4322.1045],[-65.4011,-21.4738,4372.5366],[-65.3988,-21.4768,4352.479],[-65.3984,-21.4803,4337.1504],[-65.4006,-21.4834,4258.396],[-65.4057,-21.4847,4302.8057],[-65.4014,-21.4904,4292.8496],[-65.402,-21.5002,4287.8125],[-65.3999,-21.5058,4369.4316],[-65.3877,-21.5164,4305.3833],[-65.3534,-21.5008,3681.8813],[-65.3279,-21.5096,3458.0442],[-65.3201,-21.5173,3127.1672],[-65.3117,-21.4858,3213.9602],[-65.3057,-21.4834,3117.3125],[-65.3009,-21.4851,3064.1704],[-65.2987,-21.4882,2948.043],[-65.2848,-21.4939,2820.0566],[-65.2802,-21.4912,2806.7842],[-65.2748,-21.4929,2761.6831],[-65.2717,-21.49,2688.8696],[-65.265,-21.489,2619.3076],[-65.2621,-21.4861,2598.8479],[-65.262,-21.4837,2554.5422],[-65.2594,-21.4823,2531.8645],[-65.2551,-21.4806,2503.5874],[-65.2498,-21.4824,2428.1353],[-65.2466,-21.48,2432.1738],[-65.2462,-21.4766,2420.8376],[-65.2496,-21.4701,2422.4517],[-65.2485,-21.4669,2478.8438],[-65.2419,-21.4619,2412.3818],[-65.2439,-21.4531,2410.4482],[-65.2414,-21.4479,2406.9375],[-65.2438,-21.4387,2404.7542],[-65.2428,-21.4315,2410.7849],[-65.2348,-21.4258,2412.8257],[-65.2369,-21.4149,2395.28],[-65.2352,-21.409,2394.8391],[-65.2375,-21.4065,2396.0256],[-65.2368,-21.4046,2392.5181],[-65.2305,-21.4016,2389.6528],[-65.2306,-21.3963,2386.0159],[-65.2337,-21.3917,2407.5303],[-65.2327,-21.388,2384.7983],[-65.2296,-21.3863,2383.3311],[-65.2326,-21.3831,2387.7627],[-65.2309,-21.3754,2380.0303],[-65.2316,-21.3672,2433.0649],[-65.2231,-21.3513,2380.3628],[-65.2283,-21.3464,2368.7705],[-65.2266,-21.3399,2376.7773],[-65.228,-21.3364,2370.2949],[-65.2263,-21.3349,2367.6169],[-65.2214,-21.3365,2366.6428],[-65.22,-21.3352,2369.6504],[-65.2215,-21.3276,2365.4858],[-65.2253,-21.3263,2360.5098],[-65.2235,-21.3234,2385.562],[-65.2174,-21.3202,2357.8813],[-65.2192,-21.3154,2356.6367],[-65.2163,-21.3117,2355.4741],[-65.2184,-21.3082,2354.2358],[-65.217,-21.3041,2352.4014],[-65.2187,-21.3012,2350.9902],[-65.2132,-21.296,2352.4766],[-65.2117,-21.2915,2354.1831],[-65.2172,-21.2864,2364.3245],[-65.2139,-21.2792,2345.3667],[-65.216,-21.273,2342.936],[-65.2204,-21.2688,2362.2673],[-65.2203,-21.2626,2378.8901],[-65.2171,-21.2634,2340.6467],[-65.2162,-21.2608,2359.3027],[-65.2181,-21.2583,2378.9355],[-65.2233,-21.2584,2351.4194],[-65.2242,-21.2564,2350.2407],[-65.2228,-21.2533,2336.5532],[-65.22,-21.2522,2365.5312],[-65.2135,-21.2577,2333.2747],[-65.211,-21.2555,2336.7087],[-65.214,-21.2462,2404.1978],[-65.2064,-21.2398,2328.0959],[-65.2119,-21.2364,2323.2275],[-65.2114,-21.2317,2320.9663],[-65.2057,-21.2225,2318.4121],[-65.2003,-21.2211,2349.5083],[-65.2007,-21.2132,2322.1179],[-65.205,-21.2112,2313.4143],[-65.2061,-21.2085,2316.0537],[-65.2,-21.204,2326.4795],[-65.2073,-21.1953,2307.9976],[-65.2118,-21.1939,2307.0828],[-65.2118,-21.192,2307.0786],[-65.2032,-21.181,2306.8569],[-65.2053,-21.1782,2303.2056],[-65.2046,-21.1754,2301.5942],[-65.1961,-21.1708,2324.7334],[-65.1896,-21.1643,2330.532],[-65.1884,-21.1604,2328.2683],[-65.1912,-21.1574,2333.6133],[-65.1912,-21.1516,2329.127],[-65.1946,-21.1487,2328.394],[-65.1944,-21.1464,2300.1833],[-65.1902,-21.144,2350.3374],[-65.1904,-21.1403,2314.7983],[-65.1933,-21.1382,2324.1758],[-65.198,-21.1422,2305.8457],[-65.2,-21.1399,2313.6162],[-65.1991,-21.1278,2300.1101],[-65.2005,-21.1224,2292.1201],[-65.1977,-21.1154,2298.5972],[-65.1992,-21.1093,2333.5237],[-65.1966,-21.1023,2305.7632],[-65.2019,-21.0971,2283.8574],[-65.1986,-21.092,2311.0269],[-65.2028,-21.0843,2273.0869],[-65.2013,-21.0803,2307.4915],[-65.202,-21.0714,2321.9873],[-65.2002,-21.069,2311.0442]]]]}}