{"type": "Feature","bbox": [-67.6894,-19.1054,-66.9751,-18.6002],"geometry": {"type": "MultiPolygon","coordinates": [[[[-67.0878,-18.744,3685.5],[-67.1304,-18.7379,3685.5],[-67.1668,-18.7447,3685.5],[-67.2129,-18.7397,3685.5],[-67.2707,-18.7397,3688.0532],[-67.322,-18.7362,3689.4114],[-67.3349,-18.7328,3689.4451],[-67.3532,-18.7225,3691.3828],[-67.367,-18.707,3693.375],[-67.3785,-18.6979,3695.0967],[-67.3837,-18.6947,3695.3926],[-67.4047,-18.6873,3698.397],[-67.4263,-18.6687,3701.5496],[-67.4493,-18.6596,3703.9607],[-67.4686,-18.6483,3707.1851],[-67.4664,-18.6246,3715.4136],[-67.4712,-18.6159,3717.552],[-67.4954,-18.6077,3741.5806],[-67.5084,-18.6002,3740.2668],[-67.5415,-18.6273,3717.844],[-67.5533,-18.6436,3719.3262],[-67.5787,-18.6673,3718.1133],[-67.6179,-18.6832,3725.5151],[-67.6297,-18.6816,3740.6895],[-67.6363,-18.6836,3751.7053],[-67.6649,-18.677,3759.3418],[-67.6609,-18.6862,3771.2144],[-67.6476,-18.7052,3774.4287],[-67.6248,-18.7465,3813.343],[-67.6183,-18.7526,3852.0156],[-67.6171,-18.7632,3867.3813],[-67.6036,-18.7634,3795.2922],[-67.6022,-18.7686,3801.7888],[-67.599,-18.7706,3807.3625],[-67.5797,-18.7715,3965.5],[-67.5731,-18.779,4021.8789],[-67.5721,-18.7939,3893.6819],[-67.583,-18.8011,3848.6353],[-67.5866,-18.8057,3832.0518],[-67.5986,-18.8148,3801.8516],[-67.6013,-18.8201,3798.4004],[-67.6017,-18.8225,3797.2788],[-67.5973,-18.8274,3795.9297],[-67.5953,-18.8345,3792.1035],[-67.588,-18.8339,3795.262],[-67.5898,-18.8403,3794.353],[-67.5968,-18.845,3788.9587],[-67.5985,-18.8483,3785.5],[-67.5953,-18.8544,3787.6431],[-67.599,-18.8724,3779.5701],[-67.614,-18.8835,3773.3923],[-67.633,-18.8847,3764.8352],[-67.6423,-18.8887,3762.0981],[-67.6445,-18.9119,3763.7405],[-67.6503,-18.9228,3758.4595],[-67.6581,-18.9304,3750.7798],[-67.6752,-18.9388,3732.6562],[-67.6782,-18.9433,3724.634],[-67.6833,-18.9469,3719.5513],[-67.6839,-18.95,3717.4971],[-67.6813,-18.9537,3717.2183],[-67.6801,-18.9606,3714.5696],[-67.6801,-18.9826,3704.7881],[-67.6819,-18.9884,3701.9331],[-67.6872,-18.994,3698.2839],[-67.6873,-18.9996,3697.6621],[-67.6894,-19.0046,3696.7629],[-67.6854,-19.0102,3700.2214],[-67.6732,-19.0169,3702.0459],[-67.6546,-19.0412,3692.887],[-67.6071,-19.0627,3679.4653],[-67.5945,-19.0645,3678.2925],[-67.5804,-19.0759,3675.6743],[-67.572,-19.0714,3675.8904],[-67.5694,-19.068,3675.813],[-67.5628,-19.0668,3676.2788],[-67.556,-19.0628,3675.9314],[-67.5536,-19.0598,3676.8469],[-67.541,-19.0547,3676.9443],[-67.536,-19.0573,3677.0229],[-67.5288,-19.0553,3677.1255],[-67.5182,-19.0577,3677.113],[-67.5094,-19.0632,3677.4199],[-67.4939,-19.0567,3678.6716],[-67.4849,-19.0565,3679.53],[-67.4797,-19.058,3679.4995],[-67.476,-19.0611,3679.437],[-67.4655,-19.0641,3680.9841],[-67.4622,-19.0619,3680.3691],[-67.4544,-19.0631,3681.4448],[-67.4438,-19.0578,3678.25],[-67.433,-19.0578,3680.5547],[-67.427,-19.0555,3680.5483],[-67.4211,-19.0561,3680.3472],[-67.4126,-19.0534,3680.4685],[-67.409,-19.0568,3682.3613],[-67.401,-19.0602,3681.3179],[-67.3961,-19.0609,3681.8184],[-67.3883,-19.0593,3681.6987],[-67.3755,-19.0633,3681.2188],[-67.3579,-19.0643,3681.0581],[-67.3531,-19.066,3682.1843],[-67.3459,-19.0722,3681.3447],[-67.3362,-19.0765,3684.4058],[-67.3086,-19.0818,3681.5],[-67.3008,-19.0902,3682.6094],[-67.2973,-19.0976,3683.6367],[-67.295,-19.0978,3683.9204],[-67.2852,-19.1054,3685.5044],[-67.276,-19.0999,3714.0024],[-67.2651,-19.1011,3711.6707],[-67.2285,-19.0931,3724.4094],[-67.2187,-19.0862,3720.4143],[-67.1889,-19.0912,3715.7212],[-67.1842,-19.0945,3712.2222],[-67.1648,-19.0805,3699.2534],[-67.1632,-19.0846,3700.3491],[-67.1609,-19.0859,3699.9929],[-67.1394,-19.0832,3688.9568],[-67.1277,-19.0748,3690.1196],[-67.1135,-19.0726,3685.5],[-67.0975,-19.0735,3685.7939],[-67.0727,-19.0903,3685.5],[-67.0531,-19.0903,3685.5],[-67.0504,-19.0796,3685.5],[-67.053,-19.0738,3685.5],[-67.0598,-19.0658,3685.5],[-67.0599,-19.0585,3685.5],[-66.9751,-19.0556,3685.5],[-66.9752,-19.0534,3685.5],[-67.0096,-18.883,3685.5],[-67.0825,-18.7448,3685.5],[-67.0878,-18.744,3685.5]]]]}
,"properties": {"GID_3": "BOL.5.15.1_2","GID_0": "BOL","country": "Bolivia","GID_1": "BOL.5_1","province": "Oruro","NL_NAME_1": "NA","GID_2": "BOL.5.15_2","county": "SurCarangas","NL_NAME_2": "NA","city": "Andamarca","VARNAME_3": "NA","NL_NAME_3": "NA","TYPE_3": "District","ENGTYPE_3": "Distrito","CC_3": "NA","HASC_3": "NA","name": "Andamarca.city","area_km2": 2682.742,"hist_schema_id": "Elevation0-9000","hist_area_km2": {"3675": 652.233,"3700": 668.335,"3725": 561.122,"3750": 396.953,"3775": 182.225,"3800": 81.446,"3825": 42.551,"3850": 28.328,"3875": 19.522,"3900": 13.122,"3925": 10.394,"3950": 7.946,"3975": 7.265,"4000": 5.338,"4025": 3.613,"4050": 1.666,"4075": 0.682}}}