{"type":"Feature","properties":{"GID_3":"BOL.2.10.3_2","GID_0":"BOL","country":"Bolivia","GID_1":"BOL.2_1","province":"Cochabamba","NL_NAME_1":"NA","GID_2":"BOL.2.10_2","county":"EstebanArze","NL_NAME_2":"NA","city":"Sacabamba","VARNAME_3":"NA","NL_NAME_3":"NA","TYPE_3":"District","ENGTYPE_3":"Distrito","CC_3":"NA","HASC_3":"NA","name":"Sacabamba.city"},
"geometry":{"type": "MultiPolygon","coordinates": [[[[-65.7891,-17.8596,3578.3525],[-65.7874,-17.8535,3614.2056],[-65.789,-17.8486,3663.8779],[-65.787,-17.8471,3658.8167],[-65.7841,-17.8484,3628.3909],[-65.783,-17.8532,3612.4197],[-65.7773,-17.8568,3643.801],[-65.7763,-17.8601,3622.0225],[-65.7723,-17.8591,3602.9041],[-65.7708,-17.8626,3611.269],[-65.7683,-17.8627,3614.1675],[-65.7668,-17.8647,3580.9463],[-65.7628,-17.8642,3569.2231],[-65.7564,-17.8676,3594.689],[-65.7537,-17.8673,3562.8335],[-65.749,-17.8707,3533.8538],[-65.7464,-17.87,3441.2024],[-65.7399,-17.8614,3313.488],[-65.7417,-17.8567,3365.125],[-65.7407,-17.8527,3397.2476],[-65.7311,-17.8468,3438.0588],[-65.7205,-17.8441,3542.9897],[-65.7172,-17.8417,3567.5923],[-65.7136,-17.8435,3562.8535],[-65.7119,-17.8428,3512.8474],[-65.7094,-17.8392,3399.9836],[-65.7111,-17.832,3397.6746],[-65.722,-17.8259,3421.7449],[-65.7236,-17.8008,3622.563],[-65.7212,-17.775,3845.2734],[-65.7182,-17.7731,3849.3086],[-65.7116,-17.7613,3841.3176],[-65.7067,-17.7465,3686.228],[-65.7129,-17.7358,3529.144],[-65.7164,-17.7353,3410.208],[-65.7265,-17.7383,3736.2864],[-65.7331,-17.7356,3791.209],[-65.7348,-17.7388,3750.9119],[-65.7432,-17.7464,3835.0171],[-65.7552,-17.7441,3603.1689],[-65.7591,-17.7418,3586.7019],[-65.7666,-17.7438,3527.2822],[-65.7668,-17.7405,3528.2908],[-65.7691,-17.74,3535.7556],[-65.7711,-17.7358,3494.4414],[-65.7742,-17.734,3472.2119],[-65.7772,-17.7269,3382.5312],[-65.7775,-17.7179,3357.1306],[-65.7788,-17.7165,3357.1306],[-65.7763,-17.7084,3382.094],[-65.7843,-17.7049,3222.0188],[-65.789,-17.6999,3183.554],[-65.7936,-17.7019,3143.3223],[-65.7974,-17.7014,3132.3689],[-65.7988,-17.6973,3220.4346],[-65.8045,-17.6953,3284.6436],[-65.8047,-17.6889,3300.3716],[-65.8081,-17.6874,3272.0447],[-65.8157,-17.6951,3190.0054],[-65.8226,-17.6917,3210.448],[-65.8251,-17.6952,3235.426],[-65.8289,-17.6962,3209.8328],[-65.8325,-17.7023,3156.8403],[-65.835,-17.7027,3090.0122],[-65.8369,-17.7078,3162.3252],[-65.8477,-17.7108,3099.126],[-65.8523,-17.7218,3012.8872],[-65.855,-17.7223,2999.085],[-65.8578,-17.7201,2988.9072],[-65.8649,-17.7188,2979.7939],[-65.8681,-17.7155,2964.4858],[-65.8693,-17.7206,2972.5391],[-65.8608,-17.7256,3017.145],[-65.8635,-17.7282,3012.6238],[-65.8629,-17.7306,3011.0525],[-65.8657,-17.7343,3042.7026],[-65.8616,-17.7396,3018.8052],[-65.8697,-17.7489,3057.4465],[-65.8741,-17.7502,3067.4065],[-65.8742,-17.7541,3053.7664],[-65.8805,-17.7579,3140.5125],[-65.8673,-17.7662,3080.7251],[-65.8678,-17.7703,3147.6768],[-65.8624,-17.7802,3215.5781],[-65.8528,-17.7821,3256.0903],[-65.8431,-17.7864,3153.2222],[-65.8269,-17.7973,3168.8103],[-65.8113,-17.8122,3130.1499],[-65.802,-17.8242,3166.7129],[-65.8024,-17.8293,3183.5891],[-65.8004,-17.8326,3199.9541],[-65.8012,-17.8402,3270.9429],[-65.7988,-17.8476,3401.2622],[-65.7933,-17.8525,3528.0249],[-65.7921,-17.8568,3573.8506],[-65.7891,-17.8596,3578.3525]]]]}}