{"type": "Feature","bbox": [-62.8131,-18.2466,-61.1293,-17.2575],"geometry": {"type": "MultiPolygon","coordinates": [[[[-62.7682,-17.8311,296.375],[-62.7805,-17.8469,298.443],[-62.7825,-17.8611,299.5],[-62.7821,-17.8741,300.5147],[-62.7887,-17.8793,308.2776],[-62.7999,-17.8824,302.0],[-62.8029,-17.8864,302.5],[-62.8112,-17.9113,305.333],[-62.8114,-17.9147,305.3739],[-62.8096,-17.917,305.5806],[-62.7983,-17.9239,306.5],[-62.7935,-17.9315,307.4698],[-62.7925,-17.9393,307.3659],[-62.7809,-17.9576,308.0],[-62.7794,-17.966,314.7665],[-62.7794,-17.9687,315.6196],[-62.7813,-17.9707,316.6479],[-62.7896,-17.9757,312.6707],[-62.8071,-17.9799,312.8094],[-62.8131,-17.9855,312.968],[-62.8125,-18.0049,313.1889],[-62.8104,-18.0181,311.5],[-62.3979,-18.0671,309.5836],[-61.6492,-18.1888,285.6182],[-61.2636,-18.2466,277.063],[-61.24,-18.1042,274.4657],[-61.2302,-17.9804,272.7437],[-61.2181,-17.8927,270.2385],[-61.2133,-17.8442,269.3877],[-61.206,-17.8413,266.3034],[-61.2046,-17.8386,267.6843],[-61.2046,-17.8342,267.5574],[-61.2088,-17.8278,266.3701],[-61.2084,-17.8222,266.1215],[-61.21,-17.82,266.6582],[-61.2064,-17.8099,266.8459],[-61.2087,-17.8033,267.4327],[-61.2045,-17.7948,267.2199],[-61.2046,-17.789,266.2812],[-61.1976,-17.7879,262.8386],[-61.1931,-17.7835,265.9365],[-61.1872,-17.7909,264.6369],[-61.1837,-17.7925,264.7678],[-61.1778,-17.788,265.0702],[-61.1764,-17.7839,265.7005],[-61.1763,-17.7811,265.5207],[-61.1791,-17.7773,265.8814],[-61.1782,-17.7752,267.0769],[-61.1819,-17.7726,263.8279],[-61.182,-17.7698,266.5991],[-61.1885,-17.7664,267.3146],[-61.1872,-17.762,263.7771],[-61.193,-17.7635,263.7435],[-61.1925,-17.7606,264.021],[-61.1956,-17.759,263.5243],[-61.1982,-17.7597,264.8117],[-61.199,-17.7571,265.1111],[-61.2049,-17.759,263.2271],[-61.2067,-17.7575,264.211],[-61.2091,-17.7582,264.3943],[-61.2178,-17.7509,265.263],[-61.2177,-17.7488,263.5725],[-61.2196,-17.7518,262.6918],[-61.2212,-17.7487,263.0801],[-61.2201,-17.7474,263.3953],[-61.2221,-17.7455,263.8482],[-61.2195,-17.7443,263.9539],[-61.2228,-17.7424,264.184],[-61.2227,-17.741,263.1248],[-61.22,-17.7405,265.7482],[-61.2202,-17.7368,264.4431],[-61.2233,-17.7324,262.7686],[-61.2242,-17.7253,263.8765],[-61.2182,-17.719,261.4622],[-61.2153,-17.7205,264.6429],[-61.2153,-17.7222,262.9577],[-61.2139,-17.7203,261.6945],[-61.2097,-17.7204,264.9],[-61.2096,-17.7177,262.4286],[-61.2059,-17.7184,262.3183],[-61.204,-17.7165,264.2226],[-61.2013,-17.7177,263.6117],[-61.197,-17.7163,265.2683],[-61.1939,-17.7126,260.0449],[-61.1955,-17.7098,264.4881],[-61.1927,-17.7093,264.2207],[-61.188,-17.7042,264.0815],[-61.1851,-17.7049,258.7015],[-61.1835,-17.7031,262.7969],[-61.1848,-17.7013,262.6868],[-61.1838,-17.6991,260.2364],[-61.1788,-17.7,261.9179],[-61.1748,-17.6957,259.2883],[-61.1748,-17.6924,267.3889],[-61.1707,-17.6947,263.1166],[-61.1677,-17.6938,265.5132],[-61.1647,-17.6952,261.3941],[-61.165,-17.6927,261.6559],[-61.1637,-17.6943,259.0469],[-61.1596,-17.6917,260.8463],[-61.1552,-17.6918,261.6735],[-61.1518,-17.6844,262.9218],[-61.1491,-17.6856,260.1471],[-61.1506,-17.6827,261.2091],[-61.1498,-17.6795,260.0724],[-61.1513,-17.6785,262.6843],[-61.1485,-17.6772,261.4785],[-61.1469,-17.6703,261.8291],[-61.1479,-17.6684,262.5027],[-61.1452,-17.6675,261.5601],[-61.1453,-17.6654,261.2664],[-61.1427,-17.6625,262.1897],[-61.1387,-17.6629,262.973],[-61.1352,-17.66,262.3873],[-61.1342,-17.6625,261.4288],[-61.1311,-17.6615,260.2145],[-61.1339,-17.6564,262.5622],[-61.1317,-17.6555,263.176],[-61.1306,-17.652,262.013],[-61.1329,-17.6519,260.3298],[-61.1324,-17.6486,261.1686],[-61.1346,-17.6476,265.4129],[-61.1343,-17.644,266.1763],[-61.136,-17.6429,263.5846],[-61.1382,-17.6446,266.4245],[-61.1385,-17.6419,261.599],[-61.134,-17.6359,266.1829],[-61.1355,-17.6343,265.566],[-61.1389,-17.6352,265.1375],[-61.1391,-17.631,259.8881],[-61.1369,-17.6275,264.6189],[-61.139,-17.6263,263.6975],[-61.1363,-17.624,260.6806],[-61.1314,-17.624,262.0323],[-61.1307,-17.6202,263.7963],[-61.1293,-17.6206,262.4795],[-61.1304,-17.6186,261.2641],[-61.1294,-17.6168,261.9986],[-61.1325,-17.6137,260.1752],[-61.1321,-17.6112,262.7408],[-61.1346,-17.6112,260.608],[-61.1368,-17.6085,259.8433],[-61.136,-17.6048,263.023],[-61.1385,-17.6065,263.5196],[-61.142,-17.6045,261.7761],[-61.1408,-17.6022,261.0782],[-61.1452,-17.599,262.4243],[-61.1434,-17.5981,262.7008],[-61.1447,-17.5962,260.9702],[-61.1434,-17.5953,260.9702],[-61.1459,-17.592,261.4214],[-61.156,-17.5914,263.1995],[-61.1555,-17.588,263.6648],[-61.1591,-17.5888,261.0701],[-61.1654,-17.5857,260.9671],[-61.1702,-17.587,266.796],[-61.173,-17.5759,259.6381],[-61.171,-17.5706,262.2123],[-61.1683,-17.5701,261.677],[-61.1674,-17.5671,261.3326],[-61.1655,-17.5701,262.0209],[-61.1644,-17.5677,260.6224],[-61.16,-17.5661,261.4012],[-61.1594,-17.5638,261.9086],[-61.1574,-17.5652,259.5859],[-61.1549,-17.5614,260.9271],[-61.1529,-17.5637,258.9872],[-61.1512,-17.5633,258.9872],[-61.1521,-17.5601,260.73],[-61.1543,-17.5595,256.4706],[-61.1533,-17.5562,258.9318],[-61.1509,-17.555,258.3985],[-61.1476,-17.5566,255.518],[-61.1451,-17.5548,254.6905],[-61.1454,-17.5513,260.557],[-61.1486,-17.5493,260.2112],[-61.146,-17.5393,259.0313],[-61.1464,-17.5352,260.4721],[-61.1481,-17.5331,262.2744],[-61.1495,-17.536,264.2824],[-61.1513,-17.533,265.0097],[-61.1529,-17.5336,265.0097],[-61.1546,-17.5319,262.6712],[-61.1554,-17.534,263.374],[-61.1582,-17.5328,263.6515],[-61.1601,-17.5303,260.3792],[-61.1598,-17.5271,259.3432],[-61.1637,-17.5225,260.43],[-61.16,-17.5223,259.7829],[-61.1601,-17.5181,257.364],[-61.1617,-17.519,255.4783],[-61.1626,-17.5174,256.0795],[-61.1635,-17.5203,258.5838],[-61.1709,-17.5152,257.06],[-61.1801,-17.5153,259.0751],[-61.1798,-17.5108,258.3535],[-61.1776,-17.5126,256.2644],[-61.1749,-17.5125,256.6453],[-61.1783,-17.5086,258.5582],[-61.175,-17.507,258.6281],[-61.1803,-17.5046,256.8477],[-61.1824,-17.5004,256.3712],[-61.1848,-17.5027,255.4632],[-61.1861,-17.4997,256.7097],[-61.1886,-17.5006,256.9912],[-61.1882,-17.4966,256.4712],[-61.1919,-17.499,255.7682],[-61.193,-17.4961,256.6246],[-61.1963,-17.4959,256.6779],[-61.2003,-17.4931,257.1231],[-61.2004,-17.4897,257.1343],[-61.1971,-17.4912,255.7751],[-61.195,-17.4902,254.8801],[-61.1963,-17.4856,256.5844],[-61.1941,-17.4811,256.9024],[-61.1961,-17.4781,256.2691],[-61.2006,-17.4773,255.8005],[-61.2022,-17.4731,254.8757],[-61.2051,-17.471,255.075],[-61.2075,-17.4664,254.1196],[-61.2082,-17.4585,254.0811],[-61.216,-17.4578,254.9487],[-61.2221,-17.4543,255.2086],[-61.2269,-17.4555,251.6559],[-61.2263,-17.4521,254.5797],[-61.2285,-17.4493,253.3055],[-61.225,-17.4462,253.8869],[-61.2279,-17.4433,251.5565],[-61.2277,-17.4403,252.2028],[-61.2255,-17.4388,254.1181],[-61.2221,-17.4395,253.1403],[-61.2145,-17.4339,254.5374],[-61.2136,-17.4301,250.5744],[-61.2188,-17.4285,250.7367],[-61.2201,-17.4251,252.4767],[-61.2235,-17.4263,251.1946],[-61.2266,-17.4254,251.8967],[-61.2312,-17.4292,250.5647],[-61.2356,-17.4254,250.5408],[-61.2399,-17.424,250.7817],[-61.2425,-17.4303,250.7023],[-61.2482,-17.4306,250.9328],[-61.2577,-17.4224,250.3795],[-61.255,-17.4144,250.1429],[-61.2594,-17.413,251.1475],[-61.262,-17.408,250.1198],[-61.2543,-17.4025,250.2293],[-61.2563,-17.3971,250.2162],[-61.2637,-17.4009,250.1714],[-61.2672,-17.398,250.8474],[-61.2665,-17.3945,250.1845],[-61.2679,-17.3931,250.1845],[-61.2745,-17.398,250.0735],[-61.2813,-17.3974,250.0141],[-61.2847,-17.3924,251.8034],[-61.2861,-17.3942,249.947],[-61.2882,-17.393,250.0485],[-61.2922,-17.3891,250.7955],[-61.2913,-17.3881,250.7955],[-61.2925,-17.3865,253.0293],[-61.2971,-17.386,251.3344],[-61.2979,-17.3835,251.0872],[-61.3005,-17.3853,250.3576],[-61.3026,-17.3801,249.9638],[-61.3069,-17.3797,249.5159],[-61.3083,-17.3759,249.2102],[-61.3073,-17.3728,248.9622],[-61.3107,-17.3706,251.4001],[-61.3173,-17.3689,249.5304],[-61.3255,-17.3694,250.9859],[-61.328,-17.3708,249.827],[-61.327,-17.3731,253.8148],[-61.3323,-17.3749,253.1248],[-61.3399,-17.3711,249.2991],[-61.3406,-17.3682,249.3186],[-61.3447,-17.368,249.1209],[-61.3471,-17.3716,250.9641],[-61.3492,-17.372,250.8745],[-61.3525,-17.3647,249.9734],[-61.3516,-17.3624,250.2201],[-61.3533,-17.3578,252.0612],[-61.352,-17.3555,253.5336],[-61.3545,-17.3544,254.6896],[-61.3574,-17.3561,252.7979],[-61.3613,-17.354,252.3912],[-61.3662,-17.3498,253.3635],[-61.3678,-17.3458,254.6351],[-61.3701,-17.3449,253.6964],[-61.3784,-17.3447,257.0716],[-61.3838,-17.3412,256.0655],[-61.3907,-17.3447,256.7697],[-61.3949,-17.3432,254.4008],[-61.3966,-17.3483,261.4708],[-61.3994,-17.3489,257.6174],[-61.3998,-17.3419,253.772],[-61.4107,-17.3399,254.3768],[-61.4121,-17.3416,257.1972],[-61.4209,-17.3441,256.3179],[-61.4242,-17.3431,258.2509],[-61.4255,-17.3464,255.6991],[-61.4211,-17.3519,254.8937],[-61.4222,-17.3542,255.5698],[-61.4254,-17.3538,255.9135],[-61.4259,-17.3562,254.9487],[-61.4298,-17.3589,254.0657],[-61.4395,-17.3601,253.7674],[-61.4418,-17.3565,253.4142],[-61.4461,-17.3544,256.0977],[-61.4481,-17.3499,252.0946],[-61.4416,-17.3443,255.3504],[-61.4375,-17.3374,258.2178],[-61.4416,-17.336,259.6417],[-61.4389,-17.3308,262.65],[-61.4412,-17.3268,260.7281],[-61.4447,-17.3251,257.8993],[-61.4484,-17.326,256.5521],[-61.4535,-17.3321,255.8193],[-61.4558,-17.3303,257.4041],[-61.4701,-17.3302,256.1023],[-61.4686,-17.3334,257.1509],[-61.4717,-17.3339,258.098],[-61.4716,-17.3354,260.1391],[-61.4681,-17.3411,256.1411],[-61.4718,-17.3425,255.819],[-61.4724,-17.3405,256.9213],[-61.4742,-17.3418,257.394],[-61.4749,-17.34,258.7851],[-61.479,-17.3402,255.7782],[-61.4809,-17.3422,255.8027],[-61.4803,-17.3465,253.6449],[-61.4889,-17.3467,252.3307],[-61.4929,-17.3379,252.7342],[-61.4918,-17.3221,251.4193],[-61.4957,-17.3208,253.8502],[-61.4958,-17.3238,252.5558],[-61.5008,-17.3272,255.0943],[-61.5096,-17.3261,255.8828],[-61.5104,-17.3145,255.8165],[-61.5066,-17.3085,254.8922],[-61.5071,-17.3033,252.9262],[-61.4971,-17.3008,255.1776],[-61.4972,-17.2981,254.1512],[-61.495,-17.2955,253.6526],[-61.4985,-17.2944,252.5917],[-61.5005,-17.2896,252.639],[-61.5052,-17.2892,253.1557],[-61.5103,-17.2859,251.6986],[-61.5132,-17.2876,252.961],[-61.516,-17.2852,253.6464],[-61.5189,-17.2885,252.7782],[-61.5224,-17.2847,253.3778],[-61.526,-17.2855,252.6925],[-61.5266,-17.2827,252.0594],[-61.5308,-17.2843,251.3868],[-61.5326,-17.2832,252.0845],[-61.535,-17.2873,250.2014],[-61.5376,-17.278,251.3635],[-61.5364,-17.2755,251.5831],[-61.5442,-17.27,251.9313],[-61.5454,-17.2675,252.5355],[-61.5499,-17.2706,251.5394],[-61.5508,-17.2691,253.9035],[-61.5494,-17.2658,252.3564],[-61.5686,-17.2575,253.0439],[-61.7795,-17.3415,269.7838],[-62.0471,-17.3807,261.5604],[-62.5403,-17.4614,267.1406],[-62.6207,-17.466,268.5196],[-62.7152,-17.4903,278.6549],[-62.7862,-17.5019,275.8231],[-62.7895,-17.5061,276.7253],[-62.7923,-17.5171,276.6652],[-62.7899,-17.5313,274.5],[-62.7913,-17.5389,279.465],[-62.788,-17.5434,282.8197],[-62.7677,-17.5561,279.2086],[-62.7651,-17.5606,279.6482],[-62.7638,-17.5725,280.4914],[-62.7686,-17.5937,278.25],[-62.7714,-17.6001,278.5],[-62.7792,-17.61,279.125],[-62.7838,-17.6273,288.6364],[-62.7907,-17.6357,289.1185],[-62.7915,-17.64,286.3267],[-62.7911,-17.6442,285.942],[-62.7872,-17.652,286.8823],[-62.7762,-17.6642,286.599],[-62.7731,-17.6715,293.7505],[-62.7741,-17.6807,294.2452],[-62.7822,-17.693,288.7362],[-62.7825,-17.6967,295.1439],[-62.7805,-17.7009,294.7693],[-62.7707,-17.7064,293.511],[-62.7648,-17.7078,290.3783],[-62.7458,-17.7217,292.3578],[-62.743,-17.7283,294.0761],[-62.7428,-17.7392,294.58],[-62.7386,-17.7447,294.1209],[-62.7379,-17.7483,293.9028],[-62.7418,-17.7586,294.8392],[-62.7607,-17.7728,292.6056],[-62.765,-17.7798,300.8956],[-62.7599,-17.7952,293.5],[-62.7558,-17.802,296.4185],[-62.756,-17.806,302.6329],[-62.757,-17.8087,296.7792],[-62.7655,-17.8148,295.0],[-62.7645,-17.8244,295.5],[-62.7682,-17.8311,296.375]]]]}
,"properties": {"GID_3": "BOL.8.3.1_2","GID_0": "BOL","country": "Bolivia","GID_1": "BOL.8_1","province": "SantaCruz","NL_NAME_1": "NA","GID_2": "BOL.8.3_2","county": "Chiquitos","NL_NAME_2": "NA","city": "Pailón","VARNAME_3": "NA","NL_NAME_3": "NA","TYPE_3": "District","ENGTYPE_3": "Distrito","CC_3": "NA","HASC_3": "NA","name": "Pailón.city","area_km2": 13815.81,"hist_schema_id": "Elevation0-9000","hist_area_km2": {"250": 1402.65,"275": 9092.84,"300": 3030.54,"325": 169.94,"350": 38.29,"375": 29.03,"400": 18.82,"425": 11.32,"450": 6.59,"475": 4.89,"500": 3.52,"525": 3.01,"550": 2.2,"575": 1.15,"600": 0.81,"625": 0.2}}}