{"type": "Feature","bbox": [-67.562,-14.6361,-66.5948,-12.0035],"geometry": {"type": "MultiPolygon","coordinates": [[[[-67.0737,-14.6361,200.9069],[-66.9851,-14.4962,183.3584],[-66.9869,-14.2984,176.2318],[-66.9902,-14.2296,172.845],[-66.9963,-13.5437,169.812],[-66.987,-13.5471,168.4661],[-66.9797,-13.5573,165.6068],[-66.9764,-13.5595,174.7009],[-66.9724,-13.5592,169.7889],[-66.9709,-13.5571,166.2456],[-66.9691,-13.5489,169.238],[-66.9746,-13.5376,173.6656],[-66.9836,-13.5328,173.675],[-66.9923,-13.5306,168.6435],[-66.9947,-13.5266,170.236],[-66.9921,-13.5237,168.5114],[-66.9847,-13.5223,167.4968],[-66.9638,-13.5275,169.8033],[-66.9593,-13.5277,166.5053],[-66.9554,-13.5251,170.5502],[-66.9529,-13.5195,172.0906],[-66.9539,-13.5059,168.5677],[-66.9494,-13.4941,177.5833],[-66.9441,-13.4886,168.1683],[-66.9321,-13.4874,171.4537],[-66.9311,-13.4808,173.7145],[-66.9201,-13.4723,172.1802],[-66.9181,-13.4637,166.354],[-66.9132,-13.4599,174.6497],[-66.9074,-13.4458,170.5499],[-66.901,-13.4444,167.6107],[-66.8996,-13.4462,172.2858],[-66.9019,-13.4576,169.962],[-66.9073,-13.4627,166.9165],[-66.9085,-13.4659,166.0642],[-66.8995,-13.4706,165.9223],[-66.896,-13.4709,167.5295],[-66.8928,-13.469,167.6562],[-66.8979,-13.4628,165.3029],[-66.8993,-13.4538,166.8217],[-66.898,-13.4514,166.0479],[-66.8929,-13.4517,165.5929],[-66.8909,-13.4593,167.7116],[-66.8842,-13.455,165.3555],[-66.874,-13.4569,169.9331],[-66.8696,-13.4552,166.3585],[-66.8695,-13.4462,173.135],[-66.8735,-13.4356,173.9899],[-66.8791,-13.4372,170.2186],[-66.8862,-13.4362,171.0725],[-66.8902,-13.4339,171.4862],[-66.8946,-13.4269,167.5756],[-66.893,-13.4132,167.2384],[-66.8962,-13.4001,170.9913],[-66.8941,-13.3942,167.0281],[-66.8895,-13.392,162.1205],[-66.8865,-13.3928,162.8055],[-66.8839,-13.3964,165.2086],[-66.8829,-13.4011,166.1855],[-66.8857,-13.4108,168.6688],[-66.8804,-13.4133,170.295],[-66.8719,-13.4142,163.8531],[-66.8696,-13.4068,168.4927],[-66.8632,-13.3985,169.9848],[-66.8606,-13.3724,174.2564],[-66.8631,-13.3605,158.8423],[-66.8623,-13.3578,162.4076],[-66.8585,-13.3574,172.0118],[-66.8505,-13.3641,161.2003],[-66.8384,-13.3649,168.2225],[-66.8351,-13.3631,166.1034],[-66.8334,-13.3588,162.8883],[-66.8378,-13.3469,162.7232],[-66.8373,-13.3425,162.2427],[-66.8348,-13.3394,169.8292],[-66.8291,-13.3391,166.106],[-66.8242,-13.343,170.4507],[-66.8181,-13.3401,163.4106],[-66.8181,-13.3376,162.3138],[-66.8222,-13.3346,167.3781],[-66.8228,-13.3314,164.6687],[-66.8178,-13.325,166.321],[-66.813,-13.3228,163.1888],[-66.8114,-13.3184,164.8594],[-66.812,-13.3155,161.7918],[-66.8179,-13.3144,165.7843],[-66.8207,-13.3103,161.6809],[-66.8187,-13.2978,170.6755],[-66.8168,-13.2949,165.6522],[-66.8086,-13.2912,164.8236],[-66.8064,-13.2917,167.4952],[-66.8043,-13.2873,166.8654],[-66.8063,-13.2848,164.9137],[-66.807,-13.2868,162.2759],[-66.8083,-13.2849,163.5678],[-66.8099,-13.2855,166.218],[-66.8151,-13.2832,163.1465],[-66.8173,-13.2788,163.4354],[-66.8149,-13.2763,164.6742],[-66.8073,-13.2798,174.3445],[-66.8046,-13.2781,172.5488],[-66.8043,-13.2761,168.9213],[-66.8044,-13.2736,168.6333],[-66.8078,-13.2729,161.6292],[-66.8086,-13.271,171.457],[-66.8175,-13.2687,161.3191],[-66.8208,-13.2625,160.504],[-66.8187,-13.2565,164.3144],[-66.8144,-13.252,169.1534],[-66.8163,-13.2518,159.037],[-66.8163,-13.2503,161.2521],[-66.8144,-13.251,164.6742],[-66.812,-13.2464,159.3338],[-66.8059,-13.2431,157.8427],[-66.8139,-13.2414,170.3715],[-66.8145,-13.2386,158.7923],[-66.7973,-13.2327,166.858],[-66.7852,-13.237,163.6234],[-66.7825,-13.2364,165.6398],[-66.7842,-13.2314,162.011],[-66.784,-13.2254,157.5159],[-66.787,-13.2214,162.3205],[-66.7887,-13.2103,160.0841],[-66.7864,-13.2054,157.1821],[-66.7797,-13.1996,170.0853],[-66.7762,-13.1931,159.5556],[-66.7763,-13.1898,159.2258],[-66.7797,-13.1835,155.0],[-66.7791,-13.1756,158.9203],[-66.7746,-13.1739,163.6846],[-66.7719,-13.1789,167.7809],[-66.7729,-13.184,171.6716],[-66.7702,-13.1837,159.706],[-66.7687,-13.1874,162.2542],[-66.7651,-13.1849,156.7928],[-66.7641,-13.1864,172.1593],[-66.7612,-13.1802,161.9108],[-66.7587,-13.1824,158.0634],[-66.7566,-13.1802,162.3627],[-66.7537,-13.184,160.7937],[-66.746,-13.1842,161.3456],[-66.7452,-13.1826,162.9132],[-66.7439,-13.1841,164.5645],[-66.7384,-13.1829,160.699],[-66.7379,-13.1806,166.0036],[-66.7344,-13.1779,161.7411],[-66.7363,-13.1751,160.5173],[-66.734,-13.1745,162.5009],[-66.7344,-13.1725,165.8547],[-66.7369,-13.173,160.9325],[-66.7351,-13.1717,165.8547],[-66.7366,-13.1695,159.7419],[-66.735,-13.1688,164.1242],[-66.7365,-13.1678,160.7513],[-66.7364,-13.1645,160.7705],[-66.7378,-13.1644,171.2528],[-66.7346,-13.1641,164.4149],[-66.7362,-13.1624,161.2194],[-66.7334,-13.1596,165.1886],[-66.735,-13.1575,164.5574],[-66.7326,-13.1579,166.368],[-66.7329,-13.1538,161.7034],[-66.7377,-13.1499,157.5064],[-66.7396,-13.1507,163.1529],[-66.7399,-13.1475,162.4009],[-66.7425,-13.1474,159.8909],[-66.7423,-13.1454,160.1519],[-66.7438,-13.1463,159.8909],[-66.747,-13.1439,157.5016],[-66.745,-13.1435,160.8163],[-66.7459,-13.1415,167.6117],[-66.7496,-13.141,160.8169],[-66.7475,-13.1362,158.347],[-66.7453,-13.1351,162.0274],[-66.7423,-13.1362,165.1752],[-66.7415,-13.1388,161.8675],[-66.7328,-13.1354,166.5844],[-66.7332,-13.1332,160.4488],[-66.732,-13.1348,166.5844],[-66.7308,-13.1338,165.1788],[-66.7313,-13.1321,158.9],[-66.7265,-13.1287,161.7852],[-66.7253,-13.1245,171.1499],[-66.7275,-13.1234,160.5671],[-66.7277,-13.1214,160.6602],[-66.7329,-13.1239,161.6487],[-66.7342,-13.1229,162.5132],[-66.7357,-13.1246,170.7272],[-66.7359,-13.1223,159.6461],[-66.7381,-13.123,172.0604],[-66.7392,-13.1209,156.9897],[-66.7409,-13.1211,159.5352],[-66.7436,-13.1177,157.7989],[-66.7401,-13.1108,161.8874],[-66.7425,-13.1107,160.2323],[-66.7451,-13.106,167.9128],[-66.7524,-13.1037,163.3384],[-66.7592,-13.1089,166.2055],[-66.7669,-13.1053,168.2391],[-66.762,-13.0937,155.8878],[-66.7549,-13.0902,159.03],[-66.7476,-13.0929,162.2361],[-66.7463,-13.0972,158.5175],[-66.744,-13.0972,156.8828],[-66.743,-13.1001,158.0755],[-66.7401,-13.1003,154.1161],[-66.7401,-13.1022,156.8473],[-66.7371,-13.1027,163.7656],[-66.7353,-13.1057,162.8111],[-66.733,-13.1042,158.1924],[-66.7303,-13.1065,168.3035],[-66.73,-13.104,157.1916],[-66.7278,-13.1044,155.2509],[-66.7294,-13.0982,164.6896],[-66.7277,-13.0968,159.1873],[-66.7304,-13.0959,162.5078],[-66.73,-13.0912,153.1746],[-66.7321,-13.0903,161.371],[-66.7317,-13.0858,167.7082],[-66.7294,-13.0845,168.8951],[-66.7304,-13.0803,163.463],[-66.7272,-13.0791,170.9185],[-66.729,-13.0761,157.3187],[-66.7256,-13.0649,158.1414],[-66.7257,-13.0623,159.1731],[-66.7281,-13.0601,157.9574],[-66.727,-13.0589,162.1979],[-66.7282,-13.0545,154.2898],[-66.7265,-13.0527,167.3411],[-66.7296,-13.0522,166.8668],[-66.7295,-13.0477,168.6702],[-66.7318,-13.0468,167.2402],[-66.7306,-13.0442,157.175],[-66.7322,-13.0419,153.6794],[-66.7332,-13.0425,153.6794],[-66.7343,-13.0384,160.4431],[-66.7323,-13.0372,157.1201],[-66.736,-13.0351,165.1443],[-66.7328,-13.0329,159.7202],[-66.7344,-13.0302,155.9708],[-66.7327,-13.0308,158.3429],[-66.736,-13.0237,158.0172],[-66.7435,-13.0233,154.8284],[-66.7439,-13.0263,158.7668],[-66.7464,-13.0234,159.0713],[-66.7457,-13.0254,159.3465],[-66.7514,-13.0275,161.5089],[-66.7555,-13.0387,163.1581],[-66.7584,-13.0393,157.6604],[-66.7589,-13.0331,155.7517],[-66.7616,-13.0274,154.9315],[-66.7596,-13.0204,161.8072],[-66.7614,-13.0193,155.7886],[-66.7603,-13.015,152.5678],[-66.7594,-13.0169,158.2423],[-66.7581,-13.0162,164.325],[-66.7602,-13.0124,155.8362],[-66.7572,-13.0119,159.7727],[-66.7578,-13.0084,155.9065],[-66.7496,-13.0054,159.7766],[-66.7431,-13.0113,170.218],[-66.7427,-13.0093,155.9083],[-66.7405,-13.01,154.4243],[-66.7382,-13.0047,152.5966],[-66.7393,-13.0025,156.2184],[-66.7406,-13.0028,154.3017],[-66.742,-12.9988,165.6906],[-66.74,-12.9985,152.8719],[-66.7395,-12.9953,154.5931],[-66.735,-12.993,152.6566],[-66.7327,-12.9942,152.5473],[-66.7315,-12.9923,157.9819],[-66.7308,-12.9944,152.509],[-66.728,-12.9951,151.4821],[-66.7287,-12.9968,153.4104],[-66.7267,-12.9967,156.0405],[-66.7278,-12.9986,153.0981],[-66.7263,-12.9993,161.1163],[-66.7283,-13.0009,154.3005],[-66.7276,-13.0032,152.6205],[-66.7292,-13.0049,154.3332],[-66.727,-13.004,152.569],[-66.726,-13.0059,154.2849],[-66.725,-13.0048,153.7791],[-66.7221,-13.0066,152.0913],[-66.7182,-12.999,151.9111],[-66.7173,-12.9998,151.6871],[-66.715,-12.998,151.8077],[-66.7136,-12.9992,151.8077],[-66.7114,-12.9965,156.6449],[-66.7089,-12.9962,151.1555],[-66.707,-12.99,154.1931],[-66.7077,-12.9836,154.9727],[-66.7026,-12.9778,150.1656],[-66.7044,-12.9756,155.3004],[-66.7024,-12.9713,151.3841],[-66.6954,-12.9696,159.57],[-66.697,-12.9665,153.4658],[-66.7062,-12.964,162.925],[-66.707,-12.9658,154.924],[-66.7099,-12.9656,157.6436],[-66.711,-12.9627,163.5806],[-66.713,-12.9627,159.2002],[-66.7143,-12.9609,158.9827],[-66.7122,-12.9564,153.3918],[-66.7135,-12.9557,160.6426],[-66.7121,-12.9547,152.4106],[-66.7134,-12.9532,149.6555],[-66.7122,-12.9502,150.6923],[-66.71,-12.9499,151.428],[-66.7107,-12.9478,152.7277],[-66.7079,-12.9469,151.784],[-66.7084,-12.9449,153.9267],[-66.706,-12.9452,153.3571],[-66.7065,-12.9436,157.2376],[-66.7051,-12.944,157.2376],[-66.7056,-12.9466,151.1765],[-66.7025,-12.9478,152.8341],[-66.6971,-12.9468,159.3871],[-66.6977,-12.9449,152.9517],[-66.6921,-12.945,170.471],[-66.6909,-12.9424,150.9574],[-66.6861,-12.9412,163.3245],[-66.6839,-12.9366,168.7312],[-66.6851,-12.931,151.0992],[-66.6821,-12.9292,151.6612],[-66.6824,-12.9278,160.733],[-66.6793,-12.9289,152.4446],[-66.6774,-12.9265,153.5398],[-66.6773,-12.9294,152.6161],[-66.6753,-12.9285,152.9425],[-66.6751,-12.9303,155.5293],[-66.6699,-12.9301,155.1658],[-66.6727,-12.9265,152.2946],[-66.6709,-12.921,155.911],[-66.6731,-12.919,153.0342],[-66.6792,-12.9179,166.9623],[-66.6844,-12.9191,156.4306],[-66.6851,-12.921,154.8979],[-66.6878,-12.9208,157.5917],[-66.6902,-12.9246,153.5669],[-66.6928,-12.9247,151.6716],[-66.6932,-12.9272,150.2641],[-66.6951,-12.9278,161.0705],[-66.6962,-12.9242,153.9267],[-66.6949,-12.9199,154.3461],[-66.6998,-12.9169,154.2041],[-66.7002,-12.9127,162.0996],[-66.703,-12.9111,166.0634],[-66.7028,-12.9047,156.2767],[-66.7052,-12.9025,157.4973],[-66.7046,-12.901,155.3177],[-66.6986,-12.9028,157.5343],[-66.6979,-12.8953,150.6949],[-66.6939,-12.8907,151.1803],[-66.6959,-12.8881,147.493],[-66.6954,-12.8817,150.6728],[-66.6977,-12.8825,149.4658],[-66.6999,-12.8779,150.5948],[-66.7023,-12.8786,153.1403],[-66.7006,-12.8763,150.5948],[-66.7021,-12.8748,149.1541],[-66.7007,-12.8736,150.5834],[-66.701,-12.8695,155.2538],[-66.6977,-12.8682,148.4228],[-66.6965,-12.8655,155.0406],[-66.695,-12.8666,148.0129],[-66.6946,-12.8649,155.0406],[-66.6913,-12.8649,162.1839],[-66.6899,-12.8573,152.8732],[-66.6859,-12.8558,161.2087],[-66.6836,-12.8504,164.0391],[-66.6837,-12.8454,165.2677],[-66.6873,-12.8346,151.4155],[-66.6896,-12.8343,153.7469],[-66.6922,-12.8313,158.2602],[-66.696,-12.831,151.2205],[-66.6956,-12.8275,157.3439],[-66.6875,-12.8168,151.2348],[-66.6851,-12.8163,164.653],[-66.6827,-12.8109,160.5493],[-66.6671,-12.8008,155.8686],[-66.6624,-12.8009,151.5844],[-66.6602,-12.7991,160.1164],[-66.6587,-12.8009,149.0326],[-66.6567,-12.798,159.0824],[-66.657,-12.8013,158.3724],[-66.6502,-12.801,162.6483],[-66.6469,-12.8033,148.4195],[-66.6467,-12.805,157.6176],[-66.6449,-12.8036,148.7707],[-66.6427,-12.8062,148.8715],[-66.6394,-12.805,152.4452],[-66.637,-12.8079,148.6084],[-66.6334,-12.806,150.1693],[-66.6321,-12.8019,166.9483],[-66.6346,-12.7977,150.4944],[-66.6343,-12.7934,152.7394],[-66.6365,-12.7922,148.8647],[-66.6346,-12.7901,156.0661],[-66.6361,-12.7889,151.333],[-66.6358,-12.7863,153.4649],[-66.6384,-12.7856,150.8759],[-66.6358,-12.7834,155.5716],[-66.6393,-12.7816,150.5908],[-66.6367,-12.7792,158.9812],[-66.6389,-12.7775,156.1276],[-66.6392,-12.7701,148.944],[-66.6411,-12.7704,151.3197],[-66.6389,-12.7685,162.733],[-66.6415,-12.7677,148.4024],[-66.6407,-12.7659,163.287],[-66.6431,-12.7614,165.6788],[-66.6412,-12.7603,160.0044],[-66.6446,-12.7579,155.021],[-66.6432,-12.756,159.0447],[-66.6434,-12.7512,161.2465],[-66.6413,-12.7491,158.4162],[-66.6428,-12.7482,158.4162],[-66.6415,-12.7461,161.1872],[-66.6432,-12.7443,163.0975],[-66.6433,-12.7406,154.9636],[-66.6419,-12.7401,163.7573],[-66.6445,-12.7382,153.7745],[-66.6445,-12.7358,157.4332],[-66.647,-12.7377,151.8643],[-66.646,-12.7344,149.4985],[-66.6479,-12.7309,151.6054],[-66.6451,-12.7311,158.8028],[-66.6458,-12.7278,149.9147],[-66.6436,-12.724,159.3383],[-66.6389,-12.7236,156.1146],[-66.6297,-12.7325,155.5267],[-66.6327,-12.7378,157.7141],[-66.6322,-12.7426,147.575],[-66.6292,-12.7453,148.8691],[-66.6239,-12.7462,153.3413],[-66.62,-12.7438,152.5865],[-66.6182,-12.7371,156.7206],[-66.6204,-12.7288,151.4787],[-66.6197,-12.7183,147.3211],[-66.6173,-12.7101,147.1438],[-66.6189,-12.7045,153.2727],[-66.6234,-12.7013,147.4935],[-66.6235,-12.6985,147.5439],[-66.6114,-12.687,148.5846],[-66.6089,-12.6894,148.0149],[-66.6067,-12.6887,147.5566],[-66.6062,-12.6904,148.081],[-66.6041,-12.6887,150.6423],[-66.6042,-12.6913,147.443],[-66.6,-12.695,150.204],[-66.5972,-12.6936,151.842],[-66.5973,-12.6956,148.8207],[-66.596,-12.6951,148.8207],[-66.5952,-12.6916,159.0825],[-66.5971,-12.6871,153.7049],[-66.5963,-12.6857,155.1465],[-66.5977,-12.6852,155.1465],[-66.5957,-12.6842,169.7111],[-66.5967,-12.6807,167.1291],[-66.6028,-12.6758,148.3851],[-66.6033,-12.6737,147.0815],[-66.6058,-12.6732,147.4933],[-66.605,-12.6714,145.9442],[-66.603,-12.6712,146.7263],[-66.6051,-12.6686,146.5518],[-66.6026,-12.668,146.6709],[-66.6043,-12.6658,146.2622],[-66.6016,-12.6645,157.1832],[-66.6011,-12.6591,145.9758],[-66.5986,-12.6588,149.1043],[-66.5985,-12.6574,145.7614],[-66.5966,-12.6582,146.2094],[-66.5961,-12.6554,151.5529],[-66.5974,-12.6541,146.165],[-66.5949,-12.6533,154.4239],[-66.5972,-12.6489,146.7823],[-66.5952,-12.6454,160.0508],[-66.5959,-12.6433,149.3294],[-66.6,-12.6394,149.7719],[-66.6077,-12.6377,148.2468],[-66.6111,-12.6382,145.4172],[-66.6138,-12.643,143.6358],[-66.6192,-12.642,148.4344],[-66.621,-12.6366,153.1034],[-66.6169,-12.6367,152.3658],[-66.6191,-12.6344,152.9206],[-66.6168,-12.6327,150.2253],[-66.6191,-12.6322,152.6752],[-66.6169,-12.6299,149.9687],[-66.6174,-12.6262,154.9295],[-66.6194,-12.6259,152.1615],[-66.6168,-12.6234,150.0605],[-66.6212,-12.6225,149.7108],[-66.6191,-12.6189,152.1379],[-66.6219,-12.6168,149.2424],[-66.619,-12.6161,151.871],[-66.6217,-12.6153,150.4505],[-66.6217,-12.6119,157.8102],[-66.6234,-12.6122,150.5498],[-66.6235,-12.6138,149.1906],[-66.6237,-12.6102,153.3041],[-66.6253,-12.6099,158.9829],[-66.6252,-12.6022,146.5076],[-66.6272,-12.6015,152.5004],[-66.6258,-12.5981,147.5775],[-66.6277,-12.597,147.4981],[-66.6257,-12.5958,148.0706],[-66.628,-12.5953,147.6409],[-66.6282,-12.5915,149.3114],[-66.631,-12.591,146.881],[-66.6315,-12.5884,147.2792],[-66.6333,-12.5898,154.0226],[-66.6325,-12.5859,155.8888],[-66.6384,-12.5862,145.9755],[-66.639,-12.5836,145.5672],[-66.6414,-12.5836,149.0741],[-66.6423,-12.5808,152.5768],[-66.6445,-12.5815,149.4896],[-66.6438,-12.5785,146.43],[-66.6469,-12.5775,148.3118],[-66.6464,-12.5717,145.6881],[-66.6476,-12.5704,151.5539],[-66.6444,-12.569,146.2172],[-66.6453,-12.5664,151.6419],[-66.6479,-12.5658,145.4278],[-66.6476,-12.5642,152.3859],[-66.6504,-12.5652,144.9577],[-66.6512,-12.5622,142.7224],[-66.6537,-12.5628,151.854],[-66.6532,-12.5607,146.1501],[-66.6569,-12.5557,142.2936],[-66.6568,-12.5462,143.9048],[-66.6553,-12.5435,144.1748],[-66.6521,-12.5433,147.884],[-66.6528,-12.5395,149.3561],[-66.6507,-12.5363,144.7787],[-66.6495,-12.5383,145.2801],[-66.6478,-12.5373,146.0515],[-66.6475,-12.5352,145.9455],[-66.6459,-12.5349,150.307],[-66.6471,-12.5311,145.7238],[-66.6453,-12.5307,145.7238],[-66.6475,-12.5296,144.1305],[-66.6466,-12.5276,157.5592],[-66.65,-12.5275,144.1133],[-66.6552,-12.5222,144.651],[-66.6491,-12.5209,146.8798],[-66.646,-12.5219,145.6111],[-66.6424,-12.5276,156.8736],[-66.6401,-12.525,143.6209],[-66.6348,-12.5266,144.5844],[-66.633,-12.5248,143.9626],[-66.6316,-12.5254,157.6155],[-66.6345,-12.5212,153.8602],[-66.6376,-12.521,154.9652],[-66.6369,-12.518,144.9444],[-66.6356,-12.5187,144.9444],[-66.6346,-12.5165,156.1535],[-66.6372,-12.5144,147.73],[-66.6364,-12.5111,146.662],[-66.6384,-12.5112,145.616],[-66.6376,-12.5087,146.0199],[-66.6423,-12.5077,143.6913],[-66.6435,-12.5047,141.9934],[-66.6483,-12.5048,144.014],[-66.6492,-12.5062,144.014],[-66.6507,-12.504,156.3147],[-66.6525,-12.5091,143.9755],[-66.6548,-12.5088,143.7442],[-66.656,-12.5111,146.565],[-66.6582,-12.5063,143.9498],[-66.6601,-12.506,148.7875],[-66.6598,-12.5032,148.6975],[-66.6617,-12.5032,151.0806],[-66.6591,-12.5004,148.5484],[-66.6616,-12.4985,144.2469],[-66.6592,-12.4982,147.3239],[-66.6598,-12.497,151.0577],[-66.6542,-12.4969,147.3023],[-66.6536,-12.4957,146.582],[-66.655,-12.4949,146.582],[-66.6537,-12.4929,150.5009],[-66.6506,-12.4925,159.9975],[-66.6522,-12.4909,153.9757],[-66.65,-12.4894,147.2546],[-66.6507,-12.4883,147.2546],[-66.6469,-12.4866,150.3233],[-66.6413,-12.489,144.8364],[-66.6398,-12.4881,145.0588],[-66.6388,-12.4903,151.4854],[-66.6356,-12.4901,145.8057],[-66.6353,-12.4917,159.5811],[-66.6332,-12.4907,144.4364],[-66.6319,-12.4927,145.0907],[-66.63,-12.4911,144.0729],[-66.6282,-12.4925,144.584],[-66.6266,-12.4911,143.7651],[-66.6258,-12.4919,149.5432],[-66.6213,-12.4806,154.9112],[-66.6266,-12.4768,147.7815],[-66.6274,-12.4746,147.9585],[-66.6321,-12.4722,147.9454],[-66.6334,-12.4737,156.2352],[-66.6361,-12.4711,151.26],[-66.642,-12.4712,161.3726],[-66.6493,-12.4725,148.5002],[-66.65,-12.4743,145.3869],[-66.6517,-12.4723,155.2047],[-66.6521,-12.475,153.6743],[-66.6548,-12.4743,152.2118],[-66.6538,-12.477,152.2021],[-66.6572,-12.4765,154.1599],[-66.6607,-12.4806,151.4441],[-66.6625,-12.4794,149.898],[-66.6627,-12.4822,149.1851],[-66.6675,-12.4816,147.1926],[-66.6679,-12.4847,146.2373],[-66.6701,-12.4841,159.6854],[-66.6689,-12.4863,149.1995],[-66.6787,-12.4934,154.5913],[-66.6827,-12.4921,147.5906],[-66.6816,-12.4895,156.2384],[-66.6854,-12.4855,143.6042],[-66.6829,-12.4841,152.9752],[-66.685,-12.4828,142.9182],[-66.6836,-12.4812,158.0861],[-66.6853,-12.4788,146.3354],[-66.6829,-12.4784,152.0942],[-66.6824,-12.4742,151.3113],[-66.6799,-12.4734,151.1866],[-66.6799,-12.471,147.3727],[-66.6778,-12.4713,156.2151],[-66.6787,-12.47,147.3727],[-66.6772,-12.4688,145.3851],[-66.6758,-12.4698,154.6658],[-66.6742,-12.4684,143.0365],[-66.6736,-12.4697,155.0931],[-66.6739,-12.4657,145.5255],[-66.6719,-12.4647,148.338],[-66.671,-12.466,148.338],[-66.6697,-12.4615,150.2386],[-66.6678,-12.462,150.2386],[-66.6707,-12.4582,147.2476],[-66.6688,-12.4568,147.5114],[-66.6693,-12.4544,148.3978],[-66.6673,-12.4535,151.0698],[-66.6672,-12.4512,147.3026],[-66.6617,-12.4501,147.4091],[-66.6597,-12.448,144.6222],[-66.6593,-12.4498,144.332],[-66.6547,-12.4498,147.3389],[-66.6618,-12.4445,152.8738],[-66.6626,-12.4424,148.3324],[-66.6608,-12.4418,143.2392],[-66.664,-12.4399,152.2259],[-66.6631,-12.4379,157.2791],[-66.6655,-12.4374,147.7653],[-66.6665,-12.4327,147.4915],[-66.6686,-12.4331,156.6202],[-66.6706,-12.4288,144.1579],[-66.6733,-12.4267,146.4647],[-66.6746,-12.4274,145.4215],[-66.6736,-12.4244,158.7121],[-66.6868,-12.4217,143.6604],[-66.6881,-12.4197,142.3791],[-66.691,-12.4213,141.665],[-66.6965,-12.4205,141.8286],[-66.6946,-12.4096,151.1671],[-66.6916,-12.4057,147.2265],[-66.6902,-12.3994,150.9509],[-66.6913,-12.3964,141.8547],[-66.6893,-12.3923,147.177],[-66.6908,-12.3873,142.681],[-66.6937,-12.3872,143.5315],[-66.6938,-12.3837,150.9526],[-66.6956,-12.3826,141.276],[-66.6956,-12.3746,141.6018],[-66.6983,-12.3718,142.6712],[-66.6995,-12.3666,143.2523],[-66.6959,-12.3614,144.2241],[-66.6923,-12.3595,155.4354],[-66.6898,-12.3538,143.7918],[-66.6865,-12.3542,145.6469],[-66.6839,-12.3523,158.8782],[-66.684,-12.349,147.1028],[-66.6745,-12.3454,147.8293],[-66.673,-12.3429,151.2841],[-66.6699,-12.3446,154.9035],[-66.6655,-12.3428,151.4784],[-66.6633,-12.3448,147.4252],[-66.6611,-12.3434,143.7606],[-66.6595,-12.3447,148.0417],[-66.6585,-12.343,146.9984],[-66.6579,-12.3481,150.0406],[-66.6544,-12.3466,144.5658],[-66.6549,-12.3419,146.9384],[-66.6582,-12.3404,144.623],[-66.6583,-12.336,153.8955],[-66.6615,-12.3344,141.0459],[-66.6619,-12.3324,144.4489],[-66.6636,-12.3348,149.9492],[-66.666,-12.326599999999999,143.5909],[-66.669,-12.3263,144.2927],[-66.6676,-12.3234,152.0881],[-66.6705,-12.3258,144.5738],[-66.6729,-12.3229,141.6635],[-66.6702,-12.3204,146.1431],[-66.6671,-12.3222,149.4525],[-66.6638,-12.3189,148.9165],[-66.6611,-12.3209,146.8368],[-66.6614,-12.317,142.7115],[-66.6582,-12.316,150.0682],[-66.6576,-12.3136,144.7058],[-66.6547,-12.314,150.8983],[-66.6545,-12.3099,141.8795],[-66.6522,-12.3094,141.1697],[-66.6526,-12.3075,147.5915],[-66.65,-12.3079,150.1384],[-66.651,-12.305,154.7167],[-66.6573,-12.3041,148.2857],[-66.6604,-12.2999,147.3721],[-66.6629,-12.3006,145.3878],[-66.6618,-12.3038,150.1258],[-66.6636,-12.304,150.1258],[-66.6637,-12.3004,145.5145],[-66.6656,-12.3014,146.0414],[-66.6661,-12.2998,144.7484],[-66.6621,-12.2961,148.8604],[-66.6637,-12.295,144.1286],[-66.6657,-12.2966,142.3833],[-66.667,-12.292,143.7915],[-66.6664,-12.2902,145.6966],[-66.6627,-12.2902,144.8891],[-66.6652,-12.2874,145.108],[-66.6634,-12.2856,147.2704],[-66.6652,-12.2855,145.4972],[-66.6647,-12.2827,148.2325],[-66.666,-12.2816,141.4174],[-66.6644,-12.2782,142.1761],[-66.6619,-12.2769,144.9804],[-66.6626,-12.2747,145.0298],[-66.6583,-12.2753,147.1721],[-66.6587,-12.2784,149.6754],[-66.6559,-12.2771,145.7993],[-66.6569,-12.2744,146.3728],[-66.6533,-12.277,145.8513],[-66.6524,-12.2749,144.7084],[-66.6486,-12.2752,140.7446],[-66.6486,-12.2714,142.9825],[-66.6464,-12.2724,147.0514],[-66.6478,-12.2701,142.6478],[-66.6458,-12.2697,143.6666],[-66.6468,-12.2671,142.6264],[-66.6486,-12.2684,143.673],[-66.6511,-12.2672,141.4899],[-66.6497,-12.2661,144.9286],[-66.6528,-12.2615,142.5797],[-66.6513,-12.2617,147.4922],[-66.6521,-12.2599,142.9888],[-66.6495,-12.2597,142.5492],[-66.6513,-12.2572,145.3348],[-66.6485,-12.2569,143.0555],[-66.648,-12.2585,143.9581],[-66.6451,-12.257,150.6543],[-66.6455,-12.2536,145.7112],[-66.6395,-12.2487,144.6093],[-66.6412,-12.2482,144.3233],[-66.6401,-12.2419,145.8397],[-66.6457,-12.2397,143.0773],[-66.6487,-12.2404,142.2121],[-66.6511,-12.2386,141.3882],[-66.6503,-12.2373,149.2284],[-66.6522,-12.237,143.5578],[-66.6504,-12.2317,141.4405],[-66.6453,-12.2312,150.5413],[-66.6442,-12.2296,147.6322],[-66.646,-12.2278,147.9872],[-66.6459,-12.2247,145.296],[-66.6501,-12.2229,143.2998],[-66.6482,-12.2184,146.1891],[-66.6426,-12.2149,153.6781],[-66.6438,-12.2126,147.8078],[-66.6395,-12.2117,147.2783],[-66.6426,-12.2097,146.2693],[-66.6428,-12.2079,152.8637],[-66.6347,-12.2106,146.2502],[-66.6339,-12.2088,144.1937],[-66.6311,-12.2081,143.0247],[-66.6307,-12.2107,155.0931],[-66.628,-12.208,146.1204],[-66.626,-12.2101,148.3715],[-66.6242,-12.2073,148.5838],[-66.6223,-12.2097,147.0915],[-66.6214,-12.2059,149.731],[-66.6177,-12.2069,147.2602],[-66.6165,-12.2032,150.8545],[-66.6132,-12.2051,144.2834],[-66.6105,-12.2015,143.8414],[-66.6125,-12.2008,144.4362],[-66.6114,-12.1992,143.7713],[-66.6156,-12.1972,148.4008],[-66.6195,-12.198,155.1005],[-66.6218,-12.1943,154.801],[-66.6243,-12.196,143.826],[-66.6234,-12.1906,151.4501],[-66.6276,-12.1923,149.7794],[-66.6249,-12.1861,148.5283],[-66.6227,-12.1867,148.6264],[-66.6215,-12.1842,147.0413],[-66.6193,-12.1845,145.4358],[-66.62,-12.1784,144.5886],[-66.6222,-12.1794,141.5079],[-66.624,-12.1779,148.1506],[-66.6204,-12.1746,152.455],[-66.6283,-12.1755,148.5801],[-66.6274,-12.1721,146.7642],[-66.6289,-12.1709,147.2371],[-66.6313,-12.1721,146.1303],[-66.6305,-12.1692,150.7471],[-66.6326,-12.1716,146.1303],[-66.6338,-12.17,147.6311],[-66.6312,-12.1668,144.109],[-66.6291,-12.1683,150.7471],[-66.6289,-12.1634,138.9698],[-66.6267,-12.1632,143.635],[-66.6258,-12.1608,142.7869],[-66.6233,-12.161,144.2388],[-66.6225,-12.1627,144.8782],[-66.6213,-12.1616,144.8782],[-66.6255,-12.1579,145.3385],[-66.6245,-12.1548,152.0893],[-66.6265,-12.1536,141.8983],[-66.6258,-12.1515,143.0437],[-66.6295,-12.1495,143.7973],[-66.6264,-12.1481,149.772],[-66.6304,-12.1459,146.7566],[-66.6291,-12.144,141.6867],[-66.6318,-12.1425,139.2275],[-66.6304,-12.1418,153.9695],[-66.6339,-12.1397,141.695],[-66.6336,-12.1378,143.0638],[-66.636,-12.138,148.4862],[-66.6364,-12.1346,140.4214],[-66.6409,-12.1358,145.7435],[-66.6428,-12.1314,147.9715],[-66.6421,-12.1274,145.6243],[-66.6364,-12.1256,142.6761],[-66.6346,-12.1265,152.5782],[-66.6343,-12.1237,141.843],[-66.6299,-12.1263,155.7494],[-66.6294,-12.1232,143.2314],[-66.6247,-12.1229,145.8342],[-66.624,-12.1207,143.5951],[-66.6204,-12.1192,147.2621],[-66.6173,-12.1201,144.7733],[-66.6159,-12.1182,146.7861],[-66.6134,-12.1207,151.1676],[-66.6116,-12.118,150.3445],[-66.6127,-12.1166,140.0735],[-66.6142,-12.118,145.4185],[-66.6146,-12.1167,142.9689],[-66.6078,-12.1145,140.9317],[-66.6093,-12.1123,141.9796],[-66.6054,-12.1123,148.4288],[-66.6056,-12.1096,142.9799],[-66.6012,-12.1086,139.434],[-66.602,-12.1066,142.1823],[-66.5992,-12.1099,143.7747],[-66.5972,-12.1091,141.0654],[-66.598,-12.1077,150.9869],[-66.5948,-12.1069,140.4333],[-66.5957,-12.1015,150.0172],[-66.5998,-12.0994,142.0707],[-66.6002,-12.0977,142.4487],[-66.6022,-12.0971,137.2763],[-66.6025,-12.0984,143.8688],[-66.604,-12.0971,142.4197],[-66.6056,-12.0992,145.1722],[-66.6079,-12.0992,146.4023],[-66.6082,-12.1013,149.8648],[-66.6111,-12.1005,144.826],[-66.6155,-12.1022,142.4881],[-66.6178,-12.105,142.2613],[-66.6192,-12.1039,142.8362],[-66.62,-12.1066,145.7153],[-66.6234,-12.1067,142.6536],[-66.6252,-12.1051,141.6555],[-66.627,-12.1084,146.1418],[-66.6325,-12.1075,138.7459],[-66.6296,-12.1005,146.9546],[-66.6299,-12.0964,139.7708],[-66.6269,-12.0956,141.0785],[-66.6254,-12.0889,141.9739],[-66.6232,-12.0897,149.5023],[-66.6217,-12.0865,138.4749],[-66.6201,-12.0879,143.2432],[-66.6205,-12.084,144.5923],[-66.617,-12.0843,140.8158],[-66.614,-12.0826,146.5876],[-66.6122,-12.0848,147.6384],[-66.6111,-12.0815,142.0293],[-66.6093,-12.0819,141.389],[-66.6092,-12.0763,141.1284],[-66.6064,-12.0754,140.6179],[-66.6043,-12.077,142.4303],[-66.6013,-12.0712,147.6893],[-66.5991,-12.0725,139.8751],[-66.5979,-12.0682,146.6572],[-66.5998,-12.0611,154.0717],[-66.6025,-12.0586,146.0227],[-66.6126,-12.0528,147.6663],[-66.6161,-12.0544,142.1792],[-66.6162,-12.0509,147.3145],[-66.6218,-12.049,141.3393],[-66.6218,-12.0473,142.7018],[-66.6245,-12.0454,148.8574],[-66.6272,-12.0446,139.1773],[-66.6278,-12.0469,144.0636],[-66.6299,-12.0447,140.9672],[-66.6341,-12.0442,137.4648],[-66.6358,-12.0455,144.1895],[-66.6395,-12.0412,137.6292],[-66.6365,-12.0318,141.8433],[-66.6299,-12.0272,144.3853],[-66.6277,-12.0232,143.1103],[-66.6237,-12.0243,140.6018],[-66.6251,-12.0261,137.3134],[-66.6216,-12.0259,142.6351],[-66.6219,-12.0228,142.6609],[-66.6179,-12.0217,143.6709],[-66.6175,-12.0155,140.9186],[-66.6219,-12.0127,141.9775],[-66.6226,-12.0035,144.2133],[-66.8939,-12.0059,140.0],[-66.8952,-12.0143,140.0],[-66.91,-12.0473,140.0],[-66.9107,-12.0525,140.0],[-66.9086,-12.0569,143.6611],[-66.8953,-12.0548,143.9178],[-66.8886,-12.0581,140.0],[-66.8843,-12.076599999999999,140.0],[-66.8766,-12.0953,140.0],[-66.8731,-12.1079,140.0],[-66.8761,-12.1135,140.0],[-66.922,-12.1534,140.0],[-66.9247,-12.1579,140.0],[-66.9253,-12.1649,140.0],[-66.9206,-12.1844,140.0],[-66.9181,-12.1861,140.0],[-66.8971,-12.1903,140.0],[-66.8892,-12.2,140.0],[-66.8858,-12.2147,140.0],[-66.8861,-12.247,140.0],[-66.8885,-12.2541,141.2843],[-66.8967,-12.2627,143.0529],[-66.9093,-12.2847,140.5],[-66.9456,-12.2974,153.6427],[-66.9482,-12.3023,140.5],[-66.9489,-12.3094,140.5],[-66.946,-12.3276,140.5],[-66.9371,-12.3317,140.5],[-66.9202,-12.3339,140.5],[-66.9066,-12.342,140.5],[-66.9,-12.3517,140.5],[-66.8973,-12.3692,141.1532],[-66.8995,-12.3732,144.3929],[-66.9129,-12.3756,140.5],[-66.9193,-12.3784,140.5],[-66.9385,-12.3987,140.5],[-66.9698,-12.4186,140.5],[-66.9692,-12.4233,140.5],[-66.9653,-12.4296,140.5],[-66.9352,-12.4655,144.4993],[-66.9327,-12.4722,141.0],[-66.9366,-12.4756,141.0],[-66.9526,-12.4751,141.0],[-66.9643,-12.4809,145.2948],[-66.9679,-12.4865,141.0],[-66.9663,-12.493,152.0542],[-66.9607,-12.5039,141.0],[-66.9555,-12.5085,141.0],[-66.9205,-12.5284,141.0],[-66.9174,-12.5338,141.0],[-66.919,-12.5385,147.1792],[-66.9279,-12.5394,141.0],[-66.9356,-12.5432,141.0],[-66.9437,-12.5573,141.0],[-66.9469,-12.5596,141.0],[-66.9695,-12.5678,141.0],[-66.973,-12.5716,141.0],[-66.9746,-12.5765,142.2166],[-66.9769,-12.5927,141.0],[-66.9731,-12.5958,143.1892],[-66.9564,-12.5969,150.1266],[-66.9468,-12.5994,146.654],[-66.9395,-12.6105,141.0],[-66.929,-12.6193,141.0],[-66.9265,-12.6256,151.7395],[-66.9273,-12.63,148.4656],[-66.93,-12.6323,145.6908],[-66.9368,-12.6341,142.0312],[-66.9406,-12.6326,145.0273],[-66.9459,-12.6244,151.1228],[-66.9511,-12.6236,142.4909],[-66.9546,-12.6298,141.0],[-66.9566,-12.6453,141.5],[-66.9628,-12.6503,151.0883],[-66.9708,-12.6518,141.5],[-66.9753,-12.6569,141.5],[-66.9732,-12.6632,141.5],[-66.9688,-12.6652,143.2549],[-66.9515,-12.668,141.5],[-66.9471,-12.6709,143.8943],[-66.9394,-12.685,149.276],[-66.9397,-12.6875,145.3098],[-66.9452,-12.6898,142.0],[-66.9582,-12.6874,142.0],[-66.9693,-12.6887,142.0],[-66.9713,-12.6903,142.0],[-66.9707,-12.697,142.0],[-66.9608,-12.7085,142.0],[-66.9538,-12.7206,149.7551],[-66.9533,-12.7281,142.5],[-66.9588,-12.7353,142.5],[-66.9616,-12.7351,143.3477],[-66.9708,-12.7281,146.3264],[-66.9738,-12.7276,143.0066],[-66.9804,-12.7296,159.6016],[-66.9831,-12.7333,146.1657],[-66.9806,-12.7406,142.5],[-66.9687,-12.7538,147.9052],[-66.967,-12.7606,145.4098],[-66.9689,-12.769,144.735],[-66.9682,-12.7716,143.0],[-66.9524,-12.7816,155.8447],[-66.9478,-12.7903,143.5],[-66.95,-12.8004,143.5],[-66.954,-12.8022,143.5],[-66.9834,-12.7831,147.0954],[-66.9856,-12.7846,144.0],[-66.9869,-12.7918,151.8398],[-66.9831,-12.8097,152.3647],[-66.9739,-12.8186,144.5],[-66.9576,-12.8201,146.0498],[-66.9439,-12.8234,145.0],[-66.9429,-12.826,155.7517],[-66.9464,-12.8388,146.9794],[-66.9492,-12.8435,148.1888],[-66.9514,-12.8441,152.8747],[-66.9609,-12.8362,151.7905],[-66.9694,-12.8368,152.163],[-66.9729,-12.84,148.7309],[-66.9734,-12.8472,155.4781],[-66.9762,-12.8511,158.1949],[-66.9791,-12.8517,152.8969],[-66.9865,-12.8495,147.9506],[-66.9902,-12.8512,156.8752],[-66.9941,-12.8629,147.0],[-66.9932,-12.8808,155.0459],[-66.9951,-12.8885,148.7949],[-67.001,-12.8898,147.0],[-67.0119,-12.8852,149.1876],[-67.0189,-12.884,147.5],[-67.0275,-12.8865,152.1528],[-67.0348,-12.8924,147.5],[-67.0363,-12.9009,147.75],[-67.0336,-12.9089,149.7512],[-67.024,-12.9115,148.0],[-67.0112,-12.9099,148.5],[-67.0004,-12.9127,156.7471],[-66.9981,-12.9166,148.5],[-67.0003,-12.9208,148.5],[-67.0121,-12.9294,153.7768],[-67.0206,-12.9308,156.614],[-67.0312,-12.929,155.3904],[-67.0366,-12.9319,149.0],[-67.0424,-12.9422,150.0036],[-67.0469,-12.9567,149.5],[-67.0444,-12.9627,149.5],[-67.0394,-12.9669,158.8833],[-67.0384,-12.9741,153.7212],[-67.0435,-12.9779,149.5],[-67.0599,-12.9828,150.0],[-67.068,-12.9897,150.0],[-67.0702,-12.9944,151.4909],[-67.0694,-12.9997,150.0],[-67.0653,-13.0038,150.0],[-67.0434,-13.0131,159.5071],[-67.0429,-13.0415,150.0],[-67.0467,-13.0513,160.0993],[-67.0531,-13.0533,163.2548],[-67.0576,-13.0511,150.0],[-67.0606,-13.0466,150.0],[-67.0589,-13.0329,160.9052],[-67.0611,-13.0298,151.0],[-67.0654,-13.0287,151.5],[-67.0896,-13.0456,155.5242],[-67.0934,-13.0457,163.7585],[-67.098,-13.0416,153.0],[-67.0978,-13.0375,153.0],[-67.092,-13.0309,165.1151],[-67.0923,-13.0269,153.0],[-67.096,-13.0255,153.0],[-67.1045,-13.0269,162.7874],[-67.1113,-13.0312,158.9727],[-67.1123,-13.0369,153.0],[-67.1109,-13.0404,153.0],[-67.1009,-13.0531,165.3722],[-67.1019,-13.0649,153.5],[-67.1064,-13.0685,158.225],[-67.1167,-13.0657,156.3217],[-67.117,-13.0608,161.6518],[-67.1114,-13.0509,154.5],[-67.1148,-13.0479,161.9385],[-67.1405,-13.0468,155.0],[-67.1481,-13.0529,155.0],[-67.1465,-13.0748,158.9192],[-67.1441,-13.082,161.9715],[-67.135,-13.0888,165.4967],[-67.1344,-13.0922,166.2323],[-67.1389,-13.0983,155.5],[-67.1591,-13.1029,159.8615],[-67.1631,-13.1115,156.0],[-67.1659,-13.1238,156.8456],[-67.1704,-13.1256,156.0],[-67.1834,-13.1209,167.0486],[-67.1862,-13.1225,167.3476],[-67.1874,-13.1258,156.0],[-67.1871,-13.1278,162.9676],[-67.1844,-13.1294,163.4083],[-67.1694,-13.1348,156.0],[-67.161,-13.1543,157.2197],[-67.1593,-13.163,160.0683],[-67.1603,-13.1664,157.0],[-67.1662,-13.1674,157.0],[-67.1942,-13.1622,160.0349],[-67.2207,-13.1662,166.1808],[-67.2256,-13.1684,160.7755],[-67.2281,-13.1711,162.4781],[-67.2282,-13.1749,159.1161],[-67.2256,-13.1783,157.5],[-67.2173,-13.1824,158.5272],[-67.2015,-13.1863,164.6185],[-67.1984,-13.1888,164.6743],[-67.1979,-13.1953,157.8617],[-67.204,-13.1985,158.7151],[-67.2122,-13.1998,159.6778],[-67.2379,-13.1938,158.5],[-67.2458,-13.1973,168.5622],[-67.2539,-13.207,163.884],[-67.2667,-13.2096,168.7325],[-67.2685,-13.2162,163.2132],[-67.2678,-13.2206,159.0],[-67.2647,-13.2288,159.0],[-67.2582,-13.2348,159.5],[-67.2495,-13.2519,164.4366],[-67.2512,-13.2583,160.5],[-67.258,-13.2596,170.4118],[-67.2654,-13.2572,159.5],[-67.2689,-13.2536,172.0962],[-67.2721,-13.2453,162.9992],[-67.2757,-13.2417,160.0],[-67.2847,-13.242,160.0],[-67.294,-13.2477,170.2231],[-67.2954,-13.2505,160.0],[-67.2933,-13.2557,160.0],[-67.2867,-13.26,160.0],[-67.267,-13.2617,170.674],[-67.2628,-13.272,160.0],[-67.2639,-13.2868,160.0],[-67.2664,-13.2928,170.4933],[-67.2782,-13.3031,170.1267],[-67.2829,-13.3053,160.0],[-67.2861,-13.3041,166.7104],[-67.2877,-13.3013,165.2181],[-67.2881,-13.2729,168.4044],[-67.2941,-13.2725,168.592],[-67.3008,-13.2784,167.5054],[-67.303,-13.2849,172.959],[-67.303,-13.2887,170.8803],[-67.2963,-13.2958,171.426],[-67.2962,-13.2987,172.0347],[-67.3001,-13.3051,163.3755],[-67.3161,-13.3139,160.0],[-67.3261,-13.3269,160.0],[-67.3485,-13.3405,160.0],[-67.357,-13.3479,160.0],[-67.358,-13.3511,160.0],[-67.3561,-13.3539,163.217],[-67.3414,-13.3538,160.5],[-67.3303,-13.3557,167.1278],[-67.3269,-13.3585,174.4294],[-67.3266,-13.3628,169.6969],[-67.3287,-13.3658,163.4819],[-67.3338,-13.3699,173.2811],[-67.3779,-13.3859,162.5],[-67.3863,-13.3914,162.5],[-67.3902,-13.3967,165.6433],[-67.391,-13.4013,162.5],[-67.3889,-13.4086,162.5],[-67.3792,-13.4137,166.0747],[-67.3771,-13.4167,163.0],[-67.3772,-13.42,163.0],[-67.3799,-13.4221,163.0],[-67.3962,-13.4266,174.1868],[-67.3979,-13.4302,172.6572],[-67.3959,-13.4377,163.0],[-67.3914,-13.4406,163.0],[-67.3762,-13.4435,163.0],[-67.3592,-13.443,174.8531],[-67.3553,-13.4448,172.3369],[-67.3552,-13.4462,172.3369],[-67.3567,-13.4528,163.0],[-67.3589,-13.4554,163.0],[-67.3648,-13.4571,165.5371],[-67.3821,-13.4551,175.0374],[-67.3889,-13.4562,165.1681],[-67.3915,-13.4607,164.0],[-67.3915,-13.4662,164.8564],[-67.3875,-13.4781,166.14],[-67.3825,-13.4843,165.0],[-67.3771,-13.486,170.8773],[-67.3708,-13.4839,165.9984],[-67.3669,-13.4765,163.0],[-67.3601,-13.4692,174.8811],[-67.3512,-13.4674,176.1846],[-67.3478,-13.4715,163.0],[-67.3514,-13.4822,163.0],[-67.3588,-13.4906,163.2997],[-67.3692,-13.4935,174.3912],[-67.3755,-13.4995,171.345],[-67.3739,-13.5093,175.0907],[-67.3754,-13.5159,167.2756],[-67.3804,-13.5194,175.2847],[-67.39,-13.5168,165.725],[-67.3965,-13.5186,176.5078],[-67.4044,-13.5295,178.9079],[-67.4006,-13.535,166.25],[-67.386,-13.5345,174.052],[-67.3819,-13.5386,178.561],[-67.3781,-13.5491,176.3683],[-67.3798,-13.5661,175.6093],[-67.3778,-13.5681,167.0],[-67.3726,-13.5701,170.4921],[-67.3579,-13.5653,172.3075],[-67.3534,-13.5696,166.5],[-67.3539,-13.5762,172.0237],[-67.3622,-13.5834,177.5678],[-67.3646,-13.5876,172.6526],[-67.3615,-13.6002,176.8592],[-67.3633,-13.609,177.6618],[-67.3673,-13.6108,176.2197],[-67.3741,-13.6093,167.5],[-67.3764,-13.6048,167.5],[-67.3811,-13.6017,180.515],[-67.3847,-13.6013,172.7569],[-67.3882,-13.6035,173.1165],[-67.3868,-13.6107,168.0],[-67.3786,-13.6176,181.1566],[-67.3695,-13.6319,172.5627],[-67.3649,-13.6348,172.4377],[-67.3635,-13.6382,180.7691],[-67.3677,-13.6414,168.0],[-67.3843,-13.6397,177.9887],[-67.3934,-13.6407,168.0],[-67.4134,-13.6479,183.9368],[-67.4189,-13.6534,175.4237],[-67.4348,-13.6576,173.1417],[-67.4387,-13.6636,178.6909],[-67.4391,-13.6669,180.8321],[-67.4356,-13.6833,176.3813],[-67.4279,-13.6925,176.7945],[-67.419,-13.6995,169.0],[-67.4171,-13.7043,179.4459],[-67.4204,-13.7074,175.9553],[-67.4285,-13.7067,173.8804],[-67.4315,-13.7102,177.6766],[-67.4313,-13.7205,178.5031],[-67.4266,-13.7345,169.5],[-67.4307,-13.7363,171.3053],[-67.4349,-13.7355,169.5],[-67.4487,-13.7293,179.714],[-67.452,-13.715,170.7379],[-67.4588,-13.7127,170.0],[-67.4623,-13.7182,172.6468],[-67.461,-13.7263,173.6974],[-67.4512,-13.7347,173.1268],[-67.4504,-13.7384,173.9889],[-67.4565,-13.7439,180.2506],[-67.4735,-13.7495,169.5],[-67.4782,-13.7613,170.0],[-67.4839,-13.7664,170.0],[-67.4902,-13.769,170.0],[-67.509,-13.7722,172.282],[-67.5221,-13.7793,170.0],[-67.5252,-13.7832,170.0],[-67.5254,-13.7894,173.9024],[-67.5212,-13.7931,170.5],[-67.5045,-13.794,172.6259],[-67.4895,-13.7899,179.2992],[-67.4846,-13.7905,171.0],[-67.4818,-13.7945,171.0],[-67.484,-13.8023,171.5545],[-67.5069,-13.8163,173.5336],[-67.5128,-13.8234,175.9833],[-67.5159,-13.8327,177.3498],[-67.5015,-13.8354,181.4641],[-67.4962,-13.8385,172.0],[-67.4917,-13.8424,177.0628],[-67.4901,-13.8499,183.9655],[-67.4864,-13.8536,180.3938],[-67.4815,-13.8528,172.5],[-67.4671,-13.8401,183.5959],[-67.4646,-13.8395,181.2933],[-67.4614,-13.8415,182.5372],[-67.4595,-13.846,174.0],[-67.4605,-13.8496,178.6685],[-67.4739,-13.8644,174.0],[-67.4779,-13.8725,174.0],[-67.4797,-13.884,175.9532],[-67.4977,-13.8917,174.0],[-67.5043,-13.8962,174.0],[-67.5118,-13.9062,174.0],[-67.513,-13.911,174.0],[-67.5112,-13.9141,174.0],[-67.4943,-13.9086,180.028],[-67.4902,-13.9089,184.4296],[-67.4861,-13.9112,182.6797],[-67.4847,-13.9151,174.0],[-67.4861,-13.9198,174.0],[-67.4953,-13.9293,175.5476],[-67.5274,-13.9533,174.0],[-67.5326,-13.9599,184.4523],[-67.5324,-13.9663,174.0],[-67.5388,-13.9772,174.0],[-67.5395,-13.9826,174.0],[-67.5274,-14.0074,174.0],[-67.527,-14.0172,174.0],[-67.5325,-14.0225,179.6804],[-67.5448,-14.0234,184.1505],[-67.5477,-14.0274,182.3996],[-67.5484,-14.0316,179.2323],[-67.5459,-14.0376,174.5],[-67.5256,-14.0459,175.0],[-67.5079,-14.0566,175.5],[-67.4984,-14.0601,175.5],[-67.494,-14.0648,181.3982],[-67.4942,-14.0679,184.4051],[-67.5133,-14.0826,186.281],[-67.5167,-14.0876,181.3725],[-67.5197,-14.0893,179.1449],[-67.5262,-14.0899,177.0],[-67.5422,-14.0866,183.8012],[-67.5481,-14.0889,177.5],[-67.5506,-14.0935,177.5],[-67.5466,-14.1035,178.0],[-67.5397,-14.1101,178.0],[-67.5236,-14.1041,178.5],[-67.5152,-14.1032,186.0963],[-67.5084,-14.1069,180.0266],[-67.5048,-14.1124,188.9015],[-67.5049,-14.1188,179.0],[-67.5069,-14.1242,179.0],[-67.5185,-14.1368,179.0],[-67.5346,-14.1659,179.2377],[-67.5361,-14.1758,179.0],[-67.5343,-14.1921,184.2386],[-67.5307,-14.1995,180.0],[-67.5126,-14.2196,188.0914],[-67.5091,-14.2273,184.9427],[-67.5105,-14.2352,180.5],[-67.5203,-14.2508,180.5],[-67.5186,-14.2562,180.5],[-67.5126,-14.262,181.0],[-67.49,-14.2699,181.0],[-67.4844,-14.2732,183.6906],[-67.4751,-14.28,191.7869],[-67.4726,-14.2882,185.4291],[-67.4752,-14.2951,182.0],[-67.4826,-14.2985,182.0],[-67.4869,-14.2983,182.0],[-67.5052,-14.2907,184.5973],[-67.5103,-14.2907,182.5],[-67.517,-14.2941,182.5],[-67.5256,-14.3026,182.5],[-67.5367,-14.3207,183.51],[-67.5414,-14.3255,182.5],[-67.5606,-14.3379,185.5638],[-67.562,-14.3451,183.0],[-67.5595,-14.347,183.0],[-67.5525,-14.3457,195.7149],[-67.5458,-14.3405,183.0],[-67.542,-14.3407,183.0],[-67.5403,-14.3433,196.8932],[-67.5138,-14.347,199.8641],[-67.4997,-14.3512,201.3252],[-67.4918,-14.3578,198.0153],[-67.4256,-14.3781,188.3989],[-67.3542,-14.3797,188.0584],[-67.3528,-14.3847,187.7998],[-67.3481,-14.3859,192.3351],[-67.3429,-14.3913,192.9227],[-67.3391,-14.3982,191.6584],[-67.3245,-14.3933,187.4231],[-67.3209,-14.3895,185.0778],[-67.3092,-14.3832,179.9741],[-67.3038,-14.3851,177.7615],[-67.3007,-14.3883,177.3391],[-67.2871,-14.3875,177.3764],[-67.2809,-14.3896,176.4579],[-67.2822,-14.3952,175.865],[-67.2795,-14.4012,175.6507],[-67.274,-14.4022,175.7516],[-67.2695,-14.408,175.6192],[-67.2662,-14.4097,175.3856],[-67.2282,-14.4567,191.0881],[-67.1458,-14.5501,195.2402],[-67.0936,-14.6059,197.0443],[-67.0737,-14.6361,200.9069]]]]}
,"properties": {"GID_3": "BOL.3.2.2_2","GID_0": "BOL","country": "Bolivia","GID_1": "BOL.3_1","province": "Beni","NL_NAME_1": "NA","GID_2": "BOL.3.2_2","county": "GeneralJoséBallivián","NL_NAME_2": "NA","city": "Reyes","VARNAME_3": "NA","NL_NAME_3": "NA","TYPE_3": "District","ENGTYPE_3": "Distrito","CC_3": "NA","HASC_3": "NA","name": "Reyes.city","area_km2": 11945.669,"hist_schema_id": "Elevation0-9000","hist_area_km2": {"125": 2.55,"150": 3068.991,"175": 8190.229,"200": 683.9}}}