{"type": "Feature","bbox": [-65.1143,-14.1436,-64.2436,-12.5397],"geometry": {"type": "MultiPolygon","coordinates": [[[[-64.383,-14.1436,147.9179],[-64.3716,-13.4474,137.4723],[-64.3724,-13.3836,140.6021],[-64.3689,-13.3712,136.0835],[-64.3741,-13.3631,136.0438],[-64.3712,-13.3553,137.4964],[-64.3647,-13.3498,136.1216],[-64.3601,-13.3486,136.1941],[-64.3543,-13.3499,136.1349],[-64.3501,-13.348,136.1399],[-64.3491,-13.3362,136.1729],[-64.353,-13.327,136.0772],[-64.3438,-13.32,136.1499],[-64.3398,-13.32,136.1522],[-64.3384,-13.3105,136.1552],[-64.3297,-13.2995,136.9459],[-64.3282,-13.2943,138.3426],[-64.3316,-13.2816,136.9645],[-64.3262,-13.2702,136.471],[-64.3103,-13.2663,136.0861],[-64.2984,-13.256,136.5408],[-64.296,-13.2514,136.3919],[-64.2964,-13.2464,136.2863],[-64.3013,-13.2461,136.1287],[-64.3106,-13.2489,136.2646],[-64.314,-13.2488,136.9527],[-64.3146,-13.2474,136.1295],[-64.305,-13.2177,138.9265],[-64.3001,-13.2197,139.1653],[-64.3009,-13.2273,139.0324],[-64.2962,-13.236,136.2674],[-64.2942,-13.2358,135.9664],[-64.2915,-13.2288,137.6372],[-64.2929,-13.2222,138.0967],[-64.2968,-13.2157,135.8282],[-64.2985,-13.2145,135.8388],[-64.3087,-13.2155,136.7807],[-64.3105,-13.2132,135.8664],[-64.2969,-13.2087,136.0839],[-64.2956,-13.2069,135.5704],[-64.2974,-13.199,135.7539],[-64.2937,-13.2009,135.7778],[-64.2986,-13.1899,136.246],[-64.2996,-13.1774,135.6205],[-64.2972,-13.1776,136.1275],[-64.2878,-13.185,137.1236],[-64.2805,-13.1842,137.2911],[-64.2783,-13.1705,145.9362],[-64.2832,-13.166,135.786],[-64.283,-13.1616,134.8136],[-64.2724,-13.154,136.0947],[-64.2667,-13.1527,136.4601],[-64.2527,-13.1398,138.0868],[-64.2513,-13.1312,135.5464],[-64.2494,-13.129,137.088],[-64.2525,-13.1166,137.2085],[-64.2493,-13.1154,136.5162],[-64.2476,-13.1123,134.3541],[-64.2484,-13.1032,135.75],[-64.2464,-13.0998,135.6666],[-64.2483,-13.0888,136.1512],[-64.252,-13.0869,136.4919],[-64.2537,-13.0877,136.4919],[-64.2545,-13.0859,135.3084],[-64.2518,-13.0772,136.5275],[-64.2459,-13.0733,135.4758],[-64.2442,-13.0689,135.9435],[-64.2465,-13.0583,136.6315],[-64.2506,-13.0534,135.371],[-64.2528,-13.0461,135.3994],[-64.2488,-13.0404,135.6017],[-64.2492,-13.0342,136.5411],[-64.2525,-13.0289,135.3004],[-64.2639,-13.0186,134.2484],[-64.2702,-13.0,136.5721],[-64.2693,-12.9957,137.5013],[-64.2706,-12.9932,136.8646],[-64.2728,-12.9926,137.7146],[-64.2706,-12.9904,135.7312],[-64.2736,-12.9891,138.7357],[-64.2726,-12.9847,136.0775],[-64.2755,-12.9837,135.2566],[-64.2754,-12.9814,137.1482],[-64.2777,-12.9821,135.2913],[-64.2777,-12.9752,136.1642],[-64.2803,-12.9738,139.2986],[-64.2793,-12.9719,135.5697],[-64.2813,-12.9725,138.5152],[-64.2805,-12.9648,136.9615],[-64.2816,-12.9638,139.8509],[-64.2781,-12.9625,134.6958],[-64.2798,-12.9603,138.2889],[-64.278,-12.9594,137.3983],[-64.2792,-12.9571,138.0381],[-64.2781,-12.9559,135.7599],[-64.2799,-12.9544,136.2353],[-64.2785,-12.9538,136.9131],[-64.2782,-12.9499,135.4916],[-64.2765,-12.9494,137.1253],[-64.2783,-12.9483,135.1462],[-64.2771,-12.9464,135.9569],[-64.279,-12.9455,137.1839],[-64.2783,-12.9424,136.5263],[-64.2762,-12.943,139.6007],[-64.2767,-12.9345,137.0548],[-64.2846,-12.9315,135.43],[-64.2874,-12.9324,136.1623],[-64.2874,-12.9308,134.9522],[-64.2903,-12.9306,136.2071],[-64.2899,-12.9285,134.6715],[-64.298,-12.9263,135.1379],[-64.2947,-12.9212,134.4552],[-64.2966,-12.9187,133.5291],[-64.2948,-12.9167,133.9021],[-64.2927,-12.9178,133.8564],[-64.2905,-12.9164,135.4768],[-64.2919,-12.9137,133.9587],[-64.2886,-12.9099,135.1458],[-64.2905,-12.9087,134.2749],[-64.2884,-12.9078,134.333],[-64.2889,-12.9057,134.7284],[-64.2856,-12.9054,134.3445],[-64.2882,-12.9043,134.1237],[-64.2873,-12.9025,134.3101],[-64.2851,-12.9024,135.3311],[-64.2879,-12.9004,134.4446],[-64.2844,-12.9014,135.0826],[-64.2831,-12.8991,135.7414],[-64.2828,-12.896,136.109],[-64.2854,-12.8952,135.6034],[-64.2873,-12.8906,136.3152],[-64.2892,-12.892,134.6411],[-64.2899,-12.8905,136.0191],[-64.2877,-12.8886,136.7136],[-64.2879,-12.8866,136.6188],[-64.2856,-12.8883,136.5479],[-64.284,-12.8873,136.4699],[-64.2841,-12.8851,135.8559],[-64.2876,-12.8838,135.03],[-64.285,-12.8801,135.3415],[-64.2887,-12.8768,136.2118],[-64.2894,-12.8741,136.8501],[-64.2926,-12.8746,138.9197],[-64.2939,-12.8696,139.3067],[-64.3014,-12.8682,135.9982],[-64.305,-12.865,135.8877],[-64.3027,-12.8616,138.7827],[-64.2988,-12.8632,140.0828],[-64.295,-12.8625,136.1389],[-64.2944,-12.8645,135.5798],[-64.2892,-12.8634,138.3571],[-64.2889,-12.8607,138.9023],[-64.2917,-12.8559,134.3831],[-64.2892,-12.855,139.5176],[-64.2894,-12.8536,137.9969],[-64.2916,-12.8535,133.6279],[-64.2897,-12.851,135.4198],[-64.2841,-12.8513,134.6164],[-64.2847,-12.8548,137.5362],[-64.282,-12.855,133.5384],[-64.2809,-12.8522,133.7682],[-64.2793,-12.8529,133.3241],[-64.2755,-12.851,133.188],[-64.2763,-12.8474,133.9602],[-64.2734,-12.8481,134.3321],[-64.2723,-12.8455,133.9806],[-64.2697,-12.8469,133.8353],[-64.2647,-12.8443,133.3818],[-64.2599,-12.8444,135.0447],[-64.2605,-12.8421,132.9467],[-64.2589,-12.8401,135.2179],[-64.2557,-12.8386,134.1803],[-64.2519,-12.8393,137.9809],[-64.2523,-12.8348,135.3295],[-64.2455,-12.8349,144.0407],[-64.246,-12.8317,136.2476],[-64.2436,-12.8301,136.8679],[-64.2468,-12.8286,134.1124],[-64.2485,-12.825,136.0912],[-64.253,-12.828,138.7942],[-64.2532,-12.8245,139.5502],[-64.2554,-12.8232,134.152],[-64.2681,-12.8249,145.8594],[-64.2706,-12.8212,143.2279],[-64.2621,-12.8149,139.0105],[-64.2624,-12.8101,137.9822],[-64.2644,-12.8096,136.0505],[-64.2674,-12.8136,141.457],[-64.271,-12.8105,137.9731],[-64.2742,-12.8159,139.9473],[-64.2784,-12.8142,135.2711],[-64.2784,-12.8125,134.3209],[-64.2737,-12.8087,141.2443],[-64.276,-12.803,135.0809],[-64.2742,-12.7972,142.7698],[-64.2768,-12.796,138.6025],[-64.2866,-12.7964,134.8796],[-64.2875,-12.7951,134.2557],[-64.2878,-12.7854,135.6312],[-64.2909,-12.7825,143.8002],[-64.2899,-12.7776,137.1902],[-64.2911,-12.7748,136.8081],[-64.2874,-12.7756,135.9133],[-64.2846,-12.7788,135.541],[-64.2844,-12.7815,137.139],[-64.279,-12.7817,135.308],[-64.2782,-12.7803,139.713],[-64.2858,-12.7625,135.3095],[-64.2839,-12.7551,137.8286],[-64.2879,-12.7536,138.226],[-64.2944,-12.7539,136.3299],[-64.2955,-12.7517,139.1973],[-64.2994,-12.7516,134.6627],[-64.2992,-12.748,145.9878],[-64.3024,-12.7451,132.6195],[-64.2977,-12.7424,134.9355],[-64.2819,-12.741,138.2287],[-64.2758,-12.7366,133.1972],[-64.2706,-12.736,137.128],[-64.2696,-12.7327,135.9181],[-64.2745,-12.7298,136.2272],[-64.2825,-12.7363,145.3358],[-64.2873,-12.7358,139.2015],[-64.2884,-12.7329,136.26],[-64.2855,-12.7282,133.9208],[-64.2879,-12.7236,134.1651],[-64.2847,-12.7149,136.9644],[-64.2908,-12.7159,136.0978],[-64.2894,-12.7194,133.5569],[-64.2909,-12.7209,134.991],[-64.2994,-12.7213,139.6996],[-64.3009,-12.7159,142.048],[-64.3062,-12.7185,140.1259],[-64.3085,-12.7149,135.9462],[-64.3076,-12.7054,136.0229],[-64.3105,-12.7027,138.3796],[-64.3091,-12.6993,147.249],[-64.3123,-12.6972,137.4803],[-64.311,-12.6949,132.6024],[-64.3168,-12.6933,138.1466],[-64.3201,-12.696,137.9014],[-64.3208,-12.6948,137.9014],[-64.3181,-12.6903,140.8541],[-64.3182,-12.6859,143.5269],[-64.3158,-12.6845,134.9125],[-64.3181,-12.6802,144.9194],[-64.3125,-12.6781,142.4442],[-64.3116,-12.6745,135.269],[-64.3086,-12.6731,140.1815],[-64.3069,-12.6741,138.9603],[-64.3068,-12.6787,133.9995],[-64.3087,-12.6823,135.1692],[-64.3048,-12.6844,138.0656],[-64.3031,-12.6898,139.563],[-64.299,-12.6923,141.6136],[-64.3043,-12.6983,136.3661],[-64.3034,-12.7014,140.2819],[-64.2974,-12.7013,144.9826],[-64.2951,-12.6967,142.3634],[-64.2972,-12.6928,136.1244],[-64.2959,-12.6911,138.0055],[-64.2911,-12.6921,134.2233],[-64.2896,-12.6965,132.9683],[-64.2849,-12.6961,140.0141],[-64.2824,-12.6976,143.7315],[-64.2842,-12.6908,134.351],[-64.2889,-12.6908,135.0542],[-64.2898,-12.6859,135.1131],[-64.2941,-12.6854,141.7972],[-64.2974,-12.6799,142.4902],[-64.2952,-12.678,133.8787],[-64.2933,-12.682,141.9314],[-64.2908,-12.6822,141.2513],[-64.285,-12.676,138.0616],[-64.2847,-12.6738,132.5928],[-64.2897,-12.6668,133.4987],[-64.2989,-12.6652,133.1712],[-64.299,-12.6592,144.5865],[-64.3057,-12.6574,136.5602],[-64.3081,-12.6539,136.4177],[-64.3065,-12.6519,138.6897],[-64.301,-12.6531,146.0683],[-64.2971,-12.6505,137.2594],[-64.2973,-12.6466,136.8948],[-64.2998,-12.6446,139.0535],[-64.3054,-12.6471,135.8458],[-64.308,-12.6456,133.3992],[-64.3115,-12.6494,132.7023],[-64.3117,-12.6544,140.2359],[-64.3158,-12.6564,137.3223],[-64.3166,-12.661,134.3128],[-64.3196,-12.662,131.8703],[-64.3207,-12.6648,142.9787],[-64.3235,-12.6649,141.0297],[-64.3279,-12.6683,141.6016],[-64.3295,-12.6676,132.2604],[-64.3295,-12.665,133.004],[-64.3263,-12.6604,138.9405],[-64.33,-12.6573,133.5303],[-64.3297,-12.6549,134.9709],[-64.3265,-12.6528,136.012],[-64.3235,-12.6541,134.2053],[-64.3197,-12.6534,142.1653],[-64.3169,-12.6486,135.2053],[-64.3211,-12.6475,135.5992],[-64.325,-12.6433,135.6436],[-64.3318,-12.6457,134.3816],[-64.3345,-12.6483,136.053],[-64.3352,-12.6415,132.14],[-64.3265,-12.634,133.0815],[-64.324,-12.6269,139.8678],[-64.32,-12.6255,133.7407],[-64.322,-12.6243,135.3546],[-64.3271,-12.6251,141.7091],[-64.3296,-12.6217,136.5556],[-64.3292,-12.6191,133.5244],[-64.3245,-12.6146,140.3427],[-64.3213,-12.6191,134.6415],[-64.3192,-12.619,135.2198],[-64.3153,-12.6151,142.7095],[-64.3155,-12.6111,136.8955],[-64.3206,-12.6047,141.3326],[-64.3282,-12.5997,139.6433],[-64.3306,-12.596,139.6307],[-64.3304,-12.5922,140.7835],[-64.3325,-12.5878,136.8088],[-64.3346,-12.5878,137.429],[-64.3409,-12.5949,143.5778],[-64.3424,-12.5922,141.6314],[-64.3409,-12.5869,133.8915],[-64.3421,-12.584,137.7285],[-64.3461,-12.5835,133.0657],[-64.3451,-12.5896,133.426],[-64.3474,-12.5913,143.5247],[-64.3487,-12.5907,132.876],[-64.3499,-12.584,134.5724],[-64.3558,-12.5845,134.5892],[-64.3505,-12.573,138.273],[-64.3569,-12.5721,137.2754],[-64.3583,-12.5685,131.4148],[-64.3532,-12.5668,135.2158],[-64.3495,-12.5607,133.4866],[-64.3546,-12.5571,134.6303],[-64.3559,-12.5532,138.1879],[-64.3621,-12.5491,141.8365],[-64.3619,-12.5458,138.2081],[-64.364,-12.5434,135.9286],[-64.3699,-12.5397,127.8952],[-64.3681,-12.5431,143.0852],[-64.3697,-12.5444,132.1675],[-64.3777,-12.543,141.8263],[-64.3875,-12.5464,145.6727],[-64.3918,-12.5425,130.3899],[-64.404,-12.5448,140.0927],[-64.4073,-12.549,133.0157],[-64.4084,-12.5538,138.4712],[-64.4017,-12.557,134.4679],[-64.3997,-12.5551,135.4901],[-64.3976,-12.5472,143.2396],[-64.3949,-12.5463,140.7868],[-64.3899,-12.554,141.7989],[-64.3828,-12.5565,135.9645],[-64.3809,-12.5589,132.6916],[-64.3795,-12.5678,144.4277],[-64.3822,-12.5853,134.9159],[-64.3776,-12.5925,131.1445],[-64.3948,-12.6062,132.5142],[-64.4029,-12.6056,134.4289],[-64.4203,-12.6095,133.0248],[-64.4213,-12.6121,131.601],[-64.4163,-12.6215,135.0343],[-64.4113,-12.6221,132.6807],[-64.4045,-12.6256,132.3292],[-64.3954,-12.6268,135.6979],[-64.3945,-12.6295,132.6676],[-64.3961,-12.6414,131.3888],[-64.3991,-12.6489,130.616],[-64.4049,-12.6548,134.6124],[-64.4101,-12.6564,139.5657],[-64.42,-12.656,134.7294],[-64.4335,-12.6594,138.5421],[-64.436,-12.6665,133.2094],[-64.4355,-12.6737,135.5345],[-64.4307,-12.6878,143.4771],[-64.4044,-12.6923,134.7047],[-64.3961,-12.6972,132.1641],[-64.3961,-12.6987,133.6862],[-64.3989,-12.6999,136.5005],[-64.4074,-12.701599999999999,138.2875],[-64.4042,-12.7111,140.4165],[-64.4051,-12.7142,129.185],[-64.4157,-12.7261,141.4134],[-64.4238,-12.7245,141.7376],[-64.431,-12.7207,133.863],[-64.4369,-12.7198,146.1921],[-64.4418,-12.721,131.6393],[-64.4455,-12.7235,131.947],[-64.4458,-12.7445,134.5753],[-64.4467,-12.7459,128.6295],[-64.4571,-12.7469,141.8391],[-64.4613,-12.7496,144.5945],[-64.4632,-12.7515,135.5121],[-64.4665,-12.7636,144.1208],[-64.4725,-12.7574,134.256],[-64.4745,-12.758,143.3261],[-64.4756,-12.7608,139.0663],[-64.4729,-12.7648,131.7953],[-64.4751,-12.7673,135.9089],[-64.4888,-12.7648,147.7805],[-64.4919,-12.7655,142.4937],[-64.4955,-12.7673,137.4759],[-64.4995,-12.774,138.5462],[-64.5177,-12.785,131.3748],[-64.5206,-12.7945,135.2128],[-64.5154,-12.8063,130.75],[-64.5207,-12.8112,134.0279],[-64.5232,-12.8211,134.6328],[-64.527,-12.8283,137.2223],[-64.5281,-12.8358,139.6744],[-64.5202,-12.8468,142.7882],[-64.5171,-12.8676,140.5118],[-64.5188,-12.8714,138.226],[-64.5316,-12.8811,129.4532],[-64.5445,-12.8794,133.3204],[-64.5556,-12.8752,134.6777],[-64.5669,-12.8788,131.5357],[-64.5702,-12.8873,132.7523],[-64.5645,-12.888,141.6994],[-64.5588,-12.884,131.4747],[-64.5569,-12.8858,142.1479],[-64.5569,-12.8898,131.6651],[-64.5587,-12.8917,141.1727],[-64.5874,-12.8978,133.2398],[-64.5946,-12.9055,133.0333],[-64.5946,-12.9093,130.2377],[-64.5921,-12.9144,137.8204],[-64.5874,-12.9184,142.9362],[-64.5919,-12.9234,136.6952],[-64.6069,-12.9289,134.7141],[-64.6103,-12.9273,141.616],[-64.6113,-12.9249,131.569],[-64.6133,-12.9248,134.5213],[-64.6138,-12.9273,130.3751],[-64.6108,-12.9304,131.781],[-64.611,-12.9322,129.137],[-64.6194,-12.9377,129.8718],[-64.6261,-12.9571,131.3039],[-64.6216,-12.9772,130.5622],[-64.6342,-12.982,142.8172],[-64.6388,-12.9882,145.7145],[-64.6445,-12.987,133.534],[-64.6474,-12.9888,133.3454],[-64.6432,-12.9966,142.6866],[-64.6405,-12.9985,139.4633],[-64.6516,-13.0081,142.2703],[-64.6505,-13.0189,134.0395],[-64.6451,-13.0238,138.5639],[-64.642,-13.0295,138.5527],[-64.6466,-13.0315,135.7497],[-64.6496,-13.0377,129.3303],[-64.6486,-13.0394,132.9313],[-64.6405,-13.0417,138.2701],[-64.6445,-13.0482,129.3998],[-64.6446,-13.0522,131.9859],[-64.6367,-13.0565,133.1098],[-64.6333,-13.0613,138.7731],[-64.6363,-13.0629,133.0215],[-64.6432,-13.0604,133.6467],[-64.6452,-13.0638,136.6213],[-64.6452,-13.0672,138.7404],[-64.6362,-13.0714,130.2733],[-64.6388,-13.0767,139.5973],[-64.6376,-13.0953,130.7446],[-64.6424,-13.0961,131.5599],[-64.6443,-13.0919,128.5141],[-64.6495,-13.0991,133.0538],[-64.6603,-13.1023,131.7198],[-64.6581,-13.1264,136.1393],[-64.6613,-13.1283,138.2772],[-64.6659,-13.1255,131.0387],[-64.6702,-13.126,131.2392],[-64.6724,-13.1295,132.4328],[-64.6721,-13.1335,139.8543],[-64.6635,-13.1322,130.8633],[-64.6615,-13.1371,138.4397],[-64.663,-13.139,131.0804],[-64.6695,-13.1382,145.4318],[-64.6691,-13.1462,138.8535],[-64.6749,-13.1523,132.4217],[-64.6734,-13.1573,132.5567],[-64.6733,-13.1695,133.4157],[-64.6718,-13.1723,139.1392],[-64.6701,-13.1724,134.4355],[-64.6672,-13.1664,140.2706],[-64.6604,-13.1629,138.5534],[-64.6575,-13.1636,129.7549],[-64.661,-13.1653,131.3976],[-64.6615,-13.1681,139.9333],[-64.6593,-13.1735,135.2748],[-64.6495,-13.1866,133.2564],[-64.6474,-13.1923,132.1602],[-64.6477,-13.194,132.8604],[-64.6494,-13.1941,133.5283],[-64.6617,-13.1879,137.0683],[-64.6656,-13.1936,139.9812],[-64.6651,-13.1977,135.7598],[-64.6606,-13.2057,132.8528],[-64.6521,-13.2044,134.5392],[-64.6446,-13.2059,133.9368],[-64.6438,-13.2073,133.1007],[-64.6502,-13.2153,134.5114],[-64.6466,-13.2196,132.0869],[-64.647,-13.2223,132.8733],[-64.6505,-13.2247,137.5777],[-64.6551,-13.2229,132.5584],[-64.6547,-13.2249,135.6953],[-64.6563,-13.2241,130.2326],[-64.66,-13.2279,131.4728],[-64.6626,-13.2269,131.5483],[-64.665,-13.2303,133.4734],[-64.6631,-13.2334,139.4227],[-64.661,-13.2322,130.7479],[-64.661,-13.2338,133.8904],[-64.6599,-13.2335,133.8904],[-64.6594,-13.2367,136.7168],[-64.6551,-13.2378,132.743],[-64.6545,-13.2424,135.9439],[-64.6558,-13.2414,132.7204],[-64.6576,-13.2429,131.923],[-64.6581,-13.2412,139.4866],[-64.6594,-13.2444,133.9132],[-64.6615,-13.2439,133.1479],[-64.6636,-13.2458,136.6193],[-64.6642,-13.2437,134.995],[-64.6651,-13.2453,136.6193],[-64.6676,-13.2441,134.2427],[-64.6663,-13.2426,134.884],[-64.6688,-13.2399,135.6768],[-64.6726,-13.2433,136.8211],[-64.6706,-13.2459,132.7044],[-64.6728,-13.2502,136.5688],[-64.6754,-13.2516,134.6628],[-64.673,-13.2526,134.5388],[-64.6743,-13.255,136.8101],[-64.6707,-13.2579,134.0733],[-64.6696,-13.256,136.124],[-64.6677,-13.2564,139.7744],[-64.668,-13.2543,137.03],[-64.6665,-13.2551,142.5492],[-64.6651,-13.254,138.1698],[-64.6665,-13.2519,139.4854],[-64.664,-13.2499,137.4285],[-64.6604,-13.2523,140.066],[-64.6589,-13.2562,136.8917],[-64.6586,-13.2601,139.3492],[-64.6664,-13.2725,139.2487],[-64.6682,-13.2794,137.5595],[-64.6716,-13.283,139.3831],[-64.6745,-13.2819,138.797],[-64.6742,-13.2836,134.6187],[-64.6753,-13.2825,138.797],[-64.6761,-13.2844,138.1422],[-64.6769,-13.282,139.153],[-64.6782,-13.2839,139.4671],[-64.6785,-13.2816,137.5646],[-64.6797,-13.2837,139.4671],[-64.6806,-13.2815,138.0177],[-64.6846,-13.2819,137.6558],[-64.6828,-13.2798,139.5514],[-64.6858,-13.28,137.6158],[-64.6857,-13.2776,138.9951],[-64.6835,-13.2783,143.9087],[-64.6826,-13.277,138.4774],[-64.6846,-13.274,137.4189],[-64.6861,-13.2755,142.0291],[-64.6868,-13.2741,139.7437],[-64.6888,-13.2752,145.481],[-64.6897,-13.2733,140.0521],[-64.6913,-13.2746,144.3065],[-64.6923,-13.2732,140.3166],[-64.6961,-13.276,143.0093],[-64.6956,-13.2735,137.7706],[-64.6975,-13.2745,139.7326],[-64.6994,-13.2729,139.6858],[-64.7009,-13.2758,141.4854],[-64.6989,-13.2777,142.1015],[-64.6991,-13.2799,142.9811],[-64.6973,-13.28,142.4209],[-64.6979,-13.2821,143.4404],[-64.6948,-13.2824,141.1231],[-64.6931,-13.2862,142.0995],[-64.6906,-13.2852,137.8855],[-64.6892,-13.2868,140.7675],[-64.6913,-13.2867,141.0583],[-64.6932,-13.291,140.381],[-64.695,-13.2901,141.8286],[-64.6948,-13.2921,139.5859],[-64.6971,-13.2911,144.6874],[-64.6969,-13.2936,138.6702],[-64.6996,-13.2928,139.5544],[-64.7006,-13.304,137.7786],[-64.7029,-13.3021,139.3644],[-64.7046,-13.3045,141.0019],[-64.7064,-13.3012,141.6005],[-64.7091,-13.3022,143.1251],[-64.7097,-13.2997,141.0757],[-64.7135,-13.2994,144.2212],[-64.7144,-13.3014,144.7396],[-64.7092,-13.3078,141.6806],[-64.7146,-13.3096,142.7349],[-64.7236,-13.31,144.9649],[-64.7226,-13.3162,138.5195],[-64.7244,-13.3175,140.7013],[-64.7354,-13.3156,140.615],[-64.7385,-13.3129,141.7657],[-64.7391,-13.3095,141.7105],[-64.7427,-13.3088,138.3724],[-64.7504,-13.3207,142.9247],[-64.7517,-13.3152,139.5611],[-64.7539,-13.3146,144.7641],[-64.7637,-13.326599999999999,136.6704],[-64.7626,-13.3278,136.6704],[-64.7635,-13.329,138.5205],[-64.7682,-13.3255,141.0901],[-64.7679,-13.3208,138.5725],[-64.7711,-13.3176,140.3945],[-64.7727,-13.3222,138.4989],[-64.7795,-13.3264,139.509],[-64.7797,-13.3299,140.5066],[-64.7749,-13.334,142.2728],[-64.7677,-13.3333,140.4796],[-64.7641,-13.3359,142.6987],[-64.7701,-13.346,140.1179],[-64.7732,-13.3414,139.298],[-64.7782,-13.3414,139.6222],[-64.7786,-13.343,142.4872],[-64.7754,-13.3436,141.9563],[-64.7737,-13.346,142.1891],[-64.7751,-13.3488,141.2504],[-64.7807,-13.3492,140.5569],[-64.7845,-13.3527,136.1206],[-64.8042,-13.3523,137.25],[-64.8047,-13.3498,138.26],[-64.8011,-13.3448,142.1786],[-64.7981,-13.343,140.7067],[-64.7951,-13.3433,141.2693],[-64.7916,-13.3376,143.2773],[-64.7926,-13.3355,143.1525],[-64.791,-13.3351,142.8425],[-64.7909,-13.3333,141.4696],[-64.7981,-13.3327,140.1317],[-64.8001,-13.3331,140.688],[-64.8031,-13.3402,143.3046],[-64.8085,-13.345,139.4995],[-64.8088,-13.3515,141.4442],[-64.8106,-13.3533,137.6274],[-64.8273,-13.3588,138.447],[-64.8371,-13.3597,138.8589],[-64.8429,-13.3573,138.6769],[-64.8459,-13.3661,136.7088],[-64.8453,-13.3706,136.4754],[-64.8393,-13.3719,138.8932],[-64.8326,-13.3786,137.3973],[-64.8317,-13.3816,141.5405],[-64.8342,-13.3819,138.4384],[-64.8343,-13.3844,137.5166],[-64.8357,-13.3848,137.6077],[-64.8392,-13.3815,139.6228],[-64.8398,-13.3755,137.9339],[-64.8413,-13.3748,138.6113],[-64.8455,-13.3796,138.0067],[-64.8509,-13.3908,136.8543],[-64.8648,-13.3995,138.875],[-64.8666,-13.3987,141.5698],[-64.8684,-13.4013,140.093],[-64.8744,-13.4035,137.7069],[-64.8764,-13.4059,137.1168],[-64.8773,-13.4097,137.6048],[-64.8742,-13.4128,139.3371],[-64.8661,-13.4138,140.4541],[-64.8645,-13.4154,139.5203],[-64.8694,-13.4228,136.711],[-64.8685,-13.4258,136.8755],[-64.8657,-13.4278,139.1699],[-64.8634,-13.4361,137.0524],[-64.8645,-13.4388,139.2391],[-64.8689,-13.4395,136.8041],[-64.866,-13.4424,139.9682],[-64.8679,-13.4451,138.075],[-64.8704,-13.4617,138.1165],[-64.876,-13.4663,137.9798],[-64.8777,-13.4657,136.9441],[-64.8767,-13.4635,138.8873],[-64.8791,-13.4584,138.3433],[-64.878,-13.4549,138.6499],[-64.8754,-13.4535,138.7792],[-64.8768,-13.452,140.2911],[-64.9035,-13.4662,139.9561],[-64.9066,-13.4703,139.3926],[-64.8983,-13.4746,140.4673],[-64.8888,-13.4767,138.5454],[-64.884,-13.48,138.5715],[-64.8827,-13.4829,138.3141],[-64.8959,-13.4883,141.2935],[-64.8937,-13.4948,137.0604],[-64.8951,-13.4956,138.1813],[-64.8947,-13.4996,138.0891],[-64.8969,-13.5018,137.4203],[-64.9096,-13.5036,139.5142],[-64.9118,-13.5011,137.7988],[-64.9179,-13.5004,139.4501],[-64.9264,-13.5064,138.9425],[-64.9282,-13.5101,141.3047],[-64.9255,-13.5137,139.5186],[-64.9179,-13.5115,139.9871],[-64.9154,-13.5143,139.3027],[-64.9157,-13.5181,139.7297],[-64.9288,-13.5219,140.9572],[-64.9298,-13.5274,137.9708],[-64.9272,-13.5334,138.6247],[-64.9239,-13.5359,139.2991],[-64.9242,-13.5385,139.0778],[-64.9189,-13.5368,139.0805],[-64.9153,-13.538,143.0236],[-64.9208,-13.5484,140.7906],[-64.9214,-13.5576,139.9786],[-64.9136,-13.5739,141.2035],[-64.9273,-13.5759,143.8451],[-64.9284,-13.5774,140.9058],[-64.9271,-13.5797,140.1078],[-64.9221,-13.581,143.9747],[-64.9161,-13.5852,138.9381],[-64.9204,-13.5912,138.8208],[-64.9297,-13.5899,139.1576],[-64.9331,-13.5965,142.7854],[-64.938,-13.5918,138.8203],[-64.9406,-13.5966,142.6773],[-64.9469,-13.5955,138.9785],[-64.9498,-13.5976,139.9628],[-64.9502,-13.6025,139.6363],[-64.9532,-13.6065,141.2787],[-64.9603,-13.6076,139.4722],[-64.9707,-13.6049,141.8184],[-64.9771,-13.6059,141.1649],[-64.9822,-13.6048,140.4277],[-64.9857,-13.61,143.8094],[-64.9871,-13.6206,142.6634],[-64.9837,-13.6212,141.7079],[-64.9807,-13.6195,140.8469],[-64.9779,-13.6209,139.239],[-64.9768,-13.6248,140.8828],[-64.979,-13.6309,142.0756],[-64.9777,-13.6341,141.2984],[-64.9764,-13.6344,141.2984],[-64.9742,-13.6303,140.5243],[-64.9716,-13.6302,140.663],[-64.9666,-13.6368,140.1569],[-64.9631,-13.639,139.4847],[-64.9653,-13.6482,143.2178],[-64.9584,-13.6488,139.7707],[-64.9584,-13.6529,141.4809],[-64.9632,-13.6573,140.6999],[-64.9679,-13.6584,143.5086],[-64.9665,-13.6616,140.8483],[-64.9728,-13.6668,141.0836],[-64.9705,-13.6709,141.6617],[-64.9652,-13.6726,140.6226],[-64.958,-13.672,144.0241],[-64.9553,-13.674,143.6055],[-64.9638,-13.6865,144.095],[-64.963,-13.6874,144.095],[-64.9567,-13.6838,144.4063],[-64.9552,-13.6849,141.9162],[-64.9545,-13.6927,143.1225],[-64.9567,-13.6992,143.3948],[-64.9643,-13.7086,141.8496],[-64.966,-13.7078,143.7327],[-64.966,-13.7049,144.231],[-64.9732,-13.7057,142.7473],[-64.9873,-13.7149,147.2386],[-64.9956,-13.7108,141.9633],[-65.0077,-13.7114,141.3904],[-65.0163,-13.714,144.3076],[-65.024,-13.7193,146.0285],[-65.023,-13.7274,145.5488],[-65.0244,-13.7356,142.5834],[-65.0312,-13.7472,142.6605],[-65.0318,-13.7517,143.6538],[-65.0268,-13.7491,142.7379],[-65.0184,-13.7504,146.444],[-65.0169,-13.752,144.2489],[-65.0247,-13.753,146.3706],[-65.0298,-13.7559,142.6213],[-65.0297,-13.758,142.5482],[-65.0242,-13.765,141.9786],[-65.0215,-13.7748,142.3491],[-65.0241,-13.7786,143.0859],[-65.0302,-13.7827,145.0043],[-65.0271,-13.787,141.4556],[-65.0241,-13.7878,142.6671],[-65.0244,-13.7896,146.0918],[-65.0317,-13.7932,142.6477],[-65.0356,-13.7975,143.3164],[-65.0262,-13.8015,144.2768],[-65.0258,-13.8086,145.0736],[-65.0324,-13.8185,146.9017],[-65.0369,-13.8312,143.0124],[-65.0407,-13.8369,147.4925],[-65.0391,-13.8382,144.1155],[-65.0325,-13.8376,143.8019],[-65.0319,-13.8452,144.6949],[-65.0451,-13.8428,143.7222],[-65.0475,-13.8451,149.7903],[-65.0409,-13.8501,147.9878],[-65.0426,-13.8568,145.0629],[-65.0471,-13.8628,149.0031],[-65.0455,-13.8675,143.7799],[-65.0404,-13.8691,145.0919],[-65.0399,-13.8833,145.9851],[-65.0423,-13.889099999999999,145.412],[-65.0448,-13.891,147.8707],[-65.0433,-13.8952,145.9929],[-65.0375,-13.9001,147.5795],[-65.0314,-13.9003,146.3978],[-65.032,-13.9044,150.6791],[-65.0286,-13.9093,146.3719],[-65.0301,-13.9107,148.2296],[-65.0343,-13.91,146.981],[-65.0379,-13.9113,147.023],[-65.0448,-13.92,148.2081],[-65.0519,-13.9254,146.683],[-65.0616,-13.9275,144.5803],[-65.0601,-13.9323,145.2709],[-65.0528,-13.9381,143.8902],[-65.0512,-13.9453,145.5824],[-65.0556,-13.9485,147.2332],[-65.0607,-13.9494,146.6101],[-65.0605,-13.9539,146.7448],[-65.0632,-13.9576,144.8968],[-65.0702,-13.961,146.7673],[-65.07,-13.9652,146.3877],[-65.064,-13.9651,144.1901],[-65.065,-13.9698,143.1906],[-65.0758,-13.9739,146.0731],[-65.1138,-13.9788,141.9768],[-65.1126,-13.983,142.682],[-65.1143,-13.995,139.5872],[-65.1133,-13.9997,140.1946],[-65.1059,-14.0124,134.5],[-65.1054,-14.0167,134.5],[-65.082,-14.0167,147.9194],[-64.383,-14.1436,147.9179]]]]}
,"properties": {"GID_3": "BOL.3.4.3_2","GID_0": "BOL","country": "Bolivia","GID_1": "BOL.3_1","province": "Beni","NL_NAME_1": "NA","GID_2": "BOL.3.4_2","county": "Mamoré","NL_NAME_2": "NA","city": "SanRamón","VARNAME_3": "NA","NL_NAME_3": "NA","TYPE_3": "District","ENGTYPE_3": "Distrito","CC_3": "NA","HASC_3": "NA","name": "San_Ramón.city","area_km2": 8020.948,"hist_schema_id": "Elevation0-9000","hist_area_km2": {"125": 2313.64,"150": 5679.797,"175": 27.511}}}