{"type": "Feature","bbox": [-64.8424,-17.6318,-63.838,-15.802],"geometry": {"type": "MultiPolygon","coordinates": [[[[-64.8307,-16.754,192.3967],[-64.8297,-16.7608,186.5],[-64.8357,-16.7731,189.234],[-64.8322,-16.7757,188.5431],[-64.8285,-16.7748,187.5975],[-64.8185,-16.767,196.2905],[-64.8074,-16.7625,185.0],[-64.7988,-16.7632,186.1783],[-64.7946,-16.7663,185.0],[-64.7953,-16.7726,188.4256],[-64.7996,-16.7746,189.7172],[-64.8036,-16.7734,196.7276],[-64.8103,-16.7675,191.2191],[-64.8144,-16.7677,190.4912],[-64.8166,-16.7715,190.5421],[-64.8154,-16.7759,192.5676],[-64.8086,-16.7801,189.2333],[-64.8045,-16.7852,187.0],[-64.8041,-16.792,188.1595],[-64.8017,-16.797,187.381],[-64.7977,-16.798,191.3645],[-64.7886,-16.796,187.7209],[-64.7814,-16.8003,187.6569],[-64.7789,-16.805,192.9412],[-64.7805,-16.8127,187.5],[-64.7902,-16.8185,193.9949],[-64.7926,-16.8242,187.5],[-64.7894,-16.8447,188.4062],[-64.7778,-16.8531,192.7464],[-64.7693,-16.8615,188.3637],[-64.7669,-16.8608,193.614],[-64.7633,-16.8548,202.84],[-64.759,-16.8522,188.0],[-64.7537,-16.8531,194.4288],[-64.7451,-16.8516,201.6463],[-64.7396,-16.8551,195.6868],[-64.7419,-16.861,200.4232],[-64.7661,-16.8663,212.313],[-64.7691,-16.8679,188.0],[-64.7704,-16.8731,196.7031],[-64.7651,-16.8774,190.7177],[-64.7606,-16.8772,188.5],[-64.7548,-16.8745,191.9988],[-64.7447,-16.8661,188.5],[-64.7418,-16.8656,192.4908],[-64.737,-16.8681,191.14],[-64.7364,-16.8715,190.7372],[-64.7385,-16.8777,192.3125],[-64.7476,-16.8831,200.5878],[-64.7583,-16.8862,198.9855],[-64.7608,-16.8907,189.7734],[-64.7568,-16.8968,196.2146],[-64.7515,-16.8979,195.8224],[-64.7438,-16.8942,193.1939],[-64.7405,-16.8865,196.5746],[-64.7346,-16.8861,194.3844],[-64.7322,-16.8881,196.0887],[-64.7288,-16.8934,200.1652],[-64.7281,-16.8994,194.1413],[-64.7326,-16.9024,190.1809],[-64.7382,-16.9022,191.8534],[-64.7443,-16.9045,193.7133],[-64.7502,-16.9119,190.41],[-64.75,-16.9174,189.0],[-64.7484,-16.919,190.1001],[-64.7421,-16.9195,204.2739],[-64.7355,-16.9138,190.9052],[-64.7319,-16.9146,202.4889],[-64.7217,-16.9209,197.4119],[-64.7203,-16.9264,192.1862],[-64.7233,-16.9299,190.2923],[-64.7264,-16.9295,199.8558],[-64.7318,-16.9237,200.3792],[-64.7364,-16.9234,199.0352],[-64.7394,-16.9278,211.8693],[-64.7349,-16.9322,189.5],[-64.7348,-16.938,191.148],[-64.7394,-16.941,195.9226],[-64.7467,-16.9397,192.9165],[-64.7467,-16.9423,194.8442],[-64.7394,-16.9464,198.9726],[-64.7356,-16.952,191.9318],[-64.7294,-16.9544,196.4578],[-64.7232,-16.9517,190.0],[-64.7159,-16.9424,191.9996],[-64.7133,-16.9419,195.9575],[-64.7102,-16.9438,191.8147],[-64.7087,-16.946,197.0422],[-64.7093,-16.9531,197.9688],[-64.7172,-16.9592,194.6213],[-64.7188,-16.9624,195.6835],[-64.7172,-16.9674,193.4427],[-64.712,-16.9714,193.3888],[-64.7094,-16.9721,196.5675],[-64.7048,-16.9702,198.7931],[-64.704,-16.9673,198.9526],[-64.7074,-16.9564,196.2728],[-64.7039,-16.9525,190.5],[-64.6981,-16.9538,193.5161],[-64.6907,-16.9606,193.1033],[-64.6745,-16.9707,195.3119],[-64.6733,-16.9765,191.0],[-64.6769,-16.9792,196.9107],[-64.6804,-16.9772,195.1017],[-64.6835,-16.9703,191.5],[-64.6856,-16.9689,193.5202],[-64.6897,-16.9695,195.0474],[-64.6927,-16.98,199.9872],[-64.6979,-16.9834,200.4012],[-64.7079,-16.9863,204.9247],[-64.7099,-16.9912,192.0744],[-64.7074,-17.0016,194.5337],[-64.7046,-17.003,198.0766],[-64.7007,-17.0024,197.083],[-64.6954,-16.9986,199.8044],[-64.6951,-16.996,199.8634],[-64.6981,-16.9912,199.3075],[-64.6982,-16.9879,200.384],[-64.6963,-16.9855,202.2307],[-64.6906,-16.9836,191.5],[-64.682,-16.9855,195.733],[-64.6736,-16.9912,199.5871],[-64.672,-16.9969,202.4336],[-64.6753,-17.0001,192.0],[-64.6779,-17.0001,196.2395],[-64.6854,-16.9954,199.4457],[-64.69,-16.9965,203.9805],[-64.6914,-17.0004,193.1502],[-64.6897,-17.0086,194.4486],[-64.6911,-17.0145,197.7121],[-64.6875,-17.0192,196.4235],[-64.6803,-17.0182,195.9831],[-64.6728,-17.0129,194.4845],[-64.6641,-17.0158,205.0025],[-64.6625,-17.0126,195.55],[-64.6661,-17.0067,201.9112],[-64.6645,-17.0028,203.4977],[-64.662,-17.0019,203.9343],[-64.6592,-17.0021,207.6675],[-64.6511,-17.0085,196.7552],[-64.6443,-17.0081,200.4016],[-64.6376,-17.0051,196.3047],[-64.629,-17.0049,208.1712],[-64.6267,-17.0084,208.1864],[-64.6284,-17.0125,195.5967],[-64.6385,-17.0169,204.3027],[-64.6401,-17.0196,204.2079],[-64.6411,-17.035,196.8686],[-64.6368,-17.0386,203.7982],[-64.6312,-17.0388,198.1042],[-64.6257,-17.0358,201.0496],[-64.6246,-17.0316,204.3458],[-64.6276,-17.028,206.9688],[-64.6289,-17.0228,211.1435],[-64.6259,-17.0179,207.1722],[-64.6195,-17.0145,197.2374],[-64.6175,-17.0152,204.4794],[-64.6159,-17.019,203.7204],[-64.6206,-17.0282,204.4935],[-64.6198,-17.0335,203.2971],[-64.6176,-17.0353,204.7937],[-64.6129,-17.0349,204.2525],[-64.6099,-17.028,211.1495],[-64.604,-17.0258,202.5693],[-64.5938,-17.0308,200.5891],[-64.5872,-17.0363,202.2505],[-64.5881,-17.0415,202.0263],[-64.5898,-17.0423,204.7243],[-64.5926,-17.0422,201.3057],[-64.5988,-17.0376,209.996],[-64.6058,-17.0352,206.028],[-64.6085,-17.035,206.6538],[-64.6116,-17.0378,207.5953],[-64.611,-17.0424,206.5466],[-64.5988,-17.0467,198.9276],[-64.5927,-17.0538,206.6043],[-64.5878,-17.0539,199.566],[-64.5863,-17.0524,199.0416],[-64.5847,-17.0441,200.3075],[-64.5769,-17.0348,221.799],[-64.5723,-17.0324,197.0],[-64.5664,-17.0339,199.4819],[-64.5647,-17.0357,203.4069],[-64.5644,-17.0402,207.8874],[-64.5728,-17.0487,210.7682],[-64.5806,-17.0534,213.2409],[-64.5809,-17.0561,213.83],[-64.5775,-17.0602,198.0],[-64.5684,-17.0579,200.567],[-64.5658,-17.0587,200.4765],[-64.5601,-17.0657,205.4659],[-64.5533,-17.0702,208.0106],[-64.5491,-17.0678,204.9511],[-64.5499,-17.0583,214.8833],[-64.5469,-17.0553,201.8562],[-64.5442,-17.0548,203.8862],[-64.5352,-17.0574,201.5],[-64.5217,-17.0563,210.1584],[-64.5166,-17.0582,212.5285],[-64.5155,-17.0625,213.1636],[-64.5171,-17.0643,203.3357],[-64.5279,-17.0641,221.7194],[-64.5344,-17.0721,202.0],[-64.5431,-17.0742,206.9251],[-64.5456,-17.0766,215.5851],[-64.5494,-17.0853,212.8387],[-64.549,-17.0887,204.3366],[-64.5363,-17.0893,210.2964],[-64.5191,-17.099,204.5],[-64.508,-17.0906,212.9335],[-64.5042,-17.0897,213.44],[-64.5003,-17.0909,225.2127],[-64.4979,-17.1029,206.4428],[-64.4807,-17.114,209.1516],[-64.477,-17.1181,212.9566],[-64.4782,-17.123,209.6304],[-64.4882,-17.1268,213.4546],[-64.4893,-17.129,208.2407],[-64.4884,-17.1342,217.9752],[-64.482,-17.1374,213.5685],[-64.4767,-17.1383,207.625],[-64.4695,-17.1336,208.0],[-64.4642,-17.1327,215.2647],[-64.4604,-17.1349,210.8605],[-64.4574,-17.1405,215.4182],[-64.4512,-17.1419,213.7656],[-64.4479,-17.1402,210.5],[-64.4402,-17.1307,211.5],[-64.4331,-17.131,212.0],[-64.4303,-17.1375,212.5],[-64.4358,-17.1513,212.5],[-64.4346,-17.1569,214.7099],[-64.4326,-17.1585,222.8161],[-64.4284,-17.1594,216.1891],[-64.426,-17.158,216.6197],[-64.4246,-17.1522,214.8832],[-64.425,-17.1433,213.0],[-64.4226,-17.1406,215.3791],[-64.4195,-17.1409,213.5],[-64.4138,-17.1503,220.2805],[-64.4107,-17.1514,226.2019],[-64.4068,-17.1489,214.0],[-64.4023,-17.14,219.4333],[-64.3985,-17.1387,219.9779],[-64.3946,-17.1407,222.4363],[-64.3909,-17.1449,218.9368],[-64.3916,-17.1491,221.2365],[-64.4046,-17.1503,222.4243],[-64.4073,-17.1517,216.577],[-64.4103,-17.1563,228.4957],[-64.4094,-17.1607,223.57],[-64.4049,-17.163,220.7931],[-64.4007,-17.1606,219.7586],[-64.3948,-17.1535,218.9452],[-64.3877,-17.1559,231.2246],[-64.387,-17.1653,215.5],[-64.3988,-17.1691,219.1825],[-64.4001,-17.1727,224.8622],[-64.3984,-17.1765,218.6371],[-64.3851,-17.1744,216.9239],[-64.3753,-17.1895,224.3565],[-64.3643,-17.1841,223.4961],[-64.3593,-17.1847,218.5],[-64.3573,-17.1871,218.5],[-64.3564,-17.1925,219.8132],[-64.3588,-17.198,228.4921],[-64.3728,-17.1971,230.8365],[-64.3749,-17.1998,231.5657],[-64.375,-17.2016,230.0196],[-64.3683,-17.2088,227.6822],[-64.3661,-17.2156,231.1835],[-64.3714,-17.2265,234.7758],[-64.3712,-17.2299,229.6523],[-64.3564,-17.2311,228.5281],[-64.3532,-17.2299,228.9713],[-64.355,-17.2207,232.9105],[-64.3529,-17.214,231.7057],[-64.3362,-17.208,224.5743],[-64.3329,-17.2142,223.5],[-64.3369,-17.2245,225.3052],[-64.3361,-17.2318,230.8268],[-64.3325,-17.2343,228.8074],[-64.3232,-17.2368,229.7832],[-64.3211,-17.2408,230.6211],[-64.3253,-17.2445,225.0],[-64.3338,-17.2432,231.7539],[-64.3388,-17.2464,228.0567],[-64.3404,-17.2599,232.0491],[-64.3391,-17.265,231.9598],[-64.3304,-17.2622,229.5912],[-64.3172,-17.2641,231.0387],[-64.3125,-17.2678,233.4429],[-64.3115,-17.2744,232.2816],[-64.3045,-17.2779,232.2591],[-64.3013,-17.2765,235.2686],[-64.3016,-17.2722,230.5],[-64.3113,-17.2649,233.5818],[-64.3122,-17.2619,233.7366],[-64.3105,-17.2587,233.022],[-64.3056,-17.2574,236.7297],[-64.2955,-17.2633,229.5963],[-64.2838,-17.2647,236.5731],[-64.2822,-17.2685,231.3165],[-64.2849,-17.2758,236.7487],[-64.2844,-17.281,237.5395],[-64.2813,-17.2844,237.561],[-64.2749,-17.2851,231.4882],[-64.2787,-17.2908,238.1665],[-64.2745,-17.2911,237.0634],[-64.2709,-17.2944,242.3825],[-64.2669,-17.2924,242.3572],[-64.2652,-17.2939,239.7508],[-64.2661,-17.2974,249.7886],[-64.2646,-17.2995,251.899],[-64.2617,-17.2994,247.7042],[-64.2608,-17.2967,248.345],[-64.2582,-17.296,244.6136],[-64.2466,-17.3027,259.0143],[-64.2461,-17.3048,254.2179],[-64.2485,-17.307,257.1989],[-64.246,-17.3103,254.614],[-64.2453,-17.3178,266.5922],[-64.239,-17.3184,254.0089],[-64.2415,-17.3221,256.9074],[-64.2412,-17.3257,262.0132],[-64.2451,-17.3311,263.1207],[-64.2415,-17.3357,265.3705],[-64.2409,-17.3432,271.2763],[-64.2366,-17.3499,278.5106],[-64.2391,-17.3606,287.6442],[-64.2366,-17.3624,286.1158],[-64.2378,-17.3669,282.2754],[-64.2341,-17.3737,281.2933],[-64.2427,-17.3992,292.7249],[-64.2538,-17.4031,324.3688],[-64.2537,-17.4055,334.6375],[-64.2489,-17.4121,312.8168],[-64.2529,-17.4126,340.7284],[-64.2537,-17.4164,468.0161],[-64.2582,-17.4177,409.1413],[-64.254,-17.4231,356.6138],[-64.2495,-17.4355,328.4239],[-64.2521,-17.4461,333.7814],[-64.258,-17.4526,348.9139],[-64.2572,-17.456,335.5493],[-64.247,-17.4561,411.5244],[-64.2443,-17.4589,347.9979],[-64.2489,-17.4708,390.995],[-64.2493,-17.4761,385.7708],[-64.2454,-17.4812,366.5293],[-64.241,-17.4928,378.9813],[-64.2344,-17.4943,395.6174],[-64.2336,-17.4965,393.4175],[-64.2269,-17.5008,426.1583],[-64.2222,-17.5095,405.6574],[-64.2123,-17.5138,475.2192],[-64.2085,-17.517,457.3908],[-64.2061,-17.5231,434.5937],[-64.2019,-17.521,468.3284],[-64.1965,-17.5267,467.9908],[-64.1928,-17.5252,441.1769],[-64.1866,-17.5261,467.2289],[-64.1852,-17.5301,459.8771],[-64.18,-17.5306,459.944],[-64.1769,-17.5283,452.146],[-64.173,-17.5281,459.4284],[-64.1709,-17.5316,472.784],[-64.1608,-17.5352,482.8367],[-64.1586,-17.5376,498.1711],[-64.1524,-17.538,518.8345],[-64.1451,-17.5432,525.5926],[-64.1397,-17.5432,505.7993],[-64.1347,-17.547,548.108],[-64.1246,-17.5478,554.7375],[-64.1184,-17.5525,553.9162],[-64.1172,-17.5587,528.6248],[-64.1218,-17.5632,547.6987],[-64.116,-17.567,585.4604],[-64.1153,-17.5757,647.8724],[-64.1199,-17.577,576.0229],[-64.1184,-17.5793,583.6501],[-64.1204,-17.5814,603.8873],[-64.1202,-17.5861,654.8152],[-64.1225,-17.5898,587.9556],[-64.1219,-17.5971,607.6844],[-64.1232,-17.5994,609.7358],[-64.1213,-17.6003,624.6193],[-64.12,-17.6088,647.7084],[-64.1141,-17.6102,736.0226],[-64.0999,-17.6222,1003.2385],[-64.0926,-17.6247,1228.7295],[-64.0896,-17.6272,1288.1572],[-64.0854,-17.6275,1190.7413],[-64.0818,-17.6306,1134.1128],[-64.0747,-17.6309,933.1242],[-64.0663,-17.6288,819.3825],[-64.0629,-17.6303,758.6341],[-64.0566,-17.63,719.8838],[-64.0536,-17.6285,750.584],[-64.0515,-17.624,671.3999],[-64.0488,-17.623,660.158],[-64.0484,-17.6244,660.158],[-64.046,-17.6242,666.4993],[-64.0445,-17.6297,631.6381],[-64.039,-17.6297,634.8973],[-64.0332,-17.6264,611.3337],[-64.024,-17.6292,586.1551],[-64.0237,-17.6311,574.4525],[-64.0213,-17.6318,547.2645],[-64.0123,-17.6267,557.8986],[-64.0146,-17.6238,546.3136],[-64.0202,-17.6227,539.2455],[-64.0209,-17.6187,502.2675],[-64.0196,-17.612,501.2687],[-64.0152,-17.6045,479.7271],[-64.0152,-17.5974,473.735],[-64.0133,-17.5933,474.7345],[-64.0042,-17.5867,461.1869],[-63.9947,-17.5765,440.062],[-63.9812,-17.5761,430.9269],[-63.975,-17.5784,449.8172],[-63.9695,-17.5897,410.2223],[-63.9588,-17.595,404.4532],[-63.9548,-17.5988,425.2253],[-63.9497,-17.5977,395.2241],[-63.9427,-17.5933,396.2734],[-63.9347,-17.5937,384.2448],[-63.923,-17.5842,368.7128],[-63.922,-17.5794,368.5234],[-63.9189,-17.5754,363.5004],[-63.9188,-17.5682,362.0815],[-63.9129,-17.5681,366.5012],[-63.9112,-17.5631,360.2667],[-63.9067,-17.561,407.7332],[-63.9068,-17.5584,361.6144],[-63.9102,-17.5572,366.4341],[-63.9061,-17.5534,408.6448],[-63.903,-17.5409,344.5553],[-63.9042,-17.5375,344.981],[-63.9089,-17.5336,337.8364],[-63.9086,-17.5312,359.6893],[-63.9062,-17.5239,342.7795],[-63.9005,-17.5172,331.2065],[-63.8864,-17.5086,324.4639],[-63.8837,-17.5086,323.4673],[-63.8784,-17.5101,320.6233],[-63.8688,-17.5173,330.6586],[-63.8669,-17.5208,315.0737],[-63.8605,-17.5228,322.3231],[-63.8569,-17.5217,311.5],[-63.8575,-17.5167,312.2795],[-63.8621,-17.5083,314.3983],[-63.8613,-17.5047,312.3098],[-63.8652,-17.4957,315.1079],[-63.866,-17.4899,302.9987],[-63.869,-17.4871,304.9635],[-63.8703,-17.4812,299.7913],[-63.8522,-17.4491,291.443],[-63.843,-17.4426,282.3543],[-63.838,-17.436,290.88],[-63.8397,-17.4312,284.0436],[-63.849,-17.4205,280.9302],[-63.8485,-17.4167,286.0759],[-63.8435,-17.4086,281.1174],[-63.8442,-17.4047,283.6571],[-63.8476,-17.3993,277.0],[-63.8522,-17.3958,279.7241],[-63.8578,-17.3827,275.0],[-63.8769,-17.3644,274.262],[-63.8805,-17.3561,272.0],[-63.8793,-17.335,271.291],[-63.8765,-17.3294,270.9161],[-63.8678,-17.3214,278.0302],[-63.8682,-17.302,269.0596],[-63.8702,-17.2993,267.196],[-63.8786,-17.2959,271.0177],[-63.8982,-17.2984,265.3968],[-63.9098,-17.2945,267.3033],[-63.9127,-17.2904,267.1903],[-63.9106,-17.2807,266.4715],[-63.9167,-17.2736,262.2109],[-63.9235,-17.2697,267.9933],[-63.9261,-17.2658,265.7518],[-63.9269,-17.2565,266.8528],[-63.9233,-17.2478,259.6699],[-63.9257,-17.2424,267.781],[-63.9322,-17.2341,261.2782],[-63.9404,-17.2328,260.8257],[-63.9451,-17.2244,261.9008],[-63.9434,-17.2184,262.4563],[-63.9326,-17.2014,259.4409],[-63.9332,-17.1945,252.1525],[-63.9311,-17.1762,263.3932],[-63.9614,-17.1843,267.7093],[-63.9747,-17.1786,256.6393],[-63.9783,-17.1735,248.684],[-63.9831,-17.1595,258.1733],[-63.9877,-17.1585,254.7999],[-63.9993,-17.1619,256.0648],[-64.0062,-17.1571,255.8529],[-64.0073,-17.1518,253.0816],[-64.0064,-17.1463,252.1896],[-63.99,-17.1337,253.8531],[-63.9848,-17.1197,246.5833],[-63.9845,-17.1119,247.1967],[-63.9907,-17.0977,244.5751],[-63.9989,-17.0931,240.0],[-64.0241,-17.0858,241.7359],[-64.0277,-17.0837,242.1455],[-64.0285,-17.0813,245.1901],[-64.0263,-17.0782,243.2808],[-64.0241,-17.0624,237.2158],[-64.0182,-17.0548,244.0189],[-64.0124,-17.052,242.8546],[-64.001,-17.0525,244.8943],[-63.9991,-17.0513,243.4272],[-63.9987,-17.0481,240.8959],[-64.0035,-17.0408,235.2147],[-64.0086,-17.0383,231.5],[-64.0173,-17.0381,242.5016],[-64.0312,-17.035,236.3628],[-64.0319,-17.0281,239.5478],[-64.0288,-17.0072,237.2133],[-64.0298,-17.0036,238.8139],[-64.0352,-16.9984,235.3542],[-64.0387,-16.9921,234.6746],[-64.0446,-16.9904,235.4894],[-64.0575,-16.9921,233.8234],[-64.0652,-16.9976,234.9715],[-64.0673,-16.9972,234.0284],[-64.0656,-16.9794,234.384],[-64.0634,-16.9753,231.8001],[-64.0545,-16.969,231.704],[-64.0534,-16.9629,229.1883],[-64.0557,-16.9599,232.5163],[-64.061,-16.9575,235.276],[-64.0639,-16.9631,237.2526],[-64.0665,-16.9576,231.7977],[-64.082,-16.9581,231.4189],[-64.082,-16.9626,234.0419],[-64.0747,-16.9689,231.5469],[-64.0733,-16.9723,233.6919],[-64.0746,-16.9761,230.8668],[-64.0825,-16.983,239.1207],[-64.0856,-16.9808,233.7613],[-64.0865,-16.9754,234.0867],[-64.0885,-16.9727,229.482],[-64.0955,-16.972,233.1064],[-64.1003,-16.9668,229.5918],[-64.0991,-16.9613,232.071],[-64.0896,-16.9532,237.3163],[-64.0809,-16.951,228.5415],[-64.0775,-16.9463,226.5641],[-64.0785,-16.9423,225.8747],[-64.0821,-16.9391,228.593],[-64.0938,-16.9413,230.8694],[-64.0979,-16.9402,232.1646],[-64.1013,-16.9366,229.6219],[-64.1008,-16.9311,227.3151],[-64.0956,-16.9278,223.6723],[-64.0866,-16.9317,227.2553],[-64.0808,-16.9306,228.3647],[-64.0771,-16.9284,225.7775],[-64.0756,-16.9214,225.9939],[-64.078,-16.9174,225.904],[-64.0881,-16.9138,221.273],[-64.0912,-16.9104,229.1142],[-64.0921,-16.9052,222.8136],[-64.0899,-16.8943,227.8691],[-64.092,-16.8912,222.1212],[-64.0986,-16.8877,222.3732],[-64.0894,-16.8816,225.4052],[-64.0886,-16.875,226.7862],[-64.0862,-16.8726,225.9638],[-64.0879,-16.8674,227.5776],[-64.0973,-16.8661,217.5],[-64.1153,-16.8587,222.5602],[-64.1174,-16.8542,219.4991],[-64.1144,-16.8442,221.4357],[-64.1239,-16.8365,222.5549],[-64.122,-16.8335,222.5227],[-64.1103,-16.8335,216.8625],[-64.1053,-16.8374,220.7721],[-64.104,-16.8368,220.7721],[-64.1028,-16.8298,215.9726],[-64.1048,-16.8254,217.684],[-64.1204,-16.8192,216.8373],[-64.1237,-16.8148,221.3853],[-64.1247,-16.81,227.8021],[-64.1229,-16.8069,220.3287],[-64.1179,-16.8051,225.8322],[-64.1127,-16.8065,217.4012],[-64.1066,-16.8036,215.6443],[-64.1053,-16.8,215.3127],[-64.1063,-16.7976,215.6399],[-64.1172,-16.7979,218.5428],[-64.1193,-16.7963,215.1577],[-64.1199,-16.793,219.8648],[-64.1191,-16.7901,215.3103],[-64.1048,-16.7788,214.3663],[-64.1041,-16.7765,216.7804],[-64.1072,-16.7751,216.166],[-64.1192,-16.7794,217.8378],[-64.1242,-16.7765,219.3043],[-64.1243,-16.7716,218.893],[-64.1208,-16.7695,217.5715],[-64.115,-16.7692,210.5733],[-64.1142,-16.7654,210.7966],[-64.1167,-16.7627,212.6057],[-64.1262,-16.7606,212.2662],[-64.1254,-16.7503,212.1016],[-64.1346,-16.7445,226.8554],[-64.1333,-16.7372,216.4227],[-64.1424,-16.7296,217.7887],[-64.1442,-16.7229,215.8696],[-64.1433,-16.7214,215.8696],[-64.1388,-16.7234,215.5434],[-64.1305,-16.7337,215.2529],[-64.1276,-16.7339,212.1146],[-64.1252,-16.7284,218.5334],[-64.131,-16.7226,210.4856],[-64.1311,-16.7202,213.8619],[-64.1246,-16.7124,220.2045],[-64.1234,-16.7032,216.5845],[-64.1274,-16.6963,217.4674],[-64.1271,-16.6938,207.4681],[-64.1219,-16.6934,210.8709],[-64.1198,-16.6992,207.8372],[-64.1181,-16.7004,209.8264],[-64.1166,-16.6979,204.7817],[-64.1178,-16.6916,211.5292],[-64.1168,-16.6892,215.626],[-64.1113,-16.6901,211.0766],[-64.1078,-16.6889,207.3683],[-64.1028,-16.6787,207.996],[-64.0995,-16.679,204.522],[-64.0974,-16.683,207.1472],[-64.0931,-16.6795,207.7326],[-64.0933,-16.6775,203.5007],[-64.0993,-16.6719,209.2194],[-64.1009,-16.6675,202.0],[-64.0991,-16.6644,208.3719],[-64.0932,-16.6636,206.3491],[-64.0925,-16.6598,202.4666],[-64.0964,-16.6486,205.1445],[-64.091,-16.6446,201.5],[-64.0942,-16.6362,203.8103],[-64.0976,-16.6333,203.1949],[-64.0971,-16.6275,220.1924],[-64.1022,-16.62,203.4465],[-64.1051,-16.6201,205.2576],[-64.1087,-16.6252,204.1187],[-64.1105,-16.6241,207.189],[-64.1113,-16.6198,204.1333],[-64.1055,-16.6163,211.6503],[-64.1079,-16.6111,212.2753],[-64.1105,-16.6105,204.8177],[-64.117,-16.6157,205.871],[-64.121,-16.6138,204.1409],[-64.1196,-16.6111,209.352],[-64.1133,-16.6096,207.2443],[-64.1091,-16.604,205.3024],[-64.1095,-16.6027,200.0],[-64.1154,-16.5998,203.0141],[-64.1163,-16.6071,201.8419],[-64.1198,-16.607,202.4411],[-64.1241,-16.5978,208.2691],[-64.1362,-16.5917,203.7972],[-64.136,-16.5896,204.959],[-64.1314,-16.5901,211.3103],[-64.1317,-16.5875,201.2437],[-64.1403,-16.5848,201.5323],[-64.1443,-16.5785,200.7059],[-64.148,-16.5771,208.4335],[-64.1459,-16.5749,201.6275],[-64.139,-16.5728,201.8998],[-64.1478,-16.5648,199.134],[-64.1472,-16.562,199.9237],[-64.144,-16.561,200.7483],[-64.1421,-16.5578,208.3896],[-64.1438,-16.5553,205.0685],[-64.1484,-16.5543,204.6165],[-64.1495,-16.5522,201.2023],[-64.1454,-16.5492,208.8374],[-64.1418,-16.5516,199.7085],[-64.1336,-16.5513,200.6897],[-64.1384,-16.5445,206.8119],[-64.144,-16.5412,198.2229],[-64.1443,-16.5381,199.5293],[-64.1331,-16.5361,205.1584],[-64.1234,-16.5407,200.4066],[-64.1235,-16.537,205.2318],[-64.1282,-16.5323,199.2127],[-64.125,-16.5299,201.2129],[-64.1233,-16.5251,201.1073],[-64.1284,-16.5205,207.3682],[-64.1377,-16.517,197.8843],[-64.1375,-16.5141,197.577],[-64.1326,-16.5099,202.2423],[-64.1326,-16.5069,204.5403],[-64.1358,-16.5046,200.5863],[-64.1415,-16.5059,198.4659],[-64.1419,-16.4978,196.2574],[-64.1479,-16.4952,196.7585],[-64.1487,-16.4898,203.3467],[-64.1523,-16.4887,195.2248],[-64.1565,-16.493,199.4226],[-64.1588,-16.4914,197.5865],[-64.159,-16.4888,201.6326],[-64.1545,-16.4831,195.5224],[-64.1603,-16.4744,199.4769],[-64.1582,-16.4726,196.7548],[-64.1531,-16.4745,196.0909],[-64.157,-16.4684,197.4176],[-64.1563,-16.4646,196.7726],[-64.1577,-16.4598,195.4103],[-64.1524,-16.4508,195.6342],[-64.1521,-16.4476,196.7175],[-64.1537,-16.4467,196.5083],[-64.1558,-16.4488,195.1682],[-64.1565,-16.4545,199.7267],[-64.158,-16.4558,193.0031],[-64.1639,-16.4562,203.3058],[-64.1667,-16.4544,198.105],[-64.1654,-16.452,196.5396],[-64.1605,-16.4512,198.8726],[-64.1584,-16.4491,196.2472],[-64.1621,-16.4435,193.9059],[-64.1612,-16.4393,197.7314],[-64.1521,-16.4427,201.7785],[-64.1494,-16.4467,194.599],[-64.1459,-16.448,205.275],[-64.145,-16.4471,194.4728],[-64.149,-16.4373,194.8261],[-64.1463,-16.4364,193.5752],[-64.1422,-16.4415,198.8899],[-64.1387,-16.4383,208.1365],[-64.1388,-16.4358,204.8927],[-64.1428,-16.4334,195.9593],[-64.1371,-16.4306,197.8668],[-64.1384,-16.4182,194.1814],[-64.1468,-16.4175,198.1542],[-64.1491,-16.4164,191.9138],[-64.1496,-16.414,191.0931],[-64.1477,-16.4114,194.4257],[-64.1402,-16.4111,202.4197],[-64.1449,-16.4049,192.4448],[-64.1456,-16.401,194.7853],[-64.1401,-16.3956,187.5],[-64.142,-16.3934,192.0178],[-64.1478,-16.3928,195.7195],[-64.1461,-16.388,194.2635],[-64.1478,-16.3853,195.2099],[-64.152,-16.3939,197.1993],[-64.1569,-16.3903,195.5403],[-64.1654,-16.394,193.7904],[-64.1626,-16.3856,188.089],[-64.166,-16.3811,190.0289],[-64.1616,-16.377,195.9791],[-64.1616,-16.3754,193.3329],[-64.1698,-16.3745,194.7715],[-64.1696,-16.3674,205.5726],[-64.1775,-16.3717,194.1352],[-64.1837,-16.3669,190.6269],[-64.1846,-16.3629,198.0662],[-64.1903,-16.3592,192.1487],[-64.1879,-16.3541,187.5567],[-64.1897,-16.3479,192.9412],[-64.1858,-16.3433,212.1807],[-64.1838,-16.3363,201.804],[-64.1874,-16.3312,186.6863],[-64.1851,-16.3266,187.1392],[-64.1898,-16.3273,189.0938],[-64.1841,-16.3244,188.1092],[-64.1831,-16.3212,190.6284],[-64.1867,-16.3187,192.104],[-64.1915,-16.319,192.8643],[-64.1961,-16.3073,199.7727],[-64.202,-16.3096,195.0853],[-64.2028,-16.3076,190.7797],[-64.2005,-16.3055,196.2488],[-64.2007,-16.3036,187.8269],[-64.2068,-16.3031,196.8163],[-64.2106,-16.2981,192.8781],[-64.2168,-16.2945,206.0706],[-64.2185,-16.291,201.3355],[-64.2177,-16.2854,187.6679],[-64.2238,-16.2779,189.9611],[-64.2251,-16.2776,189.9611],[-64.2267,-16.281,189.9142],[-64.2291,-16.2811,198.4254],[-64.2279,-16.273,189.7173],[-64.2317,-16.2716,200.3774],[-64.2322,-16.2692,189.7151],[-64.2313,-16.2675,189.2818],[-64.2268,-16.2668,196.2873],[-64.2252,-16.2635,189.3083],[-64.2296,-16.2568,184.8199],[-64.2317,-16.2627,191.1915],[-64.2374,-16.2608,192.0029],[-64.2363,-16.2542,187.7256],[-64.2268,-16.2503,185.624],[-64.2205,-16.2542,190.5537],[-64.2203,-16.2511,198.6021],[-64.2212,-16.2491,189.9461],[-64.2257,-16.2467,193.6156],[-64.2254,-16.2398,191.0455],[-64.2324,-16.2415,192.5325],[-64.2347,-16.2382,184.2784],[-64.2358,-16.2406,189.3138],[-64.239,-16.24,181.0],[-64.2395,-16.235,196.4013],[-64.2344,-16.2338,187.1176],[-64.2438,-16.2289,185.5262],[-64.2441,-16.2272,184.961],[-64.2414,-16.2262,195.1732],[-64.2366,-16.2283,190.7005],[-64.2348,-16.2262,189.4232],[-64.2355,-16.2171,195.0719],[-64.2332,-16.2143,183.273],[-64.2327,-16.2103,182.9002],[-64.2335,-16.2092,197.7313],[-64.2395,-16.2134,192.0864],[-64.2412,-16.2126,185.9053],[-64.2412,-16.2105,184.8391],[-64.2373,-16.2053,190.8458],[-64.2313,-16.2012,189.0908],[-64.2325,-16.1999,185.0872],[-64.2378,-16.2024,180.0],[-64.2404,-16.1999,193.7375],[-64.2383,-16.1952,185.0719],[-64.2331,-16.1951,187.3551],[-64.2328,-16.1935,184.0297],[-64.2358,-16.189,186.3815],[-64.2404,-16.1879,196.6546],[-64.232,-16.1863,185.8682],[-64.2315,-16.1843,188.8013],[-64.2418,-16.1764,197.3777],[-64.2347,-16.1736,183.7353],[-64.2362,-16.1733,185.7331],[-64.2384,-16.1682,192.9312],[-64.2405,-16.1698,193.4171],[-64.2427,-16.1676,194.235],[-64.2448,-16.1701,196.07],[-64.2533,-16.1637,195.2111],[-64.2566,-16.1649,195.2684],[-64.2562,-16.1596,197.8667],[-64.2574,-16.1589,194.0305],[-64.261,-16.16,194.1573],[-64.2638,-16.1657,195.3498],[-64.2669,-16.1647,196.9253],[-64.2683,-16.1627,193.1638],[-64.2655,-16.1607,194.5781],[-64.2654,-16.159,198.335],[-64.2688,-16.154,193.368],[-64.2734,-16.1547,198.1718],[-64.2748,-16.1502,194.191],[-64.281,-16.1456,190.9864],[-64.28,-16.1428,197.392],[-64.2903,-16.137,191.7749],[-64.2893,-16.132,190.5018],[-64.2853,-16.1334,192.1149],[-64.2853,-16.1316,194.9753],[-64.2894,-16.1238,189.645],[-64.2924,-16.1232,192.0357],[-64.2928,-16.1196,193.0516],[-64.2979,-16.1172,190.9334],[-64.297,-16.115,193.1947],[-64.2981,-16.1127,193.5307],[-64.3013,-16.1141,192.7321],[-64.3033,-16.1122,191.8291],[-64.3085,-16.1138,190.4871],[-64.3123,-16.1124,191.2302],[-64.3136,-16.115,191.5086],[-64.315,-16.1128,194.7022],[-64.3197,-16.1148,191.2744],[-64.3228,-16.1077,191.0984],[-64.3184,-16.1025,192.9784],[-64.321,-16.0998,191.198],[-64.3208,-16.098,188.943],[-64.3183,-16.0976,189.5354],[-64.3174,-16.0954,191.0605],[-64.3185,-16.0923,190.6659],[-64.3223,-16.0896,192.4135],[-64.3224,-16.0864,189.5419],[-64.3265,-16.0867,192.2531],[-64.3227,-16.082,188.8536],[-64.3292,-16.0756,188.6832],[-64.3253,-16.0703,193.2103],[-64.3275,-16.0684,188.7433],[-64.3285,-16.0707,188.6074],[-64.3298,-16.0705,188.6074],[-64.3304,-16.0677,189.1283],[-64.3345,-16.0658,190.9358],[-64.3352,-16.0624,189.0503],[-64.3385,-16.0636,189.4442],[-64.3434,-16.061,190.8016],[-64.3443,-16.0511,183.1425],[-64.348,-16.0497,188.6748],[-64.3503,-16.0465,187.1143],[-64.354,-16.0455,188.3455],[-64.3572,-16.0423,187.7702],[-64.3611,-16.043,191.8651],[-64.3649,-16.0399,187.512],[-64.3694,-16.0423,187.6399],[-64.3766,-16.0392,188.4277],[-64.3836,-16.0419,186.3524],[-64.383,-16.038,186.9225],[-64.385,-16.0369,187.9232],[-64.389,-16.0386,186.7918],[-64.3919,-16.0377,189.3794],[-64.3943,-16.0425,187.5704],[-64.402,-16.0485,188.9462],[-64.4038,-16.0423,190.6758],[-64.4096,-16.0446,190.8884],[-64.4182,-16.0384,185.2888],[-64.4172,-16.0352,185.2173],[-64.4229,-16.0326,186.2165],[-64.4232,-16.0227,186.3954],[-64.4267,-16.0237,185.1638],[-64.4309,-16.0221,184.296],[-64.431,-16.0263,182.738],[-64.4365,-16.0284,185.7753],[-64.4428,-16.0265,185.8957],[-64.4445,-16.0293,183.5341],[-64.4467,-16.0276,187.721],[-64.4461,-16.0227,177.8188],[-64.4528,-16.0262,182.0297],[-64.4537,-16.0223,189.1996],[-64.4518,-16.0196,184.7029],[-64.4528,-16.0173,180.2859],[-64.455,-16.0157,181.3955],[-64.4606,-16.0179,185.7118],[-64.4679,-16.0069,177.1662],[-64.4671,-15.9964,181.5126],[-64.4631,-15.9939,179.7584],[-64.4621,-15.9886,179.7519],[-64.4635,-15.9872,182.6389],[-64.4602,-15.9853,181.517],[-64.4621,-15.9807,180.4478],[-64.4639,-15.9809,180.4478],[-64.4665,-15.9886,183.2728],[-64.471,-15.987,177.2484],[-64.4713,-15.9936,178.5903],[-64.4731,-15.9964,183.0749],[-64.4781,-15.9933,178.1592],[-64.486,-15.9967,174.4902],[-64.491,-15.9969,178.0231],[-64.4943,-15.9953,177.2859],[-64.4979,-16.0008,180.3753],[-64.5106,-16.0021,180.5377],[-64.5073,-15.9982,183.7887],[-64.5075,-15.9961,179.0492],[-64.5097,-15.9966,182.8714],[-64.5116,-15.9995,186.4295],[-64.5149,-15.9974,182.0537],[-64.5087,-15.9931,175.879],[-64.5128,-15.9886,183.2699],[-64.5256,-15.9835,187.2228],[-64.5249,-15.9765,181.1988],[-64.522,-15.9766,186.631],[-64.5156,-15.973,179.9681],[-64.5182,-15.972,168.6773],[-64.5191,-15.966,185.4816],[-64.5283,-15.9629,169.4706],[-64.5399,-15.9622,168.3048],[-64.5452,-15.9638,172.46],[-64.5503,-15.9681,181.1509],[-64.5523,-15.9675,174.7524],[-64.5503,-15.955,172.6917],[-64.5447,-15.95,174.3475],[-64.543,-15.9454,166.7399],[-64.5342,-15.9481,182.1019],[-64.5286,-15.9394,169.9238],[-64.528,-15.9376,174.6122],[-64.531,-15.9306,167.366],[-64.5362,-15.9277,172.6571],[-64.5403,-15.9279,171.9989],[-64.5421,-15.9299,178.1446],[-64.5398,-15.9366,168.0212],[-64.5474,-15.9388,166.836],[-64.555,-15.9145,171.6127],[-64.56,-15.9168,172.6421],[-64.5635,-15.9252,170.3978],[-64.5624,-15.9269,175.3231],[-64.5572,-15.925,172.9502],[-64.5532,-15.9263,176.7752],[-64.5535,-15.9289,183.9359],[-64.5592,-15.9349,178.3547],[-64.5633,-15.9281,171.1627],[-64.5698,-15.9254,163.0],[-64.5717,-15.9195,174.6011],[-64.5773,-15.9169,165.8055],[-64.5791,-15.9212,179.9223],[-64.578,-15.9248,166.1595],[-64.5708,-15.9313,166.0243],[-64.57,-15.9339,166.2769],[-64.5729,-15.9348,172.324],[-64.5905,-15.9269,168.2686],[-64.5928,-15.9305,166.3475],[-64.587,-15.9367,176.6074],[-64.5874,-15.9393,181.5575],[-64.59,-15.9396,187.6903],[-64.5991,-15.9311,166.026],[-64.6028,-15.924,162.5],[-64.6016,-15.9216,171.4055],[-64.5934,-15.9232,162.5],[-64.5924,-15.9141,166.791],[-64.6157,-15.9135,167.6619],[-64.6182,-15.9097,164.7379],[-64.6192,-15.9027,165.2961],[-64.6317,-15.8976,162.5],[-64.6237,-15.8844,170.6066],[-64.6227,-15.8803,164.9633],[-64.624,-15.8773,170.4101],[-64.6368,-15.8776,163.9655],[-64.6392,-15.8844,164.1158],[-64.6473,-15.8882,175.9707],[-64.6501,-15.887,167.5148],[-64.6518,-15.8818,168.6826],[-64.6535,-15.8812,177.922],[-64.6588,-15.8896,169.7544],[-64.6654,-15.8901,163.3045],[-64.6759,-15.8738,164.7848],[-64.6904,-15.865,169.6376],[-64.69,-15.8582,167.4795],[-64.6936,-15.8553,166.8367],[-64.6931,-15.8521,164.1723],[-64.6893,-15.8451,164.3852],[-64.6828,-15.8403,162.0],[-64.6858,-15.8374,166.0195],[-64.6948,-15.8369,163.5913],[-64.6973,-15.8298,173.7189],[-64.6926,-15.826,168.3206],[-64.6997,-15.824,165.4586],[-64.7117,-15.8271,163.0496],[-64.7139,-15.8241,162.6797],[-64.7079,-15.8199,172.7122],[-64.7095,-15.817,164.1997],[-64.7169,-15.8177,162.7493],[-64.7188,-15.8232,169.1089],[-64.7222,-15.8232,169.1465],[-64.7239,-15.82,163.2455],[-64.7189,-15.8053,175.0846],[-64.7206,-15.8035,161.5],[-64.7262,-15.8039,164.756],[-64.7297,-15.802,165.4082],[-64.729,-15.8139,163.915],[-64.7304,-15.8199,162.8537],[-64.7332,-15.8257,164.8454],[-64.7432,-15.838,163.0],[-64.745,-15.8521,163.0],[-64.7503,-15.8611,163.0],[-64.7512,-15.8666,166.2351],[-64.749,-15.8709,163.0],[-64.7364,-15.8747,165.7566],[-64.7303,-15.8792,164.0255],[-64.723,-15.8968,163.0],[-64.7252,-15.9019,163.0],[-64.7292,-15.9031,163.0],[-64.74,-15.8922,170.3041],[-64.7459,-15.8912,169.6023],[-64.7466,-15.8971,163.0],[-64.7326,-15.9082,169.1303],[-64.7304,-15.9113,169.2991],[-64.7297,-15.9177,169.5368],[-64.7304,-15.9202,163.5],[-64.7349,-15.9226,163.5],[-64.7456,-15.9221,167.5822],[-64.7508,-15.9259,163.75],[-64.7562,-15.9502,164.0],[-64.7537,-15.9531,167.8061],[-64.7331,-15.9488,165.2728],[-64.7268,-15.9512,164.5],[-64.7261,-15.9556,165.0],[-64.7329,-15.9705,165.0],[-64.7417,-15.9794,165.5],[-64.74,-15.9816,168.0376],[-64.7288,-15.9817,166.4134],[-64.7246,-15.9796,165.5],[-64.7241,-15.9685,166.0],[-64.7199,-15.963,169.0429],[-64.7136,-15.9631,169.7345],[-64.7095,-15.9675,166.0],[-64.711,-15.9777,167.0859],[-64.7316,-15.9932,167.0],[-64.7336,-15.9961,168.1202],[-64.7341,-16.0027,167.959],[-64.731,-16.0062,167.0],[-64.7175,-16.0014,168.404],[-64.7087,-16.0009,169.4285],[-64.7024,-16.0046,167.5],[-64.7009,-16.007,168.5423],[-64.7015,-16.0116,167.5],[-64.7057,-16.0125,167.5],[-64.7158,-16.0087,167.5],[-64.7232,-16.0095,169.7051],[-64.7267,-16.0122,173.0273],[-64.7305,-16.0189,171.8748],[-64.7327,-16.0345,168.0],[-64.7316,-16.0369,171.4056],[-64.7268,-16.0391,168.0],[-64.7237,-16.0386,168.0],[-64.7195,-16.0341,168.0],[-64.7204,-16.0284,168.0],[-64.7259,-16.0216,170.224],[-64.7233,-16.0172,168.3888],[-64.7193,-16.0185,171.0509],[-64.7143,-16.0242,168.0],[-64.7025,-16.0287,168.0],[-64.702,-16.0349,172.4023],[-64.716,-16.0588,168.0],[-64.7135,-16.0627,169.5717],[-64.7095,-16.0642,171.8081],[-64.7047,-16.0614,169.6503],[-64.699,-16.0537,170.3252],[-64.6932,-16.0542,173.509],[-64.6951,-16.0683,177.1524],[-64.6905,-16.0756,170.7657],[-64.6901,-16.0808,176.9642],[-64.6929,-16.0847,176.5678],[-64.6973,-16.0865,168.5],[-64.6994,-16.0856,169.2838],[-64.7015,-16.0824,172.0652],[-64.7005,-16.0761,177.9701],[-64.7025,-16.0698,173.9076],[-64.708,-16.0664,172.024],[-64.7116,-16.066,169.1843],[-64.7189,-16.069,169.7029],[-64.7222,-16.0721,169.7336],[-64.727,-16.0777,170.2198],[-64.7272,-16.0812,170.0664],[-64.7151,-16.0823,170.548],[-64.7079,-16.0889,172.1941],[-64.698,-16.0879,168.5],[-64.6919,-16.0901,172.6158],[-64.6884,-16.0942,175.4043],[-64.6887,-16.0981,170.9101],[-64.6968,-16.1021,173.0548],[-64.6997,-16.1065,170.0126],[-64.6978,-16.1109,170.0422],[-64.6888,-16.1164,169.0],[-64.6864,-16.1165,170.4948],[-64.6829,-16.1138,167.9222],[-64.6822,-16.1034,168.4886],[-64.6779,-16.0987,167.5],[-64.6678,-16.0943,175.482],[-64.6634,-16.0971,173.3896],[-64.6693,-16.1066,169.0234],[-64.6717,-16.1152,168.5],[-64.6749,-16.1184,174.5866],[-64.6827,-16.1215,176.435],[-64.6845,-16.1245,170.9769],[-64.6835,-16.1286,169.52],[-64.6737,-16.1373,172.13],[-64.6724,-16.1419,169.5],[-64.6739,-16.1538,169.5],[-64.6819,-16.1699,169.9206],[-64.6817,-16.1814,170.0],[-64.6842,-16.1848,170.0],[-64.6877,-16.1862,173.1901],[-64.6918,-16.1841,176.5092],[-64.6936,-16.1806,171.1498],[-64.6909,-16.1705,170.5],[-64.6946,-16.1691,177.2041],[-64.7004,-16.1775,173.88],[-64.7073,-16.1824,170.5],[-64.7082,-16.1859,170.5],[-64.7066,-16.1898,172.8886],[-64.7037,-16.1918,170.5],[-64.6833,-16.2013,173.4479],[-64.6715,-16.2049,171.0],[-64.67,-16.2084,174.2281],[-64.6721,-16.2236,172.0461],[-64.6774,-16.2356,171.9447],[-64.6745,-16.2398,177.7753],[-64.6659,-16.2418,174.9541],[-64.6663,-16.2502,176.7055],[-64.6648,-16.2568,174.1032],[-64.6734,-16.2611,172.0],[-64.6841,-16.2734,174.2402],[-64.6932,-16.2855,176.1836],[-64.6928,-16.2931,174.719],[-64.6899,-16.2956,172.5],[-64.6876,-16.2955,172.5],[-64.6808,-16.2879,172.5],[-64.671,-16.2858,172.5],[-64.6553,-16.2883,173.0],[-64.65,-16.2911,173.3834],[-64.6467,-16.2962,175.3243],[-64.6495,-16.3,173.0],[-64.674,-16.3099,173.0],[-64.6784,-16.3145,184.1049],[-64.6803,-16.3213,173.5],[-64.6777,-16.3243,173.5],[-64.6721,-16.3244,173.5],[-64.656,-16.3163,181.8258],[-64.6509,-16.3151,175.1016],[-64.6463,-16.3164,175.3722],[-64.644,-16.3208,179.2059],[-64.6453,-16.3257,179.6857],[-64.6481,-16.3288,173.5],[-64.6583,-16.3304,174.9288],[-64.6652,-16.3364,174.4625],[-64.6668,-16.3414,174.0],[-64.6657,-16.3579,174.0],[-64.6735,-16.3651,174.8505],[-64.6768,-16.3631,174.4812],[-64.6791,-16.3536,174.8959],[-64.6847,-16.3494,174.0],[-64.7015,-16.3426,174.0],[-64.7059,-16.3429,174.0],[-64.7088,-16.3464,181.8566],[-64.7088,-16.3509,183.4122],[-64.706,-16.355,174.0],[-64.7009,-16.3568,174.0],[-64.692,-16.3563,181.865],[-64.6867,-16.3597,182.0608],[-64.6872,-16.3648,178.5096],[-64.6932,-16.3678,174.0],[-64.6961,-16.3735,176.2438],[-64.6957,-16.3764,176.7234],[-64.6927,-16.3788,176.2368],[-64.6855,-16.3788,174.0],[-64.6645,-16.3711,174.7607],[-64.6599,-16.3718,177.7],[-64.6563,-16.3748,174.0],[-64.6565,-16.3781,175.8332],[-64.6794,-16.408,174.5],[-64.6832,-16.4108,174.5],[-64.6961,-16.4141,180.9925],[-64.6989,-16.4176,178.034],[-64.6985,-16.4217,176.0107],[-64.6952,-16.425,174.5],[-64.6814,-16.4267,180.7469],[-64.6767,-16.4316,175.0],[-64.6784,-16.4361,178.664],[-64.6869,-16.4423,175.0],[-64.6876,-16.4466,175.0],[-64.6856,-16.4523,175.0],[-64.6759,-16.4643,175.0],[-64.6733,-16.474,175.0],[-64.6775,-16.4787,177.841],[-64.6821,-16.4791,177.0753],[-64.692,-16.4708,179.6354],[-64.7026,-16.4685,176.7718],[-64.709,-16.4718,175.0],[-64.7111,-16.4747,176.8071],[-64.7125,-16.4823,181.1139],[-64.7099,-16.4861,182.0024],[-64.7048,-16.4862,178.0882],[-64.6974,-16.4809,175.0],[-64.6918,-16.4798,184.0217],[-64.6884,-16.4824,183.2503],[-64.6879,-16.485,175.0],[-64.6929,-16.4901,175.5],[-64.7084,-16.4934,176.2345],[-64.7112,-16.4958,178.0522],[-64.7115,-16.5026,175.5],[-64.7026,-16.5108,181.5003],[-64.7014,-16.5161,176.0],[-64.7063,-16.5317,176.0],[-64.7112,-16.5363,183.8998],[-64.7207,-16.5354,178.0349],[-64.7264,-16.5293,176.5],[-64.7264,-16.5262,176.5],[-64.7186,-16.5144,177.0],[-64.7199,-16.5095,180.03809999999999],[-64.7228,-16.5078,177.0],[-64.7396,-16.5053,177.5],[-64.746,-16.507,182.3725],[-64.7508,-16.5126,180.8741],[-64.7503,-16.5178,177.5],[-64.7418,-16.5253,184.8336],[-64.7401,-16.534,186.3456],[-64.7426,-16.5385,182.8135],[-64.7574,-16.5446,180.8465],[-64.7612,-16.5511,182.683],[-64.7593,-16.5538,181.7284],[-64.7538,-16.5535,179.6278],[-64.7502,-16.5558,179.0],[-64.7472,-16.5821,179.5],[-64.7486,-16.5901,179.5],[-64.7505,-16.5934,180.0],[-64.765,-16.6049,180.0],[-64.7783,-16.6106,181.3049],[-64.7811,-16.6132,180.5],[-64.7905,-16.6312,188.2008],[-64.7872,-16.6363,181.0],[-64.7722,-16.6374,186.7704],[-64.7575,-16.6526,181.5],[-64.7553,-16.6574,187.1084],[-64.7584,-16.6687,194.7556],[-64.758,-16.6789,186.025],[-64.759,-16.6817,182.659],[-64.7635,-16.6856,182.0],[-64.7685,-16.6867,182.0],[-64.7725,-16.6849,182.7782],[-64.7735,-16.6806,182.0],[-64.767,-16.6646,182.5],[-64.7676,-16.6584,184.866],[-64.7732,-16.6539,183.1289],[-64.7798,-16.6561,183.532],[-64.7834,-16.6612,188.3611],[-64.7842,-16.6785,183.0],[-64.7875,-16.6857,184.0897],[-64.7928,-16.6905,183.5],[-64.8071,-16.6951,187.1088],[-64.8101,-16.7,184.0],[-64.8093,-16.7074,191.6102],[-64.8065,-16.7115,184.0],[-64.8005,-16.7149,185.5756],[-64.7901,-16.7156,184.5],[-64.7825,-16.7215,184.5],[-64.78,-16.7299,184.5],[-64.7836,-16.7445,192.6303],[-64.7877,-16.7488,190.1686],[-64.7926,-16.75,187.6219],[-64.7971,-16.747,187.9157],[-64.8,-16.739,185.0],[-64.8039,-16.7352,185.0],[-64.8144,-16.7316,185.5],[-64.8245,-16.7252,186.3148],[-64.8318,-16.7251,185.5],[-64.8403,-16.7341,186.0],[-64.8424,-16.7404,193.0095],[-64.841,-16.7456,186.0],[-64.8342,-16.7494,186.0],[-64.8307,-16.754,192.3967]]]]}
,"properties": {"GID_3": "BOL.8.8.4_2","GID_0": "BOL","country": "Bolivia","GID_1": "BOL.8_1","province": "SantaCruz","NL_NAME_1": "NA","GID_2": "BOL.8.8_2","county": "Ichilo","NL_NAME_2": "NA","city": "Yapacaní","VARNAME_3": "NA","NL_NAME_3": "NA","TYPE_3": "District","ENGTYPE_3": "Distrito","CC_3": "NA","HASC_3": "NA","name": "Yapacaní.city","area_km2": 9651.272,"hist_schema_id": "Elevation0-9000","hist_area_km2": {"150": 2.264,"175": 1618.333,"200": 3824.891,"225": 2231.661,"250": 752.276,"275": 339.547,"300": 168.33,"325": 87.732,"350": 69.822,"375": 70.383,"400": 66.312,"425": 54.881,"450": 45.051,"475": 35.89,"500": 30.613,"525": 32.31,"550": 26.426,"575": 18.784,"600": 14.315,"625": 12.819,"650": 11.686,"675": 10.372,"700": 10.857,"725": 10.371,"750": 9.563,"775": 9.543,"800": 8.37,"825": 8.734,"850": 8.471,"875": 6.874,"900": 6.874,"925": 5.438,"950": 5.377,"975": 4.771,"1000": 4.346,"1025": 3.659,"1050": 3.639,"1075": 2.527,"1100": 2.608,"1125": 2.426,"1150": 2.143,"1175": 2.082,"1200": 1.698,"1225": 1.314,"1250": 1.192,"1275": 1.031,"1300": 0.687,"1325": 0.525,"1350": 0.606,"1375": 0.384,"1400": 0.182,"1450": 0.121}}}