{"type":"Feature","properties":{"GID_3":"BOL.4.9.3_2","GID_0":"BOL","country":"Bolivia","GID_1":"BOL.4_1","province":"LaPaz","NL_NAME_1":"NA","GID_2":"BOL.4.9_2","county":"GualbertoVillarroel","NL_NAME_2":"NA","city":"SanPedrodeCurahuara","VARNAME_3":"NA","NL_NAME_3":"NA","TYPE_3":"District","ENGTYPE_3":"Distrito","CC_3":"NA","HASC_3":"NA","name":"San_Pedrode_Curahuara.city"},
"geometry":{"type": "MultiPolygon","coordinates": [[[[-68.0157,-17.4732,3749.2903],[-68.0198,-17.485,3765.679],[-68.0237,-17.487,3764.2859],[-68.0259,-17.4908,3770.595],[-68.0265,-17.5029,3779.7175],[-68.0329,-17.5031,3803.4224],[-68.0346,-17.5009,3803.2422],[-68.0526,-17.509,3789.9102],[-68.0699,-17.5325,3778.4363],[-68.0758,-17.5361,3770.6821],[-68.082,-17.5449,3788.5974],[-68.0938,-17.5512,3790.231],[-68.0975,-17.5657,3803.1575],[-68.0958,-17.5783,3827.3762],[-68.1002,-17.5859,3796.6733],[-68.1055,-17.5893,3798.6597],[-68.1066,-17.593,3800.5574],[-68.1128,-17.5998,3810.4163],[-68.1168,-17.6017,3807.9871],[-68.1162,-17.6106,3831.7041],[-68.1289,-17.6069,3815.3203],[-68.1334,-17.6106,3849.697],[-68.1334,-17.6144,3829.5037],[-68.1393,-17.6198,3836.5337],[-68.1398,-17.622,3836.1414],[-68.1535,-17.6246,3865.3906],[-68.1569,-17.6357,3940.1851],[-68.1654,-17.6428,3936.2771],[-68.1783,-17.6509,3926.5469],[-68.1905,-17.6546,3950.7153],[-68.1435,-17.6687,4096.667],[-68.1373,-17.6761,4161.8311],[-68.1001,-17.6991,3919.8857],[-68.0853,-17.7152,3946.9243],[-68.074,-17.7187,3933.6855],[-68.0548,-17.7179,3896.0986],[-68.0164,-17.7328,3878.5669],[-68.0003,-17.7411,3836.2385],[-67.9995,-17.7392,3836.1682],[-67.9954,-17.7381,3829.8176],[-67.9885,-17.7412,3821.7534],[-67.9836,-17.7416,3819.4194],[-67.969,-17.7327,3808.6284],[-67.9652,-17.7377,3814.9053],[-67.9663,-17.7481,3829.6995],[-67.9576,-17.7644,3863.7258],[-67.9394,-17.774,3853.2051],[-67.9263,-17.7829,3846.2393],[-67.9024,-17.7911,3818.291],[-67.8835,-17.8052,3768.5684],[-67.8935,-17.7775,3801.1858],[-67.8799,-17.7731,3784.8547],[-67.8736,-17.7669,3770.9521],[-67.8636,-17.767,3761.8496],[-67.8659,-17.7591,3759.3474],[-67.8613,-17.7574,3759.718],[-67.8628,-17.7501,3761.3213],[-67.8609,-17.7453,3756.8579],[-67.862,-17.7435,3759.9724],[-67.865,-17.7438,3761.8906],[-67.8667,-17.7407,3761.77],[-67.8674,-17.7377,3761.2305],[-67.8658,-17.735,3760.3618],[-67.8677,-17.7337,3758.4497],[-67.8685,-17.7254,3757.2192],[-67.8713,-17.7265,3759.2805],[-67.8726,-17.7255,3760.0977],[-67.8715,-17.7216,3759.5557],[-67.8435,-17.7201,3746.646],[-67.828,-17.7137,3739.2944],[-67.8267,-17.7055,3737.9512],[-67.8277,-17.6964,3738.374],[-67.839,-17.6591,3735.3391],[-67.8376,-17.6514,3735.7749],[-67.8383,-17.6414,3734.4216],[-67.8172,-17.6378,3731.9839],[-67.8116,-17.6257,3732.5879],[-67.8064,-17.6255,3732.1802],[-67.8042,-17.6228,3731.7678],[-67.7954,-17.6246,3731.0208],[-67.7899,-17.6318,3730.3413],[-67.7855,-17.6334,3730.0078],[-67.778,-17.6304,3729.7395],[-67.7757,-17.6278,3729.7988],[-67.7718,-17.6279,3729.8354],[-67.7608,-17.6014,3730.5203],[-67.8031,-17.5802,3733.8174],[-67.7972,-17.5501,3735.1262],[-67.8013,-17.5476,3735.0156],[-67.8112,-17.5471,3736.2568],[-67.8229,-17.5541,3736.7324],[-67.8306,-17.5531,3737.4297],[-67.8359,-17.5506,3737.2495],[-67.8574,-17.5551,3738.8618],[-67.8678,-17.5543,3737.9253],[-67.8716,-17.5554,3738.9053],[-67.8877,-17.5513,3740.0781],[-67.8933,-17.5493,3740.293],[-67.8965,-17.5445,3741.0049],[-67.9101,-17.5368,3741.5042],[-67.9249,-17.5305,3742.49],[-67.9328,-17.5313,3742.896],[-67.945,-17.5294,3743.6191],[-67.9485,-17.5246,3743.873],[-67.962,-17.5193,3744.0515],[-67.9783,-17.5055,3745.9766],[-67.9877,-17.4767,3747.5278],[-67.9954,-17.4745,3748.092],[-68.0076,-17.4757,3749.2214],[-68.0157,-17.4732,3749.2903]]]]}}