{"type": "Feature","bbox": [-68.0384,-17.1572,-67.6807,-16.8043],"geometry": {"type": "MultiPolygon","coordinates": [[[[-67.8727,-17.0754,4470.3926],[-67.8654,-17.1128,4401.3955],[-67.8621,-17.1186,4382.3828],[-67.856,-17.1229,4409.5391],[-67.8535,-17.1311,4464.9038],[-67.8397,-17.123,3880.8926],[-67.8353,-17.1112,3615.853],[-67.8111,-17.1345,4178.002],[-67.8086,-17.1406,4324.2144],[-67.7927,-17.1572,4558.1152],[-67.7847,-17.1527,4288.8979],[-67.7668,-17.1511,4828.2959],[-67.7643,-17.1405,4788.499],[-67.755,-17.1325,4628.5259],[-67.7473,-17.1302,4373.6567],[-67.7462,-17.1258,4415.2871],[-67.7422,-17.1226,4366.0181],[-67.7428,-17.1172,4355.4736],[-67.7406,-17.1093,4178.7627],[-67.7368,-17.1082,4160.1724],[-67.7232,-17.1097,3472.3523],[-67.7224,-17.1062,3438.4863],[-67.7249,-17.1018,3454.3389],[-67.7215,-17.0965,3384.085],[-67.7244,-17.0895,3312.519],[-67.7232,-17.0852,3355.9971],[-67.7243,-17.0812,3278.2051],[-67.7438,-17.0711,3197.437],[-67.7486,-17.0668,3148.5088],[-67.75,-17.0631,3121.6187],[-67.7491,-17.0583,3166.0039],[-67.7401,-17.0533,3318.9229],[-67.7388,-17.0494,3419.3604],[-67.7407,-17.0446,3491.1821],[-67.74,-17.0344,3817.0015],[-67.7359,-17.0285,3579.8027],[-67.7359,-17.0231,3426.3828],[-67.7272,-17.0238,3594.5903],[-67.7248,-17.0223,3593.3789],[-67.7177,-17.026,3758.7405],[-67.7123,-17.0257,3849.427],[-67.7149,-17.0174,3951.355],[-67.7113,-17.0145,4037.353],[-67.7028,-17.0122,3651.468],[-67.6987,-17.014,3631.5581],[-67.687,-17.014,3609.8538],[-67.6807,-17.0015,3109.5854],[-67.6829,-16.9909,2505.45],[-67.6843,-16.9889,2557.8633],[-67.6892,-16.9878,2958.2095],[-67.6955,-16.9794,2869.6919],[-67.692,-16.9616,2341.1082],[-67.6829,-16.9537,2224.7188],[-67.6809,-16.9488,2195.8745],[-67.6887,-16.943,2183.4268],[-67.688,-16.936,2152.5195],[-67.6926,-16.9245,2121.1277],[-67.6958,-16.9074,2081.1335],[-67.6958,-16.896,2074.5432],[-67.7017,-16.8868,2059.9417],[-67.7058,-16.8849,2026.3943],[-67.709,-16.8795,2043.1843],[-67.7086,-16.8735,2005.0248],[-67.6999,-16.8626,1966.6681],[-67.6995,-16.8525,1939.0992],[-67.7011,-16.8501,1943.0149],[-67.7109,-16.8595,2036.7427],[-67.7195,-16.8607,2112.5447],[-67.7315,-16.8581,2237.9355],[-67.7411,-16.8608,2345.0688],[-67.7438,-16.8526,2468.9153],[-67.7487,-16.8514,2548.4082],[-67.7608,-16.8385,2767.8274],[-67.7684,-16.8346,2935.9084],[-67.7872,-16.834,3374.7324],[-67.796,-16.8287,3804.3291],[-67.8193,-16.8298,3760.2036],[-67.8234,-16.8285,3700.9219],[-67.8281,-16.8158,3832.1758],[-67.845,-16.8072,3777.656],[-67.869,-16.8043,3769.2385],[-67.8759,-16.8167,3203.0847],[-67.8807,-16.8215,3409.8655],[-67.8934,-16.8269,3894.6128],[-67.8969,-16.8264,3932.5913],[-67.9112,-16.8172,4182.9219],[-67.9169,-16.818,4280.52],[-67.9234,-16.8166,4318.7549],[-67.9277,-16.8244,4285.1646],[-67.9339,-16.824,4135.7021],[-67.9399,-16.8293,4106.6792],[-67.9485,-16.826,4226.0845],[-67.9543,-16.8277,4190.3062],[-67.9552,-16.8294,4241.707],[-67.9534,-16.8347,4184.2324],[-67.9599,-16.8372,3959.51],[-67.961,-16.8395,3934.4712],[-67.9606,-16.8466,3957.5713],[-67.9627,-16.8517,3736.8447],[-67.9613,-16.856,3627.6538],[-67.9635,-16.86,3391.9622],[-67.9677,-16.8606,3431.6233],[-67.9764,-16.8585,3669.009],[-67.9921,-16.8455,3780.5474],[-67.9971,-16.8442,4021.7886],[-68.0031,-16.8575,3307.6584],[-68.0057,-16.8601,3312.7935],[-68.0243,-16.8662,3857.5024],[-68.0371,-16.8756,4130.2246],[-68.0384,-16.8832,4146.2656],[-68.0229,-16.8982,4110.729],[-68.035,-16.906,4249.9941],[-68.0288,-16.9124,4269.8262],[-68.0245,-16.9202,4286.8916],[-68.0187,-16.9238,4340.0352],[-67.9977,-16.9431,4385.8247],[-67.9819,-16.9532,4424.5283],[-67.9707,-16.9699,4403.1323],[-67.9597,-16.9682,4445.4043],[-67.9494,-16.9694,4366.4707],[-67.9436,-16.9717,4386.1309],[-67.9375,-16.9952,4311.875],[-67.9333,-16.9972,4228.9238],[-67.9305,-17.0024,4206.9429],[-67.9016,-17.0178,4261.4204],[-67.8918,-17.0146,3843.5449],[-67.8897,-17.0115,3624.1089],[-67.8766,-17.0077,3316.4092],[-67.8701,-17.0137,3216.5503],[-67.8647,-17.0117,3054.9639],[-67.8541,-17.0223,3773.8574],[-67.8492,-17.0302,3393.3809],[-67.8368,-17.0347,3241.8752],[-67.8391,-17.054,3851.627],[-67.8465,-17.0512,3690.9148],[-67.8629,-17.0485,3965.533],[-67.8665,-17.0632,4362.3477],[-67.8727,-17.0754,4470.3926]]]]}
,"properties": {"GID_3": "BOL.4.13.4_2","GID_0": "BOL","country": "Bolivia","GID_1": "BOL.4_1","province": "LaPaz","NL_NAME_1": "NA","GID_2": "BOL.4.13_2","county": "Loayza","NL_NAME_2": "NA","city": "Sapahaqui","VARNAME_3": "NA","NL_NAME_3": "NA","TYPE_3": "District","ENGTYPE_3": "Distrito","CC_3": "NA","HASC_3": "NA","name": "Sapahaqui.city","area_km2": 817.1731,"hist_schema_id": "Elevation0-9000","hist_area_km2": {"1950": 0.4261,"1975": 0.3246,"2000": 0.8319,"2025": 1.2782,"2050": 1.3796,"2075": 1.7854,"2100": 1.481,"2125": 1.8259,"2150": 1.907,"2175": 2.2519,"2200": 2.2518,"2225": 2.4546,"2250": 2.8198,"2275": 2.5358,"2300": 2.6778,"2325": 2.9009,"2350": 3.4486,"2375": 3.631,"2400": 3.8744,"2425": 4.483,"2450": 4.422,"2475": 4.3409,"2500": 4.4626,"2525": 5.0912,"2550": 4.9085,"2575": 5.4357,"2600": 5.7601,"2625": 6.5104,"2650": 6.5306,"2675": 7.139,"2700": 6.9361,"2725": 7.3215,"2750": 6.6725,"2775": 7.7271,"2800": 8.0922,"2825": 8.0922,"2850": 8.4168,"2875": 8.0921,"2900": 8.9238,"2925": 9.0048,"2950": 9.3702,"2975": 8.9441,"3000": 9.512,"3025": 8.8631,"3050": 9.8162,"3075": 10.4045,"3100": 10.2221,"3125": 10.7695,"3150": 11.4595,"3175": 10.9117,"3200": 12.879,"3225": 11.804,"3250": 11.6618,"3275": 12.6153,"3300": 13.2434,"3325": 13.0813,"3350": 12.5135,"3375": 13.6083,"3400": 12.8579,"3425": 12.7772,"3450": 13.4055,"3475": 13.8112,"3500": 13.8515,"3525": 13.7709,"3550": 14.3181,"3575": 13.4868,"3600": 14.8656,"3625": 14.9879,"3650": 13.8113,"3675": 14.8055,"3700": 15.4739,"3725": 15.5755,"3750": 15.5352,"3775": 15.2106,"3800": 14.6217,"3825": 13.6885,"3850": 11.3563,"3875": 11.9038,"3900": 11.5188,"3925": 10.8295,"3950": 10.4236,"3975": 10.3632,"4000": 9.167,"4025": 8.558,"4050": 8.1728,"4075": 7.7875,"4100": 7.0984,"4125": 7.2397,"4150": 5.8406,"4175": 6.7934,"4200": 5.9211,"4225": 5.2722,"4250": 5.2313,"4275": 4.7246,"4300": 5.1094,"4325": 3.8319,"4350": 4.0347,"4375": 3.7103,"4400": 2.8181,"4425": 1.9868,"4450": 1.4999,"4475": 1.0133,"4500": 0.7497,"4525": 0.5268,"4550": 0.6889,"4575": 0.6281,"4600": 0.6281,"4625": 0.7091,"4650": 0.7699,"4675": 0.7699,"4700": 0.7294,"4725": 0.5876,"4750": 0.5268,"4775": 0.3647,"4800": 0.1621,"4825": 0.1216,"4850": 0.0203}}}