{"type": "Feature","bbox": [-68.2184,-17.5551,-67.765,-17.2474],"geometry": {"type": "MultiPolygon","coordinates": [[[[-68.1018,-17.269,4006.7905],[-68.1016,-17.271,3988.5278],[-68.1064,-17.2744,4023.1946],[-68.1247,-17.2786,4128.4883],[-68.1347,-17.2755,4216.873],[-68.1545,-17.2752,4263.9033],[-68.1668,-17.271,4309.0415],[-68.179,-17.2691,4350.3345],[-68.1948,-17.2614,4369.9937],[-68.2171,-17.2474,4414.0127],[-68.2184,-17.2508,4398.6377],[-68.2149,-17.2746,4381.1724],[-68.1959,-17.3019,4338.2319],[-68.2018,-17.3094,4284.2891],[-68.1936,-17.3284,4148.4858],[-68.1757,-17.3927,3921.1421],[-68.1619,-17.4206,3783.7644],[-68.1577,-17.4254,3776.3845],[-68.1521,-17.4271,3774.4839],[-68.1514,-17.4345,3771.2847],[-68.1434,-17.4438,3764.0823],[-68.1436,-17.4472,3762.7439],[-68.1469,-17.4511,3761.4536],[-68.1413,-17.4616,3757.0254],[-68.1331,-17.4591,3757.0664],[-68.1215,-17.4606,3756.2278],[-68.1104,-17.4694,3755.2117],[-68.0995,-17.485,3754.686],[-68.0886,-17.4877,3753.7249],[-68.074,-17.4889,3753.2183],[-68.0568,-17.4858,3751.9478],[-68.0463,-17.4825,3749.9883],[-68.0387,-17.4768,3750.0242],[-68.0267,-17.4718,3749.0425],[-68.0076,-17.4757,3749.2214],[-67.9913,-17.4751,3747.8628],[-67.986,-17.479,3747.5054],[-67.9852,-17.4853,3747.248],[-67.9783,-17.5055,3745.9766],[-67.962,-17.5193,3744.0515],[-67.9485,-17.5246,3743.873],[-67.945,-17.5294,3743.6191],[-67.9328,-17.5313,3742.896],[-67.9249,-17.5305,3742.49],[-67.8991,-17.5429,3741.2402],[-67.8933,-17.5493,3740.293],[-67.8757,-17.555,3739.3022],[-67.8574,-17.5551,3738.8618],[-67.8359,-17.5506,3737.2495],[-67.8306,-17.5531,3737.4297],[-67.8229,-17.5541,3736.7324],[-67.8112,-17.5471,3736.2568],[-67.8066,-17.5466,3735.7166],[-67.7932,-17.5517,3734.9731],[-67.7677,-17.5518,3733.7495],[-67.765,-17.5172,3733.3237],[-67.801,-17.5132,3734.7471],[-67.8023,-17.5142,3734.9697],[-67.7961,-17.4629,3732.4031],[-67.8017,-17.4611,3732.8284],[-67.8018,-17.4589,3732.6611],[-67.8048,-17.4569,3732.7373],[-67.8063,-17.4521,3732.9648],[-67.8058,-17.4458,3733.3311],[-67.8117,-17.4408,3733.793],[-67.8133,-17.4375,3734.6284],[-67.817,-17.4377,3734.1423],[-67.8193,-17.4317,3733.7329],[-67.8236,-17.4277,3734.0183],[-67.8298,-17.4253,3734.1592],[-67.8348,-17.416,3734.3149],[-67.8824,-17.3591,3738.6023],[-67.8869,-17.345,3740.5811],[-67.8961,-17.3475,3741.3875],[-67.8998,-17.3451,3742.7974],[-67.9016,-17.3455,3742.8159],[-67.9058,-17.3418,3743.1465],[-67.9101,-17.3343,3744.5671],[-67.9107,-17.3305,3745.4709],[-67.9134,-17.3268,3746.0151],[-67.9123,-17.3245,3746.499],[-67.9271,-17.319,3747.7546],[-67.9447,-17.3179,3750.5049],[-67.9545,-17.3139,3755.4873],[-67.9582,-17.3074,3759.4585],[-67.9603,-17.3068,3760.5312],[-67.9791,-17.2879,3781.709],[-67.9866,-17.2788,3792.105],[-67.9856,-17.277,3793.447],[-67.9912,-17.2749,3797.9263],[-68.0192,-17.2682,3829.6663],[-68.02,-17.2757,3835.0471],[-68.0714,-17.2729,3931.6724],[-68.1018,-17.269,4006.7905]]]]}
,"properties": {"GID_3": "BOL.4.3.7_2","GID_0": "BOL","country": "Bolivia","GID_1": "BOL.4_1","province": "LaPaz","NL_NAME_1": "NA","GID_2": "BOL.4.3_2","county": "Aroma","NL_NAME_2": "NA","city": "Umala","VARNAME_3": "NA","NL_NAME_3": "NA","TYPE_3": "District","ENGTYPE_3": "Distrito","CC_3": "NA","HASC_3": "NA","name": "Umala.city","area_km2": 873.9816,"hist_schema_id": "Elevation0-9000","hist_area_km2": {"3725": 106.7293,"3750": 278.3678,"3775": 83.985,"3800": 62.1159,"3825": 50.5238,"3850": 48.6637,"3875": 43.1624,"3900": 41.2819,"3925": 33.6742,"3950": 22.5458,"3975": 16.1314,"4000": 11.4968,"4025": 9.3716,"4050": 8.562,"4075": 7.0441,"4100": 5.5059,"4125": 4.676,"4150": 4.4533,"4175": 3.8866,"4200": 4.4333,"4225": 4.2106,"4250": 4.3322,"4275": 4.2918,"4300": 4.2716,"4325": 3.968,"4350": 3.462,"4375": 2.1664,"4400": 0.6682}}}