{"type":"Feature","properties":{"GID_3":"BOL.7.16.4_2","GID_0":"BOL","country":"Bolivia","GID_1":"BOL.7_1","province":"Potosí","NL_NAME_1":"NA","GID_2":"BOL.7.16_2","county":"TomásFrías","NL_NAME_2":"NA","city":"Yocalla","VARNAME_3":"NA","NL_NAME_3":"NA","TYPE_3":"District","ENGTYPE_3":"Distrito","CC_3":"NA","HASC_3":"NA","name":"Yocalla.city"},
"geometry":{"type": "MultiPolygon","coordinates": [[[[-65.9304,-19.6924,4510.4922],[-65.9284,-19.6828,4628.4668],[-65.9224,-19.6748,4650.6436],[-65.9191,-19.6673,4735.4136],[-65.9116,-19.6585,4498.8428],[-65.9044,-19.6574,4422.7905],[-65.8968,-19.6492,4267.6748],[-65.8839,-19.6479,4084.9421],[-65.8801,-19.6439,4154.7603],[-65.8828,-19.6294,4089.7546],[-65.879,-19.6193,4042.3584],[-65.8659,-19.6167,3985.762],[-65.8523,-19.6165,4061.5298],[-65.847,-19.6102,3976.9099],[-65.847,-19.6047,3881.0],[-65.8401,-19.6003,3888.6663],[-65.8316,-19.5986,3818.4648],[-65.821,-19.5993,3701.6404],[-65.814,-19.5972,3645.9656],[-65.8103,-19.5935,3640.2947],[-65.8086,-19.5944,3632.376],[-65.8062,-19.5925,3627.0952],[-65.8053,-19.5938,3599.1028],[-65.805,-19.5906,3592.3564],[-65.8028,-19.5905,3588.2964],[-65.802,-19.5856,3651.1523],[-65.8001,-19.5844,3576.7747],[-65.8008,-19.578,3569.7629],[-65.7935,-19.5722,3606.7024],[-65.7937,-19.5656,3651.7551],[-65.7917,-19.5633,3648.6753],[-65.7891,-19.5631,3656.8921],[-65.7853,-19.5585,3667.1284],[-65.7847,-19.5523,3829.3762],[-65.7853,-19.5478,3974.3369],[-65.7949,-19.5346,4041.7981],[-65.8135,-19.518,3465.9658],[-65.8209,-19.5084,3611.4114],[-65.8355,-19.4975,4262.2349],[-65.8144,-19.4495,3963.0281],[-65.818,-19.4353,3693.1819],[-65.8168,-19.4329,3671.9224],[-65.8175,-19.4294,3630.6074],[-65.823,-19.4134,3629.8833],[-65.8441,-19.4069,3506.2051],[-65.854,-19.4082,3630.7549],[-65.8604,-19.405,3623.9155],[-65.8661,-19.3973,3437.6208],[-65.8646,-19.3857,3411.7937],[-65.8669,-19.3848,3399.4727],[-65.8654,-19.3801,3365.4258],[-65.8582,-19.3714,3313.8999],[-65.8571,-19.3665,3277.8306],[-65.8542,-19.3645,3328.2227],[-65.8528,-19.3659,3396.4275],[-65.8507,-19.3592,3258.9097],[-65.8446,-19.3568,3319.3584],[-65.8473,-19.3516,3305.8118],[-65.8515,-19.3496,3322.5999],[-65.8538,-19.343,3497.0486],[-65.8553,-19.3356,3727.5669],[-65.8536,-19.3278,3789.79],[-65.8792,-19.3167,3937.9124],[-65.885,-19.3068,3992.9712],[-65.8897,-19.303,4024.4468],[-65.8916,-19.2967,4073.6433],[-65.9003,-19.2899,4177.9111],[-65.9064,-19.2875,4201.9507],[-65.9163,-19.2882,4305.3877],[-65.9435,-19.2794,4663.4453],[-65.9558,-19.2794,4584.2891],[-65.9662,-19.2848,4459.6069],[-65.9742,-19.2836,4680.3613],[-66.0318,-19.332,4012.5706],[-66.0339,-19.336,3976.6113],[-66.0376,-19.3386,3945.3691],[-66.044,-19.3382,3951.6006],[-66.0454,-19.3366,3969.6848],[-66.0471,-19.3328,3981.0771],[-66.0469,-19.3255,4063.6846],[-66.0543,-19.3241,3980.8962],[-66.072,-19.3264,3663.0896],[-66.0708,-19.3293,3684.405],[-66.073,-19.3307,3640.0107],[-66.0699,-19.332,3651.9922],[-66.0714,-19.3337,3632.3772],[-66.0694,-19.3354,3649.4209],[-66.0715,-19.3368,3642.8074],[-66.0716,-19.3397,3644.0708],[-66.0667,-19.345,3643.103],[-66.0623,-19.3453,3627.0901],[-66.0599,-19.3478,3631.1558],[-66.0566,-19.3515,3655.8911],[-66.0561,-19.3544,3616.0266],[-66.0522,-19.3563,3612.105],[-66.0513,-19.3618,3618.6199],[-66.0387,-19.3667,3569.1025],[-66.0375,-19.374,3591.2346],[-66.0353,-19.3771,3573.7625],[-66.0318,-19.3771,3569.0015],[-66.0294,-19.38,3631.7344],[-66.0231,-19.383,3500.4409],[-66.0164,-19.4016,3832.5071],[-66.015,-19.4155,3872.1304],[-66.0159,-19.4258,3835.3447],[-66.021,-19.4418,3916.0928],[-66.0171,-19.4474,3969.7102],[-66.0215,-19.4545,4002.3574],[-66.0222,-19.4636,4044.375],[-66.0203,-19.4699,4040.6631],[-66.0241,-19.4782,4177.2588],[-66.0223,-19.4865,4201.2412],[-66.0188,-19.4906,4236.5967],[-66.0168,-19.4978,4252.7476],[-66.0144,-19.5187,4301.2578],[-66.0308,-19.5396,4400.7188],[-66.037,-19.5612,4382.5205],[-66.0518,-19.5724,4450.3232],[-66.0817,-19.6117,4486.0176],[-66.0878,-19.6338,4429.1885],[-66.0964,-19.6359,4451.4424],[-66.1079,-19.6433,4464.5767],[-66.0791,-19.6776,4683.4409],[-66.0541,-19.6811,4518.7769],[-65.9953,-19.6706,4283.312],[-65.9818,-19.6717,4310.7949],[-65.9692,-19.6742,4284.9062],[-65.9691,-19.6783,4388.3936],[-65.9663,-19.6838,4483.7051],[-65.9633,-19.6858,4551.48],[-65.9365,-19.6953,4523.0898],[-65.9304,-19.6924,4510.4922]]]]}}