{"type":"Feature","properties":{"GID_3":"BOL.5.10.2_2","GID_0":"BOL","country":"Bolivia","GID_1":"BOL.5_1","province":"Oruro","NL_NAME_1":"NA","GID_2":"BOL.5.10_2","county":"Sabaya","NL_NAME_2":"NA","city":"Coipasa","VARNAME_3":"NA","NL_NAME_3":"NA","TYPE_3":"District","ENGTYPE_3":"Distrito","CC_3":"NA","HASC_3":"NA","name":"Coipasa.city"},
"geometry":{"type": "MultiPolygon","coordinates": [[[[-68.0216,-19.1217,3659.45],[-68.0188,-19.1206,3659.439],[-68.0226,-19.1203,3659.408],[-68.0263,-19.1175,3659.4512],[-68.0299,-19.1183,3659.3164],[-68.0319,-19.117,3659.3489],[-68.0328,-19.1115,3659.4707],[-68.0374,-19.1047,3659.7053],[-68.0389,-19.1065,3659.6123],[-68.0384,-19.112,3659.4827],[-68.041,-19.1106,3659.5244],[-68.0503,-19.086,3660.7085],[-68.0526,-19.0848,3660.6384],[-68.0536,-19.0855,3660.6912],[-68.0518,-19.0879,3660.5254],[-68.0536,-19.0927,3660.1396],[-68.0509,-19.0952,3660.1445],[-68.0538,-19.0981,3659.9773],[-68.0562,-19.1175,3659.2849],[-68.059,-19.1242,3658.8999],[-68.0623,-19.1183,3659.2026],[-68.0674,-19.1238,3659.0547],[-68.0679,-19.1289,3658.8677],[-68.0774,-19.1334,3658.8572],[-68.0793,-19.1365,3658.7295],[-68.0853,-19.1393,3658.7744],[-68.089,-19.1434,3658.5872],[-68.0911,-19.1495,3658.5298],[-68.0968,-19.1497,3658.4739],[-68.0982,-19.1463,3658.5767],[-68.1021,-19.1436,3658.7681],[-68.1021,-19.1372,3659.1001],[-68.1051,-19.1328,3659.3447],[-68.1074,-19.1196,3659.8926],[-68.1257,-19.1134,3660.0015],[-68.154,-19.1389,3658.7944],[-68.1608,-19.1421,3658.5269],[-68.1656,-19.1423,3658.4907],[-68.1669,-19.141,3658.7148],[-68.1687,-19.1426,3658.6394],[-68.1766,-19.1424,3658.5693],[-68.1823,-19.145,3658.5417],[-68.1952,-19.1582,3658.4761],[-68.211,-19.1682,3658.3501],[-68.2385,-19.1916,3658.5449],[-68.2435,-19.1935,3658.5439],[-68.2575,-19.1967,3658.4868],[-68.2826,-19.196,3658.5493],[-68.3156,-19.2022,3658.4563],[-68.3304,-19.1986,3658.4553],[-68.335,-19.1989,3657.8687],[-68.3371,-19.1973,3658.457],[-68.3454,-19.1965,3658.5015],[-68.3461,-19.1987,3656.9197],[-68.3491,-19.1961,3658.7378],[-68.3538,-19.197,3657.4714],[-68.3775,-19.2135,3657.79],[-68.3773,-19.222,3656.5],[-68.3747,-19.2261,3656.5],[-68.3702,-19.2283,3656.5],[-68.368,-19.2328,3656.5],[-68.3741,-19.2401,3657.4661],[-68.374,-19.243,3658.3916],[-68.3779,-19.2412,3658.7148],[-68.3837,-19.2461,3657.7556],[-68.4,-19.2505,3658.4033],[-68.4111,-19.2578,3658.363],[-68.4119,-19.2597,3656.5],[-68.4162,-19.2561,3658.6055],[-68.4197,-19.2575,3658.3801],[-68.4206,-19.2608,3658.1106],[-68.423,-19.2587,3658.4658],[-68.4242,-19.2619,3659.1899],[-68.4223,-19.2659,3656.8384],[-68.4206,-19.2645,3656.5],[-68.4221,-19.2672,3656.5],[-68.4252,-19.2655,3657.9614],[-68.4259,-19.2613,3658.2554],[-68.4246,-19.259,3659.4204],[-68.4275,-19.2618,3658.1941],[-68.4313,-19.2609,3658.5815],[-68.4357,-19.2666,3660.0933],[-68.434,-19.2669,3659.0686],[-68.4351,-19.2698,3660.5376],[-68.431,-19.2721,3656.5],[-68.433,-19.2714,3656.5],[-68.4348,-19.2727,3657.9429],[-68.437,-19.2713,3658.1389],[-68.4357,-19.2678,3660.0933],[-68.4378,-19.2661,3658.5283],[-68.4383,-19.2682,3658.2651],[-68.4411,-19.2682,3658.4294],[-68.4417,-19.2699,3659.2705],[-68.4406,-19.2749,3656.5],[-68.4437,-19.277,3656.5],[-68.4436,-19.2719,3659.5029],[-68.4454,-19.2726,3658.3726],[-68.4474,-19.2771,3656.5],[-68.4463,-19.2816,3656.5],[-68.4487,-19.2766,3658.6316],[-68.4518,-19.2778,3658.3022],[-68.4524,-19.2799,3659.1565],[-68.4512,-19.2785,3659.1104],[-68.4507,-19.2803,3658.25],[-68.4522,-19.2809,3659.1565],[-68.4532,-19.2893,3656.5],[-68.4551,-19.2901,3658.8899],[-68.4529,-19.292,3659.2864],[-68.459,-19.2961,3658.481],[-68.4587,-19.2997,3657.6018],[-68.4614,-19.3006,3658.0259],[-68.4645,-19.2983,3656.8667],[-68.4647,-19.2963,3662.6768],[-68.4671,-19.2964,3656.8032],[-68.4668,-19.2951,3658.5847],[-68.4699,-19.2959,3659.5762],[-68.4705,-19.2981,3659.5969],[-68.4667,-19.2993,3658.1338],[-68.4646,-19.3082,3658.5278],[-68.454,-19.311,3658.1455],[-68.4538,-19.3122,3656.5],[-68.4569,-19.3152,3657.9873],[-68.4673,-19.3136,3658.3684],[-68.4712,-19.3145,3658.2722],[-68.4729,-19.3168,3658.3809],[-68.4741,-19.3233,3658.323],[-68.4727,-19.3251,3658.4941],[-68.473,-19.3293,3658.3081],[-68.4748,-19.3309,3658.4172],[-68.474,-19.3328,3658.4412],[-68.4711,-19.3331,3658.3306],[-68.4706,-19.3432,3658.3716],[-68.4733,-19.3482,3658.2639],[-68.4719,-19.3521,3657.313],[-68.4495,-19.3701,3657.2554],[-68.4049,-19.4162,3656.5],[-68.4126,-19.4219,3743.9136],[-68.4124,-19.431,3743.0483],[-68.4258,-19.4355,3656.5],[-68.4115,-19.4399,3656.5],[-68.4128,-19.4507,3706.7434],[-68.4069,-19.4621,3662.4304],[-68.4046,-19.4639,3659.2417],[-68.4042,-19.471,3656.5],[-68.3975,-19.4743,3656.5],[-68.3963,-19.4801,3666.0781],[-68.3848,-19.4927,3656.5],[-68.3756,-19.501,3656.5],[-68.3647,-19.5071,3656.5],[-68.3521,-19.52,3656.5],[-68.3463,-19.5184,3656.5],[-68.3435,-19.5213,3656.5],[-68.339,-19.516,3656.5],[-68.3315,-19.5157,3656.5],[-68.3218,-19.5184,3656.5],[-68.3108,-19.5255,3656.5],[-68.2945,-19.5263,3656.5],[-68.2924,-19.5237,3656.5],[-68.2906,-19.5242,3656.5],[-68.2911,-19.5267,3656.5],[-68.2877,-19.5302,3656.5],[-68.2873,-19.5346,3656.5],[-68.2964,-19.5418,3656.5],[-68.294,-19.5463,3656.5],[-68.285,-19.5504,3656.5],[-68.274,-19.5518,3656.5],[-68.2621,-19.5564,3656.5],[-68.2609,-19.559,3656.5],[-68.256,-19.5615,3656.5],[-68.2451,-19.5628,3656.5],[-68.2371,-19.5665,3656.5],[-68.2344,-19.5713,3656.5],[-68.2308,-19.573,3656.5],[-68.2326,-19.5751,3656.5],[-68.2296,-19.5789,3656.5],[-68.2252,-19.5807,3656.5],[-68.2246,-19.5785,3656.5],[-68.2211,-19.5835,3656.5],[-68.218,-19.5821,3656.5],[-68.2161,-19.5835,3656.5],[-68.2122,-19.5827,3656.5],[-68.2116,-19.5847,3656.5],[-68.2072,-19.5826,3656.5],[-68.2069,-19.5875,3656.5],[-68.2022,-19.5899,3656.5],[-68.1985,-19.5964,3656.5],[-68.1777,-19.5986,3656.5],[-68.1757,-19.5999,3656.5],[-68.1658,-19.6117,3656.5],[-68.167,-19.6143,3656.5],[-68.1555,-19.6108,3656.5],[-68.1447,-19.604,3656.5],[-68.1299,-19.6021,3656.5],[-68.1255,-19.5995,3656.5],[-68.1253,-19.597,3656.5],[-68.1153,-19.5962,3656.5],[-68.1135,-19.594,3656.5],[-68.1153,-19.59,3657.9641],[-68.1101,-19.5903,3656.5],[-68.1093,-19.588,3656.8838],[-68.1073,-19.588,3658.0161],[-68.0992,-19.5918,3656.5],[-68.095,-19.5905,3656.5],[-68.089,-19.5775,3657.0059],[-68.0758,-19.5628,3656.5],[-68.0749,-19.5599,3656.5],[-68.0724,-19.5599,3656.5],[-68.0668,-19.5547,3656.5],[-68.0637,-19.5483,3656.5],[-68.0568,-19.5402,3656.5],[-68.046,-19.5368,3656.9185],[-68.0241,-19.5342,3656.5],[-68.0216,-19.5307,3656.5],[-68.0263,-19.5293,3656.9888],[-68.0258,-19.5279,3656.8037],[-68.0201,-19.5278,3656.5],[-68.0057,-19.5225,3656.5],[-68.0036,-19.5229,3656.5],[-68.0016,-19.3002,3656.5],[-68.008,-19.2955,3656.5],[-68.0031,-19.2904,3656.5],[-68.001,-19.2846,3656.5],[-68.002,-19.2709,3656.5],[-68.0009,-19.2653,3656.5],[-68.0025,-19.2567,3656.5],[-68.0008,-19.2503,3656.5],[-68.0037,-19.2471,3656.5],[-68.0068,-19.2396,3656.5],[-68.0054,-19.2267,3656.5],[-68.002,-19.2211,3656.5],[-68.0011,-19.2148,3656.5],[-67.993,-19.1957,3656.5],[-67.9977,-19.1971,3656.5],[-67.994,-19.19,3656.5],[-67.9994,-19.193,3656.5],[-68.0025,-19.19,3656.5],[-68.0042,-19.1847,3656.5],[-68.0156,-19.1775,3656.5],[-68.0204,-19.1704,3656.5],[-68.0214,-19.1629,3656.8782],[-68.0241,-19.1603,3656.5],[-68.0252,-19.1554,3659.1077],[-68.0347,-19.1538,3658.9387],[-68.0351,-19.1523,3658.9893],[-68.0317,-19.1496,3657.7959],[-68.0384,-19.1471,3658.854],[-68.0394,-19.1427,3658.9778],[-68.0422,-19.1418,3659.0078],[-68.0414,-19.1396,3659.0767],[-68.0343,-19.1345,3659.0479],[-68.0308,-19.1246,3659.1377],[-68.0216,-19.1217,3659.45]]]]}}