{"type":"Feature","properties":{"GID_2":"BOL.7.5_2","GID_0":"BOL","country":"Bolivia","GID_1":"BOL.7_1","province":"Potosí","NL_NAME_1":"NA","county":"CornelioSaavedra","VARNAME_2":"Saavedra","NL_NAME_2":"NA","TYPE_2":"Provincia","ENGTYPE_2":"Province","CC_2":"NA","HASC_2":"NA","name":"Cornelio_Saavedra.county"},
"geometry":{"type": "MultiPolygon","coordinates": [[[[-65.4033,-19.6057,3105.5938],[-65.403,-19.603,3108.8252],[-65.4007,-19.6019,3121.542],[-65.3938,-19.6064,3175.8088],[-65.3916,-19.6048,3178.1689],[-65.3865,-19.6106,3223.0132],[-65.3799,-19.6245,3266.9067],[-65.3727,-19.6172,3309.1904],[-65.3671,-19.6189,3318.1567],[-65.3598,-19.6247,3315.4792],[-65.3493,-19.6299,3272.2461],[-65.3336,-19.6424,3263.043],[-65.3173,-19.625,3270.9595],[-65.3185,-19.6213,3255.7009],[-65.282,-19.6165,3351.2671],[-65.2761,-19.6172,3281.512],[-65.2616,-19.6125,3332.9058],[-65.254,-19.6054,3259.1729],[-65.2533,-19.5977,3130.0251],[-65.248,-19.5908,2856.8213],[-65.2499,-19.5887,2824.7336],[-65.2444,-19.5833,2797.9441],[-65.2445,-19.5787,2774.0361],[-65.2426,-19.5783,2785.7031],[-65.242,-19.5749,2748.042],[-65.2229,-19.5576,2672.2251],[-65.2182,-19.5601,2603.6892],[-65.214,-19.5585,2594.594],[-65.2091,-19.5596,2617.5078],[-65.206,-19.5569,2553.7739],[-65.1961,-19.5612,2532.4678],[-65.1905,-19.5665,2464.9988],[-65.184,-19.5652,2564.9624],[-65.1835,-19.5626,2540.8965],[-65.1867,-19.5587,2444.7168],[-65.184,-19.5542,2455.3799],[-65.1794,-19.5534,2486.5234],[-65.177,-19.547,2512.0635],[-65.1798,-19.5437,2429.8535],[-65.1833,-19.547,2437.5566],[-65.186,-19.5457,2497.0107],[-65.1873,-19.5379,2428.2151],[-65.1915,-19.5361,2395.1504],[-65.1924,-19.5283,2386.0967],[-65.1873,-19.5283,2418.9849],[-65.1881,-19.5263,2441.3538],[-65.1859,-19.523,2614.0386],[-65.181,-19.5206,2879.3762],[-65.1784,-19.5169,3085.4685],[-65.1588,-19.5122,3338.0464],[-65.1398,-19.515,3531.5405],[-65.1372,-19.5176,3518.7261],[-65.1344,-19.5235,3477.3867],[-65.133,-19.5357,3534.2278],[-65.1292,-19.5398,3635.7085],[-65.1308,-19.5419,3635.4226],[-65.1227,-19.5542,3722.7898],[-65.11,-19.5371,3146.6787],[-65.1141,-19.5355,3164.9863],[-65.1101,-19.5283,3066.9712],[-65.1107,-19.5269,3045.6978],[-65.1022,-19.5274,3348.0959],[-65.1003,-19.529,3386.5032],[-65.0827,-19.5257,3969.9893],[-65.0771,-19.5285,4071.2849],[-65.0779,-19.5416,4075.8525],[-65.0737,-19.5446,4050.2764],[-65.0746,-19.5584,4037.0415],[-65.0716,-19.5619,4058.2617],[-65.0588,-19.6083,4059.6067],[-65.0591,-19.624,4207.5791],[-65.0546,-19.625,4152.5967],[-65.0435,-19.6199,4078.9502],[-65.0326,-19.6169,3879.8003],[-65.03,-19.6178,3860.4805],[-65.0279,-19.6146,3836.1418],[-65.0249,-19.6145,3814.3401],[-65.023,-19.6164,3672.5659],[-65.0177,-19.615,3606.0845],[-65.0117,-19.6171,3494.1223],[-65.0073,-19.6232,3307.2847],[-65.0027,-19.6184,3575.5388],[-64.994,-19.6247,3558.1292],[-64.9888,-19.6144,3308.9502],[-64.9865,-19.6158,3307.7148],[-64.9853,-19.6207,3362.4365],[-64.9861,-19.6277,3448.2253],[-64.9824,-19.6316,3500.3723],[-64.9797,-19.6271,3522.647],[-64.9671,-19.6193,3986.6992],[-64.9637,-19.6106,3960.4331],[-64.9665,-19.6001,4022.6116],[-64.9655,-19.5955,4021.1445],[-64.9701,-19.5823,3875.3892],[-64.9713,-19.5693,3855.0935],[-64.9653,-19.569,3853.7935],[-64.9559,-19.5599,3754.0229],[-64.9513,-19.561,3647.8169],[-64.9387,-19.5592,3723.4421],[-64.9368,-19.5558,3802.3892],[-64.929,-19.5584,3677.4924],[-64.9236,-19.5579,3610.3621],[-64.9173,-19.5513,3428.5664],[-64.9122,-19.5495,3251.8315],[-64.8985,-19.5302,2545.6069],[-64.8942,-19.5307,2482.5967],[-64.8912,-19.5289,2391.957],[-64.8922,-19.5197,2341.3296],[-64.891,-19.5151,2306.4358],[-64.8938,-19.501,2225.9985],[-64.893,-19.4932,2178.7134],[-64.8814,-19.4901,2109.4424],[-64.8759,-19.4811,2084.4468],[-64.8625,-19.4866,2046.8972],[-64.8552,-19.4809,2050.1877],[-64.8503,-19.4802,2017.3464],[-64.8482,-19.4773,2007.8442],[-64.8445,-19.4768,2005.1014],[-64.8407,-19.4713,1992.538],[-64.8369,-19.4695,1984.9146],[-64.8412,-19.4598,1987.8163],[-64.8403,-19.4551,1993.2524],[-64.8454,-19.4488,1993.0503],[-64.8487,-19.4333,1998.249],[-64.8518,-19.4288,2002.3387],[-64.85,-19.4229,2004.0898],[-64.8551,-19.4203,2006.5182],[-64.852,-19.4116,2009.6785],[-64.854,-19.4092,2013.1595],[-64.8657,-19.4063,2092.0315],[-64.8782,-19.3973,2036.8706],[-64.8893,-19.4022,2028.7224],[-64.8956,-19.3996,2029.8103],[-64.8976,-19.3921,2033.8276],[-64.8934,-19.3842,2038.3706],[-64.8935,-19.3801,2042.0404],[-64.8991,-19.3747,2044.7688],[-64.9098,-19.3702,2051.3027],[-64.9118,-19.3656,2053.8105],[-64.9114,-19.3575,2060.6995],[-64.9133,-19.3544,2068.0342],[-64.9182,-19.3566,2070.0952],[-64.9211,-19.3617,2063.6465],[-64.9293,-19.3627,2067.5198],[-64.9369,-19.3603,2070.5491],[-64.9417,-19.3567,2074.0588],[-64.9474,-19.3585,2075.7817],[-64.9588,-19.3562,2082.4536],[-64.9621,-19.3515,2085.0381],[-64.9704,-19.3468,2089.9685],[-64.9885,-19.3527,2099.4736],[-65.0041,-19.352,2111.1743],[-65.0158,-19.3569,2118.4124],[-65.0256,-19.3678,2127.4197],[-65.0368,-19.3696,2136.8943],[-65.0379,-19.3744,2182.9651],[-65.0443,-19.3773,2143.2754],[-65.044,-19.3813,2186.3455],[-65.0546,-19.3857,2161.3926],[-65.0661,-19.3842,2167.2881],[-65.0712,-19.379,2187.0073],[-65.0817,-19.376,2271.2861],[-65.0822,-19.3711,2189.7349],[-65.0882,-19.3668,2191.9075],[-65.1022,-19.3731,2191.061],[-65.1104,-19.3733,2180.1309],[-65.1146,-19.3751,2192.1482],[-65.1219,-19.3741,2198.6995],[-65.1263,-19.3757,2191.2295],[-65.1318,-19.3745,2214.1709],[-65.141,-19.3781,2201.8481],[-65.1484,-19.3756,2215.2292],[-65.1532,-19.3759,2205.8167],[-65.1583,-19.3709,2207.009],[-65.1643,-19.3693,2210.8691],[-65.1668,-19.3629,2226.6221],[-65.175,-19.3557,2236.9968],[-65.1869,-19.3566,2224.2922],[-65.199,-19.3521,2232.7314],[-65.2009,-19.3496,2233.9844],[-65.2084,-19.3457,2238.5754],[-65.2151,-19.3439,2245.127],[-65.2211,-19.3376,2260.272],[-65.222,-19.3293,2253.9768],[-65.2307,-19.3205,2261.645],[-65.2374,-19.3207,2264.4541],[-65.2417,-19.3184,2267.8213],[-65.2468,-19.3183,2271.6421],[-65.2539,-19.3144,2275.6885],[-65.2605,-19.3159,2281.1021],[-65.2647,-19.3151,2298.9866],[-65.2869,-19.3081,2304.0715],[-65.2946,-19.3085,2306.4736],[-65.301,-19.306,2311.6138],[-65.3104,-19.3062,2318.8447],[-65.3166,-19.3013,2323.6921],[-65.324,-19.2815,2343.522],[-65.3304,-19.2714,2355.2339],[-65.3386,-19.2711,2364.7354],[-65.3412,-19.2676,2368.7781],[-65.3453,-19.2671,2369.8853],[-65.3477,-19.265,2371.8745],[-65.3524,-19.2653,2374.2778],[-65.3611,-19.2628,2404.2793],[-65.3698,-19.2556,2397.4089],[-65.3728,-19.2469,2426.1362],[-65.3721,-19.2406,2435.2756],[-65.3796,-19.2323,2461.229],[-65.3831,-19.2261,2438.6387],[-65.3848,-19.2174,2449.4465],[-65.3933,-19.2037,2580.145],[-65.3886,-19.1914,2561.3887],[-65.3902,-19.1831,2518.5002],[-65.3896,-19.1767,2491.7451],[-65.4009,-19.161,2503.3757],[-65.4062,-19.1438,2592.9272],[-65.4106,-19.1406,2530.8875],[-65.4183,-19.1418,2540.4023],[-65.4249,-19.1376,2573.5396],[-65.4298,-19.1389,2571.6387],[-65.4314,-19.1374,2608.6145],[-65.4392,-19.1368,2575.0327],[-65.45,-19.1321,2589.77],[-65.4566,-19.1241,2578.4338],[-65.4699,-19.1226,2606.5259],[-65.4742,-19.1179,2650.8196],[-65.4783,-19.11,2610.3435],[-65.4845,-19.1042,2650.1956],[-65.487,-19.0964,2632.157],[-65.4967,-19.0892,2644.7886],[-65.5047,-19.0874,2675.29],[-65.5057,-19.0912,2834.657],[-65.5127,-19.0919,2722.7134],[-65.5177,-19.0964,2734.8066],[-65.522,-19.0939,3089.2],[-65.5219,-19.0919,3301.4326],[-65.528,-19.0862,3313.5127],[-65.5371,-19.087,3589.2112],[-65.546,-19.0818,3866.4858],[-65.5486,-19.0723,3915.3994],[-65.553,-19.0658,4014.5356],[-65.5574,-19.0646,4014.7822],[-65.5586,-19.0625,4101.5083],[-65.5572,-19.0608,4075.146],[-65.558,-19.0513,4024.5735],[-65.5609,-19.0427,3851.3345],[-65.567,-19.0324,3399.5759],[-65.5675,-19.0241,3799.3499],[-65.5836,-19.0056,3990.9253],[-65.5881,-18.9955,4028.3008],[-65.5915,-18.9938,4057.0615],[-65.6003,-18.9942,3764.4363],[-65.6023,-18.9953,3688.6877],[-65.603,-19.0041,3628.4778],[-65.605,-19.0061,3623.6938],[-65.6084,-19.0043,3663.2205],[-65.6171,-19.0138,3694.9175],[-65.6241,-19.014,3732.7061],[-65.6289,-19.0109,3862.7163],[-65.6499,-19.0133,4168.2334],[-65.6595,-19.0334,3516.02],[-65.656,-19.0401,3467.9795],[-65.6558,-19.0456,3346.2434],[-65.6519,-19.0507,3300.3438],[-65.6491,-19.063,3239.6602],[-65.6497,-19.0737,3169.3718],[-65.653,-19.0768,3108.8398],[-65.6512,-19.0833,3155.1462],[-65.6575,-19.0917,3035.9688],[-65.6579,-19.0962,2999.314],[-65.6502,-19.1085,2944.4346],[-65.6477,-19.1194,2919.4282],[-65.6495,-19.124,2928.0991],[-65.6519,-19.1242,2964.188],[-65.6546,-19.1276,2926.4756],[-65.6527,-19.1313,2931.2803],[-65.6561,-19.1341,2923.7988],[-65.6548,-19.1389,2937.5168],[-65.6562,-19.1459,2933.1023],[-65.6698,-19.1691,3005.7522],[-65.6707,-19.1758,2968.5344],[-65.6827,-19.1672,3437.7754],[-65.6921,-19.1631,3635.3735],[-65.6978,-19.1715,3439.5784],[-65.7066,-19.1778,3135.3037],[-65.6999,-19.1964,3027.95],[-65.7043,-19.2131,3242.6633],[-65.7033,-19.2203,3501.7805],[-65.7048,-19.2303,3548.3833],[-65.6969,-19.2371,3923.5903],[-65.6967,-19.24,3855.7542],[-65.6918,-19.2415,4029.5242],[-65.6882,-19.2446,4059.0076],[-65.6903,-19.2522,3789.658],[-65.693,-19.2558,3598.3889],[-65.698,-19.2793,3879.1548],[-65.6931,-19.2883,3862.1619],[-65.69,-19.3019,3928.2119],[-65.6907,-19.3108,3906.9106],[-65.6819,-19.327,4042.4824],[-65.6718,-19.3407,4097.8438],[-65.6727,-19.3511,4081.3535],[-65.6658,-19.3581,4162.5991],[-65.6621,-19.3581,4166.7603],[-65.6614,-19.3543,4200.751],[-65.6587,-19.352,4117.7568],[-65.6617,-19.3369,4130.4175],[-65.6584,-19.3217,4091.6987],[-65.6553,-19.3164,4068.533],[-65.6475,-19.3103,3850.4321],[-65.6393,-19.3144,3885.8069],[-65.6307,-19.3144,4098.3223],[-65.6262,-19.3176,4207.0327],[-65.623,-19.3172,4257.0884],[-65.6188,-19.3216,4295.4692],[-65.6061,-19.3259,4391.1084],[-65.606,-19.3217,4346.8271],[-65.5975,-19.3203,4150.2681],[-65.5878,-19.321,4365.3145],[-65.5792,-19.3316,4371.2461],[-65.5757,-19.3402,4490.5449],[-65.5675,-19.344,4433.1528],[-65.5676,-19.3465,4401.2915],[-65.5645,-19.3493,4422.752],[-65.563,-19.3544,4492.0186],[-65.557,-19.3569,4526.5781],[-65.5567,-19.3615,4468.1968],[-65.5542,-19.3638,4466.167],[-65.5541,-19.3672,4426.6606],[-65.5514,-19.369,4447.1118],[-65.5495,-19.3827,4546.7822],[-65.547,-19.3872,4571.7896],[-65.5517,-19.4159,4012.4236],[-65.549,-19.4265,4075.2083],[-65.5458,-19.4307,3872.4883],[-65.5339,-19.4345,3782.2449],[-65.5279,-19.4402,3634.6328],[-65.5271,-19.4448,3571.1443],[-65.5299,-19.4446,3591.5107],[-65.5354,-19.4484,3616.0667],[-65.5381,-19.4539,3646.2249],[-65.5433,-19.4591,3668.9519],[-65.5481,-19.4583,3695.189],[-65.5525,-19.4612,3736.8652],[-65.5569,-19.4613,3756.7588],[-65.564,-19.4642,3870.499],[-65.5782,-19.4652,4143.5557],[-65.5799,-19.4688,4083.1509],[-65.5789,-19.472,4059.4285],[-65.5925,-19.4783,3756.7104],[-65.5967,-19.4855,3659.3438],[-65.5989,-19.4977,3583.8794],[-65.6113,-19.4982,3555.8794],[-65.6123,-19.5059,3605.2524],[-65.5929,-19.5208,3551.5544],[-65.5997,-19.5287,3588.2393],[-65.602,-19.5261,3640.001],[-65.6079,-19.5273,3641.0625],[-65.6125,-19.5302,3662.7998],[-65.6183,-19.5379,3720.1143],[-65.6357,-19.5431,3855.2415],[-65.6428,-19.556,4107.8174],[-65.6491,-19.5618,4403.9648],[-65.6543,-19.5693,4586.1113],[-65.6516,-19.574,4622.8911],[-65.6531,-19.5786,4660.7148],[-65.6496,-19.5813,4688.4424],[-65.6516,-19.5859,4642.0288],[-65.6511,-19.595,4707.3037],[-65.6529,-19.6002,4806.938],[-65.6623,-19.6118,4908.5781],[-65.6676,-19.6116,4835.1777],[-65.6734,-19.6155,4902.1133],[-65.6748,-19.6202,4913.5527],[-65.6715,-19.6313,4880.895],[-65.6637,-19.6334,4948.4956],[-65.6635,-19.6434,4828.374],[-65.6591,-19.6479,4771.5098],[-65.6554,-19.6555,4865.1089],[-65.6567,-19.6583,4833.3682],[-65.656,-19.6649,4941.7847],[-65.6625,-19.6655,4819.4365],[-65.6642,-19.6727,4834.9297],[-65.6649,-19.684,4838.4941],[-65.6631,-19.6884,4839.3945],[-65.6654,-19.6934,4787.644],[-65.6635,-19.6996,4801.9131],[-65.661,-19.7047,4880.3877],[-65.6496,-19.7081,4790.793],[-65.6379,-19.7142,4723.6104],[-65.6097,-19.7194,4519.7158],[-65.606,-19.7219,4497.2881],[-65.5944,-19.7146,4375.0317],[-65.5869,-19.7144,4457.1133],[-65.5849,-19.7126,4486.6963],[-65.561,-19.7076,3917.1396],[-65.5536,-19.7074,3722.8379],[-65.5506,-19.7097,3700.7964],[-65.5413,-19.7094,3570.0303],[-65.5208,-19.7008,3378.7869],[-65.5184,-19.7005,3351.5972],[-65.5173,-19.7029,3310.1897],[-65.5038,-19.6947,3228.4099],[-65.4973,-19.6951,3222.8071],[-65.4948,-19.6991,3206.6479],[-65.4911,-19.6993,3198.3149],[-65.4886,-19.6959,3170.1272],[-65.4827,-19.6939,3171.583],[-65.4823,-19.6925,3162.9866],[-65.4757,-19.6941,3172.3179],[-65.4751,-19.7003,3201.1289],[-65.4781,-19.6988,3153.7871],[-65.4794,-19.7005,3152.7107],[-65.4771,-19.7069,3174.1375],[-65.4636,-19.708,3237.4377],[-65.4591,-19.7113,3250.3242],[-65.45,-19.6992,3367.3074],[-65.4385,-19.6922,3617.2793],[-65.431,-19.7004,3387.0144],[-65.4316,-19.713,3189.9094],[-65.4275,-19.7193,3134.6648],[-65.4281,-19.7259,3300.8411],[-65.4254,-19.7352,3303.1348],[-65.4207,-19.7308,3021.1401],[-65.417,-19.7303,2986.1968],[-65.4149,-19.7266,2959.915],[-65.415,-19.7208,2967.3848],[-65.4184,-19.7149,2971.7859],[-65.416,-19.708,2984.627],[-65.4171,-19.7024,2996.1411],[-65.4149,-19.6848,2998.6907],[-65.4185,-19.67,3011.3018],[-65.4054,-19.6636,3209.552],[-65.3847,-19.6619,3483.5933],[-65.384,-19.6506,3367.948],[-65.4005,-19.6385,3118.5088],[-65.4056,-19.6307,3101.3843],[-65.4078,-19.6306,3067.3005],[-65.4061,-19.6264,3100.3804],[-65.4049,-19.6088,3099.6191],[-65.4033,-19.6057,3105.5938]]]]}}