{"type":"Feature","properties":{"ISO3166-1-Alpha-3":"BOL","country":"Bolivia","fill":"#F0F","id":"1937","name":"Oruro"},
"geometry":{"type": "Polygon","coordinates": [[[-66.98994,-17.55128,4161.1851],[-67.01309,-17.5304,4291.3291],[-67.01639,-17.52601,4345.2686],[-67.04042,-17.49955,4515.7886],[-67.05712,-17.47625,4414.8779],[-67.07027,-17.44886,4196.2769],[-67.0767,-17.43837,4152.1875],[-67.08373,-17.42922,4086.927],[-67.092,-17.42069,4005.2],[-67.10642,-17.40927,4159.8345],[-67.11282,-17.40612,4148.4414],[-67.12008,-17.40338,4116.2256],[-67.13262,-17.40106,4326.3613],[-67.14181,-17.40038,4330.7178],[-67.15081,-17.401,4280.4771],[-67.28118,-17.43713,3995.554],[-67.30245,-17.44514,4157.6006],[-67.4205,-17.5118,3889.7026],[-67.54254,-17.59588,3722.7302],[-67.56652,-17.61376,3722.3213],[-67.73204,-17.71287,3723.7708],[-67.751,-17.72672,3724.7605],[-67.75464,-17.73199,3724.9258],[-67.75586,-17.73866,3724.3862],[-67.75449,-17.75287,3725.0203],[-67.75196,-17.76129,3724.7522],[-67.74875,-17.76811,3724.186],[-67.73922,-17.78295,3722.8413],[-67.73328,-17.79669,3721.1577],[-67.73219,-17.8015,3720.9348],[-67.73193,-17.8078,3720.9109],[-67.73263,-17.81421,3720.6345],[-67.73568,-17.82454,3719.3809],[-67.73852,-17.83157,3719.3523],[-67.7439,-17.84191,3718.8425],[-67.75085,-17.84935,3719.033],[-67.77216,-17.86263,3721.1438],[-67.78565,-17.86475,3723.0703],[-67.79803,-17.86382,3724.2578],[-67.80384,-17.86248,3725.7688],[-67.80932,-17.86036,3727.0032],[-68.00577,-17.71845,3881.3071],[-68.02791,-17.70853,3862.4707],[-68.06098,-17.69737,3964.1382],[-68.14049,-17.65903,3956.9946],[-68.17036,-17.64998,3944.6838],[-68.32686,-17.64352,3924.1704],[-68.44662,-17.65236,3826.7998],[-68.47966,-17.66099,3857.906],[-68.54235,-17.68838,3891.906],[-68.55209,-17.69479,3899.4148],[-68.60803,-17.7399,4131.0986],[-68.6964,-17.84713,4064.2275],[-68.73177,-17.87844,4052.6458],[-68.8168,-17.94035,4291.0234],[-68.8677,-17.96676,4765.5596],[-68.99932,-18.00117,5170.5381],[-69.07203,-18.03606,5518.1196],[-69.08228,-18.03908,5390.623],[-69.08172,-18.03998,5402.5557],[-69.08921,-18.08308,5044.0942],[-69.12593,-18.11109,5334.7588],[-69.15544,-18.14024,5185.0547],[-69.1412,-18.18685,5175.5078],[-69.11066,-18.21796,4566.1816],[-69.10035,-18.23429,4692.6094],[-69.09694,-18.25754,4724.8818],[-69.09684,-18.26798,4684.5581],[-69.09575,-18.27676,4623.6548],[-69.08102,-18.31914,4775.6533],[-69.07929,-18.32803,4894.0938],[-69.08188,-18.38249,4912.3721],[-69.07782,-18.39882,5079.1738],[-69.0417,-18.45774,4897.7246],[-69.03439,-18.4783,4662.4883],[-69.0349,-18.50104,4535.2705],[-69.04165,-18.54889,4305.2651],[-69.04284,-18.60047,4180.0728],[-69.03384,-18.64945,4274.2207],[-69.01015,-18.68976,4411.8726],[-69.00348,-18.70268,4510.3906],[-69.00111,-18.71622,4664.7109],[-69.00317,-18.72955,4671.5942],[-69.01054,-18.74299,4749.4678],[-69.01067,-18.74371,4749.4678],[-69.01054,-18.74454,4749.4678],[-69.01015,-18.74526,4722.4287],[-68.95465,-18.85699,4446.228],[-68.95145,-18.86732,4465.2363],[-68.95178,-18.88934,4468.8564],[-68.95984,-18.90784,4309.1201],[-68.98961,-18.94649,4604.981],[-68.97398,-18.95621,4616.6353],[-68.9617,-18.96944,4418.6602],[-68.94315,-19.00116,4283.2368],[-68.91969,-19.05377,4266.5068],[-68.9085,-19.06793,4235.8398],[-68.89478,-19.07651,4217.8516],[-68.84737,-19.09201,4309.1909],[-68.81541,-19.1133,5358.2007],[-68.72125,-19.19175,4450.8066],[-68.69846,-19.21562,4106.2437],[-68.66332,-19.2736,3720.7732],[-68.63573,-19.29055,3707.1177],[-68.60007,-19.30337,3680.3711],[-68.4932,-19.37696,3662.0183],[-68.47259,-19.39546,3696.1743],[-68.45502,-19.4154,3921.4058],[-68.44763,-19.43463,4017.4702],[-68.4561,-19.44124,4025.1199],[-68.49636,-19.4584,3802.2498],[-68.51021,-19.47163,3796.6499],[-68.53212,-19.50088,4039.4751],[-68.53212,-19.50098,4039.4751],[-68.57674,-19.56461,4037.46],[-68.57245,-19.56656,4134.0068],[-68.28929,-19.66355,3680.5156],[-67.83193,-19.80789,3746.478],[-67.73961,-19.82494,3733.9333],[-67.68746,-19.82602,4093.0229],[-67.55189,-19.78236,3653.5],[-67.24108,-19.6557,3660.2656],[-66.93604,-19.53075,3768.001],[-66.72812,-19.4415,4102.6528],[-66.68851,-19.42011,4289.9609],[-66.61577,-19.36765,4373.0859],[-66.49578,-19.26353,4677.2959],[-66.45392,-19.24151,4392.1431],[-66.43007,-19.23288,4406.813],[-66.21939,-19.21846,3975.4307],[-66.0971,-19.20906,4110.853],[-66.06769,-19.20363,4012.4812],[-66.05599,-19.19867,4029.394],[-66.04617,-19.19154,4219.0459],[-66.04175,-19.1827,4298.248],[-66.04059,-19.17289,4247.9141],[-66.05857,-19.14085,3818.1543],[-66.13273,-19.0593,4046.9614],[-66.18213,-18.99584,3968.7668],[-66.2205,-18.92634,4013.5278],[-66.22272,-18.92096,3989.2261],[-66.2675,-18.78785,3529.1782],[-66.27285,-18.77735,3790.9487],[-66.2846,-18.76573,3907.6943],[-66.29944,-18.75446,3828.7327],[-66.35065,-18.73488,4098.001],[-66.41413,-18.72878,3908.6201],[-66.50304,-18.69839,3959.8066],[-66.53219,-18.68103,4053.6348],[-66.61608,-18.61814,4653.5879],[-66.6273,-18.60941,4371.8823],[-66.63332,-18.6029,4250.8213],[-66.64125,-18.59101,4177.8872],[-66.67636,-18.51809,4302.5713],[-66.68887,-18.49985,4332.6982],[-66.68949,-18.4983,4316.4351],[-66.69057,-18.49427,4336.543],[-66.6913,-18.48161,4436.1694],[-66.69068,-18.47014,4537.0903],[-66.68047,-18.42575,4433.002],[-66.67879,-18.4135,4498.4326],[-66.67833,-18.39696,4292.4326],[-66.68037,-18.36405,4189.7598],[-66.67983,-18.358,4182.8174],[-66.67574,-18.35128,4164.7812],[-66.66528,-18.34203,4175.6528],[-66.6437,-18.33185,4348.7495],[-66.61864,-18.31604,4157.8506],[-66.57355,-18.29501,4048.3486],[-66.54461,-18.27718,3879.8225],[-66.52162,-18.25263,3377.4536],[-66.54469,-18.24591,3403.6616],[-66.56629,-18.24622,3666.5508],[-66.5759,-18.24452,3855.6802],[-66.59668,-18.23677,3788.7085],[-66.60722,-18.2346,3987.4014],[-66.63363,-18.23491,4038.0470999999998],[-66.65972,-18.23956,4135.1406],[-66.67238,-18.24007,4217.9946],[-66.68458,-18.23739,4190.8696],[-66.71845,-18.22307,4388.1631],[-66.7283,-18.2162,4388.5098],[-66.73623,-18.20819,4319.4463],[-66.74228,-18.19765,4426.0718],[-66.74654,-18.18525,4528.3105],[-66.74835,-18.16266,4618.2144],[-66.7421,-18.07001,4065.2495],[-66.73476,-18.05394,4150.5],[-66.66631,-18.03285,4064.1135],[-66.65417,-18.02727,4037.2556],[-66.64308,-18.01967,4039.0701],[-66.63316,-18.01084,4101.0552],[-66.62492,-17.99125,4032.4106],[-66.68047,-17.86397,4272.8452],[-66.75631,-17.75122,3905.6685],[-66.80835,-17.68791,4222.085],[-66.82607,-17.67117,4353.7998],[-66.98994,-17.55128,4161.1851]]]}}