{"type": "Feature","bbox": [-69.1423,-19.8867,-66.0861,-17.324],"geometry": {"type": "MultiPolygon","coordinates": [[[[-67.528,-19.8605,3662.7734],[-67.5299,-19.86,3662.7734],[-67.5306,-19.8601,3653.5],[-67.5295,-19.8602,3662.7734],[-67.5318,-19.8651,3653.5],[-67.531,-19.8667,3653.5],[-67.5292,-19.8622,3680.8408],[-67.5254,-19.8616,3653.5],[-67.528,-19.8605,3662.7734]]],
[[[-67.2111,-19.4462,3847.2566],[-67.1923,-19.4496,3827.4937],[-67.1806,-19.4448,3794.7625],[-67.1727,-19.4435,3802.9673],[-67.162,-19.4386,3898.1399],[-67.1434,-19.4204,3837.8079],[-67.1097,-19.412,3741.8657],[-67.1058,-19.4064,3734.0588],[-67.1013,-19.3948,3724.3088],[-67.0892,-19.3756,3726.9185],[-67.0855,-19.3582,3725.334],[-67.0808,-19.356,3725.4141],[-67.0746,-19.3603,3724.074],[-67.0672,-19.3727,3725.7864],[-67.0637,-19.3744,3727.335],[-67.0595,-19.3741,3726.5615],[-67.0586,-19.3709,3726.5405],[-67.0551,-19.3697,3726.781],[-67.0506,-19.3778,3728.0112],[-67.0437,-19.381,3729.0371],[-67.0416,-19.3808,3728.9419],[-67.0352,-19.3738,3738.2271],[-67.0238,-19.3693,4035.6799],[-67.0188,-19.3688,3755.3005],[-67.0131,-19.3708,3745.6729],[-66.9992,-19.3805,3728.29],[-66.9954,-19.3795,3732.7793],[-66.9865,-19.3735,3733.0439],[-66.9803,-19.3719,3731.0166],[-66.9601,-19.368,3728.7595],[-66.9522,-19.3696,3731.502],[-66.9482,-19.3727,3733.9434],[-66.948,-19.3774,3737.459],[-66.9396,-19.3783,3743.2993],[-66.9373,-19.3821,3744.2251],[-66.927,-19.3887,3755.1289],[-66.923,-19.3934,3762.9658],[-66.914,-19.3977,3843.8928],[-66.9011,-19.4077,3764.6353],[-66.8917,-19.4096,3748.9146],[-66.886,-19.4134,3751.9927],[-66.8817,-19.4136,3747.4199],[-66.8809,-19.422,3747.521],[-66.8772,-19.4243,3754.6091],[-66.877,-19.4274,3749.0723],[-66.8734,-19.4303,3749.9927],[-66.8732,-19.4335,3750.8298],[-66.8703,-19.4375,3751.7578],[-66.8641,-19.439,3753.0791],[-66.8566,-19.4474,3755.2358],[-66.8494,-19.4477,3760.6655],[-66.8452,-19.4547,3759.6355],[-66.8351,-19.4551,3760.8281],[-66.8231,-19.455,3763.9966],[-66.8144,-19.4494,3765.9175],[-66.8065,-19.4499,3800.4998],[-66.8023,-19.4472,3773.822],[-66.802,-19.4429,3790.4475],[-66.7966,-19.4418,3805.2349],[-66.7932,-19.4364,3787.9966],[-66.7901,-19.436,3794.8018],[-66.7881,-19.4335,3789.51],[-66.7696,-19.4297,3819.6313],[-66.7616,-19.43,3854.376],[-66.7546,-19.4274,3858.7793],[-66.7521,-19.4273,3876.4966],[-66.7533,-19.4314,3893.771],[-66.7503,-19.4369,3960.2917],[-66.7452,-19.4355,3998.7275],[-66.7413,-19.4369,4067.1545],[-66.7349,-19.4293,4136.3877],[-66.7318,-19.4299,4088.9014],[-66.7264,-19.4373,4030.8196],[-66.7173,-19.4409,4125.2246],[-66.7089,-19.4463,4039.0518],[-66.6998,-19.4484,4126.4453],[-66.68,-19.4444,4166.854],[-66.669,-19.4342,4178.9854],[-66.6621,-19.4302,4203.5562],[-66.6588,-19.4305,4300.8691],[-66.6577,-19.4326,4316.6523],[-66.6391,-19.4273,4425.1968],[-66.6214,-19.4256,4497.9229],[-66.6029,-19.4277,4656.6069],[-66.5906,-19.4262,4735.5205],[-66.584,-19.421,4833.7314],[-66.5756,-19.4013,5164.2837],[-66.5635,-19.3987,4864.1899],[-66.5573,-19.3956,4862.2568],[-66.5458,-19.3862,4982.1992],[-66.5021,-19.3599,4617.4473],[-66.4603,-19.3808,4609.7236],[-66.4291,-19.4063,4906.3823],[-66.3903,-19.4576,4641.3975],[-66.3569,-19.4537,4624.125],[-66.3358,-19.4154,4542.4893],[-66.304,-19.3706,4552.2876],[-66.2843,-19.3286,4394.2095],[-66.2766,-19.3171,4350.8276],[-66.2711,-19.3141,4343.6543],[-66.2721,-19.3032,4420.1533],[-66.27,-19.2986,4525.1763],[-66.2624,-19.3015,4551.6172],[-66.2574,-19.3003,4611.4004],[-66.2291,-19.2862,4289.2261],[-66.2228,-19.2743,4049.8394],[-66.2213,-19.2621,3897.0625],[-66.2171,-19.2565,4084.6792],[-66.2018,-19.2528,4099.668],[-66.1889,-19.2421,4009.5112],[-66.1788,-19.2418,3858.9014],[-66.1718,-19.2377,3832.689],[-66.1645,-19.2364,3773.9136],[-66.1614,-19.2337,3792.6433],[-66.153,-19.2341,3828.386],[-66.1507,-19.2389,3881.4436],[-66.146,-19.2394,3920.2598],[-66.1391,-19.2453,4014.0442],[-66.1301,-19.2456,4130.127],[-66.13,-19.2431,4152.3511],[-66.1253,-19.2373,4234.415],[-66.1295,-19.2226,4246.3506],[-66.1291,-19.2189,4249.8008],[-66.1256,-19.2156,4298.7275],[-66.1242,-19.2083,4277.291],[-66.1189,-19.1969,4234.6455],[-66.1141,-19.1902,4226.4951],[-66.1041,-19.1812,4048.967],[-66.1007,-19.1745,4113.6016],[-66.1127,-19.157,4180.8809],[-66.1127,-19.15,4123.188],[-66.103,-19.14,4163.5439],[-66.099,-19.1291,4453.6294],[-66.1028,-19.1208,4595.9414],[-66.0956,-19.1089,4275.8066],[-66.0914,-19.1039,4182.6768],[-66.0872,-19.1034,4165.6958],[-66.0861,-19.0998,4179.8813],[-66.0908,-19.0923,4408.6416],[-66.093,-19.0851,4475.5161],[-66.102,-19.0859,4576.8496],[-66.106,-19.0847,4612.3916],[-66.1063,-19.0765,4502.6211],[-66.1148,-19.0703,4437.6611],[-66.1204,-19.0618,4236.5659],[-66.125,-19.0593,4167.9087],[-66.13,-19.0536,4066.6831],[-66.1353,-19.0541,3865.0273],[-66.1529,-19.0307,4063.0029],[-66.1719,-19.0199,4043.5815],[-66.1762,-19.0207,4041.8696],[-66.1791,-18.9906,3947.666],[-66.1811,-18.9866,3918.2729],[-66.1839,-18.9849,3916.7087],[-66.1839,-18.9822,3935.7366],[-66.1882,-18.9827,3949.7876],[-66.1934,-18.9867,4011.5898],[-66.1983,-18.987,4063.3665],[-66.2034,-18.9909,4100.8535],[-66.2123,-18.9946,4263.9487],[-66.2152,-18.9938,4326.8965],[-66.2214,-18.996,4407.1777],[-66.2252,-18.9942,4473.8281],[-66.2281,-18.9949,4511.0254],[-66.2415,-19.0052,4568.0444],[-66.2485,-19.0082,4478.229],[-66.2689,-19.0089,4650.1245],[-66.2817,-19.0148,4744.6738],[-66.2951,-18.9961,4714.6074],[-66.3017,-18.9906,4741.4399],[-66.2985,-18.9707,4794.8896],[-66.3017,-18.9478,4685.5591],[-66.3018,-18.9333,4680.2373],[-66.3132,-18.9217,4619.1621],[-66.3113,-18.9096,4635.6919],[-66.3158,-18.8991,4505.7051],[-66.3201,-18.8959,4453.0981],[-66.3221,-18.8848,4435.3218],[-66.3305,-18.8675,4476.4502],[-66.33,-18.8628,4468.748],[-66.3331,-18.8524,4469.6841],[-66.3429,-18.8297,4372.9683],[-66.3417,-18.8231,4407.1743],[-66.3461,-18.81,4264.4717],[-66.3512,-18.8039,4141.1338],[-66.3524,-18.7922,4189.1211],[-66.3572,-18.7805,4098.3281],[-66.3644,-18.7653,4176.5981],[-66.3743,-18.752,4239.5723],[-66.3775,-18.7409,4199.5024],[-66.3923,-18.717,4031.7458],[-66.3982,-18.7128,4062.918],[-66.4101,-18.7124,3863.8887],[-66.4133,-18.7077,3882.5356],[-66.4233,-18.7097,3622.4121],[-66.4235,-18.7078,3559.2886],[-66.428,-18.7042,3539.3267],[-66.4298,-18.7066,3543.4028],[-66.4373,-18.7085,3569.4402],[-66.4422,-18.7017,3571.0151],[-66.446,-18.7044,3592.2573],[-66.4482,-18.7038,3595.689],[-66.4556,-18.7069,3611.4915],[-66.4605,-18.7071,3627.614],[-66.4708,-18.7194,4234.8721],[-66.4749,-18.7315,4357.0049],[-66.4782,-18.7518,4360.9897],[-66.4775,-18.7613,4293.5],[-66.4831,-18.7697,4042.637],[-66.4997,-18.7873,4515.5562],[-66.5025,-18.7881,4567.3506],[-66.5218,-18.7823,4512.1836],[-66.5292,-18.7778,4604.2358],[-66.5321,-18.7737,4521.0894],[-66.5372,-18.7491,4492.8975],[-66.5382,-18.7368,4445.3301],[-66.537,-18.721,4533.8516],[-66.5557,-18.7191,4247.3984],[-66.5621,-18.7167,4179.5527],[-66.5648,-18.7182,4100.3369],[-66.5762,-18.7144,4500.8774],[-66.5764,-18.7075,4558.8379],[-66.5775,-18.706,4566.3921],[-66.5796,-18.7066,4488.0801],[-66.5813,-18.7028,4439.0508],[-66.5886,-18.6958,4159.4561],[-66.5978,-18.6978,4041.2195],[-66.6019,-18.6942,4015.5544],[-66.5949,-18.687,4338.5264],[-66.5959,-18.6842,4334.2622],[-66.5948,-18.679,4142.3428],[-66.5956,-18.6745,4327.1592],[-66.6006,-18.6662,4404.0625],[-66.6052,-18.6668,4302.5234],[-66.6049,-18.6628,4325.7075],[-66.6119,-18.66,4239.7979],[-66.6069,-18.6506,4408.3799],[-66.6179,-18.6456,4246.8149],[-66.6292,-18.6494,4099.9023],[-66.632,-18.6491,4094.0164],[-66.6358,-18.6459,4074.1626],[-66.6442,-18.6303,4103.7812],[-66.6466,-18.6172,4128.8438],[-66.6454,-18.6135,4131.6094],[-66.6407,-18.6118,4222.9009],[-66.6395,-18.5988,4194.6309],[-66.6423,-18.5896,4177.8872],[-66.6499,-18.5781,4158.0283],[-66.6509,-18.573,4157.2339],[-66.6566,-18.5693,4165.3691],[-66.6577,-18.5669,4168.5586],[-66.6568,-18.5532,4184.8179],[-66.6578,-18.5481,4192.9219],[-66.6628,-18.541,4208.5396],[-66.6644,-18.5354,4218.9839],[-66.6631,-18.5329,4223.8398],[-66.6661,-18.5211,4286.9512],[-66.6715,-18.515,4362.626],[-66.6755,-18.5046,4391.541],[-66.6814,-18.5012,4334.8022],[-66.6811,-18.4928,4515.1543],[-66.6841,-18.4743,4563.8486],[-66.6815,-18.4717,4592.6719],[-66.6871,-18.4624,4665.6675],[-66.6976,-18.4356,4376.7388],[-66.7,-18.419,4255.7515],[-66.6972,-18.4084,4288.7935],[-66.6986,-18.4032,4311.8442],[-66.7142,-18.378,4410.1309],[-66.7149,-18.362,4523.9834],[-66.7293,-18.3404,4592.939],[-66.7081,-18.3288,4438.9536],[-66.7029,-18.3235,4398.9536],[-66.6786,-18.3164,4316.6914],[-66.6661,-18.3072,4203.7539],[-66.6614,-18.2956,4165.0225],[-66.644,-18.2935,4136.5308],[-66.6386,-18.2884,4125.2324],[-66.6353,-18.2869,4117.8486],[-66.6273,-18.2873,4112.0327],[-66.6144,-18.2793,4101.9414],[-66.5867,-18.282,4107.1655],[-66.5807,-18.2792,4035.1187],[-66.5685,-18.2793,3917.6067],[-66.5657,-18.2768,3902.6177],[-66.5624,-18.2772,3891.791],[-66.5586,-18.2751,3876.1492],[-66.5541,-18.2767,3875.2776],[-66.5497,-18.2744,3869.6895],[-66.548,-18.2709,3840.8083],[-66.5465,-18.2724,3851.7266],[-66.544,-18.2718,3868.3237],[-66.5441,-18.2657,3836.6973],[-66.5402,-18.2692,3820.0449],[-66.5378,-18.2659,3811.1555],[-66.5346,-18.2666,3814.9072],[-66.5337,-18.2635,3769.8623],[-66.5298,-18.2615,3776.6865],[-66.5282,-18.2493,3392.9373],[-66.5314,-18.2469,3391.9993],[-66.5414,-18.2472,3403.9321],[-66.5448,-18.2442,3419.2458],[-66.5504,-18.2427,3456.7827],[-66.5515,-18.2447,3512.7144],[-66.5527,-18.2433,3483.6621],[-66.559,-18.2436,3466.9919],[-66.5623,-18.2477,3513.731],[-66.5667,-18.2481,3574.6753],[-66.5695,-18.2503,3647.4111],[-66.5784,-18.2466,3648.3755],[-66.5846,-18.2461,3725.2881],[-66.5893,-18.2413,3751.8484],[-66.5978,-18.2362,3797.8711],[-66.6053,-18.2384,3855.2808],[-66.6159,-18.2371,3888.0393],[-66.6218,-18.2384,3940.7432],[-66.6315,-18.2367,3940.0435],[-66.6397,-18.2408,3942.5999],[-66.6443,-18.241,3984.1438],[-66.6523,-18.2388,4058.8809],[-66.656,-18.2357,4063.6809],[-66.6675,-18.2384,4092.3604],[-66.6757,-18.2326,4218.8428],[-66.689,-18.2327,4251.062],[-66.6961,-18.2346,4322.0435],[-66.7217,-18.2451,4152.6831],[-66.7246,-18.2446,4155.7031],[-66.7257,-18.242,4164.2051],[-66.7297,-18.2404,4180.6245],[-66.7462,-18.241,4220.7681],[-66.7487,-18.2326,4277.1138],[-66.7577,-18.2274,4374.5039],[-66.7637,-18.2164,4420.9453],[-66.7629,-18.2087,4490.8193],[-66.7576,-18.2062,4494.7998],[-66.7597,-18.1699,4651.313],[-66.7675,-18.1658,4637.3618],[-66.7728,-18.1603,4623.7744],[-66.7852,-18.1357,4579.4946],[-66.7958,-18.1296,4534.4297],[-66.799,-18.1245,4585.7285],[-66.8157,-18.1113,4616.6479],[-66.818,-18.1019,4439.8911],[-66.8223,-18.0938,4431.4644],[-66.8321,-18.0833,4485.1118],[-66.8329,-18.0615,4725.7852],[-66.8414,-18.0517,4769.9595],[-66.8356,-18.0475,4541.5225],[-66.827,-18.037,4608.7397],[-66.8225,-18.0254,4434.2471],[-66.8012,-18.0037,4403.7559],[-66.7884,-17.9882,4347.0312],[-66.7814,-17.9846,4265.7305],[-66.7482,-17.9529,4148.4463],[-66.7379,-17.9397,4227.7695],[-66.7151,-17.9001,4293.6318],[-66.7134,-17.8937,4267.3892],[-66.7136,-17.8846,4276.4678],[-66.7162,-17.8781,4178.8799],[-66.7225,-17.8701,4048.7878],[-66.7206,-17.8574,4056.1816],[-66.7234,-17.8512,4000.3525],[-66.7227,-17.8476,3976.781],[-66.7308,-17.8405,4086.5874],[-66.7471,-17.8377,4093.7642],[-66.7511,-17.8348,4124.9531],[-66.757,-17.825,4125.4863],[-66.7641,-17.8029,4158.8579],[-66.7708,-17.7933,4133.873],[-66.7761,-17.7914,4167.0879],[-66.772,-17.7818,4365.3906],[-66.7791,-17.7844,4344.8892],[-66.7819,-17.781,4311.7983],[-66.7957,-17.7818,4422.1162],[-66.7967,-17.7767,4384.4238],[-66.8157,-17.7567,4338.1646],[-66.8216,-17.7373,4505.4409],[-66.8345,-17.7264,4499.8955],[-66.8513,-17.7191,4562.6035],[-66.8608,-17.7126,4500.833],[-66.8697,-17.7017,4465.8154],[-66.8714,-17.6925,4550.8281],[-66.8772,-17.6896,4509.8652],[-66.879,-17.6789,4522.9834],[-66.892,-17.6661,4507.3345],[-66.8876,-17.6392,4374.7207],[-66.8833,-17.6333,4449.7617],[-66.8724,-17.6248,4595.7603],[-66.8728,-17.6173,4596.1938],[-66.886,-17.5997,4543.5693],[-66.8999,-17.5905,4576.0781],[-66.9365,-17.6109,4393.3091],[-66.9747,-17.6209,4221.2852],[-67.0068,-17.6319,4296.7876],[-67.0104,-17.6294,4315.5996],[-67.014,-17.6182,4510.1475],[-67.0358,-17.6069,4366.8789],[-67.0414,-17.6023,4394.8516],[-67.051,-17.5877,4384.3311],[-67.0213,-17.539,4504.335],[-67.0198,-17.5281,4428.4678],[-67.0261,-17.5119,4416.5591],[-67.036,-17.5002,4509.915],[-67.0498,-17.4957,4559.7881],[-67.0599,-17.4791,4482.2466],[-67.059,-17.476,4456.6758],[-67.0674,-17.4701,4424.1426],[-67.0774,-17.47,4534.8906],[-67.0842,-17.4647,4470.6128],[-67.0877,-17.466,4404.6836],[-67.1245,-17.4654,4639.4077],[-67.1359,-17.4543,4671.646],[-67.1421,-17.4534,4650.4531],[-67.1509,-17.4494,4647.749],[-67.1566,-17.4413,4635.9253],[-67.1712,-17.4327,4603.2393],[-67.1888,-17.4184,4559.5815],[-67.1913,-17.4139,4476.0254],[-67.1869,-17.4074,4355.5957],[-67.1886,-17.3864,4328.6157],[-67.1873,-17.3791,4283.3433],[-67.1915,-17.3749,4256.7715],[-67.1937,-17.3695,4219.8574],[-67.1996,-17.3658,4257.6729],[-67.1982,-17.3573,4209.6914],[-67.1962,-17.3559,4203.9272],[-67.1968,-17.3516,4211.7129],[-67.194,-17.3486,4211.5884],[-67.1982,-17.3464,4253.1904],[-67.2033,-17.3363,4159.0566],[-67.2155,-17.3351,4141.8193],[-67.2181,-17.3373,4134.603],[-67.223,-17.3322,4134.3745],[-67.2273,-17.3342,4122.3994],[-67.2285,-17.3367,4120.7046],[-67.2328,-17.3353,4114.6582],[-67.2344,-17.3326,4109.626],[-67.2433,-17.3283,4107.4326],[-67.2482,-17.324,4093.4446],[-67.2535,-17.324,4089.4583],[-67.2535,-17.3282,4117.9155],[-67.2567,-17.3325,4181.7578],[-67.2775,-17.3448,4110.1631],[-67.2851,-17.357,4034.8499],[-67.2858,-17.3683,3987.436],[-67.2937,-17.3755,3975.8586],[-67.2943,-17.3805,3961.0391],[-67.2969,-17.3837,3955.5347],[-67.3098,-17.3807,3961.9355],[-67.3134,-17.3838,3983.0273],[-67.3149,-17.3922,4136.125],[-67.3192,-17.395,4357.1621],[-67.3138,-17.4135,4041.2307],[-67.3198,-17.4208,4133.3633],[-67.3216,-17.4252,4297.3989],[-67.3325,-17.4273,4136.0122],[-67.3373,-17.4305,4112.6035],[-67.3401,-17.449,4054.4614],[-67.3417,-17.4504,4050.2803],[-67.3447,-17.4489,4063.5713],[-67.3495,-17.4519,4041.8792],[-67.3666,-17.453,4104.874],[-67.3745,-17.4618,4126.2363],[-67.3771,-17.477,4075.6582],[-67.3758,-17.4906,3988.4888],[-67.3821,-17.5009,4154.1963],[-67.3819,-17.5093,4011.7683],[-67.3876,-17.5166,4107.6348],[-67.3866,-17.52,4170.3208],[-67.3803,-17.5257,4196.2754],[-67.3797,-17.5284,4145.2734],[-67.3816,-17.5312,4185.5317],[-67.3797,-17.5393,4007.1162],[-67.3813,-17.5393,4030.2053],[-67.3908,-17.5488,3969.3267],[-67.3938,-17.5606,4067.8613],[-67.4032,-17.5744,4080.6157],[-67.4127,-17.5713,4071.8296],[-67.4143,-17.5677,4102.7354],[-67.417,-17.5667,4161.3457],[-67.419,-17.5635,4185.8457],[-67.4297,-17.5605,4097.2075],[-67.4304,-17.5576,4068.3403],[-67.4377,-17.5508,4010.1572],[-67.4391,-17.5468,3974.762],[-67.4479,-17.5375,4011.0464],[-67.4486,-17.5334,3970.0625],[-67.4464,-17.5294,3936.7993],[-67.4474,-17.5258,3942.2817],[-67.4644,-17.5119,3869.3691],[-67.4686,-17.5058,3856.635],[-67.4725,-17.5081,3868.3274],[-67.4754,-17.5169,3897.3259],[-67.4818,-17.5214,3960.5537],[-67.4953,-17.5211,4116.3711],[-67.5034,-17.5173,4137.0781],[-67.5054,-17.5182,4128.5186],[-67.5163,-17.5403,3829.3755],[-67.5228,-17.5465,3776.9666],[-67.5203,-17.5509,3758.3181],[-67.5214,-17.5538,3750.9055],[-67.5318,-17.5595,3726.4038],[-67.5474,-17.5769,3722.4016],[-67.5492,-17.5826,3723.5044],[-67.547,-17.5889,3721.8428],[-67.5277,-17.5985,3721.2705],[-67.5307,-17.6103,3722.0745],[-67.5151,-17.6367,3720.6011],[-67.5087,-17.6426,3720.4624],[-67.5083,-17.6503,3719.2664],[-67.5161,-17.6717,3717.0093],[-67.5313,-17.6738,3718.5081],[-67.5582,-17.7035,3719.5164],[-67.5863,-17.7119,3721.23],[-67.5858,-17.7682,3718.5564],[-67.6325,-17.7649,3745.311],[-67.6445,-17.758,3717.9634],[-67.677,-17.7639,3720.55],[-67.6798,-17.7781,3719.8975],[-67.7016,-17.8022,3719.8105],[-67.7076,-17.848,3716.3191],[-67.7322,-17.8596,3717.4666],[-67.7534,-17.8719,3718.1851],[-67.7721,-17.8778,3721.2153],[-67.7905,-17.8806,3723.3855],[-67.797,-17.8767,3724.146],[-67.8077,-17.8732,3727.2061],[-67.8112,-17.8686,3728.1426],[-67.8172,-17.8651,3729.8037],[-67.8179,-17.8627,3729.6997],[-67.8235,-17.8612,3732.385],[-67.823,-17.8598,3732.385],[-67.8274,-17.8537,3736.083],[-67.8267,-17.8517,3735.7612],[-67.8317,-17.8488,3739.4922],[-67.8337,-17.8492,3740.4536],[-67.8482,-17.8294,3762.0112],[-67.8524,-17.8289,3768.0757],[-67.8526,-17.8247,3759.5691],[-67.861,-17.8225,3775.0659],[-67.8605,-17.8143,3753.873],[-67.8639,-17.8148,3770.7598],[-67.8683,-17.8115,3759.3118],[-67.8748,-17.8102,3768.4443],[-67.8849,-17.805,3769.6904],[-67.9024,-17.7911,3818.291],[-67.9263,-17.7829,3846.2393],[-67.9394,-17.774,3853.2051],[-67.9576,-17.7644,3863.7258],[-67.9663,-17.7481,3829.6995],[-67.9652,-17.7377,3814.9053],[-67.969,-17.7327,3808.6284],[-67.9836,-17.7416,3819.4194],[-67.9885,-17.7412,3821.7534],[-67.9954,-17.7381,3829.8176],[-67.9995,-17.7392,3836.1682],[-68.0003,-17.7411,3836.2385],[-68.0164,-17.7328,3878.5669],[-68.0548,-17.7179,3896.0986],[-68.074,-17.7187,3933.6855],[-68.0853,-17.7152,3946.9243],[-68.1001,-17.6991,3919.8857],[-68.1373,-17.6761,4161.8311],[-68.1435,-17.6687,4096.667],[-68.1905,-17.6546,3950.7153],[-68.1905,-17.6581,3908.0442],[-68.1888,-17.6594,3908.0442],[-68.1901,-17.6632,3901.5933],[-68.1983,-17.6648,3884.252],[-68.201,-17.6684,3879.6978],[-68.2006,-17.6706,3875.6467],[-68.2049,-17.6711,3871.3232],[-68.2088,-17.6692,3869.6731],[-68.2123,-17.6634,3866.0022],[-68.2241,-17.6511,3858.9844],[-68.2275,-17.6491,3857.2432],[-68.2378,-17.6476,3852.3499],[-68.2512,-17.6388,3843.25],[-68.256,-17.6382,3842.2231],[-68.2659,-17.6431,3835.7312],[-68.2705,-17.6427,3833.5947],[-68.2764,-17.6286,3826.75],[-68.292,-17.6132,3818.625],[-68.2991,-17.603,3815.3906],[-68.3071,-17.599,3812.7383],[-68.3097,-17.5939,3810.8789],[-68.316,-17.5987,3820.9209],[-68.322,-17.5968,3827.2378],[-68.3219,-17.5984,3831.7456],[-68.3243,-17.5993,3837.4067],[-68.3327,-17.6084,3861.8862],[-68.3481,-17.5935,3897.4868],[-68.3606,-17.5908,3876.5547],[-68.3759,-17.5943,3842.8032],[-68.3841,-17.5996,3856.2317],[-68.3857,-17.6026,3863.6145],[-68.3845,-17.6124,3880.2773],[-68.3858,-17.6166,3890.8298],[-68.3887,-17.6183,3899.6892],[-68.3998,-17.6196,3879.3262],[-68.4062,-17.6244,3855.1714],[-68.4106,-17.6233,3851.9224],[-68.4149,-17.6257,3850.6946],[-68.4154,-17.6292,3851.8608],[-68.4142,-17.6306,3853.5283],[-68.4175,-17.6394,3859.0281],[-68.4356,-17.6601,3877.3586],[-68.436,-17.6676,3832.3196],[-68.4422,-17.6672,3824.3862],[-68.4491,-17.6628,3833.6616],[-68.4526,-17.6626,3858.0015],[-68.458,-17.6684,3843.0371],[-68.4632,-17.6683,3879.1357],[-68.4725,-17.688,3877.4602],[-68.4747,-17.6884,3864.3762],[-68.4782,-17.6846,3880.2595],[-68.4811,-17.684,3884.3677],[-68.4975,-17.6906,3835.1558],[-68.4994,-17.696,3837.0605],[-68.4981,-17.7004,3838.4111],[-68.5047,-17.706,3843.8335],[-68.5097,-17.705,3854.7712],[-68.5134,-17.706,3859.8445],[-68.5216,-17.7015,3865.2104],[-68.5329,-17.7028,3897.1299],[-68.5395,-17.7148,4035.4341],[-68.5385,-17.732,4045.5708],[-68.5436,-17.7595,4053.6899],[-68.5436,-17.7705,4054.0564],[-68.5412,-17.7844,4049.4434],[-68.5438,-17.7891,3967.7183],[-68.5444,-17.7955,4060.4204],[-68.5375,-17.8003,4042.905],[-68.5365,-17.8097,3929.7173],[-68.543,-17.811,3924.0513],[-68.5479,-17.8148,3952.8232],[-68.5594,-17.8196,3969.397],[-68.5683,-17.8157,3950.1548],[-68.5866,-17.8199,3963.4321],[-68.6086,-17.8362,3981.3848],[-68.6151,-17.8369,4012.0117],[-68.6202,-17.8417,4031.5303],[-68.6224,-17.8487,4090.3635],[-68.6337,-17.8535,4128.1475],[-68.6394,-17.8633,4113.4224],[-68.6445,-17.8634,4101.5791],[-68.6489,-17.8675,4092.4751],[-68.662,-17.8693,4092.8081],[-68.669,-17.878,4091.3354],[-68.6811,-17.8777,4070.0889],[-68.6908,-17.88,4060.6777],[-68.6958,-17.8891,4058.4014],[-68.7114,-17.8874,4055.2102],[-68.7211,-17.8901,4054.3225],[-68.7278,-17.8846,4053.7942],[-68.74,-17.8869,4054.1672],[-68.7419,-17.8914,4054.894],[-68.7544,-17.8983,4059.8542],[-68.7583,-17.9029,4062.23],[-68.7594,-17.9056,4064.9897],[-68.7579,-17.9082,4069.8152],[-68.7597,-17.9142,4075.3516],[-68.778,-17.9235,4098.9951],[-68.7846,-17.93,4112.7588],[-68.8065,-17.9271,4224.2607],[-68.8126,-17.9314,4223.6602],[-68.8185,-17.9308,4246.5938],[-68.8299,-17.9347,4356.5957],[-68.8382,-17.9419,4414.0571],[-68.8504,-17.9383,4519.5859],[-68.8702,-17.9434,4746.6821],[-68.9104,-17.9496,4837.1206],[-68.9327,-17.9667,4707.084],[-68.992,-17.9949,5038.8296],[-69.0057,-17.9977,5351.8418],[-69.0141,-18.0071,5038.3237],[-69.0235,-18.0099,5096.2979],[-69.0342,-18.0171,5105.1162],[-69.0462,-18.029,5229.8896],[-69.0572,-18.0343,5217.1011],[-69.0725,-18.0382,5664.2051],[-69.0795,-18.0469,5577.0889],[-69.0713,-18.0749,4868.7832],[-69.0812,-18.0914,5290.8354],[-69.1269,-18.1273,6206.0107],[-69.1423,-18.1632,6180.8711],[-69.1025,-18.2103,4623.0615],[-69.0653,-18.2399,5416.6348],[-69.0702,-18.2522,5082.5361],[-69.0749,-18.2917,4681.5371],[-69.0709,-18.2975,4699.5825],[-69.0637,-18.3023,4732.8604],[-69.0592,-18.3076,4792.9834],[-69.0522,-18.3116,4893.2896],[-69.0447,-18.3135,5063.2207],[-69.038,-18.3227,5452.1714],[-69.0462,-18.335,5328.458],[-69.0522,-18.3397,5457.7178],[-69.0535,-18.347,5496.9805],[-69.05,-18.3547,5715.2725],[-69.0505,-18.3607,5569.8677],[-69.0469,-18.3666,5613.9575],[-69.055,-18.3756,5774.8052],[-69.0523,-18.381,5818.7754],[-69.0478,-18.3829,5985.6729],[-69.0465,-18.4095,5795.5986],[-69.0383,-18.4424,5114.8135],[-69.0252,-18.4612,5091.77],[-69.0284,-18.4646,4918.5615],[-69.0291,-18.4698,4804.3623],[-69.0216,-18.5037,4605.6055],[-69.0116,-18.5372,4418.7515],[-69.0169,-18.5724,4561.8799],[-69.0087,-18.5795,4372.2842],[-69.0022,-18.5884,4322.0303],[-69.0074,-18.6015,3900.6235],[-69.0164,-18.5987,4115.1187],[-69.0254,-18.5994,4292.2808],[-69.0276,-18.6011,4365.9443],[-69.0314,-18.6117,4353.8174],[-69.037,-18.6136,4428.6499],[-69.0331,-18.6294,4402.0742],[-69.0142,-18.6334,4528.2964],[-69.0087,-18.6465,4457.1172],[-69.0026,-18.6502,4363.0464],[-68.9854,-18.6774,4485.3052],[-68.9835,-18.6981,4747.1797],[-68.987,-18.7008,4703.3428],[-68.9873,-18.7056,4861.2134],[-68.9842,-18.712,4878.6685],[-68.9778,-18.7179,5018.2979],[-68.9763,-18.7252,5216.2534],[-68.9715,-18.7324,5402.4653],[-68.9732,-18.739,5724.5054],[-68.9809,-18.7398,5631.5435],[-68.9826,-18.746,5481.4102],[-68.987,-18.7501,5508.2007],[-68.9505,-18.793,4380.0898],[-68.9262,-18.8431,5148.3564],[-68.9124,-18.8924,5513.3438],[-68.9502,-18.9368,4712.2759],[-68.92,-18.9767,4552.5371],[-68.8896,-19.0434,4232.2803],[-68.8709,-19.0604,4215.8281],[-68.8523,-19.0643,4224.877],[-68.8059,-19.0834,4436.7891],[-68.7814,-19.1083,4682.6089],[-68.7509,-19.133,4476.1953],[-68.7364,-19.1556,4654.6982],[-68.7131,-19.1702,4755.8169],[-68.6283,-19.251,3772.4058],[-68.6197,-19.2765,3696.6499],[-68.5428,-19.2967,3668.5549],[-68.4495,-19.3701,3657.2554],[-68.4049,-19.4162,3656.5],[-68.4126,-19.4219,3743.9136],[-68.4124,-19.431,3743.0483],[-68.4258,-19.4355,3656.5],[-68.4115,-19.4399,3656.5],[-68.4128,-19.4507,3706.7434],[-68.4069,-19.4621,3662.4304],[-68.4046,-19.4639,3659.2417],[-68.404,-19.4714,3658.7773],[-68.3975,-19.4743,3656.5],[-68.3963,-19.4801,3666.0781],[-68.3809,-19.4964,3656.5],[-68.3647,-19.5071,3656.5],[-68.3521,-19.52,3656.5],[-68.3463,-19.5184,3656.5],[-68.3435,-19.5213,3656.5],[-68.339,-19.516,3656.5],[-68.3315,-19.5157,3656.5],[-68.3218,-19.5184,3656.5],[-68.3108,-19.5255,3656.5],[-68.2945,-19.5263,3656.5],[-68.2924,-19.5237,3656.5],[-68.2906,-19.5242,3656.5],[-68.2911,-19.5267,3656.5],[-68.2877,-19.5302,3656.5],[-68.2873,-19.5346,3656.5],[-68.2964,-19.5418,3656.5],[-68.294,-19.5463,3656.5],[-68.285,-19.5504,3656.5],[-68.274,-19.5518,3656.5],[-68.2621,-19.5564,3656.5],[-68.2609,-19.559,3656.5],[-68.256,-19.5615,3656.5],[-68.2451,-19.5628,3656.5],[-68.2371,-19.5665,3656.5],[-68.2344,-19.5713,3656.5],[-68.2308,-19.573,3656.5],[-68.2326,-19.5751,3656.5],[-68.2296,-19.5789,3656.5],[-68.2252,-19.5807,3656.5],[-68.2246,-19.5785,3656.5],[-68.2211,-19.5835,3656.5],[-68.218,-19.5821,3656.5],[-68.2161,-19.5835,3656.5],[-68.2122,-19.5827,3656.5],[-68.2116,-19.5847,3656.5],[-68.2072,-19.5826,3656.5],[-68.2069,-19.5875,3656.5],[-68.2022,-19.5899,3656.5],[-68.1985,-19.5964,3656.5],[-68.1777,-19.5986,3656.5],[-68.1757,-19.5999,3656.5],[-68.1658,-19.6117,3656.5],[-68.167,-19.6143,3656.5],[-68.1555,-19.6108,3656.5],[-68.1447,-19.604,3656.5],[-68.1299,-19.6021,3656.5],[-68.1255,-19.5995,3656.5],[-68.1253,-19.597,3656.5],[-68.1153,-19.5962,3656.5],[-68.1135,-19.594,3656.5],[-68.1153,-19.59,3657.9641],[-68.1101,-19.5903,3656.5],[-68.1093,-19.588,3656.8838],[-68.1073,-19.588,3658.0161],[-68.0992,-19.5918,3656.5],[-68.095,-19.5905,3656.5],[-68.0881,-19.5764,3657.0059],[-68.0785,-19.5876,3700.4194],[-68.0602,-19.5958,3892.6421],[-68.0539,-19.61,4321.8711],[-68.0422,-19.6184,4784.0371],[-68.0319,-19.6223,4978.0234],[-67.9895,-19.687,3933.1313],[-67.9714,-19.7079,4346.4966],[-67.9597,-19.7262,4165.3418],[-67.9595,-19.7294,4197.665],[-67.9353,-19.7338,4191.5771],[-67.9144,-19.7431,3981.8623],[-67.8994,-19.7571,3787.0327],[-67.8764,-19.7619,3672.2219],[-67.8605,-19.7725,3896.0295],[-67.8456,-19.7965,3815.0933],[-67.8217,-19.8096,3814.5125],[-67.803,-19.8111,3778.2236],[-67.7859,-19.808,3790.4961],[-67.7586,-19.8059,3714.6599],[-67.7582,-19.8092,3714.519],[-67.7603,-19.8123,3680.9216],[-67.7519,-19.8132,3685.5161],[-67.7435,-19.8229,3740.7153],[-67.7384,-19.826,3733.9333],[-67.7382,-19.8303,3727.7422],[-67.7339,-19.8316,3726.2046],[-67.7299,-19.8284,3728.6616],[-67.7205,-19.8267,3747.3652],[-67.7145,-19.812,3783.8469],[-67.6775,-19.8305,4437.1958],[-67.6644,-19.8386,4692.5557],[-67.6462,-19.8421,5107.5322],[-67.6352,-19.8465,4785.458],[-67.6147,-19.8603,4197.208],[-67.6048,-19.8644,4109.9365],[-67.5991,-19.8716,3909.1155],[-67.5809,-19.8746,3683.3804],[-67.573,-19.8813,3656.635],[-67.5713,-19.8867,3653.7332],[-67.5672,-19.8853,3653.5],[-67.5632,-19.8717,3655.3845],[-67.5594,-19.8658,3654.8872],[-67.5567,-19.8646,3653.5],[-67.5445,-19.8648,3653.5],[-67.5403,-19.8552,3657.0896],[-67.5376,-19.8524,3664.4971],[-67.5333,-19.8484,3654.7566],[-67.5277,-19.8489,3653.5],[-67.5304,-19.8409,3657.1309],[-67.5287,-19.8371,3671.8479],[-67.5195,-19.8335,3653.5],[-67.5204,-19.8291,3655.3503],[-67.5234,-19.8336,3657.4722],[-67.529,-19.8336,3656.4297],[-67.5311,-19.8302,3657.6421],[-67.5296,-19.8286,3653.5],[-67.5363,-19.8255,3660.293],[-67.5437,-19.8184,3654.5364],[-67.5474,-19.8048,3654.9097],[-67.5356,-19.794,3653.5],[-67.5345,-19.7898,3654.5657],[-67.5375,-19.7872,3670.0029],[-67.5378,-19.782,3653.5],[-67.5399,-19.7851,3668.3281],[-67.5424,-19.7856,3659.0605],[-67.5467,-19.7811,3653.5],[-67.5496,-19.7807,3654.1072],[-67.5468,-19.7864,3653.5],[-67.5531,-19.7846,3654.6174],[-67.5554,-19.7824,3653.5],[-67.556,-19.7854,3655.0625],[-67.5596,-19.7788,3653.8667],[-67.5631,-19.7768,3655.7068],[-67.5609,-19.7772,3653.842],[-67.5573,-19.7742,3653.5],[-67.5594,-19.7734,3653.5],[-67.5569,-19.7715,3653.5],[-67.5677,-19.7643,3655.0105],[-67.5661,-19.7627,3654.9888],[-67.566,-19.7572,3654.8167],[-67.5685,-19.7524,3654.895],[-67.5678,-19.7468,3654.8423],[-67.5712,-19.7387,3654.9583],[-67.5717,-19.7279,3654.8735],[-67.5623,-19.7152,3654.9771],[-67.56,-19.7167,3654.8672],[-67.5474,-19.7135,3655.0459],[-67.5403,-19.7143,3654.9653],[-67.5398,-19.7127,3655.0371],[-67.5387,-19.7147,3654.96],[-67.5325,-19.7166,3654.9397],[-67.5217,-19.7166,3654.9756],[-67.5144,-19.7139,3654.9536],[-67.5018,-19.7121,3655.0425],[-67.4844,-19.705,3655.1458],[-67.4697,-19.7032,3655.1897],[-67.4486,-19.7068,3655.335],[-67.4348,-19.7121,3655.3691],[-67.4265,-19.7115,3655.3306],[-67.4175,-19.7143,3655.2158],[-67.3806,-19.713,3655.2847],[-67.3471,-19.7223,3655.3711],[-67.3356,-19.7307,3655.4421],[-67.3286,-19.7395,3655.3481],[-67.322,-19.7435,3655.3384],[-67.3151,-19.7442,3655.4709],[-67.3106,-19.7479,3655.5186],[-67.3016,-19.7498,3655.5527],[-67.2994,-19.7544,3655.5969],[-67.291,-19.7594,3655.459],[-67.291,-19.7652,3655.3481],[-67.2739,-19.7489,3656.0078],[-67.265,-19.7261,3657.1475],[-67.2574,-19.7159,3658.02],[-67.2581,-19.7066,3658.6255],[-67.2566,-19.6993,3658.9851],[-67.243,-19.6911,3659.9353],[-67.2319,-19.6914,3661.0728],[-67.2265,-19.69,3661.9316],[-67.2139,-19.6818,3664.0496],[-67.2144,-19.6774,3664.9478],[-67.2132,-19.6779,3664.9478],[-67.2123,-19.6744,3667.5337],[-67.2101,-19.6749,3666.0876],[-67.2064,-19.6703,3667.0918],[-67.2072,-19.6581,3667.3718],[-67.2118,-19.6494,3667.2822],[-67.2126,-19.6426,3667.6836],[-67.2103,-19.6318,3667.7949],[-67.2071,-19.6292,3668.0171],[-67.2093,-19.6253,3668.1816],[-67.2081,-19.6171,3668.6284],[-67.2036,-19.6167,3668.7029],[-67.2029,-19.6153,3673.2466],[-67.2092,-19.6011,3669.9399],[-67.2317,-19.5843,3678.1433],[-67.2303,-19.5815,3682.0461],[-67.2321,-19.5784,3690.814],[-67.2305,-19.5734,3706.561],[-67.2309,-19.5672,3715.0649],[-67.2248,-19.5656,3694.395],[-67.2183,-19.5593,3680.9497],[-67.2187,-19.5543,3680.5981],[-67.2233,-19.5502,3682.4067],[-67.2298,-19.5362,3694.2056],[-67.2259,-19.5333,3690.4973],[-67.2307,-19.5245,3697.6152],[-67.2291,-19.514,3718.5312],[-67.2315,-19.5125,3713.2212],[-67.2326,-19.5088,3721.522],[-67.2369,-19.5071,3734.4619],[-67.2372,-19.5045,3776.1655],[-67.2349,-19.5039,3777.5906],[-67.2317,-19.498,3769.8823],[-67.2277,-19.4956,3755.7219],[-67.2254,-19.4911,3748.0735],[-67.2258,-19.4839,3742.4204],[-67.229,-19.4815,3740.333],[-67.2352,-19.4809,3737.4453],[-67.2437,-19.472,3734.1851],[-67.2563,-19.4638,3729.1482],[-67.2599,-19.455,3726.5083],[-67.2592,-19.4493,3725.1626],[-67.2622,-19.4486,3724.2368],[-67.2645,-19.4406,3723.6851],[-67.2672,-19.4391,3722.0967],[-67.2698,-19.4339,3721.5752],[-67.2677,-19.4286,3720.2925],[-67.2506,-19.4315,3750.6628],[-67.2417,-19.4352,3797.1926],[-67.2344,-19.4363,3828.6143],[-67.2241,-19.4426,3864.3877],[-67.218,-19.4414,3872.5088],[-67.2111,-19.4462,3847.2566]]]]}
,"properties": {"GID_1": "BOL.5_1","GID_0": "BOL","country": "Bolivia","province": "Oruro","VARNAME_1": "NA","NL_NAME_1": "NA","TYPE_1": "Departamento","ENGTYPE_1": "Department","CC_1": "NA","HASC_1": "BO.OR","ISO_1": "BO-O","name": "Oruro.province","area_km2": 52356.02,"hist_schema_id": "Elevation0-9000","hist_area_km2": {"3550": 0.66,"3575": 0.7,"3600": 0.96,"3625": 1.15,"3650": 3968.61,"3675": 5112.54,"3700": 9004.11,"3725": 4557.45,"3750": 3502.15,"3775": 2266.98,"3800": 1786.43,"3825": 1410.65,"3850": 1364.34,"3875": 1286.07,"3900": 1193.56,"3925": 1057.53,"3950": 937.08,"3975": 875.02,"4000": 839.67,"4025": 774.73,"4050": 756.75,"4075": 739.91,"4100": 719.47,"4125": 737.83,"4150": 728.8,"4175": 677.51,"4200": 608.06,"4225": 544.79,"4250": 495.08,"4275": 441.42,"4300": 412.87,"4325": 388.33,"4350": 388.4,"4375": 363.94,"4400": 348.34,"4425": 317.36,"4450": 309.28,"4475": 305.36,"4500": 293.03,"4525": 283.11,"4550": 278.82,"4575": 260.25,"4600": 225.78,"4625": 203.59,"4650": 181.26,"4675": 165.12,"4700": 145.98,"4725": 136.66,"4750": 126.24,"4775": 112.63,"4800": 96.29,"4825": 83.13,"4850": 72.57,"4875": 61.98,"4900": 55.76,"4925": 47.85,"4950": 38.81,"4975": 33.39,"5000": 28.52,"5025": 23.79,"5050": 20.26,"5075": 16.02,"5100": 14.88,"5125": 13.55,"5150": 11.92,"5175": 11.08,"5200": 7.94,"5225": 7.62,"5250": 7.18,"5275": 6.13,"5300": 5.69,"5325": 5.57,"5350": 4.59,"5375": 4.38,"5400": 3.86,"5425": 3.34,"5450": 3.36,"5475": 2.96,"5500": 2.59,"5525": 2.25,"5550": 2.09,"5575": 1.61,"5600": 1.73,"5625": 1.49,"5650": 1.29,"5675": 1.61,"5700": 1.17,"5725": 1.17,"5750": 0.74,"5775": 0.68,"5800": 0.76,"5825": 0.64,"5850": 0.6,"5875": 0.5,"5900": 0.54,"5925": 0.54,"6025": 0.44}}}