{"type":"Feature","properties":{"featurecla":"River","scalerank":6,"rivernum":294,"dissolve":"294River","name":"Pilcomayo","name_alt":null,"note":null,"min_zoom":5.0,"strokeweig":0.15,"name_en":"Pilcomayo","min_label":6.0},
"geometry":{"type": "LineString","coordinates": [[-66.444433593749991,-19.369952081255889,4494.938],[-66.406494140625,-19.33977630000588,4363.2119],[-66.389453124999989,-19.321123956255889,4308.0439],[-66.382373046874989,-19.30437590938088,4356.6641],[-66.378662109375,-19.299346612505886,4352.9424],[-66.371679687499991,-19.293780206255889,4253.3652],[-66.367480468749989,-19.286651300005886,4322.6147],[-66.372119140624989,-19.277178643755889,4193.8647],[-66.391455078124991,-19.25603606563088,4141.98],[-66.399829101562489,-19.24358489375588,4166.7358],[-66.40283203125,-19.23211028438088,4098.1274],[-66.389892578125,-19.21135833125588,4069.2151],[-66.338549804687489,-19.18499114375588,4078.5269],[-66.3271484375,-19.174151300005889,4054.3347],[-66.319506835937489,-19.159991143755889,4199.7441],[-66.301684570312489,-19.152862237505886,4018.6655],[-66.265673828124989,-19.150225518755889,4080.354],[-66.243505859374991,-19.15081145625588,4034.0625],[-66.221289062499991,-19.155596612505889,3910.4182],[-66.204272460937489,-19.168780206255889,3903.0312],[-66.197363281249991,-19.19451262813088,3835.8333],[-66.192675781249989,-19.20281340938088,3829.8142],[-66.16669921875,-19.23211028438088,3770.5972],[-66.155810546874989,-19.273760675005889,3747.9116],[-66.141162109374989,-19.28948333125588,3765.011],[-66.084082031249991,-19.325225518755886,3853.5928],[-66.048681640624991,-19.36028411250588,3711.7427],[-66.030371093749991,-19.373565362505886,3786.0737],[-66.004980468749991,-19.383623956255889,3775.7351],[-65.983569335937489,-19.38543059688088,3685.1753],[-65.941503906249991,-19.38298919063088,3439.3098],[-65.923022460937489,-19.390459893755889,3449.8457],[-65.900732421874991,-19.376788018755889,3383.2126],[-65.849853515625,-19.355303643755889,3292.071],[-65.827441406249989,-19.34197356563088,3239.0867]]}}