{"type": "Feature","bbox": [-68.311,-18.8175,-68.2444,-18.7636],"geometry": {"type": "MultiPolygon","coordinates": [[[[-68.3073,-18.811,4483.8257],[-68.2882,-18.8115,4269.9219],[-68.2772,-18.8171,3960.1399],[-68.2692,-18.8175,3821.8267],[-68.267,-18.8162,3822.1716],[-68.2444,-18.7803,3711.9141],[-68.248,-18.7749,3711.5449],[-68.2593,-18.7711,3716.1382],[-68.2621,-18.7641,3713.8982],[-68.2647,-18.7636,3716.9062],[-68.2711,-18.7752,3739.4675],[-68.282,-18.7845,4084.627],[-68.2885,-18.786,4093.571],[-68.2931,-18.7914,4384.2256],[-68.3069,-18.796,4751.5005],[-68.311,-18.8018,4659.7324],[-68.3073,-18.811,4483.8257]]]]}
,"properties": {"GID_3": "BOL.5.5.4_2","GID_0": "BOL","country": "Bolivia","GID_1": "BOL.5_1","province": "Oruro","NL_NAME_1": "NA","GID_2": "BOL.5.5_2","county": "Litoral","NL_NAME_2": "NA","city": "Huachacalla","VARNAME_3": "NA","NL_NAME_3": "NA","TYPE_3": "District","ENGTYPE_3": "Distrito","CC_3": "NA","HASC_3": "NA","name": "Huachacalla.city","area_km2": 20.53336,"hist_schema_id": "Elevation0-9000","hist_area_km2": {"3700": 0.34126,"3725": 4.97814,"3750": 1.22441,"3775": 0.70252,"3800": 0.76273,"3825": 0.78278,"3850": 0.46165,"3875": 0.30106,"3900": 0.50178,"3925": 0.48171,"3950": 0.40142,"3975": 0.44156,"4000": 0.36128,"4025": 0.46163,"4050": 0.3412,"4075": 0.32114,"4100": 0.38135,"4125": 0.36128,"4150": 0.38135,"4175": 0.50177,"4200": 0.52184,"4225": 0.3412,"4250": 0.54191,"4275": 0.50177,"4300": 0.46163,"4325": 0.40142,"4350": 0.32114,"4375": 0.42149,"4400": 0.36128,"4425": 0.34121,"4450": 0.30106,"4475": 0.20071,"4500": 0.26092,"4525": 0.12043,"4550": 0.18064,"4575": 0.26093,"4600": 0.08028,"4625": 0.08029,"4650": 0.12043,"4675": 0.06021,"4700": 0.10036,"4725": 0.04014,"4750": 0.02007}}}