{"type":"Feature","properties":{"GID_3":"BOL.4.5.2_2","GID_0":"BOL","country":"Bolivia","GID_1":"BOL.4_1","province":"LaPaz","NL_NAME_1":"NA","GID_2":"BOL.4.5_2","county":"Camacho","NL_NAME_2":"NA","city":"Humanata","VARNAME_3":"NA","NL_NAME_3":"NA","TYPE_3":"District","ENGTYPE_3":"Distrito","CC_3":"NA","HASC_3":"NA","name":"Humanata.city"},
"geometry":{"type": "MultiPolygon","coordinates": [[[[-69.0796,-15.4699,4143.8652],[-69.0779,-15.4466,4148.6948],[-69.0794,-15.4335,4297.2686],[-69.0938,-15.42,4268.1641],[-69.1106,-15.4103,4242.7969],[-69.108,-15.3983,4269.668],[-69.1133,-15.3806,4307.3496],[-69.1239,-15.3791,4329.2588],[-69.1215,-15.3645,4284.3853],[-69.1319,-15.3512,4422.5469],[-69.1345,-15.3363,4506.3604],[-69.1325,-15.3336,4503.9707],[-69.1405,-15.3244,4596.5303],[-69.1477,-15.3217,4566.7129],[-69.1921,-15.2957,4608.5225],[-69.1959,-15.3141,4468.3926],[-69.2065,-15.3241,4468.9316],[-69.2154,-15.3177,4279.8301],[-69.2307,-15.3359,4233.8667],[-69.2405,-15.3528,4488.0464],[-69.2475,-15.371,4458.9102],[-69.2476,-15.3997,4375.8208],[-69.2502,-15.427,4253.5205],[-69.2333,-15.4414,4383.2822],[-69.2406,-15.4606,4089.8616],[-69.2124,-15.4772,3999.7563],[-69.201,-15.4933,3981.9568],[-69.1974,-15.5162,4051.9414],[-69.2003,-15.525,4052.252],[-69.1898,-15.5241,4035.3003],[-69.1749,-15.5182,4081.3701],[-69.171,-15.5146,4178.9854],[-69.1694,-15.507,4231.2651],[-69.1678,-15.5081,4230.7173],[-69.1616,-15.5028,4151.8242],[-69.1455,-15.4935,3883.5083],[-69.132,-15.49,3886.1646],[-69.1385,-15.4971,3885.3384],[-69.1451,-15.5002,3875.2476],[-69.142,-15.5059,3870.4229],[-69.1337,-15.5049,3866.1609],[-69.1341,-15.5069,3866.0347],[-69.1309,-15.5063,3865.3088],[-69.1243,-15.5146,3859.4536],[-69.1195,-15.5069,4102.5894],[-69.116,-15.5094,4071.8198],[-69.1056,-15.5088,4027.3818],[-69.0985,-15.5045,4032.8992],[-69.098,-15.502,4034.9026],[-69.1104,-15.4955,4054.7202],[-69.1194,-15.4954,3925.1267],[-69.1232,-15.485,3891.2041],[-69.1073,-15.4778,3923.9858],[-69.088,-15.4736,4159.7988],[-69.0796,-15.4699,4143.8652]]]]}}