{"type": "Feature","bbox": [-63.2581,-17.6753,-62.7263,-17.0358],"geometry": {"type": "MultiPolygon","coordinates": [[[[-62.9712,-17.599,325.1714],[-62.9589,-17.5971,321.6133],[-62.9158,-17.5826,310.8857],[-62.903,-17.5837,307.7844],[-62.8493,-17.5397,291.7782],[-62.8415,-17.5376,289.2233],[-62.7902,-17.5322,274.5],[-62.7923,-17.5171,276.6652],[-62.7895,-17.5061,276.7253],[-62.7862,-17.5019,275.8231],[-62.7842,-17.4952,273.6786],[-62.7886,-17.478,274.2704],[-62.786,-17.4701,273.5256],[-62.7817,-17.4678,274.9904],[-62.7683,-17.469,272.7766],[-62.7522,-17.4672,273.0145],[-62.749,-17.4644,273.455],[-62.7484,-17.4585,271.4008],[-62.7581,-17.4488,271.6221],[-62.7622,-17.4405,271.2051],[-62.7596,-17.4379,274.3977],[-62.7496,-17.4358,268.9258],[-62.7485,-17.432,268.0],[-62.7518,-17.4234,268.0],[-62.7574,-17.4188,268.0],[-62.7581,-17.4157,274.2172],[-62.7584,-17.409,268.0],[-62.7565,-17.4044,269.1877],[-62.7576,-17.3891,267.9893],[-62.7566,-17.3839,267.2274],[-62.7528,-17.3789,270.4724],[-62.7468,-17.3764,265.5],[-62.7371,-17.3766,265.6714],[-62.735,-17.3754,265.2375],[-62.7321,-17.3675,265.1828],[-62.7317,-17.3585,264.2086],[-62.741,-17.3367,267.8461],[-62.738,-17.3277,266.0988],[-62.7452,-17.3217,266.9875],[-62.7475,-17.3182,267.4193],[-62.7478,-17.3137,266.5244],[-62.7406,-17.3057,261.0],[-62.7401,-17.2897,260.8379],[-62.7427,-17.2801,262.7311],[-62.7414,-17.2711,264.1689],[-62.7277,-17.2494,261.695],[-62.7263,-17.2453,261.2504],[-62.7267,-17.2402,262.0373],[-62.7363,-17.2321,259.5338],[-62.7432,-17.2173,261.9431],[-62.7426,-17.2134,261.8716],[-62.7335,-17.207,259.872],[-62.7326,-17.2011,259.1241],[-62.7345,-17.1959,259.2126],[-62.7517,-17.1965,258.7441],[-62.7628,-17.1944,256.2867],[-62.7698,-17.1823,259.6495],[-62.7744,-17.1776,256.9169],[-62.7849,-17.1715,260.1674],[-62.7856,-17.1682,258.5883],[-62.7969,-17.1664,260.27],[-62.8044,-17.1523,256.0505],[-62.8118,-17.1448,257.3932],[-62.8175,-17.1417,254.0648],[-62.8623,-17.1327,253.4171],[-62.8674,-17.1282,248.3103],[-62.8789,-17.1238,252.9865],[-62.8833,-17.1189,247.0],[-62.8884,-17.116,253.0263],[-62.8927,-17.1174,251.6602],[-62.8981,-17.1271,250.0772],[-62.8996,-17.1277,250.0772],[-62.9072,-17.1201,249.9768],[-62.9116,-17.1183,249.5269],[-62.9211,-17.1182,252.5722],[-62.9217,-17.1091,247.0],[-62.9244,-17.1018,249.0887],[-62.9323,-17.0914,250.0303],[-62.9353,-17.09,246.375],[-62.9666,-17.0933,245.4954],[-62.9742,-17.0924,246.433],[-62.979,-17.0892,246.6093],[-62.9833,-17.0823,246.944],[-62.9914,-17.0808,248.808],[-62.993,-17.0774,248.9976],[-62.9871,-17.0678,248.0999],[-62.9871,-17.0579,243.1968],[-62.984,-17.0561,243.4277],[-62.9855,-17.0527,247.785],[-62.9924,-17.0513,246.1028],[-62.9966,-17.0532,244.1327],[-62.9996,-17.0524,247.553],[-63.0081,-17.0547,245.4576],[-63.017,-17.0471,244.1311],[-63.0177,-17.0399,244.4048],[-63.0217,-17.0393,245.1082],[-63.0237,-17.0433,243.7965],[-63.0291,-17.0461,244.0345],[-63.0295,-17.0421,244.3744],[-63.0327,-17.0419,243.2855],[-63.0345,-17.0358,245.1335],[-63.055,-17.0502,242.485],[-63.0768,-17.0783,241.3316],[-63.0757,-17.0815,242.1636],[-63.0774,-17.0825,242.9465],[-63.0753,-17.086,240.2052],[-63.0734,-17.0863,240.4775],[-63.0727,-17.0969,241.1206],[-63.0626,-17.1032,241.6319],[-63.0621,-17.1109,242.2037],[-63.0566,-17.1166,243.3568],[-63.0582,-17.1253,244.2301],[-63.0616,-17.1275,245.446],[-63.0704,-17.139,248.4601],[-63.0721,-17.1522,248.7944],[-63.0711,-17.1562,250.6922],[-63.0721,-17.1593,249.2488],[-63.0773,-17.1644,249.775],[-63.0745,-17.1683,251.6686],[-63.0753,-17.1745,251.5217],[-63.0732,-17.177,251.7682],[-63.0756,-17.1818,252.1343],[-63.0736,-17.1911,254.2519],[-63.0762,-17.1938,254.5522],[-63.079,-17.1938,254.6143],[-63.0783,-17.1961,255.2876],[-63.0804,-17.1982,254.5816],[-63.085,-17.1983,256.3135],[-63.0872,-17.202,257.1382],[-63.0874,-17.2066,257.7463],[-63.0837,-17.218,259.2008],[-63.0858,-17.2327,262.6117],[-63.096,-17.2343,267.989],[-63.1068,-17.2479,266.6578],[-63.1198,-17.2522,268.8352],[-63.1207,-17.2595,270.9557],[-63.128,-17.2676,275.9735],[-63.1294,-17.2746,273.5732],[-63.1281,-17.2761,272.408],[-63.1307,-17.2801,275.079],[-63.1284,-17.2844,273.7064],[-63.1327,-17.2858,273.5531],[-63.1337,-17.2891,274.7313],[-63.1388,-17.2929,279.3686],[-63.1462,-17.2949,278.8831],[-63.1489,-17.2976,279.2584],[-63.1503,-17.3098,283.1472],[-63.1473,-17.312,282.2126],[-63.1415,-17.3124,284.0081],[-63.1409,-17.3142,285.5175],[-63.144,-17.3225,284.7265],[-63.1397,-17.3263,286.0219],[-63.1412,-17.3347,289.9675],[-63.15,-17.3362,289.7889],[-63.1498,-17.3383,290.4199],[-63.1549,-17.3466,292.3757],[-63.1556,-17.3551,294.5404],[-63.1759,-17.3563,295.7649],[-63.1848,-17.3543,297.2111],[-63.1895,-17.3609,297.7163],[-63.1888,-17.3692,300.6952],[-63.1915,-17.3734,306.1087],[-63.1915,-17.3782,303.266],[-63.1888,-17.378,303.4886],[-63.1872,-17.3796,307.0847],[-63.1924,-17.3848,303.4944],[-63.204,-17.3787,302.3635],[-63.218,-17.3752,302.9408],[-63.2336,-17.3757,310.1273],[-63.2355,-17.3826,307.7404],[-63.2411,-17.3865,303.6231],[-63.2473,-17.3837,302.0903],[-63.248,-17.385,304.8935],[-63.2429,-17.3939,304.9354],[-63.2343,-17.4001,306.7613],[-63.2338,-17.4056,309.4922],[-63.2294,-17.4093,310.3878],[-63.2313,-17.4135,310.6982],[-63.2581,-17.427,311.2253],[-63.258,-17.4332,311.53],[-63.2561,-17.4409,312.6856],[-63.2487,-17.4446,314.9619],[-63.2408,-17.4533,317.3839],[-63.2343,-17.466,320.001],[-63.234,-17.4706,322.2997],[-63.2216,-17.4876,326.1961],[-63.219,-17.5028,330.1026],[-63.2129,-17.5135,334.7294],[-63.2118,-17.5298,337.4461],[-63.2141,-17.5408,341.1408],[-63.2136,-17.5462,341.1428],[-63.2092,-17.555,344.5709],[-63.2105,-17.5638,349.1227],[-63.2067,-17.5709,353.5867],[-63.2056,-17.5784,353.6347],[-63.1937,-17.5991,363.093],[-63.1932,-17.6085,363.3613],[-63.1885,-17.6116,370.2323],[-63.1894,-17.6204,372.1184],[-63.1876,-17.6248,368.1235],[-63.1692,-17.6326,372.3474],[-63.1644,-17.6449,371.5579],[-63.1574,-17.6463,372.8616],[-63.1588,-17.6742,381.4106],[-63.1577,-17.6753,382.2142],[-63.144,-17.6703,381.5255],[-63.0947,-17.6698,368.3931],[-63.0848,-17.6584,362.5017],[-63.0854,-17.6539,362.2309],[-63.0753,-17.6542,361.4501],[-63.0704,-17.6511,357.9283],[-63.0654,-17.6517,361.5729],[-63.054,-17.6444,354.3893],[-63.0533,-17.6399,353.211],[-63.05,-17.6369,353.0509],[-63.0497,-17.6305,350.4642],[-63.0117,-17.623,341.5282],[-63.0025,-17.6238,337.8757],[-62.9856,-17.6132,332.0752],[-62.9833,-17.607,330.3857],[-62.9712,-17.599,325.1714]]]]}
,"properties": {"GID_2": "BOL.8.15_2","GID_0": "BOL","country": "Bolivia","GID_1": "BOL.8_1","province": "SantaCruz","NL_NAME_1": "NA","county": "Warnes","VARNAME_2": "NA","NL_NAME_2": "NA","TYPE_2": "Provincia","ENGTYPE_2": "Province","CC_2": "NA","HASC_2": "NA","name": "Warnes.county","area_km2": 2384.402,"hist_schema_id": "Elevation0-9000","hist_area_km2": {"250": 778.687,"275": 654.687,"300": 414.581,"325": 314.701,"350": 177.335,"375": 44.411}}}