{"type": "Feature","bbox": [-68.0806,-14.5956,-67.4726,-13.9493],"geometry": {"type": "MultiPolygon","coordinates": [[[[-67.5403,-14.3433,196.8932],[-67.542,-14.3407,183.0],[-67.5458,-14.3405,183.0],[-67.5525,-14.3457,195.7149],[-67.5595,-14.347,183.0],[-67.562,-14.3451,183.0],[-67.5621,-14.3408,190.6069],[-67.5606,-14.3379,185.5638],[-67.5477,-14.3301,182.5],[-67.5367,-14.3207,183.51],[-67.5256,-14.3026,182.5],[-67.517,-14.2941,182.5],[-67.5103,-14.2907,182.5],[-67.5052,-14.2907,184.5973],[-67.4869,-14.2983,182.0],[-67.4826,-14.2985,182.0],[-67.4752,-14.2951,182.0],[-67.4726,-14.2882,185.4291],[-67.4751,-14.28,191.7869],[-67.4844,-14.2732,183.6906],[-67.49,-14.2699,181.0],[-67.5126,-14.262,181.0],[-67.5186,-14.2562,180.5],[-67.5203,-14.2508,180.5],[-67.5105,-14.2352,180.5],[-67.5091,-14.2273,184.9427],[-67.5126,-14.2196,188.0914],[-67.5339,-14.1944,182.7],[-67.5361,-14.1758,179.0],[-67.5346,-14.1659,179.2377],[-67.5185,-14.1368,179.0],[-67.5069,-14.1242,179.0],[-67.5049,-14.1188,179.0],[-67.5048,-14.1124,188.9015],[-67.5084,-14.1069,180.0266],[-67.5152,-14.1032,186.0963],[-67.5236,-14.1041,178.5],[-67.5397,-14.1101,178.0],[-67.5488,-14.0999,177.5],[-67.5504,-14.0966,177.5],[-67.5497,-14.0907,177.5],[-67.5422,-14.0866,183.8012],[-67.5262,-14.0899,177.0],[-67.5197,-14.0893,179.1449],[-67.5167,-14.0876,181.3725],[-67.5133,-14.0826,186.281],[-67.4963,-14.0706,183.0456],[-67.494,-14.0648,181.3982],[-67.4984,-14.0601,175.5],[-67.5079,-14.0566,175.5],[-67.5256,-14.0459,175.0],[-67.5459,-14.0376,174.5],[-67.5484,-14.0316,179.2323],[-67.5477,-14.0274,182.3996],[-67.5448,-14.0234,184.1505],[-67.5325,-14.0225,179.6804],[-67.527,-14.0172,174.0],[-67.5274,-14.0074,174.0],[-67.5395,-13.9826,174.0],[-67.5388,-13.9772,174.0],[-67.5361,-13.9726,185.7318],[-67.5657,-13.9739,180.0383],[-67.5841,-13.9841,180.3111],[-67.6098,-14.0038,180.2239],[-67.6254,-14.0227,185.0808],[-67.6352,-14.0263,190.3798],[-67.6501,-14.0225,200.4426],[-67.6567,-14.0168,199.7818],[-67.681,-14.0077,205.4289],[-67.6932,-14.0015,199.8549],[-67.6964,-14.0019,206.7229],[-67.6958,-13.9999,208.5101],[-67.6988,-13.9996,205.1168],[-67.7001,-13.9951,210.7062],[-67.7021,-13.9936,209.1999],[-67.7087,-13.9971,208.2357],[-67.7086,-13.9947,205.7582],[-67.7212,-13.9926,207.0483],[-67.738,-13.9838,219.2725],[-67.7694,-13.9737,222.2698],[-67.7978,-13.951599999999999,230.3056],[-67.801,-13.9527,224.4708],[-67.8032,-13.9512,224.5805],[-67.8049,-13.9542,231.972],[-67.8052,-13.9509,227.0919],[-67.8074,-13.9493,234.9424],[-67.81,-13.9511,225.0731],[-67.811,-13.9499,225.0731],[-67.8116,-13.9531,231.3203],[-67.8139,-13.9519,227.7915],[-67.8172,-13.9583,237.1239],[-67.8239,-13.9579,231.4211],[-67.8247,-13.9609,237.168],[-67.8295,-13.9607,229.0689],[-67.8314,-13.962,236.9828],[-67.8321,-13.9647,233.3715],[-67.8309,-13.9656,233.3715],[-67.8329,-13.9662,230.5423],[-67.8325,-13.9704,234.5805],[-67.8338,-13.9718,235.7729],[-67.8331,-13.974,236.5201],[-67.8349,-13.9742,233.822],[-67.835,-13.9761,228.7527],[-67.8367,-13.9746,232.2546],[-67.8363,-13.9769,239.6962],[-67.8376,-13.9762,232.2546],[-67.8382,-13.9783,237.3214],[-67.8404,-13.9778,235.5465],[-67.8396,-13.9811,240.8141],[-67.8433,-13.9811,233.6271],[-67.8435,-13.9789,233.2583],[-67.8445,-13.9824,236.8821],[-67.8469,-13.9803,234.7651],[-67.8486,-13.9842,241.8742],[-67.8544,-13.9826,239.4763],[-67.8572,-13.9838,237.6887],[-67.8578,-13.987,236.358],[-67.8555,-13.9874,241.2946],[-67.8593,-13.9887,239.034],[-67.8584,-13.9901,237.3237],[-67.8603,-13.9953,245.0064],[-67.8622,-13.9956,244.8288],[-67.8626,-13.9936,240.5388],[-67.8645,-13.993,240.5937],[-67.864,-13.9953,247.5939],[-67.867,-13.994,241.3734],[-67.8663,-13.9958,242.2732],[-67.8699,-13.9976,247.8609],[-67.869,-13.999,248.6027],[-67.8776,-14.0033,252.1961],[-67.8825,-14.0183,250.1815],[-67.8866,-14.0231,248.3396],[-67.8931,-14.0262,250.2028],[-67.8961,-14.0327,256.0585],[-67.9005,-14.0344,262.046],[-67.9015,-14.0393,256.7785],[-67.9034,-14.0398,260.7014],[-67.9018,-14.041,254.2862],[-67.904,-14.0418,259.7966],[-67.904,-14.0447,256.3939],[-67.9068,-14.0471,265.3952],[-67.9139,-14.0486,272.0742],[-67.9196,-14.0463,277.3328],[-67.9233,-14.0473,283.9133],[-67.9316,-14.053,287.349],[-67.9341,-14.0527,294.3109],[-67.9379,-14.0555,294.7839],[-67.9382,-14.0577,293.804],[-67.9441,-14.0573,304.4013],[-67.9443,-14.0599,311.1803],[-67.948,-14.0592,311.3749],[-67.9486,-14.0609,318.1866],[-67.9505,-14.0603,318.3831],[-67.955,-14.0625,328.5628],[-67.9583,-14.067,348.3012],[-67.964,-14.0692,352.711],[-67.9653,-14.0748,387.7662],[-67.9724,-14.0796,423.5462],[-67.9747,-14.0863,489.8599],[-67.9814,-14.0845,625.8216],[-67.9879,-14.0875,688.2335],[-67.9929,-14.0864,734.3024],[-68.0053,-14.0899,1034.3208],[-68.0122,-14.1005,639.6074],[-68.0186,-14.1016,571.2168],[-68.0199,-14.1039,537.6566],[-68.0191,-14.1058,519.4622],[-68.0215,-14.1063,505.1769],[-68.0233,-14.1037,518.6295],[-68.0312,-14.1036,474.2408],[-68.033,-14.109,478.1416],[-68.036,-14.107,473.398],[-68.0509,-14.1105,454.5057],[-68.0506,-14.1127,457.1969],[-68.046,-14.1111,464.6967],[-68.0457,-14.1131,468.3653],[-68.0508,-14.1205,451.3858],[-68.0574,-14.1255,445.2233],[-68.0521,-14.1311,473.8591],[-68.0565,-14.1341,444.7329],[-68.061,-14.1305,443.8474],[-68.0614,-14.1338,446.0811],[-68.0569,-14.1362,447.0709],[-68.0566,-14.1378,449.8625],[-68.063,-14.1413,449.6411],[-68.0638,-14.1446,442.5376],[-68.062,-14.1511,445.8167],[-68.0643,-14.1571,429.652],[-68.0586,-14.1603,425.5141],[-68.058,-14.1632,437.8081],[-68.062,-14.1663,443.5735],[-68.068,-14.163,438.4078],[-68.0687,-14.167,428.3597],[-68.0642,-14.1718,445.3133],[-68.0704,-14.1731,429.0044],[-68.0717,-14.1752,422.8381],[-68.0707,-14.1783,446.097],[-68.0781,-14.178,430.2164],[-68.0791,-14.1796,434.9324],[-68.0782,-14.1834,426.8866],[-68.0806,-14.186,419.201],[-68.0751,-14.188,422.0521],[-68.0756,-14.1962,413.7147],[-68.0722,-14.1971,413.053],[-68.0688,-14.1956,429.9408],[-68.0673,-14.197,412.4586],[-68.069,-14.2006,434.6204],[-68.0753,-14.2007,414.3655],[-68.0725,-14.2053,408.0289],[-68.073,-14.2076,410.0818],[-68.0704,-14.2104,413.2844],[-68.0737,-14.2174,396.8768],[-68.0723,-14.227,391.0],[-68.0734,-14.2324,426.7542],[-68.0693,-14.2342,390.0],[-68.0613,-14.2277,396.1091],[-68.0569,-14.2263,394.5113],[-68.0509,-14.2294,398.6102],[-68.0512,-14.234,416.4555],[-68.0567,-14.2374,385.4651],[-68.0569,-14.2445,385.6188],[-68.0601,-14.2461,388.3723],[-68.0606,-14.2481,380.59],[-68.0593,-14.249,380.59],[-68.0547,-14.2466,395.4109],[-68.0513,-14.2467,385.3597],[-68.0491,-14.2518,380.7169],[-68.0515,-14.2556,382.3643],[-68.0511,-14.2579,380.7896],[-68.0412,-14.2595,381.4902],[-68.0333,-14.2588,379.6712],[-68.03,-14.2608,436.781],[-68.0295,-14.2646,374.6611],[-68.0332,-14.277,378.3397],[-68.0315,-14.2794,375.6426],[-68.0241,-14.2757,369.0743],[-68.0177,-14.2746,379.7133],[-68.0122,-14.2683,367.9885],[-68.009,-14.2694,389.3575],[-68.0097,-14.2719,368.4691],[-68.013,-14.2746,365.3705],[-68.0072,-14.2807,387.5121],[-68.0117,-14.2864,381.8417],[-68.0034,-14.2937,364.0223],[-68.0086,-14.2967,366.2876],[-68.0046,-14.3027,352.25],[-68.01,-14.3062,392.1226],[-68.0116,-14.3096,389.1187],[-68.0077,-14.3168,364.6965],[-67.9974,-14.3121,350.6503],[-67.9951,-14.3132,364.4417],[-67.9929,-14.3182,361.7617],[-67.9886,-14.3165,362.5511],[-67.9849,-14.3173,359.1471],[-67.9849,-14.3197,349.4126],[-67.9886,-14.3229,346.972],[-67.994,-14.3241,357.5141],[-67.9943,-14.327,341.75],[-67.9902,-14.3304,357.5432],[-67.9868,-14.3383,343.3495],[-67.9786,-14.3473,349.4659],[-67.9701,-14.3472,344.1408],[-67.9664,-14.3433,340.5046],[-67.958,-14.3395,353.5682],[-67.9535,-14.3436,340.9702],[-67.9524,-14.3544,331.0767],[-67.9484,-14.3529,337.0414],[-67.94,-14.3586,343.8702],[-67.9292,-14.3568,330.3147],[-67.9255,-14.358,335.5087],[-67.9254,-14.3624,324.4672],[-67.9287,-14.3654,325.4156],[-67.9271,-14.3706,324.5901],[-67.925,-14.374,323.5846],[-67.9174,-14.375,326.1791],[-67.9155,-14.3797,318.9523],[-67.9193,-14.389,314.875],[-67.9176,-14.3965,320.1677],[-67.9149,-14.4008,325.8094],[-67.9071,-14.4015,322.949],[-67.9055,-14.4038,317.5486],[-67.906,-14.4076,311.1968],[-67.9036,-14.4135,321.2059],[-67.9066,-14.4205,323.0924],[-67.9038,-14.4247,320.8858],[-67.9032,-14.4334,307.0856],[-67.9007,-14.4348,320.8399],[-67.8961,-14.4336,302.1754],[-67.8865,-14.437,308.0568],[-67.8854,-14.4428,307.033],[-67.8811,-14.4484,300.7166],[-67.8809,-14.4562,300.3815],[-67.8587,-14.4725,292.2995],[-67.8562,-14.4769,291.2533],[-67.858,-14.481,297.2886],[-67.8509,-14.4858,288.5],[-67.8424,-14.4847,294.5561],[-67.8394,-14.4857,289.319],[-67.8369,-14.4934,307.7292],[-67.8246,-14.4966,305.549],[-67.8167,-14.4955,281.1338],[-67.8122,-14.4991,286.7918],[-67.8039,-14.5008,277.6668],[-67.7996,-14.5065,295.9093],[-67.7943,-14.5057,282.3079],[-67.7912,-14.5104,275.276],[-67.7836,-14.5131,280.6641],[-67.7785,-14.52,268.8234],[-67.7689,-14.5279,270.032],[-67.7638,-14.5288,269.5514],[-67.7572,-14.5375,260.5],[-67.7535,-14.5384,271.6984],[-67.7455,-14.5463,261.5353],[-67.7355,-14.5492,257.0904],[-67.7225,-14.5486,256.2558],[-67.7189,-14.5594,252.3586],[-67.7149,-14.5592,248.3424],[-67.7095,-14.5559,255.0215],[-67.692,-14.5552,243.0743],[-67.6789,-14.564,246.8731],[-67.6756,-14.5645,264.6868],[-67.666,-14.5747,247.5705],[-67.6576,-14.5724,241.1476],[-67.6492,-14.5781,236.9891],[-67.6256,-14.5763,228.6593],[-67.6201,-14.5828,232.9637],[-67.6134,-14.5822,234.3303],[-67.6105,-14.5841,225.2431],[-67.6106,-14.5908,226.3332],[-67.6054,-14.5948,228.7249],[-67.5991,-14.594,223.5623],[-67.5953,-14.5905,221.698],[-67.5912,-14.5896,233.2495],[-67.5836,-14.5929,219.5023],[-67.5715,-14.5934,214.823],[-67.5624,-14.5956,215.7804],[-67.5524,-14.5883,218.3043],[-67.5414,-14.5937,207.0],[-67.5276,-14.5897,206.0],[-67.5205,-14.5824,217.4011],[-67.5219,-14.5735,213.8688],[-67.5201,-14.5709,214.4608],[-67.5041,-14.5644,203.5],[-67.4994,-14.5609,203.0],[-67.5001,-14.5511,202.5],[-67.4986,-14.5483,247.803],[-67.4991,-14.5399,250.2986],[-67.4967,-14.5223,200.0],[-67.4943,-14.5157,199.5],[-67.492,-14.5129,199.5],[-67.4833,-14.5082,199.7774],[-67.4816,-14.5036,199.0],[-67.4823,-14.4987,199.0],[-67.4851,-14.4942,198.5],[-67.4912,-14.4927,197.5],[-67.5008,-14.4954,195.0],[-67.5092,-14.493,194.0],[-67.5168,-14.4732,192.5],[-67.5224,-14.4688,192.0],[-67.5276,-14.4671,191.5],[-67.531,-14.4587,191.0],[-67.5309,-14.4551,191.0],[-67.5339,-14.4501,209.3851],[-67.5312,-14.4306,199.9983],[-67.5329,-14.4171,197.3716],[-67.5497,-14.4147,194.0714],[-67.5586,-14.4089,187.0],[-67.5596,-14.4028,187.2706],[-67.558,-14.3993,194.6196],[-67.5426,-14.3905,186.7368],[-67.5417,-14.3861,188.3765],[-67.5436,-14.3811,186.2927],[-67.5575,-14.3729,183.0],[-67.5581,-14.3695,189.9533],[-67.5546,-14.3668,193.5335],[-67.542,-14.364,194.6924],[-67.538,-14.3602,183.0],[-67.5363,-14.3488,188.0563],[-67.5403,-14.3433,196.8932]]]]}
,"properties": {"GID_3": "BOL.4.2.2_2","GID_0": "BOL","country": "Bolivia","GID_1": "BOL.4_1","province": "LaPaz","NL_NAME_1": "NA","GID_2": "BOL.4.2_2","county": "AbelIturralde","NL_NAME_2": "NA","city": "SanBuenaventura","VARNAME_3": "NA","NL_NAME_3": "NA","TYPE_3": "District","ENGTYPE_3": "Distrito","CC_3": "NA","HASC_3": "NA","name": "San_Buenaventura.city","area_km2": 2977.89,"hist_schema_id": "Elevation0-9000","hist_area_km2": {"175": 155.599,"200": 438.473,"225": 415.314,"250": 248.281,"275": 136.605,"300": 143.486,"325": 138.244,"350": 136.967,"375": 144.925,"400": 136.848,"425": 111.185,"450": 94.047,"475": 84.711,"500": 80.237,"525": 77.551,"550": 68.223,"575": 56.141,"600": 48.148,"625": 38.098,"650": 31.254,"675": 24.307,"700": 22.109,"725": 20.115,"750": 18.452,"775": 17.938,"800": 14.692,"825": 13.46,"850": 11.158,"875": 10.419,"900": 8.672,"925": 7.214,"950": 6.536,"975": 5.385,"1000": 3.741,"1025": 2.94,"1050": 2.241,"1075": 1.603,"1100": 1.069,"1125": 0.74,"1150": 0.267,"1175": 0.329,"1200": 0.103,"1250": 0.041}}}