{"type":"Feature","properties":{"GID_3":"BOL.4.3.3_2","GID_0":"BOL","country":"Bolivia","GID_1":"BOL.4_1","province":"LaPaz","NL_NAME_1":"NA","GID_2":"BOL.4.3_2","county":"Aroma","NL_NAME_2":"NA","city":"Collana","VARNAME_3":"NA","NL_NAME_3":"NA","TYPE_3":"District","ENGTYPE_3":"Distrito","CC_3":"NA","HASC_3":"NA","name":"Collana.city"},
"geometry":{"type": "MultiPolygon","coordinates": [[[[-68.2195,-16.8187,3875.6685],[-68.2268,-16.8209,3872.3533],[-68.2294,-16.8267,3874.0354],[-68.2444,-16.8305,4002.4604],[-68.2473,-16.8456,3877.9517],[-68.2673,-16.8625,3868.425],[-68.2885,-16.8744,3889.1875],[-68.2912,-16.8803,3903.9111],[-68.3098,-16.884,4144.7861],[-68.3147,-16.8864,4246.9736],[-68.3238,-16.8872,4298.9443],[-68.33,-16.8906,4149.291],[-68.3395,-16.8914,4356.7104],[-68.3502,-16.8969,4059.8533],[-68.3704,-16.913,4148.1387],[-68.3759,-16.9225,4152.6738],[-68.3747,-16.9287,4066.8513],[-68.379,-16.9333,4036.4756],[-68.3758,-16.9368,4045.5178],[-68.376,-16.9408,4041.3232],[-68.3737,-16.9424,4046.3247],[-68.3741,-16.9455,4056.1296],[-68.372,-16.9503,4061.8657],[-68.3697,-16.9518,4066.9148],[-68.3714,-16.9645,4100.3633],[-68.3646,-16.9655,4124.811],[-68.3598,-16.9735,4246.0996],[-68.3421,-16.9671,4426.2715],[-68.3064,-16.9483,4268.3721],[-68.2784,-16.924,3980.5835],[-68.2646,-16.9085,3924.6648],[-68.2499,-16.8866,3881.6289],[-68.234,-16.8582,3877.897],[-68.2075,-16.8399,3900.7888],[-68.1878,-16.8392,3929.1968],[-68.1973,-16.8301,3904.0959],[-68.1978,-16.8274,3915.2166],[-68.2195,-16.8187,3875.6685]]]]}}