{"type": "Feature","bbox": [-68.8219,-15.9442,-68.1491,-15.4526],"geometry": {"type": "MultiPolygon","coordinates": [[[[-68.6944,-15.8551,4233.4248],[-68.6818,-15.853,4349.3359],[-68.6761,-15.8644,4272.1357],[-68.6681,-15.8671,4247.3027],[-68.6683,-15.8709,4284.959],[-68.6634,-15.8812,4198.5068],[-68.6341,-15.9074,4176.3633],[-68.62,-15.9083,4380.6978],[-68.5981,-15.9286,4270.0947],[-68.5195,-15.9332,4879.8882],[-68.4272,-15.9442,5239.4438],[-68.4227,-15.9436,5357.7207],[-68.4137,-15.9369,5296.6055],[-68.4119,-15.9318,5308.7759],[-68.4062,-15.9254,5495.8457],[-68.4033,-15.9261,5529.5088],[-68.3954,-15.9157,5279.0537],[-68.3903,-15.912,5155.1567],[-68.3846,-15.9097,5135.9429],[-68.3764,-15.9108,4931.1582],[-68.3664,-15.9085,5332.4517],[-68.3704,-15.8912,5097.6108],[-68.3688,-15.8886,5168.1895],[-68.3713,-15.8809,5045.6934],[-68.3657,-15.8741,4883.7793],[-68.3633,-15.8684,4703.7349],[-68.3583,-15.8642,4777.6982],[-68.3579,-15.8598,4741.231],[-68.3558,-15.8576,4952.3022],[-68.3502,-15.858,4883.7129],[-68.3449,-15.8513,4802.022],[-68.3446,-15.8438,4691.1992],[-68.3315,-15.8354,4804.3779],[-68.3303,-15.8325,4844.0127],[-68.3309,-15.8139,4526.8164],[-68.324,-15.8042,4118.8076],[-68.3234,-15.8001,4088.752],[-68.3262,-15.7935,4067.3354],[-68.3208,-15.7769,3575.4365],[-68.326,-15.7672,3401.9976],[-68.3205,-15.7572,3754.7529],[-68.3172,-15.7563,3832.9583],[-68.3107,-15.7508,3860.2212],[-68.2946,-15.7468,4466.5039],[-68.2875,-15.742,4320.4478],[-68.2887,-15.7358,4038.4131],[-68.2826,-15.7289,3648.6677],[-68.2796,-15.721,3560.8228],[-68.2694,-15.7147,3353.8081],[-68.2597,-15.7127,2864.8708],[-68.2552,-15.7097,2611.6182],[-68.2504,-15.7043,2453.3633],[-68.247,-15.694,2744.2476],[-68.2406,-15.6845,2931.979],[-68.2264,-15.6808,2299.9812],[-68.2194,-15.681,2253.4653],[-68.2126,-15.6757,2162.093],[-68.2029,-15.6725,2082.5706],[-68.1889,-15.6566,2097.2542],[-68.1879,-15.6481,2155.8245],[-68.1849,-15.6414,2044.2869],[-68.1842,-15.6327,1996.1587],[-68.1798,-15.6295,1987.585],[-68.175,-15.6198,1704.9478],[-68.1699,-15.6168,1538.6052],[-68.1615,-15.6075,1115.9641],[-68.1525,-15.603,814.4077],[-68.1491,-15.5984,672.7803],[-68.1494,-15.5956,690.3986],[-68.1556,-15.5956,703.8824],[-68.1568,-15.5927,758.2945],[-68.1625,-15.5929,710.2225],[-68.163,-15.589,799.4506],[-68.1662,-15.5883,725.7018],[-68.168,-15.581,1191.4963],[-68.1832,-15.5665,1761.5649],[-68.2379,-15.5724,2134.1985],[-68.2808,-15.6174,1222.4213],[-68.2928,-15.6275,1155.4766],[-68.3143,-15.6343,1803.2557],[-68.3977,-15.556,2740.0945],[-68.3977,-15.5493,2312.5405],[-68.4052,-15.5317,1858.0542],[-68.4047,-15.526,1740.6686],[-68.4019,-15.5223,1589.2798],[-68.4037,-15.5103,1366.7461],[-68.4057,-15.5091,1344.2722],[-68.405,-15.507,1344.7908],[-68.4077,-15.5027,1190.2786],[-68.4048,-15.4873,1238.7111],[-68.418,-15.4866,1749.7087],[-68.4486,-15.4703,1845.4158],[-68.4602,-15.4873,2786.4297],[-68.498,-15.4526,3554.1038],[-68.5031,-15.4534,3515.2698],[-68.5187,-15.4699,3808.864],[-68.5245,-15.4803,3465.5291],[-68.5298,-15.4859,3451.6169],[-68.5377,-15.5194,4318.6353],[-68.5408,-15.5246,3892.4856],[-68.5549,-15.5338,3506.0376],[-68.5685,-15.5541,2533.5283],[-68.5737,-15.5518,2466.3955],[-68.5764,-15.5454,2389.4241],[-68.5818,-15.5413,2339.0112],[-68.5893,-15.5281,2236.4712],[-68.6034,-15.5199,1943.8472],[-68.6035,-15.5131,1942.2581],[-68.6093,-15.5177,1986.2719],[-68.6148,-15.5312,2114.397],[-68.618,-15.5338,2193.5308],[-68.6202,-15.5386,2311.136],[-68.6193,-15.5503,2652.417],[-68.6161,-15.5538,2771.3833],[-68.6085,-15.5752,3686.1445],[-68.61,-15.5862,4292.1743],[-68.5937,-15.6114,4482.6797],[-68.5847,-15.614,4487.8955],[-68.5805,-15.6196,4441.4302],[-68.5705,-15.6544,4646.4883],[-68.5645,-15.6676,4714.2046],[-68.5697,-15.6745,4750.1855],[-68.6187,-15.6696,4878.938],[-68.629,-15.6665,4676.7354],[-68.6442,-15.651,4460.0112],[-68.6491,-15.6516,4428.3545],[-68.6534,-15.6541,4279.3535],[-68.6605,-15.651,4169.4551],[-68.6775,-15.6518,3684.9375],[-68.6833,-15.654,3375.1274],[-68.6898,-15.6529,3044.9028],[-68.6964,-15.6582,2470.2871],[-68.7013,-15.6559,2401.2815],[-68.7216,-15.6399,2098.3113],[-68.7395,-15.6439,1813.321],[-68.7487,-15.6437,1697.8533],[-68.7516,-15.6423,1671.906],[-68.7564,-15.6471,1743.8358],[-68.7539,-15.6502,1893.6128],[-68.7542,-15.6561,1991.8032],[-68.7587,-15.6596,1898.3397],[-68.7586,-15.6635,1990.3937],[-68.7636,-15.668,2022.0687],[-68.7709,-15.6912,2121.1995],[-68.7759,-15.694,2158.7969],[-68.7766,-15.7011,2259.4106],[-68.7805,-15.7043,2271.3782],[-68.7813,-15.7071,2323.1055],[-68.783,-15.7074,2323.1055],[-68.7843,-15.7119,2394.4233],[-68.7864,-15.7132,2407.447],[-68.791,-15.7292,2604.0562],[-68.7928,-15.731,2643.1355],[-68.7976,-15.7313,2716.2632],[-68.8016,-15.7358,2760.2236],[-68.8053,-15.7356,2833.6152],[-68.8219,-15.7539,3309.604],[-68.8073,-15.7701,4194.3403],[-68.8065,-15.7956,4375.2305],[-68.7931,-15.7847,4364.2705],[-68.7835,-15.7814,4174.6348],[-68.7756,-15.7766,4030.7056],[-68.7412,-15.7791,3042.2512],[-68.7287,-15.7781,2562.22],[-68.7201,-15.7732,2585.1318],[-68.7202,-15.7666,2387.4783],[-68.7177,-15.7608,2265.8745],[-68.7097,-15.7555,2217.6558],[-68.7024,-15.7529,2137.9563],[-68.698,-15.7535,2128.7944],[-68.6953,-15.758,2112.1665],[-68.6973,-15.7682,2372.5649],[-68.7072,-15.7849,3278.0625],[-68.71,-15.7927,3441.1699],[-68.7151,-15.7949,3657.1323],[-68.7205,-15.8043,3852.4121],[-68.7212,-15.81,3997.9146],[-68.7088,-15.834,4045.3721],[-68.6944,-15.8551,4233.4248]]]]}
,"properties": {"GID_3": "BOL.4.12.5_2","GID_0": "BOL","country": "Bolivia","GID_1": "BOL.4_1","province": "LaPaz","NL_NAME_1": "NA","GID_2": "BOL.4.12_2","county": "Larecaja","NL_NAME_2": "NA","city": "Sorata","VARNAME_3": "NA","NL_NAME_3": "NA","TYPE_3": "District","ENGTYPE_3": "Distrito","CC_3": "NA","HASC_3": "NA","name": "Sorata.city","area_km2": 1909.119,"hist_schema_id": "Elevation0-9000","hist_area_km2": {"650": 0.02,"675": 0.102,"700": 0.245,"725": 0.265,"750": 0.388,"775": 0.49,"800": 0.674,"825": 0.715,"850": 0.715,"875": 0.939,"900": 1.225,"925": 1.103,"950": 1.348,"975": 1.613,"1000": 1.389,"1025": 1.47,"1050": 1.572,"1075": 2.063,"1100": 1.858,"1125": 1.797,"1150": 2.124,"1175": 2.124,"1200": 2.328,"1225": 2.655,"1250": 2.451,"1275": 2.655,"1300": 2.696,"1325": 3.431,"1350": 3.553,"1375": 3.329,"1400": 3.267,"1425": 3.758,"1450": 3.308,"1475": 4.207,"1500": 3.737,"1525": 3.574,"1550": 4.288,"1575": 3.941,"1600": 4.574,"1625": 4.452,"1650": 4.247,"1675": 4.533,"1700": 4.942,"1725": 5.207,"1750": 5.248,"1775": 5.187,"1800": 5.35,"1825": 6.085,"1850": 6.003,"1875": 6.595,"1900": 6.146,"1925": 6.616,"1950": 6.657,"1975": 6.738,"2000": 7.106,"2025": 7.575,"2050": 6.922,"2075": 7.616,"2100": 7.207,"2125": 7.452,"2150": 8.147,"2175": 8.004,"2200": 8.534,"2225": 7.881,"2250": 9.085,"2275": 8.575,"2300": 9.677,"2325": 9.453,"2350": 9.085,"2375": 9.636,"2400": 9.412,"2425": 9.963,"2450": 9.697,"2475": 10.167,"2500": 10.616,"2525": 10.882,"2550": 11.432,"2575": 11.412,"2600": 11.698,"2625": 10.82,"2650": 11.636,"2675": 11.963,"2700": 12.31,"2725": 11.84,"2750": 12.535,"2775": 12.024,"2800": 12.903,"2825": 13.29,"2850": 13.106,"2875": 13.269,"2900": 13.841,"2925": 13.616,"2950": 13.718,"2975": 13.432,"3000": 13.085,"3025": 14.331,"3050": 14.943,"3075": 14.432,"3100": 14.045,"3125": 14.432,"3150": 14.065,"3175": 15.024,"3200": 14.289,"3225": 13.718,"3250": 12.963,"3275": 15.269,"3300": 14.636,"3325": 14.432,"3350": 15.085,"3375": 14.84,"3400": 14.493,"3425": 15.411,"3450": 15.411,"3475": 16.513,"3500": 15.044,"3525": 15.636,"3550": 15.329,"3575": 15.329,"3600": 15.86,"3625": 16.043,"3650": 16.166,"3675": 16.268,"3700": 15.615,"3725": 16.165,"3750": 16.206,"3775": 15.961,"3800": 15.879,"3825": 15.838,"3850": 16.021,"3875": 16.553,"3900": 15.593,"3925": 15.204,"3950": 15.755,"3975": 16.041,"4000": 15.285,"4025": 15.754,"4050": 16.836,"4075": 16.1,"4100": 17.161,"4125": 16.59,"4150": 17.651,"4175": 16.467,"4200": 17.058,"4225": 16.894,"4250": 17.507,"4275": 15.834,"4300": 14.814,"4325": 15.59,"4350": 14.672,"4375": 14.59,"4400": 14.488,"4425": 14.589,"4450": 13.018,"4475": 14.323,"4500": 15.221,"4525": 13.282,"4550": 13.671,"4575": 13.527,"4600": 12.609,"4625": 13.262,"4650": 12.588,"4675": 12.078,"4700": 12.18,"4725": 11.302,"4750": 11.118,"4775": 9.751,"4800": 9.363,"4825": 8.73,"4850": 8.424,"4875": 8.097,"4900": 8.056,"4925": 7.689,"4950": 8.117,"4975": 8.382,"5000": 8.076,"5025": 8.137,"5050": 7.831,"5075": 8.035,"5100": 7.79,"5125": 7.525,"5150": 6.913,"5175": 7.219,"5200": 6.75,"5225": 7.546,"5250": 7.26,"5275": 7.362,"5300": 6.547,"5325": 6.608,"5350": 5.914,"5375": 5.364,"5400": 5.405,"5425": 4.895,"5450": 4.691,"5475": 4.507,"5500": 3.957,"5525": 4.691,"5550": 3.936,"5575": 3.671,"5600": 3.182,"5625": 3.141,"5650": 3.528,"5675": 2.509,"5700": 2.713,"5725": 2.264,"5750": 1.876,"5775": 1.999,"5800": 1.836,"5825": 1.53,"5850": 1.326,"5875": 0.999,"5900": 1.305,"5925": 1.163,"5950": 1.101,"5975": 1.04,"6000": 0.592,"6025": 0.306,"6050": 0.347,"6075": 0.326,"6100": 0.204,"6125": 0.265,"6150": 0.265,"6175": 0.204,"6200": 0.041,"6225": 0.102,"6275": 0.041,"6300": 0.02,"6325": 0.041,"6350": 0.041,"6375": 0.041,"6400": 0.02}}}