{"type":"Feature","properties":{"GID_3":"BOL.8.7.3_2","GID_0":"BOL","country":"Bolivia","GID_1":"BOL.8_1","province":"SantaCruz","NL_NAME_1":"NA","GID_2":"BOL.8.7_2","county":"Guarayos","NL_NAME_2":"NA","city":"Urubicha","VARNAME_3":"NA","NL_NAME_3":"NA","TYPE_3":"District","ENGTYPE_3":"Distrito","CC_3":"NA","HASC_3":"NA","name":"Urubicha.city"},
"geometry":{"type": "MultiPolygon","coordinates": [[[[-63.5612,-14.2966,162.7013],[-63.5543,-14.2951,165.1032],[-63.542,-14.2979,164.7379],[-63.5381,-14.2969,164.6079],[-63.5395,-14.2938,159.8707],[-63.5382,-14.2926,170.9354],[-63.5287,-14.2921,172.2017],[-63.53,-14.2967,172.7415],[-63.528,-14.2981,163.4281],[-63.5244,-14.2969,161.1911],[-63.5248,-14.3045,160.4284],[-63.5216,-14.3065,165.7515],[-63.5211,-14.3114,166.8535],[-63.5107,-14.3148,171.7154],[-63.5151,-14.3198,169.9924],[-63.5196,-14.322,180.7966],[-63.5192,-14.3241,175.7419],[-63.5137,-14.3301,167.3864],[-63.507,-14.3303,166.726],[-63.5054,-14.3318,166.985],[-63.504,-14.3376,164.3908],[-63.5016,-14.3405,171.9823],[-63.506,-14.3467,164.7802],[-63.4961,-14.3489,164.6734],[-63.4988,-14.354,170.5425],[-63.4976,-14.3687,166.9346],[-63.4999,-14.3736,160.7494],[-63.4957,-14.3754,160.8055],[-63.492,-14.3821,163.077],[-63.4867,-14.3808,163.8765],[-63.485,-14.3828,165.9979],[-63.4974,-14.3917,163.6776],[-63.5074,-14.3873,165.9388],[-63.5084,-14.3905,167.8405],[-63.5031,-14.3975,171.2604],[-63.5058,-14.4028,161.7905],[-63.5093,-14.4056,158.0377],[-63.5106,-14.412,173.0956],[-63.5138,-14.4155,162.7836],[-63.5072,-14.4204,164.4811],[-63.5015,-14.4161,167.7879],[-63.5026,-14.4214,165.0588],[-63.4955,-14.4268,159.8503],[-63.4979,-14.4286,167.7816],[-63.5011,-14.4258,165.8756],[-63.5034,-14.4276,173.7452],[-63.5024,-14.4295,174.5542],[-63.4972,-14.4313,176.3929],[-63.492,-14.429,164.3549],[-63.4889,-14.4294,160.82],[-63.4888,-14.4358,163.558],[-63.4851,-14.4377,161.0961],[-63.4899,-14.4379,170.1248],[-63.4906,-14.4397,170.1779],[-63.4852,-14.4484,170.6067],[-63.4784,-14.4538,160.6954],[-63.4826,-14.4555,167.2931],[-63.4859,-14.4538,167.0254],[-63.4859,-14.4567,162.78],[-63.4816,-14.4595,170.1812],[-63.4767,-14.4598,167.8553],[-63.4758,-14.4651,174.2552],[-63.4739,-14.4667,176.4319],[-63.4778,-14.4733,164.3932],[-63.4825,-14.4746,164.8483],[-63.4794,-14.4769,166.3345],[-63.4748,-14.4754,168.2222],[-63.4727,-14.4784,166.2706],[-63.4679,-14.4799,171.483],[-63.4671,-14.4838,171.4251],[-63.4712,-14.4873,163.8834],[-63.4711,-14.4898,168.3178],[-63.4666,-14.4902,165.5947],[-63.4641,-14.4885,163.5608],[-63.4617,-14.4912,161.5821],[-63.4572,-14.4865,162.6103],[-63.4545,-14.4892,160.4672],[-63.452,-14.4871,167.683],[-63.4487,-14.4872,173.5444],[-63.4485,-14.4894,169.8341],[-63.4506,-14.4907,167.9306],[-63.4496,-14.4935,171.1532],[-63.4454,-14.4917,161.9502],[-63.4444,-14.4881,161.4829],[-63.4389,-14.4898,167.1524],[-63.4355,-14.4935,166.286],[-63.4309,-14.492,168.2272],[-63.4307,-14.4956,169.2421],[-63.4334,-14.4994,167.8898],[-63.4408,-14.5038,168.5672],[-63.4416,-14.5111,164.8549],[-63.4431,-14.5113,165.4101],[-63.4431,-14.5075,171.247],[-63.4455,-14.5083,164.621],[-63.4468,-14.5113,166.3153],[-63.4439,-14.5179,167.8656],[-63.4403,-14.5155,166.5152],[-63.4402,-14.5115,166.6705],[-63.439,-14.5111,172.399],[-63.4351,-14.5163,172.0164],[-63.4289,-14.5185,166.7094],[-63.4238,-14.5169,167.4332],[-63.4213,-14.5184,165.1152],[-63.4217,-14.5212,166.2137],[-63.4259,-14.5206,166.5618],[-63.4257,-14.5279,164.878],[-63.4295,-14.5278,165.5527],[-63.4288,-14.5318,169.2126],[-63.4249,-14.5345,164.9789],[-63.4274,-14.5379,166.6357],[-63.4222,-14.5388,170.5405],[-63.4222,-14.5463,165.6578],[-63.4306,-14.5465,169.8681],[-63.431,-14.5434,168.857],[-63.4365,-14.5443,171.0962],[-63.4415,-14.5416,169.9343],[-63.4454,-14.5508,169.9278],[-63.4525,-14.5469,170.5526],[-63.4568,-14.5502,170.358],[-63.4584,-14.5457,170.7257],[-63.4598,-14.5501,176.1559],[-63.4581,-14.5533,171.5908],[-63.4578,-14.5597,170.5936],[-63.462,-14.5589,171.998],[-63.4697,-14.5657,167.0844],[-63.4697,-14.5676,170.4982],[-63.4661,-14.5682,167.7008],[-63.4657,-14.5707,176.8824],[-63.4617,-14.5747,175.0836],[-63.4654,-14.5784,175.8619],[-63.4667,-14.5837,171.0376],[-63.4738,-14.5863,170.8206],[-63.478,-14.5827,177.1225],[-63.4798,-14.5785,170.5636],[-63.4863,-14.5805,168.6782],[-63.4909,-14.5838,172.2828],[-63.4978,-14.5814,171.8314],[-63.5046,-14.5889,169.0033],[-63.5,-14.595,178.2578],[-63.5003,-14.5967,180.145],[-63.505,-14.5985,174.1275],[-63.5091,-14.5977,173.9872],[-63.5101,-14.6031,170.9594],[-63.5203,-14.5986,173.0576],[-63.5184,-14.597,174.6509],[-63.5147,-14.6003,171.612],[-63.513,-14.5999,175.365],[-63.5189,-14.5897,177.2481],[-63.5222,-14.5892,167.8086],[-63.5198,-14.5864,172.0836],[-63.5227,-14.5842,171.7104],[-63.5233,-14.5807,178.5891],[-63.5277,-14.5852,169.3159],[-63.5302,-14.5798,171.5363],[-63.5364,-14.5852,167.64],[-63.5426,-14.5988,172.7755],[-63.5481,-14.6039,172.8913],[-63.5485,-14.6099,173.888],[-63.5529,-14.608,175.1517],[-63.5581,-14.6123,171.3657],[-63.5587,-14.6185,170.8026],[-63.5635,-14.6166,174.8431],[-63.5662,-14.618,172.0246],[-63.5666,-14.62,172.5158],[-63.5645,-14.6222,183.4725],[-63.5663,-14.6259,163.0661],[-63.5685,-14.6268,170.8497],[-63.5694,-14.6301,163.5772],[-63.5684,-14.6345,170.731],[-63.5732,-14.6354,165.1958],[-63.5673,-14.6413,175.7963],[-63.5671,-14.6446,169.1305],[-63.5694,-14.6469,173.2048],[-63.5729,-14.6446,169.1902],[-63.5738,-14.6488,167.908],[-63.5784,-14.6535,168.9763],[-63.5748,-14.6566,169.9208],[-63.5743,-14.6615,168.7163],[-63.5671,-14.6639,170.2552],[-63.572,-14.6685,178.0836],[-63.5722,-14.6711,180.4961],[-63.5702,-14.6721,176.0354],[-63.5684,-14.6697,181.3007],[-63.5661,-14.6695,175.0452],[-63.5617,-14.6767,177.7048],[-63.5631,-14.6786,171.8428],[-63.5659,-14.6778,173.9034],[-63.5659,-14.6858,173.0525],[-63.5627,-14.6855,173.1353],[-63.5613,-14.6881,173.875],[-63.5583,-14.6894,176.2196],[-63.5506,-14.6877,178.4914],[-63.548,-14.6839,166.8962],[-63.5495,-14.6795,174.8912],[-63.5469,-14.6756,175.4393],[-63.5444,-14.6764,174.1584],[-63.5453,-14.6804,176.0652],[-63.5433,-14.6831,172.2172],[-63.5444,-14.6865,175.6124],[-63.5391,-14.6897,174.6933],[-63.5375,-14.6932,171.8899],[-63.5415,-14.6919,172.8441],[-63.5411,-14.6972,173.6813],[-63.5383,-14.7001,177.9026],[-63.5385,-14.7025,176.5641],[-63.5358,-14.6996,174.3181],[-63.5345,-14.7,174.3181],[-63.5346,-14.7127,172.0314],[-63.5384,-14.7147,176.8563],[-63.5407,-14.7219,171.5012],[-63.5432,-14.7242,172.1119],[-63.5458,-14.7209,181.2975],[-63.5551,-14.7213,182.0404],[-63.5592,-14.7158,172.7983],[-63.5611,-14.7154,171.4793],[-63.5607,-14.7237,171.1757],[-63.564,-14.7261,172.1611],[-63.5675,-14.7244,175.4134],[-63.5704,-14.7302,181.7397],[-63.568,-14.7344,173.9119],[-63.5713,-14.7345,175.7213],[-63.5724,-14.7389,180.6091],[-63.5753,-14.74,179.3028],[-63.5798,-14.7382,172.7112],[-63.5811,-14.7406,184.9932],[-63.5798,-14.7441,173.5684],[-63.5828,-14.7462,178.2443],[-63.5847,-14.7424,177.2742],[-63.5873,-14.7421,175.3227],[-63.596,-14.7525,172.4514],[-63.5997,-14.7543,184.8934],[-63.5983,-14.7551,177.2505],[-63.5922,-14.7533,172.1763],[-63.5936,-14.7609,175.547],[-63.5977,-14.7627,170.3416],[-63.5963,-14.7653,176.735],[-63.5927,-14.7656,175.0302],[-63.5922,-14.7674,172.143],[-63.5966,-14.7714,180.8768],[-63.5981,-14.7762,174.2616],[-63.6004,-14.777,175.6691],[-63.605,-14.7736,172.2379],[-63.6105,-14.7764,178.609],[-63.6138,-14.772,178.1309],[-63.6186,-14.7782,175.6406],[-63.6247,-14.781,174.4843],[-63.6277,-14.7807,169.9861],[-63.627,-14.7768,174.7083],[-63.6342,-14.7781,179.8902],[-63.6354,-14.7833,176.3789],[-63.634,-14.7878,184.5616],[-63.6398,-14.7936,174.0219],[-63.6412,-14.7993,169.8417],[-63.6365,-14.8022,177.0286],[-63.6331,-14.8072,175.1584],[-63.6363,-14.8202,172.9031],[-63.6345,-14.8272,175.493],[-63.6298,-14.8329,179.7738],[-63.6313,-14.8395,173.0332],[-63.629,-14.841,175.181],[-63.6197,-14.8405,172.0049],[-63.6202,-14.8427,172.4672],[-63.624,-14.8426,174.5606],[-63.6244,-14.8439,169.3922],[-63.62,-14.8473,177.2608],[-63.6147,-14.8451,169.1222],[-63.6135,-14.8544,175.6835],[-63.605,-14.8529,184.9188],[-63.6042,-14.8572,169.9509],[-63.6073,-14.8561,173.7381],[-63.6076,-14.8621,178.9849],[-63.6138,-14.8671,170.3708],[-63.6138,-14.8757,185.622],[-63.6153,-14.8783,173.2075],[-63.6111,-14.8795,183.2144],[-63.61,-14.882,173.4572],[-63.6127,-14.8828,175.613],[-63.615,-14.881,180.9424],[-63.617,-14.8836,181.188],[-63.6151,-14.885,176.7158],[-63.6152,-14.8901,174.1366],[-63.6065,-14.8922,180.5974],[-63.6069,-14.8978,177.7722],[-63.6054,-14.899,172.8459],[-63.6041,-14.8955,175.8364],[-63.6009,-14.8929,182.9916],[-63.5995,-14.8935,189.5706],[-63.598,-14.8993,173.795],[-63.5952,-14.8994,187.6546],[-63.5933,-14.9031,178.0725],[-63.597,-14.9052,176.3863],[-63.5965,-14.9087,173.4552],[-63.5942,-14.9087,173.8848],[-63.5915,-14.906,185.3771],[-63.5897,-14.9069,176.5949],[-63.5929,-14.9108,173.3658],[-63.5912,-14.9131,177.191],[-63.5945,-14.9164,174.6489],[-63.5916,-14.9186,172.7055],[-63.5892,-14.9164,171.4729],[-63.5872,-14.9167,184.3674],[-63.5862,-14.9253,181.1756],[-63.5895,-14.9272,177.8982],[-63.5919,-14.9236,172.4845],[-63.5947,-14.9266,173.2243],[-63.5899,-14.9309,172.1034],[-63.5879,-14.9362,175.2258],[-63.5898,-14.9369,182.4002],[-63.5957,-14.9332,174.3445],[-63.5948,-14.9396,179.0479],[-63.591,-14.9424,179.1317],[-63.5814,-14.94,176.0845],[-63.5804,-14.9412,187.5671],[-63.5821,-14.9461,175.4009],[-63.5779,-14.9502,180.05],[-63.5759,-14.9497,181.9923],[-63.5743,-14.9464,174.3478],[-63.5712,-14.9472,174.6745],[-63.571,-14.9435,170.7939],[-63.5691,-14.9468,172.3803],[-63.5699,-14.9562,177.9188],[-63.5742,-14.9606,174.9843],[-63.57,-14.9639,180.2977],[-63.5676,-14.9696,173.4323],[-63.5646,-14.9724,173.6266],[-63.5634,-14.9698,171.8942],[-63.5602,-14.9719,173.308],[-63.5558,-14.971,179.6132],[-63.5542,-14.9769,172.3857],[-63.5492,-14.9804,171.3968],[-63.5459,-14.9806,190.1045],[-63.55,-14.9867,176.0584],[-63.5517,-14.9862,175.3597],[-63.5517,-14.9829,188.1064],[-63.5548,-14.9847,185.8342],[-63.5524,-14.9901,182.5076],[-63.543,-14.989,178.4128],[-63.5433,-14.997,175.0671],[-63.5423,-15.0,178.8273],[-63.5394,-15.0008,178.4777],[-63.5393,-15.0037,176.3515],[-63.5427,-15.0031,174.7604],[-63.5442,-15.0066,181.4431],[-63.5413,-15.0065,170.8896],[-63.5392,-15.0089,173.1225],[-63.5354,-15.0083,178.2763],[-63.5338,-15.0142,175.2742],[-63.5289,-15.006,174.3513],[-63.5298,-15.0136,186.6241],[-63.5239,-15.0211,173.0297],[-63.5288,-15.0271,185.812],[-63.5335,-15.0257,178.3323],[-63.5357,-15.0276,179.8018],[-63.5366,-15.0298,176.9116],[-63.5334,-15.036,187.2725],[-63.5337,-15.0403,171.3483],[-63.5269,-15.0373,183.0989],[-63.5261,-15.0399,178.3358],[-63.5194,-15.046,188.1705],[-63.5225,-15.0476,177.6805],[-63.5189,-15.0563,185.367],[-63.5192,-15.0597,183.8757],[-63.5132,-15.0602,175.4107],[-63.5082,-15.0578,183.8356],[-63.506,-15.0591,177.5654],[-63.5057,-15.0625,175.3178],[-63.5022,-15.0632,184.6422],[-63.5042,-15.0673,176.1015],[-63.5083,-15.07,174.3036],[-63.5064,-15.0724,176.4375],[-63.4968,-15.0726,186.9008],[-63.4979,-15.0761,178.0021],[-63.4956,-15.0869,185.2947],[-63.4921,-15.0873,187.1518],[-63.4901,-15.0922,185.8845],[-63.492,-15.0984,176.606],[-63.4851,-15.0947,182.5933],[-63.4837,-15.097,192.1172],[-63.486,-15.1006,175.7152],[-63.4815,-15.1006,180.1468],[-63.4788,-15.103,192.5573],[-63.4772,-15.1022,177.9912],[-63.4773,-15.0958,184.1099],[-63.4738,-15.0949,179.0493],[-63.4719,-15.097,188.4964],[-63.4763,-15.1004,176.8321],[-63.4736,-15.1027,179.2837],[-63.4668,-15.1005,181.6919],[-63.4611,-15.1018,182.4369],[-63.4619,-15.0991,187.4555],[-63.4593,-15.0976,189.4505],[-63.4521,-15.1032,186.4148],[-63.4488,-15.1033,182.5156],[-63.4498,-15.1077,188.9166],[-63.4451,-15.1068,176.244],[-63.4437,-15.1087,178.6935],[-63.4419,-15.1058,177.5992],[-63.4401,-15.1086,183.3827],[-63.4406,-15.1114,177.9174],[-63.4366,-15.1092,180.5234],[-63.4325,-15.1094,186.527],[-63.431,-15.1102,181.1003],[-63.4317,-15.1117,190.7358],[-63.4345,-15.1097,176.5257],[-63.4359,-15.1128,178.1592],[-63.4315,-15.1153,178.3924],[-63.4343,-15.116,179.2883],[-63.4354,-15.1193,183.1541],[-63.4308,-15.1181,175.7436],[-63.4292,-15.1198,177.5206],[-63.4298,-15.1217,178.7245],[-63.4279,-15.1217,176.7127],[-63.4257,-15.1243,179.2681],[-63.4245,-15.124,177.3949],[-63.4244,-15.1211,178.8091],[-63.4172,-15.1236,177.3961],[-63.4232,-15.1259,189.0119],[-63.4219,-15.1316,181.8657],[-63.4206,-15.1273,180.496],[-63.4161,-15.1303,184.5342],[-63.4133,-15.1255,181.7246],[-63.4106,-15.1258,178.3786],[-63.4097,-15.1244,182.2961],[-63.4092,-15.127,179.9703],[-63.4108,-15.1296,179.3207],[-63.4075,-15.1302,182.8488],[-63.4072,-15.1266,179.173],[-63.4034,-15.1222,182.966],[-63.3971,-15.1304,182.4114],[-63.3911,-15.1309,178.5455],[-63.3983,-15.1239,192.0607],[-63.3937,-15.124,184.706],[-63.3909,-15.12,177.3607],[-63.3894,-15.1215,180.638],[-63.3914,-15.123,179.683],[-63.3908,-15.1243,179.683],[-63.3822,-15.1243,179.7539],[-63.3817,-15.1207,179.7581],[-63.3855,-15.1196,178.8925],[-63.3801,-15.1153,181.517],[-63.3764,-15.1179,175.4021],[-63.3723,-15.1143,179.9152],[-63.3697,-15.1085,177.8667],[-63.3683,-15.1092,185.4613],[-63.3706,-15.1141,185.9676],[-63.3701,-15.1161,182.9039],[-63.3677,-15.1161,179.3514],[-63.3652,-15.1137,180.2832],[-63.3605,-15.1183,189.0588],[-63.3584,-15.1117,185.6315],[-63.363,-15.1078,187.2861],[-63.3605,-15.1045,183.9884],[-63.3523,-15.1049,186.3064],[-63.3516,-15.1087,181.3918],[-63.3495,-15.1097,188.8821],[-63.3385,-15.1062,179.4809],[-63.3367,-15.1074,179.5243],[-63.3399,-15.1094,177.4145],[-63.3341,-15.1145,193.0027],[-63.3372,-15.1169,183.1494],[-63.3339,-15.1196,191.3457],[-63.3371,-15.1249,192.4628],[-63.3328,-15.1254,182.3105],[-63.3264,-15.132,180.8241],[-63.3208,-15.134,178.4444],[-63.3244,-15.1354,178.4568],[-63.3257,-15.1389,184.2536],[-63.3218,-15.1431,186.1273],[-63.3192,-15.1446,195.0634],[-63.3172,-15.1418,182.8696],[-63.3138,-15.1409,186.1265],[-63.3122,-15.1423,180.143],[-63.3167,-15.1518,188.0612],[-63.3213,-15.1525,184.0033],[-63.323,-15.1549,183.8958],[-63.3223,-15.158,191.1502],[-63.3181,-15.1608,187.2425],[-63.319,-15.1627,184.0248],[-63.3253,-15.1649,193.1493],[-63.3252,-15.1608,188.3211],[-63.3319,-15.1608,182.2022],[-63.3295,-15.1638,182.3602],[-63.332,-15.1669,187.8825],[-63.3321,-15.1702,184.6213],[-63.3265,-15.1715,179.6221],[-63.3266,-15.1726,179.6221],[-63.3294,-15.1771,184.3921],[-63.3342,-15.1718,181.5957],[-63.3375,-15.1766,189.1729],[-63.3312,-15.1841,184.4042],[-63.3314,-15.1855,183.9397],[-63.3351,-15.1852,180.8143],[-63.3314,-15.1886,184.0685],[-63.3305,-15.1957,181.6966],[-63.3328,-15.1975,183.479],[-63.3345,-15.1945,189.1618],[-63.3364,-15.1942,195.0619],[-63.3396,-15.1968,181.9147],[-63.3434,-15.2039,186.2552],[-63.3393,-15.2118,189.2594],[-63.3323,-15.2161,184.7567],[-63.3214,-15.2196,184.4574],[-63.3188,-15.2251,186.4521],[-63.3195,-15.2286,179.713],[-63.3247,-15.23,183.3786],[-63.3277,-15.2325,183.0455],[-63.323,-15.2333,180.1882],[-63.3257,-15.2409,188.1929],[-63.322,-15.2429,184.0476],[-63.3212,-15.2393,182.4838],[-63.3192,-15.2382,181.0321],[-63.3173,-15.2448,194.3962],[-63.3205,-15.2474,184.9354],[-63.3233,-15.245,185.8263],[-63.3256,-15.2455,185.6548],[-63.3236,-15.2524,191.9733],[-63.3276,-15.253,185.1653],[-63.3306,-15.2569,186.9301],[-63.3265,-15.2572,183.3006],[-63.3229,-15.2546,181.9194],[-63.3231,-15.2584,184.8161],[-63.3261,-15.2618,184.7198],[-63.321,-15.2682,190.5366],[-63.3143,-15.2647,181.7054],[-63.3152,-15.2745,187.7691],[-63.3253,-15.2723,181.2457],[-63.3209,-15.2774,183.8294],[-63.3242,-15.2827,183.5364],[-63.318,-15.2858,187.0553],[-63.3157,-15.291,181.2087],[-63.3136,-15.291,189.6017],[-63.316,-15.295,185.0241],[-63.3124,-15.2996,194.6652],[-63.3093,-15.2967,194.157],[-63.3104,-15.2924,187.9849],[-63.3087,-15.2908,184.9932],[-63.3068,-15.2916,184.5138],[-63.3047,-15.2961,187.3378],[-63.3104,-15.3051,187.0861],[-63.3034,-15.3114,178.2037],[-63.3042,-15.3139,178.9854],[-63.3053,-15.3135,178.9854],[-63.3044,-15.3155,180.1442],[-63.3056,-15.3182,181.5858],[-63.3078,-15.3177,180.6482],[-63.3075,-15.32,186.8063],[-63.3093,-15.3211,186.8063],[-63.3084,-15.3236,194.4955],[-63.3107,-15.3215,181.9263],[-63.3142,-15.3243,185.2909],[-63.3089,-15.3292,195.5428],[-63.3146,-15.3337,181.7308],[-63.3147,-15.3372,182.2969],[-63.3067,-15.3439,188.7769],[-63.3072,-15.3506,190.6687],[-63.304,-15.3557,185.192],[-63.3055,-15.3584,181.1473],[-63.3095,-15.3599,183.5556],[-63.311,-15.3653,184.7793],[-63.3085,-15.3672,185.6725],[-63.3043,-15.3668,184.7536],[-63.3009,-15.3683,186.5733],[-63.2973,-15.363,185.2371],[-63.2971,-15.3602,187.5031],[-63.292,-15.3588,181.7042],[-63.2924,-15.3627,180.4699],[-63.2905,-15.3664,193.0788],[-63.293,-15.369,184.6909],[-63.2915,-15.371,182.9346],[-63.2928,-15.3732,182.1199],[-63.2886,-15.3751,181.676],[-63.2885,-15.3788,178.5284],[-63.287,-15.3808,182.6017],[-63.2853,-15.3806,177.3601],[-63.2856,-15.3847,182.3495],[-63.282,-15.3859,184.9022],[-63.281,-15.3884,182.5402],[-63.2832,-15.3924,181.6544],[-63.2817,-15.3947,181.3646],[-63.2798,-15.3938,182.6764],[-63.279,-15.3951,181.6314],[-63.2809,-15.3966,186.3115],[-63.2826,-15.3939,182.2549],[-63.2863,-15.3939,181.9055],[-63.2878,-15.3948,180.2893],[-63.2886,-15.3985,182.4505],[-63.2968,-15.3988,182.8534],[-63.3028,-15.4106,187.245],[-63.3093,-15.4148,184.6223],[-63.312,-15.4212,187.5082],[-63.3122,-15.4384,185.1068],[-63.3158,-15.4454,183.3932],[-63.323,-15.4472,190.5809],[-63.3254,-15.4532,189.6714],[-63.3246,-15.4551,188.4194],[-63.3204,-15.4557,188.1217],[-63.3204,-15.4605,191.8221],[-63.3169,-15.4633,187.2196],[-63.3172,-15.466,188.2906],[-63.3116,-15.4692,189.5719],[-63.3123,-15.4757,190.6303],[-63.3101,-15.476,184.9516],[-63.3103,-15.4796,186.4872],[-63.3051,-15.4822,190.8593],[-63.3031,-15.4888,189.5569],[-63.3111,-15.4957,188.7989],[-63.3152,-15.5036,190.2919],[-63.3169,-15.5036,188.0287],[-63.3169,-15.5056,190.6137],[-63.3221,-15.5053,193.2444],[-63.3273,-15.5081,192.2885],[-63.3276,-15.5143,195.3192],[-63.3233,-15.5191,191.3436],[-63.3253,-15.5224,195.011],[-63.3257,-15.5297,191.2047],[-63.3215,-15.5353,196.0269],[-63.3091,-15.5414,191.4701],[-63.3016,-15.5492,195.7406],[-63.301,-15.5602,194.5225],[-63.3086,-15.5654,191.3289],[-63.3126,-15.5635,194.7968],[-63.3171,-15.5639,194.3651],[-63.3174,-15.5695,189.0153],[-63.3229,-15.5745,199.015],[-63.3262,-15.5749,199.2434],[-63.332,-15.5699,196.1153],[-63.3453,-15.5742,200.9436],[-63.3473,-15.5824,197.7861],[-63.3464,-15.5865,188.6006],[-63.35,-15.5889,192.1579],[-63.3552,-15.598,191.2547],[-63.3592,-15.6021,188.22],[-63.3648,-15.6024,187.5965],[-63.3664,-15.6054,195.0905],[-63.3712,-15.6028,188.2428],[-63.3752,-15.6053,197.7015],[-63.3785,-15.6101,198.749],[-63.3784,-15.6124,199.3246],[-63.3735,-15.6135,199.5175],[-63.3705,-15.6163,200.2493],[-63.3739,-15.6201,199.1262],[-63.3739,-15.6227,195.368],[-63.3658,-15.6254,197.9096],[-63.3604,-15.625,192.3885],[-63.353,-15.6356,191.6757],[-63.3502,-15.6329,192.9553],[-63.3549,-15.6288,195.7209],[-63.3534,-15.6187,196.2559],[-63.3468,-15.622,196.9508],[-63.3437,-15.6291,198.4843],[-63.3386,-15.6326,195.6175],[-63.342,-15.6237,189.9265],[-63.3381,-15.6271,194.0752],[-63.3307,-15.629,197.5047],[-63.3346,-15.635,190.9883],[-63.3335,-15.6377,192.0932],[-63.3282,-15.6395,191.4391],[-63.331,-15.6448,193.8722],[-63.3277,-15.6442,195.6909],[-63.3248,-15.6458,197.3367],[-63.3251,-15.6526,195.008],[-63.3208,-15.6505,191.9228],[-63.3183,-15.6521,194.8701],[-63.3224,-15.6626,197.4035],[-63.3286,-15.6576,198.1343],[-63.3319,-15.6575,199.2308],[-63.3323,-15.6602,195.4283],[-63.3278,-15.6674,198.913],[-63.3298,-15.669,195.0527],[-63.3327,-15.6626,198.4431],[-63.3351,-15.6619,196.13],[-63.3364,-15.6687,202.9503],[-63.3306,-15.6709,197.999],[-63.331,-15.6723,194.4894],[-63.3349,-15.6718,194.0109],[-63.3351,-15.673,196.3629],[-63.3281,-15.6764,199.5611],[-63.331,-15.6808,202.03],[-63.3294,-15.6832,200.6665],[-63.3239,-15.681,200.2686],[-63.3207,-15.6754,201.3526],[-63.317,-15.6781,202.4834],[-63.3083,-15.6762,203.5753],[-63.3071,-15.6783,203.7878],[-63.3115,-15.6852,203.0117],[-63.3056,-15.6888,201.1719],[-63.3036,-15.6872,202.7586],[-63.3056,-15.6847,203.1358],[-63.3051,-15.6803,203.4621],[-63.3031,-15.6789,200.5973],[-63.2991,-15.6795,203.9644],[-63.3001,-15.6846,203.7699],[-63.2942,-15.6866,199.9047],[-63.2964,-15.6898,201.2161],[-63.2972,-15.6956,202.7241],[-63.2922,-15.6973,201.6044],[-63.2892,-15.7068,204.6617],[-63.2846,-15.7104,203.1183],[-63.2878,-15.713,202.8713],[-63.2881,-15.7159,203.9622],[-63.2769,-15.7214,195.5674],[-63.2777,-15.7229,195.5674],[-63.2821,-15.7223,196.1058],[-63.2843,-15.7254,200.9449],[-63.284,-15.73,197.5876],[-63.2803,-15.7294,194.1671],[-63.2788,-15.7307,191.6744],[-63.2818,-15.7407,200.823],[-63.1729,-15.7397,216.5371],[-63.0169,-15.7408,205.1145],[-63.0101,-15.7488,207.4039],[-63.0004,-15.7532,207.3037],[-62.997,-15.7523,209.4565],[-62.9957,-15.7574,208.1082],[-62.9916,-15.7572,211.5428],[-62.9917,-15.7619,206.4043],[-62.9903,-15.7589,209.8138],[-62.9842,-15.7599,215.5889],[-62.9818,-15.7553,208.9153],[-62.9777,-15.7555,208.4812],[-62.9762,-15.757,208.6353],[-62.9748,-15.7541,209.0363],[-62.9706,-15.7548,211.4825],[-62.9682,-15.7526,214.1036],[-62.9643,-15.7524,211.4981],[-62.9636,-15.7555,208.0912],[-62.9607,-15.7549,208.0481],[-62.9589,-15.7566,213.4798],[-62.9606,-15.7608,208.7959],[-62.9581,-15.7662,208.2741],[-62.955,-15.764099999999999,215.419],[-62.9542,-15.7677,207.2092],[-62.9496,-15.7672,209.5548],[-62.9461,-15.7689,209.0829],[-62.9443,-15.7662,215.263],[-62.9391,-15.7669,212.7291],[-62.9381,-15.7656,208.6028],[-62.9348,-15.7665,209.48],[-62.9351,-15.7682,217.5497],[-62.9315,-15.771,214.5203],[-62.9282,-15.7705,214.8145],[-62.9231,-15.7725,210.6796],[-62.9202,-15.7785,215.6477],[-62.9189,-15.7874,211.7782],[-62.9215,-15.7875,214.644],[-62.923,-15.784,211.4743],[-62.9244,-15.7863,214.9902],[-62.9201,-15.7924,221.5833],[-62.9215,-15.7978,214.5143],[-62.9201,-15.8018,214.4874],[-62.9011,-15.7966,218.48],[-62.8975,-15.8009,223.7342],[-62.8852,-15.8001,220.3279],[-62.8766,-15.8017,219.891],[-62.8705,-15.8061,219.6905],[-62.8619,-15.8073,221.3384],[-62.8576,-15.8107,220.5463],[-62.8513,-15.8109,223.7247],[-62.849,-15.8188,219.9046],[-62.833,-15.8251,219.9507],[-62.8265,-15.8395,228.889],[-62.823,-15.8422,227.2222],[-62.8095,-15.8468,237.0407],[-62.8088,-15.8494,237.8789],[-62.8018,-15.8505,235.0703],[-62.7958,-15.8433,240.1452],[-62.7838,-15.8457,240.3765],[-62.7763,-15.8455,243.995],[-62.7773,-15.8407,245.672],[-62.7739,-15.8397,251.7276],[-62.7649,-15.8415,254.4101],[-62.7555,-15.8459,270.6165],[-62.7467,-15.8469,260.8566],[-62.7436,-15.8437,272.3532],[-62.7421,-15.8388,265.8141],[-62.741,-15.8407,266.8709],[-62.7367,-15.841,273.6102],[-62.73,-15.8443,269.159],[-62.7245,-15.8427,269.6902],[-62.7183,-15.8452,274.5552],[-62.7146,-15.8419,271.144],[-62.7097,-15.8419,274.0845],[-62.7053,-15.8443,273.8354],[-62.7004,-15.8503,274.8538],[-62.697,-15.8473,285.9298],[-62.6877,-15.845,279.0735],[-62.6813,-15.8468,277.6499],[-62.6787,-15.8453,282.5903],[-62.6743,-15.8457,282.961],[-62.6662,-15.848,285.3684],[-62.6589,-15.8457,294.9178],[-62.6581,-15.842,283.8403],[-62.6545,-15.8412,289.8757],[-62.6473,-15.8495,292.3532],[-62.6425,-15.8461,292.6949],[-62.6348,-15.8475,288.286],[-62.6319,-15.8464,297.5497],[-62.6257,-15.8411,310.5724],[-62.6222,-15.8467,297.8097],[-62.6175,-15.8502,305.6563],[-62.6141,-15.8495,300.9545],[-62.6124,-15.8467,302.4996],[-62.6077,-15.8466,306.6413],[-62.6023,-15.8495,308.432],[-62.5871,-15.8477,315.6026],[-62.5447,-15.5868,336.0476],[-62.541,-15.577,321.1643],[-62.5369,-15.5603,312.6259],[-62.5374,-15.5555,307.8382],[-62.5344,-15.5476,301.897],[-62.5349,-15.5447,308.5229],[-62.5406,-15.5402,300.0608],[-62.5426,-15.5344,295.8092],[-62.5342,-15.5345,298.826],[-62.532,-15.5318,295.7394],[-62.5344,-15.5244,296.0806],[-62.531,-15.5216,297.3568],[-62.5096,-15.5174,304.0681],[-62.5153,-15.4998,311.1227],[-62.5147,-15.4958,318.0896],[-62.5115,-15.4928,324.5854],[-62.5093,-15.4877,317.8622],[-62.5092,-15.4749,321.446],[-62.5109,-15.4697,323.5999],[-62.5159,-15.4644,332.1081],[-62.5369,-15.4501,361.4019],[-62.5435,-15.4416,381.6301],[-62.5463,-15.4417,387.6335],[-62.5508,-15.4373,393.907],[-62.5577,-15.434,411.7318],[-62.5589,-15.4316,443.9112],[-62.55,-15.4179,353.5794],[-62.5509,-15.4072,331.0485],[-62.5427,-15.4011,323.5293],[-62.5403,-15.3903,319.4998],[-62.535,-15.3867,305.3706],[-62.5367,-15.3791,299.3915],[-62.5234,-15.374,287.092],[-62.5174,-15.3675,283.4861],[-62.5132,-15.3593,278.3233],[-62.514,-15.3541,278.7396],[-62.5171,-15.3484,274.8495],[-62.5208,-15.3467,274.248],[-62.523,-15.3411,273.761],[-62.5282,-15.3368,267.0262],[-62.5317,-15.3224,273.6472],[-62.5365,-15.3156,257.2904],[-62.5343,-15.3068,259.8971],[-62.5286,-15.3049,264.9954],[-62.5255,-15.3018,255.8483],[-62.5249,-15.2989,252.9173],[-62.5262,-15.2929,245.886],[-62.525,-15.2807,253.1773],[-62.5276,-15.2726,241.0464],[-62.525,-15.2653,241.1201],[-62.5261,-15.261,237.2587],[-62.5231,-15.2565,242.7181],[-62.5236,-15.2516,233.3377],[-62.5254,-15.2483,238.2392],[-62.5284,-15.247,238.5033],[-62.5271,-15.2457,235.8165],[-62.5279,-15.2386,232.7534],[-62.5312,-15.2356,232.3924],[-62.5307,-15.2335,232.4033],[-62.5232,-15.2295,232.1532],[-62.5244,-15.2251,229.5157],[-62.5235,-15.2194,231.6738],[-62.5263,-15.216,236.9698],[-62.5272,-15.2118,225.5789],[-62.524,-15.2091,223.3521],[-62.5249,-15.2025,232.9474],[-62.5213,-15.1913,226.2143],[-62.5145,-15.1822,224.8305],[-62.4987,-15.1769,235.0998],[-62.4982,-15.1711,216.8219],[-62.4942,-15.1648,227.2709],[-62.493,-15.1517,217.2299],[-62.4868,-15.1433,202.6461],[-62.4866,-15.1354,202.0265],[-62.4946,-15.1297,204.7685],[-62.4933,-15.1257,204.7912],[-62.4907,-15.1239,205.7313],[-62.4924,-15.1229,210.0791],[-62.4937,-15.1181,209.6418],[-62.4924,-15.1158,204.8474],[-62.4932,-15.1134,204.4305],[-62.4911,-15.1123,207.7899],[-62.4916,-15.1044,204.4277],[-62.4889,-15.0993,207.3187],[-62.485,-15.0969,200.1231],[-62.4891,-15.092,209.2487],[-62.4979,-15.0935,204.5336],[-62.4996,-15.1026,203.4339],[-62.5079,-15.1094,200.561],[-62.5193,-15.1051,202.2182],[-62.5254,-15.0973,200.4428],[-62.5269,-15.0975,201.7705],[-62.5281,-15.0919,200.7906],[-62.5308,-15.0915,197.2752],[-62.5338,-15.0943,196.0072],[-62.5391,-15.0949,199.4451],[-62.5393,-15.0911,201.5871],[-62.5363,-15.0894,203.1621],[-62.5399,-15.0852,196.1288],[-62.5417,-15.0773,199.6787],[-62.5431,-15.0765,197.911],[-62.5441,-15.0784,198.0321],[-62.5447,-15.0741,196.6176],[-62.548,-15.075,198.0775],[-62.549,-15.0724,199.4002],[-62.5524,-15.0734,193.7371],[-62.5545,-15.0699,196.396],[-62.5507,-15.0666,196.9971],[-62.5485,-15.0604,192.8051],[-62.5531,-15.0511,213.244],[-62.557,-15.0509,195.8813],[-62.5589,-15.048,195.8072],[-62.5606,-15.0479,194.9971],[-62.5606,-15.0462,204.4071],[-62.5758,-15.0403,195.2409],[-62.5849,-15.0301,195.3661],[-62.5844,-15.0283,193.2086],[-62.5826,-15.0296,196.9379],[-62.5804,-15.0281,195.0335],[-62.5817,-15.0257,195.3605],[-62.5808,-15.0246,197.8342],[-62.5827,-15.0233,191.7034],[-62.5818,-15.0213,195.8023],[-62.5844,-15.0172,194.7633],[-62.5844,-15.014,191.8209],[-62.5821,-15.0118,195.719],[-62.5845,-15.0068,198.962],[-62.5878,-15.006,193.4103],[-62.5901,-15.0023,189.7063],[-62.5949,-15.0034,195.0539],[-62.6011,-15.0012,194.1408],[-62.6012,-14.9942,199.381],[-62.607,-14.9906,200.8044],[-62.6143,-14.9938,191.8827],[-62.6194,-14.9906,194.6408],[-62.6262,-14.9907,194.9147],[-62.6267,-14.9923,194.0349],[-62.6306,-14.9905,195.229],[-62.6361,-14.9954,194.4334],[-62.6378,-14.995,195.7574],[-62.6371,-14.9921,192.1468],[-62.6408,-14.9912,193.9563],[-62.6432,-14.9925,195.7045],[-62.6442,-14.9908,196.6537],[-62.6399,-14.988,193.3176],[-62.6437,-14.9803,190.4135],[-62.6434,-14.978,190.7505],[-62.6381,-14.9767,190.6758],[-62.6387,-14.9744,194.6581],[-62.6343,-14.975,197.0886],[-62.6346,-14.9721,188.9665],[-62.6323,-14.9711,206.5118],[-62.6329,-14.9684,195.8916],[-62.6349,-14.9679,195.2484],[-62.6334,-14.9651,197.8297],[-62.6334,-14.962,196.9988],[-62.6355,-14.9596,187.8727],[-62.6347,-14.958,189.7869],[-62.6387,-14.9523,187.6762],[-62.6387,-14.9496,191.1679],[-62.643,-14.9477,191.303],[-62.6434,-14.9433,189.1418],[-62.6463,-14.9419,189.5317],[-62.6427,-14.9377,200.7815],[-62.6465,-14.9322,187.8005],[-62.6447,-14.93,190.1418],[-62.6445,-14.9252,189.2202],[-62.6467,-14.9241,194.6201],[-62.6469,-14.9211,188.031],[-62.6489,-14.9206,188.6717],[-62.6483,-14.9183,189.7567],[-62.646,-14.9203,188.031],[-62.6452,-14.9189,188.8757],[-62.646,-14.9167,186.5297],[-62.6493,-14.9166,190.5359],[-62.6497,-14.9153,187.7124],[-62.6476,-14.9115,187.5089],[-62.6448,-14.9109,192.0416],[-62.6462,-14.9085,189.7318],[-62.644,-14.9087,186.0665],[-62.6431,-14.9069,186.6268],[-62.6455,-14.9049,188.605],[-62.6451,-14.9031,186.9893],[-62.6472,-14.9034,187.7642],[-62.6462,-14.9006,190.7639],[-62.6483,-14.8975,186.1971],[-62.6462,-14.8961,186.8482],[-62.6457,-14.8979,185.2834],[-62.643,-14.8975,185.1174],[-62.6457,-14.8923,183.9195],[-62.6398,-14.8896,188.0075],[-62.639,-14.8836,188.5856],[-62.6318,-14.8889,187.7912],[-62.6296,-14.8847,185.0496],[-62.6275,-14.8872,188.5391],[-62.6245,-14.8805,189.8202],[-62.6274,-14.8779,188.114],[-62.6274,-14.8757,190.6448],[-62.6244,-14.8753,186.2197],[-62.6267,-14.8712,192.1147],[-62.63,-14.8701,185.795],[-62.6316,-14.8715,182.7695],[-62.6359,-14.8694,185.314],[-62.6366,-14.8658,188.7133],[-62.6383,-14.8666,184.5729],[-62.6381,-14.8625,189.2127],[-62.634,-14.8625,184.215],[-62.6367,-14.8585,193.5203],[-62.6347,-14.8568,190.9913],[-62.6327,-14.8575,183.5332],[-62.6332,-14.8539,183.0652],[-62.6311,-14.8522,187.3344],[-62.6342,-14.8482,185.7133],[-62.6397,-14.8448,183.3826],[-62.643,-14.8446,189.4827],[-62.6444,-14.8431,183.6025],[-62.6431,-14.8402,183.4795],[-62.6477,-14.836,185.6547],[-62.644,-14.8344,186.1281],[-62.646,-14.8325,185.5254],[-62.6445,-14.8308,181.6324],[-62.6445,-14.8259,185.749],[-62.6426,-14.8246,183.7762],[-62.6458,-14.8232,182.9419],[-62.6481,-14.8195,185.9804],[-62.6456,-14.8187,183.9074],[-62.6442,-14.8204,183.8229],[-62.642,-14.8176,186.9066],[-62.6422,-14.815,182.7152],[-62.6363,-14.8137,183.728],[-62.6356,-14.8073,181.1779],[-62.6387,-14.8016,188.5969],[-62.6476,-14.7995,184.1573],[-62.6477,-14.7962,186.1983],[-62.644,-14.7969,182.6171],[-62.6441,-14.7945,187.7596],[-62.6416,-14.7932,183.2101],[-62.6441,-14.7916,185.5595],[-62.6441,-14.7887,184.8478],[-62.6467,-14.7879,187.1257],[-62.6464,-14.7854,185.3038],[-62.6504,-14.7836,182.991],[-62.6514,-14.779,207.2583],[-62.6476,-14.7729,187.1792],[-62.6502,-14.7702,186.2663],[-62.6499,-14.7664,185.1636],[-62.6519,-14.7653,180.4504],[-62.6478,-14.7641,182.0519],[-62.6472,-14.7613,183.1506],[-62.6444,-14.7635,182.1133],[-62.6424,-14.7613,185.0697],[-62.6429,-14.7585,187.8292],[-62.6386,-14.7597,184.3439],[-62.6384,-14.7567,182.8385],[-62.6403,-14.7541,179.929],[-62.6392,-14.7504,179.2015],[-62.6359,-14.7474,181.6293],[-62.6363,-14.7419,181.122],[-62.6335,-14.7408,180.5516],[-62.6355,-14.7375,179.1132],[-62.6315,-14.7362,181.3784],[-62.6304,-14.7332,179.9602],[-62.6284,-14.7363,178.4125],[-62.627,-14.7298,180.8267],[-62.6238,-14.7317,180.7326],[-62.6216,-14.7288,178.2309],[-62.6181,-14.728,181.2288],[-62.6221,-14.7228,178.1808],[-62.616,-14.7192,181.596],[-62.6182,-14.7165,181.1119],[-62.6169,-14.7142,179.1935],[-62.6179,-14.7134,179.1935],[-62.6166,-14.705,182.6637],[-62.6143,-14.703,180.8054],[-62.6155,-14.7003,190.2131],[-62.6218,-14.7008,179.883],[-62.6208,-14.6967,178.4048],[-62.6236,-14.6945,183.2378],[-62.6279,-14.6942,178.6156],[-62.627,-14.6886,178.6287],[-62.6291,-14.6861,179.9478],[-62.6269,-14.6837,181.496],[-62.6302,-14.679,181.9498],[-62.6282,-14.6764,182.4218],[-62.6243,-14.679,186.7204],[-62.6226,-14.6754,181.6004],[-62.6236,-14.6718,191.6046],[-62.626,-14.6703,195.2657],[-62.6264,-14.6668,182.1487],[-62.6306,-14.6666,181.3882],[-62.6244,-14.6598,177.7786],[-62.6245,-14.6561,183.61],[-62.6219,-14.6583,193.3862],[-62.621,-14.6501,179.9191],[-62.6239,-14.6479,182.6736],[-62.6244,-14.6428,187.9897],[-62.6265,-14.6418,183.7656],[-62.6344,-14.6441,182.138],[-62.6352,-14.647,178.8887],[-62.6374,-14.6473,180.2606],[-62.6442,-14.6425,178.3979],[-62.645,-14.6384,183.9998],[-62.6487,-14.6398,179.9815],[-62.649,-14.6425,181.5387],[-62.6518,-14.6445,181.3525],[-62.6594,-14.6427,178.2306],[-62.6606,-14.639,178.1478],[-62.6587,-14.635,182.5423],[-62.6561,-14.6355,181.5486],[-62.6553,-14.6334,180.1082],[-62.6521,-14.6323,181.815],[-62.6495,-14.6332,183.995],[-62.6475,-14.6289,185.7552],[-62.651,-14.6235,189.633],[-62.6564,-14.6252,179.8432],[-62.6557,-14.6202,182.0232],[-62.6578,-14.6225,180.9286],[-62.6615,-14.6215,181.3435],[-62.6592,-14.6147,178.8069],[-62.6662,-14.6146,178.5546],[-62.6672,-14.6156,178.5546],[-62.666,-14.6179,179.6282],[-62.6708,-14.6179,181.276],[-62.6691,-14.6134,181.898],[-62.6715,-14.61,179.6521],[-62.6739,-14.6114,183.019],[-62.676,-14.6071,181.9551],[-62.6735,-14.6049,184.8436],[-62.6759,-14.6013,181.8268],[-62.6729,-14.6025,178.102],[-62.6683,-14.5989,180.9893],[-62.6642,-14.5993,181.4324],[-62.6635,-14.5961,179.3703],[-62.6652,-14.5939,182.9587],[-62.6602,-14.5957,182.389],[-62.6577,-14.5922,180.0363],[-62.6559,-14.5923,175.487],[-62.6559,-14.5887,185.1818],[-62.6591,-14.5888,181.581],[-62.6598,-14.585,180.0048],[-62.6666,-14.5851,178.5043],[-62.6643,-14.5804,180.4484],[-62.6706,-14.577,178.0022],[-62.6715,-14.5733,184.0493],[-62.6703,-14.5713,181.1273],[-62.6735,-14.5689,184.3223],[-62.6709,-14.5685,184.132],[-62.6696,-14.5636,177.5806],[-62.6706,-14.5579,176.6249],[-62.6694,-14.5567,185.6663],[-62.6716,-14.5542,179.6557],[-62.6684,-14.5509,180.7945],[-62.6712,-14.5502,182.5726],[-62.6724,-14.5465,178.2065],[-62.6762,-14.5481,177.5829],[-62.6778,-14.5447,178.3204],[-62.6815,-14.5438,180.9448],[-62.6835,-14.545,176.7004],[-62.6812,-14.5467,179.4971],[-62.6821,-14.5487,176.4786],[-62.6867,-14.5475,180.1469],[-62.6876,-14.5466,180.1469],[-62.6852,-14.5433,179.9632],[-62.688,-14.5412,180.5468],[-62.6943,-14.5453,178.4848],[-62.6976,-14.5448,176.462],[-62.7018,-14.5352,179.3205],[-62.7038,-14.534,174.8666],[-62.7025,-14.5332,178.8624],[-62.7042,-14.5294,175.4145],[-62.7025,-14.5229,176.0618],[-62.7069,-14.5171,179.6641],[-62.7043,-14.5159,173.3433],[-62.7049,-14.5114,173.7958],[-62.7101,-14.5129,176.4224],[-62.7139,-14.5104,172.9749],[-62.7162,-14.5117,177.8664],[-62.7236,-14.5095,179.2907],[-62.7224,-14.5049,174.3563],[-62.7186,-14.4998,177.9895],[-62.7245,-14.5014,176.7114],[-62.7262,-14.4986,174.3559],[-62.7249,-14.4951,174.8816],[-62.7261,-14.4912,174.9307],[-62.7225,-14.4895,180.6628],[-62.7252,-14.4883,175.4451],[-62.7298,-14.4901,173.8571],[-62.7292,-14.4856,177.1516],[-62.7265,-14.4853,177.8161],[-62.7261,-14.4835,176.7116],[-62.7321,-14.48,179.1064],[-62.7266,-14.4739,175.9322],[-62.7311,-14.4732,176.687],[-62.7315,-14.4709,175.8695],[-62.729,-14.4671,179.8433],[-62.7316,-14.462,175.327],[-62.7355,-14.4589,176.8329],[-62.7364,-14.4628,172.6463],[-62.7411,-14.4548,175.8209],[-62.7404,-14.4525,178.9814],[-62.7383,-14.4527,173.1983],[-62.7376,-14.4503,173.0931],[-62.7337,-14.4475,173.379],[-62.7353,-14.4424,177.1148],[-62.7319,-14.4429,172.9331],[-62.7284,-14.4365,175.3856],[-62.7315,-14.4328,178.9877],[-62.739,-14.4311,181.1948],[-62.7416,-14.4326,173.4398],[-62.7419,-14.4357,171.7579],[-62.7435,-14.4353,171.7579],[-62.7469,-14.4252,174.6726],[-62.7449,-14.4234,173.2793],[-62.741,-14.4234,175.6539],[-62.7405,-14.4216,172.9728],[-62.7422,-14.4194,177.825],[-62.7479,-14.4212,175.2165],[-62.7484,-14.4139,174.114],[-62.7508,-14.4119,175.9662],[-62.7478,-14.4066,172.2903],[-62.7496,-14.4018,171.1808],[-62.7447,-14.3979,177.4868],[-62.7508,-14.3945,172.2559],[-62.7468,-14.3931,173.9498],[-62.7507,-14.3882,170.316],[-62.7496,-14.3812,170.0695],[-62.7508,-14.3789,169.1522],[-62.7563,-14.3772,169.3885],[-62.7556,-14.3718,175.617],[-62.761,-14.369,168.4503],[-62.7581,-14.3669,168.9003],[-62.7605,-14.359,168.1688],[-62.7652,-14.3579,171.2],[-62.7674,-14.3553,172.4951],[-62.7689,-14.3558,171.4688],[-62.7739,-14.3495,172.7634],[-62.7774,-14.3497,169.5513],[-62.7774,-14.3423,168.5247],[-62.7745,-14.3376,169.853],[-62.7729,-14.3381,174.4758],[-62.7718,-14.3339,171.4715],[-62.7779,-14.3327,168.4231],[-62.7839,-14.3271,175.5546],[-62.7853,-14.3184,170.6436],[-62.7827,-14.3141,169.2298],[-62.7822,-14.3095,167.4817],[-62.7835,-14.3084,167.4308],[-62.7901,-14.3129,166.8483],[-62.7921,-14.3125,166.1923],[-62.792,-14.3083,167.7406],[-62.7964,-14.3037,169.5699],[-62.7959,-14.2986,167.4464],[-62.7978,-14.2944,168.9257],[-62.7923,-14.2921,167.9654],[-62.788,-14.2875,167.9509],[-62.7893,-14.2862,167.6311],[-62.7937,-14.2865,166.3631],[-62.7973,-14.2815,166.106],[-62.7947,-14.2797,166.2388],[-62.7874,-14.2789,166.5588],[-62.7901,-14.2754,165.9024],[-62.7894,-14.2743,165.6728],[-62.7842,-14.2702,165.617],[-62.7817,-14.2646,165.8171],[-62.7705,-14.2565,165.8038],[-62.7678,-14.249,165.4532],[-62.7657,-14.2496,165.8792],[-62.7619,-14.2466,166.6519],[-62.7661,-14.2388,165.8334],[-62.7634,-14.235,165.7695],[-62.7651,-14.2303,166.3637],[-62.7625,-14.2265,166.3483],[-62.763,-14.2126,166.3959],[-62.7659,-14.2081,166.5087],[-62.7629,-14.2038,165.8955],[-62.7567,-14.2029,166.1377],[-62.7551,-14.1967,167.0918],[-62.757,-14.1814,167.0539],[-62.7628,-14.1792,168.2217],[-62.7632,-14.1745,167.4501],[-62.7566,-14.1729,168.1531],[-62.754,-14.1656,166.448],[-62.7505,-14.164,166.141],[-62.7507,-14.1592,167.2743],[-62.7486,-14.1555,166.6696],[-62.7478,-14.1485,165.2782],[-62.7358,-14.1524,165.9723],[-62.7302,-14.1503,166.2283],[-62.7312,-14.1458,174.1708],[-62.7384,-14.1386,167.1718],[-62.7341,-14.1333,168.8358],[-62.7335,-14.1273,165.0918],[-62.7225,-14.1245,167.3551],[-62.7182,-14.1164,168.2743],[-62.711,-14.1192,167.6718],[-62.7094,-14.1167,166.6758],[-62.7043,-14.1144,163.2627],[-62.6996,-14.1013,162.3031],[-62.6969,-14.0987,162.298],[-62.693,-14.0995,162.3506],[-62.6946,-14.0949,161.5577],[-62.6902,-14.0915,161.1478],[-62.6926,-14.0889,160.7149],[-62.691,-14.0797,160.3946],[-62.692,-14.0723,160.4682],[-62.6894,-14.0687,159.6098],[-62.6833,-14.0651,159.9424],[-62.6797,-14.0659,159.91],[-62.6743,-14.0605,158.2979],[-62.6782,-14.0586,158.563],[-62.675,-14.0429,159.3945],[-62.6778,-14.0347,161.3995],[-62.6777,-14.0298,157.0872],[-62.6806,-14.0273,163.2842],[-62.6795,-14.024,161.733],[-62.6808,-14.0211,161.8139],[-62.6827,-14.0212,163.8454],[-62.6848,-14.0183,165.9367],[-62.6864,-14.0125,165.0297],[-62.6881,-14.0115,165.0297],[-62.6877,-14.0067,162.0672],[-62.6932,-14.0057,163.3277],[-62.6935,-13.9963,162.1483],[-62.6952,-13.997,167.7819],[-62.696,-13.9941,156.395],[-62.7013,-13.9914,164.7662],[-62.7003,-13.9897,161.0135],[-62.7034,-13.9772,161.8862],[-62.7054,-13.9771,167.2497],[-62.7049,-13.9758,162.6416],[-63.5612,-14.2966,162.7013]]]]}}