{"type": "Feature","bbox": [-66.732,-17.3873,-66.3979,-17.0396],"geometry": {"type": "MultiPolygon","coordinates": [[[[-66.5655,-17.3674,4570.7871],[-66.5538,-17.3763,4496.8833],[-66.5517,-17.3821,4504.4097],[-66.5388,-17.3873,4458.4683],[-66.5351,-17.3872,4507.1494],[-66.5269,-17.3763,4351.4668],[-66.522,-17.3649,4329.5078],[-66.5009,-17.3603,4174.79],[-66.4926,-17.343,4142.5835],[-66.4893,-17.3321,4151.6851],[-66.4889,-17.3156,4249.2983],[-66.4844,-17.3041,4277.0464],[-66.484,-17.2935,4248.9614],[-66.4807,-17.2876,4170.3799],[-66.4656,-17.2909,4191.2754],[-66.4592,-17.2838,4136.8853],[-66.453,-17.2808,4348.4556],[-66.4538,-17.2654,4483.1826],[-66.4413,-17.2608,4581.4902],[-66.4175,-17.2633,4506.5649],[-66.3993,-17.2438,4451.5557],[-66.3979,-17.2225,4774.6162],[-66.4,-17.2133,5027.4185],[-66.4155,-17.2185,4822.9062],[-66.4265,-17.2142,4877.6079],[-66.4338,-17.2008,4616.2021],[-66.4379,-17.1962,4603.8047],[-66.4475,-17.192,4921.8838],[-66.4589,-17.1816,4712.5723],[-66.4603,-17.1637,4523.1592],[-66.4545,-17.1572,4383.4507],[-66.4532,-17.1509,4353.04],[-66.4561,-17.1404,4279.042],[-66.4467,-17.1307,4215.7153],[-66.4395,-17.1268,4048.7881],[-66.4409,-17.1243,4055.8247],[-66.4378,-17.1171,4037.8064],[-66.439,-17.1095,4007.2671],[-66.4365,-17.1001,3949.3804],[-66.4335,-17.0981,3941.4773],[-66.4323,-17.0949,3916.6921],[-66.4943,-17.125,4813.8198],[-66.5174,-17.0913,4798.4834],[-66.5765,-17.0725,4281.6396],[-66.6087,-17.0822,3464.5483],[-66.645,-17.051,4129.0991],[-66.6621,-17.0477,3969.8665],[-66.675,-17.0415,3575.3733],[-66.6801,-17.0407,3287.22],[-66.6958,-17.043,2426.1802],[-66.704,-17.0413,2191.2788],[-66.7125,-17.0425,1981.9669],[-66.7177,-17.0396,1662.1268],[-66.7179,-17.057,1681.127],[-66.7102,-17.0767,1708.2673],[-66.7052,-17.0835,1730.8397],[-66.6936,-17.0919,1740.7369],[-66.6882,-17.1032,1765.2021],[-66.6869,-17.1097,1795.3901],[-66.6779,-17.1257,1835.0288],[-66.6764,-17.1325,1807.8828],[-66.6789,-17.1355,1821.2595],[-66.6797,-17.1402,1828.856],[-66.6759,-17.1474,1904.8971],[-66.677,-17.1515,1866.5742],[-66.675,-17.1574,1916.3074],[-66.6747,-17.1673,1942.2312],[-66.6798,-17.1707,1972.6384],[-66.6818,-17.1702,1955.208],[-66.6839,-17.173,2089.385],[-66.6909,-17.1727,2090.1743],[-66.6929,-17.1752,2089.8711],[-66.6964,-17.1753,2070.1418],[-66.7021,-17.1809,2105.3455],[-66.7061,-17.1825,2102.6636],[-66.7088,-17.189,2205.7327],[-66.7185,-17.1925,2174.9741],[-66.7222,-17.1994,2225.7607],[-66.7304,-17.2049,2270.2603],[-66.732,-17.2096,2276.7764],[-66.7285,-17.2213,2414.0793],[-66.7295,-17.2234,2442.2207],[-66.728,-17.2344,2359.3455],[-66.7295,-17.2355,2417.6292],[-66.7264,-17.2394,2591.7783],[-66.7218,-17.2418,2814.8125],[-66.6834,-17.2434,4444.9629],[-66.6672,-17.2492,4363.5117],[-66.6671,-17.2571,4457.71],[-66.6572,-17.2715,4214.9805],[-66.6429,-17.288,4188.9775],[-66.6329,-17.2951,4256.0259],[-66.6328,-17.2984,4344.7666],[-66.6268,-17.3053,4320.7114],[-66.6212,-17.3045,4302.8945],[-66.6182,-17.3063,4324.3115],[-66.6153,-17.3121,4335.3706],[-66.6095,-17.314,4300.6504],[-66.6051,-17.3252,4298.7939],[-66.5875,-17.3347,4480.022],[-66.5851,-17.3389,4538.7686],[-66.5862,-17.3429,4478.7114],[-66.5841,-17.3459,4479.52],[-66.5817,-17.3465,4469.7661],[-66.5791,-17.3545,4516.3579],[-66.5769,-17.3559,4551.416],[-66.5773,-17.3597,4496.7808],[-66.5699,-17.3631,4447.7393],[-66.5655,-17.3674,4570.7871]]]]}
,"properties": {"GID_3": "BOL.2.3.3_2","GID_0": "BOL","country": "Bolivia","GID_1": "BOL.2_1","province": "Cochabamba","NL_NAME_1": "NA","GID_2": "BOL.2.3_2","county": "Ayopaya","NL_NAME_2": "NA","city": "Morochata","VARNAME_3": "NA","NL_NAME_3": "NA","TYPE_3": "District","ENGTYPE_3": "Distrito","CC_3": "NA","HASC_3": "NA","name": "Morochata.city","area_km2": 739.6842,"hist_schema_id": "Elevation0-9000","hist_area_km2": {"1675": 0.1216,"1700": 0.2027,"1725": 0.3648,"1750": 0.304,"1775": 0.5675,"1800": 0.608,"1825": 0.7701,"1850": 0.7295,"1875": 0.6687,"1900": 1.0334,"1925": 1.3779,"1950": 1.1347,"1975": 1.3779,"2000": 1.4994,"2025": 1.317,"2050": 1.6411,"2075": 1.7627,"2100": 2.1071,"2125": 2.0463,"2150": 2.6135,"2175": 2.5934,"2200": 2.7959,"2225": 2.7756,"2250": 2.7756,"2275": 3.1605,"2300": 3.2821,"2325": 3.4239,"2350": 3.6466,"2375": 3.4643,"2400": 4.457,"2425": 3.6062,"2450": 4.214,"2475": 4.4366,"2500": 4.4976,"2525": 4.7809,"2550": 4.8013,"2575": 4.8418,"2600": 5.247,"2625": 5.2267,"2650": 5.6924,"2675": 5.6925,"2700": 5.5303,"2725": 5.6519,"2750": 5.976,"2775": 5.2873,"2800": 6.1785,"2825": 6.3,"2850": 6.4823,"2875": 6.0974,"2900": 6.6645,"2925": 6.6443,"2950": 6.6848,"2975": 6.5834,"3000": 6.7252,"3025": 6.8872,"3050": 6.9073,"3075": 6.5025,"3100": 6.7859,"3125": 7.1706,"3150": 7.1504,"3175": 6.2388,"3200": 6.2792,"3225": 7.0897,"3250": 7.1097,"3275": 6.7452,"3300": 6.4211,"3325": 7.5553,"3350": 6.6641,"3375": 7.1301,"3400": 6.9679,"3425": 7.3728,"3450": 7.6766,"3475": 7.7169,"3500": 7.3526,"3525": 7.6967,"3550": 8.7093,"3575": 8.4057,"3600": 8.0406,"3625": 8.0203,"3650": 8.1419,"3675": 7.5344,"3700": 8.324,"3725": 8.9313,"3750": 9.4579,"3775": 8.911,"3800": 9.4577,"3825": 10.0042,"3850": 9.7206,"3875": 10.0246,"3900": 10.753,"3925": 11.482,"3950": 11.603,"3975": 11.9879,"4000": 12.0687,"4025": 12.6753,"4050": 13.2222,"4075": 12.8782,"4100": 13.5463,"4125": 13.7482,"4150": 12.9788,"4175": 12.6147,"4200": 10.9139,"4225": 11.1371,"4250": 10.1853,"4275": 9.6587,"4300": 8.9498,"4325": 8.8084,"4350": 7.0264,"4375": 6.8041,"4400": 7.5131,"4425": 6.3788,"4450": 6.4398,"4475": 5.9942,"4500": 6.0756,"4525": 4.1926,"4550": 4.3547,"4575": 3.2409,"4600": 2.5929,"4625": 2.3497,"4650": 1.7218,"4675": 1.4585,"4700": 0.9521,"4725": 0.9521,"4750": 0.6685,"4775": 0.4052,"4800": 0.3849,"4825": 0.4861,"4850": 0.2431,"4875": 0.2228,"4900": 0.162,"4925": 0.0608,"4950": 0.1013,"4975": 0.0405,"5000": 0.081}}}