{"type":"Feature","properties":{"GID_3":"BOL.8.10.2_2","GID_0":"BOL","country":"Bolivia","GID_1":"BOL.8_1","province":"SantaCruz","NL_NAME_1":"NA","GID_2":"BOL.8.10_2","county":"ÑufloDeChávez","NL_NAME_2":"NA","city":"CuatroCañadas","VARNAME_3":"NA","NL_NAME_3":"NA","TYPE_3":"District","ENGTYPE_3":"Distrito","CC_3":"NA","HASC_3":"NA","name":"Cuatro_Cañadas.city"},
"geometry":{"type": "MultiPolygon","coordinates": [[[[-61.5686,-17.2575,253.0439],[-61.5713,-17.2556,252.7435],[-61.5715,-17.253,252.8427],[-61.5802,-17.2513,251.3561],[-61.5786,-17.2471,252.5468],[-61.5796,-17.2455,252.1769],[-61.5841,-17.245,251.6245],[-61.584,-17.2373,252.729],[-61.5798,-17.2298,253.0862],[-61.5828,-17.2281,253.2559],[-61.5894,-17.2295,252.5934],[-61.5916,-17.2267,252.1135],[-61.5968,-17.2273,252.4338],[-61.6014,-17.2259,251.7753],[-61.6027,-17.2212,251.9409],[-61.6063,-17.2205,250.4189],[-61.6097,-17.223,250.0808],[-61.6108,-17.2134,248.2268],[-61.6097,-17.208,247.0618],[-61.6047,-17.2037,247.3489],[-61.6031,-17.1974,247.1105],[-61.6046,-17.1878,251.9402],[-61.5992,-17.1889,247.896],[-61.5982,-17.191,248.3622],[-61.5954,-17.1889,255.3163],[-61.5939,-17.1831,247.5215],[-61.589,-17.1808,247.2024],[-61.5899,-17.1751,250.1344],[-61.5924,-17.173,249.9175],[-61.5958,-17.1742,250.3261],[-61.5971,-17.1698,249.3712],[-61.6001,-17.1713,250.2136],[-61.601,-17.1741,250.398],[-61.6032,-17.1753,250.1322],[-61.6034,-17.179,248.9945],[-61.6078,-17.179,247.1951],[-61.6141,-17.1835,249.5913],[-61.6129,-17.1891,247.4512],[-61.6155,-17.1912,247.1936],[-61.6293,-17.1842,247.571],[-61.6303,-17.1768,246.4047],[-61.634,-17.1746,246.3113],[-61.6372,-17.1755,248.314],[-61.6406,-17.17,246.7437],[-61.6552,-17.1802,244.5],[-61.6619,-17.1809,246.3321],[-61.6657,-17.1771,246.4817],[-61.665,-17.1715,248.1992],[-61.6719,-17.1706,246.5353],[-61.6733,-17.1686,246.79],[-61.6763,-17.1701,246.5519],[-61.676,-17.1675,246.1859],[-61.6779,-17.1653,245.8695],[-61.6752,-17.1564,245.9586],[-61.6791,-17.1492,244.5],[-61.7054,-17.1368,245.9362],[-61.7065,-17.1296,246.354],[-61.7131,-17.1314,251.9622],[-61.7139,-17.1347,250.7641],[-61.7117,-17.1364,249.7862],[-61.7167,-17.1364,248.7338],[-61.7174,-17.1394,248.5009],[-61.7228,-17.1282,246.0745],[-61.7303,-17.1299,245.6358],[-61.7332,-17.1259,245.8467],[-61.7403,-17.1247,249.2536],[-61.7403,-17.1216,249.003],[-61.7438,-17.1196,249.102],[-61.7499,-17.1242,249.1844],[-61.7554,-17.1242,249.4904],[-61.757,-17.1179,253.3192],[-61.762,-17.1194,251.6307],[-61.7668,-17.1178,250.4899],[-61.7669,-17.116,251.017],[-61.7688,-17.1165,249.7513],[-61.7683,-17.1138,250.6027],[-61.7634,-17.1123,252.7865],[-61.7688,-17.1105,254.2979],[-61.7689,-17.1076,254.5486],[-61.7715,-17.1083,251.7154],[-61.7715,-17.1044,255.374],[-61.7737,-17.1042,251.062],[-61.7723,-17.102,257.2143],[-61.7776,-17.1023,251.1555],[-61.783,-17.0969,252.0257],[-61.7861,-17.0995,254.5893],[-61.7856,-17.0937,256.4885],[-61.7928,-17.0906,260.1245],[-61.7954,-17.0928,254.5943],[-61.7966,-17.0883,254.7037],[-61.8,-17.088,253.3534],[-61.8011,-17.0862,281.4082],[-61.8046,-17.0888,253.3818],[-61.8062,-17.0885,255.0585],[-61.8066,-17.0866,253.5736],[-61.8083,-17.0876,254.323],[-61.8072,-17.0915,253.7441],[-61.8046,-17.0922,254.0461],[-61.8067,-17.0932,255.948],[-61.8107,-17.0932,255.1174],[-61.8164,-17.0903,257.0934],[-61.8191,-17.0948,254.6159],[-61.824,-17.0895,254.0351],[-61.8276,-17.0966,255.7217],[-61.8301,-17.0956,257.1029],[-61.8317,-17.0988,254.7754],[-61.8338,-17.0972,255.3384],[-61.8355,-17.0998,255.448],[-61.8399,-17.102,255.0739],[-61.8454,-17.1029,252.7058],[-61.8459,-17.0992,254.1835],[-61.8377,-17.0976,251.3719],[-61.8403,-17.0944,253.2148],[-61.8374,-17.0912,253.9558],[-61.8347,-17.092,254.224],[-61.8349,-17.0863,253.0599],[-61.8275,-17.0875,256.1636],[-61.8289,-17.0847,255.224],[-61.8257,-17.0844,256.574],[-61.827,-17.0819,253.7897],[-61.8236,-17.0825,255.8753],[-61.8249,-17.0796,254.0998],[-61.8217,-17.0769,251.4051],[-61.8239,-17.0736,252.9412],[-61.8208,-17.0732,254.1806],[-61.8249,-17.0702,250.9709],[-61.8284,-17.0717,254.6505],[-61.8308,-17.0706,253.0063],[-61.8304,-17.0778,254.6441],[-61.833,-17.0782,252.6906],[-61.8353,-17.0809,254.1985],[-61.8397,-17.0755,252.797],[-61.8386,-17.069,252.7655],[-61.8419,-17.0671,252.8527],[-61.8448,-17.0709,258.1486],[-61.8443,-17.0656,252.5754],[-61.8497,-17.0628,253.4801],[-61.8544,-17.0639,252.3548],[-61.8558,-17.0613,249.6297],[-61.8547,-17.058,246.7566],[-61.8534,-17.0571,247.7577],[-61.8511,-17.0586,247.9055],[-61.8478,-17.0556,247.6062],[-61.8494,-17.0503,246.6911],[-61.8456,-17.0449,247.6847],[-61.8471,-17.0389,248.3939],[-61.8509,-17.0339,247.4514],[-61.9645,-17.0382,253.5877],[-62.1804,-17.0271,247.7393],[-62.42,-17.049,251.5821],[-62.5547,-17.0796,252.0983],[-62.6028,-17.1003,252.1349],[-62.6184,-17.091,250.7122],[-62.6134,-17.0878,252.1927],[-62.6195,-17.0792,251.0701],[-62.6228,-17.0785,251.2386],[-62.6214,-17.0715,250.7542],[-62.6224,-17.0701,251.4745],[-62.6198,-17.0642,250.6106],[-62.6445,-17.0598,247.8704],[-62.6487,-17.0749,247.3629],[-62.6478,-17.0761,247.3629],[-62.6508,-17.0786,247.338],[-62.6685,-17.0861,248.8103],[-62.6842,-17.1019,251.3186],[-62.7082,-17.1113,250.2005],[-62.7239,-17.1334,253.666],[-62.7849,-17.1715,260.1674],[-62.78,-17.1733,254.2361],[-62.7698,-17.1823,259.6495],[-62.7628,-17.1944,256.2867],[-62.7517,-17.1965,258.7441],[-62.7345,-17.1959,259.2126],[-62.7326,-17.2011,259.1241],[-62.7335,-17.207,259.872],[-62.7426,-17.2134,261.8716],[-62.7432,-17.2173,261.9431],[-62.7363,-17.2321,259.5338],[-62.7267,-17.2402,262.0373],[-62.7263,-17.2453,261.2504],[-62.7414,-17.2711,264.1689],[-62.7427,-17.2801,262.7311],[-62.7401,-17.2897,260.8379],[-62.7406,-17.3057,261.0],[-62.7478,-17.3137,266.5244],[-62.7475,-17.3182,267.4193],[-62.7452,-17.3217,266.9875],[-62.738,-17.3277,266.0988],[-62.741,-17.3367,267.8461],[-62.7317,-17.3585,264.2086],[-62.7321,-17.3675,265.1828],[-62.735,-17.3754,265.2375],[-62.7371,-17.3766,265.6714],[-62.7468,-17.3764,265.5],[-62.7528,-17.3789,270.4724],[-62.7566,-17.3839,267.2274],[-62.7576,-17.3891,267.9893],[-62.7565,-17.4044,269.1877],[-62.7584,-17.409,268.0],[-62.7581,-17.4157,274.2172],[-62.7574,-17.4188,268.0],[-62.7518,-17.4234,268.0],[-62.7485,-17.432,268.0],[-62.7496,-17.4358,268.9258],[-62.7596,-17.4379,274.3977],[-62.7622,-17.4405,271.2051],[-62.7581,-17.4488,271.6221],[-62.7484,-17.4585,271.4008],[-62.749,-17.4644,273.455],[-62.7522,-17.4672,273.0145],[-62.7683,-17.469,272.7766],[-62.7817,-17.4678,274.9904],[-62.786,-17.4701,273.5256],[-62.7886,-17.478,274.2704],[-62.7842,-17.4914,275.2389],[-62.7862,-17.5019,275.8231],[-62.7152,-17.4903,278.6549],[-62.6207,-17.466,268.5196],[-62.5403,-17.4614,267.1406],[-62.0471,-17.3807,261.5604],[-61.7795,-17.3415,269.7838],[-61.5686,-17.2575,253.0439]]]]}}