{"type":"Feature","properties":{"GID_3":"BOL.4.12.4_2","GID_0":"BOL","country":"Bolivia","GID_1":"BOL.4_1","province":"LaPaz","NL_NAME_1":"NA","GID_2":"BOL.4.12_2","county":"Larecaja","NL_NAME_2":"NA","city":"Quiabaya","VARNAME_3":"NA","NL_NAME_3":"NA","TYPE_3":"District","ENGTYPE_3":"Distrito","CC_3":"NA","HASC_3":"NA","name":"Quiabaya.city"},
"geometry":{"type": "MultiPolygon","coordinates": [[[[-68.7439,-15.5556,1434.3523],[-68.7486,-15.56,1469.229],[-68.7603,-15.5653,1471.584],[-68.7643,-15.5702,1534.9613],[-68.7703,-15.5725,1485.2267],[-68.7708,-15.5791,1586.0475],[-68.7776,-15.5917,1532.1016],[-68.7782,-15.5967,1520.5792],[-68.7759,-15.5991,1546.0569],[-68.7764,-15.6042,1542.9548],[-68.773,-15.6124,1550.9253],[-68.7743,-15.618,1559.8944],[-68.7716,-15.6281,1588.1703],[-68.7694,-15.6311,1603.7007],[-68.7621,-15.6342,1640.1128],[-68.7581,-15.6319,1619.2117],[-68.754,-15.6334,1650.2318],[-68.7498,-15.6399,1718.7202],[-68.7512,-15.6426,1671.906],[-68.7487,-15.6437,1697.8533],[-68.7395,-15.6439,1813.321],[-68.7331,-15.6415,1891.8351],[-68.7201,-15.6405,2082.375],[-68.7077,-15.6511,2308.2102],[-68.6964,-15.6582,2470.2871],[-68.6898,-15.6529,3044.9028],[-68.6833,-15.654,3375.1274],[-68.6775,-15.6518,3684.9375],[-68.6605,-15.651,4169.4551],[-68.6534,-15.6541,4279.3535],[-68.6491,-15.6516,4428.3545],[-68.6423,-15.6515,4509.2563],[-68.6394,-15.6474,4343.0537],[-68.6393,-15.643,4262.0576],[-68.6432,-15.6322,3767.0637],[-68.6532,-15.6256,3355.1592],[-68.6601,-15.6162,2972.7144],[-68.6691,-15.6122,2762.2581],[-68.6707,-15.6079,2691.6616],[-68.6772,-15.6006,2443.1233],[-68.6763,-15.5958,2344.6963],[-68.6836,-15.5773,2071.4148],[-68.6828,-15.5739,2002.7382],[-68.6877,-15.5449,1633.5491],[-68.6968,-15.5283,1426.8909],[-68.7003,-15.5252,1393.2966],[-68.7078,-15.5416,1385.5635],[-68.7252,-15.5496,1415.6224],[-68.7439,-15.5556,1434.3523]]]]}}