{"type":"Feature","properties":{"GID_3":"BOL.2.12.3_2","GID_0":"BOL","country":"Bolivia","GID_1":"BOL.2_1","province":"Cochabamba","NL_NAME_1":"NA","GID_2":"BOL.2.12_2","county":"Mizque","NL_NAME_2":"NA","city":"VilaVila","VARNAME_3":"NA","NL_NAME_3":"NA","TYPE_3":"District","ENGTYPE_3":"Distrito","CC_3":"NA","HASC_3":"NA","name":"Vila_Vila.city"},
"geometry":{"type": "MultiPolygon","coordinates": [[[[-65.8,-18.0097,1985.9171],[-65.7963,-18.0138,1996.5332],[-65.7898,-18.0145,1969.5074],[-65.7869,-18.0199,2006.7192],[-65.7818,-18.0217,1964.0508],[-65.7834,-18.0319,2013.7516],[-65.7722,-18.037,1952.4036],[-65.7679,-18.0361,1967.9653],[-65.7644,-18.0413,1951.2451],[-65.7557,-18.0434,1942.5681],[-65.752,-18.0487,1940.7924],[-65.7441,-18.0497,1935.8832],[-65.7408,-18.0543,1933.3865],[-65.7413,-18.0588,1934.375],[-65.7332,-18.0612,1927.9329],[-65.7296,-18.0606,1926.4839],[-65.728,-18.0675,1923.4707],[-65.724,-18.0681,1923.0206],[-65.7151,-18.0755,1919.1627],[-65.7089,-18.0783,1913.8713],[-65.7042,-18.0887,1913.7141],[-65.6976,-18.0943,1911.1653],[-65.6934,-18.0942,1908.4607],[-65.6882,-18.0992,1905.3738],[-65.6842,-18.1076,1901.295],[-65.6841,-18.1126,1900.0573],[-65.6809,-18.1166,1906.0496],[-65.6763,-18.1201,1901.9227],[-65.6707,-18.1204,1891.8164],[-65.6685,-18.1257,1891.979],[-65.6662,-18.1263,1886.1074],[-65.6549,-18.1225,2486.459],[-65.6524,-18.1244,2445.1501],[-65.6479,-18.1221,2336.9739],[-65.6331,-18.1228,2413.2556],[-65.6213,-18.1165,2558.6987],[-65.6238,-18.1113,2406.9666],[-65.6195,-18.1081,2605.1394],[-65.6218,-18.1056,2482.6409],[-65.6225,-18.0969,2882.1072],[-65.6141,-18.0871,2648.9712],[-65.612,-18.0788,3091.0359],[-65.6131,-18.0749,3133.5798],[-65.61,-18.0749,3091.9109],[-65.6043,-18.0818,3055.9507],[-65.5992,-18.083,3004.5476],[-65.5963,-18.0811,2939.8081],[-65.5942,-18.0818,2930.4688],[-65.5877,-18.0893,2924.2622],[-65.5877,-18.0929,2920.2334],[-65.5778,-18.0921,2665.1802],[-65.5724,-18.0871,2585.2107],[-65.5737,-18.0835,2562.9141],[-65.571,-18.0776,2528.7053],[-65.5656,-18.0777,2499.1086],[-65.5611,-18.074,2504.3311],[-65.5632,-18.0663,2649.519],[-65.568,-18.0599,2657.071],[-65.5548,-18.0574,2630.7065],[-65.5524,-18.0533,2522.9111],[-65.5412,-18.047,2368.8093],[-65.542,-18.0455,2385.0483],[-65.5387,-18.0375,2513.7559],[-65.5298,-18.0319,2679.9055],[-65.5274,-18.0277,2690.4688],[-65.5349,-18.0223,2744.585],[-65.5354,-18.0112,2741.5229],[-65.5341,-18.0063,2767.5649],[-65.5364,-18.0055,2812.647],[-65.5399,-17.9998,2859.8037],[-65.5468,-17.9968,2848.9717],[-65.5432,-17.9905,2767.2808],[-65.5407,-17.9791,2906.7148],[-65.5442,-17.9733,2972.2773],[-65.5438,-17.9696,3089.9214],[-65.5471,-17.9634,3039.469],[-65.548,-17.9504,3164.1218],[-65.5627,-17.9363,3170.688],[-65.5649,-17.9288,3144.6716],[-65.5644,-17.9244,3180.1448],[-65.5695,-17.9219,3201.7332],[-65.57,-17.9197,3207.2178],[-65.5728,-17.9181,3230.8025],[-65.5727,-17.9126,3277.9058],[-65.569,-17.9077,3256.3892],[-65.5695,-17.9056,3241.6025],[-65.578,-17.9002,3281.6982],[-65.5801,-17.9009,3309.1548],[-65.5841,-17.8973,3366.4656],[-65.5858,-17.8931,3335.2798],[-65.5901,-17.8906,3322.687],[-65.5909,-17.8871,3341.646],[-65.5996,-17.8842,3438.2241],[-65.6069,-17.8859,3304.2256],[-65.6093,-17.8944,3231.8711],[-65.6121,-17.8954,3205.2307],[-65.6165,-17.8881,3130.2314],[-65.6191,-17.8879,3185.2505],[-65.6233,-17.8956,2938.4456],[-65.6248,-17.8938,2947.188],[-65.6266,-17.8953,2983.3086],[-65.6294,-17.8905,2952.6138],[-65.6311,-17.8923,2953.3269],[-65.6313,-17.8901,2954.666],[-65.6342,-17.8961,3027.6392],[-65.6404,-17.8988,3245.0176],[-65.6401,-17.9014,3327.1685],[-65.6438,-17.901,3251.3354],[-65.6457,-17.8975,3234.6162],[-65.6506,-17.8966,3204.76],[-65.648,-17.8913,3077.7854],[-65.6516,-17.8872,3092.8503],[-65.6558,-17.8866,3120.3984],[-65.6568,-17.8821,3136.8538],[-65.6624,-17.8776,3162.8149],[-65.6594,-17.8757,3214.7886],[-65.6598,-17.8738,3163.1694],[-65.663,-17.8732,3158.2656],[-65.659,-17.8668,3288.6631],[-65.6632,-17.8682,3219.5723],[-65.6684,-17.8631,3282.1643],[-65.6768,-17.863,3481.7776],[-65.6871,-17.8565,3158.9749],[-65.6895,-17.838,3197.916],[-65.6944,-17.8341,3241.6165],[-65.6938,-17.832,3250.8201],[-65.6969,-17.8296,3211.3586],[-65.7009,-17.8324,3253.3105],[-65.7031,-17.8371,3457.6128],[-65.7094,-17.8392,3399.9836],[-65.7119,-17.8428,3512.8474],[-65.7136,-17.8435,3562.8535],[-65.7172,-17.8417,3567.5923],[-65.7205,-17.8441,3542.9897],[-65.7311,-17.8468,3438.0588],[-65.7407,-17.8527,3397.2476],[-65.7417,-17.8567,3365.125],[-65.7399,-17.8614,3313.488],[-65.7464,-17.87,3441.2024],[-65.7506,-17.8706,3554.5107],[-65.7537,-17.8673,3562.8335],[-65.7564,-17.8676,3594.689],[-65.7628,-17.8642,3569.2231],[-65.7668,-17.8647,3580.9463],[-65.7683,-17.8627,3614.1675],[-65.7708,-17.8626,3611.269],[-65.7723,-17.8591,3602.9041],[-65.7763,-17.8601,3622.0225],[-65.7773,-17.8568,3643.801],[-65.783,-17.8532,3612.4197],[-65.7841,-17.8484,3628.3909],[-65.787,-17.8471,3658.8167],[-65.789,-17.8486,3663.8779],[-65.7874,-17.8535,3614.2056],[-65.7895,-17.8613,3624.7075],[-65.7925,-17.8623,3737.7212],[-65.7993,-17.8575,3713.5562],[-65.8039,-17.8631,3527.6294],[-65.8056,-17.8662,3484.6597],[-65.8028,-17.8761,3488.3159],[-65.8044,-17.878,3451.772],[-65.8032,-17.8848,3390.3096],[-65.7979,-17.8939,3333.8406],[-65.7927,-17.8959,3193.9072],[-65.7903,-17.8999,2834.2686],[-65.7945,-17.908,2607.2803],[-65.7976,-17.9085,2539.6536],[-65.7996,-17.9118,2466.6665],[-65.8025,-17.9125,2475.5889],[-65.8036,-17.9173,2406.1365],[-65.8095,-17.9251,2428.5166],[-65.8094,-17.9282,2421.5938],[-65.812,-17.9284,2351.2178],[-65.813,-17.931,2329.5986],[-65.8035,-17.936,2649.8484],[-65.7988,-17.9435,2517.2349],[-65.7918,-17.9463,2595.1609],[-65.7886,-17.9545,2340.3674],[-65.7815,-17.955,2640.3169],[-65.7796,-17.9603,2407.7231],[-65.7732,-17.9618,2613.6682],[-65.7704,-17.9736,2282.9272],[-65.7722,-17.9783,2255.7466],[-65.7712,-17.9829,2195.9292],[-65.7724,-17.9874,2180.2983],[-65.7806,-17.9897,2138.0403],[-65.7823,-17.9942,2143.1313],[-65.789,-17.9971,2063.408],[-65.7905,-18.0008,2062.9429],[-65.7978,-18.0033,2014.1274],[-65.8,-18.0097,1985.9171]]]]}}