{"type":"Feature","properties":{"GID_3":"BOL.2.5.2_2","GID_0":"BOL","country":"Bolivia","GID_1":"BOL.2_1","province":"Cochabamba","NL_NAME_1":"NA","GID_2":"BOL.2.5_2","county":"Campero","NL_NAME_2":"NA","city":"Omereque","VARNAME_3":"NA","NL_NAME_3":"NA","TYPE_3":"District","ENGTYPE_3":"Distrito","CC_3":"NA","HASC_3":"NA","name":"Omereque.city"},
"geometry":{"type": "MultiPolygon","coordinates": [[[[-64.8425,-18.2862,2400.8425],[-64.8452,-18.2808,2281.3376],[-64.8462,-18.2733,2134.2134],[-64.8445,-18.2688,2003.483],[-64.8469,-18.266,1903.0286],[-64.8454,-18.2561,1803.4861],[-64.8418,-18.253,1741.9209],[-64.8472,-18.2461,1687.7261],[-64.8452,-18.2477,1693.4028],[-64.8383,-18.2485,1721.0918],[-64.8322,-18.2529,1745.5587],[-64.8152,-18.246,1842.4692],[-64.8134,-18.2412,1885.0491],[-64.811,-18.2392,1929.3965],[-64.8047,-18.2378,2082.8594],[-64.7928,-18.2316,2475.0835],[-64.8026,-18.2114,2217.0999],[-64.8073,-18.2088,2185.6304],[-64.8101,-18.1958,1952.2578],[-64.8137,-18.1928,1909.4844],[-64.8147,-18.1869,1845.5969],[-64.8055,-18.183,1716.843],[-64.8048,-18.1781,1635.9811],[-64.7988,-18.1742,1600.8529],[-64.8025,-18.1698,1584.1622],[-64.8056,-18.1692,1581.0933],[-64.8073,-18.1616,1570.3888],[-64.8088,-18.1615,1558.7927],[-64.8096,-18.1581,1571.7682],[-64.8117,-18.1574,1548.1371],[-64.8144,-18.1529,1538.9434],[-64.8149,-18.1342,1514.9189],[-64.817,-18.131,1505.4053],[-64.8142,-18.1282,1494.8916],[-64.8136,-18.1222,1530.6693],[-64.8163,-18.1165,1546.1364],[-64.8105,-18.1054,1677.2655],[-64.801,-18.0993,1711.1626],[-64.7885,-18.1002,1798.97],[-64.7838,-18.1033,1715.6511],[-64.7665,-18.1034,1456.0083],[-64.7637,-18.1017,1459.1973],[-64.7634,-18.0966,1459.7095],[-64.7609,-18.0924,1477.36],[-64.7486,-18.09,1478.8291],[-64.7427,-18.085,1455.9514],[-64.7347,-18.0884,1475.345],[-64.7194,-18.1031,1588.9591],[-64.7057,-18.097,1449.4656],[-64.6998,-18.0897,1403.0933],[-64.7012,-18.0872,1412.5106],[-64.7064,-18.085,1403.4818],[-64.7097,-18.0814,1419.7025],[-64.7114,-18.0781,1413.6439],[-64.7113,-18.073,1418.2317],[-64.7134,-18.0719,1418.8138],[-64.7144,-18.0736,1415.4414],[-64.7157,-18.0719,1432.4167],[-64.7144,-18.0661,1437.2726],[-64.7192,-18.061,1425.7927],[-64.7156,-18.0569,1439.7759],[-64.7154,-18.0495,1441.5305],[-64.7173,-18.0462,1458.5364],[-64.7163,-18.0432,1473.0791],[-64.7179,-18.0422,1448.1177],[-64.7202,-18.0438,1459.3704],[-64.7254,-18.0406,1452.7523],[-64.7345,-18.038,1464.855],[-64.7365,-18.0395,1494.8845],[-64.7444,-18.0311,1472.201],[-64.7475,-18.0265,1488.6968],[-64.7503,-18.0169,1491.3634],[-64.7536,-18.015,1487.2064],[-64.7637,-18.0007,1534.6216],[-64.7668,-17.9898,1545.839],[-64.7663,-17.9849,1556.3317],[-64.8069,-17.987,2137.7981],[-64.822,-17.9801,2287.5298],[-64.8581,-17.9838,2186.7371],[-64.8873,-17.9824,2554.7024],[-64.892,-17.977,2580.8821],[-64.8947,-17.9695,2531.3279],[-64.8906,-17.9626,2497.2354],[-64.896,-17.9573,2440.8833],[-64.8987,-17.9499,2514.9514],[-64.9198,-17.923,2591.7654],[-64.9323,-17.8951,2609.2451],[-64.9759,-17.8734,2638.8682],[-64.9882,-17.8907,2698.3318],[-64.9936,-17.8934,2389.1377],[-64.9969,-17.8993,2452.8184],[-65.003,-17.9025,2601.543],[-65.0047,-17.9048,2617.6675],[-65.0044,-17.9122,2609.5847],[-65.0118,-17.9158,2638.6902],[-65.0133,-17.929,2752.0754],[-65.0207,-17.9324,2699.7427],[-65.016,-17.9501,2575.2698],[-65.0179,-17.953,2360.4517],[-65.0174,-17.9612,2145.9563],[-65.0145,-17.9639,2085.1245],[-65.0143,-17.9687,2037.8998],[-65.0058,-17.9773,1917.8479],[-65.0082,-17.9814,1886.1456],[-65.0077,-17.9834,1890.5115],[-65.0104,-17.9838,1868.1917],[-65.0164,-17.9936,1807.1993],[-65.0237,-17.9979,1779.6981],[-65.026,-18.0018,1720.1812],[-65.0233,-18.0047,1717.0854],[-65.0193,-18.0053,1798.4227],[-65.0195,-18.012,1712.7295],[-65.0165,-18.0173,1675.1212],[-65.0174,-18.0203,1669.9928],[-65.0142,-18.0236,1665.2775],[-65.0137,-18.0263,1655.0366],[-65.0145,-18.0281,1655.4208],[-65.0184,-18.028,1655.3577],[-65.0196,-18.0324,1661.4697],[-65.0267,-18.0357,1665.4875],[-65.0285,-18.035,1665.5239],[-65.0236,-18.0439,1908.3999],[-65.0219,-18.0511,1828.6465],[-65.0304,-18.0595,2186.3845],[-65.028,-18.0663,2159.387],[-65.0297,-18.07,2104.9922],[-65.0297,-18.0783,2221.8201],[-65.0383,-18.0889,2188.405],[-65.039,-18.1064,2177.2715],[-65.0348,-18.1265,2365.5806],[-65.0313,-18.1343,2435.9116],[-65.0274,-18.1377,2367.3623],[-65.0206,-18.135,2400.1323],[-65.0197,-18.1275,2208.7061],[-65.016,-18.1268,2265.7881],[-64.9802,-18.1314,2033.568],[-64.9758,-18.1256,2238.9839],[-64.9634,-18.121,2527.2832],[-64.961,-18.1286,2392.1238],[-64.9603,-18.1402,2325.9004],[-64.9573,-18.1453,2289.7812],[-64.9528,-18.146,2339.6714],[-64.9498,-18.1562,2316.8091],[-64.9402,-18.1658,2262.3499],[-64.9234,-18.1753,2295.2759],[-64.9235,-18.1822,2237.8784],[-64.9297,-18.1829,2189.8872],[-64.931,-18.1893,2077.6118],[-64.9192,-18.1983,2240.8345],[-64.9176,-18.2005,2258.969],[-64.9179,-18.2062,2225.1108],[-64.9128,-18.2088,2118.3142],[-64.9057,-18.2091,2148.0498],[-64.9021,-18.2118,2143.1055],[-64.8927,-18.2414,2085.6978],[-64.8958,-18.247,1932.8733],[-64.8948,-18.2583,1811.5687],[-64.8889,-18.2564,1798.0142],[-64.8808,-18.2641,2122.4932],[-64.8786,-18.2731,2039.3523],[-64.8694,-18.2878,2135.2417],[-64.8659,-18.2897,2206.9517],[-64.8568,-18.2878,2300.5413],[-64.8498,-18.2839,2128.6685],[-64.8451,-18.2868,2257.0132],[-64.8425,-18.2862,2400.8425]]]]}}