{"type":"Feature","properties":{"featurecla":"River","scalerank":7,"rivernum":475,"dissolve":"475River","name":"Beni3","name_alt":null,"note":null,"min_zoom":6.0,"strokeweig":0.3,"name_en":"Beni","min_label":7.0},
"geometry":{"type": "LineString","coordinates": [[-66.966796875,-12.581573175005886,166.8197],[-66.939990234374989,-12.545928643755886,158.1716],[-66.927783203124989,-12.525420831255886,141.0],[-66.927099609374991,-12.50945403438088,148.2174],[-66.934985351562489,-12.49407317500588,158.3858],[-66.937109374999991,-12.48113372188088,157.3621],[-66.938403320312489,-12.42009856563088,157.5897],[-66.935791015625,-12.400420831255886,150.3978],[-66.927978515625,-12.382354425005886,153.6514],[-66.913134765624989,-12.360870050005886,143.5166],[-66.905371093749991,-12.34172942500588,140.5],[-66.908984374999989,-12.32512786250588,152.5638],[-66.916308593749989,-12.30828215938088,153.1766],[-66.91943359375,-12.288897393755889,140.5],[-66.912060546875,-12.266924737505889,149.3678],[-66.899169921875,-12.24529387813088,149.7589],[-66.889453124999989,-12.22332122188088,147.6995],[-66.891772460937489,-12.199248956255886,145.975],[-66.898876953125,-12.173858331255886,150.3279],[-66.897314453124991,-12.15227630000588,141.6147],[-66.882128906249989,-12.106280206255889,142.9077],[-66.877539062499991,-12.06511809688088,146.3414],[-66.882983398437489,-12.014971612505889,140.6278],[-66.897070312499991,-11.966143487505889,149.2968],[-66.918554687499991,-11.928741143755886,149.1514],[-66.933154296874989,-11.911944268755889,153.7612],[-66.939257812499989,-11.90667083125588,150.6722],[-66.94287109375,-11.90740325313088,153.8409],[-66.9484375,-11.910674737505886,140.0547],[-66.954882812499989,-11.91301848750588,157.5142],[-66.961474609374989,-11.910674737505886,147.0618],[-66.970263671874989,-11.89373137813088,143.7839],[-66.974707031249991,-11.869170831255886,180.3391],[-66.970751953124989,-11.84905364375588,187.3731],[-66.954272460937489,-11.84539153438088,190.8351],[-66.935839843749989,-11.84734465938088,139.7666],[-66.917724609375,-11.841827081255886,159.752],[-66.901416015624989,-11.83147551875588,147.3085],[-66.888476562499989,-11.81829192500588,140.8249],[-66.876953125,-11.795733331255889,134.0],[-66.881762695312489,-11.78191497188088,157.8811],[-66.894140624999991,-11.77044036250588,143.8637],[-66.9052734375,-11.75457122188088,140.516],[-66.905444335937489,-11.73552825313088,152.9635],[-66.891845703125,-11.727080987505886,136.0],[-66.872363281249989,-11.72625090938088,166.507],[-66.854833984374991,-11.72918059688088,167.9164],[-66.835742187499989,-11.72795989375588,158.8916],[-66.822509765625,-11.715362237505886,157.04],[-66.810888671874991,-11.698760675005886,145.6802],[-66.796923828124989,-11.685870050005889,132.5167],[-66.779882812499991,-11.681475518755889,149.195],[-66.74560546875,-11.681670831255886,148.2016],[-66.729101562499991,-11.674834893755886,150.2628],[-66.715380859374989,-11.65569426875588,137.0433],[-66.713964843749991,-11.63274505000588,143.2471],[-66.720996093749989,-11.583526300005886,145.5934],[-66.715136718749989,-11.56487395625588,128.0],[-66.690966796874989,-11.537627862505886,132.6303],[-66.687792968749989,-11.518877862505889,149.2115],[-66.690722656249989,-11.49358489375588,148.1265],[-66.689208984375,-11.468780206255886,142.4967],[-66.679125976562489,-11.44939544063088,134.8432],[-66.65625,-11.440264581255889,131.8662],[-66.56494140625,-11.43474700313088,147.0418],[-66.497167968749991,-11.442413018755886,127.4847],[-66.471484374999989,-11.43377044063088,139.2647],[-66.416845703124991,-11.400909112505886,126.0],[-66.347998046874991,-11.393584893755886,136.453],[-66.316992187499991,-11.38591887813088,136.418],[-66.311865234374991,-11.365557550005889,134.3022],[-66.30908203125,-11.344561456255889,136.4694],[-66.254736328124991,-11.33171965938088,122.0],[-66.243261718749991,-11.313018487505886,136.8775],[-66.250097656249991,-11.29900481563088,121.5],[-66.2607421875,-11.28972747188088,137.4708],[-66.267871093749989,-11.277373956255886,127.8054],[-66.264257812499991,-11.25408294063088,120.5],[-66.255541992187489,-11.237823175005886,136.853],[-66.218994140625,-11.193194268755889,123.174],[-66.211669921875,-11.17473723750588,135.4825],[-66.212451171874989,-11.157549737505889,126.292],[-66.220800781249991,-11.12127044063088,133.1386],[-66.217944335937489,-11.09783294063088,125.0643],[-66.205249023437489,-11.09441497188088,133.2317],[-66.187939453125,-11.099444268755889,137.3855],[-66.171240234374991,-11.100909112505889,120.7372],[-66.147314453124991,-11.080596612505886,122.568],[-66.142260742187489,-11.047881768755886,127.394],[-66.141455078124991,-11.01189544063088,129.0104],[-66.130712890624991,-10.98186614375588,138.7418],[-66.121679687499991,-10.968291925005886,130.6707]]}}