{"type":"Feature","properties":{"featurecla":"River","scalerank":9,"rivernum":1031,"dissolve":"1031River","name":"San8","name_alt":null,"note":null,"min_zoom":7.1,"strokeweig":0.2,"name_en":"San Martin","min_label":8.1},
"geometry":{"type": "LineString","coordinates": [[-62.051220703125,-15.00457122188088,214.2284],[-62.060888671874991,-14.98528411250588,212.5533],[-62.075439453125,-14.96990325313088,234.7803],[-62.092382812499991,-14.95989348750588,216.8155],[-62.109545898437489,-14.95623137813088,224.3278],[-62.121337890625,-14.94939544063088,262.8851],[-62.129980468749991,-14.93303801875588,253.8269],[-62.157470703125,-14.805987237505889,255.0121],[-62.176440429687489,-14.587237237505889,227.3712],[-62.188330078124991,-14.552764581255886,244.2853],[-62.199804687499991,-14.54119231563088,245.0966],[-62.285400390625,-14.48674895625588,201.0874],[-62.304638671875,-14.47991301875588,193.5347],[-62.308691406249991,-14.47063567500588,195.5537],[-62.311865234374991,-14.44915130000588,203.0605],[-62.3359375,-14.370928643755889,209.8176],[-62.354418945312489,-14.333330987505889,203.0879],[-62.414477539062489,-14.27288176875588,190.2325],[-62.42919921875,-14.26189544063088,183.9951],[-62.44501953125,-14.25725676875588,179.2288],[-62.455615234374989,-14.24920012813088,178.6523],[-62.469531249999989,-14.188995050005886,177.086],[-62.485595703125,-14.15911223750588,172.0408],[-62.490039062499989,-14.14739348750588,167.1934],[-62.491748046874989,-14.13543059688088,170.3928],[-62.491992187499989,-14.124053643755886,162.4137],[-62.493823242187489,-14.11321380000588,173.2821],[-62.500244140625,-14.103057550005886,175.579],[-62.513525390624991,-14.09124114375588,179.498],[-62.530517578125,-14.079131768755886,177.8579],[-62.548681640624991,-14.06975676875588,178.2708],[-62.565722656249989,-14.06609465938088,161.9189],[-62.590869140624989,-14.076006768755889,171.0166],[-62.630175781249989,-14.117510675005889,171.5941],[-62.651123046875,-14.12688567500588,170.576],[-62.67431640625,-14.12322356563088,160.4915],[-62.691821289062489,-14.11370208125588,161.441],[-62.705175781249991,-14.10027434688088,161.6969],[-62.715917968749991,-14.08538176875588,160.5578],[-62.732275390624991,-14.05559661250588,159.9394],[-62.745410156249989,-14.039092706255886,159.4049],[-62.777099609375,-14.023272393755889,158.8901],[-62.787695312499991,-14.00237395625588,158.9642],[-62.798510742187489,-13.95623137813088,168.6275],[-62.812841796874991,-13.917315362505889,165.4354],[-62.832861328124991,-13.893389581255889,166.7429],[-62.924414062499991,-13.836748956255889,149.5182],[-62.959570312499991,-13.80877044063088,149.0686],[-62.970458984375,-13.791338800005889,148.2372],[-62.990283203124989,-13.72356536250588,147.2328],[-63.009326171874989,-13.686846612505889,146.3484],[-63.034033203124991,-13.653350518755886,146.1483],[-63.064379882812489,-13.624053643755886,156.7686],[-63.139892578125,-13.57244231563088,142.6566],[-63.160571289062489,-13.56243255000588,142.3584],[-63.185498046875,-13.558428643755889,141.7947],[-63.199560546874991,-13.55315520625588,142.2658],[-63.236669921874991,-13.517413018755889,141.0852],[-63.290869140624991,-13.48674895625588,143.7328],[-63.309008789062489,-13.473467706255889,140.3965],[-63.321386718749991,-13.455889581255889,142.5724],[-63.335693359375,-13.415850518755889,138.6917],[-63.346533203124991,-13.400713800005889,138.3386],[-63.359960937499991,-13.39470794063088,138.4021],[-63.378173828125,-13.38884856563088,137.9053],[-63.394287109375,-13.381377862505886,137.8675],[-63.4078125,-13.36052825313088,137.7781],[-63.441748046874991,-13.323272393755886,134.3465],[-63.455810546875,-13.31194426875588,136.2127],[-63.493408203125,-13.301104425005889,138.9406],[-63.506152343749989,-13.29290130000588,138.0808],[-63.511035156249989,-13.27410247188088,141.9428],[-63.513671875,-13.25505950313088,155.8828],[-63.520263671875,-13.24089934688088,162.6713],[-63.538378906249989,-13.216338800005886,178.8152],[-63.564013671874989,-13.17229583125588,231.6375],[-63.575927734375,-13.157745050005886,215.5665]]}}