{"type":"Feature","properties":{"featurecla":"River","scalerank":9,"rivernum":990,"dissolve":"990River","name":"San3","name_alt":null,"note":null,"min_zoom":7.1,"strokeweig":0.25,"name_en":"San Miguel","min_label":8.1},
"geometry":{"type": "LineString","coordinates": [[-63.711108398437489,-14.84441497188088,180.1118],[-63.714599609375,-14.81878020625588,184.1075],[-63.7265625,-14.797198175005889,177.2532],[-63.743994140624991,-14.77678801875588,184.6954],[-63.75,-14.749834893755889,180.9145],[-63.752124023437489,-14.683623956255886,163.126],[-63.7599609375,-14.61809661250588,173.3967],[-63.813769531249989,-14.49749114375588,167.9257],[-63.836181640625,-14.48040130000588,157.3253],[-63.8517578125,-14.457842706255889,156.375],[-63.861499023437489,-14.43181731563088,156.1021],[-63.87744140625,-14.37883880000588,155.0449],[-63.882177734374991,-14.324541925005889,167.7602],[-63.886083984374991,-14.152862237505886,151.4285],[-63.878271484374991,-14.127764581255889,151.1966],[-63.872241210937489,-14.10344817500588,150.5441],[-63.866625976562489,-14.04924895625588,150.8943],[-63.872241210937489,-14.000030206255886,150.7094]]}}