{"type":"Feature","properties":{"featurecla":"River","scalerank":7,"rivernum":373,"dissolve":"373River","name":"Guaporé3","name_alt":null,"note":null,"min_zoom":6.0,"strokeweig":0.25,"name_en":"Guaporé","min_label":7.0},
"geometry":{"type": "LineString","coordinates": [[-63.318652343749989,-12.70183684688088,170.2365],[-63.331152343749991,-12.69695403438088,166.5462],[-63.360205078124991,-12.67449309688088,156.3827],[-63.371826171875,-12.66985442500588,153.8966],[-63.39404296875,-12.664385675005889,155.4704],[-63.432177734374989,-12.63689544063088,147.0582],[-63.435961914062489,-12.630205987505889,144.5597],[-63.438891601562489,-12.61907317500588,141.424],[-63.446093749999989,-12.61467864375588,133.2165],[-63.455004882812489,-12.611846612505886,145.4371],[-63.463232421874991,-12.605010675005886,145.9048],[-63.467089843749989,-12.59514739375588,147.9949],[-63.467700195312489,-12.58562590938088,149.2166],[-63.469482421875,-12.57561614375588,136.766],[-63.476904296874991,-12.56462981563088,144.2436],[-63.486499023437489,-12.55730559688088,145.3375],[-63.496826171875,-12.55315520625588,153.1457],[-63.50830078125,-12.55144622188088,148.5203],[-63.52099609375,-12.55095794063088,133.0],[-63.54296875,-12.547881768755886,137.8821],[-63.559497070312489,-12.53972747188088,145.7137],[-63.601171874999991,-12.505889581255886,141.8033],[-63.655566406249989,-12.47820403438088,138.9177],[-63.658447265625,-12.47527434688088,143.1488],[-63.802099609374991,-12.45476653438088,138.4881],[-63.815673828125,-12.457061456255886,143.4404],[-63.846289062499991,-12.466827081255886,143.8429],[-63.863623046874991,-12.46917083125588,144.3851],[-63.863940429687489,-12.474639581255886,142.4581],[-63.897558593749991,-12.51555755000588,136.1998],[-63.903247070312489,-12.52532317500588,146.5869],[-63.909912109375,-12.53411223750588,147.207],[-63.921972656249991,-12.544268487505889,142.8148],[-63.939794921874991,-12.543975518755886,145.2878],[-63.950732421874989,-12.536651300005886,135.4444],[-63.960058593749991,-12.527862237505886,134.0246],[-63.97314453125,-12.523760675005889,136.1131],[-64.004931640624989,-12.535186456255886,133.2708],[-64.023535156249991,-12.537627862505886,133.6768],[-64.045166015625,-12.50896575313088,133.8544],[-64.105224609375,-12.506866143755886,140.4621],[-64.12060546875,-12.489580987505889,132.1315],[-64.135498046875,-12.51067473750588,132.1622],[-64.1455078125,-12.52019622188088,132.2248],[-64.156005859375,-12.51677825313088,132.3232],[-64.183837890625,-12.48772551875588,145.8877],[-64.198291015624989,-12.478545831255886,141.8461],[-64.215991210937489,-12.473663018755886,143.1248],[-64.2373046875,-12.47527434688088,140.5922],[-64.246435546874991,-12.479327081255889,136.7567],[-64.257568359375,-12.49065520625588,135.2184],[-64.264599609375,-12.495147393755886,131.4743],[-64.269458007812489,-12.497100518755886,133.2997],[-64.278979492187489,-12.49920012813088,128.0],[-64.288330078125,-12.49700286250588,133.7564],[-64.2984375,-12.465655206255889,131.1755],[-64.313403320312489,-12.461748956255889,127.5804],[-64.353930664062489,-12.46917083125588,148.4791],[-64.377490234374989,-12.465850518755886,131.234],[-64.396484375,-12.457061456255886,127.0],[-64.412158203124989,-12.44500090938088,123.5],[-64.425634765624991,-12.431182550005886,122.0],[-64.43310546875,-12.42083098750588,122.0],[-64.44482421875,-12.399737237505889,135.3727],[-64.453222656249991,-12.39031340938088,123.1659],[-64.46240234375,-12.38518645625588,122.0],[-64.484375,-12.377471612505886,122.0],[-64.490527343749989,-12.37346770625588,142.4894],[-64.493212890624989,-12.35637786250588,148.1486],[-64.475195312499991,-12.31633880000588,154.2374],[-64.470019531249989,-12.294756768755889,135.7644],[-64.468920898437489,-12.272491143755886,137.5061],[-64.469775390624989,-12.26091887813088,152.7376],[-64.473730468749991,-12.25310637813088,140.6625],[-64.490161132812489,-12.239288018755886,130.6025],[-64.494970703124991,-12.23796965938088,127.1575],[-64.509570312499989,-12.235870050005886,132.7982],[-64.510986328125,-12.237139581255889,135.7174],[-64.511083984374991,-12.23943450313088,135.7924],[-64.512255859374989,-12.24260833125588,134.7783],[-64.5328125,-12.23211028438088,125.1179],[-64.549169921874991,-12.21892669063088,127.4379],[-64.5556640625,-12.21770598750588,128.2625],[-64.581835937499989,-12.217315362505886,142.368],[-64.594165039062489,-12.215850518755886,122.0],[-64.641357421875,-12.19500090938088,127.0522],[-64.665625,-12.18084075313088,136.0093],[-64.676074218749989,-12.17083098750588,132.4302],[-64.677905273437489,-12.167510675005886,129.5685],[-64.686621093749991,-12.159014581255889,126.1761],[-64.689746093749989,-12.15374114375588,130.7032],[-64.689306640624991,-12.14690520625588,126.0],[-64.682299804687489,-12.13469817500588,130.9966],[-64.682299804687489,-12.126495050005886,133.2626],[-64.687182617187489,-12.10979583125588,132.3369],[-64.690673828125,-12.104327081255889,128.0396],[-64.707128906249991,-12.105987237505886,133.1984],[-64.711035156249991,-12.11174895625588,134.016],[-64.714404296874989,-12.13836028438088,137.5764],[-64.717041015625,-12.146319268755889,122.0],[-64.729101562499991,-12.149737237505889,143.4603],[-64.740283203124989,-12.14446380000588,122.0],[-64.744921874999989,-12.13347747188088,132.1961],[-64.737548828125,-12.11956145625588,122.0],[-64.769287109375,-12.08635833125588,132.4916],[-64.78125,-12.06755950313088,135.7903],[-64.785937499999989,-12.04729583125588,122.0],[-64.793261718749989,-12.03240325313088,157.7397],[-64.81005859375,-12.025713800005889,132.1222],[-64.828369140625,-12.02214934688088,131.7778],[-64.840576171875,-12.016631768755886,131.6483],[-64.862841796874989,-12.024737237505889,131.2008],[-64.884326171874989,-12.021319268755889,132.8982],[-64.9052734375,-12.01384856563088,128.0786],[-64.925878906249991,-12.00969817500588,128.9843],[-64.968359374999991,-12.00774505000588,122.0],[-64.984179687499989,-12.003741143755889,128.9438],[-64.998217773437489,-11.996123956255886,122.0],[-65.010180664062489,-11.984209893755889,126.9808],[-65.01708984375,-11.968291925005886,128.6938],[-65.015380859375,-11.95012786250588,127.0961],[-65.00166015625,-11.930987237505889,124.8294],[-64.997241210937489,-11.92107512813088,129.0155],[-64.998876953124991,-11.908721612505886,140.6204],[-65.00537109375,-11.89812590938088,132.3709],[-65.015307617187489,-11.89373137813088,122.6857],[-65.018725585937489,-11.89348723750588,122.0]]}}