{"type":"Feature","properties":{"featurecla":"River","scalerank":6,"rivernum":291,"dissolve":"291River","name":"Madre3","name_alt":null,"note":null,"min_zoom":5.0,"strokeweig":0.3,"name_en":"Madre de Dios","min_label":6.0},
"geometry":{"type": "LineString","coordinates": [[-66.121679687499991,-10.968291925005886,130.6707],[-66.10625,-10.978545831255886,128.8558],[-66.090502929687489,-10.970049737505889,116.0],[-66.078173828124989,-10.951202081255886,134.846],[-66.066455078124989,-10.910674737505886,119.1348],[-66.053564453124991,-10.88860442500588,135.3441],[-66.045458984374989,-10.86760833125588,121.3213],[-66.05341796875,-10.851592706255886,138.202],[-66.063647460937489,-10.849639581255886,135.1667],[-66.084521484374989,-10.85784270625588,119.34],[-66.094970703125,-10.858428643755886,119.2106],[-66.102099609374989,-10.85418059688088,124.0155],[-66.10791015625,-10.847198175005886,140.7649],[-66.108007812499991,-10.84075286250588,127.1366],[-66.075927734375,-10.830889581255889,122.9165],[-66.034716796874989,-10.79851653438088,134.3843],[-66.011816406249991,-10.78948333125588,138.5464],[-65.973730468749991,-10.79607512813088,108.0],[-65.930273437499991,-10.809893487505889,127.7881],[-65.895117187499991,-10.811846612505889,133.187],[-65.882080078125,-10.78337981563088,129.5004],[-65.886816406249991,-10.764971612505889,131.9164],[-65.898242187499989,-10.74700286250588,107.0],[-65.914355468749989,-10.733428643755886,147.048],[-65.93330078125,-10.728057550005886,148.1885],[-65.942578125,-10.71965911250588,154.0631],[-65.935888671874991,-10.70110442500588,148.1926],[-65.921923828124989,-10.68254973750588,152.168],[-65.909423828125,-10.674151300005889,151.502],[-65.898193359375,-10.67986419063088,153.1626],[-65.884619140624991,-10.69329192500588,110.4289],[-65.873217773437489,-10.708330987505889,132.556],[-65.868408203125,-10.71843840938088,128.5939],[-65.856372070312489,-10.72307708125588,131.0461],[-65.829345703125,-10.71721770625588,127.7117],[-65.785888671875,-10.70134856563088,140.6842],[-65.762792968749991,-10.68401458125588,132.7682],[-65.753222656249989,-10.667022393755886,126.5371],[-65.75166015625,-10.647491143755886,131.4673],[-65.752368164062489,-10.62224700313088,144.2953],[-65.757177734374991,-10.600616143755886,142.7828],[-65.76416015625,-10.580108331255886,154.3847],[-65.761572265624991,-10.564288018755889,152.7578],[-65.738085937499989,-10.55681731563088,148.7406],[-65.717382812499991,-10.56072356563088,148.7357],[-65.695849609374989,-10.568682550005889,116.6608],[-65.674072265625,-10.57170989375588,121.1459],[-65.652441406249991,-10.56047942500588,129.0833],[-65.632421874999991,-10.54241301875588,135.009],[-65.613134765624991,-10.52849700313088,124.315],[-65.5263671875,-10.48674895625588,150.0207],[-65.518969726562489,-10.47820403438088,151.6513],[-65.512304687499991,-10.458330987505889,161.3692],[-65.496826171875,-10.43621184688088,127.8785],[-65.478613281249991,-10.41741301875588,165.8819],[-65.46435546875,-10.406573175005889,152.6767],[-65.447998046875,-10.40081145625588,136.2386],[-65.395458984375,-10.39226653438088,104.0]]}}