{"type":"Feature","properties":{"featurecla":"River","scalerank":7,"rivernum":475,"dissolve":"475River","name":"Beni1","name_alt":null,"note":null,"min_zoom":6.0,"strokeweig":0.2,"name_en":"Beni","min_label":7.0},
"geometry":{"type": "LineString","coordinates": [[-66.76708984375,-16.665362237505889,2035.4117],[-66.766040039062489,-16.589678643755889,1801.2708],[-66.774951171874989,-16.56096770625588,1733.5822],[-66.804736328124989,-16.510088800005889,1821.5791],[-66.816357421875,-16.48308684688088,1278.6902],[-66.817724609374991,-16.458038018755886,1291.1211],[-66.804296874999991,-16.40740325313088,1342.9542],[-66.799731445312489,-16.28337981563088,1142.5756],[-66.805712890624989,-16.269073175005886,1237.9703],[-66.826831054687489,-16.242705987505886,1221.0148],[-66.835009765624989,-16.229522393755886,1053.959],[-66.83935546875,-16.22625090938088,1057.3168],[-66.870703124999991,-16.215362237505886,959.7946],[-66.8720703125,-16.208819268755889,1107.9949],[-66.870043945312489,-16.19304778438088,1469.5953],[-66.872167968749991,-16.171221612505889,1098.1055],[-66.882861328124989,-16.15422942500588,1244.0427],[-66.912353515625,-16.123370050005889,1399.2036],[-66.927661132812489,-16.09758880000588,802.0812],[-66.945654296874991,-16.07537200313088,999.0508],[-66.948974609375,-16.06804778438088,963.3095],[-66.950048828124991,-16.057940362505889,839.6801],[-66.940527343749991,-15.98430755000588,1046.7971],[-66.940673828125,-15.95916106563088,1425.4103],[-66.944262695312489,-15.935577081255886,1390.0996],[-66.944506835937489,-15.923858331255886,1293.8265],[-66.941577148437489,-15.912432550005889,1022.3399],[-66.933935546874991,-15.89983489375588,804.3705],[-66.926074218749989,-15.89006926875588,723.2625],[-66.920214843749989,-15.87957122188088,717.0029],[-66.918383789062489,-15.864092706255889,840.6076],[-66.9201171875,-15.857256768755889,706.5792],[-66.923632812499989,-15.85369231563088,630.7558],[-66.928027343749989,-15.851397393755889,602.2504],[-66.932299804687489,-15.848174737505886,700.6141],[-66.944189453124991,-15.830401300005889,518.6377],[-66.95087890625,-15.815948175005886,503.3158],[-66.958056640624989,-15.79094817500588,595.2466],[-66.967626953124991,-15.779620050005889,518.1005],[-66.9775390625,-15.77385833125588,679.6631],[-67.010595703124991,-15.76116301875588,498.1146],[-67.020751953125,-15.753252862505889,548.9119],[-67.037524414062489,-15.73503997188088,724.3251],[-67.046557617187489,-15.727569268755886,524.3074],[-67.093847656249991,-15.70769622188088,450.4814],[-67.108569335937489,-15.69915130000588,451.4169],[-67.218066406249989,-15.61394622188088,421.1906],[-67.318945312499991,-15.56096770625588,411.8568],[-67.341723632812489,-15.556475518755889,410.7924],[-67.378759765624991,-15.560577081255886,397.6473],[-67.390722656249991,-15.55852630000588,547.2581],[-67.400732421874991,-15.553057550005889,613.0592],[-67.4072265625,-15.545733331255889,490.8586],[-67.416845703124991,-15.527862237505886,468.1193],[-67.424609374999989,-15.51726653438088,379.0488],[-67.432714843749991,-15.51165130000588,376.532],[-67.4423828125,-15.508819268755886,388.2552],[-67.4546875,-15.50701262813088,500.5892],[-67.473974609374991,-15.497393487505889,508.7751],[-67.484619140625,-15.47942473750588,545.5118],[-67.491943359375,-15.45842864375588,585.3532],[-67.501318359374991,-15.439483331255886,586.4827],[-67.525317382812489,-15.41033294063088,418.1051],[-67.538256835937489,-15.39910247188088,483.7651],[-67.554443359375,-15.38836028438088,489.4614],[-67.57578125,-15.366241143755886,419.976],[-67.573486328125,-15.34368255000588,470.3778],[-67.557226562499991,-15.321319268755886,636.4338],[-67.536669921874989,-15.30022551875588,713.4493],[-67.515429687499989,-15.26799895625588,315.7147],[-67.517822265625,-15.242510675005889,371.7853],[-67.536962890624991,-15.21892669063088,300.1381],[-67.565844726562489,-15.19255950313088,328.1146],[-67.569506835937489,-15.188018487505886,360.719],[-67.575292968749991,-15.17888762813088,361.3053],[-67.579541015625,-15.17546965938088,369.8335],[-67.585009765624989,-15.174346612505886,386.8033],[-67.596484374999989,-15.17571380000588,375.8569],[-67.600390624999989,-15.17498137813088,330.8562],[-67.608447265624989,-15.167022393755886,309.0258],[-67.615966796875,-15.147491143755886,373.8413],[-67.621264648437489,-15.13836028438088,381.7552],[-67.629443359374989,-15.132159112505889,348.3894],[-67.65966796875,-15.11956145625588,286.5554],[-67.668798828124991,-15.11126067500588,282.2627],[-67.689013671874989,-15.08098723750588,283.4505],[-67.717700195312489,-15.058428643755889,281.2953],[-67.723193359374989,-15.05022551875588,278.2348],[-67.731689453125,-15.04119231563088,282.866],[-67.745703124999991,-15.03533294063088,387.4594],[-67.758105468749989,-15.02752044063088,286.7385],[-67.761328124999991,-15.01238372188088,269.8648],[-67.754931640624989,-15.000811456255889,304.1592],[-67.742968749999989,-14.99114348750588,466.4799],[-67.717626953124991,-14.97600676875588,656.8749],[-67.702197265624989,-14.96282317500588,815.0292],[-67.693408203124989,-14.94988372188088,462.909],[-67.689013671874989,-14.935381768755889,390.4297],[-67.686450195312489,-14.91692473750588,247.1656],[-67.681323242187489,-14.89934661250588,287.1852],[-67.6630859375,-14.86882903438088,305.8158],[-67.637304687499991,-14.790069268755886,258.1607],[-67.61083984375,-14.731963800005886,243.4569],[-67.544726562499989,-14.62371184688088,216.1667],[-67.533496093749989,-14.59124114375588,206.5],[-67.527685546874991,-14.58098723750588,220.477],[-67.520556640624989,-14.57317473750588,212.0619],[-67.504736328124991,-14.559600518755886,206.5538],[-67.497998046875,-14.55144622188088,251.7665],[-67.489111328124991,-14.53142669063088,280.6378],[-67.488085937499989,-14.511748956255886,199.0],[-67.493994140624991,-14.49260833125588,196.5],[-67.506152343749989,-14.47429778438088,285.7103],[-67.527929687499991,-14.453155206255886,292.3373],[-67.532470703125,-14.44304778438088,190.0],[-67.533203125,-14.43694426875588,189.5],[-67.532885742187489,-14.42449309688088,197.9326],[-67.534423828125,-14.418487237505886,196.6521],[-67.536962890624991,-14.415069268755886,190.6933],[-67.543701171875,-14.409014581255889,198.3949],[-67.546240234374991,-14.40569426875588,196.2568],[-67.560791015625,-14.369170831255886,184.0051],[-67.565722656249989,-14.34929778438088,215.04],[-67.568286132812489,-14.330401300005889,209.8887],[-67.564501953124989,-14.31218840938088,208.7828],[-67.552734375,-14.302764581255886,205.3322],[-67.520751953125,-14.28875090938088,196.6021],[-67.508056640625,-14.27483489375588,199.179],[-67.503710937499989,-14.25872161250588,186.6022],[-67.505615234375,-14.24163176875588,189.2967],[-67.515380859375,-14.20891692500588,180.0],[-67.511474609375,-14.14885833125588,200.339],[-67.521899414062489,-14.071319268755886,188.9769]]}}