{"type":"Feature","properties":{"featurecla":"River","scalerank":9,"rivernum":990,"dissolve":"990River","name":"San6","name_alt":null,"note":null,"min_zoom":7.1,"strokeweig":0.25,"name_en":"San Miguel","min_label":8.1},
"geometry":{"type": "LineString","coordinates": [[-64.0,-13.43328215938088,138.5723],[-64.068701171874991,-13.40178801875588,142.4879],[-64.092529296875,-13.374053643755886,137.9261],[-64.105517578124989,-13.338897393755886,139.4226],[-64.119873046875,-13.310088800005886,137.339],[-64.146484375,-13.29998137813088,137.1181],[-64.15576171875,-13.290557550005886,151.6528],[-64.155517578125,-13.274932550005886,136.9575],[-64.156835937499991,-13.25725676875588,151.1111],[-64.168701171875,-13.24456145625588,136.1482],[-64.1875,-13.217315362505886,135.8522],[-64.194433593749991,-13.18328215938088,135.2626],[-64.204150390624989,-13.16765715938088,135.0935],[-64.211108398437489,-13.15129973750588,134.9662],[-64.20556640625,-13.11663176875588,134.7153],[-64.217626953124991,-13.087237237505889,134.3696],[-64.244433593749989,-13.06658294063088,135.2193],[-64.284521484374991,-12.998858331255889,150.2235],[-64.307299804687489,-12.971026300005889,149.3266],[-64.30615234375,-12.93621184688088,131.5],[-64.31396484375,-12.900225518755889,134.8301],[-64.335791015624991,-12.86858489375588,134.1417],[-64.340380859374989,-12.839678643755889,138.8554],[-64.333300781249989,-12.80901458125588,159.5383],[-64.347900390625,-12.78289153438088,147.4616],[-64.351245117187489,-12.752471612505886,139.2641],[-64.341650390624991,-12.680205987505886,132.1728],[-64.370458984374991,-12.60906340938088,140.0089],[-64.38837890625,-12.575225518755886,146.9867],[-64.373876953124991,-12.54143645625588,135.388],[-64.371923828124991,-12.506182550005889,144.8844],[-64.372167968749991,-12.46672942500588,131.0072]]}}