{"type":"Feature","properties":{"featurecla":"River","scalerank":9,"rivernum":990,"dissolve":"990River","name":"San5","name_alt":null,"note":null,"min_zoom":7.1,"strokeweig":0.25,"name_en":"San Miguel","min_label":8.1},
"geometry":{"type": "LineString","coordinates": [[-63.872241210937489,-14.000030206255886,150.7094],[-63.885791015624989,-13.925616143755889,147.2894],[-63.888916015625,-13.85003020625588,147.6808],[-63.891357421875,-13.834502862505886,146.9507],[-63.887451171875,-13.81926848750588,146.5932],[-63.878515624999991,-13.80217864375588,145.7721],[-63.87080078125,-13.784502862505889,144.8004],[-63.875585937499991,-13.75237395625588,143.377],[-63.89501953125,-13.722979425005889,143.8185],[-63.924365234374989,-13.64519622188088,148.6418],[-63.933349609375,-13.56194426875588,140.8374],[-63.947998046875,-13.48552825313088,139.2995],[-64.0,-13.433428643755889,138.5723]]}}