{"type":"Feature","properties":{"featurecla":"River","scalerank":7,"rivernum":475,"dissolve":"475River","name":"Beni2","name_alt":null,"note":null,"min_zoom":6.0,"strokeweig":0.25,"name_en":"Beni","min_label":7.0},
"geometry":{"type": "LineString","coordinates": [[-67.521899414062489,-14.071319268755886,188.9769],[-67.523046874999991,-14.05901458125588,204.5332],[-67.535571289062489,-14.014483331255889,189.5512],[-67.5361328125,-13.99846770625588,187.3422],[-67.509326171874989,-13.88005950313088,191.8291],[-67.501147460937489,-13.86541106563088,184.5842],[-67.49169921875,-13.852569268755886,182.2438],[-67.482836914062489,-13.836748956255889,191.2311],[-67.479907226562489,-13.81682708125588,186.2971],[-67.49365234375,-13.790850518755889,177.9173],[-67.492773437499991,-13.77141692500588,177.1633],[-67.481005859374989,-13.73088958125588,189.9801],[-67.471777343749991,-13.71062590938088,181.6435],[-67.4591796875,-13.69817473750588,186.9899],[-67.442626953125,-13.68792083125588,185.9657],[-67.430859375,-13.67498137813088,185.2359],[-67.411230468749991,-13.642901300005889,181.5325],[-67.369677734374989,-13.59099700313088,178.703],[-67.361181640624991,-13.574053643755889,168.7712],[-67.360888671874989,-13.554522393755889,175.3939],[-67.378173828125,-13.528643487505889,166.5],[-67.394873046874991,-13.437334893755889,163.0],[-67.395678710937489,-13.402666925005889,176.5527],[-67.379931640624989,-13.36931731563088,166.0707],[-67.336767578124991,-13.30462005000588,164.7938],[-67.322265625,-13.288116143755886,174.5501],[-67.28759765625,-13.26165130000588,176.7289],[-67.2060546875,-13.16790130000588,161.8625],[-67.2021484375,-13.158721612505886,179.6196],[-67.197924804687489,-13.13884856563088,173.9668],[-67.193286132812489,-13.129717706255889,171.2518],[-67.185791015625,-13.123077081255886,166.8603],[-67.167285156249989,-13.113799737505886,166.9413],[-67.1591796875,-13.10759856563088,171.5707],[-67.120043945312489,-13.03728606563088,175.1945],[-67.103271484375,-13.021807550005889,164.1126],[-67.083056640624989,-13.018096612505886,170.7904],[-67.066210937499989,-13.020049737505886,173.3037],[-67.05234375,-13.01604583125588,169.1502],[-67.004199218749989,-12.901202081255889,167.043],[-66.94873046875,-12.670928643755886,141.5],[-66.946582031249989,-12.64544036250588,162.7492],[-66.951098632812489,-12.624541925005886,142.4909],[-66.966796875,-12.581573175005886,166.8197]]}}