{"type":"Feature","properties":{"featurecla":"River","scalerank":3,"rivernum":91,"dissolve":"91River","name":"Madeira","name_alt":null,"note":null,"min_zoom":3.0,"strokeweig":0.3,"name_en":"Madeira","min_label":4.0},
"geometry":{"type": "LineString","coordinates": [[-65.395458984375,-10.39226653438088,104.0],[-65.390917968749989,-10.373858331255889,104.0],[-65.380078125,-10.35125090938088,103.5],[-65.365771484374989,-10.332061456255886,120.3284],[-65.328540039062489,-10.31414153438088,105.5993],[-65.31640625,-10.29119231563088,100.5],[-65.306079101562489,-10.24212005000588,98.5],[-65.288818359375,-10.216143487505889,97.0],[-65.285571289062489,-10.20671965938088,97.0],[-65.28759765625,-10.196319268755886,115.8408],[-65.29755859375,-10.17327239375588,106.1858],[-65.299902343749991,-10.162920831255889,106.9947],[-65.30224609375,-10.11956145625588,95.5],[-65.306323242187489,-10.098174737505886,98.3195],[-65.324877929687489,-10.04631926875588,96.7103],[-65.333666992187489,-10.00823333125588,120.7525],[-65.33759765625,-9.9671200500058887,94.0],[-65.334033203124989,-9.92669036250588,93.5],[-65.325976562499989,-9.9051083312558887,93.5],[-65.304296874999991,-9.8642880187558859,114.0499],[-65.299902343749991,-9.8411434875058887,113.7742],[-65.30517578125,-9.82561614375588,91.5],[-65.317309570312489,-9.81243255000588,96.4071],[-65.3310546875,-9.8006161437558887,121.0916],[-65.3408203125,-9.7895809875058859,119.3137],[-65.3544921875,-9.7449520812558887,119.6766],[-65.356787109374991,-9.7415341125058887,117.0537],[-65.371264648437489,-9.7104794250058859,112.2329],[-65.398730468749989,-9.6865536437558859,98.4279],[-65.4169921875,-9.67986419063088,88.5],[-65.443212890624991,-9.6797177062558859,110.847],[-65.452001953124991,-9.66497161250588,112.0801],[-65.456103515624989,-9.6548153625058859,123.2645],[-65.456884765624991,-9.6455380187558859,116.8277],[-65.451953124999989,-9.63762786250588,120.8101],[-65.433349609375,-9.6269833312558859,117.7791],[-65.416918945312489,-9.6150692687558887,114.1461],[-65.39404296875,-9.6072567687558887,90.8552],[-65.3849609375,-9.60125090938088,88.0],[-65.376025390624989,-9.58953215938088,113.7124],[-65.360693359374991,-9.55681731563088,91.1868],[-65.330810546875,-9.5291317687558887,88.0],[-65.293701171875,-9.52776458125588,121.0247],[-65.216723632812489,-9.55681731563088,115.6774],[-65.200122070312489,-9.56609465938088,119.4042],[-65.171484374999991,-9.58733489375588,98.3259],[-65.15869140625,-9.5916317687558887,87.5],[-65.09248046875,-9.5884091125058859,122.2368],[-65.043261718749989,-9.57756926875588,155.5372],[-65.032324218749991,-9.57732512813088,93.587],[-65.019775390625,-9.57976653438088,102.1874],[-64.997802734375,-9.5893856750058859,99.209],[-64.939868164062489,-9.59783294063088,89.8343],[-64.930346679687489,-9.59563567500588,89.1572],[-64.924365234374989,-9.5906552062558887,81.0],[-64.9150390625,-9.57732512813088,105.3497],[-64.891210937499991,-9.55584075313088,104.7393],[-64.881518554687489,-9.54998137813088,80.0],[-64.871020507812489,-9.54729583125588,79.5],[-64.846240234374989,-9.5442684875058887,78.5],[-64.836840820312489,-9.53972747188088,78.0],[-64.82080078125,-9.5200497375058859,77.0],[-64.813891601562489,-9.4995419250058859,76.0],[-64.81416015625,-9.47771575313088,92.37],[-64.819433593749991,-9.45378997188088,80.6634],[-64.834643554687489,-9.41106536250588,72.5],[-64.835131835937489,-9.39226653438088,71.5],[-64.823168945312489,-9.37493255000588,112.1295],[-64.80712890625,-9.37102630000588,69.0],[-64.759375,-9.37297942500588,67.25],[-64.737548828125,-9.36443450313088,66.5],[-64.728271484375,-9.3543270812558887,66.8372],[-64.72412109375,-9.3445614562558887,103.3129],[-64.721533203124991,-9.33440520625588,137.8988],[-64.717041015625,-9.32341887813088,64.5],[-64.689746093749989,-9.29265715938088,66.5576],[-64.678955078125,-9.2837216125058859,64.0],[-64.628759765624991,-9.2537411437558887,61.0],[-64.613378906249991,-9.2415341125058887,88.6982],[-64.589453124999991,-9.18621184688088,79.9742],[-64.576171875,-9.17937590938088,73.7703],[-64.5615234375,-9.1751278625058887,84.8789],[-64.530078124999989,-9.1565731750058887,82.1906],[-64.512255859374989,-9.1521786437558887,61.0],[-64.443359375,-9.18279387813088,89.6856],[-64.43212890625,-9.1904598937558859,61.0],[-64.407080078124991,-9.1889950500058859,68.8479],[-64.367602539062489,-9.17937590938088,95.2889],[-64.345263671874989,-9.15837981563088,86.2456],[-64.32861328125,-9.13079192500588,70.2716],[-64.290136718749991,-9.0473934875058859,61.0],[-64.277392578124989,-9.0293270812558859,61.0],[-64.260791015624989,-9.01482512813088,61.0],[-64.240649414062489,-9.00872161250588,69.3349],[-64.202880859375,-9.01018645625588,82.4596],[-64.184667968749991,-9.0083309875058859,72.0049],[-64.14453125,-8.9954403625058887,61.0],[-64.101367187499989,-8.9759091125058887,64.2332],[-64.082690429687489,-8.9634091125058859,78.5679],[-64.06884765625,-8.9436825500058887,61.0],[-64.071142578124991,-8.92571380000588,74.359],[-64.080126953124989,-8.90886809688088,102.257],[-64.08642578125,-8.89202239375588,61.0],[-64.083422851562489,-8.87517669063088,85.0943],[-64.072119140624991,-8.85711028438088,61.0],[-64.053466796875,-8.84270598750588,61.0],[-64.005859375,-8.8328427062558887,83.7174],[-63.990087890624991,-8.82268645625588,75.2188],[-63.978808593749989,-8.8094052062558887,60.0],[-63.9697265625,-8.79583098750588,60.0],[-63.959277343749989,-8.7871395812558859,92.722],[-63.92841796875,-8.76726653438088,88.3242],[-63.921972656249991,-8.7583309875058859,52.0],[-63.924169921874991,-8.69353606563088,51.5],[-63.921972656249991,-8.67229583125588,51.0],[-63.917407226562489,-8.65569426875588,51.0],[-63.909716796874989,-8.64275481563088,51.0],[-63.897070312499991,-8.63445403438088,51.0],[-63.853198242187489,-8.6294247375058859,59.291],[-63.831835937499989,-8.6238583312558887,50.5],[-63.709570312499991,-8.55828215938088,66.919],[-63.66796875,-8.54778411250588,76.0116],[-63.627734374999989,-8.55632903438088,68.8207],[-63.596240234374989,-8.5716122375058887,55.4538],[-63.56005859375,-8.58391692500588,74.3639],[-63.538818359375,-8.5789364562558887,71.6927],[-63.552050781249989,-8.5420223937558859,50.0],[-63.560595703124989,-8.52629973750588,87.1837],[-63.569433593749991,-8.50335051875588,74.1923],[-63.570410156249991,-8.4827450500058887,50.0],[-63.555419921875,-8.4736630187558859,64.6824],[-63.539843749999989,-8.4695614562558887,50.0],[-63.523486328124989,-8.4597958312558887,50.0],[-63.469531249999989,-8.4153622375058887,57.8785],[-63.4189453125,-8.34929778438088,54.6711],[-63.39501953125,-8.30925872188088,47.5],[-63.359790039062489,-8.2180966125058887,45.0],[-63.343188476562489,-8.18645598750588,44.0]]}}