{"type":"Feature","properties":{"featurecla":"River","scalerank":3,"rivernum":90,"dissolve":"90River","name":"Guaporé4","name_alt":null,"note":null,"min_zoom":3.0,"strokeweig":0.3,"name_en":"Guaporé","min_label":4.0},
"geometry":{"type": "LineString","coordinates": [[-65.018725585937489,-11.89348723750588,122.0],[-65.028857421874989,-11.888702081255886,122.0],[-65.034423828125,-11.87957122188088,138.6686],[-65.039160156249991,-11.85833098750588,132.0176],[-65.039892578124991,-11.84856536250588,138.0785],[-65.038183593749991,-11.82830169063088,147.3766],[-65.039160156249991,-11.818682550005889,149.0412],[-65.044042968749991,-11.80754973750588,139.2394],[-65.057080078125,-11.78557708125588,124.1231],[-65.066259765624991,-11.752959893755886,138.1217],[-65.081787109375,-11.74334075313088,129.6806],[-65.099951171874991,-11.736163018755889,138.7232],[-65.114306640624989,-11.72234465938088,138.17],[-65.111181640624991,-11.699737237505886,137.3899],[-65.114111328124991,-11.690459893755886,134.6334],[-65.128588867187489,-11.69451262813088,133.0491],[-65.134765625,-11.702471612505889,132.0836],[-65.138769531249991,-11.715166925005889,143.5041],[-65.144287109375,-11.763702081255886,140.0538],[-65.152197265624991,-11.772979425005886,125.0],[-65.165209960937489,-11.76970794063088,147.3263],[-65.183203124999991,-11.75652434688088,122.0],[-65.196875,-11.74163176875588,140.0584],[-65.202563476562489,-11.72771575313088,127.1825],[-65.20302734375,-11.69133880000588,142.3278],[-65.200976562499989,-11.68181731563088,142.275],[-65.192065429687489,-11.66668059688088,140.5594],[-65.190039062499991,-11.65691497188088,140.2049],[-65.194091796875,-11.63225676875588,124.5],[-65.191650390625,-11.62297942500588,132.1368],[-65.168139648437489,-11.615264581255886,140.4876],[-65.174658203124991,-11.60637786250588,140.3055],[-65.196240234375,-11.592120050005889,125.5733],[-65.208105468749991,-11.587432550005886,137.3934],[-65.21533203125,-11.587432550005886,142.1908],[-65.219970703125,-11.58440520625588,137.4397],[-65.224169921874989,-11.57097747188088,133.027],[-65.224365234375,-11.55779387813088,132.0316],[-65.216723632812489,-11.539873956255889,127.9401],[-65.216723632812489,-11.52996184688088,137.976],[-65.223437499999989,-11.51726653438088,121.5],[-65.233837890625,-11.50823333125588,131.6047],[-65.25830078125,-11.495147393755886,132.0146],[-65.293212890625,-11.50457122188088,121.5],[-65.3203125,-11.47625090938088,143.7972],[-65.353759765625,-11.390459893755889,153.6474],[-65.355517578124989,-11.38225676875588,155.9433],[-65.3544921875,-11.372393487505889,155.2357],[-65.348242187499991,-11.360674737505889,153.9178],[-65.330810546875,-11.340362237505886,121.5],[-65.327197265624989,-11.32756926875588,138.6679],[-65.335546874999991,-11.321123956255889,144.6354],[-65.354663085937489,-11.31047942500588,147.3643],[-65.375244140625,-11.295733331255889,134.4403],[-65.388037109374991,-11.277373956255886,147.9958],[-65.389404296875,-11.252959893755886,127.4352],[-65.37939453125,-11.24187590938088,134.1646],[-65.366796874999991,-11.233916925005886,130.7299],[-65.360693359374991,-11.21868255000588,121.5],[-65.369067382812489,-11.20525481563088,133.9494],[-65.385986328125,-11.19353606563088,130.9389],[-65.398876953125,-11.17791106563088,135.2706],[-65.395458984375,-11.15325286250588,126.0409],[-65.380419921874989,-11.13616301875588,132.2844],[-65.341796875,-11.106475518755886,138.1212],[-65.334033203124989,-11.08831145625588,142.415],[-65.337744140624991,-11.06755950313088,151.1296],[-65.34345703125,-11.05046965938088,149.2069],[-65.342700195312489,-11.03264739375588,141.0128],[-65.327197265624989,-11.00920989375588,150.6703],[-65.318603515625,-11.001983331255886,145.2926],[-65.310400390624991,-10.99651458125588,140.8339],[-65.303759765624989,-10.99065520625588,138.2197],[-65.299902343749991,-10.98186614375588,140.3862],[-65.300341796874989,-10.969561456255889,126.5298],[-65.305224609374989,-10.96184661250588,137.3437],[-65.310839843749989,-10.956377862505889,139.2321],[-65.313525390624989,-10.95086028438088,127.9056],[-65.3197265625,-10.86516692500588,132.199],[-65.327880859375,-10.850420831255889,134.7083],[-65.342944335937489,-10.834795831255889,129.0095],[-65.361083984375,-10.82244231563088,135.7391],[-65.400439453124989,-10.812041925005886,142.5355],[-65.405444335937489,-10.799151300005889,156.7029],[-65.390478515624991,-10.75359465938088,134.5766],[-65.382983398437489,-10.71550872188088,131.3174],[-65.3818359375,-10.69793059688088,125.9099],[-65.3875,-10.66936614375588,149.1658],[-65.401464843749991,-10.65520598750588,131.4365],[-65.419360351562489,-10.64446380000588,131.4202],[-65.436450195312489,-10.62566497188088,141.6519],[-65.436376953124991,-10.610674737505889,143.2048],[-65.429980468749989,-10.56121184688088,154.5947],[-65.432666015624989,-10.55046965938088,132.4962],[-65.43671875,-10.54680755000588,167.1646],[-65.440039062499991,-10.53801848750588,146.4412],[-65.4423828125,-10.52776458125588,144.0271],[-65.443212890624991,-10.51921965938088,139.7061],[-65.442187499999989,-10.513213800005886,138.22],[-65.4375,-10.503936456255886,131.9277],[-65.436450195312489,-10.499053643755886,128.7373],[-65.438647460937489,-10.492510675005889,132.7365],[-65.45068359375,-10.47478606563088,152.5837],[-65.45068359375,-10.46795012813088,161.0634],[-65.426123046874991,-10.46306731563088,105.375],[-65.411669921874989,-10.449053643755889,139.6967],[-65.388037109374991,-10.406573175005889,136.6381],[-65.3921875,-10.403350518755886,129.6375],[-65.393847656249989,-10.40007903438088,118.0913],[-65.395458984375,-10.39226653438088,104.0]]}}