{"type":"Feature","properties":{"featurecla":"River","scalerank":7,"rivernum":373,"dissolve":"373River","name":"Guaporé","name_alt":null,"note":null,"min_zoom":6.0,"strokeweig":0.2,"name_en":"Guaporé","min_label":7.0},
"geometry":{"type": "LineString","coordinates": [[-60.0,-14.861163018755889,202.0051],[-60.02294921875,-14.829620050005886,198.9974],[-60.025195312499989,-14.79094817500588,201.7696],[-60.0158203125,-14.747588800005886,201.7986],[-60.027758789062489,-14.704424737505889,199.2184],[-60.034326171874994,-14.661455987505889,189.3792],[-60.047216796874991,-14.619463800005889,204.1645],[-60.086108398437489,-14.538897393755889,208.5657],[-60.101123046874989,-14.49114348750588,204.4922],[-60.137622070312489,-14.40300872188088,193.6548],[-60.162841796875,-14.374346612505889,189.9146],[-60.171728515624991,-14.351397393755889,196.5711],[-60.176318359374989,-14.32683684688088,190.1062],[-60.183691406249991,-14.30999114375588,193.7492],[-60.19296875,-14.293291925005889,183.3855],[-60.217700195312489,-14.264483331255889,195.4202],[-60.22216796875,-14.227862237505889,191.3645],[-60.244580078125,-14.211455987505886,193.6305],[-60.25,-14.177764581255886,188.055],[-60.277758789062489,-14.15007903438088,179.8411],[-60.281787109374989,-14.12737395625588,186.2758],[-60.28857421875,-14.104327081255889,186.871],[-60.3330078125,-14.040069268755886,188.4082],[-60.397265624999989,-14.008330987505886,187.6893],[-60.390429687499989,-13.98162200313088,188.1904],[-60.409228515624989,-13.96355559688088,187.186],[-60.409716796874989,-13.95305755000588,191.2256],[-60.412768554687489,-13.94158294063088,184.3929],[-60.430761718749991,-13.926299737505886,179.0865],[-60.444433593749991,-13.90740325313088,182.2868],[-60.458178710937489,-13.86956145625588,176.3528],[-60.464892578124989,-13.829913018755889,176.2361],[-60.481542968749991,-13.79461028438088,175.7515],[-60.519775390625,-13.78093840938088,176.8534],[-60.555102539062489,-13.77410247188088,174.0383],[-60.610107421875,-13.735674737505889,169.5],[-60.644384765624991,-13.723467706255889,183.0851],[-60.721289062499991,-13.670440362505886,173.7508],[-60.793872070312489,-13.610870050005886,175.4761],[-60.825292968749991,-13.59368255000588,177.4745],[-60.85888671875,-13.580596612505886,188.4671],[-60.891650390624989,-13.561846612505889,187.1202],[-60.926611328124991,-13.54680755000588,174.1125],[-61.00537109375,-13.53826262813088,170.8092],[-61.024023437499991,-13.53215911250588,171.5345],[-61.038989257812489,-13.51824309688088,177.946],[-61.041552734374989,-13.49651458125588,165.4343],[-61.0419921875,-13.474444268755889,172.8673],[-61.065283203124991,-13.46965911250588,179.2884],[-61.093554687499989,-13.48064544063088,169.7028],[-61.112890624999991,-13.48381926875588,170.7522],[-61.13046875,-13.49138762813088,179.8366],[-61.138525390624991,-13.50823333125588,173.3998],[-61.151660156249989,-13.51970794063088,173.1188],[-61.193798828125,-13.51799895625588,167.4362],[-61.23505859375,-13.52312590938088,161.544],[-61.271484375,-13.516631768755886,199.6561],[-61.30859375,-13.502471612505886,164.8554],[-61.334887695312489,-13.49602630000588,172.1156],[-61.36083984375,-13.49993255000588,171.3948],[-61.401123046875,-13.51995208125588,170.8743],[-61.442431640624989,-13.53753020625588,164.6476],[-61.519335937499989,-13.54485442500588,162.7565],[-61.586767578124991,-13.509307550005886,168.8604],[-61.652148437499989,-13.507159112505889,167.3113],[-61.719531249999989,-13.52825286250588,167.8023],[-61.75390625,-13.53508880000588,162.2959],[-61.823583984374991,-13.543487237505886,156.1967],[-61.849291992187489,-13.528838800005886,161.1413],[-61.858251953124991,-13.491045831255889,167.0426],[-61.873046875,-13.45598723750588,162.9525],[-61.927661132812489,-13.41545989375588,164.6537],[-61.9591796875,-13.38738372188088,154.6906],[-61.995043945312489,-13.365557550005889,155.8687],[-62.03076171875,-13.327178643755886,157.378],[-62.055761718749991,-13.30413176875588,156.5959],[-62.078466796874991,-13.277862237505886,159.6507],[-62.103369140624991,-13.25579192500588,162.3539],[-62.113134765624991,-13.22478606563088,153.8171],[-62.111499023437489,-13.18474700313088,155.6767],[-62.118261718749991,-13.14934661250588,151.7961],[-62.131103515625,-13.14934661250588,149.0],[-62.142919921874991,-13.14421965938088,157.4663],[-62.15625,-13.12810637813088,150.9584],[-62.168261718749989,-13.12737395625588,150.0081],[-62.174658203124991,-13.140655206255886,165.3758],[-62.21533203125,-13.12297942500588,159.9913],[-62.2599609375,-13.13054778438088,162.2479],[-62.276538085937489,-13.13860442500588,161.635],[-62.294189453125,-13.14055755000588,163.9312],[-62.315039062499991,-13.13860442500588,161.516],[-62.335791015624991,-13.145049737505886,147.6797],[-62.378662109375,-13.136748956255886,143.5],[-62.41796875,-13.12590911250588,147.0065],[-62.442578125,-13.10271575313088,149.1145],[-62.469335937499991,-13.07073333125588,155.608],[-62.514257812499991,-13.06536223750588,152.221],[-62.56015625,-13.06462981563088,149.1136],[-62.608691406249989,-13.04778411250588,158.4939],[-62.646289062499989,-13.021514581255886,158.3542],[-62.66171875,-12.981475518755886,149.3208],[-62.699755859374989,-12.96648528438088,153.4952],[-62.742041015624991,-12.985186456255889,156.3828],[-62.764746093749991,-12.98919036250588,155.1269],[-62.771240234375,-13.010284112505886,139.0],[-62.796069335937489,-12.99675872188088,140.8703],[-62.817578125,-12.97844817500588,159.1029],[-62.824804687499991,-12.959014581255886,153.7365],[-62.8359375,-12.94378020625588,141.3953],[-62.854101562499991,-12.938506768755886,155.0845],[-62.868701171874989,-12.92888762813088,146.9128],[-62.892504882812489,-12.90105559688088,146.0537],[-62.924731445312489,-12.855498956255886,155.4013],[-62.938769531249989,-12.84929778438088,144.4949],[-62.960693359375,-12.852569268755886,146.6462],[-62.985449218749991,-12.846026300005889,151.2612],[-63.002001953124989,-12.82488372188088,146.8767],[-63.00927734375,-12.798858331255886,151.8783],[-63.020190429687489,-12.77312590938088,157.5534],[-63.040820312499989,-12.753252862505889,137.0],[-63.051562499999989,-12.74041106563088,152.3123],[-63.048022460937489,-12.72478606563088,139.5497],[-63.050830078124989,-12.709502862505886,139.728],[-63.060400390624991,-12.69255950313088,142.6365],[-63.08837890625,-12.64861419063088,147.5398],[-63.140234374999991,-12.63543059688088,151.369],[-63.162402343749989,-12.647784112505889,155.6337],[-63.176855468749991,-12.66350676875588,157.5098],[-63.194726562499994,-12.668291925005889,153.6727],[-63.212988281249991,-12.67498137813088,148.6691],[-63.230419921875,-12.691241143755889,145.1225],[-63.249682617187489,-12.701202081255886,140.0078],[-63.318652343749989,-12.70183684688088,170.2365]]}}