{"type":"Feature","properties":{"featurecla":"River","scalerank":9,"rivernum":1031,"dissolve":"1031River","name":"San9","name_alt":null,"note":null,"min_zoom":7.1,"strokeweig":0.25,"name_en":"San Martin","min_label":8.1},
"geometry":{"type": "LineString","coordinates": [[-63.575927734375,-13.157745050005886,215.5665],[-63.580859374999989,-13.148272393755889,217.6828],[-63.585009765624989,-13.135772393755886,196.5522],[-63.591479492187489,-13.124834893755889,193.2484],[-63.603515625,-13.120147393755886,205.5579],[-63.608642578125,-13.11907317500588,193.7976],[-63.617773437499991,-13.11394622188088,185.9437],[-63.6240234375,-13.11272551875588,190.191],[-63.626757812499989,-13.11467864375588,187.1261],[-63.6357421875,-13.123565362505886,171.901],[-63.641406249999989,-13.12639739375588,167.6399],[-63.685302734375,-13.135088800005889,183.5047],[-63.708251953125,-13.13616301875588,156.7478],[-63.72900390625,-13.131377862505886,143.7672],[-63.742529296874991,-13.119952081255889,144.2088],[-63.760424804687489,-13.084795831255889,146.2378],[-63.77099609375,-13.06926848750588,141.99],[-63.790698242187489,-13.048370050005886,136.7506],[-63.798022460937489,-13.03728606563088,132.2941],[-63.813720703125,-13.000030206255886,145.3396],[-63.815283203124991,-12.992510675005889,144.5145],[-63.813159179687489,-12.970049737505889,147.8518],[-63.814501953124989,-12.96184661250588,133.3371],[-63.824316406249991,-12.94231536250588,157.6999],[-63.825048828124991,-12.93572356563088,156.4649],[-63.82177734375,-12.92253997188088,140.8455],[-63.820898437499991,-12.915362237505889,137.2509],[-63.824462890625,-12.89959075313088,143.9882],[-63.850683593749991,-12.86077239375588,140.5885],[-63.873339843749989,-12.809893487505889,145.2103],[-63.874926757812489,-12.79778411250588,145.5493],[-63.873779296875,-12.771807550005889,140.0438],[-63.878027343749991,-12.75994231563088,132.9215],[-63.888427734375,-12.751299737505889,134.329],[-63.915332031249989,-12.742705987505886,132.0963],[-63.92724609375,-12.735870050005886,132.4491],[-63.937353515624991,-12.72478606563088,135.1443],[-63.942480468749991,-12.72210051875588,135.7904],[-63.95673828125,-12.71892669063088,133.8953],[-63.9875,-12.716338800005886,132.9713],[-64.002539062499991,-12.712920831255886,130.5],[-64.017626953124989,-12.70647551875588,132.7061],[-64.031591796874991,-12.69793059688088,139.0291],[-64.043994140624989,-12.687334893755889,144.6422],[-64.086523437499991,-12.626983331255886,138.3189],[-64.131933593749991,-12.576006768755889,132.4254],[-64.142675781249991,-12.56658294063088,137.6548],[-64.154150390624991,-12.56218840938088,138.3274],[-64.279589843749989,-12.53508880000588,136.6452],[-64.291064453124989,-12.530791925005886,137.7586],[-64.301562499999989,-12.524444268755886,135.4351],[-64.310302734375,-12.515948175005889,134.9183],[-64.313574218749991,-12.51116301875588,132.1819],[-64.315478515624989,-12.50652434688088,133.6829],[-64.315673828125,-12.50164153438088,132.7468],[-64.313403320312489,-12.49602630000588,133.1515],[-64.309326171875,-12.49187590938088,134.1066],[-64.299072265625,-12.486163018755889,128.0],[-64.296337890625,-12.48333098750588,128.9569]]}}