{"type": "Feature","bbox": [-66.6831,-18.7881,-66.3872,-18.4387],"geometry": {"type": "MultiPolygon","coordinates": [[[[-66.4376,-18.7082,3553.8999],[-66.4388,-18.6711,3981.3389],[-66.4325,-18.6626,3862.1406],[-66.4325,-18.6587,3829.1562],[-66.4287,-18.6518,3930.9753],[-66.4291,-18.6446,4003.4265],[-66.4134,-18.6171,3565.3921],[-66.4024,-18.612,4068.4641],[-66.4007,-18.6083,4075.9912],[-66.4037,-18.5974,4082.21],[-66.402,-18.5939,4147.5156],[-66.4046,-18.5891,4133.2715],[-66.4024,-18.5847,4149.7554],[-66.3928,-18.5865,4197.5972],[-66.3872,-18.5665,3813.2751],[-66.3947,-18.5624,4009.8076],[-66.3975,-18.544,4080.5596],[-66.4033,-18.5238,3935.7422],[-66.4121,-18.517,3893.9565],[-66.4149,-18.5124,3927.9805],[-66.4223,-18.5101,4029.2224],[-66.4275,-18.5118,4029.366],[-66.4304,-18.511,4018.6826],[-66.4329,-18.5075,4055.0376],[-66.4409,-18.5104,4240.4121],[-66.4428,-18.5052,4309.6357],[-66.4493,-18.4969,4246.4961],[-66.463,-18.486,4290.9102],[-66.4776,-18.4673,4245.7305],[-66.4824,-18.4648,4242.9165],[-66.4879,-18.4684,4232.6118],[-66.4887,-18.4709,4221.8291],[-66.4955,-18.4686,4054.3667],[-66.4986,-18.4587,4047.2854],[-66.496,-18.4509,3905.1187],[-66.5025,-18.4398,3979.0718],[-66.5289,-18.4519,3704.1812],[-66.5475,-18.4497,3750.4297],[-66.5551,-18.4387,3840.7476],[-66.5805,-18.4502,4307.7603],[-66.5848,-18.454,4375.3535],[-66.5972,-18.4555,4563.332],[-66.6123,-18.4646,4637.7104],[-66.6765,-18.4778,4527.7661],[-66.6831,-18.4825,4428.959],[-66.6811,-18.4928,4515.1543],[-66.6814,-18.5012,4334.8022],[-66.6755,-18.5046,4391.541],[-66.6715,-18.515,4362.626],[-66.6661,-18.5211,4286.9512],[-66.6631,-18.5329,4223.8398],[-66.6644,-18.5354,4218.9839],[-66.6628,-18.541,4208.5396],[-66.6578,-18.5481,4192.9219],[-66.6576,-18.5673,4168.5586],[-66.6509,-18.573,4157.2339],[-66.6499,-18.5781,4158.0283],[-66.6423,-18.5896,4177.8872],[-66.6395,-18.5988,4194.6309],[-66.6407,-18.6118,4222.9009],[-66.6463,-18.6148,4133.1353],[-66.6442,-18.6303,4103.7812],[-66.6358,-18.6459,4074.1626],[-66.632,-18.6491,4094.0164],[-66.6179,-18.6456,4246.8149],[-66.6069,-18.6506,4408.3799],[-66.6119,-18.66,4239.7979],[-66.6049,-18.6628,4325.7075],[-66.6052,-18.6668,4302.5234],[-66.6006,-18.6662,4404.0625],[-66.5956,-18.6745,4327.1592],[-66.5948,-18.679,4142.3428],[-66.5959,-18.6842,4334.2622],[-66.5949,-18.687,4338.5264],[-66.6019,-18.6942,4015.5544],[-66.6002,-18.696,4005.9395],[-66.5978,-18.6978,4041.2195],[-66.5886,-18.6958,4159.4561],[-66.5813,-18.7028,4439.0508],[-66.5796,-18.7066,4488.0801],[-66.5775,-18.706,4566.3921],[-66.5764,-18.7075,4558.8379],[-66.5762,-18.7144,4500.8774],[-66.5648,-18.7182,4100.3369],[-66.5621,-18.7167,4179.5527],[-66.5557,-18.7191,4247.3984],[-66.537,-18.721,4533.8516],[-66.5382,-18.7368,4445.3301],[-66.5372,-18.7491,4492.8975],[-66.5321,-18.7737,4521.0894],[-66.5292,-18.7778,4604.2358],[-66.5218,-18.7823,4512.1836],[-66.5025,-18.7881,4567.3506],[-66.4997,-18.7873,4515.5562],[-66.4831,-18.7697,4042.637],[-66.4775,-18.7613,4293.5],[-66.4782,-18.7518,4360.9897],[-66.4749,-18.7315,4357.0049],[-66.4708,-18.7194,4234.8721],[-66.4623,-18.7087,3731.7869],[-66.4482,-18.7038,3595.689],[-66.446,-18.7044,3592.2573],[-66.4428,-18.7016,3571.0151],[-66.4376,-18.7082,3553.8999]]]]}
,"properties": {"GID_3": "BOL.7.13.4_2","GID_0": "BOL","country": "Bolivia","GID_1": "BOL.7_1","province": "Potosí","NL_NAME_1": "NA","GID_2": "BOL.7.13_2","county": "RafaelBustillo","NL_NAME_2": "NA","city": "Uncía","VARNAME_3": "NA","NL_NAME_3": "NA","TYPE_3": "District","ENGTYPE_3": "Distrito","CC_3": "NA","HASC_3": "NA","name": "Uncía.city","area_km2": 700.5912,"hist_schema_id": "Elevation0-9000","hist_area_km2": {"3550": 0.1607,"3575": 0.663,"3600": 1.1854,"3625": 1.6073,"3650": 2.0093,"3675": 3.3358,"3700": 10.1522,"3725": 18.9587,"3750": 20.3038,"3775": 21.4285,"3800": 20.5422,"3825": 21.3449,"3850": 23.7153,"3875": 23.7542,"3900": 26.8891,"3925": 31.8725,"3950": 31.0278,"3975": 30.3839,"4000": 30.7859,"4025": 27.6711,"4050": 25.8216,"4075": 24.3942,"4100": 19.6118,"4125": 20.2546,"4150": 17.7023,"4175": 18.2449,"4200": 18.1443,"4225": 18.9482,"4250": 17.4412,"4275": 15.6529,"4300": 14.4878,"4325": 14.4682,"4350": 14.327,"4375": 14.0867,"4400": 15.4336,"4425": 14.871,"4450": 14.1483,"4475": 12.842,"4500": 12.3996,"4525": 10.0879,"4550": 7.3348,"4575": 5.2048,"4600": 3.3962,"4625": 1.9892,"4650": 0.8438,"4675": 0.4619,"4700": 0.1406,"4725": 0.0603}}}