{"type":"Feature","properties":{"GID_3":"BOL.8.14.3_2","GID_0":"BOL","country":"Bolivia","GID_1":"BOL.8_1","province":"SantaCruz","NL_NAME_1":"NA","GID_2":"BOL.8.14_2","county":"Velasco","NL_NAME_2":"NA","city":"SanRafael","VARNAME_3":"NA","NL_NAME_3":"NA","TYPE_3":"District","ENGTYPE_3":"Distrito","CC_3":"NA","HASC_3":"NA","name":"San_Rafael.city"},
"geometry":{"type": "MultiPolygon","coordinates": [[[[-59.5011,-16.4434,190.3915],[-59.6217,-16.4382,204.6792],[-59.709,-16.4322,248.1418],[-59.7609,-16.4124,247.8284],[-59.8585,-16.4024,262.7916],[-60.0033,-16.3778,335.6606],[-60.0529,-16.4061,272.7064],[-60.1398,-16.46,246.7664],[-60.1482,-16.4627,239.787],[-60.1495,-16.467,212.1925],[-60.1589,-16.4657,218.3896],[-60.1699,-16.4677,222.256],[-60.1748,-16.4663,222.2539],[-60.1759,-16.476,227.6292],[-60.1811,-16.4802,231.3258],[-60.1883,-16.4802,241.1291],[-60.1925,-16.4873,232.5963],[-60.1996,-16.4894,234.182],[-60.203,-16.4879,233.08],[-60.2098,-16.4884,236.4687],[-60.2149,-16.4934,238.153],[-60.2205,-16.4917,241.4662],[-60.2227,-16.488,243.3619],[-60.2731,-16.5019,271.559],[-60.4619,-16.5796,370.2223],[-60.8502,-16.7352,455.1422],[-60.8573,-16.743,477.5715],[-60.862,-16.7552,514.3776],[-60.8695,-16.7647,577.1993],[-60.8746,-16.7847,443.7986],[-60.8877,-16.8043,377.9531],[-60.887,-16.8153,377.4443],[-60.8793,-16.8473,366.3577],[-60.8691,-16.8538,345.8564],[-60.8581,-16.8569,377.263],[-60.8355,-16.8718,354.6609],[-60.8286,-16.8746,351.4549],[-60.8227,-16.8833,340.2633],[-60.8173,-16.8853,332.0542],[-60.8135,-16.8887,343.5319],[-60.8118,-16.8931,329.6428],[-60.7684,-16.9054,366.481],[-60.7519,-16.9121,380.1248],[-60.7382,-16.9222,320.9607],[-60.7289,-16.9233,311.7103],[-60.7252,-16.927,305.5208],[-60.7257,-16.9304,314.2303],[-60.7185,-16.9373,307.1157],[-60.7212,-16.9481,306.7242],[-60.725,-16.952,303.6321],[-60.726,-16.9601,308.9127],[-60.7223,-16.9733,303.1288],[-60.7204,-16.9758,313.7228],[-60.717,-16.9753,309.4397],[-60.7179,-16.9788,303.1146],[-60.7242,-16.9867,296.6878],[-60.7247,-16.9919,315.4231],[-60.7227,-16.9932,302.2825],[-60.7241,-17.0065,313.3948],[-60.7197,-17.0098,302.3981],[-60.719,-17.0139,295.9491],[-60.7239,-17.0149,291.4367],[-60.7256,-17.0169,300.505],[-60.7252,-17.0196,303.1016],[-60.7215,-17.0236,291.5629],[-60.7219,-17.0277,290.4757],[-60.7145,-17.0358,299.2169],[-60.7149,-17.0407,285.0472],[-60.7186,-17.0476,296.2324],[-60.7168,-17.0495,288.5412],[-60.7173,-17.0568,297.0462],[-60.7154,-17.0578,288.9791],[-60.716,-17.0606,284.409],[-60.7205,-17.065,284.983],[-60.7158,-17.0735,295.6723],[-60.7213,-17.0774,285.7929],[-60.7223,-17.085,288.0009],[-60.7254,-17.0882,281.7736],[-60.7303,-17.0917,291.0729],[-60.7368,-17.0914,281.683],[-60.7378,-17.1018,272.2565],[-60.7477,-17.1206,270.6056],[-60.7556,-17.1256,270.1185],[-60.758,-17.1317,268.6409],[-60.7724,-17.1404,268.4523],[-60.7763,-17.147,281.9155],[-60.7845,-17.1494,268.3665],[-60.7855,-17.1511,267.8883],[-60.7842,-17.1528,271.1519],[-60.7835,-17.1638,268.8087],[-60.7893,-17.1626,268.1958],[-60.7924,-17.166,268.3868],[-60.8011,-17.17,269.4232],[-60.8086,-17.1684,267.9534],[-60.8165,-17.1741,271.2553],[-60.8177,-17.1774,267.2621],[-60.8123,-17.1776,266.9366],[-60.8135,-17.1851,266.8912],[-60.8089,-17.1841,274.3374],[-60.8041,-17.1875,279.6552],[-60.8021,-17.1865,281.0245],[-60.7991,-17.1877,281.1329],[-60.7932,-17.1866,279.8526],[-60.7909,-17.1844,280.1656],[-60.7873,-17.1866,280.7999],[-60.7836,-17.1838,283.7529],[-60.7775,-17.1844,284.8271],[-60.7744,-17.187,284.402],[-60.7674,-17.1889,285.481],[-60.7568,-17.1979,291.0832],[-60.7456,-17.1975,293.1696],[-60.7422,-17.201,293.354],[-60.7329,-17.2046,296.1881],[-60.714,-17.2053,306.8098],[-60.7026,-17.2091,318.5821],[-60.6932,-17.2068,340.2697],[-60.6784,-17.2167,414.7617],[-60.6818,-17.2189,395.6425],[-60.6829,-17.2227,382.7112],[-60.6756,-17.2345,323.3349],[-60.6686,-17.2408,316.6008],[-60.6596,-17.2428,303.8132],[-60.6527,-17.2423,297.7799],[-60.6439,-17.248,294.5477],[-60.6382,-17.2571,284.4244],[-60.6199,-17.2587,278.3714],[-60.615,-17.2578,275.324],[-60.611,-17.2616,268.3105],[-60.6096,-17.2679,267.5635],[-60.6009,-17.2676,268.1596],[-60.5795,-17.2605,265.6284],[-60.5711,-17.2562,266.044],[-60.5684,-17.2531,267.2502],[-60.5737,-17.2472,266.1377],[-60.5728,-17.2402,271.9985],[-60.5708,-17.2366,272.8749],[-60.5664,-17.2369,281.3911],[-60.5674,-17.2347,269.5515],[-60.5647,-17.233,273.0641],[-60.5563,-17.237,275.7607],[-60.5533,-17.233,272.5775],[-60.5483,-17.2336,282.835],[-60.547,-17.2316,277.6913],[-60.5399,-17.2288,276.0175],[-60.5289,-17.2318,279.1474],[-60.5264,-17.2301,277.2469],[-60.5257,-17.2251,276.334],[-60.5178,-17.22,278.8726],[-60.5107,-17.2203,284.4126],[-60.5029,-17.2266,289.4294],[-60.4989,-17.2321,287.8107],[-60.489,-17.236,290.2935],[-60.4804,-17.2356,293.9515],[-60.474,-17.2313,306.1086],[-60.4623,-17.2344,312.8293],[-60.4566,-17.2291,320.2575],[-60.4472,-17.2264,352.0721],[-60.4448,-17.2219,327.2277],[-60.3846,-17.2096,341.2686],[-59.5202,-17.0091,216.325],[-59.5011,-16.4434,190.3915]]]]}}