{"type":"Feature","properties":{"GID_3":"BOL.3.4.1_2","GID_0":"BOL","country":"Bolivia","GID_1":"BOL.3_1","province":"Beni","NL_NAME_1":"NA","GID_2":"BOL.3.4_2","county":"Mamoré","NL_NAME_2":"NA","city":"PuertoSiles","VARNAME_3":"NA","NL_NAME_3":"NA","TYPE_3":"District","ENGTYPE_3":"Distrito","CC_3":"NA","HASC_3":"NA","name":"Puerto_Siles.city"},
"geometry":{"type": "MultiPolygon","coordinates": [[[[-65.0046,-12.8033,127.0],[-64.9904,-12.8101,137.1392],[-64.9859,-12.8094,139.2395],[-64.9804,-12.8144,140.7817],[-64.9761,-12.8152,139.6602],[-64.9721,-12.8192,135.5217],[-64.9685,-12.8185,134.8438],[-64.9644,-12.8218,135.3262],[-64.9599,-12.8221,136.6988],[-64.9561,-12.8198,137.9315],[-64.9498,-12.8215,140.3447],[-64.9468,-12.8285,137.1348],[-64.9425,-12.8304,140.8088],[-64.9319,-12.8258,132.9353],[-64.9302,-12.8188,132.7816],[-64.9261,-12.8115,132.8736],[-64.923,-12.8104,132.7105],[-64.9205,-12.805,132.9281],[-64.9184,-12.8036,134.1014],[-64.8831,-12.7949,153.3471],[-64.8766,-12.7868,157.8752],[-64.8671,-12.7652,144.3503],[-64.8609,-12.7585,147.1849],[-64.8464,-12.7494,148.3806],[-64.8353,-12.7345,130.0],[-64.8309,-12.7183,143.3986],[-64.82,-12.7048,139.3146],[-64.8191,-12.7008,141.0957],[-64.8195,-12.6963,131.3699],[-64.8286,-12.6897,131.1361],[-64.8321,-12.6805,131.6234],[-64.8308,-12.6746,131.5486],[-64.8231,-12.6669,131.7366],[-64.8212,-12.662,142.599],[-64.8209,-12.6505,163.6707],[-64.8174,-12.6346,158.4418],[-64.8189,-12.6172,151.2183],[-64.8147,-12.5864,162.3401],[-64.8151,-12.5496,153.3492],[-64.8267,-12.5349,152.8357],[-64.8207,-12.5214,155.6163],[-64.8201,-12.5134,155.9998],[-64.8143,-12.4996,150.9155],[-64.8139,-12.4896,144.4787],[-64.8167,-12.4762,138.8988],[-64.8145,-12.4591,142.3499],[-64.8171,-12.4497,139.0061],[-64.8226,-12.4391,145.8802],[-64.8248,-12.4254,148.5482],[-64.8317,-12.4223,142.8399],[-64.8424,-12.4123,145.7425],[-64.8532,-12.3827,142.5802],[-64.8577,-12.3782,144.4593],[-64.8606,-12.3686,144.9467],[-64.866,-12.361,144.9181],[-64.8688,-12.3527,147.3731],[-64.8732,-12.3484,141.0886],[-64.8774,-12.3471,144.8032],[-64.878,-12.3419,143.7281],[-64.8822,-12.339,141.0417],[-64.888,-12.3314,144.9574],[-64.8895,-12.3239,144.1786],[-64.8959,-12.3186,144.3466],[-64.9121,-12.3119,136.8698],[-64.9148,-12.3065,138.0877],[-64.9195,-12.3065,141.9943],[-64.9199,-12.3044,138.2407],[-64.918,-12.3037,137.0922],[-64.9199,-12.2997,134.9155],[-64.9198,-12.2949,136.7978],[-64.9227,-12.2915,139.047],[-64.9255,-12.2908,133.1425],[-64.9271,-12.2827,137.2816],[-64.9295,-12.2811,138.8423],[-64.9361,-12.2827,140.1203],[-64.937,-12.278,137.0861],[-64.9403,-12.2745,136.9586],[-64.9378,-12.2648,130.2555],[-64.9398,-12.2622,132.5364],[-64.9437,-12.2617,131.8789],[-64.9465,-12.2533,127.9071],[-64.9465,-12.2411,128.2068],[-64.9486,-12.2372,131.1673],[-64.9453,-12.2325,132.0207],[-64.9521,-12.2308,137.2897],[-64.9538,-12.2285,133.828],[-64.9532,-12.2261,128.7965],[-64.9459,-12.2212,130.8729],[-64.9464,-12.2179,135.4635],[-64.9525,-12.2142,133.0757],[-64.9528,-12.2122,132.0659],[-64.9502,-12.2102,130.9374],[-64.9527,-12.2057,132.2556],[-64.9486,-12.1993,132.1411],[-64.9508,-12.1945,130.1784],[-64.9508,-12.1908,130.8898],[-64.9486,-12.1904,132.1338],[-64.9507,-12.1818,129.6665],[-64.9435,-12.1759,134.6626],[-64.9444,-12.1737,132.6325],[-64.9497,-12.1749,129.7785],[-64.9505,-12.1717,132.2272],[-64.949,-12.1678,128.3139],[-64.9455,-12.1703,131.9092],[-64.9428,-12.1686,132.9396],[-64.9451,-12.1639,132.0312],[-64.9428,-12.1599,132.8187],[-64.9465,-12.1574,130.1311],[-64.9477,-12.1538,132.2878],[-64.9437,-12.1507,131.6928],[-64.9464,-12.139,130.1995],[-64.9439,-12.1281,129.8232],[-64.9409,-12.1257,128.9503],[-64.9435,-12.1199,130.6551],[-64.9496,-12.1165,129.6594],[-64.9501,-12.1151,127.0885],[-64.9482,-12.1132,126.7437],[-64.9525,-12.1098,128.052],[-64.9472,-12.1032,128.2271],[-64.9496,-12.1025,130.3156],[-64.9473,-12.0956,127.8219],[-64.95,-12.0932,133.4002],[-64.9487,-12.0878,130.2304],[-64.9496,-12.0836,130.0936],[-64.9513,-12.0813,128.7919],[-64.9588,-12.0823,129.7331],[-64.9599,-12.0813,132.5341],[-64.9618,-12.0741,128.0632],[-64.9604,-12.0691,129.5895],[-64.9635,-12.0678,129.0443],[-64.9615,-12.062,128.0759],[-64.9646,-12.0578,127.7352],[-64.9668,-12.0605,129.4536],[-64.9691,-12.0598,127.2222],[-64.97,-12.0567,126.8164],[-64.9825,-12.0553,127.4654],[-64.982,-12.0528,130.7424],[-64.9891,-12.0509,125.5166],[-64.9916,-12.0453,125.1666],[-64.9952,-12.0441,127.3099],[-64.9939,-12.0428,124.4497],[-64.9953,-12.0404,125.4892],[-64.9987,-12.0404,124.9063],[-64.9996,-12.0427,128.9511],[-65.0014,-12.0427,128.0731],[-65.0004,-12.0337,124.4261],[-65.0108,-12.0347,128.3146],[-65.0332,-12.0242,125.4135],[-65.04,-12.0179,125.1916],[-65.0489,-11.9996,123.5089],[-65.0505,-11.9919,125.0656],[-65.0492,-11.9856,122.9031],[-65.0425,-11.977,122.0],[-65.0396,-11.9702,122.0],[-65.0431,-11.9639,122.0],[-65.0413,-11.9593,122.0],[-65.0266,-11.9418,122.0],[-65.0228,-11.9286,122.0],[-65.0271,-11.9315,123.2523],[-65.0325,-11.9389,124.0092],[-65.0383,-11.9428,122.0],[-65.0589,-11.9323,125.718],[-65.0642,-11.9302,129.1073],[-65.0696,-11.9305,129.8566],[-65.0729,-11.9327,126.3153],[-65.0743,-11.937,123.0],[-65.0652,-11.9665,123.375],[-65.0655,-11.9801,123.5],[-65.0689,-11.9904,123.5],[-65.0723,-11.994,123.5],[-65.0831,-11.9994,126.3225],[-65.0887,-11.9974,124.0],[-65.0936,-11.9927,124.0],[-65.0984,-11.9804,124.5],[-65.0974,-11.9667,124.5],[-65.0987,-11.9627,130.3069],[-65.1011,-11.9603,126.7695],[-65.1048,-11.9601,126.4493],[-65.1094,-11.9628,125.0],[-65.1131,-11.9691,125.5],[-65.1282,-12.0259,126.0],[-65.1278,-12.0297,130.1453],[-65.1229,-12.0308,126.0],[-65.1055,-12.026,126.0],[-65.0978,-12.027,126.0],[-65.0845,-12.0327,126.0],[-65.0789,-12.0401,126.0],[-65.075,-12.0475,126.0],[-65.074,-12.0572,126.0],[-65.0767,-12.0626,128.9745],[-65.0921,-12.0717,126.0],[-65.0947,-12.0767,126.0],[-65.0957,-12.0873,126.0],[-65.0939,-12.0918,129.4527],[-65.0893,-12.092,129.0614],[-65.0831,-12.0875,129.5034],[-65.0783,-12.0866,133.2049],[-65.0726,-12.0887,126.0],[-65.0672,-12.102,126.0],[-65.0688,-12.1079,126.0],[-65.0727,-12.1118,127.4655],[-65.1011,-12.1063,130.0751],[-65.1079,-12.1069,128.1458],[-65.1129,-12.1093,126.0],[-65.1211,-12.1289,126.0],[-65.1193,-12.1334,126.0],[-65.1054,-12.1397,126.0],[-65.1021,-12.1452,131.7009],[-65.1002,-12.1534,126.0],[-65.103,-12.1628,126.0],[-65.1083,-12.1728,129.388],[-65.1145,-12.1813,128.5031],[-65.1253,-12.1887,126.0],[-65.1333,-12.1896,126.0],[-65.1382,-12.187,126.0],[-65.1417,-12.1822,126.0],[-65.1523,-12.16,126.0],[-65.1561,-12.1412,126.0],[-65.1587,-12.1354,126.0],[-65.1621,-12.1322,126.0],[-65.1717,-12.1327,126.0],[-65.1855,-12.1436,127.2338],[-65.1873,-12.1471,126.0],[-65.1866,-12.1571,128.7449],[-65.1823,-12.165,126.0],[-65.1687,-12.1787,126.0],[-65.1489,-12.1948,126.0],[-65.1404,-12.206,128.5592],[-65.1217,-12.2454,126.5],[-65.1169,-12.2589,126.5],[-65.1113,-12.2868,140.8171],[-65.113,-12.2956,127.5951],[-65.1192,-12.2997,126.5],[-65.1312,-12.2965,126.5],[-65.1437,-12.2905,126.5],[-65.1528,-12.2894,130.8566],[-65.1574,-12.2921,126.5],[-65.1588,-12.2953,126.5],[-65.1623,-12.3055,126.5],[-65.1609,-12.3106,126.5],[-65.1578,-12.3154,126.5],[-65.1513,-12.3179,126.5],[-65.1246,-12.3229,126.5],[-65.1163,-12.326599999999999,126.5],[-65.1091,-12.3454,126.5],[-65.1091,-12.3505,126.5],[-65.1111,-12.3544,126.5],[-65.1467,-12.3544,126.5],[-65.1579,-12.3557,126.5],[-65.1659,-12.3584,126.5],[-65.1725,-12.3651,126.5],[-65.1788,-12.3757,126.5],[-65.1775,-12.3855,130.4067],[-65.1594,-12.4002,133.8246],[-65.1591,-12.4069,135.9365],[-65.1635,-12.4161,126.5],[-65.1613,-12.4256,126.5],[-65.1327,-12.4522,131.9913],[-65.0981,-12.5026,127.0],[-65.089,-12.5207,127.0],[-65.0761,-12.5416,127.0],[-65.0642,-12.556,127.0],[-65.0272,-12.5838,127.0],[-65.0244,-12.5903,127.0],[-65.0249,-12.605,127.0],[-65.0282,-12.6196,127.0],[-65.0525,-12.6446,127.0],[-65.0535,-12.6504,127.0],[-65.0504,-12.6758,142.2885],[-65.0543,-12.6938,135.5069],[-65.0429,-12.7168,127.0],[-65.0269,-12.7234,130.614],[-65.0211,-12.7274,127.0],[-65.0219,-12.7345,141.8981],[-65.0248,-12.7367,127.0],[-65.0248,-12.7384,127.0],[-65.0241,-12.7424,127.0],[-65.0178,-12.7492,131.0502],[-65.0177,-12.7696,127.0],[-65.0233,-12.7828,127.0],[-65.0201,-12.7889,129.3713],[-65.0051,-12.8004,134.2582],[-65.0046,-12.8033,127.0]]]]}}