{"type":"Feature","properties":{"GID_3":"BOL.2.7.2_2","GID_0":"BOL","country":"Bolivia","GID_1":"BOL.2_1","province":"Cochabamba","NL_NAME_1":"NA","GID_2":"BOL.2.7_2","county":"Carrasco","NL_NAME_2":"NA","city":"EntreRíos","VARNAME_3":"NA","NL_NAME_3":"NA","TYPE_3":"District","ENGTYPE_3":"Distrito","CC_3":"NA","HASC_3":"NA","name":"Entre_Ríos.city"},
"geometry":{"type": "MultiPolygon","coordinates": [[[[-64.2539,-17.4255,310.3147],[-64.2581,-17.4171,322.5399],[-64.2537,-17.4164,468.0161],[-64.2529,-17.4126,340.7284],[-64.2489,-17.4114,312.8168],[-64.2537,-17.4055,334.6375],[-64.2538,-17.4031,324.3688],[-64.2427,-17.3992,292.7249],[-64.2341,-17.3737,281.2933],[-64.2378,-17.3669,282.2754],[-64.2366,-17.3624,286.1158],[-64.2391,-17.3606,287.6442],[-64.2366,-17.3499,278.5106],[-64.2409,-17.3432,271.2763],[-64.2415,-17.3357,265.3705],[-64.2451,-17.3311,263.1207],[-64.2412,-17.3257,262.0132],[-64.2415,-17.3221,256.9074],[-64.239,-17.3184,254.0089],[-64.2453,-17.3178,266.5922],[-64.246,-17.3103,254.614],[-64.2485,-17.307,257.1989],[-64.2461,-17.3048,254.2179],[-64.2466,-17.3027,259.0143],[-64.2582,-17.296,244.6136],[-64.2608,-17.2967,248.345],[-64.2617,-17.2994,247.7042],[-64.2646,-17.2995,251.899],[-64.2661,-17.2974,249.7886],[-64.2652,-17.2939,239.7508],[-64.2669,-17.2924,242.3572],[-64.2709,-17.2944,242.3825],[-64.2745,-17.2911,237.0634],[-64.2787,-17.2908,238.1665],[-64.2749,-17.2851,231.4882],[-64.2813,-17.2844,237.561],[-64.2844,-17.281,237.5395],[-64.2849,-17.2758,236.7487],[-64.2822,-17.2685,231.3165],[-64.2838,-17.2647,236.5731],[-64.2955,-17.2633,229.5963],[-64.3056,-17.2574,236.7297],[-64.3105,-17.2587,233.022],[-64.3122,-17.2619,233.7366],[-64.3113,-17.2649,233.5818],[-64.3016,-17.2722,230.5],[-64.3013,-17.2765,235.2686],[-64.3045,-17.2779,232.2591],[-64.3115,-17.2744,232.2816],[-64.3125,-17.2678,233.4429],[-64.3172,-17.2641,231.0387],[-64.3304,-17.2622,229.5912],[-64.3391,-17.265,231.9598],[-64.3404,-17.2599,232.0491],[-64.3388,-17.2464,228.0567],[-64.3338,-17.2432,231.7539],[-64.3253,-17.2445,225.0],[-64.3211,-17.2408,230.6211],[-64.3232,-17.2368,229.7832],[-64.3325,-17.2343,228.8074],[-64.3361,-17.2318,230.8268],[-64.3369,-17.2245,225.3052],[-64.3329,-17.2142,223.5],[-64.3362,-17.208,224.5743],[-64.3529,-17.214,231.7057],[-64.355,-17.2207,232.9105],[-64.3532,-17.2299,228.9713],[-64.3564,-17.2311,228.5281],[-64.3712,-17.2299,229.6523],[-64.3714,-17.2265,234.7758],[-64.3661,-17.2156,231.1835],[-64.3683,-17.2088,227.6822],[-64.375,-17.2016,230.0196],[-64.3749,-17.1998,231.5657],[-64.3728,-17.1971,230.8365],[-64.3588,-17.198,228.4921],[-64.3564,-17.1925,219.8132],[-64.3573,-17.1871,218.5],[-64.3593,-17.1847,218.5],[-64.3643,-17.1841,223.4961],[-64.3753,-17.1895,224.3565],[-64.3851,-17.1744,216.9239],[-64.3984,-17.1765,218.6371],[-64.4001,-17.1727,224.8622],[-64.3988,-17.1691,219.1825],[-64.387,-17.1653,215.5],[-64.3877,-17.1559,231.2246],[-64.3948,-17.1535,218.9452],[-64.4007,-17.1606,219.7586],[-64.4049,-17.163,220.7931],[-64.4094,-17.1607,223.57],[-64.4103,-17.1563,228.4957],[-64.4073,-17.1517,216.577],[-64.4046,-17.1503,222.4243],[-64.3916,-17.1491,221.2365],[-64.3909,-17.1449,218.9368],[-64.3946,-17.1407,222.4363],[-64.3985,-17.1387,219.9779],[-64.4023,-17.14,219.4333],[-64.4068,-17.1489,214.0],[-64.4107,-17.1514,226.2019],[-64.4138,-17.1503,220.2805],[-64.4195,-17.1409,213.5],[-64.4241,-17.1414,218.3005],[-64.4251,-17.1555,228.8756],[-64.4284,-17.1594,216.1891],[-64.4326,-17.1585,222.8161],[-64.4353,-17.1543,214.5918],[-64.4353,-17.1476,223.0421],[-64.4303,-17.1375,212.5],[-64.4316,-17.133,212.125],[-64.4354,-17.13,216.5924],[-64.4402,-17.1307,211.5],[-64.4479,-17.1402,210.5],[-64.4512,-17.1419,213.7656],[-64.4574,-17.1405,215.4182],[-64.4604,-17.1349,210.8605],[-64.4642,-17.1327,215.2647],[-64.4695,-17.1336,208.0],[-64.4767,-17.1383,207.625],[-64.487,-17.1354,207.125],[-64.4896,-17.1313,207.0],[-64.4882,-17.1268,213.4546],[-64.4782,-17.123,209.6304],[-64.477,-17.1181,212.9566],[-64.4807,-17.114,209.1516],[-64.4979,-17.1029,206.4428],[-64.5003,-17.0909,225.2127],[-64.5042,-17.0897,213.44],[-64.508,-17.0906,212.9335],[-64.5191,-17.099,204.5],[-64.5363,-17.0893,210.2964],[-64.5478,-17.0896,214.6622],[-64.5497,-17.0873,212.1609],[-64.5471,-17.0792,217.2755],[-64.5431,-17.0742,206.9251],[-64.5344,-17.0721,202.0],[-64.5279,-17.0641,221.7194],[-64.5171,-17.0643,203.3357],[-64.5155,-17.0625,213.1636],[-64.5166,-17.0582,212.5285],[-64.5217,-17.0563,210.1584],[-64.5352,-17.0574,201.5],[-64.5442,-17.0548,203.8862],[-64.5469,-17.0553,201.8562],[-64.5499,-17.0583,214.8833],[-64.5491,-17.0678,204.9511],[-64.5533,-17.0702,208.0106],[-64.5601,-17.0657,205.4659],[-64.5658,-17.0587,200.4765],[-64.5684,-17.0579,200.567],[-64.5775,-17.0602,198.0],[-64.5809,-17.0561,213.83],[-64.5806,-17.0534,213.2409],[-64.5728,-17.0487,210.7682],[-64.5644,-17.0402,207.8874],[-64.5647,-17.0357,203.4069],[-64.5664,-17.0339,199.4819],[-64.5723,-17.0324,197.0],[-64.5769,-17.0348,221.799],[-64.5847,-17.0441,200.3075],[-64.5863,-17.0524,199.0416],[-64.5878,-17.0539,199.566],[-64.5927,-17.0538,206.6043],[-64.5988,-17.0467,198.9276],[-64.611,-17.0424,206.5466],[-64.6116,-17.0378,207.5953],[-64.6085,-17.035,206.6538],[-64.6058,-17.0352,206.028],[-64.5988,-17.0376,209.996],[-64.5926,-17.0422,201.3057],[-64.5898,-17.0423,204.7243],[-64.5881,-17.0415,202.0263],[-64.5872,-17.0363,202.2505],[-64.5938,-17.0308,200.5891],[-64.604,-17.0258,202.5693],[-64.6099,-17.028,211.1495],[-64.6129,-17.0349,204.2525],[-64.6176,-17.0353,204.7937],[-64.6198,-17.0335,203.2971],[-64.6206,-17.0282,204.4935],[-64.6159,-17.019,203.7204],[-64.6175,-17.0152,204.4794],[-64.6195,-17.0145,197.2374],[-64.6259,-17.0179,207.1722],[-64.6289,-17.0228,211.1435],[-64.6276,-17.028,206.9688],[-64.6246,-17.0316,204.3458],[-64.6257,-17.0358,201.0496],[-64.6312,-17.0388,198.1042],[-64.6368,-17.0386,203.7982],[-64.6411,-17.035,196.8686],[-64.6401,-17.0196,204.2079],[-64.6385,-17.0169,204.3027],[-64.6284,-17.0125,195.5967],[-64.6267,-17.0084,208.1864],[-64.629,-17.0049,208.1712],[-64.6376,-17.0051,196.3047],[-64.6443,-17.0081,200.4016],[-64.6511,-17.0085,196.7552],[-64.6592,-17.0021,207.6675],[-64.662,-17.0019,203.9343],[-64.6645,-17.0028,203.4977],[-64.6661,-17.0067,201.9112],[-64.6625,-17.0126,195.55],[-64.6641,-17.0158,205.0025],[-64.6741,-17.0132,203.7761],[-64.6803,-17.0182,195.9831],[-64.6847,-17.0194,199.3695],[-64.687,-17.0279,202.1858],[-64.6886,-17.0248,208.4085],[-64.6967,-17.0257,205.0683],[-64.697,-17.0277,201.9316],[-64.692,-17.0278,204.9815],[-64.6916,-17.0294,202.9586],[-64.6961,-17.0316,203.882],[-64.6975,-17.0385,203.466],[-64.6947,-17.04,210.7766],[-64.6943,-17.0353,213.9895],[-64.6921,-17.0329,207.2065],[-64.6895,-17.0354,206.1019],[-64.6937,-17.0397,209.6845],[-64.6916,-17.0442,203.8248],[-64.6935,-17.0454,208.5167],[-64.6946,-17.0414,215.1159],[-64.6987,-17.0431,204.9085],[-64.6996,-17.0451,206.4978],[-64.697,-17.0485,214.3591],[-64.6973,-17.0513,205.1236],[-64.6987,-17.0524,209.0644],[-64.7048,-17.0517,210.1286],[-64.7054,-17.0533,206.2016],[-64.701,-17.0552,208.6668],[-64.6999,-17.0597,207.561],[-64.7009,-17.0607,207.3441],[-64.7043,-17.0597,217.4665],[-64.7078,-17.0652,202.0377],[-64.7028,-17.0657,210.3897],[-64.6986,-17.0685,214.0024],[-64.6942,-17.0655,212.4054],[-64.6963,-17.0706,208.1711],[-64.6889,-17.0778,207.2535],[-64.6932,-17.0854,211.47],[-64.6884,-17.0896,219.4623],[-64.6865,-17.096,221.9474],[-64.6922,-17.0982,217.6541],[-64.689,-17.1023,216.5987],[-64.69,-17.104,212.0131],[-64.7006,-17.1011,219.5494],[-64.7024,-17.1022,220.2589],[-64.6958,-17.1061,207.9572],[-64.7009,-17.106,213.2477],[-64.7024,-17.1076,213.3898],[-64.6965,-17.1166,211.3179],[-64.6978,-17.1177,211.3179],[-64.7008,-17.1165,212.5736],[-64.6991,-17.1203,210.6237],[-64.7021,-17.1229,208.6829],[-64.6985,-17.1239,212.1211],[-64.6971,-17.1261,212.9138],[-64.6925,-17.1236,216.0083],[-64.6913,-17.1247,209.6264],[-64.6996,-17.1299,212.0593],[-64.6979,-17.131,212.4998],[-64.694,-17.1287,210.3732],[-64.6924,-17.1303,215.804],[-64.6956,-17.1333,208.1995],[-64.6943,-17.1379,209.0179],[-64.6983,-17.1408,210.1983],[-64.6968,-17.1466,217.3991],[-64.6981,-17.1496,217.4479],[-64.6968,-17.1499,217.4479],[-64.6946,-17.1465,208.3193],[-64.6913,-17.1506,214.7128],[-64.6908,-17.1459,220.0911],[-64.6875,-17.1472,212.8314],[-64.6862,-17.1532,212.5808],[-64.6852,-17.1481,213.1102],[-64.6832,-17.1517,214.1274],[-64.6803,-17.1489,214.641],[-64.6797,-17.1531,216.5145],[-64.6826,-17.1543,214.2842],[-64.6824,-17.156,216.2795],[-64.6806,-17.1574,219.7249],[-64.6749,-17.1578,223.164],[-64.678,-17.1597,215.321],[-64.6759,-17.1613,218.0431],[-64.6758,-17.1639,216.593],[-64.6702,-17.1636,216.8304],[-64.67,-17.1653,221.8386],[-64.6726,-17.1666,215.3487],[-64.6722,-17.1681,220.8295],[-64.667,-17.1679,228.843],[-64.6684,-17.1711,216.3571],[-64.6619,-17.1744,218.1596],[-64.6619,-17.1826,229.3371],[-64.6657,-17.1923,216.8951],[-64.6623,-17.1984,223.5497],[-64.665,-17.2011,224.1911],[-64.6655,-17.2054,230.9997],[-64.6633,-17.2081,229.3356],[-64.6578,-17.2098,237.5666],[-64.6579,-17.2122,236.8617],[-64.6549,-17.2155,239.7342],[-64.6491,-17.2151,240.5054],[-64.6519,-17.2191,246.976],[-64.6503,-17.2209,243.889],[-64.6475,-17.221,242.9291],[-64.6483,-17.2236,246.2002],[-64.646,-17.2251,250.328],[-64.6462,-17.2304,251.8324],[-64.6415,-17.2344,257.4044],[-64.6338,-17.2365,262.6384],[-64.6327,-17.2431,272.9244],[-64.6281,-17.2468,275.9533],[-64.6288,-17.2502,272.9919],[-64.6405,-17.2448,268.9977],[-64.6424,-17.2453,267.843],[-64.6446,-17.2499,263.6851],[-64.6479,-17.2496,269.5978],[-64.6541,-17.2521,278.8403],[-64.9981,-17.2585,1566.0563],[-64.9833,-17.2647,1470.7777],[-64.9742,-17.2652,1554.7083],[-64.9706,-17.2679,1550.7195],[-64.9682,-17.2669,1510.5454],[-64.9667,-17.2682,1488.7845],[-64.958,-17.2679,1397.5105],[-64.9563,-17.27,1483.942],[-64.9525,-17.269,1412.9349],[-64.9474,-17.2702,1294.4443],[-64.9446,-17.2727,1279.5331],[-64.9416,-17.2705,1180.9249],[-64.9377,-17.2735,1282.0483],[-64.9318,-17.2695,1225.281],[-64.9328,-17.2762,1221.6211],[-64.9315,-17.2782,1344.0061],[-64.9149,-17.2833,1103.4139],[-64.9077,-17.2891,514.3632],[-64.9024,-17.2907,370.653],[-64.9018,-17.292,320.9252],[-64.9057,-17.2961,344.6428],[-64.9038,-17.3045,339.9773],[-64.8968,-17.3057,336.2473],[-64.8936,-17.3093,348.4998],[-64.8875,-17.3112,409.591],[-64.8844,-17.3149,354.6279],[-64.8721,-17.32,359.045],[-64.8627,-17.322,371.6526],[-64.8556,-17.3187,361.1201],[-64.8517,-17.3198,362.6351],[-64.8511,-17.3225,367.3821],[-64.8564,-17.3311,378.804],[-64.8502,-17.3401,408.4477],[-64.843,-17.3411,423.4696],[-64.8406,-17.3429,381.6639],[-64.8328,-17.3428,398.0691],[-64.824,-17.3519,418.2553],[-64.8119,-17.3519,430.3972],[-64.8091,-17.3556,424.4407],[-64.8035,-17.3568,447.0827],[-64.8019,-17.3601,547.2408],[-64.7958,-17.3602,410.6573],[-64.791,-17.3693,417.2109],[-64.7796,-17.3695,460.7592],[-64.7731,-17.3751,431.688],[-64.7677,-17.3765,435.7357],[-64.7649,-17.3799,446.858],[-64.7533,-17.3852,450.7204],[-64.7388,-17.3975,528.6042],[-64.7386,-17.4039,465.0067],[-64.7347,-17.4098,474.0802],[-64.7249,-17.4135,484.4092],[-64.7202,-17.4188,495.368],[-64.7112,-17.4196,498.8441],[-64.7051,-17.4276,509.2171],[-64.698,-17.4419,520.3336],[-64.6905,-17.4464,540.2859],[-64.6878,-17.4552,542.8375],[-64.6815,-17.462,552.9017],[-64.6732,-17.4626,586.7827],[-64.6631,-17.4679,573.0579],[-64.6618,-17.4742,624.4615],[-64.6582,-17.4792,596.918],[-64.6575,-17.4854,600.0258],[-64.654,-17.4904,602.1804],[-64.6545,-17.4935,623.8358],[-64.6586,-17.4924,631.1682],[-64.6608,-17.4938,622.3117],[-64.6594,-17.5031,639.6375],[-64.6561,-17.5079,639.0522],[-64.6593,-17.5143,643.204],[-64.655,-17.5156,663.0711],[-64.6565,-17.5222,647.454],[-64.6541,-17.5254,662.9584],[-64.6486,-17.5251,660.2174],[-64.6484,-17.5341,664.8168],[-64.64,-17.5382,667.9447],[-64.6399,-17.5424,669.725],[-64.6268,-17.5499,691.5305],[-64.6245,-17.5533,697.2806],[-64.6206,-17.5544,698.606],[-64.6128,-17.5541,722.6242],[-64.611,-17.5509,749.8647],[-64.6081,-17.5499,716.6372],[-64.6025,-17.5574,832.9915],[-64.5846,-17.5564,965.4568],[-64.5621,-17.5637,1103.0812],[-64.5502,-17.5658,1224.1422],[-64.5461,-17.5607,1126.7554],[-64.5437,-17.5535,996.4499],[-64.5322,-17.5481,924.7394],[-64.5258,-17.5403,822.7902],[-64.5221,-17.5404,771.1422],[-64.5198,-17.534,758.1311],[-64.5149,-17.5381,764.9937],[-64.5141,-17.5433,754.0775],[-64.5087,-17.5484,790.7621],[-64.4992,-17.5548,824.2275],[-64.4956,-17.5533,857.736],[-64.4894,-17.56,865.0174],[-64.481,-17.5576,874.9514],[-64.4781,-17.5596,866.7194],[-64.4742,-17.559,922.728],[-64.4667,-17.5636,937.9319],[-64.4323,-17.56,1731.4594],[-64.4294,-17.5486,1443.7854],[-64.4298,-17.5397,1259.4567],[-64.4238,-17.5366,1052.9456],[-64.4235,-17.535,1012.2092],[-64.4281,-17.528,872.0054],[-64.4276,-17.5235,826.0317],[-64.4112,-17.5187,723.0663],[-64.4089,-17.5159,708.7218],[-64.4106,-17.5089,671.8761],[-64.4094,-17.5061,689.6608],[-64.411,-17.5038,650.3757],[-64.4091,-17.5028,676.2001],[-64.4087,-17.4976,664.3113],[-64.4068,-17.4975,634.4042],[-64.4059,-17.4952,627.1843],[-64.403,-17.4961,615.043],[-64.4006,-17.4939,591.043],[-64.4012,-17.4873,570.2414],[-64.4036,-17.4796,565.7727],[-64.4058,-17.4776,557.38],[-64.4064,-17.4715,550.0216],[-64.4054,-17.4672,545.4488],[-64.4015,-17.467,548.1987],[-64.3999,-17.4635,525.677],[-64.4051,-17.4575,500.5167],[-64.4058,-17.4533,500.2725],[-64.4008,-17.4538,500.0568],[-64.3987,-17.451,478.9398],[-64.3972,-17.4511,509.7629],[-64.3909,-17.4556,463.9388],[-64.3839,-17.4571,464.7646],[-64.3765,-17.4534,453.6816],[-64.3726,-17.4532,458.2217],[-64.3705,-17.4455,441.9033],[-64.3675,-17.4455,441.2426],[-64.3659,-17.4435,440.455],[-64.3575,-17.4446,466.9458],[-64.3574,-17.4416,426.5556],[-64.3617,-17.4418,479.125],[-64.3622,-17.4396,475.5258],[-64.3595,-17.4379,468.5945],[-64.3584,-17.4337,488.3672],[-64.3568,-17.4384,460.3062],[-64.355,-17.4376,445.1525],[-64.3528,-17.4343,440.4774],[-64.3527,-17.4293,403.4619],[-64.3491,-17.4235,391.9892],[-64.3402,-17.428,382.5623],[-64.3354,-17.4264,384.3445],[-64.3335,-17.4226,376.3667],[-64.3238,-17.4221,367.9892],[-64.316,-17.4273,361.5628],[-64.3136,-17.4335,352.7084],[-64.3062,-17.4374,349.8252],[-64.2956,-17.4368,346.8874],[-64.2807,-17.4246,327.0893],[-64.274,-17.4231,322.1645],[-64.2691,-17.4253,319.5714],[-64.2628,-17.4228,367.2574],[-64.2596,-17.4232,323.5244],[-64.2557,-17.4265,313.2078],[-64.2539,-17.4255,310.3147]]]]}}