{"type": "Feature","bbox": [-68.498,-15.6343,-68.0462,-15.1312],"geometry": {"type": "MultiPolygon","coordinates": [[[[-68.4067,-15.2318,720.6073],[-68.3999,-15.2341,732.647],[-68.3881,-15.2288,735.4941],[-68.3799,-15.2297,698.9723],[-68.3769,-15.2266,691.2188],[-68.3719,-15.2317,708.2136],[-68.3695,-15.2274,740.5594],[-68.3647,-15.2325,671.562],[-68.3605,-15.2322,689.3984],[-68.3549,-15.2342,658.825],[-68.3521,-15.2313,716.3091],[-68.3485,-15.2314,677.328],[-68.3459,-15.2361,665.2997],[-68.3395,-15.2361,705.9015],[-68.3375,-15.239,658.0948],[-68.3345,-15.2396,693.2125],[-68.3342,-15.2428,660.2328],[-68.3279,-15.2419,648.1373],[-68.3244,-15.2451,701.4036],[-68.3223,-15.2421,652.7513],[-68.3128,-15.2427,634.7846],[-68.3104,-15.2521,653.3509],[-68.3043,-15.2506,626.4492],[-68.306,-15.2531,659.7488],[-68.3016,-15.256,677.3429],[-68.3035,-15.2593,645.3585],[-68.3028,-15.2622,643.5289],[-68.3003,-15.2617,639.43],[-68.2973,-15.2583,622.4485],[-68.2957,-15.2596,615.2145],[-68.2966,-15.2689,631.7697],[-68.2897,-15.2775,636.5383],[-68.2922,-15.2801,633.7455],[-68.2911,-15.2826,614.0272],[-68.2892,-15.2841,602.8352],[-68.2831,-15.2838,612.7394],[-68.2775,-15.2936,612.3912],[-68.2717,-15.2952,612.4624],[-68.2695,-15.2982,589.9469],[-68.2642,-15.2971,594.0991],[-68.2682,-15.3,656.2629],[-68.2796,-15.2975,602.6834],[-68.2886,-15.3045,627.5803],[-68.2938,-15.3063,630.1984],[-68.2999,-15.3063,664.111],[-68.3038,-15.3034,627.7688],[-68.3131,-15.3017,625.7109],[-68.3235,-15.3046,722.9812],[-68.3349,-15.3027,668.2128],[-68.3451,-15.3039,670.4318],[-68.3501,-15.306,666.5331],[-68.3584,-15.3061,662.5814],[-68.3644,-15.3043,662.3474],[-68.3643,-15.3088,776.0618],[-68.3662,-15.312,771.2991],[-68.3708,-15.3121,732.3937],[-68.3721,-15.3151,794.5086],[-68.3753,-15.3157,750.2972],[-68.3773,-15.3138,857.7801],[-68.3799,-15.3159,761.7502],[-68.3842,-15.3151,782.2649],[-68.3871,-15.3163,884.9347],[-68.3879,-15.3187,991.1165],[-68.3978,-15.3238,951.3805],[-68.4039,-15.3207,1008.1895],[-68.4064,-15.3237,1023.6894],[-68.409,-15.3235,995.8622],[-68.4121,-15.3281,1166.1511],[-68.4148,-15.3294,998.6637],[-68.4142,-15.3338,1145.7629],[-68.4159,-15.3354,1064.7496],[-68.4156,-15.3379,1124.0337],[-68.418,-15.3375,1143.4349],[-68.4198,-15.3392,1087.5045],[-68.4181,-15.342,1199.0171],[-68.4191,-15.3445,1125.6211],[-68.4225,-15.3463,1270.7788],[-68.4232,-15.352,1235.3035],[-68.428,-15.3529,1254.8943],[-68.4288,-15.3553,1281.6625],[-68.4316,-15.3548,1353.7715],[-68.4304,-15.3591,1375.2858],[-68.4324,-15.357,1269.6654],[-68.4336,-15.3577,1309.8022],[-68.4331,-15.3616,1404.8593],[-68.436,-15.3633,1320.7725],[-68.4359,-15.3651,1421.5648],[-68.4379,-15.365,1338.4158],[-68.4377,-15.3702,1364.7841],[-68.4399,-15.3733,1405.7933],[-68.4426,-15.3737,1400.5546],[-68.4403,-15.3798,1630.7697],[-68.4445,-15.3807,1560.0231],[-68.4424,-15.3849,1556.7896],[-68.443,-15.3879,1612.6344],[-68.4477,-15.3897,1707.8578],[-68.4466,-15.3917,1733.3307],[-68.4482,-15.3923,1777.8132],[-68.4481,-15.3962,1766.5264],[-68.4505,-15.3965,1800.8267],[-68.4498,-15.3993,1830.4258],[-68.4537,-15.4061,1874.2134],[-68.4523,-15.4124,2000.5391],[-68.4604,-15.4166,2234.9897],[-68.4572,-15.4203,2177.8655],[-68.466,-15.4262,2302.7214],[-68.4733,-15.4258,2728.4648],[-68.4753,-15.4238,2913.4395],[-68.4764,-15.4191,2963.4287],[-68.4855,-15.4254,3377.0679],[-68.4818,-15.4348,3488.3848],[-68.4868,-15.4373,3396.7625],[-68.4964,-15.4478,3355.74],[-68.498,-15.4526,3554.1038],[-68.4602,-15.4873,2786.4297],[-68.4486,-15.4703,1845.4158],[-68.418,-15.4866,1749.7087],[-68.4048,-15.4873,1238.7111],[-68.4077,-15.5027,1190.2786],[-68.405,-15.507,1344.7908],[-68.4057,-15.5091,1344.2722],[-68.4037,-15.5103,1366.7461],[-68.4019,-15.5223,1589.2798],[-68.4047,-15.526,1740.6686],[-68.4052,-15.5317,1858.0542],[-68.3977,-15.5493,2312.5405],[-68.3977,-15.556,2740.0945],[-68.3143,-15.6343,1803.2557],[-68.2928,-15.6275,1155.4766],[-68.2808,-15.6174,1222.4213],[-68.238,-15.571,2115.4446],[-68.2343,-15.5704,1965.3053],[-68.2229,-15.5545,1379.3767],[-68.221,-15.5539,1355.2958],[-68.2185,-15.5557,1267.4854],[-68.2166,-15.5544,1274.3793],[-68.2103,-15.5434,1211.4163],[-68.2099,-15.5379,1141.8386],[-68.1991,-15.5277,1110.0498],[-68.1928,-15.5179,992.5736],[-68.1858,-15.5154,1017.1736],[-68.1861,-15.5113,1027.0837],[-68.1821,-15.5094,1000.2715],[-68.1787,-15.501,1031.2456],[-68.1756,-15.4997,978.4161],[-68.1766,-15.4973,1082.8505],[-68.1751,-15.4955,880.437],[-68.1731,-15.4958,878.2457],[-68.1735,-15.4926,926.3751],[-68.1698,-15.4868,884.4216],[-68.1609,-15.4891,812.122],[-68.1588,-15.4878,797.0532],[-68.1602,-15.4865,823.2354],[-68.1586,-15.4845,807.1414],[-68.1578,-15.4858,779.3521],[-68.1551,-15.4854,786.8196],[-68.1559,-15.4883,831.3027],[-68.1544,-15.487,752.7457],[-68.1521,-15.4884,757.6755],[-68.1507,-15.4872,774.3079],[-68.1461,-15.4883,779.9114],[-68.1439,-15.491,783.5012],[-68.1443,-15.4948,775.3524],[-68.1427,-15.4971,749.7913],[-68.1406,-15.4959,801.3618],[-68.1374,-15.4975,756.8026],[-68.135,-15.4945,849.1744],[-68.1349,-15.4975,750.7358],[-68.1332,-15.4971,750.7358],[-68.13,-15.5006,712.8732],[-68.1282,-15.4979,723.0551],[-68.1298,-15.4972,717.8408],[-68.127,-15.4953,713.1868],[-68.1216,-15.4961,715.9651],[-68.1114,-15.4944,763.9397],[-68.104,-15.4967,733.829],[-68.1023,-15.4949,678.7327],[-68.1004,-15.4976,682.8412],[-68.1013,-15.4991,702.7917],[-68.096,-15.4996,688.6162],[-68.0974,-15.5019,678.4886],[-68.0944,-15.5036,686.5353],[-68.0916,-15.5012,707.8115],[-68.0905,-15.5022,659.879],[-68.0907,-15.5047,656.8713],[-68.0921,-15.5049,671.0413],[-68.0882,-15.5077,694.7015],[-68.088,-15.5121,673.2585],[-68.0899,-15.5139,722.548],[-68.0881,-15.5161,654.7618],[-68.0824,-15.517,679.9172],[-68.0818,-15.5153,733.1918],[-68.0809,-15.518,773.218],[-68.0803,-15.5169,665.5861],[-68.0779,-15.5185,716.0928],[-68.078,-15.5171,662.0767],[-68.0759,-15.5165,671.0339],[-68.0757,-15.5133,694.5906],[-68.0692,-15.5112,614.4548],[-68.0688,-15.5053,700.6732],[-68.0706,-15.4996,679.8447],[-68.0697,-15.4969,630.0765],[-68.0662,-15.497,651.5074],[-68.0649,-15.4915,641.8088],[-68.0661,-15.4888,608.3036],[-68.066,-15.4795,656.6321],[-68.0635,-15.4738,636.5852],[-68.0581,-15.4729,637.2753],[-68.0556,-15.4626,601.262],[-68.0587,-15.4585,607.7229],[-68.0629,-15.4568,582.7922],[-68.0629,-15.4532,623.5767],[-68.0657,-15.4518,578.6468],[-68.0673,-15.4435,531.4228],[-68.0706,-15.4419,505.2068],[-68.0677,-15.4395,503.2772],[-68.0679,-15.4361,559.4706],[-68.0655,-15.4362,521.6316],[-68.0637,-15.4317,563.884],[-68.0653,-15.4251,495.9976],[-68.0611,-15.4234,484.0466],[-68.0585,-15.4243,491.0042],[-68.0569,-15.4227,490.3734],[-68.058,-15.4186,534.303],[-68.0635,-15.4163,563.1102],[-68.063,-15.4147,576.6327],[-68.0572,-15.4138,515.2942],[-68.0567,-15.4117,473.3234],[-68.0604,-15.4075,472.4469],[-68.0607,-15.3958,585.0713],[-68.0642,-15.3948,467.655],[-68.0712,-15.3973,468.5129],[-68.0773,-15.3943,468.125],[-68.0646,-15.3914,539.6996],[-68.0653,-15.3862,513.4441],[-68.0639,-15.3849,481.0186],[-68.0542,-15.3882,555.9424],[-68.0462,-15.3807,484.1459],[-68.047,-15.3783,485.8226],[-68.0512,-15.3767,498.6165],[-68.0472,-15.37,511.5952],[-68.0478,-15.3647,516.7421],[-68.0513,-15.3618,503.5224],[-68.0561,-15.3623,490.5749],[-68.062,-15.3469,567.7523],[-68.0563,-15.3421,554.626],[-68.0557,-15.3382,522.1122],[-68.0576,-15.3338,496.9918],[-68.061,-15.3333,538.0419],[-68.0607,-15.3289,556.0358],[-68.065,-15.3211,503.3002],[-68.0696,-15.3175,528.8793],[-68.0691,-15.3155,509.8243],[-68.0645,-15.3145,512.0005],[-68.0641,-15.3128,519.953],[-68.0686,-15.3012,534.3825],[-68.0686,-15.2944,573.1732],[-68.0794,-15.2765,586.3974],[-68.0835,-15.2735,537.6884],[-68.0872,-15.2655,570.4147],[-68.0908,-15.2657,540.5307],[-68.0978,-15.2602,533.1246],[-68.0986,-15.2563,540.8987],[-68.1022,-15.256,536.1359],[-68.1028,-15.2526,561.0945],[-68.1072,-15.2519,577.9836],[-68.1136,-15.2474,538.5612],[-68.1141,-15.243,565.1956],[-68.1187,-15.2456,563.9371],[-68.1348,-15.2401,562.3491],[-68.1433,-15.2327,622.0402],[-68.1444,-15.2296,572.419],[-68.1515,-15.2271,635.03],[-68.1579,-15.2167,562.0272],[-68.1616,-15.216,561.6555],[-68.1621,-15.2131,584.1586],[-68.1707,-15.2078,583.635],[-68.1688,-15.2043,556.5407],[-68.1725,-15.2021,578.313],[-68.174,-15.1976,572.7222],[-68.1681,-15.1872,570.4974],[-68.1709,-15.1848,569.3085],[-68.1747,-15.1857,577.1992],[-68.1768,-15.1842,613.5026],[-68.1746,-15.1787,595.3024],[-68.1757,-15.1722,632.239],[-68.1822,-15.1662,633.5206],[-68.1867,-15.159,661.4429],[-68.1862,-15.1561,656.4976],[-68.191,-15.1534,620.5453],[-68.1923,-15.1501,621.5969],[-68.1986,-15.1522,611.3236],[-68.2019,-15.1509,620.0464],[-68.2048,-15.1519,621.9153],[-68.2055,-15.1506,640.3062],[-68.2038,-15.1491,597.8755],[-68.2086,-15.1468,622.1014],[-68.2109,-15.1484,673.1682],[-68.214,-15.1481,636.6572],[-68.2225,-15.1436,604.7034],[-68.2305,-15.1472,622.7454],[-68.2323,-15.1465,614.6848],[-68.2317,-15.1502,646.7961],[-68.2333,-15.1516,637.489],[-68.2322,-15.1539,662.7817],[-68.2289,-15.1562,731.3311],[-68.2282,-15.1586,624.5533],[-68.2256,-15.1588,612.6565],[-68.2293,-15.1615,723.2314],[-68.2298,-15.1637,629.741],[-68.2337,-15.1642,627.6142],[-68.2392,-15.1624,624.2983],[-68.2414,-15.1589,652.5397],[-68.2434,-15.1587,624.364],[-68.2456,-15.1531,662.6784],[-68.2517,-15.1483,623.3983],[-68.2549,-15.1518,666.1129],[-68.2566,-15.1461,634.675],[-68.2595,-15.1451,654.0629],[-68.2612,-15.1417,631.8361],[-68.2656,-15.142,674.0391],[-68.2688,-15.1361,669.1024],[-68.2739,-15.1378,637.5104],[-68.2778,-15.1329,666.0939],[-68.2824,-15.1362,644.6297],[-68.2831,-15.1338,662.4443],[-68.2881,-15.1312,678.293],[-68.2918,-15.1341,653.1481],[-68.2971,-15.1347,685.9104],[-68.297,-15.1379,716.5526],[-68.301,-15.1365,660.2264],[-68.3047,-15.1397,757.2582],[-68.3118,-15.1375,657.2387],[-68.3103,-15.1453,755.1294],[-68.3157,-15.1495,666.5209],[-68.3261,-15.1489,669.6304],[-68.3245,-15.1544,677.8076],[-68.3307,-15.1536,684.8019],[-68.3336,-15.1568,800.4082],[-68.3391,-15.1546,755.5717],[-68.3432,-15.1559,789.9196],[-68.3469,-15.1524,771.207],[-68.3495,-15.1533,768.4227],[-68.3501,-15.1554,761.4067],[-68.3537,-15.156,796.8292],[-68.3566,-15.1528,830.483],[-68.3593,-15.1532,839.757],[-68.3618,-15.1555,953.4445],[-68.361,-15.1593,920.4631],[-68.3661,-15.1595,938.2958],[-68.3664,-15.1618,932.2388],[-68.3699,-15.1614,1132.9492],[-68.3684,-15.1658,1074.9092],[-68.3709,-15.1671,1109.4619],[-68.3682,-15.1679,1101.4315],[-68.3678,-15.1708,1136.7979],[-68.3714,-15.1698,1122.2986],[-68.371,-15.1715,1141.4199],[-68.3741,-15.1756,1150.8156],[-68.3782,-15.1759,1151.5435],[-68.376,-15.1795,1179.9565],[-68.3773,-15.1835,1176.0343],[-68.3818,-15.1833,1154.525],[-68.3828,-15.186,1152.8835],[-68.3862,-15.1878,1159.3124],[-68.3904,-15.1873,1162.2329],[-68.3935,-15.1916,1180.647],[-68.3967,-15.1915,1169.9543],[-68.3931,-15.1997,1278.035],[-68.3983,-15.2063,1353.5544],[-68.4001,-15.2125,1440.2314],[-68.4034,-15.2158,1396.5758],[-68.4024,-15.2275,1118.2754],[-68.4067,-15.2318,720.6073]]]]}
,"properties": {"GID_3": "BOL.4.12.3_2","GID_0": "BOL","country": "Bolivia","GID_1": "BOL.4_1","province": "LaPaz","NL_NAME_1": "NA","GID_2": "BOL.4.12_2","county": "Larecaja","NL_NAME_2": "NA","city": "Mapiri","VARNAME_3": "NA","NL_NAME_3": "NA","TYPE_3": "District","ENGTYPE_3": "Distrito","CC_3": "NA","HASC_3": "NA","name": "Mapiri.city","area_km2": 1503.655,"hist_schema_id": "Elevation0-9000","hist_area_km2": {"450": 0.041,"475": 1.717,"500": 2.964,"525": 5.868,"550": 10.285,"575": 14.988,"600": 14.456,"625": 19.118,"650": 20.979,"675": 22.983,"700": 26.029,"725": 29.137,"750": 33.042,"775": 35.496,"800": 36.866,"825": 40.854,"850": 37.645,"875": 40.713,"900": 42.206,"925": 41.244,"950": 40.896,"975": 41.57,"1000": 45.23,"1025": 41.776,"1050": 41.327,"1075": 45.295,"1100": 48.118,"1125": 40.347,"1150": 34.311,"1175": 34.046,"1200": 28.197,"1225": 23.696,"1250": 22.652,"1275": 19.83,"1300": 17.641,"1325": 16.658,"1350": 15.35,"1375": 16.085,"1400": 15.267,"1425": 14.183,"1450": 13.692,"1475": 13.099,"1500": 12.282,"1525": 13.058,"1550": 12.608,"1575": 12.649,"1600": 11.771,"1625": 11.034,"1650": 11.484,"1675": 11.423,"1700": 10.401,"1725": 9.379,"1750": 9.685,"1775": 9.91,"1800": 9.481,"1825": 9.644,"1850": 8.888,"1875": 8.868,"1900": 8.908,"1925": 8.663,"1950": 8.724,"1975": 7.805,"2000": 8.581,"2025": 8.765,"2050": 7.09,"2075": 7.335,"2100": 7.396,"2125": 6.558,"2150": 7.131,"2175": 6.395,"2200": 6.558,"2225": 6.538,"2250": 6.701,"2275": 6.129,"2300": 6.415,"2325": 5.618,"2350": 5.802,"2375": 5.026,"2400": 5.72,"2425": 5.434,"2450": 4.535,"2475": 4.903,"2500": 4.78,"2525": 4.617,"2550": 4.76,"2575": 3.718,"2600": 3.923,"2625": 3.616,"2650": 3.024,"2675": 2.513,"2700": 2.717,"2725": 2.513,"2750": 2.431,"2775": 2.329,"2800": 1.941,"2825": 2.207,"2850": 1.982,"2875": 1.655,"2900": 1.205,"2925": 1.635,"2950": 1.226,"2975": 1.226,"3000": 1.246,"3025": 0.899,"3050": 1.001,"3075": 0.817,"3100": 0.593,"3125": 0.47,"3150": 0.429,"3175": 0.286,"3200": 0.409,"3225": 0.266,"3250": 0.388,"3275": 0.266,"3300": 0.143,"3325": 0.266,"3350": 0.225,"3375": 0.163,"3400": 0.204,"3425": 0.143,"3450": 0.041,"3475": 0.041,"3500": 0.102,"3525": 0.041}}}