{"type": "Feature","bbox": [-64.3937,-13.4511,-63.0,-12.429],"geometry": {"type": "MultiPolygon","coordinates": [[[[-63.0001,-12.8416,138.0],[-63.0069,-12.8393,144.787],[-63.0127,-12.8333,138.0],[-63.0139,-12.8231,138.0],[-63.0094,-12.8155,140.8235],[-63.0086,-12.8109,149.0769],[-63.0112,-12.8077,138.0],[-63.0183,-12.8067,138.0],[-63.0222,-12.804,138.0],[-63.02,-12.7908,144.3656],[-63.0265,-12.7832,140.1874],[-63.0348,-12.7791,151.2761],[-63.0359,-12.7689,142.6934],[-63.0395,-12.7649,142.1738],[-63.039,-12.7566,142.1827],[-63.0499,-12.7343,139.3691],[-63.0584,-12.7278,141.3807],[-63.0629,-12.7282,138.3018],[-63.0671,-12.7311,138.8202],[-63.0756,-12.7296,142.465],[-63.0809,-12.7239,146.9038],[-63.0824,-12.7128,137.0],[-63.0814,-12.7068,137.0],[-63.0618,-12.6937,137.0],[-63.061,-12.6903,137.0],[-63.0623,-12.6864,137.0],[-63.0671,-12.683,142.4622],[-63.0781,-12.6861,136.5],[-63.0923,-12.6843,136.0],[-63.0977,-12.682,136.0],[-63.0987,-12.6778,138.0021],[-63.0929,-12.6714,142.4412],[-63.0914,-12.6666,152.0505],[-63.0933,-12.6597,136.0],[-63.1013,-12.6551,138.7577],[-63.1127,-12.6586,141.2078],[-63.1162,-12.6578,140.7432],[-63.1212,-12.655,138.1786],[-63.1267,-12.6453,138.3797],[-63.134,-12.6479,138.6495],[-63.1389,-12.646,138.0332],[-63.1374,-12.639099999999999,136.4584],[-63.147,-12.6378,136.0],[-63.1525,-12.6328,139.4603],[-63.1537,-12.6209,136.0],[-63.1569,-12.6144,136.538],[-63.1619,-12.6143,136.0],[-63.1682,-12.6233,136.0],[-63.1622,-12.6368,136.0],[-63.1637,-12.6409,136.0],[-63.1711,-12.6424,136.0],[-63.1758,-12.6384,136.0],[-63.179,-12.6319,135.625],[-63.1845,-12.6258,135.9525],[-63.1912,-12.623,136.8596],[-63.1934,-12.6235,138.7112],[-63.1962,-12.6269,144.9819],[-63.1969,-12.6319,135.5],[-63.1904,-12.6415,135.0],[-63.1902,-12.6463,142.3922],[-63.1946,-12.6535,137.78809999999999],[-63.1983,-12.6551,135.0],[-63.2171,-12.6556,134.5],[-63.2292,-12.6632,136.7839],[-63.236,-12.6629,142.1727],[-63.2399,-12.6607,134.5],[-63.2448,-12.6618,135.824],[-63.2459,-12.6652,134.5332],[-63.2409,-12.6697,134.9267],[-63.2398,-12.6748,134.0],[-63.2322,-12.6833,134.0],[-63.2345,-12.6876,134.3816],[-63.2412,-12.6906,134.0],[-63.2643,-12.6844,134.0],[-63.2789,-12.6848,134.0],[-63.2897,-12.6833,134.0],[-63.3259,-12.6725,134.0],[-63.3491,-12.6575,134.0],[-63.3559,-12.6567,134.0],[-63.3638,-12.6594,134.0],[-63.3706,-12.6596,134.0],[-63.39,-12.6476,134.0],[-63.4011,-12.6351,135.4542],[-63.4043,-12.6298,133.5],[-63.4096,-12.612,133.5],[-63.4165,-12.6073,133.5],[-63.4362,-12.6083,133.5],[-63.4421,-12.6051,133.5],[-63.4422,-12.6013,133.5],[-63.4402,-12.599,133.5],[-63.4287,-12.5974,133.375],[-63.4268,-12.5949,139.3632],[-63.4352,-12.5873,133.0],[-63.4376,-12.5829,133.0],[-63.4383,-12.5755,134.0025],[-63.4356,-12.566,133.0],[-63.4369,-12.5645,142.0526],[-63.454,-12.5609,140.8054],[-63.474,-12.5608,133.0],[-63.4933,-12.5664,133.0],[-63.4991,-12.5666,133.0],[-63.508,-12.5629,136.0953],[-63.5318,-12.5398,133.0],[-63.5401,-12.5234,132.5],[-63.5537,-12.5069,132.0],[-63.5657,-12.5017,132.0],[-63.5797,-12.5001,131.5],[-63.5886,-12.4922,131.5],[-63.6116,-12.4857,131.5],[-63.6193,-12.4791,131.0],[-63.6237,-12.4729,133.9515],[-63.6333,-12.4716,131.0],[-63.6533,-12.4641,131.0],[-63.6661,-12.4641,134.2005],[-63.6721,-12.4625,131.0],[-63.6776,-12.4599,131.0],[-63.6839,-12.4528,131.0],[-63.6966,-12.4474,131.0],[-63.7039,-12.4467,131.0],[-63.7256,-12.4395,131.0],[-63.7329,-12.4385,131.0],[-63.7664,-12.4415,131.0],[-63.7842,-12.4292,131.0],[-63.788,-12.429,136.8936],[-63.791,-12.4315,141.773],[-63.7992,-12.4452,141.9743],[-63.8055,-12.4484,139.1246],[-63.8167,-12.4464,133.5434],[-63.8226,-12.4527,131.5668],[-63.8263,-12.4598,147.7801],[-63.8349,-12.4641,147.0374],[-63.8571,-12.4585,145.6476],[-63.8704,-12.4513,143.5965],[-63.8764,-12.446,130.5],[-63.8807,-12.4449,130.5],[-63.8872,-12.4457,130.5],[-63.891,-12.4519,130.7641],[-63.8906,-12.4608,132.8759],[-63.8918,-12.4659,130.0],[-63.8947,-12.4711,130.0],[-63.8998,-12.4759,131.787],[-63.8969,-12.5,133.9958],[-63.899,-12.5033,130.3038],[-63.909,-12.509,129.5],[-63.9182,-12.5095,129.5],[-63.9263,-12.5123,129.5],[-63.9454,-12.5283,129.5],[-63.9567,-12.5311,129.5],[-63.9629,-12.5293,129.5],[-63.9708,-12.5234,129.0],[-63.9907,-12.5045,129.0],[-63.9964,-12.501,129.0],[-64.0021,-12.5024,129.0],[-64.0043,-12.5146,129.0],[-64.0071,-12.5171,129.0],[-64.0104,-12.518,129.0],[-64.0154,-12.512,129.657],[-64.0207,-12.5101,130.8885],[-64.0252,-12.5104,130.3875],[-64.0315,-12.5158,129.0],[-64.0352,-12.5166,129.0],[-64.0427,-12.5146,129.0],[-64.05,-12.5009,129.1874],[-64.058,-12.4906,128.5],[-64.0602,-12.49,128.5],[-64.0665,-12.4902,128.5],[-64.0743,-12.4991,128.5],[-64.0788,-12.4999,128.5],[-64.0857,-12.4986,128.5],[-64.0882,-12.4954,128.5],[-64.089,-12.4882,133.4346],[-64.0926,-12.4857,129.1493],[-64.1005,-12.4866,128.5],[-64.1029,-12.4929,129.6223],[-64.1112,-12.4976,128.5],[-64.1162,-12.5033,128.5],[-64.123,-12.5061,128.5],[-64.1248,-12.5047,139.1555],[-64.1251,-12.5019,133.6012],[-64.124,-12.4869,129.7953],[-64.1291,-12.4801,134.9683],[-64.1379,-12.4783,133.7368],[-64.1419,-12.479,129.0863],[-64.1446,-12.4815,128.5],[-64.1463,-12.4877,128.5],[-64.1426,-12.502,137.1678],[-64.1531,-12.511,128.5],[-64.1585,-12.5135,128.5],[-64.1639,-12.5139,128.5],[-64.1702,-12.5118,128.5],[-64.1739,-12.5046,133.4314],[-64.1726,-12.4764,128.5],[-64.1743,-12.4671,128.5],[-64.1824,-12.4658,128.5],[-64.1927,-12.4731,141.9887],[-64.198,-12.473,137.6243],[-64.2105,-12.4625,129.4392],[-64.2232,-12.4598,135.1063],[-64.2306,-12.4539,128.0],[-64.24,-12.4591,129.7116],[-64.2484,-12.4746,129.5064],[-64.2657,-12.4838,128.0],[-64.279,-12.5,128.0],[-64.2838,-12.5031,128.0],[-64.2896,-12.5029,128.0],[-64.2972,-12.4999,128.0],[-64.3001,-12.4916,128.0],[-64.2984,-12.4835,128.0],[-64.2925,-12.4715,128.0],[-64.2918,-12.4602,128.0],[-64.2949,-12.4579,127.625],[-64.3169,-12.4559,127.5],[-64.3438,-12.4566,127.5],[-64.3666,-12.4605,127.0],[-64.3731,-12.4544,126.0],[-64.3778,-12.4529,125.0],[-64.3758,-12.458,129.7796],[-64.3773,-12.462,128.0612],[-64.3801,-12.4645,141.6278],[-64.3872,-12.4663,135.5678],[-64.3937,-12.474,134.1475],[-64.3935,-12.4772,129.7812],[-64.3916,-12.4776,132.5422],[-64.3895,-12.4734,130.5295],[-64.3863,-12.4723,129.0553],[-64.3791,-12.4842,129.2567],[-64.376,-12.4839,128.8533],[-64.3757,-12.4782,128.0652],[-64.3697,-12.4812,132.0375],[-64.3624,-12.4806,130.3448],[-64.3604,-12.4822,132.7023],[-64.3601,-12.4876,128.6947],[-64.356,-12.4966,136.5829],[-64.3455,-12.5037,134.4438],[-64.344,-12.5065,139.2191],[-64.347,-12.5094,131.5402],[-64.3523,-12.5103,131.0934],[-64.3628,-12.5077,127.6412],[-64.3658,-12.5054,131.5239],[-64.3701,-12.5066,141.2296],[-64.373,-12.5109,125.0],[-64.376,-12.5263,129.4764],[-64.3791,-12.5294,131.3702],[-64.3794,-12.5319,135.4729],[-64.364,-12.5434,135.9286],[-64.3619,-12.5458,138.2081],[-64.3621,-12.5491,141.8365],[-64.3559,-12.5532,138.1879],[-64.3546,-12.5571,134.6303],[-64.3495,-12.5607,133.4866],[-64.3532,-12.5668,135.2158],[-64.3583,-12.5685,131.4148],[-64.3569,-12.5721,137.2754],[-64.3505,-12.573,138.273],[-64.3558,-12.5845,134.5892],[-64.3499,-12.584,134.5724],[-64.3487,-12.5907,132.876],[-64.3474,-12.5913,143.5247],[-64.3451,-12.5896,133.426],[-64.3461,-12.5835,133.0657],[-64.3421,-12.584,137.7285],[-64.3409,-12.5869,133.8915],[-64.3424,-12.5922,141.6314],[-64.3409,-12.5949,143.5778],[-64.3346,-12.5878,137.429],[-64.3325,-12.5878,136.8088],[-64.3304,-12.5922,140.7835],[-64.3306,-12.596,139.6307],[-64.3282,-12.5997,139.6433],[-64.3206,-12.6047,141.3326],[-64.3155,-12.6111,136.8955],[-64.3153,-12.6151,142.7095],[-64.3192,-12.619,135.2198],[-64.3213,-12.6191,134.6415],[-64.3245,-12.6146,140.3427],[-64.3292,-12.6191,133.5244],[-64.3296,-12.6217,136.5556],[-64.3271,-12.6251,141.7091],[-64.322,-12.6243,135.3546],[-64.32,-12.6255,133.7407],[-64.324,-12.6269,139.8678],[-64.3265,-12.634,133.0815],[-64.3352,-12.6415,132.14],[-64.3345,-12.6483,136.053],[-64.3318,-12.6457,134.3816],[-64.325,-12.6433,135.6436],[-64.3211,-12.6475,135.5992],[-64.3169,-12.6486,135.2053],[-64.3197,-12.6534,142.1653],[-64.3235,-12.6541,134.2053],[-64.3265,-12.6528,136.012],[-64.3297,-12.6549,134.9709],[-64.33,-12.6573,133.5303],[-64.3263,-12.6604,138.9405],[-64.3295,-12.665,133.004],[-64.3295,-12.6676,132.2604],[-64.3279,-12.6683,141.6016],[-64.3235,-12.6649,141.0297],[-64.3207,-12.6648,142.9787],[-64.3196,-12.662,131.8703],[-64.3166,-12.661,134.3128],[-64.3158,-12.6564,137.3223],[-64.3117,-12.6544,140.2359],[-64.3115,-12.6494,132.7023],[-64.308,-12.6456,133.3992],[-64.3054,-12.6471,135.8458],[-64.2998,-12.6446,139.0535],[-64.2973,-12.6466,136.8948],[-64.2971,-12.6505,137.2594],[-64.301,-12.6531,146.0683],[-64.3065,-12.6519,138.6897],[-64.3081,-12.6539,136.4177],[-64.3057,-12.6574,136.5602],[-64.299,-12.6592,144.5865],[-64.2989,-12.6652,133.1712],[-64.2897,-12.6668,133.4987],[-64.2847,-12.6738,132.5928],[-64.285,-12.676,138.0616],[-64.2908,-12.6822,141.2513],[-64.2933,-12.682,141.9314],[-64.2952,-12.678,133.8787],[-64.2974,-12.6799,142.4902],[-64.2941,-12.6854,141.7972],[-64.2898,-12.6859,135.1131],[-64.2889,-12.6908,135.0542],[-64.2842,-12.6908,134.351],[-64.2824,-12.6976,143.7315],[-64.2849,-12.6961,140.0141],[-64.2896,-12.6965,132.9683],[-64.2911,-12.6921,134.2233],[-64.2959,-12.6911,138.0055],[-64.2972,-12.6928,136.1244],[-64.2951,-12.6967,142.3634],[-64.2974,-12.7013,144.9826],[-64.3034,-12.7014,140.2819],[-64.3043,-12.6983,136.3661],[-64.299,-12.6923,141.6136],[-64.3031,-12.6898,139.563],[-64.3048,-12.6844,138.0656],[-64.3087,-12.6823,135.1692],[-64.3068,-12.6787,133.9995],[-64.3069,-12.6741,138.9603],[-64.3086,-12.6731,140.1815],[-64.3116,-12.6745,135.269],[-64.3125,-12.6781,142.4442],[-64.3181,-12.6802,144.9194],[-64.3158,-12.6845,134.9125],[-64.3182,-12.6859,143.5269],[-64.3181,-12.6903,140.8541],[-64.3208,-12.6948,137.9014],[-64.3201,-12.696,137.9014],[-64.3168,-12.6933,138.1466],[-64.311,-12.6949,132.6024],[-64.3123,-12.6972,137.4803],[-64.3091,-12.6993,147.249],[-64.3105,-12.7027,138.3796],[-64.3076,-12.7054,136.0229],[-64.3085,-12.7149,135.9462],[-64.3062,-12.7185,140.1259],[-64.3009,-12.7159,142.048],[-64.2994,-12.7213,139.6996],[-64.2909,-12.7209,134.991],[-64.2894,-12.7194,133.5569],[-64.2908,-12.7159,136.0978],[-64.2847,-12.7149,136.9644],[-64.2879,-12.7236,134.1651],[-64.2855,-12.7282,133.9208],[-64.2884,-12.7329,136.26],[-64.2873,-12.7358,139.2015],[-64.2825,-12.7363,145.3358],[-64.2745,-12.7298,136.2272],[-64.2696,-12.7327,135.9181],[-64.2706,-12.736,137.128],[-64.2758,-12.7366,133.1972],[-64.2819,-12.741,138.2287],[-64.2977,-12.7424,134.9355],[-64.3024,-12.7451,132.6195],[-64.2992,-12.748,145.9878],[-64.2994,-12.7516,134.6627],[-64.2955,-12.7517,139.1973],[-64.2944,-12.7539,136.3299],[-64.2879,-12.7536,138.226],[-64.2839,-12.7551,137.8286],[-64.2858,-12.7625,135.3095],[-64.2782,-12.7803,139.713],[-64.279,-12.7817,135.308],[-64.2844,-12.7815,137.139],[-64.2846,-12.7788,135.541],[-64.2874,-12.7756,135.9133],[-64.2911,-12.7748,136.8081],[-64.2899,-12.7776,137.1902],[-64.2909,-12.7825,143.8002],[-64.2878,-12.7854,135.6312],[-64.2875,-12.7951,134.2557],[-64.2866,-12.7964,134.8796],[-64.2768,-12.796,138.6025],[-64.2742,-12.7972,142.7698],[-64.276,-12.803,135.0809],[-64.2737,-12.8087,141.2443],[-64.2784,-12.8125,134.3209],[-64.2784,-12.8142,135.2711],[-64.2742,-12.8159,139.9473],[-64.271,-12.8105,137.9731],[-64.2674,-12.8136,141.457],[-64.2644,-12.8096,136.0505],[-64.2624,-12.8101,137.9822],[-64.2621,-12.8149,139.0105],[-64.2706,-12.8212,143.2279],[-64.2681,-12.8249,145.8594],[-64.2554,-12.8232,134.152],[-64.2532,-12.8245,139.5502],[-64.253,-12.828,138.7942],[-64.2485,-12.825,136.0912],[-64.2468,-12.8286,134.1124],[-64.2435,-12.8305,136.8679],[-64.246,-12.8317,136.2476],[-64.2455,-12.8349,144.0407],[-64.2523,-12.8348,135.3295],[-64.2523,-12.8396,135.6143],[-64.2557,-12.8386,134.1803],[-64.2589,-12.8401,135.2179],[-64.2605,-12.8421,132.9467],[-64.2599,-12.8444,135.0447],[-64.2647,-12.8443,133.3818],[-64.2697,-12.8469,133.8353],[-64.2723,-12.8455,133.9806],[-64.2734,-12.8481,134.3321],[-64.2763,-12.8474,133.9602],[-64.2755,-12.851,133.188],[-64.2793,-12.8529,133.3241],[-64.2809,-12.8522,133.7682],[-64.282,-12.855,133.5384],[-64.2847,-12.8548,137.5362],[-64.2841,-12.8513,134.6164],[-64.2897,-12.851,135.4198],[-64.2916,-12.8535,133.6279],[-64.2894,-12.8536,137.9969],[-64.2892,-12.855,139.5176],[-64.2917,-12.8559,134.3831],[-64.2889,-12.8607,138.9023],[-64.2892,-12.8634,138.3571],[-64.2944,-12.8645,135.5798],[-64.295,-12.8625,136.1389],[-64.2988,-12.8632,140.0828],[-64.3027,-12.8616,138.7827],[-64.305,-12.8646,135.8877],[-64.3014,-12.8682,135.9982],[-64.2939,-12.8696,139.3067],[-64.2926,-12.8746,138.9197],[-64.2894,-12.8741,136.8501],[-64.2887,-12.8768,136.2118],[-64.285,-12.8801,135.3415],[-64.2876,-12.8838,135.03],[-64.2841,-12.8851,135.8559],[-64.284,-12.8873,136.4699],[-64.2856,-12.8883,136.5479],[-64.2879,-12.8866,136.6188],[-64.2877,-12.8886,136.7136],[-64.2899,-12.8905,136.0191],[-64.2892,-12.892,134.6411],[-64.2873,-12.8906,136.3152],[-64.2854,-12.8952,135.6034],[-64.2828,-12.896,136.109],[-64.2831,-12.8991,135.7414],[-64.2844,-12.9014,135.0826],[-64.2879,-12.9004,134.4446],[-64.2851,-12.9024,135.3311],[-64.2873,-12.9025,134.3101],[-64.2882,-12.9043,134.1237],[-64.2856,-12.9054,134.3445],[-64.2889,-12.9057,134.7284],[-64.2884,-12.9078,134.333],[-64.2905,-12.9087,134.2749],[-64.2886,-12.9099,135.1458],[-64.2919,-12.9137,133.9587],[-64.2905,-12.9164,135.4768],[-64.2927,-12.9178,133.8564],[-64.2948,-12.9167,133.9021],[-64.2966,-12.9187,133.5291],[-64.2947,-12.9212,134.4552],[-64.298,-12.9263,135.1379],[-64.2899,-12.9285,134.6715],[-64.2903,-12.9306,136.2071],[-64.2874,-12.9308,134.9522],[-64.2874,-12.9324,136.1623],[-64.2846,-12.9315,135.43],[-64.2767,-12.9345,137.0548],[-64.2762,-12.943,139.6007],[-64.2783,-12.9424,136.5263],[-64.279,-12.9455,137.1839],[-64.2771,-12.9464,135.9569],[-64.2783,-12.9483,135.1462],[-64.2765,-12.9494,137.1253],[-64.2782,-12.9499,135.4916],[-64.2785,-12.9538,136.9131],[-64.2799,-12.9544,136.2353],[-64.2781,-12.9559,135.7599],[-64.2792,-12.9571,138.0381],[-64.278,-12.9594,137.3983],[-64.2798,-12.9603,138.2889],[-64.2781,-12.9625,134.6958],[-64.2816,-12.9638,139.8509],[-64.2805,-12.9648,136.9615],[-64.2813,-12.9725,138.5152],[-64.2793,-12.9719,135.5697],[-64.2803,-12.9738,139.2986],[-64.2777,-12.9752,136.1642],[-64.2777,-12.9821,135.2913],[-64.2754,-12.9814,137.1482],[-64.2755,-12.9837,135.2566],[-64.2726,-12.9847,136.0775],[-64.2736,-12.9891,138.7357],[-64.2706,-12.9904,135.7312],[-64.2728,-12.9926,137.7146],[-64.2706,-12.9932,136.8646],[-64.2693,-12.9957,137.5013],[-64.2702,-13.0,136.5721],[-64.2639,-13.0186,134.2484],[-64.2525,-13.0289,135.3004],[-64.2492,-13.0342,136.5411],[-64.2488,-13.0404,135.6017],[-64.2528,-13.0461,135.3994],[-64.2506,-13.0534,135.371],[-64.2465,-13.0583,136.6315],[-64.2442,-13.0689,135.9435],[-64.2459,-13.0733,135.4758],[-64.2518,-13.0772,136.5275],[-64.2545,-13.0859,135.3084],[-64.2537,-13.0877,136.4919],[-64.252,-13.0869,136.4919],[-64.2483,-13.0888,136.1512],[-64.2471,-13.0919,135.4153],[-64.2476,-13.1123,134.3541],[-64.2493,-13.1154,136.5162],[-64.2525,-13.1166,137.2085],[-64.2494,-13.129,137.088],[-64.2548,-13.1429,138.9658],[-64.2667,-13.1527,136.4601],[-64.2724,-13.154,136.0947],[-64.283,-13.1616,134.8136],[-64.2832,-13.166,135.786],[-64.2783,-13.1705,145.9362],[-64.2805,-13.1842,137.2911],[-64.2878,-13.185,137.1236],[-64.2972,-13.1776,136.1275],[-64.2996,-13.1774,135.6205],[-64.2986,-13.1899,136.246],[-64.2937,-13.2009,135.7778],[-64.2974,-13.199,135.7539],[-64.2956,-13.2069,135.5704],[-64.2969,-13.2087,136.0839],[-64.3105,-13.2132,135.8664],[-64.3087,-13.2155,136.7807],[-64.2985,-13.2145,135.8388],[-64.2968,-13.2157,135.8282],[-64.2929,-13.2222,138.0967],[-64.2915,-13.2288,137.6372],[-64.2942,-13.2358,135.9664],[-64.2962,-13.236,136.2674],[-64.3009,-13.2273,139.0324],[-64.3001,-13.2197,139.1653],[-64.305,-13.2177,138.9265],[-64.3146,-13.2474,136.1295],[-64.314,-13.2488,136.9527],[-64.3106,-13.2489,136.2646],[-64.3013,-13.2461,136.1287],[-64.2964,-13.2464,136.2863],[-64.296,-13.2514,136.3919],[-64.2984,-13.256,136.5408],[-64.3103,-13.2663,136.0861],[-64.3262,-13.2702,136.471],[-64.3316,-13.2816,136.9645],[-64.3282,-13.2943,138.3426],[-64.3297,-13.2995,136.9459],[-64.3384,-13.3105,136.1552],[-64.3398,-13.32,136.1522],[-64.3438,-13.32,136.1499],[-64.353,-13.327,136.0772],[-64.3491,-13.3362,136.1729],[-64.3501,-13.348,136.1399],[-64.3543,-13.3499,136.1349],[-64.3626,-13.3487,136.0901],[-64.3721,-13.357,135.9787],[-64.3741,-13.3631,136.0438],[-64.3689,-13.3712,136.0835],[-64.3724,-13.3836,140.6021],[-64.3716,-13.4474,137.4723],[-63.0,-13.4511,142.2819],[-63.0001,-12.8416,138.0]]]]}
,"properties": {"GID_3": "BOL.3.3.3_2","GID_0": "BOL","country": "Bolivia","GID_1": "BOL.3_1","province": "Beni","NL_NAME_1": "NA","GID_2": "BOL.3.3_2","county": "Iténez","NL_NAME_2": "NA","city": "Magdalena","VARNAME_3": "NA","NL_NAME_3": "NA","TYPE_3": "District","ENGTYPE_3": "Distrito","CC_3": "NA","HASC_3": "NA","name": "Magdalena.city","area_km2": 14139.38,"hist_schema_id": "Elevation0-9000","hist_area_km2": {"125": 2482.13,"150": 9140.05,"175": 1635.38,"200": 743.0,"225": 134.38,"250": 2.97,"275": 0.83,"300": 0.37,"325": 0.17}}}