{"type": "Feature","bbox": [-68.9339,-16.6737,-68.7349,-16.5261],"geometry": {"type": "MultiPolygon","coordinates": [[[[-68.9339,-16.6582,3816.2344],[-68.9098,-16.6737,3817.2908],[-68.8937,-16.6433,3840.8755],[-68.8753,-16.645,4011.8145],[-68.8665,-16.6536,4041.1646],[-68.842,-16.6544,4271.9316],[-68.807,-16.6531,4601.3232],[-68.7923,-16.6547,4575.0591],[-68.7626,-16.6529,4232.9629],[-68.7349,-16.6551,4708.4956],[-68.7356,-16.6524,4657.3569],[-68.7416,-16.6497,4630.894],[-68.7438,-16.6454,4590.7148],[-68.7391,-16.6194,3912.8521],[-68.7392,-16.6057,3870.6548],[-68.7422,-16.5814,3836.0112],[-68.7391,-16.5805,3835.3267],[-68.7404,-16.5701,3826.2424],[-68.7388,-16.5689,3825.6392],[-68.7393,-16.5545,3820.5498],[-68.7477,-16.5535,3819.9382],[-68.754,-16.5484,3819.3911],[-68.7584,-16.5483,3818.9302],[-68.7594,-16.5468,3818.9771],[-68.7636,-16.5511,3818.5215],[-68.7654,-16.5503,3818.2588],[-68.7662,-16.5516,3818.5579],[-68.7694,-16.5497,3817.9895],[-68.7746,-16.553,3817.7832],[-68.7784,-16.5487,3817.0991],[-68.7894,-16.548,3815.9272],[-68.7948,-16.5442,3815.8823],[-68.7983,-16.5386,3815.4878],[-68.8093,-16.5393,3814.302],[-68.8227,-16.5294,3813.8115],[-68.8341,-16.5302,3812.4746],[-68.8353,-16.5276,3812.2002],[-68.8432,-16.5261,3808.5],[-68.8439,-16.5277,3808.5],[-68.8418,-16.5285,3812.0654],[-68.8443,-16.5304,3811.7939],[-68.8441,-16.532,3812.2686],[-68.8457,-16.5293,3810.0825],[-68.8476,-16.5293,3809.1982],[-68.8467,-16.5331,3812.3022],[-68.8499,-16.5342,3811.0393],[-68.8366,-16.5422,3811.4126],[-68.8369,-16.5439,3808.5],[-68.8344,-16.5455,3811.9971],[-68.8339,-16.5492,3810.4995],[-68.8303,-16.5527,3811.7905],[-68.8289,-16.5573,3809.5461],[-68.8306,-16.5592,3809.0886],[-68.8297,-16.5606,3812.0256],[-68.8338,-16.5587,3808.5],[-68.8314,-16.5607,3810.8408],[-68.8342,-16.5651,3812.0977],[-68.8379,-16.5656,3808.5],[-68.8368,-16.5692,3811.957],[-68.8394,-16.5669,3809.8442],[-68.8413,-16.5706,3812.0195],[-68.8412,-16.5689,3809.8057],[-68.8454,-16.5704,3808.5],[-68.844,-16.5768,3810.9402],[-68.8469,-16.5773,3809.2947],[-68.8457,-16.5798,3810.2485],[-68.8468,-16.5822,3810.334],[-68.8447,-16.5855,3811.762],[-68.8519,-16.5877,3812.3127],[-68.8545,-16.5844,3808.5],[-68.8556,-16.5889,3810.5125],[-68.8614,-16.5873,3808.5],[-68.8544,-16.5905,3811.4719],[-68.855,-16.5913,3812.9861],[-68.8592,-16.5893,3808.5],[-68.8553,-16.5927,3810.0745],[-68.8587,-16.5929,3809.8484],[-68.8595,-16.595,3812.5044],[-68.8659,-16.5939,3811.9358],[-68.8677,-16.5965,3812.897],[-68.8692,-16.5947,3812.0061],[-68.8704,-16.5977,3811.9753],[-68.8739,-16.5989,3812.324],[-68.8805,-16.596,3811.8943],[-68.8866,-16.5953,3812.126],[-68.8894,-16.5974,3812.1558],[-68.8923,-16.5952,3812.3884],[-68.8954,-16.5954,3812.4534],[-68.8977,-16.5982,3817.5088],[-68.9023,-16.5957,3811.5],[-68.9071,-16.5958,3810.9124],[-68.909,-16.5988,3813.7666],[-68.9129,-16.595,3811.7761],[-68.9156,-16.5971,3813.4277],[-68.9178,-16.5955,3811.9016],[-68.9199,-16.5975,3812.356],[-68.9227,-16.5957,3811.7354],[-68.9247,-16.6531,3819.5518],[-68.9339,-16.6582,3816.2344]]]]}
,"properties": {"GID_3": "BOL.4.10.5_2","GID_0": "BOL","country": "Bolivia","GID_1": "BOL.4_1","province": "LaPaz","NL_NAME_1": "NA","GID_2": "BOL.4.10_2","county": "Ingavi","NL_NAME_2": "NA","city": "PuertoMayordeGuaqui","VARNAME_3": "NA","NL_NAME_3": "NA","TYPE_3": "District","ENGTYPE_3": "Distrito","CC_3": "NA","HASC_3": "NA","name": "Puerto_Mayorde_Guaqui.city","area_km2": 191.5973,"hist_schema_id": "Elevation0-9000","hist_area_km2": {"3800": 4.9995,"3825": 70.47,"3850": 23.5084,"3875": 11.2966,"3900": 6.8875,"3925": 6.0748,"3950": 5.2011,"3975": 4.4493,"4000": 3.9617,"4025": 3.3318,"4050": 3.2099,"4075": 2.9254,"4100": 2.4582,"4125": 2.6816,"4150": 2.6003,"4175": 2.4784,"4200": 2.58,"4225": 2.3565,"4250": 2.3565,"4275": 2.7222,"4300": 2.7019,"4325": 2.6409,"4350": 2.6815,"4375": 2.2752,"4400": 2.3158,"4425": 2.6408,"4450": 3.0064,"4475": 2.1736,"4500": 1.5845,"4525": 1.3813,"4550": 0.8125,"4575": 0.325,"4600": 0.325,"4625": 0.1016,"4650": 0.0813}}}