{"type":"Feature","properties":{"GID_3":"BOL.8.3.2_2","GID_0":"BOL","country":"Bolivia","GID_1":"BOL.8_1","province":"SantaCruz","NL_NAME_1":"NA","GID_2":"BOL.8.3_2","county":"Chiquitos","NL_NAME_2":"NA","city":"Roboré","VARNAME_3":"NA","NL_NAME_3":"NA","TYPE_3":"District","ENGTYPE_3":"Distrito","CC_3":"NA","HASC_3":"NA","name":"Roboré.city"},
"geometry":{"type": "MultiPolygon","coordinates": [[[[-59.5258,-17.6467,233.6817],[-59.5585,-17.6426,270.389],[-59.5667,-17.6444,282.0599],[-59.5765,-17.641,282.2476],[-59.5805,-17.643,300.1632],[-59.5869,-17.6403,309.9449],[-59.6063,-17.6427,344.6309],[-59.6318,-17.6499,297.6067],[-59.653,-17.6637,300.0779],[-59.6648,-17.6687,325.5527],[-59.6832,-17.6735,335.1895],[-59.6887,-17.6825,349.4092],[-59.69,-17.7013,385.8989],[-59.6954,-17.7318,386.2983],[-59.7007,-17.7519,336.4244],[-59.709,-17.7673,327.4608],[-59.727,-17.7761,328.8693],[-59.7365,-17.7784,326.3615],[-59.7502,-17.7787,316.4832],[-59.7649,-17.7884,305.1961],[-59.7916,-17.7939,322.4897],[-59.8101,-17.8029,496.3859],[-59.8262,-17.8083,316.9517],[-59.8467,-17.819,250.6555],[-59.855,-17.8184,250.0709],[-59.8571,-17.8157,249.9508],[-59.8607,-17.8147,252.4291],[-59.8669,-17.8054,250.1742],[-59.8707,-17.8058,254.0063],[-59.8763,-17.8114,252.3459],[-59.8783,-17.8108,254.0954],[-59.8818,-17.8049,255.2418],[-59.891,-17.7953,257.7715],[-59.8922,-17.7897,258.2741],[-59.8961,-17.7914,260.7163],[-59.9107,-17.7922,262.0133],[-59.9138,-17.7946,259.7715],[-59.9182,-17.7941,264.438],[-59.9205,-17.7966,261.9616],[-59.9272,-17.7946,266.9318],[-59.932,-17.7883,268.2569],[-59.9365,-17.7935,268.9544],[-59.9419,-17.7894,274.1805],[-59.9438,-17.7948,272.0246],[-59.9474,-17.7986,271.4452],[-59.9508,-17.7974,270.9584],[-59.9551,-17.802,271.0847],[-59.9549,-17.8121,274.6154],[-59.9577,-17.8185,277.6858],[-59.967,-17.8208,277.9418],[-59.9722,-17.8262,277.9896],[-59.9722,-17.8298,281.2348],[-59.9749,-17.8349,289.8208],[-59.9797,-17.8358,282.3662],[-59.9808,-17.838,282.1043],[-59.9838,-17.839,283.2347],[-59.9843,-17.8422,282.0123],[-59.9876,-17.8447,286.613],[-59.9869,-17.849,286.8625],[-59.9905,-17.8499,288.148],[-59.9863,-17.8559,290.2885],[-59.9954,-17.8612,291.7592],[-59.9961,-17.8686,293.6103],[-59.9988,-17.8689,295.851],[-59.9998,-17.8723,295.7038],[-60.0075,-17.8743,297.9062],[-60.0115,-17.8814,299.8591],[-60.0132,-17.8819,302.9418],[-60.0153,-17.8894,305.7477],[-60.0183,-17.8925,306.9322],[-60.0185,-17.8963,311.5171],[-60.02,-17.8973,309.8407],[-60.0222,-17.9056,311.6274],[-60.021,-17.9095,312.0339],[-60.0221,-17.9128,319.5042],[-60.0255,-17.9144,318.8618],[-60.0266,-17.9177,317.8569],[-60.0313,-17.921,323.7843],[-60.0309,-17.9241,325.9725],[-60.0347,-17.9257,326.449],[-60.0384,-17.9318,329.9578],[-60.0437,-17.9346,335.1442],[-60.0427,-17.9373,336.6524],[-60.045,-17.9471,337.264],[-60.0479,-17.9502,339.4371],[-60.0481,-17.9566,345.6342],[-60.0511,-17.9595,348.9803],[-60.0552,-17.958,350.7197],[-60.0582,-17.9611,353.4436],[-60.0602,-17.9656,354.4367],[-60.0602,-17.9745,359.1835],[-60.0666,-17.9844,367.2857],[-60.0611,-17.9894,390.3705],[-60.0556,-18.0039,409.581],[-60.057,-18.007,389.8961],[-60.0661,-18.0129,377.8635],[-60.0727,-18.0287,401.647],[-60.0741,-18.0636,428.147],[-60.0751,-18.071,458.2591],[-60.0785,-18.0786,445.0849],[-60.0772,-18.0835,447.4135],[-60.0783,-18.0945,470.9152],[-60.0966,-18.1867,723.1656],[-60.1015,-18.1952,714.8546],[-60.1175,-18.4166,461.3408],[-59.6922,-18.4769,221.506],[-59.6894,-18.4842,221.9881],[-59.6827,-18.4905,221.5422],[-59.687,-18.4959,220.226],[-59.6829,-18.4998,220.9282],[-59.6805,-18.4994,216.8988],[-59.6787,-18.5036,219.8575],[-59.6751,-18.5044,221.1633],[-59.6714,-18.5118,216.8511],[-59.6679,-18.511,217.5941],[-59.6615,-18.5147,216.9642],[-59.6562,-18.5115,215.0002],[-59.6476,-18.5095,215.352],[-59.6408,-18.5176,222.4285],[-59.6324,-18.5213,212.8893],[-59.6279,-18.525,211.6978],[-59.6282,-18.5279,214.5541],[-59.6234,-18.5272,215.1238],[-59.6175,-18.5299,208.7469],[-59.6125,-18.5396,216.2528],[-59.6097,-18.5402,214.1372],[-59.6021,-18.5362,212.079],[-59.5968,-18.536,212.1124],[-59.5948,-18.5375,208.9818],[-59.5931,-18.5463,206.0415],[-59.5856,-18.5539,210.1813],[-59.585,-18.5579,208.7166],[-59.5817,-18.5574,208.4677],[-59.5777,-18.5612,205.009],[-59.5698,-18.5619,206.0313],[-59.5653,-18.5645,206.9705],[-59.5622,-18.5694,207.718],[-59.56,-18.5701,206.2584],[-59.5607,-18.5715,207.503],[-59.5525,-18.5836,202.8179],[-59.5504,-18.5809,204.8139],[-59.5456,-18.5831,205.539],[-59.5406,-18.5809,199.6874],[-59.5378,-18.5837,202.7526],[-59.5331,-18.5847,203.3488],[-59.5283,-18.5809,197.4288],[-59.5208,-18.582,204.3335],[-59.5161,-18.5797,200.5565],[-59.5144,-18.5814,202.7271],[-59.5112,-18.5802,196.3774],[-59.5051,-18.5836,197.7231],[-59.4995,-18.5846,199.5105],[-59.4979,-18.5838,197.8456],[-59.4949,-18.5749,195.154],[-59.4921,-18.5713,196.2024],[-59.4896,-18.5709,191.9346],[-59.4824,-18.5729,191.5654],[-59.4781,-18.5771,194.9048],[-59.4772,-18.5818,190.2157],[-59.4722,-18.5855,190.4743],[-59.4675,-18.5839,190.1597],[-59.4645,-18.5859,189.7072],[-59.4565,-18.584,186.4079],[-59.4507,-18.5781,186.7652],[-59.4475,-18.5811,187.1399],[-59.4438,-18.582,190.7018],[-59.4423,-18.5805,187.0425],[-59.4382,-18.5841,191.419],[-59.4342,-18.5832,188.305],[-59.4305,-18.5873,185.7025],[-59.4195,-18.5853,190.6603],[-59.4144,-18.5897,190.0882],[-59.4097,-18.5866,188.598],[-59.4087,-18.5898,188.8853],[-59.4137,-18.5967,188.6409],[-59.4099,-18.6018,185.5649],[-59.4092,-18.6098,183.4107],[-59.4078,-18.6106,185.731],[-59.4017,-18.6082,188.725],[-59.3974,-18.6088,184.7601],[-59.3931,-18.6051,185.2755],[-59.3842,-18.6062,175.9515],[-59.3796,-18.6041,185.0978],[-59.3745,-18.608,185.831],[-59.3678,-18.6029,179.9353],[-59.3632,-18.6038,177.9037],[-59.3596,-18.6076,181.8277],[-59.3574,-18.6069,182.3326],[-59.3522,-18.6093,177.0458],[-59.3446,-18.6064,182.8869],[-59.3444,-18.6044,181.466],[-59.3385,-18.6001,184.0627],[-59.3335,-18.5997,176.0015],[-59.3235,-18.6045,179.6192],[-59.3203,-18.6132,178.8117],[-59.3125,-18.6203,176.8257],[-59.3043,-18.6225,176.7706],[-59.3015,-18.6218,176.1034],[-59.2987,-18.6238,179.1499],[-59.2947,-18.6217,179.1855],[-59.2835,-18.6269,172.1662],[-59.2818,-18.6261,175.1095],[-59.2799,-18.6184,171.776],[-59.275,-18.6133,171.5737],[-59.2752,-18.6111,169.0537],[-59.2713,-18.6107,166.7942],[-59.2691,-18.6176,174.9338],[-59.2578,-18.6317,170.8027],[-59.2526,-18.6324,167.2278],[-59.2515,-18.6296,167.5576],[-59.2452,-18.6285,167.3012],[-59.2422,-18.6312,166.7128],[-59.2356,-18.6318,168.1619],[-59.233,-18.6354,165.8927],[-59.2345,-18.639,171.3477],[-59.2316,-18.6406,172.216],[-59.2287,-18.6394,170.4886],[-59.2219,-18.6411,168.7164],[-59.2199,-18.6478,170.8019],[-59.2168,-18.65,165.1166],[-59.2132,-18.6498,162.3884],[-59.2077,-18.6559,170.7775],[-59.2021,-18.6566,170.309],[-59.199,-18.654,169.9574],[-59.1951,-18.6554,163.8306],[-59.1921,-18.6535,166.5991],[-59.1887,-18.6456,161.7312],[-59.1815,-18.641,162.9788],[-59.1716,-18.6397,165.9651],[-59.1635,-18.6473,163.8021],[-59.1567,-18.6424,162.3045],[-59.1481,-18.6467,165.0633],[-59.1415,-18.6456,165.4718],[-59.1347,-18.6414,162.1712],[-59.1257,-18.6403,160.7137],[-59.1202,-18.6423,156.183],[-59.118,-18.6413,159.9604],[-59.1084,-18.6429,156.9262],[-59.0999,-18.6468,160.8865],[-59.097,-18.6524,160.2849],[-59.0924,-18.6556,151.5773],[-59.0903,-18.6603,157.9681],[-59.086,-18.6638,151.8632],[-59.0827,-18.6628,160.1273],[-59.0806,-18.6554,156.879],[-59.0737,-18.6518,154.0085],[-59.066,-18.6519,148.6589],[-59.0659,-18.6574,151.8831],[-59.0601,-18.6566,156.7147],[-59.0526,-18.6467,147.9371],[-59.0447,-18.6476,146.8294],[-59.0453,-18.6492,148.8403],[-59.0436,-18.651,150.1138],[-59.0359,-18.6535,150.2873],[-59.0354,-18.6555,148.5622],[-59.0321,-18.6573,152.4761],[-59.0306,-18.6568,154.4258],[-59.0274,-18.6454,148.0737],[-59.0212,-18.637,141.9136],[-59.0131,-18.6362,143.7444],[-59.0064,-18.6397,146.5085],[-59.0051,-18.6431,152.6819],[-59.0021,-18.6414,145.7785],[-58.9998,-18.6421,144.283],[-59.0007,-18.6474,148.4487],[-58.9987,-18.6484,146.498],[-58.9995,-18.6503,144.2903],[-58.9976,-18.6525,144.8266],[-58.9989,-18.6545,142.9977],[-58.9976,-18.657,147.4696],[-58.9995,-18.6583,151.1887],[-58.9969,-18.6615,151.7303],[-58.9951,-18.6619,151.6919],[-58.9952,-18.6602,144.3575],[-58.9911,-18.6631,148.5138],[-58.9878,-18.6609,144.5508],[-58.9856,-18.6641,144.2895],[-58.983,-18.6645,145.3327],[-58.9775,-18.6629,144.7387],[-58.9763,-18.6637,147.5074],[-58.9764,-18.6695,148.6317],[-58.974,-18.6688,145.9527],[-58.9734,-18.6702,150.8736],[-58.9691,-18.6679,145.4846],[-58.9685,-18.6694,146.4006],[-58.9651,-18.6686,146.8272],[-58.9646,-18.6701,149.5965],[-58.9607,-18.6673,145.4904],[-58.9634,-18.6659,142.7441],[-58.9614,-18.664,141.2074],[-58.9888,-18.624,147.5096],[-59.2503,-18.1152,265.8065],[-59.5261,-18.0213,302.7462],[-59.5279,-18.0178,310.008],[-59.5279,-18.0061,338.2159],[-59.5258,-17.6467,233.6817]]]]}}