{"type":"Feature","properties":{"GID_3":"BOL.2.2.1_2","GID_0":"BOL","country":"Bolivia","GID_1":"BOL.2_1","province":"Cochabamba","NL_NAME_1":"NA","GID_2":"BOL.2.2_2","county":"Arque","NL_NAME_2":"NA","city":"Arque","VARNAME_3":"NA","NL_NAME_3":"NA","TYPE_3":"District","ENGTYPE_3":"Distrito","CC_3":"NA","HASC_3":"NA","name":"Arque.city"},
"geometry":{"type": "MultiPolygon","coordinates": [[[[-66.2517,-17.9343,4102.6943],[-66.2592,-17.9136,3968.688],[-66.2632,-17.9058,3955.0125],[-66.2696,-17.8982,3938.1655],[-66.2736,-17.8849,3913.9475],[-66.2771,-17.8788,3785.0239],[-66.2799,-17.8622,3763.2949],[-66.2911,-17.8641,3328.8303],[-66.2984,-17.8673,3078.2419],[-66.3093,-17.8674,2931.9414],[-66.3308,-17.8716,3447.7939],[-66.3377,-17.87,3265.9314],[-66.3445,-17.8579,3282.7598],[-66.3474,-17.841,3040.3213],[-66.3528,-17.8372,2994.0007],[-66.3571,-17.831,2835.8345],[-66.3616,-17.8312,2775.1084],[-66.3633,-17.8298,2841.8484],[-66.3668,-17.8185,2662.1665],[-66.3603,-17.8118,2640.5552],[-66.3612,-17.8085,2651.9629],[-66.3651,-17.8061,2705.0552],[-66.3672,-17.8026,2827.9456],[-66.3815,-17.7963,3240.8015],[-66.3885,-17.7898,3416.2505],[-66.3897,-17.7841,3554.709],[-66.394,-17.7781,3556.7839],[-66.383,-17.7662,3064.1519],[-66.3841,-17.7523,2705.1416],[-66.3825,-17.7509,2699.5461],[-66.3856,-17.7468,2837.2368],[-66.3871,-17.7398,3109.3142],[-66.3919,-17.735,3214.7629],[-66.3947,-17.72,3578.8572],[-66.3999,-17.718,3517.1726],[-66.4068,-17.7091,3547.946],[-66.4058,-17.705,3370.2686],[-66.4013,-17.7042,3210.3582],[-66.3907,-17.6986,2986.6201],[-66.4,-17.6846,3136.0449],[-66.3998,-17.679,3078.6382],[-66.4049,-17.6797,3232.9033],[-66.4115,-17.6841,3405.5381],[-66.4201,-17.6832,3591.3342],[-66.4267,-17.6873,3797.6147],[-66.4395,-17.6774,3893.4048],[-66.4574,-17.6582,3830.96],[-66.4641,-17.6542,3769.6172],[-66.4673,-17.6548,3730.1328],[-66.4719,-17.6639,3802.8516],[-66.4756,-17.6673,3866.0652],[-66.479,-17.6678,3854.7507],[-66.4854,-17.6746,3905.8811],[-66.4994,-17.6846,3778.9709],[-66.5169,-17.6944,4053.2744],[-66.5242,-17.7017,4069.0647],[-66.5276,-17.709,4076.9319],[-66.5311,-17.7102,4038.9697],[-66.5385,-17.7062,4019.9585],[-66.5413,-17.7079,4011.8735],[-66.5473,-17.7067,4009.7271],[-66.548,-17.7098,4021.2646],[-66.5525,-17.713,4069.7271],[-66.5573,-17.7197,3934.8179],[-66.5683,-17.7213,3830.9468],[-66.5841,-17.7291,3921.3608],[-66.5864,-17.733,3924.428],[-66.5804,-17.7447,4138.7588],[-66.5767,-17.7448,4169.0068],[-66.5505,-17.7763,4057.166],[-66.5409,-17.7816,4065.3586],[-66.5313,-17.7829,4056.3789],[-66.5303,-17.7847,4058.5112],[-66.5207,-17.7869,3626.4517],[-66.5167,-17.7865,3560.3169],[-66.5136,-17.7842,3433.2725],[-66.5057,-17.7849,3152.4282],[-66.5054,-17.7882,3178.5537],[-66.4995,-17.7932,3100.0061],[-66.4987,-17.799,3070.0278],[-66.4963,-17.8029,3050.8645],[-66.4906,-17.8038,3266.8706],[-66.4607,-17.8282,3406.0737],[-66.4547,-17.8355,3249.8677],[-66.4531,-17.8384,2985.6165],[-66.455,-17.8426,2887.6597],[-66.4541,-17.848,2865.9043],[-66.4513,-17.8501,2863.8267],[-66.4501,-17.8554,2952.3079],[-66.451,-17.8596,3114.3691],[-66.4568,-17.867,3540.2419],[-66.4563,-17.8789,4347.7949],[-66.4537,-17.8851,4128.667],[-66.4632,-17.9102,3890.0842],[-66.4575,-17.9135,4011.8584],[-66.4531,-17.914,4010.7468],[-66.448,-17.9177,4048.7561],[-66.4486,-17.9241,4093.9092],[-66.4514,-17.9283,4158.1289],[-66.4533,-17.9353,4314.3291],[-66.453,-17.9392,4388.3813],[-66.463,-17.9395,4386.3555],[-66.4639,-17.942,4316.8164],[-66.4628,-17.9458,4315.0869],[-66.4595,-17.949,4237.9297],[-66.4468,-17.9579,4117.8613],[-66.4428,-17.957,4102.0889],[-66.4332,-17.9631,4077.9485],[-66.4314,-17.9734,4062.2578],[-66.4193,-17.9757,4063.4819],[-66.4129,-17.9707,4021.5596],[-66.3953,-17.9633,3692.0896],[-66.3878,-17.9641,3811.821],[-66.3811,-17.9599,3700.4771],[-66.3721,-17.9581,3527.855],[-66.372,-17.9566,3501.8159],[-66.3593,-17.9569,3654.3279],[-66.3509,-17.96,3459.1865],[-66.3435,-17.9597,3344.4834],[-66.3427,-17.9569,3413.2307],[-66.3376,-17.9536,3502.0171],[-66.3268,-17.9528,3039.4158],[-66.3202,-17.9495,3125.7373],[-66.3092,-17.9618,3306.9287],[-66.2873,-17.9626,3673.4485],[-66.2809,-17.966,3744.6006],[-66.278,-17.964,3727.543],[-66.272,-17.9539,3669.6045],[-66.2665,-17.9514,3771.8977],[-66.2662,-17.9461,3753.7163],[-66.2608,-17.9392,3847.9277],[-66.2517,-17.9343,4102.6943]]]]}}