{"type": "Feature","bbox": [-69.3644,-15.1441,-68.6831,-14.498],"geometry": {"type": "MultiPolygon","coordinates": [[[[-69.1764,-15.1067,4534.9424],[-69.1841,-15.0736,4635.8262],[-69.2104,-15.0674,4508.855],[-69.212,-15.0566,4543.8911],[-69.2045,-15.0506,4531.4463],[-69.1715,-15.0413,4850.6582],[-69.149,-15.0229,4999.9531],[-69.1403,-15.0129,4957.5679],[-69.0661,-15.0138,4999.9854],[-69.0501,-15.0109,5369.7456],[-69.042,-15.0118,5584.6582],[-69.0333,-15.0244,5462.0073],[-69.0287,-15.0252,5479.6846],[-69.025,-15.0204,5465.5933],[-69.0054,-15.0104,5371.1743],[-68.9917,-14.993,5191.9141],[-68.986,-14.9665,5145.8311],[-68.9638,-14.9494,4966.0576],[-68.9042,-14.8639,4147.5781],[-68.9045,-14.8426,3703.7742],[-68.8993,-14.8247,3388.2031],[-68.8476,-14.7867,2725.4377],[-68.822,-14.7743,2800.4651],[-68.8103,-14.7432,2222.9058],[-68.8011,-14.7373,1601.1393],[-68.8008,-14.7356,1599.4792],[-68.7966,-14.7345,1438.0277],[-68.7938,-14.7286,1385.0959],[-68.7828,-14.7256,1226.5835],[-68.7796,-14.7266,1189.574],[-68.7742,-14.7231,1158.752],[-68.7737,-14.7202,1176.6268],[-68.7754,-14.7183,1103.5111],[-68.7721,-14.7154,1087.468],[-68.7686,-14.7156,1090.5289],[-68.7662,-14.712,1074.5276],[-68.7663,-14.7092,1136.5323],[-68.762,-14.7079,1090.5842],[-68.757,-14.701,1036.1506],[-68.763,-14.6976,1034.0554],[-68.7664,-14.6917,1030.4427],[-68.7634,-14.6817,1022.8568],[-68.757,-14.678,1010.0495],[-68.7563,-14.6751,1029.3292],[-68.7535,-14.6729,1033.3287],[-68.7487,-14.6705,1009.7563],[-68.7497,-14.6678,1052.9659],[-68.7473,-14.665,1040.3213],[-68.7401,-14.6631,995.3476],[-68.7407,-14.6595,1113.8081],[-68.7381,-14.6595,1064.7672],[-68.7346,-14.6621,998.7056],[-68.7308,-14.6603,991.1224],[-68.7283,-14.6532,978.7972],[-68.7246,-14.6512,978.0883],[-68.724,-14.6478,1010.1628],[-68.7212,-14.6449,990.8366],[-68.7178,-14.6467,1013.6152],[-68.7131,-14.6462,978.2266],[-68.7136,-14.6403,1081.8334],[-68.7062,-14.6382,960.879],[-68.706,-14.6437,1010.4948],[-68.7038,-14.6446,1038.2251],[-68.7021,-14.6404,955.6709],[-68.6992,-14.6395,958.3947],[-68.699,-14.6344,957.6508],[-68.6971,-14.6315,948.1889],[-68.6982,-14.6291,934.2473],[-68.6967,-14.6267,966.741],[-68.6973,-14.6221,991.4874],[-68.6938,-14.6205,933.5555],[-68.6936,-14.6156,940.9323],[-68.6831,-14.5985,902.361],[-68.6873,-14.5914,987.7322],[-68.6927,-14.594,1103.5176],[-68.697,-14.5987,1302.5238],[-68.7065,-14.5988,1456.9191],[-68.7171,-14.6038,1877.7468],[-68.741,-14.6087,2123.9441],[-68.7442,-14.6114,1897.8447],[-68.7521,-14.6137,2159.4141],[-68.7671,-14.6246,2032.5771],[-68.7742,-14.6224,2090.8848],[-68.7793,-14.6229,2109.7683],[-68.789,-14.6355,2303.3577],[-68.7994,-14.6376,2226.9487],[-68.8114,-14.6352,2439.5725],[-68.8172,-14.6304,2126.167],[-68.8225,-14.631,1920.7607],[-68.8359,-14.6494,1508.6113],[-68.8361,-14.6561,1286.4033],[-68.8399,-14.6526,1341.5049],[-68.8466,-14.6508,1355.3005],[-68.8474,-14.6476,1400.6528],[-68.8559,-14.645,1474.4364],[-68.8621,-14.6406,1588.3726],[-68.8643,-14.637,1576.0394],[-68.8735,-14.6364,1635.9888],[-68.8777,-14.6368,1692.8042],[-68.8853,-14.6431,2084.6775],[-68.8913,-14.6456,2299.708],[-68.9106,-14.6483,2907.1875],[-68.9135,-14.6519,2616.6707],[-68.9317,-14.6592,3176.1313],[-68.9342,-14.6588,3072.3577],[-68.9457,-14.6563,2430.5986],[-68.946,-14.654,2459.5156],[-68.944,-14.6529,2455.4634],[-68.9409,-14.6442,2143.8027],[-68.946,-14.6357,1989.3767],[-68.9463,-14.6286,1885.1636],[-68.9422,-14.6267,1892.9907],[-68.9372,-14.6156,1716.9406],[-68.9304,-14.609,1669.0315],[-68.9287,-14.603,1620.2136],[-68.9266,-14.6021,1594.7103],[-68.9244,-14.5938,1925.1692],[-68.9317,-14.5825,1297.3561],[-68.9469,-14.5799,1350.8732],[-68.9659,-14.5724,1378.8137],[-68.9746,-14.5619,1587.6843],[-68.986,-14.5568,1655.6609],[-68.9911,-14.5441,1578.1912],[-68.9974,-14.5337,1639.8866],[-69.002,-14.5308,1630.3085],[-69.0142,-14.5283,1715.4629],[-69.0189,-14.5293,1876.7738],[-69.0282,-14.5412,1963.7882],[-69.0331,-14.5425,1893.3602],[-69.0438,-14.5397,2040.5289],[-69.0487,-14.5323,2014.0972],[-69.0532,-14.5302,2034.8951],[-69.0558,-14.5237,2063.834],[-69.0602,-14.5213,2106.7056],[-69.0649,-14.5232,2124.5918],[-69.0689,-14.5295,2231.8423],[-69.0738,-14.5335,2291.7847],[-69.0786,-14.5325,2361.708],[-69.0843,-14.5348,2594.179],[-69.0906,-14.5348,2726.7214],[-69.1011,-14.5289,3135.646],[-69.1117,-14.5194,3496.2703],[-69.1097,-14.5081,3614.3555],[-69.1152,-14.498,4140.8208],[-69.1159,-14.5045,4143.8613],[-69.1222,-14.5095,4244.6602],[-69.1285,-14.5062,4226.6455],[-69.1358,-14.5052,4298.2769],[-69.1493,-14.5127,4417.3564],[-69.1489,-14.5162,4381.3936],[-69.144,-14.5187,4352.4829],[-69.1409,-14.5267,4175.9697],[-69.1427,-14.5348,4383.6284],[-69.1479,-14.5411,4431.4424],[-69.1476,-14.5648,4503.2993],[-69.1492,-14.5763,4429.1182],[-69.1653,-14.5835,4761.8301],[-69.1714,-14.5806,4754.1426],[-69.1778,-14.5839,4868.5371],[-69.1826,-14.5799,4927.2754],[-69.1892,-14.5789,4857.6699],[-69.1985,-14.5865,4840.9678],[-69.2255,-14.5809,5037.6304],[-69.2267,-14.5856,4872.5508],[-69.224,-14.595,5131.4561],[-69.2261,-14.5981,4932.2295],[-69.2306,-14.5991,5023.0591],[-69.2343,-14.6176,5322.9175],[-69.2297,-14.6207,5331.4648],[-69.2265,-14.6276,5745.001],[-69.2306,-14.6341,5803.2002],[-69.2404,-14.6596,5592.5981],[-69.2459,-14.6647,5484.5312],[-69.2479,-14.6702,5739.9233],[-69.251,-14.6705,5649.9409],[-69.258,-14.6855,5468.0107],[-69.2535,-14.7019,5544.4355],[-69.2429,-14.7165,5680.1108],[-69.2364,-14.7174,5540.0967],[-69.2341,-14.7231,5500.6162],[-69.2345,-14.7259,5587.4741],[-69.2262,-14.7366,5242.0371],[-69.2305,-14.7487,4603.8833],[-69.2357,-14.7556,4592.0],[-69.2423,-14.7595,4592.0],[-69.2678,-14.7673,4592.0],[-69.272,-14.7682,4592.0],[-69.2791,-14.7662,4592.0],[-69.3013,-14.7673,4592.0],[-69.3163,-14.7748,4592.0],[-69.3392,-14.7943,4596.2974],[-69.3434,-14.7938,4591.6108],[-69.3467,-14.7954,4585.8623],[-69.3523,-14.801,4575.8726],[-69.3575,-14.8128,4539.5674],[-69.355,-14.8316,4502.8975],[-69.354,-14.8579,4449.6416],[-69.3435,-14.8828,4413.627],[-69.3524,-14.9242,4376.1846],[-69.3558,-14.9293,4441.1943],[-69.3644,-14.9298,4358.1851],[-69.3604,-14.9589,4339.52],[-69.3526,-14.9749,4333.5166],[-69.3302,-14.9967,4328.5845],[-69.3264,-15.0029,4328.083],[-69.3268,-15.0051,4328.4756],[-69.3244,-15.0054,4328.5034],[-69.3257,-15.0081,4327.5435],[-69.3234,-15.0109,4328.0322],[-69.3247,-15.0122,4327.063],[-69.3228,-15.0127,4327.1602],[-69.3236,-15.0165,4327.1558],[-69.3198,-15.0227,4327.9683],[-69.3201,-15.0281,4325.5786],[-69.3152,-15.037,4324.3184],[-69.3147,-15.0425,4325.106],[-69.311,-15.04,4323.6235],[-69.311,-15.0442,4323.7729],[-69.3088,-15.044,4323.4272],[-69.3066,-15.0407,4324.1143],[-69.3054,-15.0416,4322.7646],[-69.3057,-15.0471,4323.3076],[-69.301,-15.0469,4323.0767],[-69.2997,-15.0484,4323.8271],[-69.3044,-15.0542,4322.1846],[-69.2997,-15.0608,4322.8047],[-69.2992,-15.0655,4322.4092],[-69.2965,-15.0682,4320.9741],[-69.2989,-15.0709,4320.6606],[-69.2948,-15.0718,4321.2236],[-69.2957,-15.0744,4322.645],[-69.2915,-15.0745,4320.7417],[-69.2902,-15.0824,4320.4717],[-69.2935,-15.0833,4322.0181],[-69.2927,-15.0854,4322.1523],[-69.2872,-15.0834,4319.9199],[-69.2855,-15.0969,4319.8628],[-69.2816,-15.0944,4319.4639],[-69.2827,-15.0992,4318.8809],[-69.28,-15.1008,4318.4775],[-69.28,-15.1026,4318.959],[-69.2772,-15.1024,4318.4492],[-69.2732,-15.1046,4319.6104],[-69.2741,-15.1067,4319.3057],[-69.278,-15.1084,4319.043],[-69.2771,-15.1115,4320.375],[-69.2739,-15.1123,4318.645],[-69.2736,-15.1082,4319.0],[-69.2715,-15.1078,4318.5444],[-69.2711,-15.1051,4318.1802],[-69.2696,-15.1049,4317.9927],[-69.2684,-15.1056,4319.5952],[-69.2698,-15.109,4317.7793],[-69.2673,-15.1101,4317.5723],[-69.2685,-15.1158,4318.3652],[-69.2674,-15.1169,4317.4683],[-69.2657,-15.1167,4317.2778],[-69.2634,-15.1102,4317.0073],[-69.2584,-15.1108,4317.3789],[-69.2577,-15.1136,4316.9189],[-69.2518,-15.1117,4315.8149],[-69.2481,-15.1154,4316.146],[-69.2434,-15.1121,4317.3975],[-69.2439,-15.1148,4315.2705],[-69.2412,-15.1178,4315.7876],[-69.2443,-15.12,4315.6953],[-69.2442,-15.1217,4315.8364],[-69.2414,-15.1225,4315.6016],[-69.2368,-15.1196,4314.6777],[-69.2371,-15.1233,4314.5884],[-69.2334,-15.1236,4314.8892],[-69.2342,-15.1266,4314.8589],[-69.23,-15.1285,4314.334],[-69.2295,-15.1326,4313.7314],[-69.2258,-15.1312,4315.1128],[-69.2243,-15.1366,4314.2852],[-69.2171,-15.1366,4313.353],[-69.2151,-15.1424,4313.1709],[-69.212,-15.1441,4314.1104],[-69.2014,-15.1324,4343.6328],[-69.1855,-15.1252,4405.292],[-69.1764,-15.1067,4534.9424]]]]}
,"properties": {"GID_3": "BOL.4.7.2_2","GID_0": "BOL","country": "Bolivia","GID_1": "BOL.4_1","province": "LaPaz","NL_NAME_1": "NA","GID_2": "BOL.4.7_2","county": "FranzTamayo","NL_NAME_2": "NA","city": "Pelechuco","VARNAME_3": "NA","NL_NAME_3": "NA","TYPE_3": "District","ENGTYPE_3": "Distrito","CC_3": "NA","HASC_3": "NA","name": "Pelechuco.city","area_km2": 2457.4,"hist_schema_id": "Elevation0-9000","hist_area_km2": {"900": 0.636,"925": 0.205,"950": 0.656,"975": 0.944,"1000": 1.026,"1025": 0.8,"1050": 1.333,"1075": 1.21,"1100": 1.764,"1125": 1.682,"1150": 1.559,"1175": 2.133,"1200": 2.482,"1225": 2.728,"1250": 2.379,"1275": 3.241,"1300": 3.179,"1325": 3.507,"1350": 4.123,"1375": 3.897,"1400": 4.861,"1425": 3.835,"1450": 5.251,"1475": 5.476,"1500": 5.456,"1525": 5.046,"1550": 6.071,"1575": 6.379,"1600": 6.01,"1625": 7.179,"1650": 6.522,"1675": 6.42,"1700": 8.04,"1725": 7.24,"1750": 7.732,"1775": 6.748,"1800": 7.466,"1825": 7.774,"1850": 7.302,"1875": 7.978,"1900": 7.056,"1925": 7.835,"1950": 8.04,"1975": 6.973,"2000": 8.43,"2025": 7.897,"2050": 7.589,"2075": 7.486,"2100": 7.322,"2125": 7.896,"2150": 7.507,"2175": 7.343,"2200": 7.363,"2225": 7.281,"2250": 7.302,"2275": 6.686,"2300": 6.973,"2325": 7.65,"2350": 6.789,"2375": 7.179,"2400": 7.137,"2425": 6.932,"2450": 6.83,"2475": 7.301,"2500": 7.383,"2525": 6.809,"2550": 7.589,"2575": 7.527,"2600": 7.691,"2625": 7.301,"2650": 7.096,"2675": 7.465,"2700": 7.322,"2725": 7.527,"2750": 7.65,"2775": 6.276,"2800": 7.219,"2825": 6.911,"2850": 6.788,"2875": 6.891,"2900": 6.891,"2925": 6.891,"2950": 6.911,"2975": 6.747,"3000": 6.296,"3025": 7.301,"3050": 6.706,"3075": 6.809,"3100": 6.849,"3125": 7.055,"3150": 6.911,"3175": 6.418,"3200": 6.542,"3225": 6.726,"3250": 6.726,"3275": 7.362,"3300": 7.28,"3325": 7.874,"3350": 7.034,"3375": 7.792,"3400": 7.977,"3425": 7.444,"3450": 8.08,"3475": 9.105,"3500": 8.838,"3525": 9.597,"3550": 9.679,"3575": 10.848,"3600": 10.438,"3625": 10.068,"3650": 11.278,"3675": 11.217,"3700": 10.376,"3725": 10.704,"3750": 10.95,"3775": 11.339,"3800": 11.134,"3825": 11.544,"3850": 11.298,"3875": 11.38,"3900": 12.344,"3925": 12.282,"3950": 11.832,"3975": 12.303,"4000": 12.036,"4025": 13.246,"4050": 12.159,"4075": 12.57,"4100": 12.795,"4125": 13.348,"4150": 13.369,"4175": 13.861,"4200": 14.209,"4225": 14.25,"4250": 14.619,"4275": 15.377,"4300": 16.238,"4325": 89.983,"4350": 66.942,"4375": 50.05,"4400": 47.882,"4425": 46.697,"4450": 44.282,"4475": 40.841,"4500": 37.995,"4525": 54.92,"4550": 44.514,"4575": 41.502,"4600": 50.747,"4625": 50.476,"4650": 44.103,"4675": 42.648,"4700": 38.958,"4725": 37.728,"4750": 36.478,"4775": 34.818,"4800": 34.859,"4825": 34.858,"4850": 35.044,"4875": 31.54,"4900": 28.219,"4925": 26.948,"4950": 25.474,"4975": 22.215,"5000": 20.822,"5025": 21.437,"5050": 20.781,"5075": 18.609,"5100": 18.281,"5125": 17.175,"5150": 16.437,"5175": 15.106,"5200": 13.773,"5225": 13.261,"5250": 12.647,"5275": 10.987,"5300": 11.028,"5325": 9.655,"5350": 9.04,"5375": 7.441,"5400": 7.318,"5425": 6.642,"5450": 6.109,"5475": 5.7,"5500": 5.515,"5525": 4.182,"5550": 3.629,"5575": 2.686,"5600": 1.784,"5625": 1.476,"5650": 1.169,"5675": 0.902,"5700": 0.615,"5725": 0.431,"5750": 0.677,"5775": 0.267,"5800": 0.328,"5825": 0.287,"5850": 0.144,"5875": 0.164,"5900": 0.144,"5925": 0.082,"5950": 0.123,"5975": 0.021,"6000": 0.041}}}