{"type":"Feature","properties":{"GID_3":"BOL.9.1.1_2","GID_0":"BOL","country":"Bolivia","GID_1":"BOL.9_1","province":"Tarija","NL_NAME_1":"NA","GID_2":"BOL.9.1_2","county":"Arce","NL_NAME_2":"NA","city":"Bermejo","VARNAME_3":"NA","NL_NAME_3":"NA","TYPE_3":"District","ENGTYPE_3":"Distrito","CC_3":"NA","HASC_3":"NA","name":"Bermejo.city"},
"geometry":{"type": "MultiPolygon","coordinates": [[[[-64.2981,-22.8566,352.1903],[-64.2981,-22.8529,354.144],[-64.3066,-22.840699999999998,356.8782],[-64.305,-22.8378,359.4747],[-64.2878,-22.8361,354.6922],[-64.2845,-22.8298,356.3975],[-64.2863,-22.808,363.5394],[-64.2851,-22.7953,363.3676],[-64.2769,-22.7912,367.8749],[-64.2757,-22.7888,370.7252],[-64.2785,-22.7838,372.9415],[-64.2776,-22.7784,366.3362],[-64.2676,-22.7701,369.8532],[-64.2651,-22.7641,372.0898],[-64.2674,-22.7577,372.9308],[-64.2788,-22.7552,371.885],[-64.2835,-22.752,372.4193],[-64.2814,-22.7475,372.5847],[-64.2752,-22.7446,373.3162],[-64.2679,-22.7444,374.5557],[-64.2641,-22.7408,369.8874],[-64.269,-22.7395,370.7561],[-64.2701,-22.737,370.4395],[-64.2707,-22.7343,373.6471],[-64.2673,-22.728,374.5618],[-64.2717,-22.7164,377.7274],[-64.2711,-22.7083,376.1447],[-64.2639,-22.7009,381.1051],[-64.2648,-22.696,378.1831],[-64.2616,-22.6872,379.7489],[-64.2612,-22.6763,385.2197],[-64.2572,-22.6721,384.2061],[-64.2444,-22.6706,387.3701],[-64.2422,-22.6653,387.4886],[-64.2645,-22.65,385.6001],[-64.2561,-22.6283,391.8358],[-64.2476,-22.6329,393.2673],[-64.2412,-22.6274,393.6682],[-64.2389,-22.6206,399.4574],[-64.2379,-22.6087,398.3444],[-64.2432,-22.5986,397.623],[-64.2441,-22.58,397.2812],[-64.2428,-22.5639,402.8911],[-64.4124,-22.5657,515.1428],[-64.4171,-22.5748,510.7104],[-64.4233,-22.5782,507.485],[-64.4302,-22.5787,505.3653],[-64.4318,-22.5814,503.3112],[-64.429,-22.5862,501.7271],[-64.425,-22.5871,505.0472],[-64.425,-22.5886,512.7415],[-64.4297,-22.5985,493.9569],[-64.426,-22.6039,498.9913],[-64.4289,-22.6079,490.7198],[-64.4289,-22.6171,497.5271],[-64.4348,-22.6232,483.0129],[-64.4329,-22.6281,508.1837],[-64.4339,-22.6311,495.1177],[-64.4322,-22.6328,486.3081],[-64.4251,-22.6296,481.3663],[-64.4239,-22.6353,477.5329],[-64.4272,-22.639,482.0131],[-64.4351,-22.6346,475.7277],[-64.4402,-22.6355,470.6937],[-64.4423,-22.638,479.3884],[-64.4352,-22.6424,467.4217],[-64.4338,-22.6484,474.3618],[-64.4312,-22.651,464.5828],[-64.4145,-22.657,480.5152],[-64.4186,-22.6708,463.7103],[-64.4155,-22.679,457.8339],[-64.3981,-22.6833,440.5326],[-64.3944,-22.6881,437.5513],[-64.3946,-22.6902,438.3513],[-64.4009,-22.6974,435.7499],[-64.3974,-22.7063,445.1318],[-64.3974,-22.7101,428.6315],[-64.3922,-22.7102,427.9497],[-64.3914,-22.7126,431.5994],[-64.4016,-22.7153,433.2638],[-64.403,-22.7194,421.9812],[-64.3982,-22.7202,421.9849],[-64.3948,-22.7186,418.7153],[-64.3917,-22.7222,415.0111],[-64.3892,-22.7225,419.5572],[-64.3848,-22.7177,416.7362],[-64.3812,-22.7174,421.0115],[-64.374,-22.7212,409.9909],[-64.3724,-22.7274,405.73],[-64.3651,-22.7238,402.0403],[-64.3612,-22.7243,403.0618],[-64.3525,-22.7309,403.2152],[-64.3491,-22.7388,398.4213],[-64.3417,-22.7493,390.97],[-64.3407,-22.7524,392.8689],[-64.3422,-22.7641,387.342],[-64.3393,-22.7684,387.1897],[-64.3383,-22.778,380.4268],[-64.3397,-22.7851,379.1969],[-64.3442,-22.7935,376.8156],[-64.3422,-22.8066,373.6837],[-64.3343,-22.808,365.0307],[-64.3306,-22.8121,364.014],[-64.3287,-22.8312,358.3521],[-64.3268,-22.8365,359.1232],[-64.3286,-22.8625,353.5481],[-64.3314,-22.8631,353.407],[-64.3377,-22.8557,350.1795],[-64.3407,-22.8583,349.0911],[-64.3388,-22.8682,349.5157],[-64.3344,-22.8741,353.588],[-64.3281,-22.8722,352.1595],[-64.3245,-22.8742,351.7994],[-64.3205,-22.8684,351.5749],[-64.3148,-22.8671,351.7639],[-64.3128,-22.8721,346.7145],[-64.3172,-22.8813,344.6183],[-64.3157,-22.8828,345.1407],[-64.3116,-22.882,348.2487],[-64.3095,-22.8645,350.8915],[-64.3073,-22.8619,352.3175],[-64.2981,-22.8622,347.9853],[-64.2981,-22.8566,352.1903]]]]}}