{"type":"Feature","properties":{"GID_3":"BOL.8.6.1_2","GID_0":"BOL","country":"Bolivia","GID_1":"BOL.8_1","province":"SantaCruz","NL_NAME_1":"NA","GID_2":"BOL.8.6_2","county":"GermánBusch","NL_NAME_2":"NA","city":"ElCarmenRiveroTórrez","VARNAME_3":"NA","NL_NAME_3":"NA","TYPE_3":"District","ENGTYPE_3":"Distrito","CC_3":"NA","HASC_3":"NA","name":"El_Carmen_Rivero_Tórrez.city"},
"geometry":{"type": "MultiPolygon","coordinates": [[[[-59.2503,-18.1152,265.8065],[-58.9888,-18.624,147.5096],[-58.8704,-18.7968,136.8658],[-58.9864,-18.9853,164.9357],[-58.4052,-18.9907,181.1963],[-58.4044,-18.8904,107.7224],[-57.9408,-18.8255,86.5071],[-58.2296,-18.213,210.9468],[-58.0338,-17.9968,203.0661],[-58.8048,-17.9708,220.3914],[-59.2503,-18.1152,265.8065]]]]}}