{"type":"Feature","properties":{"GID_3":"BOL.1.4.3_2","GID_0":"BOL","country":"Bolivia","GID_1":"BOL.1_1","province":"Chuquisaca","NL_NAME_1":"NA","GID_2":"BOL.1.4_2","county":"LuisCalvo","NL_NAME_2":"NA","city":"VillaVacaGuzmán","VARNAME_3":"NA","NL_NAME_3":"NA","TYPE_3":"District","ENGTYPE_3":"Distrito","CC_3":"NA","HASC_3":"NA","name":"Villa_Vaca_Guzmán.city"},
"geometry":{"type": "MultiPolygon","coordinates": [[[[-63.8677,-21.0037,678.1966],[-63.724,-21.0037,1140.8185],[-63.7175,-20.987,1194.7277],[-63.7139,-20.9843,1181.3154],[-63.7199,-20.9778,1187.998],[-63.7186,-20.971,1229.8596],[-63.7212,-20.9574,1087.1495],[-63.7232,-20.9539,996.9865],[-63.7307,-20.9535,1057.3137],[-63.7312,-20.9511,1079.1809],[-63.7293,-20.9455,1145.1233],[-63.7244,-20.9424,1166.8491],[-63.7239,-20.9398,1172.4432],[-63.7277,-20.9373,1163.8411],[-63.7288,-20.9315,1026.6675],[-63.7266,-20.9255,1112.3684],[-63.726,-20.916,1106.728],[-63.7206,-20.9131,900.9894],[-63.7153,-20.9062,851.0237],[-63.7103,-20.8819,1341.1995],[-63.7069,-20.8787,1271.8145],[-63.7087,-20.8721,1004.8381],[-63.7074,-20.8686,932.166],[-63.7106,-20.8649,1025.828],[-63.7156,-20.863,1035.6899],[-63.7194,-20.8585,1319.084],[-63.7199,-20.8458,1110.8984],[-63.7223,-20.8385,1102.0046],[-63.7222,-20.8208,1251.2808],[-63.7198,-20.8076,1037.2426],[-63.7218,-20.7718,1356.0684],[-63.7176,-20.7581,1464.2052],[-63.7147,-20.7553,1483.1405],[-63.7146,-20.7511,1573.5466],[-63.719,-20.7451,1469.3079],[-63.7175,-20.7356,1505.9187],[-63.7207,-20.7274,1403.8925],[-63.7187,-20.7212,1386.616],[-63.7194,-20.7167,1487.2019],[-63.7128,-20.7046,1435.0319],[-63.7141,-20.7002,1488.4885],[-63.7112,-20.6916,1518.5554],[-63.711,-20.6856,1512.0765],[-63.702,-20.6716,1602.3536],[-63.6976,-20.6678,1627.3359],[-63.6963,-20.6582,1535.677],[-63.6946,-20.6555,1570.0348],[-63.6957,-20.6406,1555.9336],[-63.6934,-20.6358,1487.9698],[-63.6937,-20.6265,1387.9302],[-63.6877,-20.62,1491.7053],[-63.687,-20.6134,1632.3016],[-63.684,-20.612,1546.9379],[-63.6834,-20.6065,1632.5067],[-63.6769,-20.5939,1747.2787],[-63.6756,-20.5877,1615.0909],[-63.6767,-20.5789,1706.4805],[-63.6735,-20.5773,1691.1077],[-63.6715,-20.5715,1718.6785],[-63.6734,-20.5557,1750.861],[-63.6591,-20.5381,1629.6183],[-63.6576,-20.5326,1763.238],[-63.6597,-20.5253,1701.394],[-63.664,-20.5228,1703.0643],[-63.6666,-20.514,1733.9874],[-63.6666,-20.5078,1605.0654],[-63.6686,-20.5012,1640.7694],[-63.6673,-20.4963,1596.5503],[-63.669,-20.4904,1388.6248],[-63.6656,-20.4849,1537.3621],[-63.6672,-20.4732,1640.4336],[-63.6842,-20.4651,1425.7859],[-63.6923,-20.4359,1301.7759],[-63.6908,-20.4288,1238.2501],[-63.6935,-20.4237,1212.1316],[-63.6957,-20.394,1166.2355],[-63.6939,-20.3917,1182.4446],[-63.6934,-20.3793,1138.8744],[-63.692,-20.3782,1159.3082],[-63.6942,-20.3696,1120.5519],[-63.6929,-20.3683,1131.2748],[-63.6924,-20.3454,1153.7625],[-63.6947,-20.3311,1102.7777],[-63.6969,-20.3297,1094.175],[-63.6961,-20.321,1064.9286],[-63.6983,-20.3074,1047.0603],[-63.6963,-20.2987,1023.5748],[-63.6987,-20.2957,1022.1352],[-63.7008,-20.2824,994.4028],[-63.6942,-20.2779,1008.1168],[-63.6966,-20.277,1017.9985],[-63.6969,-20.2744,980.4602],[-63.7018,-20.2687,980.8192],[-63.6996,-20.2646,969.9693],[-63.7049,-20.2603,990.6366],[-63.7025,-20.2573,986.5411],[-63.7062,-20.257,961.4171],[-63.7076,-20.2543,971.5417],[-63.7024,-20.2465,957.4464],[-63.698,-20.2438,954.4866],[-63.6985,-20.2401,968.3504],[-63.695,-20.2405,953.6722],[-63.6937,-20.237,959.3867],[-63.695,-20.2346,948.3367],[-63.6936,-20.2341,957.7731],[-63.6921,-20.2295,952.4617],[-63.6868,-20.226,943.219],[-63.688,-20.2195,948.0813],[-63.6835,-20.2161,934.0645],[-63.6808,-20.2084,926.6535],[-63.6845,-20.205,926.6597],[-63.6848,-20.1988,951.4139],[-63.6893,-20.1984,916.9354],[-63.691,-20.196,918.4636],[-63.6875,-20.1891,911.1762],[-63.692,-20.1902,927.1947],[-63.6981,-20.187,1096.7593],[-63.6963,-20.1728,1076.0918],[-63.6969,-20.1623,1308.6555],[-63.692,-20.1566,1152.1329],[-63.6923,-20.1487,898.5151],[-63.6986,-20.1469,1231.0767],[-63.6987,-20.14,1324.2336],[-63.7021,-20.1347,1322.7148],[-63.7024,-20.1306,1287.7014],[-63.7051,-20.1293,1461.4357],[-63.7058,-20.1264,1489.2863],[-63.7157,-20.1248,1406.3352],[-63.7258,-20.1157,1444.2745],[-63.7229,-20.1074,1412.2603],[-63.7266,-20.1048,1521.0901],[-63.727,-20.101,1421.5988],[-63.7252,-20.0948,1432.7721],[-63.7282,-20.0711,1608.9611],[-63.7255,-20.0658,1595.907],[-63.7289,-20.058,1568.5001],[-63.728,-20.0471,1534.4583],[-63.7294,-20.0406,1716.8954],[-63.7318,-20.0384,1756.0684],[-63.7322,-20.0267,1708.7793],[-63.7284,-20.021,1596.8235],[-63.7305,-20.0133,1615.8628],[-63.7286,-20.0074,1665.3005],[-63.7295,-20.0037,1614.9629],[-63.7269,-20.0,1621.6975],[-63.7278,-19.9954,1619.8958],[-63.7267,-19.9924,1587.3137],[-63.728,-19.9894,1590.2347],[-63.7217,-19.969,1567.2867],[-63.7218,-19.9614,1721.297],[-63.7164,-19.952,1784.1743],[-63.715,-19.9376,1732.1272],[-63.7177,-19.9207,1646.3529],[-63.7159,-19.9156,1707.0405],[-63.7198,-19.908,1659.5911],[-63.7177,-19.8889,1822.8821],[-63.7127,-19.8782,1678.178],[-63.7132,-19.8729,1791.0708],[-63.71,-19.8669,1861.2712],[-63.709,-19.8611,1882.5417],[-63.712,-19.8339,1825.4094],[-63.7158,-19.8267,1879.4775],[-63.7204,-19.8104,1574.4954],[-63.72,-19.7991,1747.4235],[-63.7164,-19.7917,1778.12],[-63.7197,-19.7779,1603.8116],[-63.7194,-19.7618,1635.9557],[-63.7216,-19.7537,1600.2959],[-63.7182,-19.7426,1608.4095],[-63.7183,-19.7328,1523.6072],[-63.7203,-19.7291,1496.9742],[-63.7179,-19.7237,1493.7729],[-63.717,-19.7001,1532.588],[-63.7141,-19.6914,1589.4901],[-63.7141,-19.6849,1716.9639],[-63.7115,-19.6739,1647.9451],[-63.7009,-19.6546,1581.318],[-63.7014,-19.6451,1542.9312],[-63.7071,-19.6365,1567.0398],[-63.7045,-19.6255,1330.9578],[-63.7055,-19.6136,1477.9307],[-63.7002,-19.6093,1463.6707],[-63.6981,-19.602,1500.9752],[-63.6941,-19.6026,1462.3231],[-63.6936,-19.5954,1467.5541],[-63.6922,-19.5944,1430.9202],[-63.6975,-19.5886,1393.0344],[-63.7022,-19.5867,1465.6296],[-63.7046,-19.5766,1405.6787],[-63.7102,-19.5729,1498.8448],[-63.7119,-19.5561,1424.6077],[-63.7103,-19.5526,1376.4866],[-63.7136,-19.5503,1371.4529],[-63.7116,-19.5482,1311.3533],[-63.7115,-19.545,1344.3884],[-63.7094,-19.5462,1319.7268],[-63.7081,-19.5435,1314.8235],[-63.7105,-19.5362,1233.7312],[-63.7072,-19.5281,1253.707],[-63.7098,-19.5129,1300.6633],[-63.708,-19.5092,1362.1406],[-63.7022,-19.5057,1434.6907],[-63.7045,-19.5029,1379.9536],[-63.7056,-19.4939,1411.0734],[-63.7032,-19.4842,1521.2625],[-63.708,-19.4735,1460.9921],[-63.7061,-19.4693,1458.7365],[-63.7178,-19.4396,1520.9587],[-63.7149,-19.428,1376.5498],[-63.7154,-19.4234,1373.6305],[-63.7183,-19.4221,1359.5568],[-63.7209,-19.4173,1308.189],[-63.7171,-19.4069,1287.5348],[-63.7169,-19.4019,1213.7112],[-63.7182,-19.3981,1160.9847],[-63.7245,-19.3931,824.3642],[-63.7174,-19.3807,1281.9463],[-63.713,-19.3765,1355.1821],[-63.7185,-19.3701,1276.8928],[-63.7201,-19.3655,1234.5365],[-63.7254,-19.3635,1252.1448],[-63.729,-19.3492,1266.7019],[-63.7232,-19.3443,1184.8107],[-63.7253,-19.3399,1208.4462],[-63.7206,-19.3349,1245.3202],[-63.7209,-19.3217,1200.9575],[-63.7179,-19.3168,1302.3558],[-63.7197,-19.3124,1301.9026],[-63.7189,-19.2794,1255.6661],[-63.7145,-19.2721,1241.6396],[-63.7178,-19.2611,1267.7316],[-63.7226,-19.2525,1326.3121],[-63.7228,-19.2433,1239.5254],[-63.728,-19.2271,1292.186],[-63.7377,-19.216,1285.438],[-63.7393,-19.2087,1352.4376],[-63.7356,-19.2034,1401.2253],[-63.7445,-19.1852,1347.6752],[-63.7437,-19.1805,1278.9775],[-63.7456,-19.175,1299.1215],[-63.7438,-19.1592,1330.9696],[-63.7397,-19.1482,1216.3143],[-63.7363,-19.1465,1144.5757],[-63.7343,-19.1325,838.1977],[-63.7319,-19.1302,743.5061],[-63.7312,-19.1261,659.1759],[-63.7225,-19.1194,640.5036],[-63.7202,-19.1159,627.6201],[-63.7206,-19.1138,624.0139],[-63.7186,-19.113,657.7507],[-63.7202,-19.1099,616.7449],[-63.7191,-19.1061,610.6783],[-63.7204,-19.1003,606.9098],[-63.7188,-19.0975,595.9913],[-63.717,-19.0973,595.9913],[-63.7154,-19.0852,602.0173],[-63.711,-19.0767,570.2122],[-63.7115,-19.0735,569.3528],[-63.7137,-19.0712,589.9471],[-63.709,-19.0653,571.9411],[-63.7083,-19.0541,550.1132],[-63.7095,-19.0518,541.0021],[-63.7067,-19.0501,537.3104],[-63.7079,-19.0452,536.4278],[-63.7052,-19.0431,529.7347],[-63.7165,-19.0446,516.8679],[-63.7221,-19.0477,516.3727],[-63.7231,-19.0462,517.2997],[-63.7212,-19.0415,526.0491],[-63.7218,-19.0379,516.4158],[-63.7306,-19.03,546.3398],[-63.7366,-19.032,519.1923],[-63.7363,-19.0391,527.8803],[-63.7431,-19.0422,526.4753],[-63.7546,-19.0362,542.1573],[-63.761,-19.0359,530.6423],[-63.7647,-19.0329,549.0101],[-63.7699,-19.0319,531.9125],[-63.7805,-19.0367,546.6223],[-63.7814,-19.0391,541.6826],[-63.7776,-19.0469,548.5122],[-63.7786,-19.0491,557.9641],[-63.7948,-19.0435,566.7998],[-63.8095,-19.0551,621.6575],[-63.8141,-19.046,628.9116],[-63.8232,-19.0493,609.3435],[-63.8305,-19.0494,648.6367],[-63.8327,-19.0512,600.7838],[-63.8389,-19.0496,622.9857],[-63.8419,-19.0411,625.7239],[-63.8452,-19.0399,580.0369],[-63.8477,-19.0366,571.7296],[-63.8564,-19.037,572.9473],[-63.862,-19.0355,581.3471],[-63.8661,-19.0381,622.5522],[-63.8716,-19.0374,589.1334],[-63.8844,-19.0294,675.4423],[-63.8903,-19.0302,589.3519],[-63.8912,-19.0336,641.1425],[-63.8952,-19.0355,588.295],[-63.9017,-19.0317,584.0851],[-63.9043,-19.0366,604.7916],[-63.898,-19.0422,640.7371],[-63.8969,-19.0459,642.7301],[-63.8987,-19.0469,592.0142],[-63.9045,-19.0458,600.4494],[-63.9076,-19.0481,590.5],[-63.9111,-19.0637,599.0171],[-63.9096,-19.0841,604.6224],[-63.9107,-19.0882,622.331],[-63.9043,-19.0956,600.4956],[-63.9055,-19.0989,645.571],[-63.9092,-19.099,616.0853],[-63.9101,-19.1006,605.2665],[-63.9049,-19.1112,612.6107],[-63.9081,-19.1139,613.8773],[-63.9074,-19.1178,610.9138],[-63.9101,-19.1206,611.5806],[-63.9117,-19.1272,630.8104],[-63.9137,-19.1291,610.7716],[-63.9087,-19.1332,610.751],[-63.9132,-19.1528,625.3501],[-63.908,-19.1557,623.4847],[-63.9072,-19.1603,621.1082],[-63.9199,-19.1698,624.4836],[-63.9246,-19.1763,620.5632],[-63.9196,-19.179,626.5415],[-63.9195,-19.1833,650.9623],[-63.9248,-19.1843,633.8315],[-63.9303,-19.1819,627.6892],[-63.9311,-19.1783,634.6631],[-63.9343,-19.1775,672.2116],[-63.9421,-19.1785,654.3253],[-63.9454,-19.1829,634.9363],[-63.9498,-19.1756,643.0549],[-63.9531,-19.1751,639.7249],[-63.9554,-19.1768,656.7864],[-63.9605,-19.1734,642.1674],[-63.9701,-19.1804,661.1414],[-63.9782,-19.1787,660.683],[-63.9937,-19.1821,663.9807],[-64.0043,-19.1796,711.965],[-64.0064,-19.1764,670.3204],[-64.0086,-19.1761,750.8902],[-64.009,-19.1796,780.5223],[-64.013,-19.1833,670.204],[-64.0081,-19.1884,694.9044],[-64.0095,-19.1931,673.2078],[-64.0089,-19.2007,679.1097],[-64.0042,-19.2017,677.6911],[-63.9997,-19.2085,682.9788],[-64.0002,-19.2135,685.1603],[-64.0045,-19.2154,693.4133],[-63.999,-19.2204,692.0982],[-63.9981,-19.2258,740.6583],[-64.0005,-19.2287,690.5],[-64.0003,-19.2327,702.8076],[-63.9972,-19.2326,710.3266],[-63.9967,-19.2338,716.4135],[-63.9988,-19.2365,710.3536],[-63.9971,-19.2444,726.3975],[-63.9998,-19.2517,786.4882],[-63.9953,-19.2556,719.8405],[-63.9989,-19.2586,777.4741],[-64.0026,-19.2704,742.9001],[-63.9951,-19.2743,742.0458],[-63.9966,-19.2777,743.1062],[-63.9957,-19.2827,739.7695],[-63.9999,-19.2827,757.1032],[-63.9984,-19.2878,752.7278],[-64.0027,-19.286,767.2339],[-64.0038,-19.2869,780.6104],[-64.0008,-19.2942,745.8608],[-64.0027,-19.3065,754.9477],[-63.9993,-19.3095,800.0664],[-63.9957,-19.3082,749.9501],[-63.9938,-19.3139,755.4634],[-63.9947,-19.3159,749.5715],[-63.9967,-19.3124,770.8392],[-63.9981,-19.3132,752.7432],[-63.9982,-19.3178,774.0253],[-64.0002,-19.3211,779.0455],[-63.9988,-19.3227,760.0117],[-63.9956,-19.3206,769.7043],[-63.9878,-19.3216,784.564],[-63.9919,-19.3243,772.7948],[-63.9923,-19.3266,784.3055],[-63.9882,-19.336,805.1515],[-63.9937,-19.3352,814.9453],[-63.9936,-19.3414,781.7139],[-63.9959,-19.3446,809.6357],[-63.9941,-19.3458,784.4319],[-63.9924,-19.3442,840.9589],[-63.99,-19.3459,869.5616],[-63.9895,-19.3514,790.9705],[-63.9914,-19.3557,791.2806],[-63.9847,-19.3627,798.9564],[-63.9821,-19.3688,803.5312],[-63.979,-19.3701,807.5414],[-63.9808,-19.3718,805.8221],[-63.9852,-19.3709,828.6528],[-63.987,-19.3814,853.9564],[-63.986,-19.3829,817.8712],[-63.9785,-19.3834,816.8787],[-63.9775,-19.3879,829.5061],[-63.98,-19.3908,836.5786],[-63.9838,-19.392,824.8333],[-63.9863,-19.3875,857.1243],[-63.9877,-19.3873,851.4669],[-63.9868,-19.3969,879.233],[-63.9848,-19.3994,844.5375],[-63.976,-19.4011,921.7111],[-63.973,-19.4102,890.6125],[-63.9753,-19.4167,867.7025],[-63.9696,-19.419,918.5505],[-63.9717,-19.4223,869.9021],[-63.9696,-19.4266,881.4406],[-63.9667,-19.4268,890.4225],[-63.9647,-19.4248,865.8737],[-63.9631,-19.4261,924.0537],[-63.9673,-19.4335,891.411],[-63.9643,-19.4341,898.0786],[-63.9601,-19.439,889.5746],[-63.9572,-19.4376,887.7872],[-63.9552,-19.4405,936.9724],[-63.9562,-19.4423,867.7787],[-63.962,-19.4444,938.7438],[-63.9629,-19.447,872.3603],[-63.9612,-19.4528,905.8538],[-63.9666,-19.4551,895.3512],[-63.9679,-19.4619,990.4449],[-63.9704,-19.4608,936.3326],[-63.9708,-19.4649,885.9137],[-63.969,-19.4684,884.272],[-63.9722,-19.4711,887.4755],[-63.9688,-19.4729,895.2837],[-63.9625,-19.4729,995.8442],[-63.9557,-19.4678,1021.8397],[-63.9509,-19.4674,1064.0891],[-63.9324,-19.4712,1433.8402],[-63.9272,-19.4764,1792.5311],[-63.9225,-19.4772,1827.608],[-63.9205,-19.4855,1882.5179],[-63.9153,-19.4928,1688.9865],[-63.913,-19.5063,1788.6807],[-63.9155,-19.5216,2129.8091],[-63.9103,-19.5414,1888.108],[-63.9108,-19.5525,2006.632],[-63.9078,-19.5721,1954.8049],[-63.908,-19.6079,1978.6022],[-63.9101,-19.6135,2051.8804],[-63.9024,-19.635,1953.5105],[-63.9048,-19.6481,2007.314],[-63.9049,-19.6605,2146.8164],[-63.9011,-19.7141,2003.3387],[-63.9029,-19.732,1748.322],[-63.8896,-19.7783,1632.9551],[-63.887,-19.7929,1373.0449],[-63.8746,-19.8195,1467.9482],[-63.8643,-19.8371,1392.5734],[-63.8474,-19.8563,1627.8433],[-63.8462,-19.8851,1667.137],[-63.8408,-19.8902,1719.6365],[-63.8381,-19.9016,1733.3422],[-63.84,-19.9057,1703.1896],[-63.839,-19.9361,1703.1174],[-63.84,-19.9717,1737.0245],[-63.8437,-19.9785,1667.1814],[-63.8449,-19.9876,1639.6257],[-63.8406,-19.9936,1633.0693],[-63.8393,-20.0375,1783.8452],[-63.8423,-20.049,1740.0173],[-63.8448,-20.1134,1293.061],[-63.8383,-20.1288,1295.6115],[-63.8395,-20.1467,1221.7698],[-63.8354,-20.1609,1045.1333],[-63.8371,-20.1689,1055.9199],[-63.8362,-20.2273,1180.1606],[-63.8324,-20.2767,1258.3756],[-63.8362,-20.2969,1209.0339],[-63.8347,-20.3228,1103.676],[-63.8312,-20.3173,1130.7115],[-63.8252,-20.3149,1149.2017],[-63.8257,-20.3136,1140.8932],[-63.8244,-20.3129,1193.4954],[-63.8202,-20.3129,1199.927],[-63.8166,-20.3173,1199.6816],[-63.8179,-20.3338,1281.4518],[-63.8168,-20.3437,1319.0421],[-63.8183,-20.3448,1370.1718],[-63.8196,-20.378,1271.2582],[-63.8212,-20.3842,1268.0601],[-63.8098,-20.3866,1338.9744],[-63.8052,-20.4013,1544.6754],[-63.8052,-20.4267,1595.2765],[-63.8032,-20.4509,1677.8556],[-63.8043,-20.4789,1706.6836],[-63.8069,-20.4969,1677.328],[-63.8144,-20.5264,1668.1171],[-63.8077,-20.5338,1664.6562],[-63.8076,-20.5413,1625.9135],[-63.8189,-20.5801,1691.0449],[-63.8225,-20.6151,1679.8125],[-63.8289,-20.6402,1605.0088],[-63.8276,-20.6497,1745.7147],[-63.8292,-20.6709,1710.4789],[-63.8268,-20.6809,1636.3807],[-63.8254,-20.7505,1344.6851],[-63.8314,-20.8064,1279.4404],[-63.8391,-20.8271,1002.429],[-63.8386,-20.8297,995.5952],[-63.8447,-20.8367,935.8424],[-63.8465,-20.8437,936.9601],[-63.8456,-20.8452,909.3624],[-63.8487,-20.8468,887.3198],[-63.8493,-20.8519,887.6907],[-63.854,-20.8551,863.5551],[-63.8533,-20.8571,860.4792],[-63.8563,-20.863,831.4064],[-63.8568,-20.8681,815.8032],[-63.8622,-20.8695,857.9142],[-63.8661,-20.8667,804.5127],[-63.8689,-20.8684,786.239],[-63.8709,-20.8672,864.7805],[-63.8725,-20.8748,754.9423],[-63.8769,-20.8742,777.0387],[-63.8809,-20.8757,744.9407],[-63.8815,-20.9491,785.0382],[-63.8774,-20.9549,858.2631],[-63.875,-20.9554,859.7122],[-63.8768,-20.9692,816.1255],[-63.8677,-21.0037,678.1966]]]]}}