{"type":"Feature","properties":{"GID_3":"BOL.5.2.1_2","GID_0":"BOL","country":"Bolivia","GID_1":"BOL.5_1","province":"Oruro","NL_NAME_1":"NA","GID_2":"BOL.5.2_2","county":"Carangas","NL_NAME_2":"NA","city":"Choquecota","VARNAME_3":"NA","NL_NAME_3":"NA","TYPE_3":"District","ENGTYPE_3":"Distrito","CC_3":"NA","HASC_3":"NA","name":"Choquecota.city"},
"geometry":{"type": "MultiPolygon","coordinates": [[[[-67.7303,-18.0843,4560.8198],[-67.7384,-18.0704,4549.9971],[-67.7533,-18.0517,4583.3242],[-67.7585,-18.0502,4549.5361],[-67.7615,-18.0428,4575.2266],[-67.7679,-18.0349,4591.6958],[-67.7783,-18.0246,4574.8242],[-67.7829,-18.022,4577.7666],[-67.797,-18.0316,4245.4834],[-67.7983,-18.0348,4258.5415],[-67.8018,-18.0372,4189.6763],[-67.8151,-18.0365,4088.6875],[-67.8476,-18.0534,3972.7327],[-67.8498,-18.0512,3976.7563],[-67.857,-18.054,3915.6367],[-67.8642,-18.0479,3917.5476],[-67.867,-18.0481,3921.063],[-67.8722,-18.0436,3900.7393],[-67.8836,-18.0392,3887.5024],[-67.8855,-18.0357,3884.7114],[-67.9016,-18.0228,3943.1587],[-67.9172,-18.0176,3979.0032],[-67.9124,-18.0097,3945.4229],[-67.9088,-17.9908,4014.231],[-67.9174,-17.973,3945.8208],[-67.9192,-17.9623,3980.8433],[-67.9167,-17.9516,3960.2698],[-67.9122,-17.9428,4073.5647],[-67.9176,-17.9395,4025.2036],[-67.9203,-17.9346,4083.6758],[-67.9352,-17.9423,3997.0874],[-67.9386,-17.9541,3954.8267],[-67.9518,-17.9642,3915.1438],[-67.9624,-17.9659,3931.4688],[-67.9718,-17.9716,3957.9058],[-67.9763,-17.9716,3971.9153],[-67.9815,-17.9753,3987.1519],[-67.9818,-17.9772,3994.4768],[-67.9862,-17.9793,4008.5315],[-67.9812,-17.9891,4061.9905],[-67.9799,-17.9967,4044.3477],[-68.0026,-18.0132,3883.7383],[-68.0155,-18.015,3902.303],[-68.0438,-18.0231,3972.4539],[-68.0513,-18.0313,3920.4709],[-68.0588,-18.0309,3920.3345],[-68.0656,-18.0338,3938.6377],[-68.0859,-18.0321,3936.1221],[-68.0993,-18.0411,4048.229],[-68.1086,-18.0427,4064.3506],[-68.1124,-18.0426,4078.7517],[-68.124,-18.0335,4103.2114],[-68.1294,-18.0271,4118.9126],[-68.1543,-18.0375,4415.3901],[-68.1535,-18.0493,4450.3794],[-68.141,-18.0595,4127.0225],[-68.1397,-18.0637,4186.9663],[-68.1311,-18.0691,4143.1846],[-68.1313,-18.0764,4133.6743],[-68.1246,-18.0855,4164.2417],[-68.1097,-18.0888,4389.3525],[-68.1091,-18.0917,4323.3184],[-68.1132,-18.1084,3972.5354],[-68.1109,-18.1149,3937.8032],[-68.1125,-18.1181,4004.6174],[-68.1122,-18.1232,4016.9822],[-68.1055,-18.1563,3912.9277],[-68.1091,-18.1663,3858.9956],[-68.1204,-18.1728,3835.6968],[-68.123,-18.1816,3824.8623],[-68.12,-18.1921,3819.189],[-68.113,-18.1966,3818.9619],[-68.1059,-18.1978,3826.3088],[-68.0997,-18.1966,3833.8904],[-68.0958,-18.2016,3846.2417],[-68.0807,-18.2029,3838.426],[-68.0726,-18.2224,3823.2812],[-68.075,-18.2336,3819.1382],[-68.0804,-18.243,3815.8516],[-68.0761,-18.2463,3826.1885],[-68.0704,-18.2679,3860.292],[-68.0471,-18.2959,3938.9775],[-68.0382,-18.2984,3928.3389],[-68.0015,-18.2883,3872.2883],[-67.9688,-18.2692,3815.5479],[-67.9555,-18.2443,3827.1216],[-67.9249,-18.2405,3830.5957],[-67.8894,-18.2217,3884.7815],[-67.8703,-18.1959,3931.7996],[-67.8258,-18.1735,4093.7363],[-67.8045,-18.1575,4017.7493],[-67.8033,-18.1553,4002.749],[-67.7951,-18.1527,3954.8877],[-67.7852,-18.1407,4001.1282],[-67.7695,-18.1312,4035.1953],[-67.7541,-18.1248,4001.5242],[-67.7494,-18.1244,4016.053],[-67.7346,-18.1166,4275.0068],[-67.7336,-18.1138,4342.7559],[-67.7309,-18.1134,4385.7446],[-67.7246,-18.1165,4434.6187],[-67.7166,-18.1143,4517.7173],[-67.7276,-18.0875,4561.9971],[-67.7303,-18.0843,4560.8198]]]]}}