{"type": "Feature","bbox": [-64.3292,-18.9722,-64.0594,-18.61],"geometry": {"type": "MultiPolygon","coordinates": [[[[-64.1101,-18.9711,789.3016],[-64.1075,-18.9687,871.505],[-64.1099,-18.966,817.6282],[-64.108,-18.9644,842.0715],[-64.1119,-18.9621,830.272],[-64.1094,-18.9574,911.1383],[-64.1059,-18.9572,896.7133],[-64.1056,-18.9511,1079.1357],[-64.1043,-18.9506,1079.1357],[-64.1055,-18.945,1223.9484],[-64.108,-18.9453,1149.8707],[-64.109,-18.9425,1189.9695],[-64.1062,-18.9403,1214.4622],[-64.1083,-18.9322,1197.8157],[-64.106,-18.9301,1194.4449],[-64.1059,-18.9265,1183.5159],[-64.103,-18.9244,1204.6787],[-64.1074,-18.9218,1228.0293],[-64.1069,-18.9164,1245.7439],[-64.1046,-18.9155,1243.7625],[-64.1089,-18.9136,1353.1346],[-64.1074,-18.9117,1349.6497],[-64.1081,-18.9089,1340.071],[-64.1099,-18.9061,1305.5573],[-64.1129,-18.9051,1302.2173],[-64.1111,-18.9026,1304.0735],[-64.1143,-18.9013,1346.1736],[-64.1137,-18.8975,1305.7921],[-64.1172,-18.8953,1409.7444],[-64.1164,-18.8935,1372.8346],[-64.1204,-18.8872,1489.5345],[-64.1177,-18.8841,1360.0742],[-64.1194,-18.8801,1380.9956],[-64.1227,-18.8793,1398.1018],[-64.1223,-18.8747,1508.2682],[-64.1253,-18.8736,1417.9821],[-64.1259,-18.8709,1445.5488],[-64.1241,-18.8692,1578.2006],[-64.1261,-18.8622,1472.0831],[-64.13,-18.8566,1501.3094],[-64.1333,-18.8543,1545.7666],[-64.1357,-18.8546,1528.4343],[-64.1374,-18.8383,1591.641],[-64.1351,-18.8374,1601.0594],[-64.1357,-18.8359,1618.0299],[-64.1323,-18.8316,1689.5868],[-64.1327,-18.83,1678.4479],[-64.1298,-18.8282,1707.8031],[-64.1274,-18.8237,1761.9321],[-64.1209,-18.8188,1828.4324],[-64.1203,-18.8112,1884.3333],[-64.1164,-18.8056,1925.0707],[-64.1184,-18.795,1963.8313],[-64.1154,-18.7947,2012.2219],[-64.114,-18.7969,2076.5762],[-64.1098,-18.7959,2116.6855],[-64.1041,-18.7971,2129.395],[-64.1016,-18.7936,2156.3335],[-64.1007,-18.7878,2251.115],[-64.0986,-18.7862,2235.5955],[-64.09,-18.7825,2051.0481],[-64.073,-18.7801,1619.0182],[-64.0685,-18.7774,1497.8198],[-64.0639,-18.7779,1431.4489],[-64.0616,-18.7766,1415.2063],[-64.0635,-18.7737,1418.425],[-64.0612,-18.768,1441.0723],[-64.0642,-18.764,1461.6952],[-64.062,-18.7613,1492.8558],[-64.062,-18.7512,1513.5908],[-64.0634,-18.7467,1526.3899],[-64.0674,-18.7422,1538.3931],[-64.0648,-18.7386,1531.3492],[-64.0713,-18.7325,1548.7539],[-64.0662,-18.7303,1576.7664],[-64.0693,-18.7242,1592.1807],[-64.0659,-18.7215,1594.5499],[-64.0677,-18.7199,1582.4713],[-64.0653,-18.7181,1585.8164],[-64.0662,-18.7163,1589.5818],[-64.0646,-18.7128,1603.1959],[-64.0606,-18.7096,1707.3804],[-64.0594,-18.7013,1621.5157],[-64.0599,-18.6909,1690.8188],[-64.0625,-18.6902,1658.4606],[-64.0617,-18.6864,1698.3358],[-64.0668,-18.6845,1667.2245],[-64.0655,-18.6782,1675.8158],[-64.0708,-18.6777,1719.5238],[-64.0759,-18.674,1725.1317],[-64.0777,-18.6746,1731.2229],[-64.0782,-18.6712,1798.3052],[-64.0813,-18.6699,1777.0897],[-64.0809,-18.6668,1782.2661],[-64.0817,-18.6651,1756.9185],[-64.0836,-18.6652,1774.0822],[-64.0837,-18.6633,1771.0942],[-64.0785,-18.6567,1823.3955],[-64.0901,-18.6565,1924.2787],[-64.094,-18.6547,1969.8062],[-64.1166,-18.658,2688.762],[-64.1278,-18.6497,2834.2576],[-64.1458,-18.644,2213.5869],[-64.1491,-18.6395,2132.2371],[-64.149,-18.637,2118.8743],[-64.161,-18.6336,1958.9911],[-64.1659,-18.6303,1924.0171],[-64.1696,-18.6321,1952.4866],[-64.1759,-18.6312,1937.8254],[-64.1895,-18.6339,1773.4623],[-64.189,-18.6315,1762.2712],[-64.1937,-18.6274,1757.3014],[-64.1934,-18.6251,1755.0225],[-64.198,-18.6195,1765.0269],[-64.2004,-18.6187,1718.3843],[-64.2018,-18.61,1704.2166],[-64.2113,-18.6148,2013.194],[-64.2209,-18.6173,1656.1342],[-64.2339,-18.6176,1512.8661],[-64.2454,-18.6203,1317.7649],[-64.2493,-18.6187,1302.6963],[-64.2533,-18.62,1283.7411],[-64.2574,-18.6138,1215.4249],[-64.2603,-18.6122,1168.7024],[-64.2746,-18.6158,1042.9194],[-64.2793,-18.6113,1010.0483],[-64.2868,-18.61,976.8013],[-64.2888,-18.6109,967.5984],[-64.2914,-18.6159,965.433],[-64.2932,-18.6155,1005.2656],[-64.2936,-18.6125,957.8483],[-64.2958,-18.6114,963.41],[-64.2982,-18.616,962.6479],[-64.3036,-18.6158,993.1107],[-64.3052,-18.6182,951.7363],[-64.3055,-18.6237,977.425],[-64.313,-18.6246,944.6831],[-64.3155,-18.6272,945.3143],[-64.3166,-18.6306,941.7061],[-64.3143,-18.6348,938.8729],[-64.3149,-18.6379,937.7981],[-64.3112,-18.6417,935.9734],[-64.31,-18.6458,934.7657],[-64.3134,-18.6464,949.184],[-64.3179,-18.6424,979.9668],[-64.3198,-18.6509,930.3167],[-64.3191,-18.6543,927.929],[-64.3247,-18.6573,943.3316],[-64.3247,-18.6599,982.773],[-64.3292,-18.6655,922.016],[-64.3246,-18.6697,956.7964],[-64.3146,-18.6678,919.74],[-64.3109,-18.6705,917.3411],[-64.3129,-18.6773,913.8479],[-64.3102,-18.6862,912.211],[-64.3096,-18.7018,908.0388],[-64.3123,-18.7153,901.5186],[-64.3198,-18.7267,898.6777],[-64.3175,-18.7387,913.5082],[-64.3094,-18.7498,890.4246],[-64.3111,-18.7522,892.0542],[-64.3164,-18.7542,887.7139],[-64.3176,-18.7567,891.4084],[-64.316,-18.7606,887.3208],[-64.2978,-18.7665,881.0473],[-64.2924,-18.7787,875.9163],[-64.2868,-18.7857,874.202],[-64.2828,-18.8126,865.1161],[-64.2893,-18.8187,861.6228],[-64.2901,-18.8231,859.0829],[-64.2844,-18.8276,858.5375],[-64.2773,-18.8366,862.9189],[-64.2676,-18.8382,852.2082],[-64.2641,-18.8359,892.0958],[-64.2583,-18.8374,866.9422],[-64.2482,-18.8451,853.9429],[-64.2388,-18.86,862.2639],[-64.2331,-18.8589,850.1959],[-64.2288,-18.8652,842.5996],[-64.2242,-18.8685,838.519],[-64.2227,-18.8741,838.0718],[-64.2234,-18.8784,871.4568],[-64.2168,-18.8796,833.2812],[-64.2132,-18.8824,831.3585],[-64.2137,-18.8928,847.1416],[-64.2124,-18.896,837.3959],[-64.2061,-18.9003,825.338],[-64.2,-18.9081,829.6857],[-64.2001,-18.9129,823.9615],[-64.2023,-18.9166,826.0331],[-64.1971,-18.9238,819.4868],[-64.1965,-18.9272,821.4688],[-64.2016,-18.9371,818.2997],[-64.1999,-18.9395,817.3599],[-64.197,-18.9378,825.0233],[-64.1955,-18.9385,865.0177],[-64.1939,-18.9435,841.5961],[-64.1959,-18.9482,815.6299],[-64.1921,-18.9515,809.7936],[-64.1876,-18.952,820.7981],[-64.1846,-18.9612,817.8719],[-64.1759,-18.9579,824.4417],[-64.1719,-18.9664,802.7937],[-64.164,-18.9694,800.326],[-64.1595,-18.9688,798.6931],[-64.1579,-18.9671,804.3244],[-64.1528,-18.9696,827.948],[-64.1453,-18.9669,798.4102],[-64.1406,-18.9689,802.2987],[-64.1304,-18.9643,873.2527],[-64.1226,-18.9685,790.6975],[-64.1197,-18.9722,790.3201],[-64.1101,-18.9711,789.3016]]]]}
,"properties": {"GID_3": "BOL.8.13.3_2","GID_0": "BOL","country": "Bolivia","GID_1": "BOL.8_1","province": "SantaCruz","NL_NAME_1": "NA","GID_2": "BOL.8.13_2","county": "Vallegrande","NL_NAME_2": "NA","city": "Pucará","VARNAME_3": "NA","NL_NAME_3": "NA","TYPE_3": "District","ENGTYPE_3": "Distrito","CC_3": "NA","HASC_3": "NA","name": "Pucará.city","area_km2": 686.0804,"hist_schema_id": "Elevation0-9000","hist_area_km2": {"775": 0.0401,"800": 1.564,"825": 2.928,"850": 4.5336,"875": 12.1007,"900": 8.4091,"925": 9.0321,"950": 9.8566,"975": 10.821,"1000": 10.72,"1025": 8.6526,"1050": 7.6883,"1075": 6.6645,"1100": 6.343,"1125": 6.8845,"1150": 6.9049,"1175": 6.6436,"1200": 6.1218,"1225": 7.1654,"1250": 6.8446,"1275": 7.0655,"1300": 6.1622,"1325": 7.7076,"1350": 6.6843,"1375": 6.985,"1400": 7.166,"1425": 7.2463,"1450": 7.688,"1475": 8.1694,"1500": 8.3704,"1525": 8.4105,"1550": 8.5308,"1575": 8.5914,"1600": 8.9726,"1625": 9.0731,"1650": 8.3102,"1675": 9.7555,"1700": 10.0572,"1725": 8.9531,"1750": 9.5758,"1775": 9.0742,"1800": 9.6361,"1825": 9.6161,"1850": 9.6769,"1875": 9.1349,"1900": 9.1149,"1925": 8.9345,"1950": 9.8376,"1975": 9.2957,"2000": 9.7173,"2025": 10.7815,"2050": 10.9623,"2075": 10.1998,"2100": 9.8385,"2125": 10.9831,"2150": 10.0592,"2175": 10.6013,"2200": 10.7617,"2225": 10.6216,"2250": 10.9423,"2275": 11.3842,"2300": 10.7014,"2325": 11.7653,"2350": 12.4881,"2375": 12.2878,"2400": 11.8463,"2425": 11.2038,"2450": 11.726,"2475": 11.3043,"2500": 11.1837,"2525": 9.5575,"2550": 9.1359,"2575": 8.2925,"2600": 6.9875,"2625": 5.8431,"2650": 4.6786,"2675": 4.96,"2700": 3.9961,"2725": 3.8154,"2750": 3.7351,"2775": 1.687,"2800": 1.7874,"2825": 1.0845,"2850": 0.5825,"2875": 0.462,"2900": 0.3214,"2925": 0.0803}}}