{"type":"Feature","properties":{"GID_3":"BOL.3.3.2_2","GID_0":"BOL","country":"Bolivia","GID_1":"BOL.3_1","province":"Beni","NL_NAME_1":"NA","GID_2":"BOL.3.3_2","county":"Iténez","NL_NAME_2":"NA","city":"Huacaraje","VARNAME_3":"NA","NL_NAME_3":"NA","TYPE_3":"District","ENGTYPE_3":"Distrito","CC_3":"NA","HASC_3":"NA","name":"Huacaraje.city"},
"geometry":{"type": "MultiPolygon","coordinates": [[[[-63.7564,-14.2554,161.0061],[-63.7549,-14.0002,149.8439],[-63.7741,-13.9828,149.2415],[-63.7935,-13.9685,152.9718],[-63.7933,-13.9654,159.1667],[-63.7982,-13.9608,154.6476],[-63.7951,-13.9575,153.6876],[-63.797,-13.9541,156.4965],[-63.7981,-13.9546,152.1495],[-63.7999,-13.9524,149.0534],[-63.8024,-13.9554,149.0596],[-63.8097,-13.948,161.3542],[-63.8079,-13.9392,151.5416],[-63.8028,-13.9309,152.5541],[-63.7981,-13.9285,157.9397],[-63.7976,-13.9231,151.5596],[-63.7911,-13.9227,158.4865],[-63.7906,-13.9119,159.0755],[-63.7783,-13.9105,157.9062],[-63.7791,-13.9057,153.0709],[-63.7822,-13.9037,153.8717],[-63.784,-13.8997,150.5049],[-63.7772,-13.8946,160.589],[-63.7774,-13.8883,152.3987],[-63.7684,-13.8872,155.0193],[-63.7656,-13.8845,162.7503],[-63.771,-13.882,154.317],[-63.7674,-13.8787,147.0737],[-63.7745,-13.8736,162.187],[-63.7727,-13.8715,160.7356],[-63.767,-13.8732,157.1051],[-63.7663,-13.8668,159.0534],[-63.7687,-13.8649,155.4645],[-63.7748,-13.8667,160.4068],[-63.7769,-13.8658,153.1353],[-63.7765,-13.8638,157.0238],[-63.7715,-13.8608,156.6779],[-63.7725,-13.8579,159.1204],[-63.7753,-13.8576,152.4911],[-63.7822,-13.8622,155.2974],[-63.7878,-13.8607,152.3663],[-63.7839,-13.8578,151.0902],[-63.7837,-13.8547,150.6285],[-63.7792,-13.8541,150.1111],[-63.777,-13.8512,150.5682],[-63.7798,-13.8495,156.2212],[-63.7902,-13.8492,157.0631],[-63.7893,-13.8462,153.0342],[-63.7842,-13.844,151.9767],[-63.7832,-13.842,153.0427],[-63.7845,-13.8406,151.6897],[-63.791,-13.8404,154.1521],[-63.7919,-13.8374,150.588],[-63.7891,-13.833,151.507],[-63.7866,-13.8376,160.0306],[-63.7826,-13.8379,158.5753],[-63.7823,-13.8336,159.6791],[-63.7799,-13.8316,159.6426],[-63.7815,-13.827,158.6466],[-63.7758,-13.8268,156.1948],[-63.7746,-13.8253,159.6893],[-63.7795,-13.8205,152.8663],[-63.7782,-13.8181,159.5763],[-63.7808,-13.816,149.5674],[-63.7856,-13.8056,149.8755],[-63.7932,-13.809,152.1399],[-63.7935,-13.8019,150.2938],[-63.7979,-13.7974,152.1805],[-63.794,-13.7953,152.311],[-63.7909,-13.7991,150.4439],[-63.79,-13.7985,150.4439],[-63.79,-13.7944,148.7371],[-63.7958,-13.7873,150.8891],[-63.7961,-13.784,151.3245],[-63.7933,-13.7829,153.8092],[-63.7889,-13.7864,160.2379],[-63.7867,-13.7808,153.986],[-63.7817,-13.7832,153.8866],[-63.779,-13.7826,150.81],[-63.7797,-13.7797,151.2597],[-63.7851,-13.7782,156.9132],[-63.7885,-13.7755,154.8804],[-63.7898,-13.7662,148.9131],[-63.7844,-13.7635,147.9231],[-63.785,-13.7521,151.1851],[-63.7824,-13.7476,153.4402],[-63.7761,-13.7447,150.8258],[-63.7726,-13.7558,147.8213],[-63.7664,-13.7416,149.6775],[-63.7708,-13.7367,152.5096],[-63.7777,-13.7381,146.597],[-63.7784,-13.7338,152.3613],[-63.7711,-13.7306,152.1987],[-63.7647,-13.7318,147.407],[-63.7646,-13.7262,146.5415],[-63.7583,-13.7253,150.1794],[-63.7582,-13.7239,151.2411],[-63.7642,-13.7218,150.8939],[-63.76,-13.7189,147.4499],[-63.7558,-13.7124,154.6042],[-63.7576,-13.7104,150.2113],[-63.7621,-13.7095,157.4406],[-63.7622,-13.7077,154.0691],[-63.7604,-13.7054,145.1701],[-63.7559,-13.7043,147.3842],[-63.7525,-13.7005,148.0846],[-63.7576,-13.697,147.6223],[-63.7571,-13.6921,147.9785],[-63.7623,-13.6884,147.0536],[-63.7643,-13.6835,152.2197],[-63.77,-13.6863,146.4945],[-63.7734,-13.6841,145.8842],[-63.7659,-13.6809,155.7716],[-63.7654,-13.6756,154.7354],[-63.7675,-13.6695,144.9496],[-63.7646,-13.6637,147.685],[-63.7551,-13.665,154.998],[-63.7502,-13.6578,154.0158],[-63.7521,-13.6557,151.1413],[-63.7606,-13.656,145.6481],[-63.7611,-13.6509,148.2833],[-63.7669,-13.6492,150.9503],[-63.7711,-13.6454,147.5409],[-63.7716,-13.6419,148.3292],[-63.7681,-13.6372,147.8801],[-63.7756,-13.6395,146.2844],[-63.7721,-13.6335,153.861],[-63.7798,-13.623,145.7909],[-63.7767,-13.6199,146.7115],[-63.7712,-13.6217,150.1892],[-63.7684,-13.6195,148.3136],[-63.7706,-13.6159,147.2594],[-63.7707,-13.6112,149.3444],[-63.7739,-13.609,154.5022],[-63.7698,-13.6054,144.6864],[-63.7715,-13.6001,146.0959],[-63.7571,-13.5979,155.4682],[-63.7604,-13.5899,152.4125],[-63.7653,-13.5907,148.8326],[-63.7638,-13.5867,155.3928],[-63.7594,-13.5857,146.3921],[-63.7574,-13.5835,143.5815],[-63.7544,-13.5905,150.0645],[-63.7523,-13.5908,151.1739],[-63.7508,-13.5893,145.7522],[-63.7524,-13.5872,150.2528],[-63.7522,-13.5833,149.364],[-63.7463,-13.5812,149.2422],[-63.7414,-13.5905,146.328],[-63.7381,-13.5928,143.8395],[-63.7356,-13.5874,150.5116],[-63.7322,-13.585,143.8943],[-63.7343,-13.5826,147.8157],[-63.7394,-13.5829,152.4595],[-63.7398,-13.5805,151.3515],[-63.7353,-13.5762,149.2387],[-63.7298,-13.5743,144.8314],[-63.7353,-13.5714,147.9114],[-63.7343,-13.5675,147.2009],[-63.7377,-13.5684,149.7128],[-63.7418,-13.567,148.6517],[-63.7424,-13.5632,143.8601],[-63.7391,-13.561,150.6736],[-63.7346,-13.5621,148.4928],[-63.7272,-13.5605,144.0486],[-63.7272,-13.5591,141.8351],[-63.733,-13.5554,150.1317],[-63.7364,-13.5595,147.3917],[-63.7383,-13.557,146.8985],[-63.7254,-13.5479,151.6891],[-63.7216,-13.5413,151.224],[-63.7144,-13.5416,142.8688],[-63.715,-13.5395,142.2848],[-63.7194,-13.5382,149.7536],[-63.73,-13.5402,148.3791],[-63.7343,-13.539,142.0544],[-63.7352,-13.5374,145.3009],[-63.7339,-13.536,144.8401],[-63.727,-13.5346,151.4635],[-63.7322,-13.533,152.1754],[-63.7319,-13.5272,142.8505],[-63.7237,-13.5242,145.7831],[-63.7229,-13.5299,142.6329],[-63.7154,-13.5329,148.7387],[-63.7113,-13.5289,146.0874],[-63.7129,-13.5272,147.6928],[-63.7197,-13.5278,148.6248],[-63.7226,-13.5216,149.1225],[-63.7289,-13.5205,142.3292],[-63.7203,-13.5159,144.5153],[-63.7185,-13.5181,145.469],[-63.7183,-13.5242,144.2619],[-63.7168,-13.5244,142.7863],[-63.7151,-13.5217,149.4147],[-63.7169,-13.5164,142.8851],[-63.7218,-13.5114,155.2542],[-63.7277,-13.5101,146.7922],[-63.7277,-13.5084,141.7174],[-63.7224,-13.5075,154.8319],[-63.7216,-13.506,148.9985],[-63.7303,-13.5013,147.4898],[-63.7336,-13.5015,148.1357],[-63.7339,-13.4979,143.8409],[-63.7362,-13.4962,151.9682],[-63.7465,-13.4997,144.5201],[-63.7478,-13.4952,153.2535],[-63.7513,-13.4933,147.9568],[-63.7443,-13.4848,139.396],[-63.7462,-13.4827,144.5849],[-63.7517,-13.4827,148.4906],[-63.7525,-13.4804,140.4381],[-63.7452,-13.4765,145.5779],[-63.7414,-13.4815,147.2977],[-63.7391,-13.4801,142.0591],[-63.7413,-13.4747,148.2396],[-63.7493,-13.4703,144.9836],[-63.7501,-13.4684,143.2362],[-63.7457,-13.4591,140.9337],[-63.739,-13.4567,147.722],[-63.7383,-13.4532,141.6179],[-63.7484,-13.4529,142.0882],[-63.7501,-13.4499,141.9826],[-64.3716,-13.4474,137.4723],[-64.383,-14.1436,147.9179],[-63.7564,-14.2554,161.0061]]]]}}