{"type":"Feature","properties":{"GID_3":"BOL.2.10.2_2","GID_0":"BOL","country":"Bolivia","GID_1":"BOL.2_1","province":"Cochabamba","NL_NAME_1":"NA","GID_2":"BOL.2.10_2","county":"EstebanArze","NL_NAME_2":"NA","city":"Arbieto","VARNAME_3":"NA","NL_NAME_3":"NA","TYPE_3":"District","ENGTYPE_3":"Distrito","CC_3":"NA","HASC_3":"NA","name":"Arbieto.city"},
"geometry":{"type": "MultiPolygon","coordinates": [[[[-66.1301,-17.6146,3348.7212],[-66.1227,-17.6197,3273.0288],[-66.1154,-17.6151,3215.2224],[-66.1124,-17.6148,3213.894],[-66.1108,-17.6116,3228.855],[-66.1063,-17.6112,3266.3418],[-66.0983,-17.603,3334.9067],[-66.0911,-17.603,3406.2561],[-66.0834,-17.5968,3408.5483],[-66.0772,-17.5947,3184.2808],[-66.0697,-17.5971,2916.1926],[-66.0564,-17.596,2806.7109],[-66.054,-17.5975,2781.5408],[-66.0532,-17.6012,2828.8091],[-66.0469,-17.5983,2756.2749],[-66.0439,-17.5929,2716.4209],[-66.0363,-17.6002,2730.7173],[-66.0256,-17.6006,2733.3306],[-66.015,-17.6066,2739.0601],[-65.9925,-17.6032,2728.1968],[-65.989,-17.6104,2736.0889],[-65.9766,-17.6086,2724.6196],[-65.9743,-17.6063,2723.8479],[-65.958,-17.6077,2713.4016],[-65.9562,-17.5966,2702.7922],[-65.9611,-17.5901,2699.0234],[-65.9651,-17.5885,2697.6465],[-65.9672,-17.5805,2695.5061],[-65.9767,-17.5712,2693.2197],[-65.9853,-17.5673,2692.0381],[-65.9909,-17.5621,2691.4832],[-66.0017,-17.5474,2691.4277],[-66.0163,-17.548,2690.0],[-66.0214,-17.5507,2690.0],[-66.0305,-17.5511,2690.0],[-66.0479,-17.5545,2690.0],[-66.0566,-17.5578,2690.0],[-66.0628,-17.558,2690.0],[-66.0752,-17.5454,2690.0],[-66.0794,-17.5431,2690.0],[-66.0657,-17.5298,2746.8435],[-66.0649,-17.5267,2779.345],[-66.0663,-17.5227,2811.5642],[-66.0577,-17.5164,2870.8342],[-66.0517,-17.5188,2988.7449],[-66.0493,-17.5216,2986.0105],[-66.0465,-17.5206,2962.8535],[-66.0466,-17.5066,3111.9451],[-66.0443,-17.5049,3172.0754],[-66.0424,-17.5002,3294.2234],[-66.0451,-17.4933,3328.1589],[-66.0493,-17.4952,3192.7529],[-66.0526,-17.4927,3151.0955],[-66.0566,-17.4945,3113.8237],[-66.0654,-17.4873,3054.3508],[-66.0646,-17.4825,2961.6917],[-66.0701,-17.4689,3067.2568],[-66.0846,-17.4784,2742.6399],[-66.091,-17.4882,2691.3496],[-66.1003,-17.4886,2664.2559],[-66.105,-17.4942,2734.6455],[-66.1168,-17.4983,2936.1021],[-66.1215,-17.5037,2944.499],[-66.1286,-17.505,3076.4485],[-66.1248,-17.5254,2812.3252],[-66.1244,-17.5473,2726.9827],[-66.1269,-17.5554,2732.0195],[-66.1312,-17.5586,2750.6094],[-66.1313,-17.5615,2770.4722],[-66.1276,-17.5678,2812.6567],[-66.1305,-17.5728,2916.5249],[-66.1309,-17.5775,3079.8882],[-66.1333,-17.5802,3132.7747],[-66.1333,-17.5841,3294.3367],[-66.1369,-17.5876,3313.6531],[-66.1377,-17.5909,3389.1377],[-66.1301,-17.6146,3348.7212]]]]}}