{"type": "Feature","bbox": [-68.305,-16.6345,-68.1279,-16.2626],"geometry": {"type": "MultiPolygon","coordinates": [[[[-68.1811,-16.6332,3938.1331],[-68.1307,-16.6345,3931.5225],[-68.1315,-16.629,3986.1484],[-68.129,-16.6266,3981.8291],[-68.1279,-16.622,3966.4412],[-68.1312,-16.6191,3958.6021],[-68.1401,-16.6165,3981.085],[-68.1402,-16.6147,3946.406],[-68.1493,-16.6124,3953.2944],[-68.1485,-16.611,3917.2378],[-68.1527,-16.6075,3970.8865],[-68.1586,-16.5974,3913.8862],[-68.1634,-16.5968,3962.2246],[-68.1696,-16.5928,3931.3176],[-68.1701,-16.5865,3968.3103],[-68.1851,-16.5737,3948.4878],[-68.1793,-16.5648,3958.4158],[-68.1818,-16.5628,3978.9597],[-68.1743,-16.5549,3976.4573],[-68.1733,-16.5457,4003.7068],[-68.1694,-16.5429,4027.7705],[-68.165,-16.5444,4030.957],[-68.1635,-16.5466,3980.4534],[-68.1607,-16.542,4039.5256],[-68.156,-16.5401,4043.7681],[-68.1532,-16.5409,4050.0112],[-68.1524,-16.5359,4060.0176],[-68.149,-16.5358,4011.3025],[-68.147,-16.5304,4018.4377],[-68.144,-16.5291,4033.8137],[-68.1477,-16.5252,4060.7029],[-68.1546,-16.5101,4066.5527],[-68.161,-16.5043,4082.0728],[-68.1636,-16.498,4066.5105],[-68.1709,-16.4907,4093.2656],[-68.1704,-16.4866,4103.6514],[-68.1673,-16.4824,4100.2705],[-68.1649,-16.4845,4096.0698],[-68.1611,-16.4841,4070.498],[-68.1668,-16.4758,4118.5371],[-68.1673,-16.4682,4110.3506],[-68.1634,-16.4592,4213.9316],[-68.159,-16.4554,4196.7803],[-68.1569,-16.4351,4285.9229],[-68.1554,-16.4325,4297.457],[-68.1494,-16.4288,4288.5947],[-68.1481,-16.4221,4376.6284],[-68.1509,-16.4132,4431.9033],[-68.1494,-16.4071,4490.1143],[-68.1505,-16.4026,4527.6553],[-68.1459,-16.3679,4797.499],[-68.1433,-16.3643,4860.9521],[-68.1435,-16.358,4956.2314],[-68.1394,-16.3549,5165.877],[-68.1385,-16.3517,5193.1621],[-68.1399,-16.3276,4752.3613],[-68.1503,-16.3164,4558.7764],[-68.1486,-16.3111,4565.5044],[-68.1516,-16.2989,4723.124],[-68.1508,-16.2941,4867.2427],[-68.1528,-16.2887,4977.8301],[-68.1576,-16.2851,5134.9536],[-68.1556,-16.2787,5533.4644],[-68.153,-16.2767,5644.7744],[-68.1548,-16.2697,5745.6963],[-68.1537,-16.2626,6003.2451],[-68.1656,-16.2775,5315.0649],[-68.1703,-16.2928,5168.6177],[-68.1853,-16.3026,4831.7661],[-68.1849,-16.3056,4806.2593],[-68.1909,-16.3153,4743.4102],[-68.1931,-16.3246,4711.0513],[-68.1991,-16.3288,4645.4316],[-68.2055,-16.3365,4606.5],[-68.2163,-16.3835,4400.0146],[-68.2434,-16.3927,4248.3013],[-68.2633,-16.4337,4092.4355],[-68.2704,-16.4446,4046.6201],[-68.2705,-16.4559,4007.8589],[-68.2766,-16.4622,3987.4373],[-68.2764,-16.4649,3984.5388],[-68.2824,-16.4717,3963.5474],[-68.289,-16.4834,3940.0376],[-68.2974,-16.491,3918.8203],[-68.305,-16.5075,3895.7722],[-68.3005,-16.5102,3896.541],[-68.2874,-16.5105,3910.3069],[-68.2971,-16.5299,3895.1113],[-68.283,-16.5363,3902.5044],[-68.2663,-16.5246,3924.1514],[-68.2367,-16.5435,3943.3638],[-68.2533,-16.5608,3921.3953],[-68.2575,-16.5591,3917.3936],[-68.2608,-16.5627,3913.9006],[-68.2263,-16.5733,3934.4973],[-68.2238,-16.5709,3938.5188],[-68.2212,-16.5722,3942.0229],[-68.2203,-16.5708,3943.6279],[-68.2057,-16.5734,3951.6611],[-68.2197,-16.5894,3929.5315],[-68.2161,-16.5942,3929.3723],[-68.2373,-16.6128,3899.6477],[-68.1811,-16.6332,3938.1331]]]]}
,"properties": {"GID_3": "BOL.4.17.2_2","GID_0": "BOL","country": "Bolivia","GID_1": "BOL.4_1","province": "LaPaz","NL_NAME_1": "NA","GID_2": "BOL.4.17_2","county": "Murillo","NL_NAME_2": "NA","city": "ElAlto","VARNAME_3": "NA","NL_NAME_3": "NA","TYPE_3": "District","ENGTYPE_3": "Distrito","CC_3": "NA","HASC_3": "NA","name": "El_Alto.city","area_km2": 349.33,"hist_schema_id": "Elevation0-9000","hist_area_km2": {"3900": 7.2154,"3925": 24.9361,"3950": 41.2755,"3975": 36.8257,"4000": 21.0992,"4025": 17.4422,"4050": 19.7396,"4075": 13.5201,"4100": 9.8002,"4125": 8.3367,"4150": 7.2796,"4175": 6.9545,"4200": 6.6497,"4225": 6.2635,"4250": 6.5687,"4275": 6.4061,"4300": 6.4875,"4325": 5.4912,"4350": 4.9219,"4375": 3.9253,"4400": 4.4746,"4425": 4.9019,"4450": 4.8816,"4475": 4.2105,"4500": 4.0274,"4525": 6.6723,"4550": 7.4254,"4575": 5.147,"4600": 4.3332,"4625": 3.4178,"4650": 3.6213,"4675": 3.1737,"4700": 3.3163,"4725": 3.6825,"4750": 3.7029,"4775": 3.1333,"4800": 3.0113,"4825": 2.5841,"4850": 2.1976,"4875": 1.5057,"4900": 1.343,"4925": 1.0378,"4950": 0.875,"4975": 0.7529,"5000": 0.5901,"5025": 0.4681,"5050": 0.3256,"5075": 0.3867,"5100": 0.2849,"5125": 0.1628,"5150": 0.3053,"5175": 0.2849,"5200": 0.1425,"5225": 0.1221,"5250": 0.0814,"5275": 0.1832,"5300": 0.0611,"5325": 0.1425,"5350": 0.1018,"5375": 0.1832,"5400": 0.1018,"5425": 0.1832,"5450": 0.0204,"5475": 0.1018,"5500": 0.0407,"5525": 0.0407,"5550": 0.0814,"5600": 0.0611,"5625": 0.1221,"5650": 0.0204,"5675": 0.0407,"5725": 0.0204,"5900": 0.0204,"5950": 0.0204,"5975": 0.0407,"6000": 0.0204}}}