{"type": "Feature","bbox": [-65.2065,-19.3857,-64.8908,-19.0588],"geometry": {"type": "MultiPolygon","coordinates": [[[[-65.1958,-19.1517,2981.1758],[-65.2053,-19.1586,2877.8064],[-65.2065,-19.1613,2923.0115],[-65.197,-19.1917,3034.5122],[-65.1798,-19.2255,3329.7407],[-65.1692,-19.2418,3374.7791],[-65.1636,-19.246,3324.0117],[-65.1507,-19.2614,3107.1584],[-65.1483,-19.2692,3065.6929],[-65.151,-19.2755,2834.0972],[-65.1558,-19.279,2551.7129],[-65.159,-19.2859,2493.0334],[-65.1567,-19.2933,2438.2837],[-65.1565,-19.3063,2396.4719],[-65.158,-19.3128,2361.8171],[-65.1567,-19.3166,2365.5864],[-65.1595,-19.3267,2325.7695],[-65.1586,-19.3324,2319.8875],[-65.1624,-19.3433,2263.5046],[-65.1624,-19.3481,2260.3176],[-65.1663,-19.3523,2243.3916],[-65.167,-19.3588,2230.2876],[-65.1698,-19.3604,2227.7368],[-65.1668,-19.3629,2226.6221],[-65.1643,-19.3693,2210.8691],[-65.1583,-19.3709,2207.009],[-65.1532,-19.3759,2205.8167],[-65.1484,-19.3756,2215.2292],[-65.141,-19.3781,2201.8481],[-65.1318,-19.3745,2214.1709],[-65.1263,-19.3757,2191.2295],[-65.1219,-19.3741,2198.6995],[-65.1146,-19.3751,2192.1482],[-65.1104,-19.3733,2180.1309],[-65.1022,-19.3731,2191.061],[-65.0882,-19.3668,2191.9075],[-65.0822,-19.3711,2189.7349],[-65.0817,-19.376,2271.2861],[-65.0712,-19.379,2187.0073],[-65.0661,-19.3842,2167.2881],[-65.0546,-19.3857,2161.3926],[-65.0446,-19.3817,2146.9458],[-65.0443,-19.3773,2143.2754],[-65.0379,-19.3744,2182.9651],[-65.0368,-19.3696,2136.8943],[-65.0256,-19.3678,2127.4197],[-65.0177,-19.3586,2119.9265],[-65.0113,-19.3542,2113.958],[-65.0041,-19.352,2111.1743],[-64.9885,-19.3527,2099.4736],[-64.9704,-19.3468,2089.9685],[-64.9621,-19.3515,2085.0381],[-64.9588,-19.3562,2082.4536],[-64.9474,-19.3585,2075.7817],[-64.9417,-19.3567,2074.0588],[-64.9369,-19.3603,2070.5491],[-64.9293,-19.3627,2067.5198],[-64.9211,-19.3617,2063.6465],[-64.9182,-19.3566,2070.0952],[-64.9133,-19.3544,2068.0342],[-64.9114,-19.3575,2060.6995],[-64.9118,-19.3656,2053.8105],[-64.9098,-19.3702,2051.3027],[-64.9002,-19.3741,2044.3727],[-64.8928,-19.3666,2260.509],[-64.8908,-19.3613,2516.1516],[-64.8909,-19.3514,2322.9705],[-64.9,-19.3435,2615.0559],[-64.9039,-19.3364,2579.5254],[-64.9136,-19.3272,2440.2756],[-64.9188,-19.318,2766.0398],[-64.9202,-19.3094,2655.4199],[-64.9365,-19.298,2498.5449],[-64.9388,-19.2983,2447.2859],[-64.9374,-19.2889,2450.0884],[-64.9268,-19.2883,2523.2188],[-64.9272,-19.275,2936.344],[-64.9309,-19.2695,3042.0476],[-64.9574,-19.2703,2443.9985],[-64.9804,-19.2604,2775.1604],[-64.9786,-19.243,2791.8562],[-64.9803,-19.232,2942.812],[-64.9795,-19.2151,2686.4634],[-64.9756,-19.2045,2781.7385],[-64.9774,-19.2,2836.0334],[-64.9838,-19.1941,3201.0977],[-64.9888,-19.1971,3187.4009],[-64.9952,-19.2076,3155.2102],[-65.0002,-19.2103,3110.4087],[-65.0078,-19.2048,3104.3176],[-65.0105,-19.1892,3028.8604],[-65.0084,-19.1804,3094.8708],[-65.0078,-19.1604,3135.4036],[-65.0104,-19.1454,3138.1736],[-65.0205,-19.1203,2942.9949],[-65.0228,-19.1176,2942.4805],[-65.043,-19.1149,3038.999],[-65.0506,-19.0942,2958.3411],[-65.0534,-19.0931,2960.8333],[-65.0546,-19.0888,2944.3337],[-65.0585,-19.0866,2952.9663],[-65.0682,-19.0644,2951.1162],[-65.0724,-19.0598,2950.7866],[-65.076,-19.0588,2894.1074],[-65.0747,-19.0667,2866.5366],[-65.0802,-19.0705,2697.9832],[-65.0872,-19.0723,2530.5532],[-65.0891,-19.0687,2525.7366],[-65.0914,-19.0688,2453.7107],[-65.093,-19.0776,2489.8406],[-65.099,-19.0787,2544.6768],[-65.1009,-19.0838,2549.2429],[-65.0995,-19.0902,2576.9744],[-65.0913,-19.0994,2655.7827],[-65.0854,-19.1112,2699.7847],[-65.0909,-19.1212,2875.458],[-65.0899,-19.1258,2935.0796],[-65.0963,-19.1305,2996.9827],[-65.1017,-19.1305,3060.1528],[-65.1029,-19.1331,3116.6628],[-65.1044,-19.1319,3100.5361],[-65.1126,-19.1203,2958.9504],[-65.1226,-19.0974,2951.5776],[-65.1264,-19.092,2914.7549],[-65.1291,-19.0833,2862.23],[-65.1325,-19.0847,2916.0254],[-65.1381,-19.0905,2992.1335],[-65.1494,-19.0931,2928.8728],[-65.148,-19.0999,3032.8088],[-65.1507,-19.1039,3022.624],[-65.157,-19.1073,2738.811],[-65.1589,-19.1047,2703.1523],[-65.1574,-19.0888,2614.0422],[-65.1613,-19.0879,2638.741],[-65.1673,-19.09,2549.554],[-65.1673,-19.0875,2595.332],[-65.1711,-19.0868,2504.5068],[-65.1722,-19.0885,2519.209],[-65.1712,-19.0965,2538.4131],[-65.1694,-19.0984,2671.5613],[-65.1676,-19.1084,2646.5574],[-65.1726,-19.1151,2629.1321],[-65.1758,-19.1156,2697.104],[-65.1836,-19.1214,2764.324],[-65.1836,-19.1243,2781.9287],[-65.1882,-19.1309,2761.7925],[-65.1832,-19.1387,2875.8525],[-65.1797,-19.1525,2977.2949],[-65.1838,-19.1546,3148.134],[-65.1958,-19.1517,2981.1758]]]]}
,"properties": {"GID_3": "BOL.1.9.2_2","GID_0": "BOL","country": "Bolivia","GID_1": "BOL.1_1","province": "Chuquisaca","NL_NAME_1": "NA","GID_2": "BOL.1.9_2","county": "Yamparáez","NL_NAME_2": "NA","city": "Yamparáez","VARNAME_3": "NA","NL_NAME_3": "NA","TYPE_3": "District","ENGTYPE_3": "Distrito","CC_3": "NA","HASC_3": "NA","name": "Yamparáez.city","area_km2": 644.3642,"hist_schema_id": "Elevation0-9000","hist_area_km2": {"2050": 0.5401,"2075": 2.7805,"2100": 5.9014,"2125": 5.5414,"2150": 5.2214,"2175": 5.1215,"2200": 6.0818,"2225": 5.8419,"2250": 7.1026,"2275": 7.5228,"2300": 7.4229,"2325": 9.1037,"2350": 8.2833,"2375": 8.1232,"2400": 8.2835,"2425": 9.2039,"2450": 9.2041,"2475": 10.8453,"2500": 12.2262,"2525": 11.4062,"2550": 13.5878,"2575": 10.9267,"2600": 12.9885,"2625": 12.429,"2650": 12.1291,"2675": 12.0296,"2700": 12.4904,"2725": 13.2715,"2750": 13.8328,"2775": 13.3529,"2800": 13.8934,"2825": 15.8959,"2850": 16.0567,"2875": 16.4378,"2900": 17.3998,"2925": 19.1419,"2950": 20.5241,"2975": 24.1266,"3000": 29.6531,"3025": 26.569,"3050": 27.1899,"3075": 28.9516,"3100": 33.8569,"3125": 31.8165,"3150": 18.1409,"3175": 10.9524,"3200": 7.6083,"3225": 4.9452,"3250": 3.3635,"3275": 1.8217,"3300": 1.4614,"3325": 0.9209,"3350": 0.4404,"3375": 0.3403,"3400": 0.0601}}}