{"type": "Feature","bbox": [-69.1456,-16.3137,-68.5719,-15.8447],"geometry": {"type": "MultiPolygon","coordinates": [[[[-68.5737,-16.2565,3810.7656],[-68.5722,-16.2519,3810.7803],[-68.5733,-16.2507,3808.5],[-68.5719,-16.2496,3810.4253],[-68.5781,-16.2431,3810.2493],[-68.5772,-16.2394,3820.4856],[-68.5799,-16.2377,3810.4377],[-68.5813,-16.2332,3810.5144],[-68.5878,-16.2303,3810.5374],[-68.5912,-16.2203,3810.7478],[-68.5936,-16.2178,3810.7739],[-68.5929,-16.2155,3810.7593],[-68.6012,-16.21,3809.3333],[-68.6017,-16.201,3810.5547],[-68.6033,-16.1998,3810.8164],[-68.6082,-16.2014,3810.6543],[-68.6097,-16.1998,3810.7329],[-68.6125,-16.2026,3810.7227],[-68.6169,-16.2029,3810.8965],[-68.6265,-16.1975,3811.5005],[-68.6294,-16.2003,3811.0867],[-68.6299,-16.2048,3808.9597],[-68.6426,-16.214,3813.1011],[-68.644,-16.2181,3810.0908],[-68.6538,-16.2181,3810.6143],[-68.6585,-16.2201,3808.5],[-68.6672,-16.2172,3812.3318],[-68.673,-16.2187,3809.7007],[-68.6778,-16.2159,3813.4692],[-68.6942,-16.2124,3811.8223],[-68.7043,-16.2143,3808.8936],[-68.7103,-16.2114,3808.5],[-68.7131,-16.2071,3809.9282],[-68.7218,-16.2032,3808.5],[-68.7373,-16.2029,3808.5],[-68.7488,-16.1994,3808.9736],[-68.7576,-16.191,3813.6785],[-68.7808,-16.1819,3809.8438],[-68.7876,-16.183,3808.5],[-68.7943,-16.1812,3810.0967],[-68.8018,-16.1823,3809.9138],[-68.8045,-16.1803,3811.5535],[-68.811,-16.1843,3811.5132],[-68.816,-16.184,3811.7168],[-68.8157,-16.1872,3811.7246],[-68.8142,-16.1872,3811.7246],[-68.813,-16.1899,3809.7407],[-68.8155,-16.1991,3808.5],[-68.8156,-16.2076,3809.7227],[-68.8042,-16.2171,3808.5],[-68.8195,-16.2408,3808.5],[-68.7789,-16.2794,3808.5],[-68.7634,-16.2806,3808.5],[-68.7249,-16.3137,3808.5],[-68.6905,-16.2854,3808.5],[-68.6526,-16.2468,3808.5],[-68.6387,-16.2397,3808.5],[-68.602,-16.2593,3808.5],[-68.573,-16.2577,3811.001],[-68.5737,-16.2565,3810.7656]],
[[-68.6032,-16.2255,3809.9839],[-68.5997,-16.2284,3811.6145],[-68.5973,-16.2275,3808.825],[-68.5928,-16.2299,3810.9878],[-68.5907,-16.2375,3814.731],[-68.5884,-16.2391,3808.5],[-68.5927,-16.2478,3813.6743],[-68.5961,-16.2464,3808.9492],[-68.5987,-16.2427,3808.5],[-68.6003,-16.2292,3808.8848],[-68.6052,-16.2247,3808.9348],[-68.6051,-16.223,3810.8259],[-68.6032,-16.2255,3809.9839]]],
[[[-68.8505,-16.1787,3842.5176],[-68.8507,-16.1784,3842.5176],[-68.8482,-16.1837,3808.5],[-68.8492,-16.1798,3812.0371],[-68.8505,-16.1787,3842.5176]]],
[[[-69.0155,-15.8447,3817.718],[-69.1456,-15.9305,3808.5],[-68.8681,-16.1946,3808.5],[-68.8507,-16.1784,3842.5176],[-68.8488,-16.175,3814.1702],[-68.846,-16.1744,3810.4292],[-68.8443,-16.1698,3809.6465],[-68.8453,-16.167,3808.5],[-68.8436,-16.1663,3814.7764],[-68.8463,-16.1656,3820.1416],[-68.8471,-16.162,3809.3853],[-68.8515,-16.1613,3808.5],[-68.8533,-16.1579,3810.739],[-68.8555,-16.1576,3812.2693],[-68.8571,-16.1589,3808.5],[-68.8571,-16.1621,3808.5],[-68.8616,-16.1636,3827.8862],[-68.863,-16.1712,3811.9619],[-68.867,-16.1644,3841.3291],[-68.8685,-16.1578,3830.7744],[-68.8637,-16.148,3810.7854],[-68.8644,-16.1429,3812.001],[-68.8723,-16.1356,3808.5],[-68.8754,-16.1277,3816.8901],[-68.8798,-16.125,3809.6411],[-68.8826,-16.1165,3808.5],[-68.8912,-16.1112,3821.8174],[-68.8925,-16.1049,3808.5],[-68.89,-16.1054,3815.8381],[-68.8878,-16.103,3814.7725],[-68.8889,-16.094,3812.625],[-68.8971,-16.0852,3864.9963],[-68.9032,-16.0851,3809.136],[-68.9038,-16.0769,3819.2869],[-68.9103,-16.0722,3808.5],[-68.9067,-16.074,3808.5],[-68.8984,-16.0733,3811.3997],[-68.8981,-16.0765,3818.127],[-68.8945,-16.0771,3812.9465],[-68.89,-16.0678,3810.647],[-68.8875,-16.0665,3810.5481],[-68.8851,-16.0676,3819.4121],[-68.8808,-16.0633,3827.0686],[-68.8757,-16.0635,3843.2896],[-68.8714,-16.0598,3824.5483],[-68.8672,-16.0485,3867.2803],[-68.8649,-16.047,3825.8242],[-68.8622,-16.049,3834.0161],[-68.8616,-16.053,3816.7778],[-68.8656,-16.057,3818.8091],[-68.8669,-16.0661,3809.5239],[-68.8723,-16.0678,3817.791],[-68.8718,-16.0708,3839.0659],[-68.8737,-16.075,3817.709],[-68.8679,-16.0733,3813.1489],[-68.864,-16.0756,3812.0869],[-68.86,-16.0732,3814.8513],[-68.8582,-16.0757,3811.5518],[-68.8556,-16.0706,3811.5098],[-68.8578,-16.0697,3811.0835],[-68.8572,-16.0676,3811.2271],[-68.8479,-16.0627,3808.5],[-68.8433,-16.0639,3811.085],[-68.8394,-16.0562,3808.5],[-68.8374,-16.0566,3810.4453],[-68.8362,-16.055,3809.0139],[-68.8348,-16.0318,3808.5],[-68.8236,-16.023,3814.0891],[-68.8203,-16.0179,3808.8733],[-68.8213,-16.0123,3815.1001],[-68.8183,-16.0107,3808.5],[-68.806,-16.0153,3812.7939],[-68.8028,-16.015,3813.5964],[-68.8014,-16.0124,3809.4602],[-68.795,-16.0137,3810.0806],[-68.7941,-16.016,3811.3252],[-68.7868,-16.0211,3811.04],[-68.7807,-16.0208,3811.1619],[-68.7787,-16.0265,3812.0676],[-68.7747,-16.0246,3811.7134],[-68.7703,-16.0256,3810.2207],[-68.7683,-16.03,3810.8005],[-68.7591,-16.0259,3811.1174],[-68.7573,-16.0204,3811.0964],[-68.7539,-16.0194,3811.0493],[-68.7526,-16.0215,3811.3044],[-68.7529,-16.0181,3811.0493],[-68.7508,-16.0185,3811.1504],[-68.7495,-16.0162,3810.2156],[-68.7477,-16.0186,3811.0559],[-68.7476,-16.0149,3810.5652],[-68.7433,-16.0137,3810.4287],[-68.7429,-16.0158,3810.748],[-68.7417,-16.0135,3810.2808],[-68.74,-16.0174,3810.9451],[-68.741,-16.0124,3810.8306],[-68.7503,-16.0077,3810.1777],[-68.7498,-16.0048,3811.0225],[-68.7565,-16.0016,3810.9402],[-68.7548,-15.9981,3810.9319],[-68.7527,-16.0013,3810.9827],[-68.7494,-16.0027,3809.3955],[-68.7456,-16.0017,3810.3792],[-68.7442,-16.0038,3810.8071],[-68.7395,-16.0024,3811.3076],[-68.7448,-16.0021,3810.3792],[-68.7479,-15.9972,3808.9944],[-68.747,-15.9951,3808.5],[-68.7424,-15.9937,3808.9167],[-68.7427,-15.9923,3808.8499],[-68.7477,-15.9926,3808.5],[-68.7502,-15.9893,3808.5],[-68.7534,-15.9893,3808.5],[-68.7511,-15.9862,3809.8296],[-68.7529,-15.9831,3811.0854],[-68.7527,-15.9792,3811.0688],[-68.7506,-15.979,3811.0339],[-68.7481,-15.9755,3811.0295],[-68.7356,-15.9762,3809.0889],[-68.7337,-15.9732,3810.2915],[-68.7296,-15.9728,3808.5],[-68.7248,-15.9696,3808.5],[-68.7152,-15.9732,3811.8054],[-68.7217,-15.9691,3808.5],[-68.7261,-15.9689,3808.5],[-68.7274,-15.9705,3809.4009],[-68.73,-15.9693,3810.9143],[-68.7285,-15.9607,3808.5],[-68.7244,-15.9601,3808.5],[-68.7281,-15.9575,3808.5],[-68.7272,-15.9559,3809.9429],[-68.7221,-15.9584,3808.5],[-68.7216,-15.961,3808.5],[-68.7151,-15.9593,3808.5],[-68.7191,-15.9587,3808.5],[-68.7233,-15.9542,3808.5],[-68.7216,-15.9534,3808.5],[-68.7242,-15.9455,3808.5],[-68.7216,-15.9437,3809.0776],[-68.7242,-15.9425,3809.6619],[-68.7289,-15.947,3809.3784],[-68.7313,-15.9454,3810.8691],[-68.7344,-15.9476,3809.6255],[-68.7332,-15.9453,3810.9524],[-68.7355,-15.9468,3809.6255],[-68.7401,-15.9461,3810.998],[-68.7466,-15.9434,3809.6841],[-68.7508,-15.9327,3808.5],[-68.7544,-15.9321,3808.5],[-68.7626,-15.9405,3808.5],[-68.7672,-15.9396,3808.5],[-68.7684,-15.9453,3808.5],[-68.7723,-15.9487,3808.5],[-68.7738,-15.9456,3808.5],[-68.7764,-15.9453,3808.5],[-68.778,-15.9501,3810.0308],[-68.7838,-15.9558,3809.6968],[-68.7908,-15.9511,3814.9382],[-68.794,-15.9511,3809.938],[-68.7951,-15.9527,3810.2585],[-68.7949,-15.9504,3809.938],[-68.7972,-15.9483,3811.0796],[-68.8045,-15.9494,3813.335],[-68.8094,-15.9453,3811.0022],[-68.8128,-15.9393,3814.5298],[-68.816,-15.9387,3810.9731],[-68.8157,-15.9369,3812.1458],[-68.818,-15.9356,3811.4189],[-68.8245,-15.9339,3812.7048],[-68.832,-15.9373,3812.3018],[-68.8297,-15.934,3811.3674],[-68.8268,-15.9347,3811.0186],[-68.827,-15.9326,3812.2708],[-68.8294,-15.9331,3811.3674],[-68.8319,-15.9301,3811.1372],[-68.8354,-15.9311,3812.1646],[-68.8395,-15.9285,3811.1484],[-68.84,-15.9261,3839.3706],[-68.843,-15.9267,3810.9968],[-68.8494,-15.9226,3812.5164],[-68.8505,-15.9233,3811.1274],[-68.8488,-15.9258,3811.0437],[-68.8496,-15.927,3811.0452],[-68.8555,-15.9269,3811.4417],[-68.8589,-15.9307,3810.2505],[-68.8664,-15.9339,3811.3367],[-68.8683,-15.9365,3811.1677],[-68.8717,-15.9341,3812.106],[-68.876,-15.936,3811.8364],[-68.8754,-15.9371,3814.2356],[-68.8713,-15.9365,3811.0938],[-68.8712,-15.9383,3809.1516],[-68.878,-15.9381,3810.4331],[-68.8822,-15.9418,3809.1262],[-68.8885,-15.9427,3811.2822],[-68.9007,-15.9352,3808.5],[-68.9079,-15.9216,3895.4006],[-68.9141,-15.9195,3820.3545],[-68.9245,-15.9126,3822.1377],[-68.9385,-15.8994,3831.8477],[-68.9463,-15.8993,3818.3706],[-68.9541,-15.8966,3808.5],[-68.9613,-15.8968,3808.5],[-68.9676,-15.8922,3818.8533],[-68.9727,-15.8906,3811.1157],[-68.975,-15.8918,3808.5],[-68.9822,-15.8881,3808.5],[-68.9855,-15.8847,3808.5],[-68.9856,-15.8821,3811.5425],[-68.9875,-15.8822,3810.9482],[-68.9857,-15.8809,3810.9004],[-68.9857,-15.8774,3811.2351],[-68.9899,-15.8673,3813.3789],[-68.996,-15.8654,3810.1597],[-69.0028,-15.8663,3808.5],[-69.0095,-15.8638,3823.7156],[-69.0116,-15.861,3808.5],[-69.0155,-15.8447,3817.718]],
[[-68.863,-16.072,3812.7412],[-68.8665,-16.0728,3814.4719],[-68.8641,-16.0686,3810.9207],[-68.8618,-16.0693,3812.0698],[-68.863,-16.072,3812.7412]]]]}
,"properties": {"GID_3": "BOL.4.19.5_2","GID_0": "BOL","country": "Bolivia","GID_1": "BOL.4_1","province": "LaPaz","NL_NAME_1": "NA","GID_2": "BOL.4.19_2","county": "Omasuyos","NL_NAME_2": "NA","city": "LagoTiticaca","VARNAME_3": "NA","NL_NAME_3": "NA","TYPE_3": "Lago","ENGTYPE_3": "Waterbody","CC_3": "NA","HASC_3": "NA","name": "Lago_Titicaca.city","area_km2": 866.9243,"hist_schema_id": "Elevation0-9000","hist_area_km2": {"3800": 865.5998,"3825": 1.1003,"3850": 0.2038,"3900": 0.0204}}}