{"type":"Feature","properties":{"GID_2":"BOL.4.19_2","GID_0":"BOL","country":"Bolivia","GID_1":"BOL.4_1","province":"LaPaz","NL_NAME_1":"NA","county":"Omasuyos","VARNAME_2":"NA","NL_NAME_2":"NA","TYPE_2":"Provincia","ENGTYPE_2":"Province","CC_2":"NA","HASC_2":"NA","name":"Omasuyos.county"},
"geometry":{"type": "MultiPolygon","coordinates": [[[[-68.5732,-16.2574,3811.001],[-68.5737,-16.2562,3810.7646],[-68.5504,-16.2477,4040.7705],[-68.558,-16.2354,4085.4033],[-68.5691,-16.2252,4031.9448],[-68.5529,-16.1975,3910.1682],[-68.5308,-16.1977,3926.8235],[-68.5243,-16.2071,3934.3582],[-68.5114,-16.1871,3944.9624],[-68.5177,-16.1791,3937.022],[-68.5306,-16.1719,3922.1938],[-68.5274,-16.1282,4027.8376],[-68.5187,-16.121,4053.2668],[-68.5097,-16.1314,4164.9004],[-68.5009,-16.1335,4212.1074],[-68.507,-16.1187,4064.0657],[-68.5229,-16.1157,4022.5022],[-68.5396,-16.107,4065.4739],[-68.5498,-16.1059,3988.884],[-68.5484,-16.0996,4003.5869],[-68.5435,-16.0903,4062.7866],[-68.5398,-16.0871,4091.8164],[-68.5466,-16.082,4072.2769],[-68.5251,-16.0791,4146.6694],[-68.5125,-16.0698,4198.564],[-68.5075,-16.0702,4225.3008],[-68.501,-16.0667,4280.4829],[-68.5014,-16.0623,4346.4316],[-68.498,-16.0494,4464.3101],[-68.5001,-16.0453,4462.8281],[-68.5056,-16.0412,4461.3853],[-68.5074,-16.0362,4494.7764],[-68.5043,-16.0292,4480.875],[-68.4963,-16.0221,4483.6797],[-68.4963,-16.014,4676.5254],[-68.4888,-15.9994,4718.1113],[-68.4921,-15.9967,4785.2861],[-68.4938,-15.9894,4822.9316],[-68.4924,-15.9822,4792.7891],[-68.4874,-15.9747,4834.8364],[-68.487,-15.9681,4989.2109],[-68.5195,-15.9332,4879.8882],[-68.5981,-15.9286,4270.0947],[-68.62,-15.9083,4380.6978],[-68.6341,-15.9074,4176.3633],[-68.6634,-15.8812,4198.5068],[-68.6683,-15.8709,4284.959],[-68.6681,-15.8671,4247.3027],[-68.6761,-15.8644,4272.1357],[-68.6818,-15.853,4349.3359],[-68.6944,-15.8551,4233.4248],[-68.7038,-15.8599,3846.321],[-68.7087,-15.8563,3814.2085],[-68.7138,-15.8464,3670.4604],[-68.7182,-15.8455,3735.4539],[-68.7354,-15.8563,4256.9912],[-68.7423,-15.8631,4338.7231],[-68.7533,-15.8519,4353.2246],[-68.7706,-15.8671,4343.2119],[-68.7814,-15.8695,4401.6357],[-68.7887,-15.8633,4416.1733],[-68.7912,-15.8544,4417.1582],[-68.7996,-15.849,4476.6606],[-68.8011,-15.8446,4485.0869],[-68.8009,-15.8381,4434.0239],[-68.7972,-15.8258,4466.5952],[-68.8027,-15.8203,4442.7534],[-68.805,-15.8104,4304.5088],[-68.807,-15.7985,4361.6826],[-68.806,-15.7849,4097.8745],[-68.8073,-15.7701,4194.3403],[-68.8168,-15.7589,3669.1089],[-68.8221,-15.7548,3366.6228],[-68.8304,-15.754,3441.9602],[-68.8426,-15.7596,3853.1152],[-68.8481,-15.7559,3927.3892],[-68.8521,-15.7558,3987.3831],[-68.8674,-15.7645,4293.5801],[-68.8756,-15.7639,4454.0938],[-68.8779,-15.7613,4530.6025],[-68.8887,-15.7617,4620.0967],[-68.9075,-15.7758,4636.2583],[-68.9179,-15.7726,4672.457],[-68.9073,-15.8031,4271.0757],[-68.9122,-15.8038,4392.6597],[-68.9213,-15.8019,4568.9658],[-68.9268,-15.7982,4626.2852],[-68.9336,-15.7994,4604.418],[-68.9503,-15.7973,4378.8447],[-68.953,-15.7928,4411.9717],[-68.9572,-15.7921,4399.9912],[-68.9693,-15.7997,4187.5322],[-68.9777,-15.8019,4472.4785],[-68.988,-15.8253,4236.0205],[-68.9855,-15.8309,4221.1182],[-68.9892,-15.8411,3935.2695],[-68.9854,-15.845,3986.749],[-68.9749,-15.8501,4157.2837],[-68.9671,-15.8625,4098.0107],[-68.9634,-15.8654,4093.6157],[-68.9533,-15.879,4043.6011],[-68.9535,-15.8832,4048.22],[-68.9573,-15.884,4053.4648],[-68.9595,-15.8886,3962.3555],[-68.9619,-15.89,3938.7051],[-68.9611,-15.8963,3808.5],[-68.9706,-15.891,3814.8477],[-68.975,-15.8918,3808.5],[-68.9822,-15.8881,3808.5],[-68.9855,-15.8847,3808.5],[-68.9856,-15.8821,3811.5425],[-68.9875,-15.8822,3810.9482],[-68.9857,-15.8809,3810.9004],[-68.9857,-15.8774,3811.2351],[-68.9899,-15.8673,3813.3789],[-68.996,-15.8654,3810.1597],[-69.0028,-15.8663,3808.5],[-69.0095,-15.8638,3823.7156],[-69.0116,-15.861,3808.5],[-69.0159,-15.8439,3810.7896],[-69.1456,-15.9305,3808.5],[-68.8681,-16.1946,3808.5],[-68.8507,-16.1784,3842.5176],[-68.85,-16.1762,3812.7554],[-68.8468,-16.1808,3934.2231],[-68.8423,-16.1819,4029.4512],[-68.842,-16.1849,4003.7695],[-68.8293,-16.1924,4079.0918],[-68.8288,-16.1958,4066.6064],[-68.8215,-16.1985,3972.4419],[-68.818,-16.2063,3828.8179],[-68.8042,-16.2171,3808.5],[-68.8195,-16.2408,3808.5],[-68.7789,-16.2794,3808.5],[-68.7634,-16.2806,3808.5],[-68.7249,-16.3137,3808.5],[-68.6905,-16.2854,3808.5],[-68.6526,-16.2468,3808.5],[-68.6387,-16.2397,3808.5],[-68.602,-16.2593,3808.5],[-68.5732,-16.2574,3811.001]]],
[[[-68.8497,-16.1792,3842.5176],[-68.8507,-16.1784,3842.5176],[-68.8482,-16.1837,3808.5],[-68.8482,-16.1824,3841.3462],[-68.8497,-16.1792,3842.5176]]]]}}