{"type":"Feature","properties":{"GID_2":"BOL.6.5_2","GID_0":"BOL","country":"Bolivia","GID_1":"BOL.6_1","province":"Pando","NL_NAME_1":"NA","county":"NicolásSuárez","VARNAME_2":"NA","NL_NAME_2":"NA","TYPE_2":"Provincia","ENGTYPE_2":"Province","CC_2":"NA","HASC_2":"NA","name":"Nicolás_Suárez.county"},
"geometry":{"type": "MultiPolygon","coordinates": [[[[-69.0019,-11.433,245.6746],[-69.0017,-11.4314,243.2522],[-68.9993,-11.4308,227.0],[-68.9903,-11.4322,239.1881],[-68.9913,-11.4342,232.0286],[-68.9982,-11.4363,238.8212],[-68.9984,-11.4391,233.018],[-68.9959,-11.4405,234.7327],[-68.9841,-11.4342,232.8116],[-68.9854,-11.4393,230.9951],[-68.9889,-11.4425,245.7115],[-68.9849,-11.4448,236.3088],[-68.9819,-11.4428,232.9024],[-68.981,-11.4375,228.3826],[-68.9762,-11.4338,229.5753],[-68.9775,-11.432,238.3147],[-68.982,-11.432,233.1498],[-68.9819,-11.4292,231.4383],[-68.9785,-11.4291,232.9815],[-68.972,-11.4321,231.6705],[-68.9693,-11.426,231.05],[-68.9598,-11.4218,239.0244],[-68.9581,-11.4227,239.0244],[-68.9571,-11.4269,227.8974],[-68.9548,-11.4274,226.5858],[-68.9477,-11.4182,242.6427],[-68.9526,-11.415,241.5627],[-68.9527,-11.4076,226.0807],[-68.9497,-11.4082,236.9964],[-68.9461,-11.414,225.823],[-68.9403,-11.409,227.1721],[-68.9371,-11.4102,235.8347],[-68.93,-11.4095,229.2703],[-68.9299,-11.4053,227.2596],[-68.9372,-11.406,231.9733],[-68.9402,-11.4042,236.6962],[-68.9405,-11.4021,230.8599],[-68.9341,-11.401,230.6996],[-68.9328,-11.3932,232.246],[-68.9289,-11.3896,244.9806],[-68.9273,-11.3849,223.0],[-68.9229,-11.3865,235.9814],[-68.9176,-11.3814,240.1016],[-68.9193,-11.3796,229.4722],[-68.9242,-11.383,229.0984],[-68.9269,-11.3819,226.6437],[-68.9267,-11.3787,235.4945],[-68.9211,-11.376,230.6903],[-68.911,-11.3771,228.0821],[-68.9061,-11.3715,237.1198],[-68.9009,-11.3807,228.5278],[-68.8938,-11.3837,231.4884],[-68.8892,-11.3803,229.3958],[-68.8891,-11.3746,233.2071],[-68.8861,-11.3743,229.087],[-68.8844,-11.3773,225.5529],[-68.8848,-11.385,224.358],[-68.882,-11.3879,226.0535],[-68.8779,-11.3885,233.2303],[-68.8753,-11.3874,227.7868],[-68.8741,-11.3845,228.4028],[-68.881,-11.3818,224.2643],[-68.879,-11.3765,226.0992],[-68.8752,-11.3758,231.4744],[-68.871,-11.3815,230.0326],[-68.8706,-11.386,228.0929],[-68.8685,-11.3866,233.0724],[-68.8682,-11.3796,229.8247],[-68.8619,-11.375,228.2086],[-68.861,-11.3644,227.8438],[-68.8587,-11.3645,223.5934],[-68.8539,-11.3696,238.8853],[-68.8491,-11.3675,227.5415],[-68.849,-11.3651,226.2694],[-68.8539,-11.3626,221.47559999999999],[-68.8505,-11.3575,230.9561],[-68.8479,-11.3582,227.0732],[-68.846,-11.3662,221.8739],[-68.8413,-11.369,221.0879],[-68.8415,-11.3736,222.5495],[-68.8392,-11.3724,226.1361],[-68.8404,-11.3651,240.3268],[-68.838,-11.3625,225.3937],[-68.833,-11.3632,231.2547],[-68.83,-11.3677,223.6349],[-68.8237,-11.3683,232.4776],[-68.8225,-11.3676,218.2156],[-68.8236,-11.3625,226.9447],[-68.8218,-11.3622,219.1345],[-68.8188,-11.369,231.158],[-68.8168,-11.3702,228.5959],[-68.8143,-11.369,225.946],[-68.8138,-11.3667,224.215],[-68.8151,-11.3648,226.1014],[-68.8196,-11.3636,224.6467],[-68.819,-11.3612,227.3991],[-68.8152,-11.361,229.6148],[-68.8124,-11.3668,224.215],[-68.8076,-11.3684,235.6475],[-68.8056,-11.3591,234.6758],[-68.803,-11.3578,218.6099],[-68.8008,-11.3605,223.359],[-68.8016,-11.3647,229.9272],[-68.7997,-11.3652,229.9272],[-68.7984,-11.3623,226.254],[-68.8041,-11.3465,221.1601],[-68.8023,-11.3456,227.7599],[-68.7951,-11.3494,227.9668],[-68.7948,-11.3539,224.1471],[-68.7923,-11.3489,225.5515],[-68.7953,-11.3465,224.9548],[-68.7963,-11.3415,219.607],[-68.7989,-11.3414,234.4066],[-68.8018,-11.3442,218.0685],[-68.8028,-11.3409,219.7664],[-68.7934,-11.3364,226.8516],[-68.7873,-11.3388,218.3234],[-68.7837,-11.3353,221.1232],[-68.7896,-11.3314,220.3681],[-68.7892,-11.3293,226.933],[-68.7822,-11.33,223.6407],[-68.779,-11.327,217.7408],[-68.7773,-11.3279,217.7408],[-68.7764,-11.3329,216.1168],[-68.7748,-11.3343,220.703],[-68.7666,-11.3302,216.4852],[-68.7681,-11.3418,218.2458],[-68.7668,-11.3434,224.0447],[-68.7607,-11.3368,217.0577],[-68.7607,-11.3318,220.7988],[-68.7638,-11.3284,221.0209],[-68.763,-11.3271,220.334],[-68.7531,-11.3221,220.7787],[-68.7509,-11.3248,218.6346],[-68.7529,-11.33,217.6288],[-68.7506,-11.3315,223.1413],[-68.7486,-11.3306,219.5888],[-68.7479,-11.3237,219.7602],[-68.7503,-11.3167,219.5658],[-68.7461,-11.3159,219.1813],[-68.7422,-11.3182,225.8761],[-68.7409,-11.3175,212.5],[-68.7462,-11.3118,221.6102],[-68.7418,-11.3061,218.6284],[-68.741,-11.2987,216.1222],[-68.7437,-11.2947,218.4353],[-68.7399,-11.2941,218.7475],[-68.7368,-11.2911,215.4225],[-68.7387,-11.2848,219.6285],[-68.7376,-11.2727,217.6926],[-68.7332,-11.271,216.5632],[-68.7301,-11.2759,216.2895],[-68.7274,-11.2751,227.3671],[-68.7255,-11.2732,228.0223],[-68.724,-11.266,216.3082],[-68.7167,-11.262,221.2887],[-68.7114,-11.251,224.3641],[-68.7096,-11.251,210.8292],[-68.7096,-11.2577,213.0693],[-68.7067,-11.2585,220.3955],[-68.6955,-11.2472,214.7392],[-68.6898,-11.245,218.1507],[-68.6881,-11.2402,212.1165],[-68.6833,-11.238,215.792],[-68.6787,-11.2389,220.1238],[-68.6762,-11.2467,221.8044],[-68.6713,-11.2453,216.165],[-68.6687,-11.2425,217.2098],[-68.6648,-11.2441,211.0142],[-68.6639,-11.2456,214.0954],[-68.6658,-11.2507,217.6271],[-68.6636,-11.2519,212.7659],[-68.6588,-11.2492,212.5416],[-68.6604,-11.2442,213.6068],[-68.6591,-11.2418,217.7632],[-68.6495,-11.2461,213.9993],[-68.6419,-11.2431,213.5855],[-68.6363,-11.2462,211.8961],[-68.6334,-11.2434,215.2277],[-68.633,-11.2386,227.1715],[-68.63,-11.238,223.6381],[-68.6224,-11.2402,223.8563],[-68.6175,-11.2356,210.6218],[-68.6148,-11.2403,226.7143],[-68.6092,-11.2447,226.6913],[-68.6056,-11.2444,205.791],[-68.6029,-11.2403,209.2673],[-68.6032,-11.2386,203.5],[-68.6069,-11.2397,223.8904],[-68.6069,-11.2383,212.6676],[-68.6001,-11.236,210.571],[-68.5966,-11.2397,222.4789],[-68.5904,-11.2376,209.1602],[-68.5876,-11.2394,210.1302],[-68.582,-11.2396,224.8873],[-68.5722,-11.2455,219.1984],[-68.5687,-11.2449,205.6486],[-68.5677,-11.25,216.6753],[-68.5662,-11.2506,210.1964],[-68.5643,-11.2494,210.2704],[-68.5605,-11.2363,230.0828],[-68.5553,-11.2344,213.0818],[-68.5528,-11.2295,210.7101],[-68.5438,-11.2298,219.191],[-68.5385,-11.2318,225.8074],[-68.5361,-11.2346,227.9433],[-68.5352,-11.2411,209.5339],[-68.5328,-11.2427,208.1258],[-68.5299,-11.2407,211.3582],[-68.5296,-11.2362,206.6136],[-68.5257,-11.2337,216.5486],[-68.5265,-11.232,204.0179],[-68.5302,-11.2321,213.3999],[-68.5257,-11.23,209.2971],[-68.5088,-11.2479,224.0155],[-68.5016,-11.2526,213.9828],[-68.4986,-11.2602,206.2762],[-68.4958,-11.2586,204.8081],[-68.4968,-11.2537,206.8813],[-68.4954,-11.251,204.3654],[-68.4926,-11.2533,217.4053],[-68.4907,-11.2586,205.407],[-68.4873,-11.2581,202.6135],[-68.4851,-11.2537,221.7274],[-68.4863,-11.2483,210.1714],[-68.4845,-11.2469,209.1206],[-68.4795,-11.2578,198.5],[-68.4841,-11.2599,219.2342],[-68.4839,-11.2614,206.4782],[-68.478,-11.2605,209.6445],[-68.4729,-11.2637,199.6782],[-68.4716,-11.2628,200.9516],[-68.4721,-11.2581,215.378],[-68.4705,-11.2555,201.0953],[-68.4624,-11.2557,203.7487],[-68.4622,-11.2513,215.0197],[-68.4609,-11.2504,205.5233],[-68.4593,-11.2513,213.631],[-68.4581,-11.2561,223.4102],[-68.4591,-11.2576,205.9297],[-68.4648,-11.2586,212.5681],[-68.4649,-11.2611,209.8619],[-68.4617,-11.2619,205.4207],[-68.4547,-11.2598,209.1569],[-68.4539,-11.2574,200.0938],[-68.4559,-11.2545,212.0732],[-68.4538,-11.2538,203.2509],[-68.4518,-11.2572,207.2061],[-68.4534,-11.2627,211.2073],[-68.4507,-11.2649,208.4443],[-68.4477,-11.262,222.1235],[-68.4463,-11.257,209.9147],[-68.4439,-11.2563,224.4689],[-68.4431,-11.2657,204.0972],[-68.4355,-11.2643,203.174],[-68.4342,-11.2667,203.1137],[-68.4349,-11.2717,207.398],[-68.4305,-11.2685,213.0986],[-68.4236,-11.2692,205.1563],[-68.4217,-11.2753,203.6446],[-68.4149,-11.2689,202.4081],[-68.4116,-11.2712,205.35],[-68.4087,-11.2701,203.257],[-68.4072,-11.2629,203.0055],[-68.4086,-11.2584,205.3594],[-68.4052,-11.2575,204.4501],[-68.4005,-11.2614,211.9383],[-68.4017,-11.2654,197.4651],[-68.3999,-11.2668,202.2902],[-68.3945,-11.2628,197.973],[-68.3973,-11.2575,200.4426],[-68.3889,-11.2554,205.844],[-68.3858,-11.2531,197.4015],[-68.3847,-11.257,202.4187],[-68.3829,-11.2577,200.9653],[-68.3825,-11.2509,203.2769],[-68.3857,-11.2472,208.8243],[-68.3859,-11.2434,222.6265],[-68.3844,-11.2413,219.0898],[-68.3811,-11.2438,204.1217],[-68.3785,-11.2421,209.614],[-68.379,-11.2393,203.6658],[-68.383,-11.2351,202.8624],[-68.3816,-11.2332,223.3061],[-68.3788,-11.2326,204.4301],[-68.3729,-11.2399,208.1177],[-68.3684,-11.242,205.6354],[-68.3655,-11.2416,208.5031],[-68.3644,-11.239,198.4082],[-68.366,-11.235,208.4499],[-68.3705,-11.2323,211.884],[-68.3698,-11.2311,221.5735],[-68.3637,-11.2311,201.5577],[-68.3579,-11.234,200.5789],[-68.3588,-11.2391,199.0496],[-68.3574,-11.2399,198.8577],[-68.3542,-11.2393,201.7207],[-68.3506,-11.234,197.4583],[-68.3467,-11.2423,199.8692],[-68.3449,-11.2404,216.2424],[-68.3453,-11.2331,195.8734],[-68.3398,-11.2319,203.9107],[-68.3342,-11.2338,203.1356],[-68.3286,-11.2321,195.57],[-68.3259,-11.2362,222.1355],[-68.3284,-11.2405,203.6499],[-68.3246,-11.2424,202.6513],[-68.3153,-11.2429,204.8749],[-68.3157,-11.2454,190.625],[-68.319,-11.2465,197.9713],[-68.3182,-11.2486,204.8499],[-68.3161,-11.2482,203.3846],[-68.3103,-11.2409,201.9246],[-68.306,-11.2415,211.2205],[-68.3056,-11.2375,205.7077],[-68.3024,-11.236,201.7372],[-68.2954,-11.2411,205.5664],[-68.2905,-11.2417,193.0995],[-68.2888,-11.2454,193.8485],[-68.2852,-11.2446,208.8525],[-68.2788,-11.2466,201.1477],[-68.2809,-11.2499,193.2759],[-68.2856,-11.2482,211.9566],[-68.2875,-11.2493,195.0279],[-68.2865,-11.2551,197.9256],[-68.2766,-11.2495,195.7428],[-68.2683,-11.2504,203.5058],[-68.2639,-11.2491,195.604],[-68.2596,-11.2554,192.3895],[-68.2546,-11.2517,198.7755],[-68.2551,-11.2591,196.0055],[-68.2506,-11.2576,198.0102],[-68.2491,-11.259,198.5517],[-68.2486,-11.2644,200.6729],[-68.2503,-11.271,195.7233],[-68.2443,-11.2685,197.8739],[-68.2408,-11.264,196.7862],[-68.2379,-11.2667,214.722],[-68.241,-11.274,190.7912],[-68.2398,-11.2763,191.75],[-68.2364,-11.2761,197.2917],[-68.2308,-11.2788,193.9576],[-68.2273,-11.2756,197.5657],[-68.2206,-11.2763,189.3235],[-68.2168,-11.2818,197.42],[-68.2201,-11.2845,190.3714],[-68.2203,-11.2887,194.7459],[-68.2183,-11.2902,198.3058],[-68.2113,-11.2898,210.9958],[-68.2105,-11.2958,192.9695],[-68.1994,-11.2919,195.6357],[-68.199,-11.2897,198.4354],[-68.2028,-11.2871,194.3873],[-68.2018,-11.2854,196.1339],[-68.1954,-11.2888,203.0422],[-68.1934,-11.2933,196.4842],[-68.1887,-11.2884,198.0182],[-68.1849,-11.2924,191.1688],[-68.1807,-11.2928,194.7147],[-68.1793,-11.29,192.0677],[-68.181,-11.2872,193.575],[-68.179,-11.286,190.7993],[-68.1742,-11.2884,202.9968],[-68.171,-11.2924,194.4342],[-68.1684,-11.2872,206.9596],[-68.1714,-11.2821,189.8992],[-68.1665,-11.2821,191.6164],[-68.1611,-11.2847,197.1253],[-68.1599,-11.2829,201.7862],[-68.1612,-11.2791,192.4004],[-68.159,-11.2781,201.7512],[-68.1564,-11.2791,188.6647],[-68.1547,-11.2863,201.0292],[-68.1425,-11.2873,191.4918],[-68.1414,-11.2913,200.1197],[-68.1363,-11.2868,194.8579],[-68.1365,-11.2846,187.7177],[-68.1394,-11.2824,194.7199],[-68.1388,-11.2802,201.8331],[-68.132,-11.2804,190.5806],[-68.131,-11.2816,189.9861],[-68.1332,-11.2863,198.4379],[-68.1266,-11.2877,193.9673],[-68.1178,-11.2819,190.6866],[-68.12,-11.2882,193.2377],[-68.1177,-11.2904,191.1755],[-68.114,-11.288,192.4672],[-68.1152,-11.2818,198.1216],[-68.1112,-11.2779,189.5872],[-68.1101,-11.2786,193.4084],[-68.1122,-11.291,205.9407],[-68.1106,-11.2936,193.22],[-68.1067,-11.2905,197.2043],[-68.1097,-11.2871,186.5819],[-68.1076,-11.2843,191.2239],[-68.1031,-11.2868,188.6056],[-68.0988,-11.292,199.0582],[-68.092,-11.2925,194.8852],[-68.0878,-11.2946,199.75],[-68.0873,-11.2909,185.3827],[-68.0807,-11.2914,202.5601],[-68.0779,-11.2968,192.1886],[-68.074,-11.2962,192.364],[-68.0705,-11.2924,193.1253],[-68.0679,-11.2919,192.2466],[-68.0661,-11.2944,184.1189],[-68.0685,-11.2986,184.4577],[-68.0673,-11.2997,199.5457],[-68.0625,-11.2957,198.9052],[-68.0582,-11.2867,191.3145],[-68.0561,-11.292,185.9108],[-68.0519,-11.293,182.9678],[-68.0509,-11.2972,189.95],[-68.0469,-11.2929,186.6246],[-68.0436,-11.2975,182.8511],[-68.0414,-11.2955,184.4617],[-68.044,-11.2888,201.5418],[-68.0434,-11.2863,202.4357],[-68.0371,-11.2852,191.5195],[-68.0315,-11.2862,185.2413],[-68.0366,-11.2776,194.6469],[-68.0306,-11.2798,198.1631],[-68.0284,-11.2851,189.8947],[-68.0198,-11.2809,196.8743],[-68.0214,-11.2783,195.0026],[-68.0264,-11.2784,195.9857],[-68.0267,-11.2763,191.2939],[-68.0161,-11.2759,186.4296],[-68.0146,-11.27,192.4703],[-68.0131,-11.2704,184.2346],[-68.0116,-11.276,184.0988],[-68.0096,-11.2754,185.005],[-68.0076,-11.2712,181.1823],[-68.0028,-11.276,186.6695],[-68.0024,-11.2728,182.9534],[-68.0056,-11.2702,183.0737],[-68.0056,-11.2677,183.6877],[-67.9952,-11.2631,183.1052],[-67.9948,-11.265,188.1807],[-67.9983,-11.2687,184.668],[-67.9965,-11.2698,195.8796],[-67.9914,-11.2647,194.6995],[-67.9919,-11.2622,181.6238],[-67.9968,-11.2607,182.7023],[-67.9964,-11.2596,182.7023],[-67.9905,-11.2588,184.42],[-67.9847,-11.2602,182.5649],[-67.9869,-11.2639,184.2936],[-67.9865,-11.2662,188.3272],[-67.9788,-11.2676,182.9259],[-67.9776,-11.2625,184.3635],[-67.9822,-11.2627,185.2525],[-67.9833,-11.2602,182.5649],[-67.9812,-11.256,183.9057],[-67.9769,-11.2569,193.4097],[-67.972,-11.2557,183.3936],[-67.9709,-11.2581,184.0474],[-67.9719,-11.2623,190.7749],[-67.9698,-11.2632,192.9479],[-67.9659,-11.2551,188.7997],[-67.9603,-11.2586,197.4197],[-67.9589,-11.258,188.5488],[-67.9529,-11.2438,180.5543],[-67.948,-11.2499,193.3552],[-67.945,-11.2457,191.0701],[-67.9422,-11.2448,191.7408],[-67.9382,-11.2494,179.5735],[-67.9369,-11.2443,184.8339],[-67.9337,-11.2433,191.4181],[-67.9218,-11.2489,182.2706],[-67.9204,-11.2478,186.8355],[-67.9202,-11.2437,191.672],[-67.9186,-11.243,185.6263],[-67.9164,-11.2454,181.2348],[-67.9164,-11.25,189.3436],[-67.9118,-11.2461,187.8339],[-67.9111,-11.239,181.7041],[-67.9066,-11.2365,185.1362],[-67.9049,-11.2323,182.4554],[-67.9012,-11.2369,181.7557],[-67.8961,-11.235,189.5641],[-67.8988,-11.2395,182.4792],[-67.8948,-11.2395,178.8331],[-67.8931,-11.2369,183.1608],[-67.8943,-11.2296,181.2423],[-67.892,-11.2293,175.0],[-67.8889,-11.233,188.7111],[-67.8854,-11.2286,188.7534],[-67.8863,-11.2272,179.8061],[-67.8911,-11.2278,178.1026],[-67.8903,-11.2239,181.2379],[-67.8867,-11.2246,188.8041],[-67.8801,-11.2225,185.4339],[-67.8789,-11.2206,181.3873],[-67.8819,-11.2178,181.7453],[-67.8813,-11.2161,182.9447],[-67.873,-11.2173,179.3995],[-67.8723,-11.2156,180.4733],[-67.8748,-11.2127,179.2629],[-67.8743,-11.2106,177.6785],[-67.8689,-11.2134,188.625],[-67.8706,-11.2051,179.3397],[-67.8688,-11.205,178.1506],[-67.8654,-11.2086,179.7153],[-67.8668,-11.2041,181.9597],[-67.8698,-11.2022,184.1797],[-67.8753,-11.2044,181.2565],[-67.8753,-11.1991,189.2849],[-67.8725,-11.1982,188.2459],[-67.8683,-11.201,176.6344],[-67.8627,-11.1987,182.5459],[-67.8626,-11.1957,181.6495],[-67.8676,-11.1928,179.1537],[-67.8674,-11.19,198.2131],[-67.8621,-11.1843,175.8814],[-67.8608,-11.1845,185.0567],[-67.8594,-11.1882,181.4982],[-67.857,-11.1879,184.9663],[-67.8572,-11.1788,179.831],[-67.8549,-11.1779,175.9349],[-67.8534,-11.1827,181.0258],[-67.8512,-11.1823,174.8596],[-67.8509,-11.1764,190.6127],[-67.848,-11.1749,184.3771],[-67.8431,-11.1677,187.5166],[-67.8399,-11.1703,182.2269],[-67.838,-11.1698,189.3436],[-67.842,-11.1638,192.6588],[-67.8379,-11.1578,177.8623],[-67.8354,-11.1579,178.0658],[-67.8336,-11.1614,181.2641],[-67.8316,-11.1611,175.4551],[-67.8271,-11.1567,177.1536],[-67.8278,-11.1546,180.5566],[-67.8311,-11.1548,189.9639],[-67.8318,-11.1531,177.8253],[-67.8263,-11.1507,179.5412],[-67.8228,-11.1521,175.958],[-67.8204,-11.1607,180.4351],[-67.8206,-11.1446,178.2572],[-67.804,-11.1461,179.9926],[-67.8031,-11.1436,175.2499],[-67.806,-11.1407,176.7512],[-67.7959,-11.14,184.6287],[-67.7905,-11.1428,181.5644],[-67.7888,-11.1357,186.6797],[-67.7934,-11.1312,181.1162],[-67.7922,-11.1295,178.6568],[-67.7811,-11.1365,184.5194],[-67.7723,-11.1396,187.5979],[-67.7687,-11.1398,186.7587],[-67.7623,-11.1357,176.1142],[-67.761,-11.1385,172.8026],[-67.7637,-11.1417,179.1947],[-67.7624,-11.1433,181.1669],[-67.7581,-11.1404,180.4532],[-67.7577,-11.1384,174.8882],[-67.7598,-11.1356,178.8088],[-67.757,-11.133,193.1323],[-67.753,-11.1396,181.3693],[-67.757,-11.1428,174.9806],[-67.7567,-11.1479,173.6167],[-67.754,-11.1486,182.3326],[-67.744,-11.1438,177.5006],[-67.7426,-11.146,173.4726],[-67.7438,-11.1507,188.6511],[-67.7402,-11.157,182.5329],[-67.7397,-11.1515,178.1262],[-67.7414,-11.146,177.8653],[-67.737799999999993,-11.1466,184.424],[-67.7308,-11.1433,178.2672],[-67.7277,-11.146,169.0395],[-67.7253,-11.1385,169.4288],[-67.7238,-11.1413,179.5502],[-67.7177,-11.1453,179.1284],[-67.7173,-11.1398,168.3214],[-67.7148,-11.1393,169.0578],[-67.7137,-11.142,175.7401],[-67.7147,-11.1464,172.7896],[-67.7128,-11.1469,172.3971],[-67.7111,-11.1417,175.807],[-67.7055,-11.1381,172.8378],[-67.706,-11.1366,172.4182],[-67.7113,-11.136,173.3873],[-67.7093,-11.1341,173.3298],[-67.7022,-11.136,184.9113],[-67.7051,-11.1394,172.8378],[-67.7038,-11.1461,171.9436],[-67.7018,-11.1417,180.6537],[-67.6961,-11.1448,173.784],[-67.694,-11.1441,174.1699],[-67.6928,-11.1415,169.3442],[-67.6945,-11.1365,175.0093],[-67.6935,-11.1359,171.3143],[-67.6902,-11.1397,175.3183],[-67.6897,-11.1449,172.9829],[-67.6879,-11.1472,171.4993],[-67.6831,-11.1456,166.9877],[-67.6816,-11.1497,171.3471],[-67.6798,-11.1498,177.2738],[-67.6808,-11.1415,173.8426],[-67.6789,-11.1399,176.6917],[-67.6762,-11.151,183.2569],[-67.6738,-11.1503,173.4986],[-67.6726,-11.1451,170.89],[-67.6684,-11.1445,173.0176],[-67.6668,-11.1461,164.5],[-67.6655,-11.1542,172.4788],[-67.6601,-11.1541,169.23],[-67.6589,-11.1576,166.3701],[-67.6543,-11.1551,176.3158],[-67.6458,-11.1577,171.5242],[-67.642,-11.1526,174.6609],[-67.6453,-11.148,179.0191],[-67.6447,-11.1444,168.237],[-67.6409,-11.144,173.6601],[-67.6383,-11.1492,170.7667],[-67.6344,-11.1508,167.6917],[-67.6321,-11.1443,166.4211],[-67.6278,-11.1448,178.3012],[-67.6236,-11.1422,164.9504],[-67.6205,-11.1461,168.0671],[-67.618,-11.1449,172.8813],[-67.6175,-11.1421,169.0099],[-67.6198,-11.1362,167.5237],[-67.6173,-11.1365,176.5],[-67.6138,-11.1416,169.2915],[-67.6109,-11.142,166.3782],[-67.6094,-11.1353,167.077],[-67.6038,-11.1336,177.3284],[-67.6023,-11.1314,166.58],[-67.6044,-11.1282,172.4647],[-67.6088,-11.127,171.1743],[-67.6099,-11.1244,168.8707],[-67.605,-11.1224,164.9334],[-67.604,-11.1162,168.3194],[-67.5998,-11.1165,172.8617],[-67.5947,-11.114,162.703],[-67.5934,-11.1201,167.6993],[-67.5841,-11.1177,165.6887],[-67.578,-11.12,167.2524],[-67.5753,-11.1232,172.4576],[-67.5704,-11.1165,166.9833],[-67.5725,-11.11,162.5421],[-67.5628,-11.1157,166.3594],[-67.5633,-11.1102,165.8904],[-67.5612,-11.1072,164.9472],[-67.7066,-10.7174,152.1358],[-67.7066,-10.7157,151.662],[-67.7038,-10.7135,149.0857],[-67.7053,-10.7119,151.393],[-67.7037,-10.7112,148.6199],[-67.7039,-10.7076,155.2081],[-67.7023,-10.707,157.1619],[-67.7023,-10.7048,153.764],[-67.6995,-10.7068,157.2063],[-67.6919,-10.7012,142.4788],[-67.687,-10.701599999999999,150.9226],[-67.6844,-10.7035,147.8182],[-67.6836,-10.7068,146.7681],[-67.6822,-10.7072,153.6928],[-67.684,-10.709,148.7431],[-67.6793,-10.7086,147.5464],[-67.6777,-10.7067,148.7503],[-67.6721,-10.7075,147.1617],[-67.6709,-10.7042,147.4003],[-67.6653,-10.7026,143.3422],[-67.6595,-10.7056,146.5757],[-67.658,-10.7032,146.1845],[-67.6565,-10.7065,152.0136],[-67.6503,-10.7023,148.159],[-67.6499,-10.7048,147.0042],[-67.6458,-10.7054,143.9004],[-67.6452,-10.7071,148.8161],[-67.6426,-10.7046,149.0522],[-67.6428,-10.7027,146.8949],[-67.6391,-10.7036,148.7945],[-67.6375,-10.7012,146.9279],[-67.6349,-10.7022,150.4033],[-67.6351,-10.7002,148.9078],[-67.6315,-10.7006,142.821],[-67.6308,-10.6969,146.0442],[-67.6284,-10.6943,147.0977],[-67.6266,-10.6954,148.7434],[-67.6241,-10.692,146.9908],[-67.621,-10.693,150.6232],[-67.6173,-10.6911,146.549],[-67.6183,-10.6944,146.8998],[-67.6166,-10.6947,144.831],[-67.6165,-10.6926,144.445],[-67.6138,-10.6953,148.0476],[-67.6132,-10.6935,147.6239],[-67.6148,-10.6919,147.212],[-67.6127,-10.6907,147.7071],[-67.6113,-10.694,145.7787],[-67.6099,-10.6939,146.1097],[-67.6102,-10.6916,148.9772],[-67.6074,-10.6901,146.4634],[-67.6059,-10.6915,150.5696],[-67.6038,-10.688,146.9401],[-67.6042,-10.6846,147.7868],[-67.6011,-10.6843,145.3957],[-67.601,-10.6829,148.2173],[-67.5981,-10.6823,147.8539],[-67.5929,-10.685,144.7714],[-67.5917,-10.6843,151.3912],[-67.592,-10.6869,147.5826],[-67.5884,-10.6873,149.9425],[-67.588,-10.684,142.6086],[-67.5864,-10.6844,147.4725],[-67.5868,-10.6819,145.0292],[-67.5848,-10.682,145.7038],[-67.5844,-10.6807,143.6118],[-67.5799,-10.6824,145.5699],[-67.5738,-10.6776,140.909],[-67.578,-10.6731,145.5108],[-67.5697,-10.6761,140.5681],[-67.569,-10.6745,148.5872],[-67.5709,-10.6725,149.0369],[-67.5672,-10.6704,146.5224],[-67.5681,-10.6668,145.6676],[-67.5644,-10.6661,145.3772],[-67.5609,-10.6633,145.5952],[-67.551,-10.6652,145.6181],[-67.5499,-10.6623,145.7299],[-67.5428,-10.664,143.0861],[-67.5409,-10.662,143.8058],[-67.5434,-10.66,147.0508],[-67.5423,-10.6556,149.4497],[-67.5365,-10.6513,144.6167],[-67.5392,-10.6494,144.2584],[-67.5354,-10.6484,150.0937],[-67.5327,-10.6404,144.8728],[-67.5279,-10.6383,142.2444],[-67.5245,-10.6413,144.7168],[-67.5261,-10.6386,142.2444],[-67.5238,-10.6382,146.0758],[-67.5229,-10.6432,142.6525],[-67.521,-10.6436,147.0124],[-67.5176,-10.6383,144.4524],[-67.5133,-10.6369,142.6996],[-67.5099,-10.6386,144.032],[-67.508,-10.638,150.6548],[-67.5071,-10.6354,139.9656],[-67.5036,-10.636,142.0176],[-67.5037,-10.6311,142.8594],[-67.5071,-10.6319,143.2007],[-67.5063,-10.6301,145.0156],[-67.5001,-10.6283,143.7751],[-67.4978,-10.6291,145.345],[-67.4942,-10.6266,149.5957],[-67.4921,-10.6276,143.4232],[-67.4934,-10.623,147.1254],[-67.4923,-10.6216,143.5234],[-67.4936,-10.6204,150.7974],[-67.4925,-10.6192,140.224],[-67.4815,-10.6186,144.2997],[-67.4815,-10.6169,140.5801],[-67.4791,-10.6163,146.2911],[-67.4733,-10.6175,141.1893],[-67.4727,-10.6155,141.7755],[-67.4747,-10.6141,145.3716],[-67.4746,-10.6115,144.5268],[-67.4717,-10.6085,144.7293],[-67.4683,-10.6084,145.7024],[-67.4677,-10.6059,140.1791],[-67.463,-10.6081,138.4366],[-67.4637,-10.611,140.6183],[-67.4622,-10.612,143.0887],[-67.4622,-10.6082,138.4366],[-67.4597,-10.6069,139.8492],[-67.4586,-10.6022,146.468],[-67.4568,-10.602,143.6199],[-67.4559,-10.6051,136.7345],[-67.4545,-10.6051,136.7345],[-67.45,-10.6014,138.8836],[-67.4495,-10.592,143.7727],[-67.4521,-10.5877,141.1341],[-67.4545,-10.5872,137.8599],[-67.4536,-10.5843,140.3686],[-67.4409,-10.5762,152.2519],[-67.4313,-10.5753,143.0883],[-67.4289,-10.5733,139.2572],[-67.4293,-10.5706,143.6079],[-67.4317,-10.5682,144.9866],[-67.4281,-10.5665,142.3018],[-67.4292,-10.563,140.162],[-67.4234,-10.5614,140.689],[-67.4284,-10.5583,144.4098],[-67.4269,-10.5566,138.197],[-67.4268,-10.5506,136.0079],[-67.4236,-10.5531,146.9225],[-67.4192,-10.5487,138.4284],[-67.4169,-10.5506,144.9922],[-67.4146,-10.5498,142.3394],[-67.4157,-10.5546,142.523],[-67.4104,-10.5535,135.3696],[-67.4091,-10.5495,141.6227],[-67.412,-10.5506,138.8821],[-67.4122,-10.5496,138.8821],[-67.4084,-10.5483,143.7581],[-67.4053,-10.5448,139.9391],[-67.4094,-10.5403,139.4613],[-67.408,-10.5371,142.6985],[-67.3986,-10.5368,142.3454],[-67.3933,-10.5406,136.3222],[-67.3929,-10.5441,145.9167],[-67.3906,-10.542,137.3299],[-67.3867,-10.5426,143.2617],[-67.3835,-10.5392,137.218],[-67.3847,-10.5372,136.4143],[-67.383,-10.5371,142.8607],[-67.381,-10.5402,141.7112],[-67.3766,-10.5387,139.8529],[-67.3726,-10.5321,135.3891],[-67.3682,-10.5284,137.7707],[-67.3699,-10.5247,142.9424],[-67.3662,-10.5229,141.1206],[-67.3626,-10.5247,143.0178],[-67.3576,-10.5238,133.6653],[-67.354,-10.5196,137.0566],[-67.3482,-10.5164,143.0673],[-67.3481,-10.5144,133.8127],[-67.3536,-10.5111,136.871],[-67.3488,-10.5042,136.4273],[-67.3485,-10.4954,147.0505],[-67.3463,-10.4944,134.6352],[-67.3479,-10.4918,140.3303],[-67.3445,-10.49,135.2882],[-67.3417,-10.4919,138.3474],[-67.3312,-10.4894,135.9643],[-67.3304,-10.4875,136.3542],[-67.3331,-10.4856,133.6258],[-67.3314,-10.4827,135.1258],[-67.3217,-10.483,139.2135],[-67.3216,-10.4802,133.5825],[-67.3257,-10.4784,137.2846],[-67.3252,-10.476,132.6647],[-67.3213,-10.4733,143.453],[-67.321,-10.4703,135.8479],[-67.3163,-10.4693,142.0685],[-67.317,-10.4726,140.7786],[-67.3134,-10.4732,140.9192],[-67.3131,-10.4749,137.6478],[-67.31,-10.4738,140.3844],[-67.3121,-10.4679,144.6561],[-67.3109,-10.4672,142.8384],[-67.3037,-10.4675,137.4947],[-67.3014,-10.4694,132.9467],[-67.3013,-10.465,142.776],[-67.2979,-10.4635,138.3212],[-67.2999,-10.4592,137.3467],[-67.3006,-10.4619,141.9691],[-67.3023,-10.4599,142.3822],[-67.3043,-10.4608,142.3145],[-67.3059,-10.4574,143.1208],[-67.3049,-10.451,138.9106],[-67.2978,-10.4483,139.5035],[-67.2987,-10.4449,138.5233],[-67.2976,-10.4444,139.1853],[-67.2943,-10.4451,132.1132],[-67.2945,-10.4485,140.6118],[-67.2927,-10.4482,140.3105],[-67.295,-10.4409,140.6801],[-67.29,-10.4384,137.8213],[-67.2884,-10.4401,141.3839],[-67.2863,-10.4396,137.4945],[-67.2845,-10.4375,133.4064],[-67.2868,-10.4323,137.412],[-67.2824,-10.4332,138.7801],[-67.2842,-10.4255,138.8383],[-67.2901,-10.4258,140.309],[-67.2884,-10.4206,138.9809],[-67.2927,-10.4198,143.9015],[-67.2932,-10.4184,142.866],[-67.2887,-10.4153,138.5335],[-67.2862,-10.4119,128.7717],[-67.2875,-10.4113,140.6228],[-67.2864,-10.4097,139.3637],[-67.2851,-10.4105,129.2321],[-67.2791,-10.406,131.8968],[-67.2814,-10.4007,134.1525],[-67.2631,-10.3901,141.1388],[-67.2581,-10.3939,136.7993],[-67.256,-10.3936,137.6768],[-67.2547,-10.3871,131.0937],[-67.2489,-10.3802,136.6731],[-67.2476,-10.3745,129.2438],[-67.2456,-10.3756,137.2749],[-67.2452,-10.3711,138.3091],[-67.2405,-10.3712,138.846],[-67.2424,-10.3739,134.9259],[-67.2387,-10.3747,136.7446],[-67.2359,-10.3696,129.6064],[-67.2365,-10.3682,132.6242],[-67.2313,-10.3672,137.1243],[-67.2208,-10.3598,134.535],[-67.2168,-10.3589,140.7791],[-67.2174,-10.3645,130.2545],[-67.2144,-10.361,138.9171],[-67.2116,-10.3651,132.8486],[-67.2088,-10.3656,136.3047],[-67.2109,-10.362,133.643],[-67.2045,-10.3573,136.0743],[-67.2085,-10.3515,128.0257],[-67.2034,-10.3496,134.0414],[-67.2049,-10.354,130.3951],[-67.2039,-10.3546,129.4583],[-67.1993,-10.3523,130.9536],[-67.1991,-10.3488,124.2932],[-67.1902,-10.3431,129.8035],[-67.1923,-10.3412,130.2643],[-67.1914,-10.3393,136.8103],[-67.1881,-10.3405,125.507],[-67.185,-10.3375,129.2886],[-67.1874,-10.3369,128.0312],[-67.1869,-10.3346,131.3408],[-67.1906,-10.3282,131.5689],[-67.1913,-10.3224,145.4356],[-67.1938,-10.3232,139.4356],[-67.2003,-10.321,139.7288],[-67.2093,-10.3206,136.7637],[-67.2108,-10.3236,135.1277],[-67.2142,-10.3197,149.6193],[-67.2167,-10.3226,135.6155],[-67.2186,-10.3211,132.7708],[-67.2196,-10.3157,147.3264],[-67.2225,-10.3136,150.6194],[-67.2253,-10.3151,136.3347],[-67.2305,-10.3135,164.6821],[-67.2345,-10.3145,163.2207],[-67.2371,-10.3186,138.0738],[-67.2399,-10.3165,133.8202],[-67.2414,-10.3224,140.3922],[-67.2454,-10.3223,142.1284],[-67.252,-10.3268,141.5204],[-67.2533,-10.3295,133.9822],[-67.255,-10.3278,137.1593],[-67.2571,-10.3281,140.0741],[-67.2662,-10.3328,143.4933],[-67.2664,-10.3304,142.4476],[-67.2689,-10.3303,131.539],[-67.2697,-10.3274,139.9134],[-67.2745,-10.3259,137.5882],[-67.2771,-10.3244,143.288],[-67.2775,-10.3219,143.0851],[-67.2853,-10.3187,144.6135],[-67.2912,-10.3206,137.533],[-67.2922,-10.3243,144.3614],[-67.2958,-10.3247,146.4978],[-67.2972,-10.3236,144.1985],[-67.2966,-10.3208,136.0767],[-67.3009,-10.3208,143.651],[-67.3019,-10.3236,139.0435],[-67.3038,-10.3237,145.6389],[-67.3105,-10.3208,143.0191],[-67.3115,-10.3228,143.5669],[-67.3123,-10.3198,146.2866],[-67.3175,-10.3198,144.1872],[-67.3162,-10.3215,138.8699],[-67.3234,-10.3236,149.4378],[-67.3219,-10.3271,143.6846],[-67.3255,-10.3277,139.1743],[-67.3281,-10.3369,147.1012],[-67.3272,-10.3397,152.5274],[-67.3196,-10.3427,143.6307],[-67.3168,-10.348,144.898],[-67.318,-10.3497,148.242],[-67.3164,-10.3514,146.8078],[-67.3181,-10.3576,148.3235],[-67.317,-10.3584,148.1802],[-67.3195,-10.3603,145.7223],[-67.3173,-10.3638,144.4342],[-67.3188,-10.3659,146.5866],[-67.3185,-10.3704,146.9984],[-67.3163,-10.3734,140.2743],[-67.3142,-10.3709,149.4059],[-67.3131,-10.3717,151.3107],[-67.3122,-10.3786,149.1733],[-67.3179,-10.3782,148.5802],[-67.3199,-10.3825,146.4443],[-67.3228,-10.3818,149.6211],[-67.3246,-10.3842,152.2095],[-67.3265,-10.3813,149.3416],[-67.3299,-10.3848,152.4731],[-67.3324,-10.3825,148.6849],[-67.3385,-10.3817,154.5008],[-67.3426,-10.3791,146.511],[-67.3435,-10.381,152.2556],[-67.3449,-10.3787,154.7267],[-67.348,-10.3824,158.5563],[-67.3511,-10.3816,154.7841],[-67.3546,-10.3849,152.8345],[-67.3549,-10.3886,146.4924],[-67.3525,-10.3862,153.6858],[-67.3504,-10.3884,145.8645],[-67.3527,-10.3909,153.4945],[-67.3518,-10.3956,148.5886],[-67.3535,-10.3938,152.3518],[-67.3563,-10.3959,153.8568],[-67.3561,-10.3934,148.325],[-67.359,-10.3924,153.6043],[-67.3605,-10.3881,151.174],[-67.3632,-10.387,150.8648],[-67.3634,-10.3823,148.5226],[-67.3687,-10.3789,153.8081],[-67.3729,-10.3842,153.3544],[-67.375,-10.3836,152.0176],[-67.3795,-10.3859,159.1019],[-67.3835,-10.3831,153.5832],[-67.3921,-10.3807,157.0241],[-67.3945,-10.3857,165.2223],[-67.399,-10.3754,159.8131],[-67.4022,-10.3748,156.2751],[-67.4032,-10.3765,161.5653],[-67.4074,-10.3765,152.5677],[-67.4135,-10.3859,157.007],[-67.4176,-10.389,153.8898],[-67.4189,-10.3878,153.5101],[-67.4236,-10.3956,147.9172],[-67.4206,-10.4025,146.6811],[-67.416,-10.4024,153.7224],[-67.4142,-10.4044,162.8938],[-67.416,-10.4097,147.7345],[-67.4142,-10.4095,155.3391],[-67.4137,-10.4154,158.6855],[-67.411,-10.4197,163.2113],[-67.4132,-10.4267,169.5665],[-67.4158,-10.4273,163.1554],[-67.4172,-10.4306,163.0969],[-67.4267,-10.429,160.5709],[-67.4334,-10.4334,151.0025],[-67.4324,-10.4374,159.0426],[-67.4344,-10.4423,163.6575],[-67.4364,-10.4435,155.9231],[-67.4347,-10.4453,157.0226],[-67.4357,-10.4474,154.5876],[-67.4524,-10.4591,152.6664],[-67.4512,-10.4649,165.7154],[-67.4588,-10.4625,156.2042],[-67.4644,-10.4572,161.1315],[-67.4674,-10.4567,164.9537],[-67.4735,-10.4634,160.6137],[-67.4867,-10.4717,170.0111],[-67.4943,-10.4737,168.259],[-67.5031,-10.4727,170.1132],[-67.5081,-10.4766,168.3478],[-67.512,-10.4754,160.6429],[-67.5165,-10.4792,168.455],[-67.5152,-10.4842,174.2363],[-67.5192,-10.4905,170.5079],[-67.5229,-10.4933,173.0875],[-67.5409,-10.4883,173.4357],[-67.5604,-10.4977,175.2438],[-67.5653,-10.4974,175.9821],[-67.57,-10.5027,172.3217],[-67.5684,-10.5086,175.6796],[-67.5715,-10.5149,173.5057],[-67.5741,-10.5158,179.5169],[-67.5756,-10.5183,168.3898],[-67.5798,-10.5188,170.1403],[-67.58,-10.5203,166.5068],[-67.5925,-10.5213,171.9503],[-67.5949,-10.5239,169.2245],[-67.5949,-10.5263,169.7274],[-67.5984,-10.5276,173.6813],[-67.6037,-10.5373,177.2145],[-67.6047,-10.5452,177.4365],[-67.608,-10.5529,183.2546],[-67.6082,-10.5628,183.7322],[-67.6148,-10.5694,188.4315],[-67.6252,-10.5727,195.9048],[-67.6281,-10.5764,183.6999],[-67.6307,-10.5761,197.5315],[-67.637,-10.5853,185.4919],[-67.6356,-10.5872,187.4382],[-67.6376,-10.5955,185.6381],[-67.6434,-10.5954,196.9353],[-67.6433,-10.5966,194.8351],[-67.6398,-10.5969,187.1671],[-67.6409,-10.6011,190.8452],[-67.6469,-10.6034,192.3129],[-67.6519,-10.6105,193.7341],[-67.6613,-10.617,198.7722],[-67.6723,-10.6053,206.9177],[-67.6767,-10.6054,210.5704],[-67.7092,-10.7099,151.8117],[-67.7102,-10.7074,149.4372],[-67.7138,-10.706,172.6492],[-67.7135,-10.7082,152.5399],[-67.7155,-10.707,158.1114],[-67.7178,-10.7091,151.3531],[-67.7207,-10.7089,155.1087],[-67.7218,-10.7109,152.6212],[-67.7268,-10.7064,151.0873],[-67.7289,-10.7125,153.3423],[-67.7308,-10.7101,156.1599],[-67.7324,-10.7109,154.6945],[-67.7309,-10.7127,153.1042],[-67.7328,-10.7126,151.8268],[-67.7334,-10.711,154.6945],[-67.736,-10.7119,150.1003],[-67.7449,-10.7038,155.3313],[-67.7453,-10.6955,158.8649],[-67.7466,-10.6951,152.6511],[-67.7478,-10.6971,150.7758],[-67.756,-10.6944,165.4334],[-67.7564,-10.6883,148.8638],[-67.7579,-10.6883,148.8638],[-67.7602,-10.6841,156.0135],[-67.7625,-10.684,154.4856],[-67.7662,-10.6882,150.9944],[-67.7678,-10.6857,153.9987],[-67.769,-10.6871,147.1508],[-67.7716,-10.6844,155.3816],[-67.7741,-10.6851,148.7956],[-67.7766,-10.6829,153.2751],[-67.7744,-10.6816,152.287],[-67.7773,-10.6812,150.6402],[-67.776,-10.68,156.4839],[-67.7777,-10.6793,154.072],[-67.7797,-10.6816,149.4058],[-67.779,-10.6798,154.636],[-67.7812,-10.6795,153.8102],[-67.782,-10.6763,156.6168],[-67.7859,-10.676,158.5048],[-67.7866,-10.6779,153.6948],[-67.7885,-10.6734,156.4258],[-67.7917,-10.6771,156.3776],[-67.7985,-10.6708,156.3658],[-67.7986,-10.6686,158.9761],[-67.8004,-10.6695,156.2675],[-67.8048,-10.6665,156.9568],[-67.8091,-10.6665,155.7703],[-67.8087,-10.6645,154.0987],[-67.8072,-10.6653,154.2754],[-67.8063,-10.6641,154.9484],[-67.8091,-10.663,154.0987],[-67.8089,-10.6606,154.3889],[-67.8104,-10.6596,151.2959],[-67.8154,-10.664,155.8475],[-67.8179,-10.663,155.6198],[-67.8191,-10.6612,154.5485],[-67.8175,-10.6608,156.9764],[-67.8192,-10.659,154.4652],[-67.8177,-10.6574,157.8732],[-67.8227,-10.6543,158.125],[-67.8222,-10.6518,148.4906],[-67.824,-10.6509,150.0542],[-67.825,-10.6531,156.7578],[-67.8279,-10.65,150.7897],[-67.8331,-10.6515,156.9096],[-67.8342,-10.6494,152.3706],[-67.8345,-10.6506,153.4465],[-67.837,-10.6502,154.7844],[-67.8373,-10.6479,161.4124],[-67.8401,-10.6506,158.4263],[-67.8435,-10.6512,152.6393],[-67.846,-10.6466,153.7874],[-67.8534,-10.6463,150.8762],[-67.854,-10.6492,154.5115],[-67.856,-10.6461,162.9019],[-67.8587,-10.6467,155.9015],[-67.858,-10.6441,153.3847],[-67.8593,-10.6455,154.8069],[-67.8648,-10.6392,180.3506],[-67.8659,-10.6409,162.6059],[-67.8664,-10.6393,180.566],[-67.8696,-10.6411,167.1063],[-67.8743,-10.6409,159.0672],[-67.8762,-10.6433,156.3471],[-67.8779,-10.6408,157.5695],[-67.8767,-10.6387,159.0585],[-67.8807,-10.6399,160.9128],[-67.8828,-10.6384,161.4471],[-67.8859,-10.6404,159.0344],[-67.8863,-10.6382,166.7873],[-67.8919,-10.639099999999999,169.704],[-67.89,-10.6433,161.9252],[-67.8947,-10.6465,155.5301],[-67.8964,-10.6451,160.6371],[-67.898,-10.646,160.6371],[-67.8975,-10.6432,160.8121],[-67.8991,-10.6417,161.5052],[-67.9011,-10.6432,160.4384],[-67.9038,-10.6406,158.1493],[-67.9051,-10.6415,160.1421],[-67.9053,-10.6399,160.9864],[-67.9097,-10.6402,162.5777],[-67.9111,-10.6436,160.6594],[-67.9135,-10.6446,162.4962],[-67.9133,-10.6483,162.0828],[-67.9166,-10.6484,165.1193],[-67.9193,-10.6525,161.8861],[-67.92,-10.65,163.0945],[-67.9236,-10.6491,175.4872],[-67.9237,-10.6516,161.5218],[-67.9264,-10.6513,162.3479],[-67.9293,-10.6547,160.4963],[-67.9305,-10.6535,162.4969],[-67.935,-10.6546,159.5392],[-67.9357,-10.6533,161.5043],[-67.9372,-10.6547,163.3214],[-67.9383,-10.6529,164.3881],[-67.9416,-10.6549,159.7195],[-67.9432,-10.654,164.5972],[-67.9419,-10.6539,164.5972],[-67.9423,-10.6527,167.6785],[-67.9452,-10.6531,165.6575],[-67.9479,-10.6495,178.8793],[-67.9479,-10.6517,163.6251],[-67.9499,-10.6519,165.6119],[-67.9505,-10.6498,171.3832],[-67.9535,-10.6519,167.0102],[-67.9549,-10.6481,183.9059],[-67.957,-10.6499,166.4927],[-67.9579,-10.6484,177.7533],[-67.9626,-10.648,172.1991],[-67.9643,-10.6485,173.6817],[-67.9658,-10.6536,163.5009],[-67.9679,-10.6528,164.2635],[-67.9671,-10.6546,159.1142],[-67.9709,-10.6542,166.3618],[-67.9768,-10.6612,165.0362],[-67.9781,-10.6597,165.0362],[-67.9797,-10.6606,165.2704],[-67.9823,-10.6566,162.3449],[-67.9853,-10.6562,162.5166],[-67.9847,-10.6543,170.03],[-67.9878,-10.6558,164.3656],[-67.9894,-10.6533,164.6128],[-67.9921,-10.654,166.1756],[-67.991,-10.6524,165.2432],[-67.9928,-10.6506,163.2782],[-67.9961,-10.6523,167.4716],[-67.9966,-10.6506,167.0501],[-68.0025,-10.6501,164.1165],[-68.0038,-10.6538,170.6777],[-68.0097,-10.658,178.0213],[-68.0207,-10.6606,173.1409],[-68.028,-10.6685,177.9921],[-68.0502,-10.6748,168.5725],[-68.0598,-10.6794,169.0866],[-68.07,-10.69,168.2022],[-68.0867,-10.6978,170.1246],[-68.0961,-10.708,167.778],[-68.0961,-10.7111,168.2629],[-68.0991,-10.7112,167.1884],[-68.104,-10.7153,169.7493],[-68.1038,-10.7168,166.4712],[-68.1062,-10.7172,172.9233],[-68.1055,-10.7223,173.2038],[-68.1072,-10.7262,173.6212],[-68.1049,-10.7273,167.1476],[-68.1077,-10.7296,174.3754],[-68.1057,-10.7411,178.1654],[-68.1025,-10.741,180.0535],[-68.0986,-10.7496,174.2502],[-68.1027,-10.7538,178.8552],[-68.1034,-10.7612,172.6021],[-68.1068,-10.7676,178.7722],[-68.1042,-10.7758,174.197],[-68.1076,-10.7799,172.9046],[-68.1074,-10.782,168.8592],[-68.1131,-10.7837,172.3603],[-68.1216,-10.7896,172.6582],[-68.1264,-10.7975,175.0753],[-68.1323,-10.8016,179.9503],[-68.133,-10.8056,178.3786],[-68.1361,-10.8078,179.9123],[-68.1378,-10.8068,186.1754],[-68.1379,-10.8091,179.8821],[-68.1396,-10.8112,178.2905],[-68.1406,-10.8104,178.2905],[-68.1438,-10.8166,177.99],[-68.1485,-10.8203,178.5128],[-68.1535,-10.8211,186.6004],[-68.1538,-10.8244,183.4124],[-68.1598,-10.8297,181.747],[-68.1593,-10.8318,175.5478],[-68.1607,-10.833,177.2509],[-68.1618,-10.8319,176.7944],[-68.1616,-10.8338,177.2509],[-68.1648,-10.8345,177.5636],[-68.1653,-10.8365,172.3119],[-68.1709,-10.8387,179.2423],[-68.1744,-10.8421,191.6121],[-68.1762,-10.8489,179.2893],[-68.1778,-10.8497,183.6362],[-68.1784,-10.8527,187.9982],[-68.1813,-10.8542,179.9112],[-68.1819,-10.8571,182.7394],[-68.1958,-10.8597,179.6197],[-68.1961,-10.8693,176.0699],[-68.1996,-10.872,180.5236],[-68.2042,-10.8838,180.6169],[-68.2032,-10.89,183.902],[-68.2056,-10.8983,183.7803],[-68.2072,-10.8991,180.8496],[-68.2073,-10.9056,183.494],[-68.2192,-10.9086,185.0035],[-68.2208,-10.9094,178.6349],[-68.22,-10.9127,186.3353],[-68.2245,-10.915,182.6872],[-68.2251,-10.9192,194.0916],[-68.2283,-10.9234,178.2357],[-68.227,-10.9262,177.0832],[-68.229,-10.9262,182.5094],[-68.2276,-10.9319,193.4179],[-68.2312,-10.941,193.6776],[-68.2285,-10.9468,211.9035],[-68.2331,-10.9478,185.9111],[-68.2367,-10.961,193.1965],[-68.2406,-10.9605,186.6823],[-68.2458,-10.9644,195.1655],[-68.2525,-10.9668,187.585],[-68.2628,-10.9779,192.5826],[-68.2673,-10.9774,189.1297],[-68.2732,-10.9811,188.9499],[-68.2745,-10.9829,189.9022],[-68.2734,-10.9859,192.4566],[-68.2775,-10.9907,193.1419],[-68.2868,-10.994,191.4441],[-68.2913,-10.9909,186.8465],[-68.3086,-10.995,197.53],[-68.3117,-10.9992,198.6676],[-68.3238,-11.0053,202.88],[-68.3266,-11.0125,199.0206],[-68.3314,-11.0158,199.9421],[-68.336,-11.0155,199.5582],[-68.3366,-11.0107,189.3077],[-68.3425,-11.0126,205.7888],[-68.3523,-11.0074,194.9543],[-68.3652,-11.0105,197.1563],[-68.368,-11.0133,200.8169],[-68.3752,-11.0147,212.5345],[-68.3852,-11.0202,204.5935],[-68.3884,-11.0259,196.0351],[-68.3873,-11.0311,213.8072],[-68.3886,-11.0406,206.352],[-68.3866,-11.0453,225.3792],[-68.3888,-11.0487,215.2228],[-68.4016,-11.0562,212.0242],[-68.4032,-11.0564,213.36],[-68.4088,-11.0515,215.697],[-68.4094,-11.0468,218.0153],[-68.4132,-11.0434,209.9223],[-68.4245,-11.0444,203.3351],[-68.429,-11.0356,216.6022],[-68.4363,-11.0363,227.4597],[-68.438,-11.0436,224.6405],[-68.4467,-11.0493,210.3632],[-68.4522,-11.0477,214.6888],[-68.4588,-11.0524,229.8583],[-68.4722,-11.0543,232.9344],[-68.4811,-11.0525,221.6945],[-68.4919,-11.0573,242.1732],[-68.4945,-11.0612,252.3319],[-68.5017,-11.0637,227.2246],[-68.5198,-11.0884,248.8355],[-68.5429,-11.0996,255.0691],[-68.5435,-11.1104,287.7518],[-68.6262,-11.1268,266.0473],[-68.6474,-11.1337,278.0953],[-68.7156,-11.1475,258.9113],[-68.7151,-11.1448,265.8919],[-68.7168,-11.1452,258.5322],[-68.713,-11.1331,244.0412],[-68.7158,-11.1245,244.9168],[-68.7232,-11.1146,228.9619],[-68.7222,-11.1065,238.5139],[-68.735,-11.096,217.0111],[-68.741,-11.0973,214.9822],[-68.7493,-11.0956,211.3958],[-68.7512,-11.0909,216.4607],[-68.757,-11.0878,213.5462],[-68.7596,-11.0825,219.3907],[-68.7588,-11.0781,218.1591],[-68.7642,-11.0748,217.4702],[-68.7659,-11.0696,223.306],[-68.7661,-11.0665,204.0179],[-68.7628,-11.0608,203.6329],[-68.765,-11.0581,204.1658],[-68.7649,-11.0518,201.6805],[-68.7672,-11.0494,209.4947],[-68.7602,-11.0394,194.6647],[-68.752,-11.0373,192.5044],[-68.7529,-11.0335,192.9229],[-68.7517,-11.0309,195.7191],[-68.7534,-11.0291,191.1322],[-68.7516,-11.0286,189.9586],[-68.7515,-11.024,198.3343],[-68.7547,-11.023,193.9021],[-68.7505,-11.0209,189.9851],[-68.7514,-11.0171,183.2911],[-68.7489,-11.0109,189.6682],[-68.7556,-11.0119,190.1828],[-68.76,-11.0183,200.742],[-68.7631,-11.0195,190.5344],[-68.7638,-11.0131,185.6775],[-68.7624,-11.0111,183.368],[-68.7578,-11.0099,181.1734],[-68.7593,-11.0036,183.2671],[-68.763,-11.0036,192.8047],[-68.771,-11.0083,197.1405],[-68.7803,-11.0055,197.3865],[-68.7793,-11.0004,191.8623],[-68.782,-10.9998,186.6706],[-68.7825,-11.002,188.1437],[-68.7873,-11.0059,186.3515],[-68.7859,-11.0129,186.5693],[-68.7888,-11.0151,196.6438],[-68.7907,-11.0123,191.6613],[-68.7903,-11.0011,188.7449],[-68.7969,-11.0008,190.6566],[-68.7993,-10.9989,193.7729],[-68.7983,-10.9963,196.206],[-68.7926,-10.9913,187.6747],[-68.7983,-10.9918,202.6829],[-68.8027,-11.0016,201.1732],[-68.8067,-11.0036,199.0611],[-68.8127,-11.0033,195.2113],[-68.817,-11.0062,194.9464],[-68.8235,-11.0042,193.0387],[-68.8248,-11.0065,204.2047],[-68.8295,-11.0085,200.0422],[-68.8317,-11.003,194.3077],[-68.8361,-10.9984,190.298],[-68.8385,-11.0025,195.2039],[-68.8418,-11.0033,206.1462],[-68.8438,-11.0013,204.5212],[-68.8468,-11.0171,207.113],[-68.8633,-11.0177,199.088],[-68.8674,-11.0237,219.0795],[-68.8707,-11.0234,213.0673],[-68.8759,-11.018,195.1317],[-68.8773,-11.0214,199.7726],[-68.8823,-11.0226,206.6097],[-68.8884,-11.0189,212.2612],[-68.8898,-11.0136,205.8217],[-68.8954,-11.0167,206.2991],[-68.9049,-11.0156,194.8604],[-68.9076,-11.0214,205.483],[-68.9102,-11.0228,197.4039],[-68.9221,-11.0149,216.3237],[-68.9251,-11.0189,195.564],[-68.9296,-11.0132,203.7631],[-68.9311,-11.0136,203.7631],[-68.9351,-11.0059,201.3066],[-68.9449,-11.0127,199.8178],[-68.9483,-11.0129,203.7943],[-68.9484,-11.0053,218.7382],[-68.9546,-11.0045,201.2312],[-68.9574,-11.0019,198.5202],[-68.955,-10.9956,197.3251],[-68.9569,-10.9949,220.1753],[-68.9637,-10.995,218.7488],[-68.9746,-11.004,217.2708],[-68.9797,-11.0046,215.3192],[-68.9876,-10.9995,197.6306],[-68.9836,-11.0087,200.8275],[-68.9918,-11.0121,215.2695],[-68.9956,-11.0111,214.2218],[-68.9957,-11.004,216.47],[-69.0011,-11.0092,214.3561],[-69.0042,-11.0071,202.4976],[-69.0141,-11.0052,212.6843],[-69.0166,-11.0023,201.5208],[-69.0116,-10.9959,220.1783],[-69.0126,-10.9926,211.7594],[-69.0196,-10.9918,209.8843],[-69.0237,-10.994,206.3454],[-69.0262,-10.9912,201.8928],[-69.0267,-10.9879,203.5789],[-69.0302,-10.9863,213.1121],[-69.0336,-10.9869,207.8558],[-69.0375,-10.983,217.0843],[-69.0485,-10.9819,212.9719],[-69.0534,-10.9791,213.0138],[-69.0556,-10.9829,204.3605],[-69.0609,-10.9864,212.3289],[-69.0682,-10.9773,206.1439],[-69.0894,-10.983,224.5244],[-69.0962,-10.9827,228.2614],[-69.0987,-10.9809,213.0898],[-69.1029,-10.9818,221.3911],[-69.1058,-10.9774,218.9289],[-69.1152,-10.976,213.6213],[-69.1179,-10.9812,212.4882],[-69.1205,-10.9818,216.7318],[-69.1224,-10.9748,207.1917],[-69.1316,-10.9711,216.4577],[-69.1374,-10.9748,221.2882],[-69.1385,-10.9684,213.1493],[-69.1475,-10.9725,216.7101],[-69.1509,-10.9719,226.6692],[-69.151,-10.969,213.0968],[-69.1468,-10.965,214.0454],[-69.1485,-10.9643,222.0128],[-69.1548,-10.9659,219.4339],[-69.1562,-10.9633,214.3557],[-69.1594,-10.963,227.7907],[-69.1609,-10.9662,213.8514],[-69.1633,-10.9666,226.4714],[-69.1699,-10.9637,213.4549],[-69.1829,-10.9676,244.5092],[-69.1887,-10.9672,235.2605],[-69.1979,-10.9638,239.0057],[-69.2038,-10.9579,224.8453],[-69.2159,-10.96,221.9253],[-69.2227,-10.9562,218.3383],[-69.2399,-10.9589,237.2883],[-69.2497,-10.9557,233.8987],[-69.2713,-10.9534,226.2048],[-69.2742,-10.9553,217.5246],[-69.2759,-10.9537,219.7209],[-69.3121,-10.9564,251.7574],[-69.3266,-10.9539,240.013],[-69.3414,-10.9487,224.6873],[-69.3418,-10.9521,228.0246],[-69.3438,-10.9524,232.1693],[-69.3476,-10.9475,228.2268],[-69.3472,-10.9451,234.1716],[-69.3524,-10.9401,239.1393],[-69.3559,-10.9395,236.8971],[-69.3543,-10.944,221.1537],[-69.3563,-10.9457,222.2068],[-69.3736,-10.9404,225.8253],[-69.3727,-10.9545,222.496],[-69.3751,-10.9564,225.54],[-69.3781,-10.9525,234.7494],[-69.3797,-10.9413,236.6912],[-69.3843,-10.943,237.5488],[-69.3865,-10.9423,236.7053],[-69.3888,-10.9393,232.9276],[-69.3887,-10.9341,229.4362],[-69.3937,-10.9347,237.9332],[-69.3936,-10.941,233.6404],[-69.3902,-10.943,228.6534],[-69.3934,-10.9458,226.8081],[-69.397,-10.9424,230.4421],[-69.4027,-10.93,232.7789],[-69.4057,-10.9298,222.2424],[-69.4108,-10.9379,230.5313],[-69.4128,-10.9371,230.5313],[-69.4141,-10.9388,241.8102],[-69.4168,-10.9275,243.8202],[-69.4236,-10.9272,229.7711],[-69.4255,-10.9309,229.911],[-69.425,-10.9351,231.8706],[-69.429,-10.9382,233.271],[-69.4509,-10.9364,236.998],[-69.4537,-10.949,240.5462],[-69.4552,-10.9501,227.9326],[-69.4585,-10.947,230.4651],[-69.4607,-10.9503,232.1743],[-69.465,-10.9509,236.0761],[-69.4756,-10.9448,239.9217],[-69.4784,-10.9475,233.1234],[-69.4761,-10.9517,229.18],[-69.4782,-10.955,230.7931],[-69.4811,-10.9549,238.0423],[-69.4833,-10.9527,243.1932],[-69.5035,-10.9524,253.6586],[-69.5333,-10.9597,262.4365],[-69.5652,-10.9555,257.4161],[-69.5677,-10.9518,251.34],[-69.5703,-10.9522,239.567],[-69.5689,-10.9507,242.5251],[-69.5692,-10.9476,237.2701],[-69.5723,-10.9494,246.3755],[-69.4682,-11.117,309.4272],[-69.3232,-11.3555,302.901],[-69.2556,-11.4575,256.8242],[-69.2463,-11.4596,258.9863],[-69.2433,-11.4651,248.0806],[-69.2401,-11.4608,253.946],[-69.238,-11.4611,243.7367],[-69.2375,-11.4626,257.9138],[-69.2404,-11.4674,248.5721],[-69.2373,-11.4685,257.8551],[-69.2278,-11.466,241.7591],[-69.2281,-11.4634,248.2962],[-69.2312,-11.4618,250.3423],[-69.2292,-11.459,248.0869],[-69.2214,-11.4602,248.5355],[-69.2162,-11.4582,246.9358],[-69.2152,-11.4563,252.4185],[-69.2183,-11.4534,252.9006],[-69.218,-11.4518,237.03],[-69.2068,-11.4538,247.4609],[-69.2034,-11.4492,246.3207],[-69.1964,-11.4517,247.8177],[-69.1917,-11.4475,246.9331],[-69.1883,-11.4468,244.5787],[-69.1866,-11.4501,248.0443],[-69.1916,-11.4542,244.6554],[-69.1913,-11.4559,242.0682],[-69.1885,-11.4566,255.1822],[-69.1848,-11.4535,250.166],[-69.182,-11.4467,255.2135],[-69.1799,-11.4459,242.2404],[-69.1777,-11.4463,254.4847],[-69.1719,-11.4523,241.2973],[-69.1652,-11.447,249.0274],[-69.159,-11.4476,241.1626],[-69.1552,-11.4523,238.8256],[-69.1502,-11.4528,243.5577],[-69.1495,-11.4595,254.039],[-69.1449,-11.4614,253.8856],[-69.1425,-11.4581,235.0],[-69.1423,-11.4524,240.9033],[-69.1358,-11.4453,239.5629],[-69.1309,-11.4471,243.5831],[-69.1248,-11.4431,257.6053],[-69.1232,-11.4446,237.208],[-69.1249,-11.4511,250.141],[-69.1238,-11.4539,237.9894],[-69.1182,-11.4513,252.1635],[-69.1113,-11.4524,236.4322],[-69.1112,-11.4495,237.9356],[-69.1159,-11.4483,250.8251],[-69.1168,-11.4446,243.0961],[-69.1117,-11.4389,243.8978],[-69.1047,-11.4416,245.8029],[-69.1063,-11.4372,251.5963],[-69.1115,-11.4354,241.1831],[-69.1078,-11.4313,255.3375],[-69.101,-11.432,242.8896],[-69.0918,-11.4305,238.7227],[-69.0906,-11.4315,245.9744],[-69.0913,-11.436,233.0],[-69.0897,-11.4365,248.3967],[-69.0789,-11.4315,243.5014],[-69.0745,-11.4371,241.8456],[-69.0744,-11.4298,241.2517],[-69.0841,-11.4296,258.5652],[-69.0864,-11.4275,238.2673],[-69.0771,-11.4248,250.9127],[-69.0708,-11.4274,233.6483],[-69.0654,-11.4276,239.5385],[-69.0644,-11.435,237.7528],[-69.0668,-11.4361,239.3642],[-69.07,-11.4333,238.1724],[-69.0716,-11.4349,242.9726],[-69.0713,-11.4376,246.4003],[-69.0649,-11.4408,239.6759],[-69.0582,-11.439,233.6451],[-69.0528,-11.45,242.3445],[-69.0461,-11.4436,245.8178],[-69.0461,-11.4379,234.3958],[-69.0441,-11.4359,235.5433],[-69.036,-11.4381,232.6632],[-69.0352,-11.4409,231.4314],[-69.0382,-11.4447,233.9087],[-69.036,-11.4463,244.9586],[-69.0319,-11.4448,246.9835],[-69.0305,-11.4382,236.0317],[-69.0289,-11.4374,232.9018],[-69.0266,-11.4394,233.0151],[-69.0244,-11.4474,231.231],[-69.0152,-11.4465,238.5177],[-69.0143,-11.4399,229.7084],[-69.0128,-11.4393,232.1754],[-69.011,-11.445,235.6402],[-69.0079,-11.4464,241.7889],[-69.0064,-11.4435,231.7261],[-69.0075,-11.4394,229.0083],[-69.0023,-11.4366,238.7253],[-69.0019,-11.433,245.6746]]],
[[[-68.8804,-11.0139,200.3155],[-68.8798,-11.0125,192.6281],[-68.8832,-11.0107,213.8414],[-68.8851,-11.0146,198.5541],[-68.8843,-11.0169,194.6485],[-68.8814,-11.0176,193.9408],[-68.8811,-11.0129,207.4302],[-68.8804,-11.0139,200.3155]]],
[[[-69.5735,-10.9458,235.4781],[-69.5742,-10.9452,235.4781],[-69.5747,-10.9451,235.4781],[-69.5738,-10.9468,235.7906],[-69.5735,-10.9458,235.4781]]]]}}