{"type":"Feature","properties":{"GID_3":"BOL.4.20.3_2","GID_0":"BOL","country":"Bolivia","GID_1":"BOL.4_1","province":"LaPaz","NL_NAME_1":"NA","GID_2":"BOL.4.20_2","county":"Pacajes","NL_NAME_2":"NA","city":"Charaña","VARNAME_3":"NA","NL_NAME_3":"NA","TYPE_3":"District","ENGTYPE_3":"Distrito","CC_3":"NA","HASC_3":"NA","name":"Charaña.city"},
"geometry":{"type": "MultiPolygon","coordinates": [[[[-69.4687,-17.492,4096.686],[-69.4679,-17.6049,4063.2659],[-69.3436,-17.7239,4052.4824],[-69.3421,-17.7279,4053.7603],[-69.3379,-17.7292,4055.6389],[-69.338,-17.7319,4056.7676],[-69.3349,-17.7344,4057.9883],[-69.3356,-17.7368,4059.1929],[-69.3337,-17.7395,4061.0374],[-69.3363,-17.7417,4061.8911],[-69.3352,-17.7445,4062.9678],[-69.3384,-17.7458,4063.8867],[-69.3359,-17.7502,4067.2249],[-69.3368,-17.7538,4067.6506],[-69.3348,-17.7543,4068.0125],[-69.3353,-17.7575,4069.6907],[-69.3319,-17.7595,4072.9175],[-69.3331,-17.7613,4073.0659],[-69.3323,-17.766,4075.2253],[-69.3298,-17.7707,4077.373],[-69.3248,-17.7767,4083.3477],[-69.3219,-17.7769,4082.9468],[-69.321,-17.7811,4084.2568],[-69.313,-17.7889,4089.991],[-69.3125,-17.7935,4092.1089],[-69.3107,-17.7944,4092.4539],[-69.3117,-17.7971,4094.2593],[-69.3081,-17.8041,4098.0669],[-69.3095,-17.8062,4099.126],[-69.3078,-17.8066,4101.8647],[-69.3094,-17.8079,4100.2563],[-69.3078,-17.8105,4107.7778],[-69.309,-17.8108,4102.4648],[-69.3103,-17.8163,4105.7778],[-69.3091,-17.8228,4109.312],[-69.3071,-17.8236,4135.9106],[-69.306,-17.8272,4120.2671],[-69.3071,-17.8289,4114.7568],[-69.3056,-17.8334,4172.7603],[-69.3062,-17.8441,4132.2393],[-69.3008,-17.8494,4127.998],[-69.2993,-17.8553,4197.7754],[-69.3007,-17.8616,4134.3145],[-69.3087,-17.8687,4140.9678],[-69.3051,-17.8838,4143.3208],[-69.3082,-17.887,4150.0244],[-69.3073,-17.8945,4152.9727],[-69.3129,-17.9089,4161.0625],[-69.3124,-17.9136,4164.6089],[-69.31,-17.9205,4170.7441],[-69.3005,-17.9337,4184.2119],[-69.2996,-17.9393,4189.166],[-69.2973,-17.941,4191.0264],[-69.2961,-17.9471,4201.5835],[-69.2911,-17.9538,4258.4648],[-69.2888,-17.9599,4229.8071],[-69.2851,-17.9624,4255.5308],[-69.2813,-17.9692,4219.8784],[-69.276,-17.9693,4359.6875],[-69.2565,-17.954,4811.394],[-69.2549,-17.9547,4846.1948],[-69.2537,-17.962,4770.4062],[-69.2562,-17.9749,4617.5771],[-69.2472,-17.9821,4634.189],[-69.2391,-17.9842,4669.2402],[-69.2305,-17.9836,4662.3091],[-69.2272,-17.9799,4501.1865],[-69.2221,-17.9797,4411.9053],[-69.1263,-18.032,5180.1104],[-69.1104,-18.0366,4834.3271],[-69.1057,-18.0216,5262.6665],[-69.1124,-18.006,4985.7949],[-69.1121,-17.9861,4750.5229],[-69.1166,-17.9794,4662.0049],[-69.1183,-17.9708,4578.2632],[-69.1163,-17.9658,4550.4678],[-69.115,-17.9509,4500.9355],[-69.1127,-17.9464,4488.0781],[-69.1025,-17.9345,4464.6533],[-69.0535,-17.8992,4305.8379],[-69.049,-17.8981,4312.0703],[-69.044,-17.8999,4331.4067],[-69.0301,-17.8986,4359.6392],[-69.0237,-17.8997,4393.1108],[-69.0024,-17.8976,4595.7485],[-68.9893,-17.8876,4715.1729],[-68.9882,-17.8764,4822.707],[-68.9722,-17.861,4921.917],[-68.9661,-17.8404,4519.8125],[-68.9649,-17.8221,4342.8135],[-68.9596,-17.8064,4249.6343],[-68.9614,-17.8019,4235.5903],[-68.9615,-17.7909,4231.5254],[-68.9578,-17.7847,4193.4678],[-68.9558,-17.7751,4204.2031],[-68.95,-17.7711,4192.7744],[-68.943,-17.7621,4141.7725],[-68.9384,-17.7591,4132.9238],[-68.9352,-17.7524,4119.0054],[-68.9258,-17.7502,4115.0254],[-68.9193,-17.7439,4111.7046],[-68.9124,-17.7401,4108.7822],[-68.9066,-17.7398,4106.8604],[-68.8957,-17.7362,4107.9404],[-68.8841,-17.7359,4094.5342],[-68.8792,-17.733,4097.5933],[-68.8692,-17.7329,4116.0063],[-68.8407,-17.7284,4092.8169],[-68.8012,-17.7151,4059.563],[-68.7918,-17.7093,4056.6011],[-68.7709,-17.6918,4045.3745],[-68.7725,-17.6831,4048.5498],[-68.7723,-17.6686,4044.3953],[-68.789,-17.6422,4057.929],[-68.7902,-17.636,4056.521],[-68.7893,-17.6224,4051.1316],[-68.7927,-17.5994,4045.4014],[-68.7956,-17.5957,4045.1255],[-68.7959,-17.5773,4044.5181],[-68.7982,-17.5679,4044.6816],[-68.7974,-17.5625,4043.4912],[-68.7918,-17.5534,4044.4919],[-68.7922,-17.5515,4042.667],[-68.7997,-17.552,4038.1128],[-68.8106,-17.547,4030.3435],[-68.8172,-17.549,3983.4885],[-68.8228,-17.5461,3912.6272],[-68.8403,-17.5524,4017.583],[-68.842,-17.5484,3928.2598],[-68.854,-17.5452,3946.5364],[-68.8641,-17.5536,4000.5469],[-68.8708,-17.5641,4012.9236],[-68.8713,-17.5688,4014.5435],[-68.8737,-17.5718,4012.3354],[-68.8777,-17.5734,4013.3286],[-68.8831,-17.5788,4024.407],[-68.8915,-17.603,4054.4834],[-68.9056,-17.6129,4070.8726],[-68.9298,-17.6411,4124.1978],[-68.9342,-17.6446,4130.9048],[-68.9404,-17.6443,4120.374],[-69.0141,-17.5748,4107.3643],[-69.0183,-17.5643,4092.9346],[-69.0248,-17.5595,4090.228],[-69.0227,-17.557,4090.2231],[-69.0233,-17.5542,4062.2104],[-69.0198,-17.5446,4019.5322],[-69.0198,-17.5377,3999.7122],[-69.0139,-17.5293,3978.3767],[-69.0105,-17.521,3962.8354],[-69.0113,-17.5108,3936.915],[-69.0072,-17.5019,3936.3044],[-69.0073,-17.4953,3929.1021],[-69.011,-17.491,3991.6204],[-69.0101,-17.4814,3919.7456],[-69.0111,-17.4739,4044.2268],[-69.0193,-17.4664,4084.241],[-69.0219,-17.4658,4094.2988],[-69.0335,-17.4529,4064.7078],[-69.0392,-17.4547,4033.873],[-69.0439,-17.4615,4092.3516],[-69.0533,-17.4627,4090.1829],[-69.061,-17.4545,4114.8828],[-69.0674,-17.4522,4164.9849],[-69.0847,-17.4537,4256.4551],[-69.1097,-17.4437,4334.1719],[-69.141,-17.4439,4350.124],[-69.1461,-17.4396,4324.8862],[-69.1444,-17.4358,4326.0527],[-69.134,-17.4317,4281.0142],[-69.1312,-17.4273,4279.063],[-69.1311,-17.4228,4265.1768],[-69.1358,-17.4167,4358.2842],[-69.1342,-17.4078,4198.2607],[-69.1297,-17.4045,4272.208],[-69.1203,-17.405,4444.3418],[-69.1182,-17.3987,4439.4517],[-69.123,-17.3918,4454.6729],[-69.1188,-17.3745,4515.4302],[-69.1234,-17.3694,4572.6479],[-69.1244,-17.3625,4535.9434],[-69.1268,-17.3598,4514.6143],[-69.1229,-17.3553,4570.6938],[-69.1219,-17.3509,4524.584],[-69.1178,-17.3479,4551.5303],[-69.1176,-17.3435,4510.5962],[-69.1193,-17.3421,4449.9272],[-69.1206,-17.3347,4468.2637],[-69.1267,-17.3301,4562.2485],[-69.1268,-17.3152,4275.6699],[-69.1205,-17.3072,4178.4712],[-69.1385,-17.3084,4334.2075],[-69.1626,-17.3054,4193.5967],[-69.1703,-17.3031,4213.251],[-69.1825,-17.3045,4180.7603],[-69.1843,-17.3032,4180.7603],[-69.1885,-17.3035,4213.3027],[-69.1912,-17.3001,4163.3604],[-69.2017,-17.3024,4130.9678],[-69.2152,-17.3116,4417.793],[-69.2173,-17.3224,4185.9839],[-69.2228,-17.3282,4093.8455],[-69.2293,-17.3313,4071.2478],[-69.2313,-17.3359,4051.9946],[-69.2294,-17.3408,4067.6384],[-69.2373,-17.3471,4063.8313],[-69.238,-17.3522,4105.0488],[-69.2415,-17.3572,4083.0078],[-69.2413,-17.3617,4056.9075],[-69.2454,-17.3637,4090.1484],[-69.248,-17.3674,4106.7051],[-69.2508,-17.3677,4088.1047],[-69.2542,-17.3656,4088.0569],[-69.2606,-17.3668,4092.0112],[-69.2644,-17.3645,4129.6543],[-69.269,-17.3656,4109.8301],[-69.2779,-17.3633,4125.4678],[-69.2866,-17.3667,4157.0806],[-69.2932,-17.3666,4240.1982],[-69.2946,-17.3677,4213.4829],[-69.2962,-17.3797,4183.5967],[-69.3158,-17.3946,4244.3169],[-69.3163,-17.3982,4246.2314],[-69.3148,-17.4005,4230.8911],[-69.299,-17.4066,4158.1895],[-69.2962,-17.4138,4132.3896],[-69.293,-17.4172,4119.6729],[-69.2905,-17.4232,4131.3135],[-69.292,-17.428,4101.4922],[-69.2956,-17.4323,4093.252],[-69.3035,-17.4336,4072.4365],[-69.3078,-17.4361,4046.3779],[-69.3144,-17.4308,4061.6807],[-69.3212,-17.4296,4074.7705],[-69.324,-17.4305,4068.5339],[-69.3301,-17.4284,4084.1213],[-69.3315,-17.4461,4087.8884],[-69.334,-17.4546,4079.1489],[-69.3443,-17.4585,4016.0833],[-69.3484,-17.4574,4076.4426],[-69.3548,-17.4508,4079.0308],[-69.3713,-17.4495,4030.3701],[-69.3735,-17.4469,4031.105],[-69.3829,-17.4513,4022.4163],[-69.3956,-17.449,4190.7241],[-69.3975,-17.4507,4128.9985],[-69.3988,-17.4589,4017.5049],[-69.4041,-17.4663,4104.3389],[-69.4179,-17.4656,4109.3457],[-69.4314,-17.4697,4048.6946],[-69.4475,-17.4769,4087.4746],[-69.4687,-17.492,4096.686]]]]}}