{"type":"Feature","properties":{"GID_2":"BOL.6.3_2","GID_0":"BOL","country":"Bolivia","GID_1":"BOL.6_1","province":"Pando","NL_NAME_1":"NA","county":"MadredeDios","VARNAME_2":"NA","NL_NAME_2":"NA","TYPE_2":"Provincia","ENGTYPE_2":"Province","CC_2":"NA","HASC_2":"NA","name":"Madrede_Dios.county"},
"geometry":{"type": "MultiPolygon","coordinates": [[[[-67.9963,-11.8497,152.5],[-66.9673,-12.4903,141.0],[-66.9679,-12.4865,141.0],[-66.9662,-12.4823,153.3516],[-66.9545,-12.4759,146.8613],[-66.9347,-12.4749,141.0],[-66.9327,-12.4722,141.0],[-66.9338,-12.4675,141.0],[-66.9576,-12.4401,140.5],[-66.9686,-12.4247,140.5],[-66.9698,-12.4186,140.5],[-66.9385,-12.3987,140.5],[-66.9193,-12.3784,140.5],[-66.9129,-12.3756,140.5],[-66.8995,-12.3732,144.3929],[-66.8973,-12.3692,141.1532],[-66.9,-12.3517,140.5],[-66.9066,-12.342,140.5],[-66.9202,-12.3339,140.5],[-66.9371,-12.3317,140.5],[-66.946,-12.3276,140.5],[-66.9486,-12.305,140.5],[-66.9456,-12.2974,153.6427],[-66.9101,-12.2854,140.5],[-66.8967,-12.2627,143.0529],[-66.8869,-12.2512,140.0],[-66.8852,-12.2379,140.0],[-66.8858,-12.2147,140.0],[-66.8892,-12.2,140.0],[-66.8971,-12.1903,140.0],[-66.9181,-12.1861,140.0],[-66.9206,-12.1844,140.0],[-66.9242,-12.1729,140.0],[-66.9253,-12.1615,140.0],[-66.922,-12.1534,140.0],[-66.8761,-12.1135,140.0],[-66.8731,-12.1063,140.0],[-66.8843,-12.076599999999999,140.0],[-66.8886,-12.0581,140.0],[-66.8953,-12.0548,143.9178],[-66.9086,-12.0569,143.6611],[-66.9107,-12.0525,140.0],[-66.91,-12.0473,140.0],[-66.8985,-12.023,140.0],[-66.8937,-12.0074,140.0],[-66.8938,-12.0029,146.7298],[-66.9019,-11.979,138.0],[-66.9059,-11.9529,140.2186],[-66.9084,-11.9505,137.0],[-66.9137,-11.9493,152.5975],[-66.9253,-11.9546,144.1719],[-66.93,-11.9503,137.0],[-66.9309,-11.9442,153.9047],[-66.9264,-11.9345,140.4503],[-66.9266,-11.9278,137.0],[-66.9295,-11.9205,137.0],[-66.9346,-11.9155,137.0],[-66.946,-11.9098,137.0],[-66.9497,-11.9096,140.0547],[-66.9562,-11.9137,158.2195],[-66.9574,-11.917,155.4152],[-66.9565,-11.9211,156.1766],[-66.9504,-11.933,136.5],[-66.9499,-11.9371,136.5],[-66.9523,-11.9401,136.5],[-66.9561,-11.9406,136.5],[-66.9694,-11.9289,136.5],[-66.978,-11.914,136.0],[-66.9797,-11.9066,141.3186],[-66.9791,-11.9,141.8268],[-66.9759,-11.8959,151.078],[-66.9719,-11.8946,151.6955],[-66.9647,-11.8969,139.8904],[-66.9585,-11.8954,136.0],[-66.9565,-11.8932,147.0558],[-66.9555,-11.8802,136.0],[-66.9533,-11.8782,140.193],[-66.9414,-11.878,153.6134],[-66.9188,-11.8655,136.0],[-66.9037,-11.8626,136.0],[-66.8937,-11.8579,135.5],[-66.8567,-11.8226,139.9658],[-66.8564,-11.8172,134.5],[-66.8679,-11.8123,134.5],[-66.8713,-11.8091,134.0],[-66.8732,-11.8016,135.9474],[-66.871,-11.7926,135.9623],[-66.8718,-11.7886,135.5367],[-66.8772,-11.777,133.5],[-66.8804,-11.7739,133.5],[-66.8865,-11.7729,133.5],[-66.9096,-11.7811,133.5],[-66.9179,-11.7806,133.5],[-66.9188,-11.7767,133.0],[-66.9173,-11.7647,133.0],[-66.9105,-11.7471,133.0],[-66.9047,-11.7442,133.0],[-66.8796,-11.742,132.5],[-66.8702,-11.7429,134.0469],[-66.8665,-11.7451,132.5],[-66.8609,-11.7549,132.5],[-66.8521,-11.7629,132.0],[-66.8398,-11.7664,137.4267],[-66.8377,-11.7646,139.9995],[-66.8351,-11.7398,132.0],[-66.8291,-11.7126,131.5],[-66.8261,-11.7062,131.5],[-66.8167,-11.6973,131.5],[-66.8115,-11.6954,136.5666],[-66.7792,-11.6928,139.0597],[-66.7719,-11.6966,131.0],[-66.7711,-11.7019,143.1226],[-66.7741,-11.7134,131.0],[-66.7829,-11.7218,130.5],[-66.7936,-11.7272,130.5],[-66.7959,-11.7309,130.5],[-66.7941,-11.74,130.5],[-66.7907,-11.7427,130.5],[-66.7813,-11.745,130.5],[-66.7721,-11.7423,130.5],[-66.7649,-11.7361,130.5],[-66.7636,-11.7322,138.2885],[-66.7639,-11.7123,130.5],[-66.762,-11.7085,130.5],[-66.7254,-11.6906,130.0],[-66.7117,-11.6818,130.0],[-66.706,-11.6713,132.1344],[-66.7053,-11.6646,149.5141],[-66.7067,-11.6607,143.9199],[-66.7086,-11.6586,148.2488],[-66.7171,-11.6558,137.0433],[-66.7294,-11.658,130.0],[-66.7335,-11.6573,130.0],[-66.7358,-11.6548,130.0],[-66.7353,-11.6523,130.0],[-66.7295,-11.6485,130.0],[-66.727,-11.6449,130.0],[-66.7219,-11.6295,129.5],[-66.711,-11.618,140.9395],[-66.7128,-11.6105,139.5028],[-66.7205,-11.6067,137.9447],[-66.734,-11.6084,129.0],[-66.7609,-11.5942,130.8337],[-66.7628,-11.5913,131.0475],[-66.7624,-11.5878,128.5],[-66.7597,-11.5846,128.5],[-66.7477,-11.5762,128.0],[-66.7214,-11.5662,128.0],[-66.6969,-11.5607,128.0],[-66.6922,-11.561,128.0],[-66.6804,-11.5658,139.8553],[-66.6778,-11.5654,148.0332],[-66.6758,-11.5617,148.9555],[-66.6768,-11.5388,127.5],[-66.6791,-11.531,127.0],[-66.6864,-11.5122,129.3226],[-66.6959,-11.4972,126.0],[-66.7088,-11.4881,126.0],[-66.7196,-11.4862,126.0],[-66.7295,-11.4879,128.3135],[-66.734,-11.4842,126.0],[-66.7333,-11.4799,126.0],[-66.7178,-11.4581,126.0],[-66.7053,-11.4465,126.0],[-66.695,-11.4429,127.2556],[-66.6826,-11.4458,126.0],[-66.6674,-11.4527,127.5544],[-66.6506,-11.4668,125.5],[-66.6395,-11.4733,125.5],[-66.6362,-11.4717,125.5],[-66.6339,-11.4673,125.5],[-66.6335,-11.462,125.5],[-66.6335,-11.455,125.5],[-66.639,-11.4306,125.0],[-66.6374,-11.4255,125.0],[-66.6316,-11.424,125.0],[-66.6151,-11.428,125.0],[-66.5907,-11.4294,132.4272],[-66.5739,-11.4245,135.7955],[-66.5543,-11.4144,124.5],[-66.5471,-11.4144,134.6465],[-66.5344,-11.4183,130.0694],[-66.519,-11.42,130.7987],[-66.5126,-11.4257,124.0],[-66.5094,-11.44,129.6548],[-66.5054,-11.4431,129.8577],[-66.4987,-11.4423,127.4847],[-66.495,-11.441,132.1129],[-66.483,-11.4302,124.0],[-66.4702,-11.4278,125.6548],[-66.464,-11.4238,124.0],[-66.4631,-11.4176,124.0],[-66.4671,-11.4057,124.0],[-66.4646,-11.3963,128.9649],[-66.4614,-11.3921,128.4639],[-66.4403,-11.3764,124.0],[-66.4302,-11.3737,124.0],[-66.3896,-11.3782,124.0],[-66.3737,-11.3746,124.4734],[-66.3578,-11.3674,123.5],[-66.3416,-11.3644,123.5],[-66.327,-11.3635,123.5],[-66.321,-11.3612,123.5],[-66.3179,-11.3587,123.5],[-66.3177,-11.3537,127.9534],[-66.3192,-11.3517,129.7905],[-66.3297,-11.349,123.0],[-66.3359,-11.3457,123.0],[-66.3382,-11.3311,123.0],[-66.3315,-11.3235,123.0],[-66.3109,-11.3158,122.5],[-66.2966,-11.3141,122.5],[-66.2903,-11.3155,122.5],[-66.2722,-11.3229,123.4713],[-66.2436,-11.3402,122.0],[-66.2331,-11.3426,122.0],[-66.2281,-11.3404,122.0],[-66.2254,-11.3364,122.0],[-66.2258,-11.3291,123.3368],[-66.2379,-11.3081,121.5],[-66.243,-11.3033,121.5],[-66.2699,-11.2896,121.5],[-66.2776,-11.2777,123.5449],[-66.2776,-11.2745,123.652],[-66.2754,-11.2726,127.9514],[-66.2661,-11.2748,127.5682],[-66.2563,-11.2733,121.0],[-66.2525,-11.2697,121.0],[-66.2514,-11.2661,128.0593],[-66.2551,-11.2578,121.0],[-66.2634,-11.2513,120.5],[-66.2685,-11.241,127.8957],[-66.2697,-11.2349,126.0152],[-66.267,-11.2172,120.5],[-66.2615,-11.208,121.8074],[-66.258,-11.2064,128.8146],[-66.2534,-11.2066,130.3079],[-66.2502,-11.209,128.5467],[-66.2472,-11.2165,120.5],[-66.2441,-11.2196,121.3046],[-66.2409,-11.2204,120.5],[-66.2165,-11.2116,120.0],[-66.2029,-11.2028,128.444],[-66.1888,-11.1876,120.0],[-66.1858,-11.1818,127.2606],[-66.1908,-11.1455,119.5],[-66.1963,-11.1323,119.5],[-66.2004,-11.1284,119.5],[-66.2143,-11.1224,123.7139],[-66.2147,-11.1186,119.0],[-66.1959,-11.0768,120.526],[-66.1938,-11.0749,119.0],[-66.1864,-11.0754,119.0],[-66.1833,-11.0771,121.7288],[-66.1778,-11.0847,118.5],[-66.1703,-11.0974,118.5],[-66.1601,-11.1312,118.5],[-66.1574,-11.1344,118.5],[-66.1529,-11.1355,118.25],[-66.1377,-11.1306,118.0],[-66.1308,-11.1246,118.0],[-66.1264,-11.1183,118.0],[-66.1216,-11.1003,117.5],[-66.1234,-11.0838,117.5],[-66.127,-11.0758,117.5],[-66.1433,-11.052,117.0],[-66.1439,-11.0461,117.0],[-66.1374,-11.0422,116.5],[-66.1043,-11.0514,116.0],[-66.0934,-11.0506,116.0],[-66.0915,-11.0473,116.0],[-66.0985,-11.0432,116.0],[-66.1035,-11.0425,116.0],[-66.1067,-11.0393,116.0],[-66.1082,-11.0327,128.2237],[-66.1066,-11.0228,116.0],[-66.0923,-10.9901,122.015],[-66.0949,-10.9847,121.6457],[-66.0968,-10.9507,116.0],[-66.1036,-10.9266,116.5],[-66.1078,-10.9206,116.5],[-66.122,-10.9123,116.5],[-66.1324,-10.9105,131.9821],[-66.1546,-10.9132,116.5],[-66.1608,-10.9184,116.5],[-66.1716,-10.9336,123.0792],[-66.1798,-10.9498,116.5],[-66.1831,-10.9703,117.0],[-66.2017,-10.9949,117.0],[-66.2161,-11.0082,117.0],[-66.253,-11.0237,117.0],[-66.2663,-11.0272,117.0],[-66.2721,-11.0269,117.0],[-66.276,-11.0248,117.0],[-66.2771,-11.0118,117.5],[-66.274,-10.9854,118.5],[-66.2783,-10.9677,118.5],[-66.2824,-10.9618,118.6777],[-66.2878,-10.9565,119.0],[-66.3047,-10.9499,119.0],[-66.3199,-10.9411,119.5],[-66.3263,-10.941,119.5],[-66.3346,-10.9433,120.0],[-66.3355,-10.9485,122.5803],[-66.3332,-10.9521,122.5374],[-66.32,-10.9549,120.0],[-66.3091,-10.9605,120.0],[-66.3048,-10.9662,120.0],[-66.3022,-10.9734,131.1532],[-66.3021,-10.9817,125.1354],[-66.305,-10.9888,120.0],[-66.3105,-10.9944,120.0],[-66.3165,-10.9994,120.0],[-66.3351,-11.0077,120.2855],[-66.3396,-11.0163,138.6209],[-66.3431,-11.0285,120.5],[-66.3442,-11.0438,132.5928],[-66.3419,-11.0591,140.4421],[-66.3457,-11.0678,120.5],[-66.3599,-11.076,120.5],[-66.3768,-11.0807,120.5],[-66.3946,-11.0899,121.0],[-66.415,-11.1112,121.0],[-66.4201,-11.1124,121.0],[-66.4216,-11.1071,126.7262],[-66.4202,-11.1016,125.3645],[-66.4137,-11.0927,133.1344],[-66.409,-11.0784,134.4421],[-66.4113,-11.0628,121.0],[-66.4221,-11.0517,121.0],[-66.4276,-11.0482,129.0208],[-66.4335,-11.0477,124.1247],[-66.44,-11.0502,137.7436],[-66.4458,-11.0533,122.1899],[-66.4486,-11.0576,121.0],[-66.4492,-11.0627,121.0],[-66.4449,-11.0754,121.0],[-66.4329,-11.0892,124.6956],[-66.4316,-11.0956,129.7834],[-66.4312,-11.1048,127.7034],[-66.4342,-11.1133,121.0],[-66.4389,-11.12,125.6585],[-66.4444,-11.123,125.8949],[-66.4548,-11.1227,123.2758],[-66.4574,-11.1193,125.9796],[-66.4608,-11.1061,147.3424],[-66.4699,-11.0936,122.0],[-66.4862,-11.0865,130.3136],[-66.4994,-11.0858,122.5],[-66.5159,-11.1002,123.0],[-66.5222,-11.114,123.0],[-66.5336,-11.1256,137.8213],[-66.5417,-11.1376,132.6953],[-66.549,-11.1442,124.5],[-66.5799,-11.1636,125.5],[-66.5911,-11.1616,125.5],[-66.6009,-11.1536,126.0],[-66.6054,-11.146,126.0],[-66.6113,-11.1399,126.5],[-66.6207,-11.1335,126.5],[-66.6366,-11.1275,140.2677],[-66.6447,-11.1291,141.0904],[-66.6509,-11.1341,134.6359],[-66.6527,-11.1429,136.5087],[-66.6523,-11.1496,128.0],[-66.6468,-11.162,128.0],[-66.6374,-11.1727,129.3046],[-66.6373,-11.1834,128.0],[-66.6408,-11.1876,128.0],[-66.6525,-11.1913,129.4699],[-66.67,-11.1848,129.5707],[-66.6844,-11.186,130.4492],[-66.6978,-11.1951,131.923],[-66.7211,-11.2238,133.1206],[-66.7248,-11.2259,129.0],[-66.7294,-11.2258,129.0],[-66.7331,-11.2218,129.0],[-66.7369,-11.2063,129.5],[-66.7424,-11.1987,129.5],[-66.751,-11.1911,129.5],[-66.7712,-11.1806,130.0],[-66.7913,-11.1675,130.0],[-66.8039,-11.1653,130.0],[-66.8087,-11.1669,130.0],[-66.8118,-11.1702,130.0],[-66.8131,-11.1761,130.0],[-66.8109,-11.1839,130.0],[-66.8045,-11.1932,130.0],[-66.7994,-11.1972,130.5],[-66.7941,-11.2092,130.5],[-66.795,-11.2438,130.5],[-66.7981,-11.253,130.5],[-66.8059,-11.267,130.5],[-66.8206,-11.2782,131.0],[-66.8339,-11.285,131.0],[-66.846,-11.2988,131.0],[-66.8574,-11.3029,131.0],[-66.8687,-11.2994,131.0],[-66.8787,-11.2853,131.0],[-66.8932,-11.2566,131.5],[-66.9018,-11.2469,131.5],[-66.9084,-11.2425,131.5],[-66.9224,-11.238,131.5],[-66.93,-11.2384,131.5],[-66.9438,-11.2436,131.5],[-66.9486,-11.2487,132.0],[-66.951,-11.2583,132.0],[-66.9439,-11.2798,132.0],[-66.9473,-11.3008,132.0],[-66.9592,-11.3192,132.0],[-66.9812,-11.3377,132.5],[-67.03,-11.3338,133.5],[-67.0633,-11.3427,134.5],[-67.0733,-11.3424,134.5],[-67.0927,-11.3451,135.0],[-67.1132,-11.3436,136.0],[-67.1399,-11.3466,136.5],[-67.1548,-11.3463,137.0],[-67.1612,-11.3487,137.25],[-67.174,-11.3599,137.875],[-67.1881,-11.3686,138.125],[-67.2106,-11.4011,139.9124],[-67.2171,-11.4141,138.5],[-67.218,-11.4354,138.5],[-67.22,-11.4431,138.5],[-67.2272,-11.4595,138.5],[-67.2321,-11.4647,138.5],[-67.2438,-11.4728,138.5],[-67.2824,-11.4793,139.0],[-67.2988,-11.4853,139.0],[-67.3134,-11.496,139.0],[-67.3284,-11.5242,139.5],[-67.3393,-11.5367,139.5],[-67.3452,-11.539,139.5],[-67.3601,-11.5403,139.5],[-67.3971,-11.5374,140.0],[-67.4019,-11.5356,140.0],[-67.4048,-11.5323,143.1595],[-67.4074,-11.517,140.0],[-67.4107,-11.5154,141.7677],[-67.4247,-11.5161,140.0],[-67.4417,-11.5115,140.0],[-67.4516,-11.5053,156.4732],[-67.4556,-11.5005,140.25],[-67.4689,-11.4963,140.5],[-67.4918,-11.4972,141.0],[-67.4979,-11.4957,141.0],[-67.5157,-11.4741,142.0],[-67.5392,-11.4663,142.5],[-67.553,-11.4669,166.9379],[-67.5667,-11.4719,163.5621],[-67.5863,-11.471,143.5],[-67.6088,-11.4727,144.0],[-67.6274,-11.48,144.5],[-67.6584,-11.5005,158.917],[-67.6681,-11.5126,168.8957],[-67.6744,-11.5469,148.0],[-67.6826,-11.5656,148.0],[-67.6801,-11.574,148.0],[-67.6717,-11.5829,148.0],[-67.6704,-11.5863,148.0],[-67.6716,-11.5912,148.0],[-67.6799,-11.5991,148.0],[-67.7008,-11.6063,148.0],[-67.7073,-11.6115,148.0],[-67.7167,-11.6294,148.5],[-67.7318,-11.6666,148.5],[-67.7361,-11.6732,149.0],[-67.7468,-11.6816,149.0],[-67.7884,-11.6985,164.6704],[-67.7959,-11.6978,149.5],[-67.8093,-11.6901,149.5],[-67.8239,-11.6845,152.5415],[-67.8754,-11.6876,150.5],[-67.8819,-11.6889,150.5],[-67.8952,-11.6951,150.5],[-67.9157,-11.7134,150.5],[-67.918,-11.717,151.0],[-67.9146,-11.7384,151.0],[-67.9144,-11.7426,151.0],[-67.9165,-11.7481,151.0],[-67.92,-11.7523,151.0],[-67.9479,-11.7642,151.5],[-67.9588,-11.777,151.5],[-67.9695,-11.7938,151.5],[-67.9749,-11.8102,156.5185],[-67.9746,-11.8179,152.0],[-67.9682,-11.8299,152.0],[-67.9634,-11.8333,152.0],[-67.9607,-11.838,152.0],[-67.9609,-11.8422,152.0],[-67.9638,-11.8459,152.0],[-67.9686,-11.8482,152.5],[-67.9765,-11.8497,152.5],[-67.9905,-11.8476,152.5],[-67.9948,-11.8479,152.5],[-67.9963,-11.8497,152.5]]]]}}