{"type": "Feature","bbox": [-68.1543,-18.8154,-67.5057,-17.9346],"geometry": {"type": "MultiPolygon","coordinates": [[[[-67.7293,-18.0837,4489.9912],[-67.7303,-18.0843,4560.8198],[-67.7384,-18.0704,4549.9971],[-67.7533,-18.0517,4583.3242],[-67.7585,-18.0502,4549.5361],[-67.7615,-18.0428,4575.2266],[-67.7679,-18.0349,4591.6958],[-67.7783,-18.0246,4574.8242],[-67.7829,-18.022,4577.7666],[-67.797,-18.0316,4245.4834],[-67.7983,-18.0348,4258.5415],[-67.8018,-18.0372,4189.6763],[-67.8151,-18.0365,4088.6875],[-67.8476,-18.0534,3972.7327],[-67.8498,-18.0512,3976.7563],[-67.857,-18.054,3915.6367],[-67.8642,-18.0479,3917.5476],[-67.867,-18.0481,3921.063],[-67.8722,-18.0436,3900.7393],[-67.8836,-18.0392,3887.5024],[-67.8855,-18.0357,3884.7114],[-67.9016,-18.0228,3943.1587],[-67.9172,-18.0176,3979.0032],[-67.9124,-18.0097,3945.4229],[-67.9088,-17.9908,4014.231],[-67.9174,-17.973,3945.8208],[-67.9192,-17.9623,3980.8433],[-67.9167,-17.9516,3960.2698],[-67.9122,-17.9428,4073.5647],[-67.9176,-17.9395,4025.2036],[-67.9203,-17.9346,4083.6758],[-67.9352,-17.9423,3997.0874],[-67.9386,-17.9541,3954.8267],[-67.9518,-17.9642,3915.1438],[-67.9624,-17.9659,3931.4688],[-67.9718,-17.9716,3957.9058],[-67.9763,-17.9716,3971.9153],[-67.9815,-17.9753,3987.1519],[-67.9818,-17.9772,3994.4768],[-67.9862,-17.9793,4008.5315],[-67.9812,-17.9891,4061.9905],[-67.9799,-17.9967,4044.3477],[-68.0026,-18.0132,3883.7383],[-68.0155,-18.015,3902.303],[-68.0438,-18.0231,3972.4539],[-68.0513,-18.0313,3920.4709],[-68.0588,-18.0309,3920.3345],[-68.0656,-18.0338,3938.6377],[-68.0859,-18.0321,3936.1221],[-68.0993,-18.0411,4048.229],[-68.1086,-18.0427,4064.3506],[-68.1124,-18.0426,4078.7517],[-68.124,-18.0335,4103.2114],[-68.1294,-18.0271,4118.9126],[-68.1543,-18.0375,4415.3901],[-68.1535,-18.0493,4450.3794],[-68.141,-18.0595,4127.0225],[-68.1397,-18.0637,4186.9663],[-68.1311,-18.0691,4143.1846],[-68.1313,-18.0764,4133.6743],[-68.1246,-18.0855,4164.2417],[-68.1097,-18.0888,4389.3525],[-68.1091,-18.0917,4323.3184],[-68.1132,-18.1084,3972.5354],[-68.1109,-18.1149,3937.8032],[-68.1125,-18.1181,4004.6174],[-68.1122,-18.1232,4016.9822],[-68.1055,-18.1563,3912.9277],[-68.1091,-18.1663,3858.9956],[-68.1204,-18.1728,3835.6968],[-68.123,-18.1816,3824.8623],[-68.12,-18.1921,3819.189],[-68.113,-18.1966,3818.9619],[-68.1059,-18.1978,3826.3088],[-68.0997,-18.1966,3833.8904],[-68.0958,-18.2016,3846.2417],[-68.0807,-18.2029,3838.426],[-68.0726,-18.2224,3823.2812],[-68.075,-18.2336,3819.1382],[-68.0804,-18.243,3815.8516],[-68.0761,-18.2463,3826.1885],[-68.0704,-18.2679,3860.292],[-68.0471,-18.2959,3938.9775],[-68.0382,-18.2984,3928.3389],[-68.0265,-18.2955,4072.6206],[-68.0207,-18.3068,4075.5071],[-68.0202,-18.3177,4111.1567],[-68.017,-18.3295,4119.019],[-68.0274,-18.3409,3919.0774],[-68.0251,-18.3453,3926.3406],[-68.0284,-18.354,3848.1338],[-68.032,-18.3551,3837.0042],[-68.0356,-18.3609,3829.1675],[-68.0435,-18.3648,3816.3081],[-68.047,-18.3689,3812.2859],[-68.0488,-18.379,3902.4319],[-68.0444,-18.3859,3858.8484],[-68.0673,-18.4089,3776.0789],[-68.0664,-18.4147,3773.7627],[-68.0686,-18.4187,3772.0164],[-68.077,-18.4243,3770.7659],[-68.0917,-18.4435,3764.0779],[-68.1171,-18.4649,3764.116],[-68.1256,-18.4876,3758.666],[-68.0849,-18.5046,3814.2922],[-68.0649,-18.5355,3779.2148],[-68.0533,-18.585,3737.8208],[-68.0575,-18.5963,3736.875],[-68.0545,-18.6129,3739.5071],[-68.0492,-18.6239,3731.2852],[-68.0342,-18.7148,3742.415],[-67.9906,-18.7717,3711.4248],[-67.9544,-18.8109,3715.8997],[-67.9323,-18.8154,3693.7725],[-67.9082,-18.8069,3710.5757],[-67.8786,-18.8004,3701.2136],[-67.8671,-18.7892,3703.1304],[-67.8038,-18.7474,3715.115],[-67.7816,-18.7392,3737.959],[-67.7425,-18.7161,3892.887],[-67.7278,-18.6994,3740.1162],[-67.7173,-18.6817,3798.6499],[-67.6956,-18.6807,3790.9631],[-67.6843,-18.6822,3781.2163],[-67.6649,-18.677,3759.3418],[-67.6363,-18.6836,3751.7053],[-67.6297,-18.6816,3740.6895],[-67.6179,-18.6832,3725.5151],[-67.5787,-18.6673,3718.1133],[-67.5533,-18.6436,3719.3262],[-67.5415,-18.6273,3717.844],[-67.5084,-18.6002,3740.2668],[-67.5205,-18.5851,3748.9795],[-67.5241,-18.5725,3756.231],[-67.5238,-18.5464,3761.8662],[-67.5084,-18.5186,3747.6555],[-67.5057,-18.5076,3741.4756],[-67.5289,-18.476,3756.6116],[-67.5481,-18.4613,3762.7085],[-67.544,-18.4305,3735.8738],[-67.553,-18.4219,3727.957],[-67.5543,-18.4144,3725.4141],[-67.5529,-18.4049,3721.4717],[-67.5474,-18.3894,3729.3125],[-67.544,-18.3735,3715.2676],[-67.5411,-18.3743,3715.3586],[-67.5382,-18.3717,3716.5698],[-67.5387,-18.366,3715.6997],[-67.5323,-18.3626,3713.5928],[-67.5286,-18.3576,3713.0303],[-67.5294,-18.3534,3712.7207],[-67.5272,-18.3492,3711.5479],[-67.5215,-18.3488,3711.8076],[-67.5192,-18.3523,3710.9856],[-67.5151,-18.3509,3711.2415],[-67.5084,-18.3418,3709.1221],[-67.5148,-18.329,3709.6538],[-67.5182,-18.3267,3712.6819],[-67.5221,-18.3121,3716.3484],[-67.526,-18.3055,3717.3662],[-67.5332,-18.2852,3711.9434],[-67.5569,-18.3072,3738.8096],[-67.5669,-18.3023,3751.0066],[-67.597,-18.2406,3778.7983],[-67.6014,-18.2366,3814.1909],[-67.6005,-18.2306,4019.0569],[-67.6034,-18.2185,3961.6509],[-67.6094,-18.2012,3744.9966],[-67.611,-18.1877,3752.3723],[-67.6162,-18.1757,3749.6726],[-67.6229,-18.1699,3910.1726],[-67.6516,-18.1691,4434.4067],[-67.6548,-18.1674,4530.6133],[-67.659,-18.1507,4421.0508],[-67.6616,-18.1468,4447.1138],[-67.6586,-18.1421,4497.4531],[-67.6585,-18.1359,4514.168],[-67.6623,-18.1304,4521.9297],[-67.6634,-18.1192,4568.7988],[-67.662,-18.1168,4617.1099],[-67.662,-18.11,4624.2217],[-67.6672,-18.1058,4577.2764],[-67.668,-18.1034,4553.7065],[-67.6683,-18.0996,4563.9565],[-67.6656,-18.0956,4612.2324],[-67.6675,-18.0934,4637.0405],[-67.6676,-18.0872,4628.604],[-67.6699,-18.0847,4656.5195],[-67.6711,-18.0786,4673.605],[-67.6764,-18.0755,4612.0811],[-67.6777,-18.0728,4635.6514],[-67.6782,-18.0709,4631.8291],[-67.6757,-18.067,4644.8218],[-67.6819,-18.0608,4671.8535],[-67.6917,-18.0654,4544.604],[-67.7075,-18.0759,4323.6411],[-67.7211,-18.0788,4293.4453],[-67.7293,-18.0837,4489.9912]]]]}
,"properties": {"GID_2": "BOL.5.2_2","GID_0": "BOL","country": "Bolivia","GID_1": "BOL.5_1","province": "Oruro","NL_NAME_1": "NA","county": "Carangas","VARNAME_2": "NA","NL_NAME_2": "NA","TYPE_2": "Provincia","ENGTYPE_2": "Province","CC_2": "NA","HASC_2": "NA","name": "Carangas.county","area_km2": 4174.477,"hist_schema_id": "Elevation0-9000","hist_area_km2": {"3700": 86.837,"3725": 529.854,"3750": 895.423,"3775": 509.294,"3800": 325.914,"3825": 331.474,"3850": 277.312,"3875": 291.435,"3900": 247.449,"3925": 177.036,"3950": 128.726,"3975": 90.509,"4000": 58.916,"4025": 34.816,"4050": 23.814,"4075": 18.938,"4100": 14.808,"4125": 12.451,"4150": 10.275,"4175": 10.255,"4200": 9.752,"4225": 9.55,"4250": 9.631,"4275": 7.758,"4300": 7.113,"4325": 6.206,"4350": 5.602,"4375": 6.025,"4400": 5.743,"4425": 5.884,"4450": 5.139,"4475": 4.897,"4500": 4.273,"4525": 3.809,"4550": 3.084,"4575": 1.834,"4600": 1.169,"4625": 0.847,"4650": 0.464,"4675": 0.161}}}