{"type": "Feature","bbox": [-66.3501,-17.3137,-64.7235,-15.801],"geometry": {"type": "MultiPolygon","coordinates": [[[[-65.3534,-16.4006,197.1851],[-65.5947,-16.4602,206.0745],[-65.8353,-16.4904,288.1794],[-65.8617,-16.4917,281.8451],[-65.9141,-16.4814,485.3248],[-65.9712,-16.467,520.6696],[-66.0089,-16.4492,658.1254],[-66.0563,-16.4171,719.7173],[-66.1098,-16.3966,813.7796],[-66.1697,-16.3628,987.6312],[-66.2311,-16.2857,925.9248],[-66.3104,-16.159,1079.1006],[-66.3393,-16.1172,342.186],[-66.3079,-16.2875,1284.0012],[-66.3097,-16.3073,1120.4282],[-66.3064,-16.3573,2079.4343],[-66.3232,-16.3992,980.9511],[-66.3268,-16.4009,941.5135],[-66.328,-16.404,920.0228],[-66.3271,-16.4066,986.2099],[-66.3232,-16.4069,926.9758],[-66.3068,-16.4171,943.2302],[-66.3045,-16.4212,933.5549],[-66.3016,-16.4215,944.4293],[-66.2982,-16.4264,962.8119],[-66.2935,-16.4277,947.0162],[-66.2908,-16.4326,982.6604],[-66.2846,-16.4348,953.9834],[-66.2817,-16.4402,958.8404],[-66.2766,-16.4431,962.3496],[-66.2748,-16.4465,1085.7078],[-66.2579,-16.4584,984.1888],[-66.2489,-16.4564,1010.4318],[-66.2407,-16.4588,989.0844],[-66.2385,-16.4632,989.2446],[-66.2347,-16.4663,1007.3361],[-66.2371,-16.4709,1013.6401],[-66.234,-16.4773,1004.5756],[-66.2288,-16.4824,1021.7784],[-66.2217,-16.4845,1010.6722],[-66.2164,-16.493,1083.2114],[-66.21,-16.4925,1031.4031],[-66.2083,-16.4984,1024.8666],[-66.2028,-16.5025,1042.9918],[-66.1979,-16.5022,1016.6249],[-66.1888,-16.5053,1032.0813],[-66.1871,-16.5089,1027.6134],[-66.1897,-16.5124,1032.8257],[-66.186,-16.5145,1156.5884],[-66.1853,-16.5183,1054.7368],[-66.1803,-16.5179,1035.5726],[-66.1786,-16.5147,1046.0088],[-66.1765,-16.5146,1044.4628],[-66.1714,-16.5217,1070.781],[-66.1619,-16.5241,1050.959],[-66.1606,-16.5291,1048.6147],[-66.1624,-16.5376,1059.593],[-66.1532,-16.5463,1074.4238],[-66.1509,-16.5521,1070.1921],[-66.1454,-16.5546,1082.2876],[-66.1415,-16.5592,1067.6844],[-66.1593,-16.5783,1235.8853],[-66.1597,-16.583,1106.1694],[-66.1653,-16.5883,1123.2222],[-66.1654,-16.5916,1204.6884],[-66.1684,-16.5952,1130.8879],[-66.1818,-16.5988,1155.186],[-66.1867,-16.6023,1185.8018],[-66.189,-16.6082,1163.4854],[-66.1878,-16.6159,1209.3605],[-66.1909,-16.6189,1177.3904],[-66.1893,-16.6277,1171.8799],[-66.1793,-16.6378,1205.0981],[-66.1806,-16.6418,1225.0034],[-66.1772,-16.6495,1260.9768],[-66.1801,-16.6515,1213.8345],[-66.1787,-16.6551,1200.5243],[-66.1806,-16.6581,1241.1285],[-66.1776,-16.662,1210.1238],[-66.172,-16.6649,1228.6707],[-66.1724,-16.6672,1229.6576],[-66.1777,-16.6715,1258.7563],[-66.177,-16.6742,1279.1208],[-66.1801,-16.6762,1270.4868],[-66.1821,-16.6803,1286.5493],[-66.1759,-16.6914,1302.3293],[-66.1751,-16.7005,1264.4852],[-66.1713,-16.7098,1263.5852],[-66.1729,-16.714,1290.6932],[-66.1715,-16.7171,1310.2839],[-66.1744,-16.7206,1314.0568],[-66.1739,-16.7242,1353.6462],[-66.1758,-16.7271,1329.9011],[-66.1739,-16.7314,1344.6729],[-66.1747,-16.734,1304.6731],[-66.1699,-16.7363,1338.0507],[-66.1688,-16.7468,1347.1527],[-66.1708,-16.7504,1349.6902],[-66.1712,-16.757,1350.6436],[-66.1665,-16.7625,1401.5132],[-66.1689,-16.7644,1354.859],[-66.1745,-16.7642,1341.5441],[-66.1747,-16.7674,1367.0175],[-66.1854,-16.7746,1434.396],[-66.1908,-16.7747,1415.8596],[-66.1945,-16.7715,1398.486],[-66.2028,-16.7738,1403.3757],[-66.2123,-16.77,1397.8341],[-66.2331,-16.7731,1435.3601],[-66.2374,-16.7688,1433.1144],[-66.2485,-16.763,1465.3333],[-66.2536,-16.7626,1456.9767],[-66.2581,-16.76,1470.2744],[-66.271,-16.7605,1502.1179],[-66.2784,-16.7666,1520.9066],[-66.2789,-16.7691,1524.9146],[-66.2856,-16.7711,1596.4388],[-66.2922,-16.7765,1567.8392],[-66.2991,-16.7768,1575.1874],[-66.3052,-16.7819,1596.2451],[-66.3127,-16.8068,1735.6711],[-66.3127,-16.8112,1726.7963],[-66.3111,-16.8126,1719.2006],[-66.3124,-16.819,1791.5121],[-66.3108,-16.8249,1814.6912],[-66.3115,-16.8327,1811.9192],[-66.3092,-16.8338,1898.1163],[-66.3086,-16.8381,1821.178],[-66.3024,-16.8428,1870.439],[-66.3031,-16.8453,1874.9738],[-66.3017,-16.8478,1937.0342],[-66.296,-16.8497,1936.3542],[-66.2966,-16.8537,1929.921],[-66.2945,-16.857,1927.897],[-66.2928,-16.8583,1966.7947],[-66.2893,-16.8572,1978.2748],[-66.2872,-16.8616,2040.2322],[-66.2875,-16.8689,2025.5352],[-66.2829,-16.8766,2064.9438],[-66.2774,-16.8769,2242.4822],[-66.2633,-16.8856,1901.4756],[-66.2571,-16.8844,1776.0024],[-66.2436,-16.8943,1840.738],[-66.2368,-16.896,1916.918],[-66.2242,-16.9141,1996.0072],[-66.2178,-16.9196,2034.9731],[-66.2181,-16.9323,2196.1638],[-66.222,-16.9339,2271.5615],[-66.2281,-16.9426,2443.8704],[-66.2364,-16.9464,2663.6416],[-66.2402,-16.9464,2887.7534],[-66.2425,-16.9494,2928.3896],[-66.2507,-16.9503,3544.7947],[-66.2506,-16.9523,3567.8572],[-66.2539,-16.9564,3699.6406],[-66.2571,-16.9564,3651.5044],[-66.2603,-16.9599,3698.6194],[-66.2637,-16.9659,3717.6885],[-66.2618,-16.9689,3743.6191],[-66.2824,-16.9828,4325.6914],[-66.2946,-16.9856,4498.0615],[-66.3109,-16.9714,4040.7129],[-66.3501,-16.9955,4168.3008],[-66.3144,-17.0145,4432.4741],[-66.3018,-17.0299,4540.6323],[-66.3036,-17.045,4734.4873],[-66.3004,-17.0492,4693.9175],[-66.29,-17.0531,4640.8218],[-66.2819,-17.0595,4694.7769],[-66.2745,-17.0621,4642.9268],[-66.268,-17.0734,4784.5283],[-66.2558,-17.0861,4609.3975],[-66.2426,-17.0753,4584.7656],[-66.2388,-17.0747,4472.1602],[-66.2237,-17.0842,4510.3232],[-66.2165,-17.0833,4580.208],[-66.2131,-17.0792,4581.1035],[-66.2011,-17.079,4404.9082],[-66.179,-17.0744,4174.8506],[-66.1656,-17.0757,4290.2363],[-66.1381,-17.0841,4305.5889],[-66.1259,-17.0845,4204.8633],[-66.1015,-17.0712,3260.4292],[-66.1005,-17.0756,3319.3667],[-66.0942,-17.0808,3313.7573],[-66.0944,-17.0834,3317.5605],[-66.0998,-17.0876,3432.4646],[-66.1063,-17.1,3584.4438],[-66.1145,-17.104,3581.7866],[-66.1168,-17.108,3608.1082],[-66.1198,-17.1081,3621.7004],[-66.1257,-17.1145,3631.3154],[-66.128,-17.1207,3685.729],[-66.1273,-17.1315,3740.0073],[-66.1216,-17.1447,3827.8774],[-66.1195,-17.1556,4095.0522],[-66.1092,-17.1531,4061.5903],[-66.0741,-17.1385,3783.6187],[-66.0619,-17.1368,3754.3806],[-66.0564,-17.1329,3427.6753],[-66.0389,-17.1424,2833.8525],[-66.0386,-17.1386,2752.3909],[-66.0356,-17.1353,2752.0649],[-66.0366,-17.1312,2595.916],[-66.034,-17.1258,2569.1265],[-66.0343,-17.1198,2466.3818],[-66.0233,-17.1155,2282.4922],[-66.0087,-17.0993,2029.0513],[-66.0086,-17.0878,1929.3939],[-66.0146,-17.0793,1901.3035],[-66.0131,-17.0742,1805.8896],[-66.0153,-17.0715,1735.1392],[-66.0141,-17.0667,1727.4158],[-66.0126,-17.0662,1716.3242],[-66.0132,-17.0644,1714.5463],[-66.0117,-17.0643,1714.5463],[-66.0102,-17.0611,1751.9663],[-66.0115,-17.0605,1757.4757],[-66.0097,-17.0559,1779.8091],[-66.0077,-17.0555,1768.8418],[-66.0075,-17.051,1803.3008],[-66.003,-17.0467,1715.1014],[-65.9945,-17.0454,1619.1362],[-65.9896,-17.0407,1562.329],[-65.9848,-17.0544,2176.3708],[-65.9751,-17.0672,2318.0496],[-65.9718,-17.0689,2391.4387],[-65.966,-17.068,2552.709],[-65.962,-17.0702,2609.699],[-65.9555,-17.0747,2343.647],[-65.9527,-17.0806,2263.6963],[-65.9422,-17.0815,2135.7581],[-65.9398,-17.0783,2114.658],[-65.9357,-17.0773,2082.0525],[-65.9334,-17.0823,2205.5491],[-65.9313,-17.0951,2457.0969],[-65.9023,-17.1134,3372.9658],[-65.8825,-17.1191,3424.4612],[-65.8766,-17.1327,3276.6558],[-65.8771,-17.1505,3260.646],[-65.8685,-17.1769,2252.7749],[-65.8732,-17.1761,2342.281],[-65.8814,-17.1803,2550.2563],[-65.8949,-17.1842,3197.176],[-65.888,-17.203,3263.5073],[-65.8859,-17.2161,3370.1948],[-65.8796,-17.2264,3374.5364],[-65.8712,-17.2523,3747.0088],[-65.8363,-17.2643,3311.29],[-65.821,-17.2608,2658.9419],[-65.8147,-17.2614,2365.9863],[-65.812,-17.2691,2434.8289],[-65.8073,-17.2761,2553.1606],[-65.7974,-17.283,2694.1509],[-65.7964,-17.2859,2721.8042],[-65.7925,-17.2864,2789.0403],[-65.776,-17.3033,3192.8452],[-65.7683,-17.3038,3290.0786],[-65.7573,-17.3134,3493.2444],[-65.7549,-17.3137,3506.584],[-65.7503,-17.3111,3661.9932],[-65.749,-17.3085,3701.7273],[-65.7469,-17.3082,3859.5862],[-65.7464,-17.3032,3795.9612],[-65.7233,-17.2866,4208.4204],[-65.7137,-17.2769,3542.6724],[-65.7106,-17.2716,3407.1726],[-65.7015,-17.2661,3183.7095],[-65.6944,-17.2513,2932.7798],[-65.6921,-17.2488,2803.8977],[-65.6891,-17.2488,2788.4207],[-65.6877,-17.2429,2697.4756],[-65.6855,-17.2432,2675.5],[-65.682,-17.2374,2581.926],[-65.6722,-17.229,2444.0723],[-65.6692,-17.2223,2390.875],[-65.6665,-17.2208,2348.6064],[-65.6662,-17.2174,2316.0076],[-65.6643,-17.2172,2250.0222],[-65.6606,-17.212,2221.0095],[-65.6599,-17.2074,2262.4719],[-65.6563,-17.2014,2115.981],[-65.6474,-17.1935,2118.0225],[-65.6425,-17.1933,2019.4183],[-65.6307,-17.1866,1850.2186],[-65.6234,-17.186,1692.6924],[-65.6194,-17.182,1673.0367],[-65.6125,-17.1827,1534.0693],[-65.6124,-17.1808,1621.5919],[-65.6037,-17.1738,1488.8755],[-65.5838,-17.1691,1270.1437],[-65.579,-17.1621,1160.7339],[-65.576,-17.161,1181.3855],[-65.5792,-17.1539,1124.6754],[-65.579,-17.1499,1028.1871],[-65.5714,-17.1471,904.799],[-65.5644,-17.1365,883.6154],[-65.5569,-17.1304,800.5327],[-65.5535,-17.1254,769.7716],[-65.5475,-17.1223,742.1171],[-65.5417,-17.1124,702.5762],[-65.5374,-17.1085,690.559],[-65.5311,-17.1066,673.8308],[-65.5268,-17.1,662.0254],[-65.52,-17.1049,708.5746],[-65.5121,-17.103,662.9163],[-65.5098,-17.1038,630.179],[-65.5014,-17.1011,566.4526],[-65.4995,-17.0982,579.1241],[-65.4956,-17.0971,575.4097],[-65.4955,-17.0944,657.9139],[-65.4931,-17.0922,595.4656],[-65.4877,-17.0926,528.008],[-65.4849,-17.0854,529.6628],[-65.4789,-17.0805,493.4016],[-65.4705,-17.0779,508.8025],[-65.4679,-17.0727,462.232],[-65.4685,-17.0675,445.8075],[-65.4738,-17.0673,439.4214],[-65.4764,-17.0618,433.4774],[-65.4807,-17.0603,432.9308],[-65.4801,-17.0581,432.6873],[-65.4691,-17.0542,392.4323],[-65.4594,-17.0542,369.4722],[-65.4497,-17.0475,354.2396],[-65.4475,-17.0482,341.9968],[-65.4462,-17.0525,335.4795],[-65.444,-17.054,345.3036],[-65.441,-17.0546,442.3985],[-65.4377,-17.0528,333.7979],[-65.4353,-17.0499,332.4601],[-65.43,-17.0327,320.0881],[-65.4315,-17.0267,315.4323],[-65.4292,-17.0195,309.8424],[-65.4269,-16.9946,295.8553],[-65.4191,-16.9779,280.6667],[-65.4019,-16.974,274.0],[-65.3916,-16.9662,271.9599],[-65.3797,-16.9605,266.6134],[-65.3473,-16.9554,259.6905],[-65.2977,-16.928,234.8513],[-65.2932,-16.9223,236.337],[-65.2832,-16.9207,233.356],[-65.279,-16.9181,232.8275],[-65.27,-16.9196,227.3933],[-65.2553,-16.9105,222.5397],[-65.246,-16.9006,223.866],[-65.2263,-16.8917,215.6299],[-65.2279,-16.8869,216.4645],[-65.2172,-16.882,209.8298],[-65.2166,-16.8795,211.2959],[-65.2193,-16.8765,224.3464],[-65.219,-16.8749,215.5337],[-65.2072,-16.8787,210.2668],[-65.2029,-16.8772,213.358],[-65.2018,-16.8729,209.204],[-65.2053,-16.8648,211.0427],[-65.2004,-16.8573,209.4579],[-65.202,-16.8517,220.4496],[-65.1991,-16.8506,216.2449],[-65.1938,-16.853,217.1317],[-65.1877,-16.8441,206.0862],[-65.1694,-16.8364,209.2522],[-65.1655,-16.8328,205.786],[-65.1654,-16.8272,208.8062],[-65.1706,-16.8207,202.6851],[-65.1729,-16.8116,204.3369],[-65.1705,-16.8051,201.0],[-65.1619,-16.8019,206.1602],[-65.1546,-16.8041,201.0],[-65.1473,-16.8041,208.9808],[-65.1365,-16.7972,207.6584],[-65.1334,-16.7928,202.6747],[-65.1347,-16.7869,205.8307],[-65.1375,-16.784,206.7594],[-65.1424,-16.7834,218.4751],[-65.1467,-16.7857,216.8723],[-65.151,-16.7857,201.6576],[-65.1572,-16.7795,217.8902],[-65.1575,-16.7746,205.0954],[-65.1554,-16.7707,210.6741],[-65.1413,-16.7657,202.2353],[-65.1402,-16.7614,203.3916],[-65.1425,-16.7569,200.6676],[-65.1468,-16.7553,216.0562],[-65.1527,-16.7561,207.7024],[-65.1615,-16.7546,205.864],[-65.1711,-16.7613,204.2821],[-65.1746,-16.7585,213.4666],[-65.1661,-16.7476,212.0124],[-65.1625,-16.7458,199.5699],[-65.1446,-16.75,206.0626],[-65.1348,-16.7365,207.805],[-65.1348,-16.7321,216.7233],[-65.1393,-16.7277,199.1469],[-65.1469,-16.7254,201.673],[-65.1549,-16.7267,202.6778],[-65.155,-16.7202,200.8315],[-65.1442,-16.7014,197.997],[-65.1388,-16.6986,202.1219],[-65.1283,-16.6991,201.9259],[-65.1265,-16.6968,207.0334],[-65.1267,-16.6934,209.6068],[-65.1356,-16.6886,204.6906],[-65.1496,-16.6853,197.5043],[-65.1513,-16.6838,205.3998],[-65.1509,-16.6805,201.9134],[-65.147,-16.6784,206.1004],[-65.1403,-16.6781,202.8962],[-65.1263,-16.6846,203.8928],[-65.1186,-16.6855,198.5219],[-65.112,-16.6809,199.08],[-65.1086,-16.6804,197.5489],[-65.1029,-16.6853,207.7941],[-65.0989,-16.6855,204.2656],[-65.0988,-16.6832,210.8345],[-65.1028,-16.6793,201.0465],[-65.109,-16.6685,194.8431],[-65.109,-16.6649,195.1986],[-65.1055,-16.6636,205.6173],[-65.0936,-16.6679,204.907],[-65.0905,-16.6667,200.7793],[-65.0903,-16.6647,208.9081],[-65.0925,-16.6615,209.9505],[-65.1026,-16.6584,202.0671],[-65.1049,-16.6562,209.6164],[-65.1047,-16.6506,201.6291],[-65.1017,-16.6506,208.848],[-65.0949,-16.6551,204.7425],[-65.0834,-16.6696,202.9367],[-65.0777,-16.6689,208.7505],[-65.073,-16.6641,201.7403],[-65.0734,-16.6577,201.2519],[-65.0814,-16.6529,194.4219],[-65.0823,-16.6495,198.2318],[-65.08,-16.6393,195.7479],[-65.0849,-16.6332,192.7],[-65.0842,-16.63,205.1997],[-65.0809,-16.6283,201.0477],[-65.0764,-16.6291,195.4409],[-65.0606,-16.6388,204.1718],[-65.0523,-16.6317,194.842],[-65.044,-16.6332,202.2521],[-65.0442,-16.6303,200.4832],[-65.0491,-16.6258,196.0851],[-65.06,-16.6289,202.8884],[-65.0638,-16.6277,191.5213],[-65.0636,-16.6243,190.8174],[-65.061,-16.6207,189.5101],[-65.0577,-16.6192,197.2827],[-65.0468,-16.6235,191.0105],[-65.0413,-16.622,191.642],[-65.039,-16.6177,196.9593],[-65.0404,-16.6026,197.2888],[-65.0394,-16.5996,191.1487],[-65.0312,-16.6003,195.5769],[-65.0213,-16.6077,189.6931],[-65.018,-16.606,186.5],[-65.0209,-16.5989,196.2845],[-65.0267,-16.5978,196.8046],[-65.0295,-16.5949,192.3207],[-65.0269,-16.5875,195.068],[-65.0305,-16.5812,187.9133],[-65.0294,-16.5794,196.3506],[-65.028,-16.579,196.3506],[-65.022,-16.5841,193.5904],[-65.0214,-16.5906,188.6744],[-65.0179,-16.5936,190.5493],[-65.0135,-16.5922,202.5068],[-65.0082,-16.586,192.6463],[-65.0022,-16.5878,193.6574],[-64.9978,-16.5872,192.0085],[-64.9967,-16.5841,189.7071],[-64.9985,-16.5812,192.1684],[-65.0114,-16.5774,192.7442],[-65.0125,-16.5738,195.2017],[-65.0026,-16.5681,207.321],[-64.9944,-16.5668,188.4768],[-64.9926,-16.5618,210.3195],[-64.9933,-16.5529,203.2194],[-64.981,-16.5589,186.0],[-64.9824,-16.5451,207.9972],[-64.9775,-16.5369,187.5777],[-64.9775,-16.531,189.6812],[-64.9759,-16.5287,202.1638],[-64.9719,-16.5281,206.7233],[-64.9642,-16.532,206.8126],[-64.9606,-16.5437,200.8971],[-64.9567,-16.5471,198.2982],[-64.9517,-16.547,199.453],[-64.9475,-16.5423,210.2536],[-64.9471,-16.5359,208.6501],[-64.9565,-16.532,195.5578],[-64.9575,-16.524,215.4724],[-64.9595,-16.521,198.6886],[-64.964,-16.5197,200.9297],[-64.9714,-16.5251,193.3372],[-64.9733,-16.5233,199.1579],[-64.968,-16.5183,206.7207],[-64.9633,-16.5098,202.2527],[-64.9574,-16.5104,191.2697],[-64.9528,-16.5144,195.3824],[-64.9485,-16.5135,188.2603],[-64.9462,-16.5089,193.1598],[-64.9461,-16.4994,184.5],[-64.9339,-16.4749,186.8625],[-64.9214,-16.4637,188.2377],[-64.9212,-16.4598,190.3193],[-64.9251,-16.4555,191.0995],[-64.9293,-16.4548,197.9145],[-64.936,-16.4569,185.8299],[-64.9396,-16.4543,192.2982],[-64.9419,-16.4467,194.3533],[-64.9423,-16.4369,191.9171],[-64.9508,-16.4313,186.9413],[-64.9457,-16.4243,200.2793],[-64.9365,-16.4261,192.7594],[-64.9342,-16.4251,189.2284],[-64.9358,-16.4182,188.4901],[-64.9428,-16.416,186.5692],[-64.9452,-16.4121,194.1429],[-64.9444,-16.4089,184.6206],[-64.9391,-16.4045,182.6379],[-64.9392,-16.3996,185.2851],[-64.9413,-16.3971,189.8921],[-64.9449,-16.3962,193.2687],[-64.9488,-16.3985,198.4032],[-64.9511,-16.4044,184.6113],[-64.9534,-16.4044,195.7878],[-64.9543,-16.4024,181.0],[-64.9536,-16.3991,189.8704],[-64.9466,-16.3923,182.9252],[-64.9438,-16.3834,181.858],[-64.9396,-16.3826,191.4615],[-64.9323,-16.3872,189.2257],[-64.9299,-16.3854,192.3612],[-64.9332,-16.3808,189.7189],[-64.9371,-16.3798,190.9978],[-64.9548,-16.3794,190.3892],[-64.959,-16.3806,184.9496],[-64.9628,-16.3841,183.4996],[-64.9652,-16.3834,191.9087],[-64.9678,-16.3795,199.2734],[-64.9676,-16.377,199.128],[-64.957,-16.3698,187.8604],[-64.953,-16.3557,183.3224],[-64.9546,-16.3541,185.763],[-64.9602,-16.355,179.0],[-64.9657,-16.3616,195.8803],[-64.9684,-16.3614,184.9467],[-64.9683,-16.3574,196.3945],[-64.9615,-16.354,196.7851],[-64.961,-16.3514,197.2194],[-64.9688,-16.3406,182.9505],[-64.9748,-16.3377,195.9023],[-64.9753,-16.3342,192.1792],[-64.9722,-16.3324,186.259],[-64.9607,-16.3346,183.3513],[-64.9545,-16.3316,182.8953],[-64.9544,-16.3297,187.4433],[-64.9599,-16.3232,190.4957],[-64.9612,-16.3157,178.0],[-64.9568,-16.3025,184.1514],[-64.9503,-16.3041,195.572],[-64.9415,-16.297,190.9079],[-64.941,-16.2928,191.7233],[-64.9453,-16.2866,181.6707],[-64.9456,-16.2832,180.4107],[-64.9437,-16.2818,185.4951],[-64.9394,-16.2824,183.1693],[-64.9327,-16.2884,186.7065],[-64.9289,-16.2892,184.2745],[-64.9264,-16.2867,180.3166],[-64.9262,-16.28,182.8059],[-64.9207,-16.2758,182.84],[-64.9195,-16.2718,183.424],[-64.9204,-16.2649,184.8804],[-64.9227,-16.2618,191.2384],[-64.9289,-16.2585,180.7632],[-64.9301,-16.2552,187.5186],[-64.9284,-16.2521,182.0753],[-64.9221,-16.2496,194.2373],[-64.9204,-16.2469,187.6438],[-64.9182,-16.2355,184.5568],[-64.9196,-16.2263,176.925],[-64.9183,-16.2227,178.0722],[-64.912,-16.2223,180.403],[-64.9034,-16.2267,181.6575],[-64.8997,-16.2369,176.8578],[-64.8939,-16.2366,181.4595],[-64.8862,-16.2391,179.8179],[-64.8819,-16.2361,190.853],[-64.8822,-16.2318,190.0375],[-64.8844,-16.2292,179.0605],[-64.9,-16.222,179.4464],[-64.8983,-16.2053,183.3243],[-64.8932,-16.1817,172.5],[-64.8945,-16.1769,176.064],[-64.8968,-16.1748,190.8034],[-64.907,-16.1724,175.5277],[-64.9056,-16.1674,179.5054],[-64.9023,-16.1649,179.4279],[-64.89,-16.1617,175.4794],[-64.8886,-16.164,185.8045],[-64.8922,-16.1691,174.4555],[-64.8924,-16.1719,184.2578],[-64.887,-16.1788,173.5097],[-64.8814,-16.1821,179.7903],[-64.8712,-16.1818,181.3117],[-64.8781,-16.1691,175.6412],[-64.8767,-16.1649,183.2629],[-64.8719,-16.1634,176.8529],[-64.8575,-16.1696,183.0661],[-64.8526,-16.1684,179.4729],[-64.8535,-16.1592,175.1582],[-64.861,-16.1506,184.6849],[-64.8629,-16.1462,179.4944],[-64.8607,-16.1379,177.8391],[-64.8544,-16.1356,173.9664],[-64.8494,-16.1409,173.1468],[-64.8443,-16.1412,171.7206],[-64.8437,-16.1361,182.3907],[-64.8461,-16.1302,172.6502],[-64.835,-16.1288,175.9483],[-64.8314,-16.1268,170.8324],[-64.8308,-16.1134,169.3246],[-64.8264,-16.1148,175.492],[-64.8197,-16.1131,170.5166],[-64.8161,-16.1097,173.9702],[-64.8148,-16.1038,173.0718],[-64.812,-16.1013,178.9597],[-64.8087,-16.102,170.6746],[-64.8056,-16.1071,171.9599],[-64.807,-16.1111,173.6162],[-64.8116,-16.1156,172.5427],[-64.808,-16.1201,177.5871],[-64.8052,-16.1193,174.8804],[-64.8022,-16.0976,172.7701],[-64.7947,-16.0956,169.6919],[-64.7917,-16.09,170.3826],[-64.7883,-16.0875,171.6732],[-64.7825,-16.0893,174.6759],[-64.7773,-16.088,178.9222],[-64.7748,-16.077,171.8424],[-64.7699,-16.0757,174.2395],[-64.775,-16.0618,179.4405],[-64.7757,-16.0562,169.037],[-64.7844,-16.0438,172.105],[-64.7832,-16.0373,179.2585],[-64.7753,-16.0329,178.4224],[-64.7751,-16.0307,178.2598],[-64.7844,-16.0287,173.4939],[-64.7928,-16.0234,180.2191],[-64.7993,-16.0251,179.8073],[-64.8015,-16.0243,176.7083],[-64.7934,-16.016,175.6286],[-64.7894,-16.0093,169.9099],[-64.7871,-16.0084,171.5165],[-64.7816,-16.009,168.8965],[-64.7774,-16.0171,168.1564],[-64.7748,-16.0175,170.5438],[-64.7748,-16.0063,179.3811],[-64.7844,-15.9999,171.9574],[-64.7876,-15.9897,175.7906],[-64.7873,-15.9859,169.5707],[-64.7836,-15.9809,175.1765],[-64.7838,-15.97,169.6754],[-64.7806,-15.9698,172.611],[-64.7802,-15.975,169.5712],[-64.7771,-15.9767,169.0153],[-64.767,-15.9703,168.8944],[-64.7668,-15.9681,168.5791],[-64.7721,-15.9631,167.9386],[-64.7727,-15.9597,168.5595],[-64.7696,-15.9574,171.3734],[-64.7641,-15.9618,167.5317],[-64.7617,-15.9616,165.8571],[-64.7636,-15.9571,170.3227],[-64.7633,-15.9513,172.5284],[-64.7546,-15.9409,164.0],[-64.7508,-15.9259,163.75],[-64.7456,-15.9221,167.5822],[-64.7349,-15.9226,163.5],[-64.7304,-15.9202,163.5],[-64.7304,-15.9113,169.2991],[-64.7354,-15.9054,163.375],[-64.7466,-15.8971,163.0],[-64.7469,-15.893,169.8354],[-64.7442,-15.8907,169.2562],[-64.74,-15.8922,170.3041],[-64.7292,-15.9031,163.0],[-64.7252,-15.9019,163.0],[-64.7235,-15.8945,164.8578],[-64.7303,-15.8792,164.0255],[-64.7364,-15.8747,165.7566],[-64.749,-15.8709,163.0],[-64.7513,-15.8639,167.1141],[-64.745,-15.8521,163.0],[-64.7432,-15.838,163.0],[-64.7332,-15.8257,164.8454],[-64.7304,-15.8199,162.8537],[-64.729,-15.8139,163.915],[-64.7297,-15.802,165.4082],[-64.9583,-15.801,164.8983],[-65.0027,-15.8215,164.8677],[-65.0216,-15.8371,165.3315],[-65.0412,-15.858,166.307],[-65.0717,-15.9057,168.4511],[-65.0807,-15.931,169.0041],[-65.0889,-16.0058,171.2612],[-65.1162,-16.188,177.3204],[-65.1398,-16.2366,178.502],[-65.2399,-16.3688,189.3216],[-65.3534,-16.4006,197.1851]]]]}
,"properties": {"GID_3": "BOL.2.9.3_2","GID_0": "BOL","country": "Bolivia","GID_1": "BOL.2_1","province": "Cochabamba","NL_NAME_1": "NA","GID_2": "BOL.2.9_2","county": "Chapare","NL_NAME_2": "NA","city": "VillaTunari","VARNAME_3": "NA","NL_NAME_3": "NA","TYPE_3": "District","ENGTYPE_3": "Distrito","CC_3": "NA","HASC_3": "NA","name": "Villa_Tunari.city","area_km2": 11215.295,"hist_schema_id": "Elevation0-9000","hist_area_km2": {"150": 5.324,"175": 2090.412,"200": 1666.099,"225": 1349.896,"250": 327.948,"275": 139.605,"300": 130.029,"325": 122.099,"350": 98.486,"375": 88.759,"400": 75.162,"425": 65.098,"450": 58.422,"475": 56.496,"500": 53.353,"525": 51.954,"550": 53.111,"575": 52.889,"600": 52.65,"625": 50.701,"650": 49.383,"675": 49.972,"700": 54.765,"725": 54.524,"750": 55.581,"775": 54.117,"800": 55.075,"825": 52.594,"850": 53.549,"875": 53.892,"900": 53.344,"925": 52.956,"950": 50.888,"975": 53.263,"1000": 54.299,"1025": 55.903,"1050": 54.684,"1075": 55.475,"1100": 56.836,"1125": 57.345,"1150": 58.537,"1175": 60.246,"1200": 57.686,"1225": 56.403,"1250": 54.777,"1275": 58.391,"1300": 55.282,"1325": 56.434,"1350": 59.543,"1375": 56.17,"1400": 57.467,"1425": 55.579,"1450": 58.378,"1475": 55.902,"1500": 56.691,"1525": 57.058,"1550": 56.508,"1575": 54.944,"1600": 55.535,"1625": 54.133,"1650": 53.971,"1675": 52.632,"1700": 51.737,"1725": 49.361,"1750": 50.169,"1775": 47.836,"1800": 46.937,"1825": 44.176,"1850": 43.503,"1875": 42.505,"1900": 41.389,"1925": 40.393,"1950": 39.133,"1975": 38.767,"2000": 38.055,"2025": 39.008,"2050": 36.959,"2075": 36.979,"2100": 37.101,"2125": 36.006,"2150": 34.606,"2175": 35.518,"2200": 34.868,"2225": 35.415,"2250": 34.401,"2275": 33.671,"2300": 34.196,"2325": 32.657,"2350": 35.596,"2375": 34.622,"2400": 33.771,"2425": 32.816,"2450": 33.14,"2475": 31.78,"2500": 31.679,"2525": 30.624,"2550": 28.656,"2575": 30.46,"2600": 29.567,"2625": 28.025,"2650": 27.356,"2675": 25.795,"2700": 24.861,"2725": 24.03,"2750": 24.961,"2775": 23.502,"2800": 21.899,"2825": 21.189,"2850": 20.458,"2875": 17.782,"2900": 17.963,"2925": 16.888,"2950": 17.01,"2975": 14.515,"3000": 15.022,"3025": 15.224,"3050": 14.373,"3075": 13.623,"3100": 13.541,"3125": 13.318,"3150": 11.939,"3175": 12.243,"3200": 12.182,"3225": 11.21,"3250": 11.027,"3275": 10.925,"3300": 10.581,"3325": 9.952,"3350": 10.357,"3375": 11.25,"3400": 9.77,"3425": 10.074,"3450": 9.06,"3475": 9.506,"3500": 8.249,"3525": 9.607,"3550": 9.789,"3575": 11.514,"3600": 13.602,"3625": 13.073,"3650": 12.182,"3675": 12.647,"3700": 10.701,"3725": 10.316,"3750": 9.383,"3775": 7.924,"3800": 7.903,"3825": 7.903,"3850": 5.937,"3875": 6.363,"3900": 5.451,"3925": 4.843,"3950": 5.066,"3975": 5.755,"4000": 6.242,"4025": 6.323,"4050": 6.526,"4075": 6.83,"4100": 7.155,"4125": 8.533,"4150": 7.418,"4175": 7.824,"4200": 7.621,"4225": 8.858,"4250": 9.892,"4275": 11.879,"4300": 12.669,"4325": 11.595,"4350": 11.717,"4375": 9.649,"4400": 8.595,"4425": 6.73,"4450": 5.169,"4475": 4.5,"4500": 3.446,"4525": 2.29,"4550": 1.784,"4575": 1.844,"4600": 1.277,"4625": 0.831,"4650": 0.466,"4675": 0.345,"4700": 0.223}}}