{"type":"Feature","properties":{"GID_3":"BOL.4.20.6_2","GID_0":"BOL","country":"Bolivia","GID_1":"BOL.4_1","province":"LaPaz","NL_NAME_1":"NA","GID_2":"BOL.4.20_2","county":"Pacajes","NL_NAME_2":"NA","city":"NazacaradePacajes","VARNAME_3":"NA","NL_NAME_3":"NA","TYPE_3":"District","ENGTYPE_3":"Distrito","CC_3":"NA","HASC_3":"NA","name":"Nazacarade_Pacajes.city"},
"geometry":{"type": "MultiPolygon","coordinates": [[[[-68.7896,-16.916,3809.1799],[-68.7847,-16.9302,3808.1777],[-68.7776,-16.9334,3808.0],[-68.7695,-16.9332,3811.4431],[-68.7621,-16.9426,3822.2239],[-68.7514,-16.9408,3822.4712],[-68.7499,-16.9436,3824.9373],[-68.7477,-16.9426,3828.8203],[-68.7466,-16.9457,3827.5317],[-68.7399,-16.9475,3833.3818],[-68.722,-16.9429,3844.0845],[-68.7364,-16.9277,3838.5356],[-68.7397,-16.9195,3824.0239],[-68.7485,-16.9105,3815.5105],[-68.7519,-16.9101,3815.7415],[-68.7519,-16.9085,3815.0737],[-68.7642,-16.9091,3812.9832],[-68.7721,-16.9064,3811.4524],[-68.7764,-16.907,3811.0435],[-68.7803,-16.9088,3810.2175],[-68.7806,-16.9112,3809.5061],[-68.7835,-16.9113,3809.686],[-68.7896,-16.916,3809.1799]]]]}}