{"type":"Feature","properties":{"featurecla":"River","scalerank":7,"rivernum":584,"dissolve":"584River","name":"null89","name_alt":null,"note":null,"min_zoom":6.0,"strokeweig":0.25,"name_en":null,"min_label":7.0},
"geometry":{"type": "LineString","coordinates": [[-68.561572265624989,-17.41326262813088,3786.6033],[-68.56416015625,-17.40374114375588,3786.9729],[-68.582080078124989,-17.36882903438088,3787.5],[-68.614013671875,-17.32903411250588,3793.054],[-68.62548828125,-17.305498956255889,3844.7534],[-68.612646484374991,-17.26262786250588,3801.5369],[-68.621630859374989,-17.245635675005886,3831.7659],[-68.637255859374989,-17.23284270625588,3798.5825],[-68.680346679687489,-17.20818450313088,3814.76],[-68.691357421875,-17.203643487505886,3809.1243],[-68.733691406249989,-17.191729425005889,3803.8845],[-68.745947265624991,-17.183916925005889,3803.9785],[-68.75927734375,-17.161944268755889,3833.1133],[-68.769384765624991,-17.134600518755889,3842.9038],[-68.784228515624989,-17.11126067500588,3810.0474],[-68.811767578125,-17.10125090938088,3805.0974],[-68.827001953124991,-17.09295012813088,3807.1855],[-68.841259765625,-17.072588800005889,3805.6184],[-68.8517578125,-17.04680755000588,3806.2344],[-68.855810546874991,-17.022491143755886,3808.1499],[-68.852392578124991,-17.01140715938088,3819.9297],[-68.844091796874991,-17.00139739375588,3816.3071],[-68.833911132812489,-16.994170831255886,3810.3062],[-68.808642578124989,-16.987139581255889,3823.5918],[-68.796337890625,-16.97698333125588,3811.2473],[-68.785327148437489,-16.965655206255889,3809.0835],[-68.773242187499989,-16.957354425005889,3808.9404],[-68.783056640624991,-16.94085051875588,3816.3672],[-68.821630859374991,-16.902666925005889,3808.5],[-68.8408203125,-16.86541106563088,3849.7539],[-68.849609375,-16.855498956255886,3822.4705],[-68.861010742187489,-16.848663018755886,3830.1812],[-68.937744140625,-16.81389739375588,3810.1089],[-68.965136718749989,-16.80535247188088,3813.3137],[-68.972509765624991,-16.80022551875588,3815.748],[-68.981542968749991,-16.78386809688088,3815.0259],[-68.978857421874991,-16.77019622188088,3813.2793],[-68.971240234374989,-16.756182550005889,3811.5154],[-68.965673828124991,-16.73821380000588,3811.1265],[-68.967871093749991,-16.72600676875588,3810.4949],[-68.986132812499989,-16.69036223750588,3811.3572],[-68.994189453124989,-16.658038018755889,3811.5813],[-69.000097656249991,-16.646319268755889,3811.7429],[-69.035888671875,-16.597979425005889,3808.5],[-69.040869140624991,-16.581377862505889,3812.8499],[-69.038427734374991,-16.550127862505889,3808.5]]}}