{"type":"Feature","properties":{"featurecla":"River","scalerank":7,"rivernum":584,"dissolve":"584River","name":"null88","name_alt":null,"note":null,"min_zoom":6.0,"strokeweig":0.2,"name_en":null,"min_label":7.0},
"geometry":{"type": "LineString","coordinates": [[-67.225268554687489,-18.12908294063088,3701.738],[-67.2625,-18.108233331255889,3701.5889],[-67.295507812499991,-18.076983331255889,3702.6667],[-67.322509765625,-18.04094817500588,3704.54],[-67.34130859375,-18.005694268755889,3705.9885],[-67.362109374999989,-17.949248956255886,3707.481],[-67.375244140625,-17.923858331255886,3708.4897],[-67.428808593749991,-17.86882903438088,3709.9546],[-67.4404296875,-17.85051848750588,3711.7205],[-67.488525390625,-17.705596612505886,3717.1433],[-67.494140625,-17.69622161250588,3716.7349],[-67.498291015625,-17.69329192500588,3716.9949],[-67.508056640625,-17.68962981563088,3717.6768],[-67.511962890625,-17.68596770625588,3716.0],[-67.513769531249991,-17.68035247188088,3717.6426],[-67.5126953125,-17.66863372188088,3719.3613],[-67.51328125,-17.66301848750588,3719.2988],[-67.525,-17.628448175005886,3721.1448],[-67.526904296874989,-17.62517669063088,3721.3562],[-67.530615234374991,-17.60686614375588,3721.8281],[-67.540820312499989,-17.597686456255886,3722.574],[-67.57470703125,-17.587920831255886,3723.9995],[-67.589111328125,-17.58171965938088,3724.6118],[-67.622485351562489,-17.560577081255886,3726.5681],[-67.664404296874991,-17.552080987505889,3728.9922],[-67.677734375,-17.54631926875588,3729.4595],[-67.713623046875,-17.56121184688088,3731.2512],[-67.772216796875,-17.560381768755889,3734.02],[-67.875732421875,-17.54631926875588,3740.332],[-67.949145507812489,-17.52727630000588,3743.7271],[-67.979833984374991,-17.51165130000588,3752.6479],[-67.992431640625,-17.488604425005889,3747.8062],[-68.002050781249991,-17.474639581255886,3748.4844],[-68.024023437499991,-17.47112395625588,3750.3652],[-68.048266601562489,-17.47429778438088,3752.2668],[-68.064453125,-17.481475518755886,3752.8374],[-68.085205078125,-17.48796965938088,3753.2583],[-68.109130859375,-17.48040130000588,3755.4875],[-68.15009765625,-17.45696380000588,3758.8013],[-68.204345703125,-17.488116143755889,3761.1826],[-68.222412109375,-17.49236419063088,3818.2061],[-68.393725585937489,-17.478057550005886,3776.8728],[-68.415380859374991,-17.481280206255889,3780.8125],[-68.455175781249991,-17.49309661250588,3777.3474],[-68.479052734374989,-17.49236419063088,3781.9944],[-68.495898437499989,-17.487139581255889,3782.4697],[-68.539843749999989,-17.466143487505889,3782.9688],[-68.557861328125,-17.45378997188088,3797.5386],[-68.561816406249989,-17.44622161250588,3817.5854],[-68.562744140625,-17.434893487505889,3809.5564],[-68.561572265624989,-17.41326262813088,3786.6033]]}}