{"type":"Feature","properties":{"featurecla":"River","scalerank":6,"rivernum":291,"dissolve":"291River","name":"Madre2","name_alt":null,"note":null,"min_zoom":5.0,"strokeweig":0.25,"name_en":"Madre de Dios","min_label":6.0},
"geometry":{"type": "LineString","coordinates": [[-68.678271484374989,-12.495147393755886,172.0077],[-68.678271484374989,-12.495147393755886,172.0077],[-68.678271484374989,-12.495147393755886,172.0077],[-68.678271484374989,-12.495147393755886,172.0077],[-68.678271484374989,-12.495147393755886,172.0077],[-68.645678710937489,-12.49675872188088,160.0],[-68.636083984374991,-12.495147393755886,160.0],[-68.629809570312489,-12.49089934688088,182.5059],[-68.617846679687489,-12.47795989375588,187.1948],[-68.613134765624991,-12.47527434688088,180.6967],[-68.593554687499989,-12.42107512813088,173.4269],[-68.582080078124989,-12.407061456255889,179.2173],[-68.558349609375,-12.402373956255886,160.0],[-68.541186523437489,-12.41033294063088,185.9688],[-68.526464843749991,-12.421709893755889,182.1166],[-68.510058593749989,-12.427569268755889,197.6123],[-68.489428710937489,-12.42473723750588,190.0018],[-68.476977539062489,-12.416827081255889,186.0207],[-68.458544921874989,-12.38713958125588,182.157],[-68.412109375,-12.272979425005886,157.0],[-68.390307617187489,-12.24260833125588,164.1621],[-68.271899414062489,-12.181475518755889,177.9103],[-68.246337890625,-12.15374114375588,177.482],[-68.238427734375,-12.120440362505889,179.5939],[-68.231127929687489,-12.04778411250588,156.5],[-68.215258789062489,-12.020049737505886,181.9946],[-68.184619140624989,-12.005694268755889,166.4608],[-68.109375,-11.995635675005886,177.7809],[-68.082446289062489,-11.982452081255886,178.3302],[-68.06201171875,-11.983721612505889,176.6206],[-68.036914062499989,-11.979034112505886,175.4765],[-68.012939453125,-11.97014739375588,156.5],[-67.995849609375,-11.958330987505889,156.5],[-67.981372070312489,-11.936358331255889,155.5],[-67.97314453125,-11.910186456255886,155.8409],[-67.975390624999989,-11.88665130000588,190.3286],[-67.992431640625,-11.872588800005886,154.5475],[-67.988574218749989,-11.86345794063088,161.9633],[-67.982836914062489,-11.856963800005886,176.4367],[-67.97509765625,-11.853057550005886,167.6253],[-67.965136718749989,-11.852080987505886,167.25],[-67.977978515625,-11.82000090938088,167.898],[-67.985595703125,-11.81121184688088,171.7697],[-67.974414062499989,-11.79558684688088,159.1002],[-67.938574218749991,-11.77556731563088,167.5311],[-67.931005859374991,-11.76677825313088,171.615],[-67.929296874999991,-11.744170831255886,164.2439],[-67.92431640625,-11.72576262813088,165.7308],[-67.915820312499989,-11.711455987505886,153.5823],[-67.903662109374991,-11.70134856563088,150.5],[-67.8818359375,-11.692217706255889,166.4236],[-67.862060546875,-11.69060637813088,166.569],[-67.818041992187489,-11.69451262813088,169.5181],[-67.79541015625,-11.690459893755886,157.9303],[-67.775976562499991,-11.67962005000588,162.6401],[-67.759619140624991,-11.66423919063088,165.6818],[-67.727392578124991,-11.61907317500588,168.5106],[-67.71435546875,-11.60491301875588,167.2168],[-67.700976562499989,-11.598955987505889,168.4948],[-67.702978515624991,-11.587920831255886,163.6486],[-67.69580078125,-11.53753020625588,167.686],[-67.69140625,-11.52312590938088,165.8735],[-67.668261718749989,-11.50090911250588,163.1635],[-67.63427734375,-11.48113372188088,153.2523],[-67.596289062499991,-11.47014739375588,143.5],[-67.56103515625,-11.47478606563088,167.244],[-67.542773437499989,-11.486846612505886,168.2153],[-67.527197265624991,-11.500518487505886,160.5735],[-67.508837890624989,-11.51165130000588,156.1457],[-67.482226562499989,-11.51628997188088,155.7022],[-67.4619140625,-11.52385833125588,144.2653],[-67.437548828124989,-11.559405206255889,153.6927],[-67.417041015624989,-11.57097747188088,156.7581],[-67.393798828125,-11.569170831255889,149.0089],[-67.370458984374991,-11.55779387813088,160.1948],[-67.331396484374991,-11.52654387813088,139.5],[-67.313281249999989,-11.515655206255886,162.3697],[-67.274169921875,-11.504229425005889,153.8831],[-67.259375,-11.495147393755886,149.1647],[-67.242529296874991,-11.46355559688088,159.9925],[-67.230078124999991,-11.42327239375588,159.3228],[-67.211767578124991,-11.386260675005886,155.4958],[-67.177490234375,-11.36492278438088,138.0],[-67.134570312499989,-11.36272551875588,143.4394],[-67.048876953124989,-11.372100518755886,138.9871],[-67.006152343749989,-11.36492278438088,144.2319],[-66.996337890625,-11.360674737505889,140.1142],[-66.988134765624991,-11.355791925005889,152.3175],[-66.981494140624989,-11.350420831255889,170.5352],[-66.976245117187489,-11.344268487505886,164.2229]]}}