{"type":"Feature","properties":{"GID_3":"BOL.1.5.2_2","GID_0":"BOL","country":"Bolivia","GID_1":"BOL.1_1","province":"Chuquisaca","NL_NAME_1":"NA","GID_2":"BOL.1.5_2","county":"NorCinti","NL_NAME_2":"NA","city":"Incahuasi","VARNAME_3":"NA","NL_NAME_3":"NA","TYPE_3":"District","ENGTYPE_3":"Distrito","CC_3":"NA","HASC_3":"NA","name":"Incahuasi.city"},
"geometry":{"type": "MultiPolygon","coordinates": [[[[-64.5459,-20.433,1202.1895],[-64.5577,-20.4366,1143.927],[-64.5679,-20.444,1158.183],[-64.5724,-20.4511,1170.4712],[-64.5786,-20.4535,1179.0159],[-64.5833,-20.4576,1189.5209],[-64.597,-20.4583,1223.1841],[-64.6143,-20.4705,1232.772],[-64.6205,-20.4822,1252.9502],[-64.6251,-20.4867,1264.0767],[-64.6306,-20.4889,1269.4288],[-64.6333,-20.5072,1315.5514],[-64.6394,-20.5119,1351.6455],[-64.6419,-20.5172,1317.0906],[-64.6411,-20.5207,1331.4077],[-64.6457,-20.5235,1329.314],[-64.6508,-20.5314,1368.2664],[-64.6544,-20.5449,1385.0685],[-64.6759,-20.5681,1476.9592],[-64.6866,-20.5764,1531.3204],[-64.7051,-20.578,1594.7019],[-64.7081,-20.5824,1639.6948],[-64.7171,-20.5815,1684.5679],[-64.7276,-20.5828,1709.3439],[-64.7528,-20.5913,1860.9227],[-64.7585,-20.6043,1983.7749],[-64.7592,-20.6126,1985.9518],[-64.7768,-20.6332,2198.0579],[-64.7944,-20.643,2356.8501],[-64.8043,-20.6609,2602.2837],[-64.8015,-20.6831,3146.9426],[-64.8049,-20.6883,3201.8472],[-64.8179,-20.6784,3239.5659],[-64.8332,-20.6819,3063.312],[-64.8449,-20.6907,3029.8589],[-64.8749,-20.7053,2961.6418],[-64.8812,-20.7355,2938.3491],[-64.8902,-20.7407,2933.614],[-64.8892,-20.7474,2931.2502],[-64.9018,-20.7383,2941.1545],[-64.9182,-20.7459,2971.2737],[-64.9255,-20.7466,3158.5247],[-64.9323,-20.762,3280.4128],[-64.9326,-20.766,3304.3635],[-64.9257,-20.7735,3345.7988],[-64.912,-20.7761,3105.282],[-64.902,-20.7814,3151.3667],[-64.8994,-20.7843,3176.717],[-64.889,-20.7879,3291.4087],[-64.8773,-20.7894,3002.7141],[-64.8597,-20.7963,3075.0894],[-64.8493,-20.7953,3320.9307],[-64.8451,-20.7941,3320.8818],[-64.8394,-20.7865,3249.6272],[-64.8347,-20.7759,3083.0513],[-64.8318,-20.7743,3086.7075],[-64.8294,-20.7684,3151.3596],[-64.8221,-20.7639,3196.3994],[-64.8206,-20.7611,3216.2319],[-64.8221,-20.753,3206.5571],[-64.8169,-20.7423,3211.6445],[-64.8054,-20.7379,3333.9929],[-64.7964,-20.7374,3509.5166],[-64.7937,-20.7329,3485.4385],[-64.7861,-20.7299,3487.5303],[-64.7824,-20.7248,3546.9023],[-64.7835,-20.7172,3643.4417],[-64.7863,-20.7141,3665.3235],[-64.7859,-20.7076,3683.0339],[-64.7724,-20.7066,3350.2461],[-64.7671,-20.7109,3300.2856],[-64.7621,-20.7122,3352.9468],[-64.7602,-20.7107,3330.4365],[-64.7589,-20.7042,3151.8938],[-64.7556,-20.7031,3106.3735],[-64.7486,-20.7051,2925.5],[-64.745,-20.7083,2868.7222],[-64.7401,-20.708,2813.9805],[-64.729,-20.715,2566.2659],[-64.7227,-20.7084,2946.5693],[-64.7194,-20.7081,3027.2358],[-64.7184,-20.6992,3069.8828],[-64.7114,-20.6992,2785.8809],[-64.6971,-20.7019,3232.5374],[-64.6966,-20.7095,3253.0569],[-64.6886,-20.717,3104.6421],[-64.6746,-20.717,2874.9351],[-64.6714,-20.7206,2895.9341],[-64.6629,-20.7177,2494.6104],[-64.6546,-20.7193,2284.1758],[-64.6496,-20.7183,2370.2544],[-64.6381,-20.722,2728.2214],[-64.6258,-20.7199,3260.7202],[-64.6244,-20.7152,3352.791],[-64.6179,-20.7137,3396.2839],[-64.6156,-20.709,3394.2234],[-64.6139,-20.6979,3398.3777],[-64.6074,-20.6867,3530.6226],[-64.6006,-20.6858,3418.6948],[-64.5955,-20.6819,3505.1831],[-64.5908,-20.6826,3419.4758],[-64.5889,-20.6863,3290.3335],[-64.5759,-20.6902,3266.3245],[-64.568,-20.6804,3253.2561],[-64.546,-20.669,3042.6128],[-64.5335,-20.6586,3068.9441],[-64.5251,-20.6475,3189.5513],[-64.5045,-20.6442,3349.8652],[-64.4889,-20.6357,2454.3455],[-64.4809,-20.6356,2219.7993],[-64.4805,-20.6328,2253.1174],[-64.4781,-20.6316,2105.2625],[-64.4745,-20.6247,2030.4253],[-64.4703,-20.6244,2019.7146],[-64.4638,-20.6179,1949.1101],[-64.4575,-20.6173,1762.6705],[-64.455,-20.6114,1744.5382],[-64.4513,-20.6132,1842.2222],[-64.4463,-20.6127,2033.6426],[-64.443,-20.62,2050.1819],[-64.4413,-20.6194,2219.646],[-64.4402,-20.6211,2162.0562],[-64.437,-20.6216,2182.217],[-64.4298,-20.6189,2370.9109],[-64.4259,-20.6208,2484.7263],[-64.4165,-20.6134,2521.0181],[-64.3916,-20.6153,2032.9729],[-64.3889,-20.6122,1954.6757],[-64.3739,-20.6133,1770.6052],[-64.3748,-20.6058,1736.8933],[-64.3732,-20.6013,1716.3694],[-64.3626,-20.601,1665.2522],[-64.3617,-20.5974,1792.1379],[-64.3549,-20.5943,1747.7556],[-64.3504,-20.5953,1511.2616],[-64.3483,-20.5922,1505.7338],[-64.3449,-20.5921,1476.8115],[-64.3406,-20.5888,1484.7633],[-64.3374,-20.5889,1456.7684],[-64.3353,-20.5912,1415.405],[-64.3305,-20.5838,1424.6384],[-64.3241,-20.585,1387.671],[-64.3232,-20.5899,1365.2753],[-64.3176,-20.5924,1426.071],[-64.3163,-20.5948,1278.8514],[-64.3109,-20.5921,1262.6604],[-64.3095,-20.5864,1285.3933],[-64.313,-20.5858,1223.6667],[-64.3148,-20.5808,1204.2076],[-64.3125,-20.5789,1193.1283],[-64.3128,-20.5748,1197.7401],[-64.3166,-20.5713,1183.6793],[-64.3122,-20.5699,1165.203],[-64.3127,-20.5671,1205.719],[-64.3093,-20.5669,1224.4905],[-64.3098,-20.5651,1183.3475],[-64.307,-20.562,1126.4989],[-64.3088,-20.5592,1122.0039],[-64.3058,-20.5587,1131.5259],[-64.3091,-20.5559,1095.2684],[-64.3057,-20.5542,1086.9033],[-64.3044,-20.5504,1105.8396],[-64.3062,-20.5493,1080.6808],[-64.3028,-20.547,1077.6534],[-64.304,-20.5446,1063.3325],[-64.3007,-20.5448,1136.7286],[-64.3021,-20.5422,1039.4869],[-64.3044,-20.5415,1039.4951],[-64.2975,-20.5377,1025.4858],[-64.2977,-20.5353,1041.9319],[-64.2993,-20.5366,1025.4858],[-64.3001,-20.5356,1000.6354],[-64.298,-20.5312,996.8265],[-64.2965,-20.5313,1022.8972],[-64.2967,-20.5289,1040.1324],[-64.2911,-20.5309,969.7389],[-64.2859,-20.5249,911.3071],[-64.2833,-20.5244,944.2788],[-64.2835,-20.5225,1026.5454],[-64.2744,-20.5181,910.3513],[-64.2716,-20.5127,872.2858],[-64.275,-20.4974,903.2621],[-64.2845,-20.4969,890.0781],[-64.2881,-20.4935,904.3457],[-64.2872,-20.4873,920.0587],[-64.2884,-20.4767,930.1406],[-64.2829,-20.4637,914.3267],[-64.2953,-20.4537,931.6571],[-64.3098,-20.4537,949.5684],[-64.3222,-20.4508,1039.6609],[-64.3307,-20.4526,1080.0947],[-64.3384,-20.4557,1031.76],[-64.3402,-20.458,971.1293],[-64.3482,-20.4582,948.5139],[-64.3514,-20.4568,976.8288],[-64.3704,-20.4638,949.4577],[-64.377,-20.4642,953.7203],[-64.3813,-20.4615,962.9864],[-64.3859,-20.4643,1092.9987],[-64.3869,-20.4692,994.489],[-64.3908,-20.4725,1030.6425],[-64.3905,-20.4749,995.1501],[-64.3975,-20.4779,1047.0947],[-64.3997,-20.4826,1008.7383],[-64.4042,-20.4845,1038.767],[-64.4128,-20.4851,1002.7325],[-64.4258,-20.4825,1006.053],[-64.4263,-20.4805,1023.5435],[-64.4327,-20.4757,1007.712],[-64.4331,-20.4735,1098.0135],[-64.4306,-20.4721,1039.593],[-64.4307,-20.4703,1082.3453],[-64.4331,-20.4688,1077.2043],[-64.4392,-20.469,1024.4956],[-64.4401,-20.4675,1012.8217],[-64.4405,-20.4641,1014.3286],[-64.4378,-20.4604,1032.0465],[-64.4386,-20.4578,1147.3604],[-64.4435,-20.4567,1050.9246],[-64.4512,-20.4586,1026.9771],[-64.4521,-20.4576,1037.0685],[-64.4495,-20.454,1065.2389],[-64.4498,-20.4519,1030.7345],[-64.4583,-20.4499,1079.3367],[-64.464,-20.4424,1084.1434],[-64.4674,-20.4418,1046.1396],[-64.4753,-20.4338,1111.0601],[-64.4784,-20.4487,1121.0317],[-64.477,-20.4518,1090.2241],[-64.4712,-20.4542,1062.5737],[-64.4711,-20.4562,1063.756],[-64.4727,-20.4582,1066.8774],[-64.4839,-20.4597,1084.9427],[-64.4886,-20.4631,1075.6302],[-64.4941,-20.4604,1080.2465],[-64.4964,-20.4522,1158.9292],[-64.5042,-20.4538,1160.4503],[-64.5075,-20.4585,1107.135],[-64.5104,-20.4558,1096.2653],[-64.511,-20.4486,1181.7913],[-64.513,-20.4468,1128.1086],[-64.5179,-20.4488,1134.5171],[-64.5235,-20.4481,1108.5283],[-64.5278,-20.4503,1111.6273],[-64.5303,-20.4494,1112.3839],[-64.532,-20.4445,1117.3021],[-64.5351,-20.4412,1143.0771],[-64.5445,-20.4388,1159.3218],[-64.5459,-20.433,1202.1895]]]]}}