{"type":"Feature","properties":{"GID_3":"BOL.8.1.3_2","GID_0":"BOL","country":"Bolivia","GID_1":"BOL.8_1","province":"SantaCruz","NL_NAME_1":"NA","GID_2":"BOL.8.1_2","county":"AndrésIbáñez","NL_NAME_2":"NA","city":"LaGuardia","VARNAME_3":"NA","NL_NAME_3":"NA","TYPE_3":"District","ENGTYPE_3":"Distrito","CC_3":"NA","HASC_3":"NA","name":"La_Guardia.city"},
"geometry":{"type": "MultiPolygon","coordinates": [[[[-63.491,-18.2655,972.4183],[-63.4869,-18.2675,962.0558],[-63.4668,-18.268,873.2146],[-63.4515,-18.2714,836.4188],[-63.446,-18.2672,816.8971],[-63.4362,-18.2646,811.4081],[-63.4314,-18.2616,801.3173],[-63.4255,-18.263,793.4702],[-63.4039,-18.2504,755.6711],[-63.4002,-18.2489,751.2841],[-63.3969,-18.2496,765.7404],[-63.3853,-18.2384,720.043],[-63.3794,-18.2358,709.12],[-63.3725,-18.2354,707.6754],[-63.3643,-18.2315,693.0302],[-63.3556,-18.2334,682.054],[-63.3477,-18.24,671.38],[-63.3324,-18.2409,655.3873],[-63.3242,-18.252,644.6495],[-63.3144,-18.2499,632.6089],[-63.3093,-18.251,625.4478],[-63.2992,-18.2467,611.7149],[-63.2903,-18.2333,596.9561],[-63.2848,-18.2291,591.6376],[-63.2788,-18.2353,590.3676],[-63.2735,-18.2377,584.1012],[-63.2678,-18.2385,584.2203],[-63.2644,-18.2373,581.2474],[-63.255,-18.2399,565.3823],[-63.2515,-18.2366,567.7191],[-63.2496,-18.237,563.9422],[-63.2418,-18.2422,555.8119],[-63.2393,-18.2463,552.1996],[-63.2346,-18.2464,552.3361],[-63.2332,-18.249,550.4347],[-63.2309,-18.2491,546.7839],[-63.2285,-18.2559,541.7899],[-63.2207,-18.2531,545.076],[-63.2095,-18.2539,537.2603],[-63.2052,-18.2606,531.7844],[-63.1915,-18.2563,516.1584],[-63.1903,-18.2512,516.2488],[-63.1916,-18.2459,509.7137],[-63.1904,-18.2255,506.0062],[-63.1919,-18.2173,503.7697],[-63.1921,-18.1731,496.6429],[-63.131,-18.1719,443.108],[-63.1337,-18.11,434.6615],[-63.1477,-18.1097,437.9651],[-63.1495,-18.072,434.8409],[-63.1731,-18.0719,459.236],[-63.1692,-18.0286,453.5703],[-63.0966,-18.027,394.3615],[-63.0882,-18.0159,388.9316],[-63.0861,-18.0264,390.0502],[-62.9738,-18.0244,343.0924],[-62.9811,-18.0142,348.2582],[-62.9902,-17.983,354.8122],[-62.9923,-17.9832,352.8658],[-62.9939,-17.9785,355.28],[-63.005,-17.9772,359.7806],[-63.0093,-17.9805,361.277],[-63.0179,-17.9787,360.706],[-63.015,-17.9746,364.8077],[-63.0306,-17.9758,367.2247],[-63.032,-17.9746,366.6626],[-63.0297,-17.9731,366.6901],[-63.0302,-17.9721,367.0291],[-63.0337,-17.9735,366.4909],[-63.0354,-17.9696,360.8502],[-63.041,-17.9683,362.2139],[-63.0404,-17.9646,363.1437],[-63.0467,-17.965,363.1586],[-63.0496,-17.9627,365.3542],[-63.0491,-17.9608,363.2945],[-63.0518,-17.9614,367.3808],[-63.0545,-17.9589,365.9034],[-63.0542,-17.9558,365.9448],[-63.0557,-17.9565,365.9636],[-63.0591,-17.9545,367.0646],[-63.0594,-17.9526,367.8075],[-63.0653,-17.9473,371.2221],[-63.0732,-17.9461,372.5595],[-63.0824,-17.9487,375.726],[-63.1029,-17.9359,381.2878],[-63.1186,-17.9337,391.8859],[-63.1222,-17.9294,392.804],[-63.1339,-17.9268,395.7593],[-63.1458,-17.9176,396.3548],[-63.1549,-17.9193,396.6624],[-63.1588,-17.9183,398.3735],[-63.1621,-17.9133,399.6673],[-63.1661,-17.9123,399.8467],[-63.1754,-17.9062,408.3849],[-63.1758,-17.9026,405.0392],[-63.1851,-17.8994,409.4458],[-63.1919,-17.8906,413.8665],[-63.2015,-17.8821,421.3468],[-63.2094,-17.8807,425.366],[-63.2178,-17.8736,429.0228],[-63.2254,-17.8729,434.0736],[-63.228,-17.8479,431.63],[-63.244,-17.8349,434.7886],[-63.2502,-17.833,437.3177],[-63.2571,-17.8361,436.9082],[-63.2632,-17.8348,438.0396],[-63.2678,-17.8368,438.6685],[-63.2755,-17.8444,445.2764],[-63.2819,-17.8471,440.1811],[-63.2857,-17.8468,440.7505],[-63.288,-17.8513,444.6227],[-63.2855,-17.8576,446.8888],[-63.2849,-17.8648,445.7662],[-63.2906,-17.8746,450.1634],[-63.3028,-17.8803,459.4707],[-63.3047,-17.8793,457.7492],[-63.3065,-17.8743,453.9958],[-63.3205,-17.8732,457.5236],[-63.3409,-17.8839,466.1965],[-63.3445,-17.8893,466.2468],[-63.3455,-17.8984,470.1938],[-63.3491,-17.9035,471.7448],[-63.3479,-17.9091,473.2614],[-63.351,-17.9149,476.4176],[-63.3504,-17.9212,481.0359],[-63.3588,-17.9293,479.611],[-63.3628,-17.9374,488.553],[-63.358,-17.9452,497.532],[-63.3526,-17.9482,515.7195],[-63.3589,-17.9574,501.0719],[-63.3552,-17.9596,526.552],[-63.354,-17.9665,558.8211],[-63.3524,-17.968,572.3353],[-63.3517,-17.9847,599.2562],[-63.3506,-17.9902,644.5406],[-63.3443,-17.9966,615.9091],[-63.3463,-18.0006,639.5442],[-63.3464,-18.0061,572.6505],[-63.3414,-18.0193,644.538],[-63.3377,-18.0194,591.7452],[-63.3243,-18.0118,621.2188],[-63.3236,-18.015,611.6728],[-63.3175,-18.0211,660.2722],[-63.3141,-18.0209,662.1302],[-63.3047,-18.0266,693.263],[-63.3004,-18.0157,620.6119],[-63.2842,-18.0185,624.0656],[-63.2796,-18.0202,628.7695],[-63.2807,-18.0224,633.8455],[-63.2788,-18.0235,654.3724],[-63.2829,-18.0265,601.312],[-63.2777,-18.03,589.2893],[-63.2706,-18.0322,578.8227],[-63.2713,-18.037,580.4351],[-63.2754,-18.042,594.7685],[-63.2807,-18.042,602.5217],[-63.2912,-18.0492,630.4391],[-63.2945,-18.0686,681.3047],[-63.3006,-18.0765,723.4606],[-63.3001,-18.0835,691.4054],[-63.2979,-18.087,667.713],[-63.2989,-18.0938,638.6399],[-63.2966,-18.0959,635.1044],[-63.2949,-18.1039,628.2928],[-63.3079,-18.1034,636.6855],[-63.3195,-18.1051,655.2277],[-63.3291,-18.1084,664.0907],[-63.335,-18.1078,668.1721],[-63.3538,-18.1234,735.9967],[-63.3565,-18.1239,757.4708],[-63.3562,-18.1307,771.3002],[-63.3492,-18.1402,787.3943],[-63.3499,-18.1449,794.5035],[-63.3487,-18.1475,816.4518],[-63.344,-18.149,734.8936],[-63.3358,-18.1578,684.5765],[-63.3356,-18.1631,681.1248],[-63.3418,-18.172,716.1889],[-63.3559,-18.1771,729.7758],[-63.3585,-18.1839,745.9888],[-63.3674,-18.1844,755.4526],[-63.3685,-18.1879,766.682],[-63.3726,-18.1909,774.0463],[-63.384,-18.1922,831.9338],[-63.3858,-18.1942,860.9581],[-63.3843,-18.2005,840.8495],[-63.3996,-18.2148,756.5546],[-63.3971,-18.2189,745.2644],[-63.4092,-18.2216,808.1471],[-63.4133,-18.2199,809.4518],[-63.4125,-18.2254,782.2479],[-63.4153,-18.2236,789.3923],[-63.4172,-18.2191,799.4204],[-63.4214,-18.2164,815.0743],[-63.4308,-18.2178,841.684],[-63.4363,-18.2209,802.8992],[-63.4377,-18.2237,802.79],[-63.443,-18.2267,804.3327],[-63.4486,-18.2333,808.8322],[-63.4557,-18.2384,775.7651],[-63.4707,-18.2449,827.4963],[-63.4726,-18.251,872.4248],[-63.4825,-18.2547,972.5487],[-63.491,-18.2655,972.4183]]]]}}