{"type":"Feature","properties":{"GID_3":"BOL.8.5.4_2","GID_0":"BOL","country":"Bolivia","GID_1":"BOL.8_1","province":"SantaCruz","NL_NAME_1":"NA","GID_2":"BOL.8.5_2","county":"Florida","NL_NAME_2":"NA","city":"Samaipata","VARNAME_3":"NA","NL_NAME_3":"NA","TYPE_3":"District","ENGTYPE_3":"Distrito","CC_3":"NA","HASC_3":"NA","name":"Samaipata.city"},
"geometry":{"type": "MultiPolygon","coordinates": [[[[-63.6168,-18.0162,1418.6547],[-63.6354,-18.0147,1740.3223],[-63.6444,-18.016,1736.7557],[-63.65,-18.009,1757.0061],[-63.6536,-18.0079,1754.8875],[-63.6619,-18.0075,1711.1445],[-63.6661,-18.0107,1662.4744],[-63.6699,-18.0105,1752.7786],[-63.6753,-18.0073,1754.4324],[-63.6863,-18.0068,1497.4435],[-63.692,-18.011,1481.927],[-63.6994,-18.0082,1320.9263],[-63.7007,-18.0063,1245.3789],[-63.7062,-18.0084,1027.5237],[-63.7119,-18.0134,1047.3988],[-63.7194,-18.0134,1008.9374],[-63.7192,-18.0159,1011.7387],[-63.7241,-18.0182,1026.1265],[-63.7266,-18.0169,1032.6989],[-63.7247,-18.0194,1026.1265],[-63.7265,-18.0234,1054.9403],[-63.737,-18.0196,1080.4999],[-63.7411,-18.0201,1063.0746],[-63.7433,-18.0223,1068.3929],[-63.7459,-18.0208,1178.7285],[-63.7469,-18.0227,1065.7948],[-63.7506,-18.0238,1086.1169],[-63.7548,-18.0221,1096.9778],[-63.7572,-18.0176,1118.6345],[-63.7618,-18.0144,1221.2107],[-63.7657,-18.0151,1167.3311],[-63.7678,-18.0127,1222.136],[-63.7695,-18.0068,1298.1694],[-63.7681,-17.9991,1504.2159],[-63.7712,-17.9968,1355.0541],[-63.7763,-17.988,1143.3127],[-63.7711,-17.9811,1119.5527],[-63.7715,-17.9744,1076.4856],[-63.7694,-17.9682,1046.5769],[-63.7666,-17.967,1032.1949],[-63.7656,-17.9642,1030.4827],[-63.7614,-17.9653,982.6598],[-63.7592,-17.9581,934.9867],[-63.7576,-17.9574,922.908],[-63.7642,-17.9521,916.2931],[-63.7648,-17.9471,859.1932],[-63.7629,-17.9421,846.359],[-63.7653,-17.9428,830.805],[-63.7709,-17.9329,845.8928],[-63.7723,-17.9336,802.9596],[-63.7819,-17.9264,774.3673],[-63.7792,-17.9249,789.6194],[-63.7814,-17.9227,771.2144],[-63.7803,-17.9205,827.8546],[-63.7818,-17.92,772.3015],[-63.782,-17.9174,767.6359],[-63.7791,-17.9159,773.5803],[-63.7811,-17.9146,761.7385],[-63.7785,-17.9128,781.6769],[-63.7797,-17.9075,725.9556],[-63.778,-17.9049,726.2732],[-63.7743,-17.9058,756.1458],[-63.7749,-17.9033,750.9488],[-63.7704,-17.8995,821.207],[-63.7724,-17.8969,772.6066],[-63.7736,-17.8976,714.5308],[-63.7756,-17.8903,700.6952],[-63.7806,-17.8832,700.7261],[-63.7805,-17.8792,849.0778],[-63.7879,-17.8743,728.782],[-63.7925,-17.8608,700.0591],[-63.8017,-17.867,719.7262],[-63.8157,-17.8681,763.2266],[-63.8177,-17.87,782.5669],[-63.8176,-17.8729,818.4611],[-63.8244,-17.8766,785.4368],[-63.8221,-17.8793,797.965],[-63.8262,-17.8791,815.9858],[-63.8293,-17.8819,839.6132],[-63.834,-17.8815,835.2314],[-63.8405,-17.8836,866.8996],[-63.843,-17.8833,853.617],[-63.8438,-17.8816,947.393],[-63.8451,-17.8829,906.6766],[-63.8468,-17.8819,941.5657],[-63.8465,-17.8846,1004.4888],[-63.8562,-17.881,987.5676],[-63.8673,-17.8809,1067.1819],[-63.8734,-17.878,1110.0496],[-63.8761,-17.8808,1119.5476],[-63.8786,-17.8805,1147.2434],[-63.8813,-17.8838,1166.5991],[-63.8958,-17.8802,1527.6371],[-63.9199,-17.8832,1956.7258],[-63.923,-17.8814,2028.5305],[-63.93,-17.8708,2223.0652],[-63.933,-17.8611,2152.7981],[-63.9463,-17.86,2065.4836],[-63.9505,-17.856,2015.0356],[-63.9643,-17.8571,1960.988],[-63.9731,-17.852,1772.5188],[-63.9752,-17.8453,1570.4163],[-64.0003,-17.8286,949.2864],[-63.9999,-17.8329,952.4131],[-64.0019,-17.8344,951.3532],[-63.9984,-17.8388,987.1241],[-63.9973,-17.8463,963.3503],[-63.9984,-17.8482,1014.7324],[-64.0032,-17.8499,1006.8186],[-64.0015,-17.8551,988.0983],[-64.0059,-17.8592,1000.7679],[-64.0043,-17.8615,976.394],[-64.005,-17.8645,981.5085],[-64.0028,-17.8672,1072.7761],[-64.0079,-17.8707,989.4727],[-64.0083,-17.8725,981.9824],[-63.9911,-17.8872,1011.5475],[-63.9874,-17.8882,1015.7723],[-63.9834,-17.8863,1016.2377],[-63.9778,-17.8916,1038.9487],[-63.971,-17.8923,1052.4054],[-63.9667,-17.8987,1077.9498],[-63.9616,-17.9,1086.7018],[-63.9602,-17.9027,1093.9906],[-63.9493,-17.9039,1262.5081],[-63.9525,-17.9066,1118.551],[-63.9503,-17.908,1119.1023],[-63.9464,-17.9161,1168.2222],[-63.9482,-17.9175,1120.8345],[-63.9459,-17.9197,1132.3345],[-63.9472,-17.9216,1135.2731],[-63.9447,-17.9255,1137.3191],[-63.9447,-17.9271,1153.3195],[-63.9467,-17.9266,1133.1826],[-63.9454,-17.932,1152.0659],[-63.9426,-17.9359,1166.1863],[-63.9398,-17.9366,1170.1322],[-63.9354,-17.9439,1168.9508],[-63.9326,-17.9438,1237.2827],[-63.9309,-17.9463,1261.6986],[-63.9301,-17.9502,1233.2039],[-63.9272,-17.9527,1229.074],[-63.9277,-17.9554,1225.929],[-63.9214,-17.9654,1238.3873],[-63.9206,-17.9707,1311.0182],[-63.9115,-17.9792,1274.3607],[-63.9071,-17.9811,1287.9232],[-63.9071,-17.9837,1301.3016],[-63.9013,-17.9926,1354.3931],[-63.8969,-17.995,1389.9553],[-63.896,-17.9987,1369.7324],[-63.8917,-18.0009,1412.592],[-63.8894,-18.0051,1359.328],[-63.8906,-18.0071,1360.8621],[-63.8866,-18.009,1383.6262],[-63.8842,-18.0155,1384.2197],[-63.8864,-18.0192,1387.8242],[-63.8836,-18.0197,1435.7544],[-63.8863,-18.0216,1396.4224],[-63.8852,-18.0255,1400.4478],[-63.8813,-18.0282,1418.2213],[-63.8788,-18.0273,1441.2202],[-63.8773,-18.0316,1437.6311],[-63.8757,-18.0318,1437.6311],[-63.8788,-18.0354,1428.1898],[-63.8667,-18.0492,1477.2717],[-63.8666,-18.0564,1508.2955],[-63.8636,-18.0636,1532.5547],[-63.869,-18.0706,1687.4603],[-63.8772,-18.0753,1915.3453],[-63.8883,-18.0849,2203.1885],[-63.8984,-18.0991,1785.1671],[-63.9001,-18.1031,1638.6597],[-63.9005,-18.1105,1575.2905],[-63.8992,-18.1131,1559.3594],[-63.901,-18.1137,1578.9521],[-63.901,-18.1203,1528.6379],[-63.9056,-18.123,1554.3303],[-63.9057,-18.1323,1816.1025],[-63.9094,-18.1392,1881.326],[-63.908,-18.1416,1944.438],[-63.9,-18.144,1944.8229],[-63.904,-18.1511,1936.7991],[-63.9022,-18.1579,1986.1831],[-63.9058,-18.1595,1957.3705],[-63.9084,-18.1699,1861.2585],[-63.9134,-18.1738,1674.748],[-63.9136,-18.1768,1605.8164],[-63.9213,-18.1778,1514.1865],[-63.9274,-18.1742,1461.1124],[-63.93,-18.1757,1437.103],[-63.9382,-18.1755,1407.7448],[-63.9522,-18.1731,1349.8042],[-63.9541,-18.1735,1345.9133],[-63.9537,-18.1764,1347.7107],[-63.9576,-18.18,1344.5542],[-63.9543,-18.1805,1354.6372],[-63.958,-18.1828,1362.063],[-63.9544,-18.1871,1354.8],[-63.955,-18.1896,1364.3385],[-63.9589,-18.1909,1354.2385],[-63.955,-18.1929,1361.9446],[-63.9582,-18.1932,1373.4512],[-63.9569,-18.1956,1357.6222],[-63.9597,-18.197,1358.5399],[-63.9607,-18.1997,1367.4451],[-63.9578,-18.2004,1360.5389],[-63.9595,-18.202,1361.8065],[-63.959,-18.204,1363.8539],[-63.9615,-18.2058,1363.5529],[-63.9578,-18.2093,1371.8269],[-63.9543,-18.2076,1382.2278],[-63.9517,-18.213,1369.0112],[-63.9508,-18.2167,1381.2256],[-63.9527,-18.228,1381.6935],[-63.95,-18.2289,1390.6002],[-63.9507,-18.2315,1387.5697],[-63.9489,-18.2356,1408.1835],[-63.9498,-18.2414,1387.8134],[-63.9482,-18.2429,1411.2434],[-63.956,-18.2475,1396.3462],[-63.9552,-18.2505,1424.7328],[-63.9568,-18.2522,1403.1803],[-63.9529,-18.2527,1433.9075],[-63.9495,-18.2563,1418.356],[-63.9451,-18.2564,1429.0775],[-63.9437,-18.258,1415.0188],[-63.9456,-18.259,1424.5179],[-63.9442,-18.26,1414.0275],[-63.9433,-18.2677,1445.196],[-63.9445,-18.2712,1434.3007],[-63.9469,-18.2706,1428.9824],[-63.948,-18.2738,1424.5106],[-63.9471,-18.2781,1427.5856],[-63.9452,-18.2788,1440.9519],[-63.9503,-18.2857,1448.3601],[-63.9503,-18.2907,1439.5898],[-63.9521,-18.2947,1473.4572],[-63.9492,-18.2947,1511.0137],[-63.9511,-18.2966,1457.3094],[-63.9485,-18.2983,1494.7717],[-63.9481,-18.3075,1453.8983],[-63.9411,-18.3117,1498.0579],[-63.9325,-18.3103,1534.8994],[-63.9272,-18.319,1576.4253],[-63.9261,-18.3235,1647.2561],[-63.908,-18.3261,1974.1514],[-63.9017,-18.3245,1839.0071],[-63.8975,-18.3206,1760.5645],[-63.8946,-18.3147,1685.9481],[-63.8833,-18.307,1824.4541],[-63.8775,-18.3138,1808.1395],[-63.8679,-18.3137,1647.3922],[-63.8608,-18.325,1493.9255],[-63.8588,-18.3254,1492.2219],[-63.8591,-18.328,1571.4146],[-63.8609,-18.3286,1571.4146],[-63.8618,-18.3349,1569.2166],[-63.8596,-18.3401,1542.7917],[-63.8537,-18.3443,1553.0583],[-63.8554,-18.3467,1597.4042],[-63.854,-18.3492,1545.369],[-63.8562,-18.3488,1575.173],[-63.8551,-18.3526,1570.0306],[-63.8567,-18.3535,1566.7629],[-63.8562,-18.3559,1585.6025],[-63.8587,-18.3566,1592.2782],[-63.8583,-18.3599,1592.5831],[-63.857,-18.3595,1597.6892],[-63.8573,-18.3625,1605.3409],[-63.8515,-18.3659,1620.2085],[-63.8489,-18.3738,1630.6136],[-63.8469,-18.3726,1654.2019],[-63.8437,-18.376,1703.5964],[-63.8415,-18.384,1672.0916],[-63.8353,-18.3895,1746.0939],[-63.8305,-18.4001,1722.5774],[-63.8194,-18.4029,1838.7029],[-63.8191,-18.4098,1840.2266],[-63.8235,-18.4127,1844.8977],[-63.8227,-18.4166,1864.8877],[-63.8189,-18.4204,1865.8234],[-63.8191,-18.4238,1883.1321],[-63.8221,-18.4272,1894.3142],[-63.827,-18.428,1902.4347],[-63.8299,-18.4322,1902.0872],[-63.8349,-18.4301,1931.8213],[-63.8366,-18.4312,1988.2618],[-63.8363,-18.4341,2042.676],[-63.8382,-18.4327,1969.2457],[-63.8383,-18.4343,1946.2781],[-63.8396,-18.433,1935.1041],[-63.8402,-18.4347,2003.467],[-63.8437,-18.4349,1967.2351],[-63.8425,-18.439,1994.1344],[-63.8457,-18.4398,1992.0027],[-63.8451,-18.4421,1978.0503],[-63.8386,-18.4439,1980.7778],[-63.8351,-18.4483,1938.2257],[-63.8311,-18.4481,1880.5444],[-63.8292,-18.4447,1879.4678],[-63.8264,-18.4454,1875.4227],[-63.8197,-18.455,1860.9939],[-63.8191,-18.4481,1886.6071],[-63.8045,-18.4478,2273.7832],[-63.8008,-18.4413,2474.9993],[-63.7466,-18.4358,1661.4565],[-63.744,-18.4342,1575.8763],[-63.735,-18.4198,1356.9321],[-63.7097,-18.411,1291.4336],[-63.7075,-18.4097,1268.8756],[-63.7072,-18.4067,1310.0696],[-63.7045,-18.4067,1288.3251],[-63.7054,-18.4041,1327.0909],[-63.7037,-18.4047,1308.3341],[-63.7002,-18.4019,1209.7507],[-63.6941,-18.4044,1330.1565],[-63.6884,-18.4126,1337.3533],[-63.6804,-18.4186,1275.3701],[-63.6722,-18.4161,1290.9888],[-63.6685,-18.413,1468.6838],[-63.6574,-18.4131,1718.6115],[-63.6464,-18.4075,1907.8628],[-63.6372,-18.4068,1669.4668],[-63.6261,-18.3995,1215.6876],[-63.6233,-18.3896,1168.358],[-63.6134,-18.3815,1442.3511],[-63.6155,-18.3765,1432.4808],[-63.6132,-18.3737,1446.8341],[-63.6151,-18.3694,1424.24],[-63.6143,-18.3656,1428.0068],[-63.5974,-18.3653,1532.2526],[-63.5937,-18.3631,1567.8694],[-63.5792,-18.3604,1712.3875],[-63.5665,-18.3613,1748.7219],[-63.5612,-18.3568,1819.9717],[-63.554,-18.3555,1562.7991],[-63.5476,-18.3515,1555.8945],[-63.5377,-18.3528,1264.9714],[-63.5337,-18.3547,1440.3049],[-63.5313,-18.3587,1509.2626],[-63.518,-18.3609,1559.5815],[-63.512,-18.3501,1497.6478],[-63.5093,-18.3402,1653.063],[-63.5132,-18.3304,1662.1567],[-63.5145,-18.3155,1733.6138],[-63.5178,-18.3141,1688.9021],[-63.5187,-18.3079,1672.5342],[-63.5167,-18.2981,1788.9424],[-63.5133,-18.2932,1852.1239],[-63.5156,-18.2848,1731.0327],[-63.5141,-18.28,1710.8351],[-63.5307,-18.2482,1648.983],[-63.5365,-18.2143,1484.2085],[-63.5367,-18.2017,1384.9196],[-63.5216,-18.1811,1004.6625],[-63.5483,-18.1579,1370.0452],[-63.5551,-18.1392,1528.9124],[-63.5623,-18.1383,1682.5037],[-63.5695,-18.1237,1519.2834],[-63.5682,-18.1129,1470.9425],[-63.5716,-18.109,1418.7491],[-63.5736,-18.0998,1351.9504],[-63.5722,-18.0907,1435.255],[-63.5744,-18.0831,1468.577],[-63.5739,-18.0779,1586.5564],[-63.5788,-18.0659,1433.6243],[-63.5842,-18.0383,1354.1718],[-63.5966,-18.032,1440.1526],[-63.6168,-18.0162,1418.6547]]]]}}