{"type": "Feature","bbox": [-69.0326,-16.5989,-68.7141,-16.3214],"geometry": {"type": "MultiPolygon","coordinates": [[[[-68.9227,-16.5957,3811.7354],[-68.9199,-16.5975,3812.356],[-68.9178,-16.5955,3811.9016],[-68.9156,-16.5971,3813.4277],[-68.9129,-16.595,3811.7761],[-68.909,-16.5988,3813.7666],[-68.9071,-16.5958,3810.9124],[-68.9023,-16.5957,3811.5],[-68.8977,-16.5982,3817.5088],[-68.8954,-16.5954,3812.4534],[-68.8923,-16.5952,3812.3884],[-68.8894,-16.5974,3812.1558],[-68.8866,-16.5953,3812.126],[-68.8805,-16.596,3811.8943],[-68.8739,-16.5989,3812.324],[-68.8704,-16.5977,3811.9753],[-68.8692,-16.5947,3812.0061],[-68.8677,-16.5965,3812.897],[-68.8659,-16.5939,3811.9358],[-68.8595,-16.595,3812.5044],[-68.8587,-16.5929,3809.8484],[-68.8553,-16.5927,3810.0745],[-68.8592,-16.5893,3808.5],[-68.8544,-16.5905,3811.4719],[-68.8614,-16.5873,3808.5],[-68.8556,-16.5889,3810.5125],[-68.8545,-16.5844,3808.5],[-68.8519,-16.5877,3812.3127],[-68.8447,-16.5855,3811.762],[-68.8468,-16.5822,3810.334],[-68.8457,-16.5798,3810.2485],[-68.8469,-16.5773,3809.2947],[-68.844,-16.5768,3810.9402],[-68.8454,-16.5704,3808.5],[-68.8412,-16.5689,3809.8057],[-68.8413,-16.5706,3812.0195],[-68.8394,-16.5669,3809.8442],[-68.8368,-16.5692,3811.957],[-68.8379,-16.5656,3808.5],[-68.8342,-16.5651,3812.0977],[-68.8314,-16.5607,3810.8408],[-68.8338,-16.5587,3808.5],[-68.8297,-16.5606,3812.0256],[-68.8306,-16.5592,3809.0886],[-68.8289,-16.5573,3809.5461],[-68.8303,-16.5527,3811.7905],[-68.8339,-16.5492,3810.4995],[-68.8344,-16.5455,3811.9971],[-68.8369,-16.5439,3808.5],[-68.8366,-16.5422,3811.4126],[-68.8499,-16.5339,3811.0393],[-68.8467,-16.5331,3812.3022],[-68.8476,-16.5293,3809.1982],[-68.8457,-16.5293,3810.0825],[-68.8441,-16.532,3812.2686],[-68.8443,-16.5304,3811.7939],[-68.8418,-16.5285,3812.0654],[-68.8439,-16.5277,3808.5],[-68.8424,-16.5258,3810.0461],[-68.8382,-16.5279,3811.9282],[-68.8353,-16.5276,3812.2002],[-68.8341,-16.5302,3812.4746],[-68.8227,-16.5294,3813.8115],[-68.8232,-16.5266,3813.8601],[-68.8271,-16.5249,3812.9417],[-68.8289,-16.5266,3812.7454],[-68.8349,-16.5268,3812.2002],[-68.8363,-16.5204,3812.0591],[-68.84,-16.5145,3810.2505],[-68.835,-16.5052,3809.3564],[-68.8318,-16.5037,3812.1782],[-68.8335,-16.5007,3808.5],[-68.8308,-16.4996,3811.8555],[-68.8312,-16.4972,3808.5],[-68.8324,-16.4973,3808.5],[-68.8309,-16.494,3808.5],[-68.8288,-16.4945,3808.5],[-68.8286,-16.4973,3809.3008],[-68.8241,-16.4941,3811.561],[-68.8297,-16.4914,3808.5],[-68.8262,-16.4926,3808.5],[-68.8236,-16.4917,3810.6182],[-68.8264,-16.4877,3808.5],[-68.8358,-16.4887,3808.5],[-68.8419,-16.4872,3808.5],[-68.8459,-16.4809,3809.2715],[-68.8481,-16.4818,3808.5],[-68.8502,-16.479,3808.5],[-68.8544,-16.4776,3808.5],[-68.8659,-16.4765,3810.4434],[-68.8819,-16.468,3810.0669],[-68.8917,-16.4679,3811.5891],[-68.8941,-16.47,3810.8389],[-68.8963,-16.4696,3811.5474],[-68.8976,-16.473,3809.8928],[-68.8987,-16.4714,3811.9482],[-68.912,-16.4737,3811.5908],[-68.9207,-16.472,3812.002],[-68.9291,-16.4749,3809.3716],[-68.9309,-16.4726,3813.1555],[-68.943,-16.4741,3811.7126],[-68.957,-16.4716,3812.9543],[-68.9583,-16.4704,3808.5],[-68.9556,-16.4698,3822.0972],[-68.9537,-16.4671,3815.6431],[-68.9501,-16.4535,3808.5],[-68.9485,-16.4524,3809.2173],[-68.9475,-16.4447,3813.0386],[-68.949,-16.4414,3811.7886],[-68.9519,-16.4447,3810.2114],[-68.9519,-16.4483,3809.0056],[-68.9536,-16.4462,3810.2114],[-68.9466,-16.4374,3811.5879],[-68.9265,-16.4294,3808.5],[-68.9242,-16.4305,3810.9646],[-68.9226,-16.4344,3808.5],[-68.9121,-16.4341,3812.8992],[-68.9099,-16.4318,3810.2285],[-68.9076,-16.4331,3813.2461],[-68.9023,-16.4314,3816.1875],[-68.8998,-16.4285,3812.1018],[-68.8952,-16.4289,3812.4724],[-68.8838,-16.4258,3812.24],[-68.8824,-16.4232,3810.7383],[-68.8806,-16.4254,3812.1929],[-68.8746,-16.4274,3811.8784],[-68.8702,-16.4264,3812.7988],[-68.8688,-16.4243,3808.5],[-68.8593,-16.4255,3811.7314],[-68.8585,-16.4281,3813.2236],[-68.8516,-16.4265,3812.2783],[-68.8465,-16.4284,3812.4441],[-68.8417,-16.4261,3808.939],[-68.839,-16.4273,3811.6553],[-68.8337,-16.4233,3810.9573],[-68.8315,-16.4252,3812.0972],[-68.8254,-16.4246,3812.7434],[-68.8255,-16.4225,3811.5791],[-68.824,-16.4215,3811.8928],[-68.8215,-16.4221,3810.7959],[-68.8211,-16.4238,3811.6892],[-68.8205,-16.4225,3810.7959],[-68.8124,-16.4251,3811.9854],[-68.8099,-16.4233,3810.9695],[-68.8075,-16.4239,3812.165],[-68.8021,-16.4194,3809.8875],[-68.7999,-16.4272,3812.6504],[-68.7953,-16.4295,3811.7534],[-68.791,-16.4259,3811.2598],[-68.7844,-16.4267,3811.9653],[-68.7818,-16.4249,3811.5842],[-68.7772,-16.4283,3811.8164],[-68.7691,-16.4279,3811.4736],[-68.7625,-16.4225,3811.4009],[-68.7563,-16.4236,3812.2119],[-68.7534,-16.4221,3811.7344],[-68.7527,-16.419,3810.4954],[-68.7476,-16.4204,3811.6606],[-68.7449,-16.4195,3811.3066],[-68.7393,-16.4234,3811.5054],[-68.7372,-16.4233,3811.3477],[-68.7377,-16.4206,3811.1187],[-68.7298,-16.4223,3811.3342],[-68.727,-16.4206,3811.2183],[-68.7222,-16.4112,3810.4224],[-68.7142,-16.4028,3811.3525],[-68.7141,-16.4011,3811.4111],[-68.7215,-16.398,3811.0618],[-68.7198,-16.3957,3811.4409],[-68.7254,-16.378,3808.5],[-68.756,-16.3604,3808.5],[-68.7882,-16.3214,3808.5],[-68.7969,-16.3236,3808.5],[-68.8031,-16.3394,3808.5],[-68.8189,-16.3371,3808.5],[-68.8188,-16.3515,3808.5],[-68.9997,-16.4481,3808.5],[-69.0326,-16.5389,3808.5],[-69.0294,-16.5532,3810.8477],[-69.0041,-16.562,3812.2178],[-68.9966,-16.5678,3811.7007],[-68.9933,-16.5672,3811.8618],[-68.9938,-16.5683,3812.8269],[-68.9918,-16.5695,3811.9231],[-68.9861,-16.5681,3811.6616],[-68.9834,-16.571,3812.0964],[-68.9815,-16.5698,3812.1362],[-68.9791,-16.5711,3811.6982],[-68.9792,-16.5733,3812.6677],[-68.9754,-16.5754,3812.5815],[-68.9702,-16.5742,3809.9087],[-68.9676,-16.5796,3812.7922],[-68.9587,-16.5794,3811.4399],[-68.9577,-16.5812,3810.8174],[-68.9554,-16.581,3809.136],[-68.9536,-16.5848,3811.9722],[-68.95,-16.5842,3810.0144],[-68.9412,-16.5902,3811.9136],[-68.9338,-16.5884,3811.6558],[-68.9314,-16.5896,3812.2593],[-68.9316,-16.5929,3812.1023],[-68.9261,-16.5951,3812.1633],[-68.924,-16.5934,3811.9158],[-68.9227,-16.5957,3811.7354]],
[[-68.7719,-16.3694,3811.2422],[-68.7671,-16.3715,3814.0127],[-68.7666,-16.374,3811.1768],[-68.7737,-16.3726,3808.5],[-68.7741,-16.3704,3808.5],[-68.7719,-16.3694,3811.2422]]]]}
,"properties": {"GID_3": "BOL.4.10.4_2","GID_0": "BOL","country": "Bolivia","GID_1": "BOL.4_1","province": "LaPaz","NL_NAME_1": "NA","GID_2": "BOL.4.10_2","county": "Ingavi","NL_NAME_2": "NA","city": "LagoTiticaca","VARNAME_3": "NA","NL_NAME_3": "NA","TYPE_3": "Lago","ENGTYPE_3": "Waterbody","CC_3": "NA","HASC_3": "NA","name": "Lago_Titicaca.city","area_km2": 418.5678,"hist_schema_id": "Elevation0-9000","hist_area_km2": {"3800": 417.8766,"3825": 0.6912}}}