{"type": "Feature","bbox": [-68.7739,-20.7201,-67.5713,-19.4355],"geometry": {"type": "MultiPolygon","coordinates": [[[[-68.0319,-19.6223,4978.0234],[-68.0422,-19.6184,4784.0371],[-68.0539,-19.61,4321.8711],[-68.0602,-19.5958,3892.6421],[-68.0785,-19.5876,3700.4194],[-68.0881,-19.5764,3657.0059],[-68.095,-19.5905,3656.5],[-68.0992,-19.5918,3656.5],[-68.1073,-19.588,3658.0161],[-68.1093,-19.588,3656.8838],[-68.1101,-19.5903,3656.5],[-68.1153,-19.59,3657.9641],[-68.1135,-19.594,3656.5],[-68.1153,-19.5962,3656.5],[-68.1253,-19.597,3656.5],[-68.1255,-19.5995,3656.5],[-68.1299,-19.6021,3656.5],[-68.1447,-19.604,3656.5],[-68.1555,-19.6108,3656.5],[-68.167,-19.6143,3656.5],[-68.1658,-19.6117,3656.5],[-68.1757,-19.5999,3656.5],[-68.1777,-19.5986,3656.5],[-68.1985,-19.5964,3656.5],[-68.2022,-19.5899,3656.5],[-68.2069,-19.5875,3656.5],[-68.2072,-19.5826,3656.5],[-68.2116,-19.5847,3656.5],[-68.2122,-19.5827,3656.5],[-68.2161,-19.5835,3656.5],[-68.218,-19.5821,3656.5],[-68.2211,-19.5835,3656.5],[-68.2246,-19.5785,3656.5],[-68.2252,-19.5807,3656.5],[-68.2296,-19.5789,3656.5],[-68.2326,-19.5751,3656.5],[-68.2308,-19.573,3656.5],[-68.2344,-19.5713,3656.5],[-68.2371,-19.5665,3656.5],[-68.2451,-19.5628,3656.5],[-68.256,-19.5615,3656.5],[-68.2609,-19.559,3656.5],[-68.2621,-19.5564,3656.5],[-68.274,-19.5518,3656.5],[-68.285,-19.5504,3656.5],[-68.294,-19.5463,3656.5],[-68.2964,-19.5418,3656.5],[-68.2873,-19.5346,3656.5],[-68.2877,-19.5302,3656.5],[-68.2911,-19.5267,3656.5],[-68.2906,-19.5242,3656.5],[-68.2924,-19.5237,3656.5],[-68.2945,-19.5263,3656.5],[-68.3108,-19.5255,3656.5],[-68.3218,-19.5184,3656.5],[-68.3315,-19.5157,3656.5],[-68.339,-19.516,3656.5],[-68.3435,-19.5213,3656.5],[-68.3463,-19.5184,3656.5],[-68.3521,-19.52,3656.5],[-68.3647,-19.5071,3656.5],[-68.3809,-19.4964,3656.5],[-68.3963,-19.4801,3666.0781],[-68.3975,-19.4743,3656.5],[-68.404,-19.4714,3658.7773],[-68.4046,-19.4639,3659.2417],[-68.4069,-19.4621,3662.4304],[-68.4128,-19.4507,3706.7434],[-68.4115,-19.4399,3656.5],[-68.4258,-19.4355,3656.5],[-68.4406,-19.4404,4021.3079],[-68.5569,-19.5964,4305.9937],[-68.5725,-19.6055,3964.2063],[-68.5988,-19.6407,4574.6748],[-68.6043,-19.6663,4431.4219],[-68.6232,-19.7006,4752.7676],[-68.6594,-19.7088,5435.7188],[-68.6835,-19.7194,5834.3545],[-68.6889,-19.7484,5725.541],[-68.6673,-19.7521,5604.2222],[-68.6519,-19.7722,5599.6851],[-68.6208,-19.7891,5191.6851],[-68.5993,-19.828,4270.4414],[-68.5282,-19.8453,4362.457],[-68.5423,-19.89,4203.0771],[-68.5216,-19.9243,4044.8362],[-68.5515,-20.0213,4056.9915],[-68.5662,-20.0501,3989.2729],[-68.6404,-20.0489,4912.0923],[-68.693,-20.0683,4461.0459],[-68.7635,-20.0787,5018.6055],[-68.7739,-20.1297,4805.8833],[-68.7617,-20.1341,4821.9072],[-68.7417,-20.1252,4615.7593],[-68.7235,-20.1353,4623.5698],[-68.7021,-20.1435,4611.4517],[-68.7047,-20.159,4825.1841],[-68.6917,-20.1772,4928.3687],[-68.7139,-20.1951,4826.6855],[-68.715,-20.2468,4898.396],[-68.695,-20.2791,4465.144],[-68.6924,-20.2955,4744.4893],[-68.6656,-20.3058,4563.6973],[-68.6594,-20.3355,4788.8936],[-68.7108,-20.3664,4004.9185],[-68.7418,-20.3694,4911.8037],[-68.7387,-20.4568,3986.9031],[-68.6662,-20.5166,5121.3647],[-68.6085,-20.5456,3796.2209],[-68.5928,-20.5486,3793.3142],[-68.5709,-20.5756,4045.3257],[-68.52,-20.5873,4989.1377],[-68.4487,-20.6242,5277.418],[-68.4391,-20.641,5122.436],[-68.4281,-20.6251,4922.0708],[-68.4274,-20.6183,4743.1514],[-68.4238,-20.6088,4523.5991],[-68.4189,-20.6031,4386.6421],[-68.4076,-20.5984,4204.1699],[-68.394,-20.5868,4060.093],[-68.3902,-20.5854,4038.3179],[-68.3823,-20.5857,3982.6729],[-68.3748,-20.58,3917.4519],[-68.3679,-20.5714,3849.3757],[-68.3151,-20.5768,4442.2783],[-68.3023,-20.5801,4510.1318],[-68.2781,-20.5767,3815.4133],[-68.27,-20.5734,3745.269],[-68.2665,-20.574,3732.365],[-68.2533,-20.5703,3665.8765],[-68.2467,-20.5828,3665.8428],[-68.2336,-20.5913,3665.7791],[-68.2321,-20.5971,3671.2869],[-68.22,-20.6058,3668.9326],[-68.2136,-20.6075,3667.9829],[-68.2087,-20.604,3666.187],[-68.2019,-20.6038,3666.2168],[-68.1817,-20.611,3708.5332],[-68.1804,-20.6139,3716.7585],[-68.1774,-20.6132,3733.1414],[-68.1686,-20.6167,3797.1018],[-68.1543,-20.625,4019.7556],[-68.1467,-20.6323,4215.9668],[-68.1216,-20.6418,5266.3804],[-67.9888,-20.7201,3670.8357],[-67.8581,-20.5153,3654.2793],[-67.8625,-20.514,3654.25],[-67.8644,-20.5102,3654.1958],[-67.5831,-19.8946,3653.7515],[-67.5766,-19.8884,3653.8323],[-67.5713,-19.8867,3653.7332],[-67.573,-19.8813,3656.635],[-67.5809,-19.8746,3683.3804],[-67.5991,-19.8716,3909.1155],[-67.6048,-19.8644,4109.9365],[-67.6147,-19.8603,4197.208],[-67.6352,-19.8465,4785.458],[-67.6462,-19.8421,5107.5322],[-67.6644,-19.8386,4692.5557],[-67.6775,-19.8305,4437.1958],[-67.7145,-19.812,3783.8469],[-67.7205,-19.8267,3747.3652],[-67.7299,-19.8284,3728.6616],[-67.7353,-19.8316,3726.2046],[-67.7382,-19.8303,3727.7422],[-67.7384,-19.826,3733.9333],[-67.7435,-19.8229,3740.7153],[-67.7519,-19.8132,3685.5161],[-67.7603,-19.8123,3680.9216],[-67.7582,-19.8092,3714.519],[-67.7586,-19.8059,3714.6599],[-67.7859,-19.808,3790.4961],[-67.803,-19.8111,3778.2236],[-67.8217,-19.8096,3814.5125],[-67.8456,-19.7965,3815.0933],[-67.8605,-19.7725,3896.0295],[-67.8764,-19.7619,3672.2219],[-67.8994,-19.7571,3787.0327],[-67.9144,-19.7431,3981.8623],[-67.9353,-19.7338,4191.5771],[-67.9595,-19.7294,4197.665],[-67.9597,-19.7262,4165.3418],[-67.9714,-19.7079,4346.4966],[-67.9895,-19.687,3933.1313],[-68.0319,-19.6223,4978.0234]]]]}
,"properties": {"GID_2": "BOL.7.6_2","GID_0": "BOL","country": "Bolivia","GID_1": "BOL.7_1","province": "Potosí","NL_NAME_1": "NA","county": "DanielCampos","VARNAME_2": "NA","NL_NAME_2": "NA","TYPE_2": "Provincia","ENGTYPE_2": "Province","CC_2": "NA","HASC_2": "NA","name": "Daniel_Campos.county","area_km2": 10549.711,"hist_schema_id": "Elevation0-9000","hist_area_km2": {"3650": 4495.554,"3675": 601.469,"3700": 337.361,"3725": 822.334,"3750": 293.471,"3775": 288.403,"3800": 254.659,"3825": 221.389,"3850": 191.504,"3875": 180.139,"3900": 173.225,"3925": 157.762,"3950": 158.781,"3975": 154.147,"4000": 153.942,"4025": 145.957,"4050": 150.886,"4075": 132.771,"4100": 114.867,"4125": 106.344,"4150": 111.935,"4175": 95.916,"4200": 89.341,"4225": 85.227,"4250": 78.52,"4275": 72.908,"4300": 66.059,"4325": 65.795,"4350": 61.196,"4375": 56.038,"4400": 48.709,"4425": 46.539,"4450": 40.986,"4475": 40.566,"4500": 37.819,"4525": 39.509,"4550": 38.612,"4575": 36.56,"4600": 33.637,"4625": 32.463,"4650": 31.086,"4675": 28.36,"4700": 27.404,"4725": 22.45,"4750": 17.611,"4775": 13.829,"4800": 12.515,"4825": 11.044,"4850": 10.188,"4875": 8.435,"4900": 7.184,"4925": 6.009,"4950": 5.094,"4975": 4.12,"5000": 3.045,"5025": 2.608,"5050": 1.991,"5075": 1.991,"5100": 1.732,"5125": 1.333,"5150": 1.434,"5175": 1.135,"5200": 1.175,"5225": 1.254,"5250": 0.777,"5275": 0.937,"5300": 0.797,"5325": 0.877,"5350": 0.877,"5375": 0.698,"5400": 0.798,"5425": 0.479,"5450": 0.798,"5475": 0.978,"5500": 0.858,"5525": 0.838,"5550": 0.539,"5575": 0.579,"5600": 0.339,"5625": 0.379,"5650": 0.419,"5675": 0.359,"5700": 0.279,"5725": 0.279,"5750": 0.299,"5775": 0.1}}}