{"type": "Feature","bbox": [-57.878753757133467,-17.623172149173882,-57.713468299749024,-17.443904395750678],"geometry": {"type": "Polygon","coordinates": [[[-57.727156231660643,-17.526031987220421,89.5],[-57.737900522300961,-17.528092536110336,89.5],[-57.747614538496308,-17.531624905635908,89.5],[-57.754826459611024,-17.532802362144452,89.5],[-57.77204676104823,-17.52014470467779,89.5],[-57.7708693045397,-17.505132134194071,89.5],[-57.75821164707304,-17.488353378947551,89.5],[-57.741138527699405,-17.471280259573916,129.8847],[-57.737164611983133,-17.465687341158429,150.1133],[-57.726861867533515,-17.443904395750678,89.5],[-57.77911150009939,-17.468042254175487,89.5],[-57.836806869017195,-17.478050634497947,89.5],[-57.86771510236602,-17.478050634497947,89.5],[-57.878753757133467,-17.487764650693293,89.5],[-57.873749566972222,-17.508958867846786,89.5],[-57.8587369964885,-17.530447449127394,89.5],[-57.828564673457507,-17.54516565548397,90.4215],[-57.81384646710093,-17.557234584696374,89.5],[-57.803985268842013,-17.571658426925836,91.0561],[-57.806340181859071,-17.584610448519612,89.0],[-57.81208028233813,-17.594324464714958,91.1337],[-57.810461279638915,-17.604038480910305,89.8937],[-57.804868361223413,-17.612280676469993,92.669],[-57.79912826074434,-17.618462323139767,90.2752],[-57.789414244548993,-17.623172149173882,90.9179],[-57.783968508197063,-17.618167959012624,91.7162],[-57.77999459248079,-17.60874830694442,90.2633],[-57.775284766446674,-17.600800475511875,88.8858],[-57.7342209707118,-17.553113486916544,89.5],[-57.727156231660643,-17.547520568501028,89.5],[-57.718472489910269,-17.542516378339798,89.5],[-57.713468299749024,-17.536629095797167,89.5],[-57.71685348721104,-17.529564356745993,89.5],[-57.727156231660643,-17.526031987220421,89.5]]]}
,"properties": {"featurecla": "Lake","scalerank": 8,"name": "null404","name_abb": null,"name_alt": null,"note": "_untitled_33","delta": null,"dam_name": null,"year": -99,"admin": null,"min_zoom": 6.0,"min_label": 7.0,"area_km2": 147.7729,"hist_schema_id": "Elevation0-9000","hist_area_km2": {"100": 147.2875,"125": 0.4652,"150": 0.0202}}}