{"type":"Feature","properties":{"featurecla":"River","scalerank":7,"rivernum":509,"dissolve":"509River","name":"null82","name_alt":null,"note":null,"min_zoom":6.0,"strokeweig":0.15,"name_en":null,"min_label":7.0},
"geometry":{"type": "LineString","coordinates": [[-60.404101562499989,-14.68303801875588,683.1114],[-60.398779296874991,-14.65935637813088,624.8217],[-60.385839843749991,-14.644073175005886,572.3972],[-60.369970703124991,-14.63030364375588,505.7047],[-60.355639648437489,-14.611651300005889,510.6346],[-60.350024414062489,-14.59099700313088,476.7836],[-60.353759765625,-14.57439544063088,531.6708],[-60.369970703124991,-14.542803643755889,479.2311],[-60.339160156249989,-14.532549737505889,412.3582],[-60.344580078124991,-14.49089934688088,417.8399],[-60.377368164062489,-14.41985442500588,383.4874],[-60.392041015625,-14.356963800005886,336.5158],[-60.400683593749989,-14.340655206255889,382.4745],[-60.455004882812489,-14.29656340938088,340.584],[-60.465087890625,-14.27825286250588,336.0493],[-60.466357421874989,-14.25090911250588,344.6038],[-60.462744140624991,-14.22380950313088,321.6685],[-60.463134765625,-14.198272393755886,403.4008],[-60.476416015624991,-14.17595794063088,360.9678]]}}