{"type":"Feature","properties":{"featurecla":"River","scalerank":7,"rivernum":509,"dissolve":"509River","name":"null83","name_alt":null,"note":null,"min_zoom":6.0,"strokeweig":0.2,"name_en":null,"min_label":7.0},
"geometry":{"type": "LineString","coordinates": [[-60.476416015624991,-14.17595794063088,360.9678],[-60.479663085937489,-14.16253020625588,260.6692],[-60.478442382812489,-14.139971612505889,284.2186],[-60.47421875,-14.11712005000588,356.2534],[-60.468994140625,-14.103545831255886,382.4986],[-60.462158203125,-14.09856536250588,352.9272],[-60.43798828125,-14.091827081255886,221.9105],[-60.420166015625,-14.07683684688088,198.0692],[-60.41015625,-14.05510833125588,182.9679],[-60.397265624999989,-14.008330987505886,187.6893]]}}