{"type":"Feature","properties":{"featurecla":"River","scalerank":9,"rivernum":1031,"dissolve":"1031River","name":"San7","name_alt":null,"note":null,"min_zoom":7.1,"strokeweig":0.15,"name_en":"San Martin","min_label":8.1},
"geometry":{"type": "LineString","coordinates": [[-61.647143554687489,-15.477569268755886,326.8008],[-61.653979492187489,-15.443389581255886,355.7564],[-61.671923828124989,-15.41472747188088,300.0882],[-61.682666015624989,-15.381377862505886,318.8911],[-61.702099609375,-15.37468840938088,322.7565],[-61.724707031249991,-15.37395598750588,303.8338],[-61.742724609374989,-15.367705987505886,285.1617],[-61.750732421875,-15.352373956255889,305.3582],[-61.767041015625,-15.29900481563088,274.6747],[-61.77001953125,-15.281768487505886,257.8843],[-61.776049804687489,-15.26726653438088,245.9773],[-61.806323242187489,-15.22991301875588,244.6087],[-61.83251953125,-15.20427825313088,269.9056],[-61.89013671875,-15.159209893755886,256.7534],[-61.9091796875,-15.147491143755886,248.9746],[-61.96923828125,-15.13494231563088,259.3315],[-61.985107421875,-15.12761809688088,264.0104],[-61.998828124999989,-15.118194268755886,230.0473],[-62.027270507812489,-15.09026458125588,219.7937],[-62.039477539062489,-15.07048919063088,218.9211],[-62.051220703125,-15.00457122188088,214.2284]]}}