{"type":"Feature","properties":{"featurecla":"River","scalerank":9,"rivernum":990,"dissolve":"990River","name":"San1","name_alt":null,"note":null,"min_zoom":7.1,"strokeweig":0.25,"name_en":"San Miguel","min_label":8.1},
"geometry":{"type": "LineString","coordinates": [[-62.0,-17.016631768755886,246.6443],[-62.011083984374991,-17.001983331255886,245.8469],[-62.022216796875,-16.98894622188088,253.9727],[-62.059008789062489,-16.98162200313088,282.4742],[-62.076171875,-16.972198175005886,275.9171],[-62.094409179687489,-16.966631768755889,247.089],[-62.111914062499991,-16.97673919063088,255.0014],[-62.127734374999989,-16.98894622188088,250.0526],[-62.211035156249991,-16.98894622188088,246.341],[-62.227148437499991,-16.997588800005886,254.7067],[-62.244433593749989,-17.00554778438088,244.5941],[-62.27109375,-17.004717706255889,249.173],[-62.2978515625,-17.000811456255889,248.6187],[-62.331103515624989,-16.984893487505886,242.4225],[-62.361083984375,-16.96111419063088,243.688],[-62.391699218749991,-16.929034112505889,240.4154],[-62.427099609374991,-16.91106536250588,242.2509],[-62.463549804687489,-16.905108331255889,241.7942],[-62.497485351562489,-16.89006926875588,242.44],[-62.52880859375,-16.862823175005886,237.9373],[-62.563159179687489,-16.83977630000588,239.3113],[-62.599414062499989,-16.836944268755886,243.141],[-62.63330078125,-16.82781340938088,240.8245],[-62.640307617187489,-16.81145598750588,239.859],[-62.645458984375,-16.79363372188088,238.6318],[-62.654589843749989,-16.76921965938088,237.4727],[-62.672167968749989,-16.75554778438088,236.844],[-62.673779296875,-16.73626067500588,238.5975],[-62.677734375,-16.71672942500588,234.9545],[-62.691992187499991,-16.706084893755886,236.8218],[-62.705517578125,-16.69451262813088,230.1912],[-62.70654296875,-16.676592706255889,231.3736],[-62.712695312499989,-16.660967706255889,229.3173],[-62.72919921875,-16.64739348750588,228.5911],[-62.744799804687489,-16.63298919063088,225.8822],[-62.760351562499991,-16.615264581255886,224.1996],[-62.777758789062489,-16.60003020625588,231.9782],[-62.796972656249991,-16.59758880000588,237.77],[-62.811938476562489,-16.59099700313088,226.332],[-62.832324218749989,-16.55413176875588,223.362],[-62.924169921874991,-16.46819426875588,226.7977],[-62.958422851562489,-16.365752862505886,216.4159],[-62.980517578124989,-16.347198175005886,221.2712],[-62.986132812499989,-16.318877862505886,243.936],[-62.98828125,-16.28630950313088,251.2317],[-63.022143554687489,-16.244463800005889,251.698],[-63.032958984375,-16.219268487505886,303.1375],[-63.047290039062489,-16.19890715938088,390.9387],[-63.090991210937489,-16.15667083125588,218.2041],[-63.117529296874991,-16.066924737505886,201.211],[-63.13330078125,-16.044463800005886,205.1618],[-63.16162109375,-16.027178643755889,202.1613],[-63.18330078125,-16.000030206255886,197.2986]]}}