{"type":"Feature","properties":{"featurecla":"River","scalerank":8,"rivernum":803,"dissolve":"803River","name":"Yapacani","name_alt":null,"note":null,"min_zoom":7.0,"strokeweig":0.15,"name_en":"Yapacani","min_label":8.0},
"geometry":{"type": "LineString","coordinates": [[-64.177050781249989,-17.52044036250588,741.2302],[-64.1375,-17.52385833125588,964.7147],[-64.12060546875,-17.529620050005889,760.0256],[-64.10986328125,-17.546709893755889,656.1025],[-64.108203124999989,-17.56047942500588,786.3815],[-64.109912109374989,-17.57463958125588,810.6238],[-64.134765625,-17.63836028438088,811.1824],[-64.155126953124991,-17.673370050005886,832.4081],[-64.181811523437489,-17.70647551875588,1494.7515],[-64.188330078124991,-17.71819426875588,1393.7465]]}}