{"type":"Feature","properties":{"featurecla":"River","scalerank":9,"rivernum":990,"dissolve":"990River","name":"San","name_alt":null,"note":null,"min_zoom":7.1,"strokeweig":0.25,"name_en":"San Miguel","min_label":8.1},
"geometry":{"type": "LineString","coordinates": [[-61.3,-17.41668059688088,250.0354],[-61.302587890624991,-17.394854425005889,256.1046],[-61.322192382812489,-17.383330987505886,258.2385],[-61.344482421875,-17.383330987505886,256.2498],[-61.3603515625,-17.374053643755886,252.0053],[-61.375292968749989,-17.36272551875588,259.866],[-61.48681640625,-17.33074309688088,254.6632],[-61.570361328124989,-17.257159112505889,252.4876],[-61.59326171875,-17.24602630000588,253.6639],[-61.617919921875,-17.240264581255886,255.9963],[-61.629736328124991,-17.22820403438088,256.8399],[-61.644384765624991,-17.21672942500588,257.6534],[-61.661865234375,-17.220538018755889,260.8395],[-61.6806640625,-17.220538018755889,260.3112],[-61.710400390625,-17.208038018755886,258.2365],[-61.743505859374991,-17.20940520625588,260.4571],[-61.797949218749991,-17.192901300005886,254.3847],[-61.834643554687489,-17.14519622188088,251.0942],[-61.926611328124991,-17.087920831255886,254.2977],[-62.0,-17.016631768755886,246.6443]]}}