{"type":"Feature","properties":{"featurecla":"River","scalerank":8,"rivernum":696,"dissolve":"696River","name":"null59","name_alt":null,"note":null,"min_zoom":7.0,"strokeweig":0.2,"name_en":null,"min_label":8.0},
"geometry":{"type": "LineString","coordinates": [[-58.453662109374989,-16.84124114375588,96.159],[-58.455859374999989,-16.848174737505886,95.0],[-58.464770507812489,-16.86589934688088,95.0],[-58.467333984374989,-16.875323175005889,95.0],[-58.466967773437489,-16.887237237505886,96.5422],[-58.45703125,-16.93694426875588,94.6111],[-58.43994140625,-16.96721770625588,93.5],[-58.433203124999991,-16.985186456255889,93.5],[-58.427539062499989,-17.05510833125588,93.5],[-58.42236328125,-17.070635675005889,93.5],[-58.41171875,-17.08806731563088,95.8272],[-58.406982421875,-17.11003997188088,93.5],[-58.405566406249989,-17.199541925005889,94.3936],[-58.39990234375,-17.23723723750588,93.9687],[-58.381884765624989,-17.267120050005886,93.6614],[-58.344482421875,-17.28679778438088,93.3183],[-58.312841796874991,-17.290850518755889,93.0539],[-58.302832031249991,-17.293780206255889,93.6822],[-58.293017578124989,-17.29949309688088,92.3989],[-58.275146484375,-17.31389739375588,93.4075],[-58.265234374999991,-17.319854425005886,93.1641],[-58.2568359375,-17.32244231563088,93.2242],[-58.240649414062489,-17.325030206255889,93.3318],[-58.232275390624991,-17.329620050005886,92.969],[-58.220947265625,-17.34417083125588,91.3873],[-58.204760742187489,-17.377276300005889,93.3818],[-58.18916015625,-17.388506768755889,91.0],[-58.17529296875,-17.391924737505889,92.8708],[-58.163916015624991,-17.39324309688088,93.3415],[-58.152929687499991,-17.396319268755889,91.0],[-58.139990234374991,-17.40447356563088,92.8922],[-58.11279296875,-17.433428643755889,93.1465],[-58.101806640625,-17.441241143755889,92.376],[-58.066455078124989,-17.45574309688088,91.7181],[-58.054443359375,-17.46233489375588,92.7919],[-58.0109375,-17.496612237505886,92.9761],[-57.982226562499989,-17.508623956255889,91.7359],[-57.944262695312489,-17.51775481563088,91.5884],[-57.906347656249991,-17.520342706255889,91.5685],[-57.872119140624989,-17.511260675005886,89.5]]}}