{"type":"Feature","properties":{"featurecla":"River","scalerank":3,"rivernum":77,"dissolve":"77River","name":"Grande12","name_alt":null,"note":null,"min_zoom":3.0,"strokeweig":0.2,"name_en":"Grande","min_label":4.0},
"geometry":{"type": "LineString","coordinates": [[-63.75751953125,-19.028350518755886,564.7611],[-63.724609375,-19.02166106563088,678.4736],[-63.715869140624989,-19.02263762813088,803.1359],[-63.710742187499989,-19.026885675005886,732.2786],[-63.70751953125,-19.032745050005886,648.974],[-63.702563476562489,-19.045440362505886,523.879],[-63.69287109375,-19.06047942500588,567.4802],[-63.680029296874991,-19.072588800005889,502.0711],[-63.664794921875,-19.08147551875588,609.8413],[-63.647802734374991,-19.08684661250588,537.8909],[-63.609472656249991,-19.09295012813088,501.4557],[-63.590502929687489,-19.09172942500588,524.8138],[-63.572851562499991,-19.08513762813088,510.8839],[-63.563159179687489,-19.07708098750588,495.4479],[-63.558837890625,-19.068194268755889,492.1845],[-63.558203124999991,-19.05803801875588,473.0],[-63.561865234374991,-19.013995050005889,541.7968],[-63.560961914062489,-18.97771575313088,465.5336],[-63.554248046874989,-18.95671965938088,532.1409],[-63.539892578124991,-18.940264581255889,452.5615],[-63.515917968749989,-18.928545831255889,678.0659],[-63.421069335937489,-18.91155364375588,494.6201],[-63.377734374999989,-18.89641692500588,430.2618],[-63.368261718749991,-18.89177825313088,436.669],[-63.363427734374994,-18.887041925005889,435.2181],[-63.361621093749989,-18.88054778438088,428.242],[-63.361181640624991,-18.87029387813088,431.9149],[-63.356787109374991,-18.85393645625588,427.238],[-63.346118164062489,-18.839873956255886,432.7701],[-63.332128906249991,-18.82805755000588,420.6826],[-63.3017578125,-18.80950286250588,413.5],[-63.285205078124989,-18.803545831255889,412.0],[-63.249755859375,-18.797393487505886,415.9988],[-63.231689453125,-18.79143645625588,406.125],[-63.221118164062489,-18.77996184688088,404.5],[-63.211840820312489,-18.76628997188088,406.643],[-63.19775390625,-18.75383880000588,401.3272],[-63.163916015624991,-18.736163018755889,397.8197],[-63.1494140625,-18.72576262813088,395.375],[-63.136889648437489,-18.710772393755889,395.2085],[-63.114990234375,-18.658233331255886,390.5562],[-63.105029296874989,-18.64251067500588,386.0],[-63.065722656249989,-18.60906340938088,389.8678],[-63.055761718749991,-18.59490325313088,387.8652],[-63.038183593749991,-18.540362237505889,383.4658],[-63.029101562499989,-18.523467706255886,381.8691],[-62.972583007812489,-18.46502044063088,373.9409],[-62.963549804687489,-18.450713800005886,372.1579],[-62.940576171874994,-18.389971612505889,364.5654],[-62.925048828125,-18.365557550005889,358.9016],[-62.915820312499989,-18.355498956255886,352.698],[-62.894873046874991,-18.33904387813088,343.9631],[-62.885986328125,-18.32952239375588,347.2505],[-62.881518554687489,-18.31707122188088,341.125],[-62.882226562499994,-18.29949309688088,339.5],[-62.889208984374989,-18.26604583125588,341.7705],[-62.88837890625,-18.24773528438088,340.5165],[-62.88251953125,-18.23040130000588,334.1145],[-62.854907226562489,-18.182647393755886,328.0],[-62.849707031249991,-18.165362237505889,325.75],[-62.847998046874991,-18.107256768755889,324.2376],[-62.8447265625,-18.087432550005886,327.2023],[-62.838720703124991,-18.06731536250588,328.8001],[-62.830517578125,-18.047881768755886,324.5207],[-62.820117187499989,-18.03020598750588,320.9802],[-62.807373046875,-18.013506768755889,315.462],[-62.80224609375,-18.00457122188088,317.4653],[-62.799560546875,-17.994463800005889,318.1587],[-62.800390624999991,-17.979034112505886,312.3834],[-62.808520507812489,-17.94988372188088,314.0309],[-62.810791015625,-17.93499114375588,313.8026],[-62.808764648437489,-17.92034270625588,306.0],[-62.802978515625,-17.90886809688088,305.4097],[-62.787280273437489,-17.885772393755886,309.6018],[-62.781835937499991,-17.868682550005886,300.0],[-62.773730468749989,-17.817217706255889,304.0463],[-62.773046874999991,-17.79876067500588,301.8475]]}}