{"type":"Feature","properties":{"featurecla":"River","scalerank":9,"rivernum":990,"dissolve":"990River","name":"San2","name_alt":null,"note":null,"min_zoom":7.1,"strokeweig":0.25,"name_en":"San Miguel","min_label":8.1},
"geometry":{"type": "LineString","coordinates": [[-63.25,-15.716631768755889,185.8779],[-63.265966796874991,-15.688995050005886,185.8495],[-63.288916015624991,-15.66668059688088,193.5308],[-63.321704101562489,-15.65300872188088,195.1232],[-63.352636718749991,-15.636260675005886,192.0809],[-63.363037109375,-15.60418059688088,188.8526],[-63.366308593749991,-15.56853606563088,197.1743],[-63.359375,-15.53386809688088,187.9751],[-63.358447265624989,-15.501299737505889,191.5909],[-63.379565429687489,-15.482256768755889,191.8326],[-63.388842773437489,-15.45623137813088,190.7619],[-63.39306640625,-15.41961028438088,198.2361],[-63.431933593749989,-15.245928643755889,192.537],[-63.455981445312489,-15.202666925005886,189.1238],[-63.46533203125,-15.163604425005886,190.7543],[-63.482714843749989,-15.12712981563088,186.0193],[-63.502368164062489,-15.10344817500588,188.7247],[-63.5634765625,-15.081377862505889,188.0838],[-63.587207031249989,-15.057647393755886,192.5995],[-63.638916015625,-15.044463800005886,174.8978],[-63.659472656249989,-15.00994231563088,175.697],[-63.67529296875,-14.971709893755886,187.1497],[-63.696337890624989,-14.90935637813088,170.6268],[-63.711108398437489,-14.84441497188088,180.1118]]}}