{"type":"Feature","properties":{"featurecla":"River","scalerank":9,"rivernum":990,"dissolve":"990River","name":"San4","name_alt":null,"note":null,"min_zoom":7.1,"strokeweig":0.25,"name_en":"San Miguel","min_label":8.1},
"geometry":{"type": "LineString","coordinates": [[-63.183349609375,-16.000030206255886,197.2986],[-63.185791015625,-15.980791925005889,200.0761],[-63.197363281249991,-15.96453215938088,203.7423],[-63.196875,-15.947100518755889,226.1878],[-63.197314453124989,-15.930498956255889,199.3536],[-63.203369140625,-15.91619231563088,194.29],[-63.2,-15.899932550005886,194.0225],[-63.2060546875,-15.881670831255889,200.5622],[-63.215185546874991,-15.864092706255889,202.0835],[-63.243212890624989,-15.83635833125588,194.6456],[-63.261083984374991,-15.804717706255886,196.5771],[-63.254248046874991,-15.760577081255889,188.9935],[-63.25,-15.716631768755889,185.8779]]}}