{"type":"Feature","properties":{"featurecla":"River","scalerank":8,"rivernum":696,"dissolve":"696River","name":"null58","name_alt":null,"note":null,"min_zoom":7.0,"strokeweig":0.15,"name_en":null,"min_label":8.0},
"geometry":{"type": "LineString","coordinates": [[-58.364306640624989,-16.43645598750588,111.7274],[-58.343359374999991,-16.47307708125588,98.8273],[-58.356787109374991,-16.50945403438088,99.5998],[-58.456591796874989,-16.618975518755889,96.6695],[-58.473388671875,-16.64959075313088,96.824],[-58.481005859374989,-16.68352630000588,96.545],[-58.477392578124991,-16.726885675005889,96.3091],[-58.45703125,-16.802276300005886,96.3134],[-58.453662109374989,-16.84124114375588,96.159]]}}