{"type":"Feature","properties":{"featurecla":"River","scalerank":8,"rivernum":696,"dissolve":"696River","name":"null60","name_alt":null,"note":null,"min_zoom":7.0,"strokeweig":0.25,"name_en":null,"min_label":8.0},
"geometry":{"type": "LineString","coordinates": [[-57.78828125,-17.62029387813088,91.8266],[-57.788671874999991,-17.65886809688088,100.8172],[-57.786669921874989,-17.67742278438088,111.6496],[-57.778613281249989,-17.69548919063088,90.6561],[-57.768237304687489,-17.70867278438088,90.1298],[-57.755615234375,-17.720538018755889,91.1178],[-57.741137695312489,-17.73015715938088,91.3343],[-57.725195312499991,-17.73650481563088,88.5],[-57.707128906249991,-17.737823175005886,88.5],[-57.672778320312489,-17.730987237505886,92.125],[-57.655371093749991,-17.730791925005889,93.549],[-57.639257812499991,-17.737139581255889,93.6462],[-57.627612304687489,-17.748858331255889,88.7669],[-57.607421875,-17.77654387813088,91.5025],[-57.605029296874989,-17.78826262813088,91.0],[-57.607714843749989,-17.80291106563088,91.7432],[-57.606787109374991,-17.81536223750588,91.592],[-57.59375,-17.82073333125588,91.6196],[-57.576025390624991,-17.824541925005889,90.7879],[-57.528857421874989,-17.854815362505889,90.2212],[-57.503955078124989,-17.862334893755886,90.1965],[-57.497851562499989,-17.86565520625588,91.784],[-57.47705078125,-17.890166925005886,90.0],[-57.469970703125,-17.89641692500588,90.3777],[-57.476904296874991,-17.929229425005886,91.2329],[-57.4736328125,-17.94475676875588,91.0013]]}}