{"type":"Feature","properties":{"featurecla":"Lake Centerline","scalerank":8,"rivernum":696,"dissolve":"696Lake Centerline","name":"null57","name_alt":null,"note":null,"min_zoom":7.0,"strokeweig":0.25,"name_en":null,"min_label":8.0},
"geometry":{"type": "LineString","coordinates": [[-57.78828125,-17.62200286250588,91.7492],[-57.78828125,-17.62029387813088,91.8266],[-57.790283203125,-17.604034112505886,90.2092],[-57.7890625,-17.58049895625588,91.0368],[-57.791552734374989,-17.55559661250588,89.5],[-57.801440429687489,-17.533233331255886,89.5],[-57.815112304687489,-17.51970794063088,89.5],[-57.837451171874989,-17.51091887813088,89.5],[-57.854833984374991,-17.50847747188088,89.5],[-57.872119140624989,-17.511260675005886,89.5]]}}